[{"province":"Banten","city":"Tangerang","district":"Mauk","urban":"Tegal Kunir Kidul","postal_code":15530},{"province":"Banten","city":"Tangerang","district":"Mauk","urban":"Tegal Kunir Lor","postal_code":15530},{"province":"Banten","city":"Tangerang","district":"Mauk","urban":"Tanjung Anom","postal_code":15530},{"province":"Banten","city":"Tangerang","district":"Sukadiri","urban":"Sukadiri","postal_code":15530},{"province":"Banten","city":"Tangerang","district":"Mauk","urban":"Sasak","postal_code":15530},{"province":"Banten","city":"Tangerang","district":"Sukadiri","urban":"Rawa Kidang","postal_code":15530},{"province":"Banten","city":"Tangerang","district":"Kemiri","urban":"Ranca Labuh","postal_code":15530},{"province":"Banten","city":"Tangerang","district":"Sukadiri","urban":"Pekayon","postal_code":15530},{"province":"Banten","city":"Tangerang","district":"Kemiri","urban":"Patra Manggala","postal_code":15530},{"province":"Banten","city":"Tangerang","district":"Sukadiri","urban":"Mekar Kondang","postal_code":15530},{"province":"Banten","city":"Tangerang","district":"Mauk","urban":"Mauk Timur","postal_code":15530},{"province":"Banten","city":"Tangerang","district":"Mauk","urban":"Marga Mulya","postal_code":15530},{"province":"Banten","city":"Tangerang","district":"Mauk","urban":"Mauk Barat","postal_code":15530},{"province":"Banten","city":"Tangerang","district":"Kemiri","urban":"Lontar","postal_code":15530},{"province":"Banten","city":"Tangerang","district":"Kemiri","urban":"Legok Sula Maju","postal_code":15530},{"province":"Banten","city":"Tangerang","district":"Sukadiri","urban":"Kosambi","postal_code":15530},{"province":"Banten","city":"Tangerang","district":"Mauk","urban":"Ketapang","postal_code":15530},{"province":"Banten","city":"Tangerang","district":"Kemiri","urban":"Kjlebet (Kelebet)","postal_code":15530},{"province":"Banten","city":"Tangerang","district":"Mauk","urban":"Kedung Dalem","postal_code":15530},{"province":"Banten","city":"Tangerang","district":"Kemiri","urban":"Kemiri","postal_code":15530},{"province":"Banten","city":"Tangerang","district":"Kemiri","urban":"Karang Anyar","postal_code":15530},{"province":"Banten","city":"Tangerang","district":"Sukadiri","urban":"Karang Serang","postal_code":15530},{"province":"Banten","city":"Tangerang","district":"Mauk","urban":"Jati Waringin","postal_code":15530},{"province":"Banten","city":"Tangerang","district":"Mauk","urban":"Gunung Sari","postal_code":15530},{"province":"Banten","city":"Tangerang","district":"Sukadiri","urban":"Gintung","postal_code":15530},{"province":"Banten","city":"Tangerang","district":"Mauk","urban":"Banyu Asih","postal_code":15530},{"province":"Banten","city":"Tangerang","district":"Sukadiri","urban":"Buaran Jati","postal_code":15530}]