[{"province":"Banten","city":"Tangerang","district":"Rajeg","urban":"Tanjakan Mekar","postal_code":15540},{"province":"Banten","city":"Tangerang","district":"Rajeg","urban":"Suka Sari","postal_code":15540},{"province":"Banten","city":"Tangerang","district":"Rajeg","urban":"Suka Tani","postal_code":15540},{"province":"Banten","city":"Tangerang","district":"Rajeg","urban":"Tanjakan","postal_code":15540},{"province":"Banten","city":"Tangerang","district":"Rajeg","urban":"Rajegmulya","postal_code":15540},{"province":"Banten","city":"Tangerang","district":"Rajeg","urban":"Ranca Bango","postal_code":15540},{"province":"Banten","city":"Tangerang","district":"Rajeg","urban":"Suka Manah","postal_code":15540},{"province":"Banten","city":"Tangerang","district":"Rajeg","urban":"Pangarengan","postal_code":15540},{"province":"Banten","city":"Tangerang","district":"Rajeg","urban":"Rajeg","postal_code":15540},{"province":"Banten","city":"Tangerang","district":"Rajeg","urban":"Jambu Karya","postal_code":15540},{"province":"Banten","city":"Tangerang","district":"Rajeg","urban":"Lembang Sari","postal_code":15540},{"province":"Banten","city":"Tangerang","district":"Rajeg","urban":"Mekarsari","postal_code":15540},{"province":"Banten","city":"Tangerang","district":"Rajeg","urban":"Daon","postal_code":15540},{"province":"Banten","city":"Tangerang","district":"Sindang Jaya","urban":"Badak Anom","postal_code":15540}]