[{"province":"Banten","city":"Tangerang","district":"Mekar Baru","urban":"Waliwis","postal_code":15550},{"province":"Banten","city":"Tangerang","district":"Kronjo","urban":"Pasir","postal_code":15550},{"province":"Banten","city":"Tangerang","district":"Kronjo","urban":"Pasilian","postal_code":15550},{"province":"Banten","city":"Tangerang","district":"Kronjo","urban":"Pagedangan Ilir","postal_code":15550},{"province":"Banten","city":"Tangerang","district":"Kronjo","urban":"Pagedangan Udik","postal_code":15550},{"province":"Banten","city":"Tangerang","district":"Kronjo","urban":"Pagenjahan","postal_code":15550},{"province":"Banten","city":"Tangerang","district":"Kronjo","urban":"Muncung","postal_code":15550},{"province":"Banten","city":"Tangerang","district":"Mekar Baru","urban":"Mekar Baru","postal_code":15550},{"province":"Banten","city":"Tangerang","district":"Kronjo","urban":"Kronjo","postal_code":15550},{"province":"Banten","city":"Tangerang","district":"Mekar Baru","urban":"Kosambi Dalam","postal_code":15550},{"province":"Banten","city":"Tangerang","district":"Mekar Baru","urban":"Jenggot","postal_code":15550},{"province":"Banten","city":"Tangerang","district":"Mekar Baru","urban":"Kedaung","postal_code":15550},{"province":"Banten","city":"Tangerang","district":"Mekar Baru","urban":"Klutuk","postal_code":15550},{"province":"Banten","city":"Tangerang","district":"Kronjo","urban":"Cirumpak","postal_code":15550},{"province":"Banten","city":"Tangerang","district":"Mekar Baru","urban":"Ganda Ria","postal_code":15550},{"province":"Banten","city":"Tangerang","district":"Mekar Baru","urban":"Cijeruk","postal_code":15550},{"province":"Banten","city":"Tangerang","district":"Kronjo","urban":"Blukbuk","postal_code":15550},{"province":"Banten","city":"Tangerang","district":"Kronjo","urban":"Bakung","postal_code":15550}]