[{"province":"Banten","city":"Tangerang","district":"Sindang Jaya","urban":"Wana Kerta","postal_code":15560},{"province":"Banten","city":"Tangerang","district":"Pasar Kemis","urban":"Sukamantri","postal_code":15560},{"province":"Banten","city":"Tangerang","district":"Pasar Kemis","urban":"Sukaasih","postal_code":15560},{"province":"Banten","city":"Tangerang","district":"Sindang Jaya","urban":"Suka Harja","postal_code":15560},{"province":"Banten","city":"Tangerang","district":"Pasar Kemis","urban":"Sindang Sari","postal_code":15560},{"province":"Banten","city":"Tangerang","district":"Sindang Jaya","urban":"Sindang Sono","postal_code":15560},{"province":"Banten","city":"Tangerang","district":"Sindang Jaya","urban":"Sindang Asih","postal_code":15560},{"province":"Banten","city":"Tangerang","district":"Sindang Jaya","urban":"Sindang Jaya","postal_code":15560},{"province":"Banten","city":"Tangerang","district":"Sindang Jaya","urban":"Sindang Panon","postal_code":15560},{"province":"Banten","city":"Tangerang","district":"Pasar Kemis","urban":"Pasar Kemis","postal_code":15560},{"province":"Banten","city":"Tangerang","district":"Pasar Kemis","urban":"Kuta Jaya","postal_code":15560},{"province":"Banten","city":"Tangerang","district":"Pasar Kemis","urban":"Pangadegan","postal_code":15560},{"province":"Banten","city":"Tangerang","district":"Pasar Kemis","urban":"Kuta Baru","postal_code":15560},{"province":"Banten","city":"Tangerang","district":"Pasar Kemis","urban":"Kuta Bumi","postal_code":15560},{"province":"Banten","city":"Tangerang","district":"Pasar Kemis","urban":"Gelam Jaya","postal_code":15560}]