[{"province":"Banten","city":"Tangerang","district":"Balaraja","urban":"Talagasari","postal_code":15610},{"province":"Banten","city":"Tangerang","district":"Balaraja","urban":"Tobat","postal_code":15610},{"province":"Banten","city":"Tangerang","district":"Jayanti","urban":"Sumur Bandung","postal_code":15610},{"province":"Banten","city":"Tangerang","district":"Balaraja","urban":"Suka Murni","postal_code":15610},{"province":"Banten","city":"Tangerang","district":"Sukamulya","urban":"Suka Mulya","postal_code":15610},{"province":"Banten","city":"Tangerang","district":"Balaraja","urban":"Saga","postal_code":15610},{"province":"Banten","city":"Tangerang","district":"Balaraja","urban":"Sentul","postal_code":15610},{"province":"Banten","city":"Tangerang","district":"Jayanti","urban":"Jayanti","postal_code":15610},{"province":"Banten","city":"Tangerang","district":"Balaraja","urban":"Sentul Jaya","postal_code":15610},{"province":"Banten","city":"Tangerang","district":"Balaraja","urban":"Gembong","postal_code":15610},{"province":"Banten","city":"Tangerang","district":"Jayanti","urban":"Pasir Muncang","postal_code":15610},{"province":"Banten","city":"Tangerang","district":"Jayanti","urban":"Dang Deur","postal_code":15610},{"province":"Banten","city":"Tangerang","district":"Jayanti","urban":"Pasir Gintung","postal_code":15610},{"province":"Banten","city":"Tangerang","district":"Jayanti","urban":"Cikande","postal_code":15610},{"province":"Banten","city":"Tangerang","district":"Sukamulya","urban":"Parahu","postal_code":15610},{"province":"Banten","city":"Tangerang","district":"Balaraja","urban":"Cangkudu","postal_code":15610},{"province":"Banten","city":"Tangerang","district":"Jayanti","urban":"Pabuaran","postal_code":15610},{"province":"Banten","city":"Tangerang","district":"Sukamulya","urban":"Bunar","postal_code":15610},{"province":"Banten","city":"Tangerang","district":"Jayanti","urban":"Pangkat","postal_code":15610},{"province":"Banten","city":"Tangerang","district":"Sukamulya","urban":"Merak","postal_code":15610},{"province":"Banten","city":"Tangerang","district":"Sukamulya","urban":"Buni Ayu","postal_code":15610},{"province":"Banten","city":"Tangerang","district":"Sukamulya","urban":"Kali Asin","postal_code":15610},{"province":"Banten","city":"Tangerang","district":"Balaraja","urban":"Balaraja","postal_code":15610},{"province":"Banten","city":"Tangerang","district":"Sukamulya","urban":"Kubang","postal_code":15610},{"province":"Banten","city":"Tangerang","district":"Sukamulya","urban":"Benda","postal_code":15610}]