[{"province":"Banten","city":"Tangerang","district":"Gunung Kaler","urban":"Tamiang","postal_code":15620},{"province":"Banten","city":"Tangerang","district":"Kresek","urban":"Talok","postal_code":15620},{"province":"Banten","city":"Tangerang","district":"Kresek","urban":"Ranca Ilat","postal_code":15620},{"province":"Banten","city":"Tangerang","district":"Kresek","urban":"Renged","postal_code":15620},{"province":"Banten","city":"Tangerang","district":"Gunung Kaler","urban":"Kanda Wati","postal_code":15620},{"province":"Banten","city":"Tangerang","district":"Gunung Kaler","urban":"Sidoko","postal_code":15620},{"province":"Banten","city":"Tangerang","district":"Gunung Kaler","urban":"Gunung Kaler","postal_code":15620},{"province":"Banten","city":"Tangerang","district":"Kresek","urban":"Patra Sana","postal_code":15620},{"province":"Banten","city":"Tangerang","district":"Gunung Kaler","urban":"Cipaeh","postal_code":15620},{"province":"Banten","city":"Tangerang","district":"Gunung Kaler","urban":"Ranca Gede","postal_code":15620},{"province":"Banten","city":"Tangerang","district":"Gunung Kaler","urban":"Cibetok","postal_code":15620},{"province":"Banten","city":"Tangerang","district":"Kresek","urban":"Pasir Ampo","postal_code":15620},{"province":"Banten","city":"Tangerang","district":"Gunung Kaler","urban":"Onyam","postal_code":15620},{"province":"Banten","city":"Tangerang","district":"Kresek","urban":"Koper","postal_code":15620},{"province":"Banten","city":"Tangerang","district":"Kresek","urban":"Kresek","postal_code":15620},{"province":"Banten","city":"Tangerang","district":"Kresek","urban":"Kemuning","postal_code":15620},{"province":"Banten","city":"Tangerang","district":"Gunung Kaler","urban":"Kedung","postal_code":15620},{"province":"Banten","city":"Tangerang","district":"Kresek","urban":"Jengkol","postal_code":15620}]