[{"province":"Banten","city":"Tangerang","district":"Cikupa","urban":"Talaga Sari","postal_code":15710},{"province":"Banten","city":"Tangerang","district":"Cikupa","urban":"Talaga","postal_code":15710},{"province":"Banten","city":"Tangerang","district":"Cikupa","urban":"Suka Mulya","postal_code":15710},{"province":"Banten","city":"Tangerang","district":"Cikupa","urban":"Suka Nagara","postal_code":15710},{"province":"Banten","city":"Tangerang","district":"Panongan","urban":"Serdang Kulon","postal_code":15710},{"province":"Banten","city":"Tangerang","district":"Cikupa","urban":"Suka Damai","postal_code":15710},{"province":"Banten","city":"Tangerang","district":"Panongan","urban":"Ranca Iyuh","postal_code":15710},{"province":"Banten","city":"Tangerang","district":"Panongan","urban":"Ranca Kalapa","postal_code":15710},{"province":"Banten","city":"Tangerang","district":"Cikupa","urban":"Pasir Jaya","postal_code":15710},{"province":"Banten","city":"Tangerang","district":"Panongan","urban":"Ciakar","postal_code":15710},{"province":"Banten","city":"Tangerang","district":"Panongan","urban":"Peusar","postal_code":15710},{"province":"Banten","city":"Tangerang","district":"Cikupa","urban":"Cibadak","postal_code":15710},{"province":"Banten","city":"Tangerang","district":"Cikupa","urban":"Pasir Gadung","postal_code":15710},{"province":"Banten","city":"Tangerang","district":"Cikupa","urban":"Bojong","postal_code":15710},{"province":"Banten","city":"Tangerang","district":"Panongan","urban":"Mekar Jaya","postal_code":15710},{"province":"Banten","city":"Tangerang","district":"Cikupa","urban":"Budi Mulya","postal_code":15710},{"province":"Banten","city":"Tangerang","district":"Panongan","urban":"Panongan","postal_code":15710},{"province":"Banten","city":"Tangerang","district":"Cikupa","urban":"Bunder","postal_code":15710},{"province":"Banten","city":"Tangerang","district":"Panongan","urban":"Mekar Bakti","postal_code":15710},{"province":"Banten","city":"Tangerang","district":"Cikupa","urban":"Bitung Jaya","postal_code":15710},{"province":"Banten","city":"Tangerang","district":"Cikupa","urban":"Cikupa","postal_code":15710},{"province":"Banten","city":"Tangerang","district":"Cikupa","urban":"Dukuh","postal_code":15710}]