[{"province":"Banten","city":"Tangerang","district":"Tigaraksa","urban":"Tegalsari","postal_code":15720},{"province":"Banten","city":"Tangerang","district":"Tigaraksa","urban":"Tigaraksa","postal_code":15720},{"province":"Banten","city":"Tangerang","district":"Jambe","urban":"Tipar Jaya (Tiparraya)","postal_code":15720},{"province":"Banten","city":"Tangerang","district":"Tigaraksa","urban":"Tapos","postal_code":15720},{"province":"Banten","city":"Tangerang","district":"Jambe","urban":"Taban","postal_code":15720},{"province":"Banten","city":"Tangerang","district":"Tigaraksa","urban":"Sodong","postal_code":15720},{"province":"Banten","city":"Tangerang","district":"Jambe","urban":"Suka Manah","postal_code":15720},{"province":"Banten","city":"Tangerang","district":"Jambe","urban":"Rancabuaya","postal_code":15720},{"province":"Banten","city":"Tangerang","district":"Tigaraksa","urban":"Pematang","postal_code":15720},{"province":"Banten","city":"Tangerang","district":"Tigaraksa","urban":"Pete","postal_code":15720},{"province":"Banten","city":"Tangerang","district":"Tigaraksa","urban":"Pasir Nangka","postal_code":15720},{"province":"Banten","city":"Tangerang","district":"Tigaraksa","urban":"Pasir Bolang","postal_code":15720},{"province":"Banten","city":"Tangerang","district":"Jambe","urban":"Pasir Barat","postal_code":15720},{"province":"Banten","city":"Tangerang","district":"Jambe","urban":"Mekarsari","postal_code":15720},{"province":"Banten","city":"Tangerang","district":"Tigaraksa","urban":"Mata Gara","postal_code":15720},{"province":"Banten","city":"Tangerang","district":"Jambe","urban":"Kutruk","postal_code":15720},{"province":"Banten","city":"Tangerang","district":"Tigaraksa","urban":"Cileles","postal_code":15720},{"province":"Banten","city":"Tangerang","district":"Tigaraksa","urban":"Kadu Agung","postal_code":15720},{"province":"Banten","city":"Tangerang","district":"Tigaraksa","urban":"Cisereh","postal_code":15720},{"province":"Banten","city":"Tangerang","district":"Tigaraksa","urban":"Marga Sari","postal_code":15720},{"province":"Banten","city":"Tangerang","district":"Tigaraksa","urban":"Bantar Panjang","postal_code":15720},{"province":"Banten","city":"Tangerang","district":"Jambe","urban":"Daru","postal_code":15720},{"province":"Banten","city":"Tangerang","district":"Jambe","urban":"Ancol Pasir","postal_code":15720},{"province":"Banten","city":"Tangerang","district":"Jambe","urban":"Jambe","postal_code":15720}]