[{"province":"Banten","city":"Tangerang","district":"Solear","urban":"Solear","postal_code":15730},{"province":"Banten","city":"Tangerang","district":"Cisoka","urban":"Sukatani","postal_code":15730},{"province":"Banten","city":"Tangerang","district":"Solear","urban":"Pasanggrahan","postal_code":15730},{"province":"Banten","city":"Tangerang","district":"Cisoka","urban":"Selapajang","postal_code":15730},{"province":"Banten","city":"Tangerang","district":"Solear","urban":"Munjul","postal_code":15730},{"province":"Banten","city":"Tangerang","district":"Cisoka","urban":"Karangharja","postal_code":15730},{"province":"Banten","city":"Tangerang","district":"Cisoka","urban":"Jeung Jing","postal_code":15730},{"province":"Banten","city":"Tangerang","district":"Cisoka","urban":"Cisoka","postal_code":15730},{"province":"Banten","city":"Tangerang","district":"Solear","urban":"Cireundeu","postal_code":15730},{"province":"Banten","city":"Tangerang","district":"Solear","urban":"Cikasungka","postal_code":15730},{"province":"Banten","city":"Tangerang","district":"Solear","urban":"Cikuya","postal_code":15730},{"province":"Banten","city":"Tangerang","district":"Solear","urban":"Cikareo","postal_code":15730},{"province":"Banten","city":"Tangerang","district":"Cisoka","urban":"Caringin","postal_code":15730},{"province":"Banten","city":"Tangerang","district":"Cisoka","urban":"Cempaka","postal_code":15730},{"province":"Banten","city":"Tangerang","district":"Cisoka","urban":"Cibugel","postal_code":15730},{"province":"Banten","city":"Tangerang","district":"Cisoka","urban":"Bojongloa","postal_code":15730},{"province":"Banten","city":"Tangerang","district":"Cisoka","urban":"Carenang","postal_code":15730}]