[{"province":"Banten","city":"Tangerang","district":"Kelapa Dua","urban":"Pakulonan Barat","postal_code":15810},{"province":"Banten","city":"Tangerang","district":"Curug","urban":"Suka Bakti","postal_code":15810},{"province":"Banten","city":"Tangerang","district":"Kelapa Dua","urban":"Kelapa Dua","postal_code":15810},{"province":"Banten","city":"Tangerang","district":"Curug","urban":"Kadu","postal_code":15810},{"province":"Banten","city":"Tangerang","district":"Curug","urban":"Kadu Jaya","postal_code":15810},{"province":"Banten","city":"Tangerang","district":"Kelapa Dua","urban":"Curug Sangerang (Curug Sangereng)","postal_code":15810},{"province":"Banten","city":"Tangerang","district":"Curug","urban":"Curug Wetan","postal_code":15810},{"province":"Banten","city":"Tangerang","district":"Kelapa Dua","urban":"Bojong Nangka","postal_code":15810},{"province":"Banten","city":"Tangerang","district":"Curug","urban":"Cukang Galih","postal_code":15810},{"province":"Banten","city":"Tangerang","district":"Curug","urban":"Curug Kulon","postal_code":15810},{"province":"Banten","city":"Tangerang","district":"Kelapa Dua","urban":"Bencongan Indah","postal_code":15810},{"province":"Banten","city":"Tangerang","district":"Curug","urban":"Binong","postal_code":15810},{"province":"Banten","city":"Tangerang","district":"Kelapa Dua","urban":"Bencongan","postal_code":15810}]