[{"province":"Jawa Barat","city":"Bogor","district":"Kemang","urban":"Tegal","postal_code":16310},{"province":"Jawa Barat","city":"Bogor","district":"Kemang","urban":"Semplak Barat","postal_code":16310},{"province":"Jawa Barat","city":"Bogor","district":"Ranca Bungur","urban":"Rancabungur","postal_code":16310},{"province":"Jawa Barat","city":"Bogor","district":"Kemang","urban":"Pondok Udik","postal_code":16310},{"province":"Jawa Barat","city":"Bogor","district":"Ranca Bungur","urban":"Pasirgaok","postal_code":16310},{"province":"Jawa Barat","city":"Bogor","district":"Kemang","urban":"Pabuaran","postal_code":16310},{"province":"Jawa Barat","city":"Bogor","district":"Kemang","urban":"Parakan Jaya","postal_code":16310},{"province":"Jawa Barat","city":"Bogor","district":"Ranca Bungur","urban":"Mekarsari","postal_code":16310},{"province":"Jawa Barat","city":"Bogor","district":"Kemang","urban":"Kemang","postal_code":16310},{"province":"Jawa Barat","city":"Bogor","district":"Ranca Bungur","urban":"Candali","postal_code":16310},{"province":"Jawa Barat","city":"Bogor","district":"Kemang","urban":"Jampang","postal_code":16310},{"province":"Jawa Barat","city":"Bogor","district":"Ranca Bungur","urban":"Bantarsari","postal_code":16310},{"province":"Jawa Barat","city":"Bogor","district":"Kemang","urban":"Bojong","postal_code":16310},{"province":"Jawa Barat","city":"Bogor","district":"Ranca Bungur","urban":"Bantarjaya","postal_code":16310},{"province":"Jawa Barat","city":"Bogor","district":"Kemang","urban":"Atang Senjaya","postal_code":16310}]