[{"province":"Jawa Barat","city":"Bogor","district":"Gunung Sindur","urban":"Pengasinan","postal_code":16340},{"province":"Jawa Barat","city":"Bogor","district":"Gunung Sindur","urban":"Rawakalong","postal_code":16340},{"province":"Jawa Barat","city":"Bogor","district":"Gunung Sindur","urban":"Pabuaran","postal_code":16340},{"province":"Jawa Barat","city":"Bogor","district":"Gunung Sindur","urban":"Padurenan","postal_code":16340},{"province":"Jawa Barat","city":"Bogor","district":"Gunung Sindur","urban":"Gunung Sindur","postal_code":16340},{"province":"Jawa Barat","city":"Bogor","district":"Gunung Sindur","urban":"Jampang","postal_code":16340},{"province":"Jawa Barat","city":"Bogor","district":"Gunung Sindur","urban":"Curug","postal_code":16340},{"province":"Jawa Barat","city":"Bogor","district":"Gunung Sindur","urban":"Cidokom","postal_code":16340},{"province":"Jawa Barat","city":"Bogor","district":"Gunung Sindur","urban":"Cibinong","postal_code":16340},{"province":"Jawa Barat","city":"Bogor","district":"Gunung Sindur","urban":"Cibadung","postal_code":16340}]