[{"province":"Jawa Barat","city":"Bogor","district":"Rumpin","urban":"Sukasari","postal_code":16350},{"province":"Jawa Barat","city":"Bogor","district":"Rumpin","urban":"Taman Sari","postal_code":16350},{"province":"Jawa Barat","city":"Bogor","district":"Rumpin","urban":"Rabak","postal_code":16350},{"province":"Jawa Barat","city":"Bogor","district":"Rumpin","urban":"Rumpin","postal_code":16350},{"province":"Jawa Barat","city":"Bogor","district":"Rumpin","urban":"Sukamulya","postal_code":16350},{"province":"Jawa Barat","city":"Bogor","district":"Rumpin","urban":"Leuwibatu","postal_code":16350},{"province":"Jawa Barat","city":"Bogor","district":"Rumpin","urban":"Mekar Sari","postal_code":16350},{"province":"Jawa Barat","city":"Bogor","district":"Rumpin","urban":"Mekarjaya","postal_code":16350},{"province":"Jawa Barat","city":"Bogor","district":"Rumpin","urban":"Gobang","postal_code":16350},{"province":"Jawa Barat","city":"Bogor","district":"Rumpin","urban":"Kampung Sawah","postal_code":16350},{"province":"Jawa Barat","city":"Bogor","district":"Rumpin","urban":"Kerta Jaya","postal_code":16350},{"province":"Jawa Barat","city":"Bogor","district":"Rumpin","urban":"Cidokom","postal_code":16350},{"province":"Jawa Barat","city":"Bogor","district":"Rumpin","urban":"Cipinang","postal_code":16350},{"province":"Jawa Barat","city":"Bogor","district":"Rumpin","urban":"Cibodas","postal_code":16350}]