[{"province":"Jawa Barat","city":"Bogor","district":"Tenjo","urban":"Tenjo","postal_code":16370},{"province":"Jawa Barat","city":"Bogor","district":"Tenjolaya","urban":"Tapos 1","postal_code":16370},{"province":"Jawa Barat","city":"Bogor","district":"Tenjolaya","urban":"Tapos 2","postal_code":16370},{"province":"Jawa Barat","city":"Bogor","district":"Tenjo","urban":"Tapos","postal_code":16370},{"province":"Jawa Barat","city":"Bogor","district":"Tenjolaya","urban":"Situ Daun","postal_code":16370},{"province":"Jawa Barat","city":"Bogor","district":"Tenjo","urban":"Singabangsa","postal_code":16370},{"province":"Jawa Barat","city":"Bogor","district":"Tenjo","urban":"Singabraja","postal_code":16370},{"province":"Jawa Barat","city":"Bogor","district":"Tenjolaya","urban":"Cinangneng","postal_code":16370},{"province":"Jawa Barat","city":"Bogor","district":"Tenjolaya","urban":"Gunung Malang","postal_code":16370},{"province":"Jawa Barat","city":"Bogor","district":"Tenjo","urban":"Ciomas","postal_code":16370},{"province":"Jawa Barat","city":"Bogor","district":"Tenjolaya","urban":"Cibitung Tengah","postal_code":16370},{"province":"Jawa Barat","city":"Bogor","district":"Tenjo","urban":"Cilaku","postal_code":16370},{"province":"Jawa Barat","city":"Bogor","district":"Tenjo","urban":"Babakan","postal_code":16370},{"province":"Jawa Barat","city":"Bogor","district":"Tenjo","urban":"Batok","postal_code":16370},{"province":"Jawa Barat","city":"Bogor","district":"Tenjo","urban":"Bojong","postal_code":16370}]