[{"province":"Jawa Barat","city":"Bogor","district":"Tamansari","urban":"Tamansari","postal_code":16610},{"province":"Jawa Barat","city":"Bogor","district":"Tamansari","urban":"Sukamantri","postal_code":16610},{"province":"Jawa Barat","city":"Bogor","district":"Tamansari","urban":"Sukaresmi","postal_code":16610},{"province":"Jawa Barat","city":"Bogor","district":"Ciomas","urban":"Sukamakmur","postal_code":16610},{"province":"Jawa Barat","city":"Bogor","district":"Tamansari","urban":"Sukaluyu","postal_code":16610},{"province":"Jawa Barat","city":"Bogor","district":"Tamansari","urban":"Sukajaya","postal_code":16610},{"province":"Jawa Barat","city":"Bogor","district":"Ciomas","urban":"Sukaharja","postal_code":16610},{"province":"Jawa Barat","city":"Bogor","district":"Tamansari","urban":"Sirnagalih","postal_code":16610},{"province":"Jawa Barat","city":"Bogor","district":"Tamansari","urban":"Sukajadi","postal_code":16610},{"province":"Jawa Barat","city":"Bogor","district":"Ciomas","urban":"Parakan","postal_code":16610},{"province":"Jawa Barat","city":"Bogor","district":"Tamansari","urban":"Pasireurih","postal_code":16610},{"province":"Jawa Barat","city":"Bogor","district":"Ciomas","urban":"Padasuka","postal_code":16610},{"province":"Jawa Barat","city":"Bogor","district":"Ciomas","urban":"Pagelaran","postal_code":16610},{"province":"Jawa Barat","city":"Bogor","district":"Ciomas","urban":"Mekarjaya","postal_code":16610},{"province":"Jawa Barat","city":"Bogor","district":"Ciomas","urban":"Kota Batu","postal_code":16610},{"province":"Jawa Barat","city":"Bogor","district":"Ciomas","urban":"Laladon","postal_code":16610},{"province":"Jawa Barat","city":"Bogor","district":"Ciomas","urban":"Ciomas Rahayu","postal_code":16610},{"province":"Jawa Barat","city":"Bogor","district":"Ciomas","urban":"Ciapus","postal_code":16610},{"province":"Jawa Barat","city":"Bogor","district":"Ciomas","urban":"Ciomas","postal_code":16610}]