[{"province":"Jawa Barat","city":"Bogor","district":"Leuwisadeng","urban":"Wangun Jaya","postal_code":16640},{"province":"Jawa Barat","city":"Bogor","district":"Leuwisadeng","urban":"Sibanteng","postal_code":16640},{"province":"Jawa Barat","city":"Bogor","district":"Leuwisadeng","urban":"Sadeng","postal_code":16640},{"province":"Jawa Barat","city":"Bogor","district":"Leuwisadeng","urban":"Sadengkolot","postal_code":16640},{"province":"Jawa Barat","city":"Bogor","district":"Leuwiliang","urban":"Pabangbon","postal_code":16640},{"province":"Jawa Barat","city":"Bogor","district":"Leuwiliang","urban":"Purasari","postal_code":16640},{"province":"Jawa Barat","city":"Bogor","district":"Leuwiliang","urban":"Puraseda","postal_code":16640},{"province":"Jawa Barat","city":"Bogor","district":"Leuwiliang","urban":"Leuwimekar","postal_code":16640},{"province":"Jawa Barat","city":"Bogor","district":"Leuwisadeng","urban":"Leuwisadeng","postal_code":16640},{"province":"Jawa Barat","city":"Bogor","district":"Leuwiliang","urban":"Karyasari","postal_code":16640},{"province":"Jawa Barat","city":"Bogor","district":"Leuwiliang","urban":"Leuwiliang","postal_code":16640},{"province":"Jawa Barat","city":"Bogor","district":"Leuwisadeng","urban":"Kalong 2","postal_code":16640},{"province":"Jawa Barat","city":"Bogor","district":"Leuwiliang","urban":"Karacak","postal_code":16640},{"province":"Jawa Barat","city":"Bogor","district":"Leuwiliang","urban":"Karehkel","postal_code":16640},{"province":"Jawa Barat","city":"Bogor","district":"Leuwisadeng","urban":"Kalong 1","postal_code":16640},{"province":"Jawa Barat","city":"Bogor","district":"Leuwiliang","urban":"Cibeber 2","postal_code":16640},{"province":"Jawa Barat","city":"Bogor","district":"Leuwiliang","urban":"Barengkok","postal_code":16640},{"province":"Jawa Barat","city":"Bogor","district":"Leuwiliang","urban":"Cibeber 1","postal_code":16640},{"province":"Jawa Barat","city":"Bogor","district":"Leuwisadeng","urban":"Babakan Sadeng","postal_code":16640}]