[{"province":"Jawa Barat","city":"Bogor","district":"Nanggung","urban":"Pangkal Jaya","postal_code":16650},{"province":"Jawa Barat","city":"Bogor","district":"Nanggung","urban":"Parakan Muncang","postal_code":16650},{"province":"Jawa Barat","city":"Bogor","district":"Nanggung","urban":"Sukaluyu","postal_code":16650},{"province":"Jawa Barat","city":"Bogor","district":"Nanggung","urban":"Nanggung","postal_code":16650},{"province":"Jawa Barat","city":"Bogor","district":"Nanggung","urban":"Kalong Liud","postal_code":16650},{"province":"Jawa Barat","city":"Bogor","district":"Nanggung","urban":"Malasari","postal_code":16650},{"province":"Jawa Barat","city":"Bogor","district":"Nanggung","urban":"Hambaro","postal_code":16650},{"province":"Jawa Barat","city":"Bogor","district":"Nanggung","urban":"Cisarua","postal_code":16650},{"province":"Jawa Barat","city":"Bogor","district":"Nanggung","urban":"Curug Bitung","postal_code":16650},{"province":"Jawa Barat","city":"Bogor","district":"Nanggung","urban":"Bantar Karet","postal_code":16650}]