[{"province":"Jawa Barat","city":"Bogor","district":"Cigudeg","urban":"Wargajaya","postal_code":16660},{"province":"Jawa Barat","city":"Bogor","district":"Sukajaya","urban":"Urug","postal_code":16660},{"province":"Jawa Barat","city":"Bogor","district":"Cigudeg","urban":"Tegallega","postal_code":16660},{"province":"Jawa Barat","city":"Bogor","district":"Sukajaya","urban":"Sukamulih","postal_code":16660},{"province":"Jawa Barat","city":"Bogor","district":"Cigudeg","urban":"Sukaraksa","postal_code":16660},{"province":"Jawa Barat","city":"Bogor","district":"Cigudeg","urban":"Sukamaju","postal_code":16660},{"province":"Jawa Barat","city":"Bogor","district":"Sukajaya","urban":"Sukajaya","postal_code":16660},{"province":"Jawa Barat","city":"Bogor","district":"Sukajaya","urban":"Sipayung","postal_code":16660},{"province":"Jawa Barat","city":"Bogor","district":"Cigudeg","urban":"Mekarjaya","postal_code":16660},{"province":"Jawa Barat","city":"Bogor","district":"Cigudeg","urban":"Rengasjajar","postal_code":16660},{"province":"Jawa Barat","city":"Bogor","district":"Sukajaya","urban":"Pasir Madang","postal_code":16660},{"province":"Jawa Barat","city":"Bogor","district":"Sukajaya","urban":"Kiara Pandak","postal_code":16660},{"province":"Jawa Barat","city":"Bogor","district":"Sukajaya","urban":"Kiarasari","postal_code":16660},{"province":"Jawa Barat","city":"Bogor","district":"Sukajaya","urban":"Cisarua","postal_code":16660},{"province":"Jawa Barat","city":"Bogor","district":"Sukajaya","urban":"Harkatjaya","postal_code":16660},{"province":"Jawa Barat","city":"Bogor","district":"Sukajaya","urban":"Jayaraharja","postal_code":16660},{"province":"Jawa Barat","city":"Bogor","district":"Cigudeg","urban":"Cintamanik","postal_code":16660},{"province":"Jawa Barat","city":"Bogor","district":"Sukajaya","urban":"Cileuksa","postal_code":16660},{"province":"Jawa Barat","city":"Bogor","district":"Cigudeg","urban":"Bunar","postal_code":16660},{"province":"Jawa Barat","city":"Bogor","district":"Cigudeg","urban":"Cigudeg","postal_code":16660},{"province":"Jawa Barat","city":"Bogor","district":"Cigudeg","urban":"Batu Jajar","postal_code":16660},{"province":"Jawa Barat","city":"Bogor","district":"Cigudeg","urban":"Banyu Asih","postal_code":16660},{"province":"Jawa Barat","city":"Bogor","district":"Cigudeg","urban":"Banyu Resmi","postal_code":16660},{"province":"Jawa Barat","city":"Bogor","district":"Cigudeg","urban":"Banyu Wangi","postal_code":16660},{"province":"Jawa Barat","city":"Bogor","district":"Cigudeg","urban":"Argapura","postal_code":16660},{"province":"Jawa Barat","city":"Bogor","district":"Cigudeg","urban":"Bangunjaya","postal_code":16660}]