[{"province":"Jawa Barat","city":"Bogor","district":"Jasinga","urban":"Setu","postal_code":16670},{"province":"Jawa Barat","city":"Bogor","district":"Jasinga","urban":"Sipak","postal_code":16670},{"province":"Jawa Barat","city":"Bogor","district":"Jasinga","urban":"Tegal Wangi","postal_code":16670},{"province":"Jawa Barat","city":"Bogor","district":"Jasinga","urban":"Pangaur","postal_code":16670},{"province":"Jawa Barat","city":"Bogor","district":"Jasinga","urban":"Pangradin","postal_code":16670},{"province":"Jawa Barat","city":"Bogor","district":"Jasinga","urban":"Neglasari","postal_code":16670},{"province":"Jawa Barat","city":"Bogor","district":"Jasinga","urban":"Pamagersari","postal_code":16670},{"province":"Jawa Barat","city":"Bogor","district":"Jasinga","urban":"Jugala Jaya","postal_code":16670},{"province":"Jawa Barat","city":"Bogor","district":"Jasinga","urban":"Kalongsawah","postal_code":16670},{"province":"Jawa Barat","city":"Bogor","district":"Jasinga","urban":"Koleang","postal_code":16670},{"province":"Jawa Barat","city":"Bogor","district":"Jasinga","urban":"Jasinga","postal_code":16670},{"province":"Jawa Barat","city":"Bogor","district":"Jasinga","urban":"Barengkok","postal_code":16670},{"province":"Jawa Barat","city":"Bogor","district":"Jasinga","urban":"Cikopomayak","postal_code":16670},{"province":"Jawa Barat","city":"Bogor","district":"Jasinga","urban":"Curug","postal_code":16670},{"province":"Jawa Barat","city":"Bogor","district":"Jasinga","urban":"Bagoang","postal_code":16670}]