[{"province":"Jawa Barat","city":"Bogor","district":"Sukaraja","urban":"Pasirlaja","postal_code":16710},{"province":"Jawa Barat","city":"Bogor","district":"Sukaraja","urban":"Sukaraja","postal_code":16710},{"province":"Jawa Barat","city":"Bogor","district":"Sukaraja","urban":"Sukatani","postal_code":16710},{"province":"Jawa Barat","city":"Bogor","district":"Klapa Nunggal (Kelapa Nunggal)","urban":"Nambo","postal_code":16710},{"province":"Jawa Barat","city":"Bogor","district":"Sukaraja","urban":"Nagrak","postal_code":16710},{"province":"Jawa Barat","city":"Bogor","district":"Sukaraja","urban":"Pasir Jambu","postal_code":16710},{"province":"Jawa Barat","city":"Bogor","district":"Klapa Nunggal (Kelapa Nunggal)","urban":"Lulut","postal_code":16710},{"province":"Jawa Barat","city":"Bogor","district":"Klapa Nunggal (Kelapa Nunggal)","urban":"Ligarmukti","postal_code":16710},{"province":"Jawa Barat","city":"Bogor","district":"Klapa Nunggal (Kelapa Nunggal)","urban":"Kembang Kuning","postal_code":16710},{"province":"Jawa Barat","city":"Bogor","district":"Klapa Nunggal (Kelapa Nunggal)","urban":"Klapanunggal","postal_code":16710},{"province":"Jawa Barat","city":"Bogor","district":"Klapa Nunggal (Kelapa Nunggal)","urban":"Leuwikaret","postal_code":16710},{"province":"Jawa Barat","city":"Bogor","district":"Sukaraja","urban":"Cimandala","postal_code":16710},{"province":"Jawa Barat","city":"Bogor","district":"Sukaraja","urban":"Gunung Geulis","postal_code":16710},{"province":"Jawa Barat","city":"Bogor","district":"Sukaraja","urban":"Cilebut Barat","postal_code":16710},{"province":"Jawa Barat","city":"Bogor","district":"Sukaraja","urban":"Cilebut Timur","postal_code":16710},{"province":"Jawa Barat","city":"Bogor","district":"Sukaraja","urban":"Cijujung","postal_code":16710},{"province":"Jawa Barat","city":"Bogor","district":"Sukaraja","urban":"Cikeas","postal_code":16710},{"province":"Jawa Barat","city":"Bogor","district":"Klapa Nunggal (Kelapa Nunggal)","urban":"Cikahuripan","postal_code":16710},{"province":"Jawa Barat","city":"Bogor","district":"Sukaraja","urban":"Cadas Ngampar","postal_code":16710},{"province":"Jawa Barat","city":"Bogor","district":"Sukaraja","urban":"Cibanon","postal_code":16710},{"province":"Jawa Barat","city":"Bogor","district":"Klapa Nunggal (Kelapa Nunggal)","urban":"Bantar Jati","postal_code":16710},{"province":"Jawa Barat","city":"Bogor","district":"Klapa Nunggal (Kelapa Nunggal)","urban":"Bojong","postal_code":16710}]