[{"province":"Jawa Barat","city":"Bogor","district":"Ciawi","urban":"Teluk Pinang","postal_code":16720},{"province":"Jawa Barat","city":"Bogor","district":"Ciawi","urban":"Jambu Luwuk","postal_code":16720},{"province":"Jawa Barat","city":"Bogor","district":"Ciawi","urban":"Pandansari","postal_code":16720},{"province":"Jawa Barat","city":"Bogor","district":"Ciawi","urban":"Ciawi","postal_code":16720},{"province":"Jawa Barat","city":"Bogor","district":"Ciawi","urban":"Cibedug","postal_code":16720},{"province":"Jawa Barat","city":"Bogor","district":"Ciawi","urban":"Cileungsi","postal_code":16720},{"province":"Jawa Barat","city":"Bogor","district":"Ciawi","urban":"Citapen","postal_code":16720},{"province":"Jawa Barat","city":"Bogor","district":"Ciawi","urban":"Bitung Sari","postal_code":16720},{"province":"Jawa Barat","city":"Bogor","district":"Ciawi","urban":"Bojong Murni","postal_code":16720},{"province":"Jawa Barat","city":"Bogor","district":"Ciawi","urban":"Banjar Waru","postal_code":16720},{"province":"Jawa Barat","city":"Bogor","district":"Ciawi","urban":"Bendungan","postal_code":16720},{"province":"Jawa Barat","city":"Bogor","district":"Ciawi","urban":"Banjar Wangi","postal_code":16720},{"province":"Jawa Barat","city":"Bogor","district":"Ciawi","urban":"Banjar Sari","postal_code":16720}]