[{"province":"Jawa Barat","city":"Bogor","district":"Citeureup","urban":"Tajur","postal_code":16810},{"province":"Jawa Barat","city":"Bogor","district":"Citeureup","urban":"Tangkil","postal_code":16810},{"province":"Jawa Barat","city":"Bogor","district":"Citeureup","urban":"Tarikolot","postal_code":16810},{"province":"Jawa Barat","city":"Bogor","district":"Babakan Madang","urban":"Sentul","postal_code":16810},{"province":"Jawa Barat","city":"Bogor","district":"Babakan Madang","urban":"Sumur Batu","postal_code":16810},{"province":"Jawa Barat","city":"Bogor","district":"Citeureup","urban":"Sukahati","postal_code":16810},{"province":"Jawa Barat","city":"Bogor","district":"Citeureup","urban":"Puspasari","postal_code":16810},{"province":"Jawa Barat","city":"Bogor","district":"Citeureup","urban":"Sanja","postal_code":16810},{"province":"Jawa Barat","city":"Bogor","district":"Pamijahan","urban":"Purwabakti","postal_code":16810},{"province":"Jawa Barat","city":"Bogor","district":"Citeureup","urban":"Puspanegara","postal_code":16810},{"province":"Jawa Barat","city":"Bogor","district":"Citeureup","urban":"Pasir Mukti","postal_code":16810},{"province":"Jawa Barat","city":"Bogor","district":"Pamijahan","urban":"Pasarean","postal_code":16810},{"province":"Jawa Barat","city":"Bogor","district":"Citeureup","urban":"Leuwinutug","postal_code":16810},{"province":"Jawa Barat","city":"Bogor","district":"Pamijahan","urban":"Pamijahan","postal_code":16810},{"province":"Jawa Barat","city":"Bogor","district":"Citeureup","urban":"Karang Asem Timur","postal_code":16810},{"province":"Jawa Barat","city":"Bogor","district":"Babakan Madang","urban":"Karang Tengah","postal_code":16810},{"province":"Jawa Barat","city":"Bogor","district":"Citeureup","urban":"Karang Asem Barat","postal_code":16810},{"province":"Jawa Barat","city":"Bogor","district":"Babakan Madang","urban":"Kadumangu","postal_code":16810},{"province":"Jawa Barat","city":"Bogor","district":"Citeureup","urban":"Gunung Sari","postal_code":16810},{"province":"Jawa Barat","city":"Bogor","district":"Citeureup","urban":"Hambalang","postal_code":16810},{"province":"Jawa Barat","city":"Bogor","district":"Citeureup","urban":"Hambalang","postal_code":16810},{"province":"Jawa Barat","city":"Bogor","district":"Pamijahan","urban":"Gunung Menyan","postal_code":16810},{"province":"Jawa Barat","city":"Bogor","district":"Pamijahan","urban":"Gunung Picung","postal_code":16810},{"province":"Jawa Barat","city":"Bogor","district":"Pamijahan","urban":"Gunung Bunder 1","postal_code":16810},{"province":"Jawa Barat","city":"Bogor","district":"Pamijahan","urban":"Gunung Bunder 2","postal_code":16810},{"province":"Jawa Barat","city":"Bogor","district":"Citeureup","urban":"Citeureup","postal_code":16810},{"province":"Jawa Barat","city":"Bogor","district":"Babakan Madang","urban":"Cipambuan","postal_code":16810},{"province":"Jawa Barat","city":"Bogor","district":"Babakan Madang","urban":"Citaringgul","postal_code":16810},{"province":"Jawa Barat","city":"Bogor","district":"Pamijahan","urban":"Cimayang","postal_code":16810},{"province":"Jawa Barat","city":"Bogor","district":"Babakan Madang","urban":"Cijayanti","postal_code":16810},{"province":"Jawa Barat","city":"Bogor","district":"Pamijahan","urban":"Cibunian","postal_code":16810},{"province":"Jawa Barat","city":"Bogor","district":"Pamijahan","urban":"Cibitung Kulon","postal_code":16810},{"province":"Jawa Barat","city":"Bogor","district":"Pamijahan","urban":"Cibitung Wetan","postal_code":16810},{"province":"Jawa Barat","city":"Bogor","district":"Pamijahan","urban":"Ciasmara","postal_code":16810},{"province":"Jawa Barat","city":"Bogor","district":"Pamijahan","urban":"Cibening","postal_code":16810},{"province":"Jawa Barat","city":"Bogor","district":"Babakan Madang","urban":"Bojong Koneng","postal_code":16810},{"province":"Jawa Barat","city":"Bogor","district":"Pamijahan","urban":"Ciasihan","postal_code":16810},{"province":"Jawa Barat","city":"Bogor","district":"Babakan Madang","urban":"Babakan Madang","postal_code":16810}]