[{"province":"Jawa Barat","city":"Bogor","district":"Jonggol","urban":"Weninggalih","postal_code":16830},{"province":"Jawa Barat","city":"Bogor","district":"Sukamakmur","urban":"Wargajaya","postal_code":16830},{"province":"Jawa Barat","city":"Bogor","district":"Sukamakmur","urban":"Sukawangi","postal_code":16830},{"province":"Jawa Barat","city":"Bogor","district":"Jonggol","urban":"Sukasirna","postal_code":16830},{"province":"Jawa Barat","city":"Bogor","district":"Sukamakmur","urban":"Sukaresmi","postal_code":16830},{"province":"Jawa Barat","city":"Bogor","district":"Jonggol","urban":"Sukanegara","postal_code":16830},{"province":"Jawa Barat","city":"Bogor","district":"Sukamakmur","urban":"Sukamulya","postal_code":16830},{"province":"Jawa Barat","city":"Bogor","district":"Jonggol","urban":"Sukamanah","postal_code":16830},{"province":"Jawa Barat","city":"Bogor","district":"Sukamakmur","urban":"Sukamakmur","postal_code":16830},{"province":"Jawa Barat","city":"Bogor","district":"Jonggol","urban":"Sukamaju","postal_code":16830},{"province":"Jawa Barat","city":"Bogor","district":"Sukamakmur","urban":"Sukaharja","postal_code":16830},{"province":"Jawa Barat","city":"Bogor","district":"Jonggol","urban":"Sukajaya","postal_code":16830},{"province":"Jawa Barat","city":"Bogor","district":"Sukamakmur","urban":"Sukadamai","postal_code":16830},{"province":"Jawa Barat","city":"Bogor","district":"Jonggol","urban":"Sukagalih","postal_code":16830},{"province":"Jawa Barat","city":"Bogor","district":"Sukamakmur","urban":"Sirnajaya","postal_code":16830},{"province":"Jawa Barat","city":"Bogor","district":"Jonggol","urban":"Sirnagalih","postal_code":16830},{"province":"Jawa Barat","city":"Bogor","district":"Sukamakmur","urban":"Pabuaran","postal_code":16830},{"province":"Jawa Barat","city":"Bogor","district":"Jonggol","urban":"Singajaya","postal_code":16830},{"province":"Jawa Barat","city":"Bogor","district":"Jonggol","urban":"Singasari","postal_code":16830},{"province":"Jawa Barat","city":"Bogor","district":"Jonggol","urban":"Cibodas","postal_code":16830},{"province":"Jawa Barat","city":"Bogor","district":"Jonggol","urban":"Jonggol","postal_code":16830},{"province":"Jawa Barat","city":"Bogor","district":"Sukamakmur","urban":"Cibadak","postal_code":16830},{"province":"Jawa Barat","city":"Bogor","district":"Jonggol","urban":"Bendungan","postal_code":16830},{"province":"Jawa Barat","city":"Bogor","district":"Jonggol","urban":"Balekambang","postal_code":16830}]