[{"province":"Jawa Barat","city":"Bogor","district":"Cariu","urban":"Tegal Panjang","postal_code":16840},{"province":"Jawa Barat","city":"Bogor","district":"Tanjungsari","urban":"Tanjungsari","postal_code":16840},{"province":"Jawa Barat","city":"Bogor","district":"Tanjungsari","urban":"Sukarasa","postal_code":16840},{"province":"Jawa Barat","city":"Bogor","district":"Tanjungsari","urban":"Tanjungrasa","postal_code":16840},{"province":"Jawa Barat","city":"Bogor","district":"Cariu","urban":"Sukajadi","postal_code":16840},{"province":"Jawa Barat","city":"Bogor","district":"Tanjungsari","urban":"Sirnasari","postal_code":16840},{"province":"Jawa Barat","city":"Bogor","district":"Tanjungsari","urban":"Sirnarasa","postal_code":16840},{"province":"Jawa Barat","city":"Bogor","district":"Tanjungsari","urban":"Selawangi","postal_code":16840},{"province":"Jawa Barat","city":"Bogor","district":"Tanjungsari","urban":"Pasir Tanjung","postal_code":16840},{"province":"Jawa Barat","city":"Bogor","district":"Cariu","urban":"Mekarwangi","postal_code":16840},{"province":"Jawa Barat","city":"Bogor","district":"Cariu","urban":"Kuta Mekar","postal_code":16840},{"province":"Jawa Barat","city":"Bogor","district":"Cariu","urban":"Karya Mekar","postal_code":16840},{"province":"Jawa Barat","city":"Bogor","district":"Cariu","urban":"Cikutamahi","postal_code":16840},{"province":"Jawa Barat","city":"Bogor","district":"Cariu","urban":"Cibatu Tiga","postal_code":16840},{"province":"Jawa Barat","city":"Bogor","district":"Tanjungsari","urban":"Cibadak","postal_code":16840},{"province":"Jawa Barat","city":"Bogor","district":"Cariu","urban":"Cariu","postal_code":16840},{"province":"Jawa Barat","city":"Bogor","district":"Tanjungsari","urban":"Buanajaya","postal_code":16840},{"province":"Jawa Barat","city":"Bogor","district":"Cariu","urban":"Bantar Kuning","postal_code":16840},{"province":"Jawa Barat","city":"Bogor","district":"Cariu","urban":"Babakan Raden","postal_code":16840},{"province":"Jawa Barat","city":"Bogor","district":"Tanjungsari","urban":"Antajaya","postal_code":16840}]