[{"province":"Jawa Barat","city":"Bekasi","district":"Tambun Selatan","urban":"Tridaya Sakti","postal_code":17510},{"province":"Jawa Barat","city":"Bekasi","district":"Tambun Selatan","urban":"Sumber Jaya","postal_code":17510},{"province":"Jawa Barat","city":"Bekasi","district":"Tambun Selatan","urban":"Tambun","postal_code":17510},{"province":"Jawa Barat","city":"Bekasi","district":"Tambun Utara","urban":"Srijaya","postal_code":17510},{"province":"Jawa Barat","city":"Bekasi","district":"Tambun Utara","urban":"Srimahi","postal_code":17510},{"province":"Jawa Barat","city":"Bekasi","district":"Tambun Utara","urban":"Srimukti","postal_code":17510},{"province":"Jawa Barat","city":"Bekasi","district":"Tambun Selatan","urban":"Setiadarma","postal_code":17510},{"province":"Jawa Barat","city":"Bekasi","district":"Tambun Selatan","urban":"Setiamekar","postal_code":17510},{"province":"Jawa Barat","city":"Bekasi","district":"Tambun Utara","urban":"Sriamur","postal_code":17510},{"province":"Jawa Barat","city":"Bekasi","district":"Tambun Selatan","urban":"Mekarsari","postal_code":17510},{"province":"Jawa Barat","city":"Bekasi","district":"Tambun Utara","urban":"Satriajaya","postal_code":17510},{"province":"Jawa Barat","city":"Bekasi","district":"Tambun Utara","urban":"Satriamekar","postal_code":17510},{"province":"Jawa Barat","city":"Bekasi","district":"Tambun Selatan","urban":"Lambangsari","postal_code":17510},{"province":"Jawa Barat","city":"Bekasi","district":"Tambun Selatan","urban":"Mangunjaya","postal_code":17510},{"province":"Jawa Barat","city":"Bekasi","district":"Tambun Utara","urban":"Karangsatria","postal_code":17510},{"province":"Jawa Barat","city":"Bekasi","district":"Tambun Selatan","urban":"Lambangjaya","postal_code":17510},{"province":"Jawa Barat","city":"Bekasi","district":"Tambun Utara","urban":"Jalenjaya (Jejalenjaya)","postal_code":17510},{"province":"Jawa Barat","city":"Bekasi","district":"Tambun Selatan","urban":"Jatimulya","postal_code":17510}]