[{"province":"Jawa Barat","city":"Bekasi","district":"Cikarang Utara","urban":"Wangunharja","postal_code":17530},{"province":"Jawa Barat","city":"Bekasi","district":"Cikarang Barat","urban":"Telajung","postal_code":17530},{"province":"Jawa Barat","city":"Bekasi","district":"Cikarang Utara","urban":"Waluya","postal_code":17530},{"province":"Jawa Barat","city":"Bekasi","district":"Cikarang Barat","urban":"Telaga Asih","postal_code":17530},{"province":"Jawa Barat","city":"Bekasi","district":"Cikarang Barat","urban":"Telaga Murni","postal_code":17530},{"province":"Jawa Barat","city":"Bekasi","district":"Cikarang Timur","urban":"Tanjungbaru","postal_code":17530},{"province":"Jawa Barat","city":"Bekasi","district":"Cikarang Utara","urban":"Tanjungsari","postal_code":17530},{"province":"Jawa Barat","city":"Bekasi","district":"Karangbahagia","urban":"Sukaraya","postal_code":17530},{"province":"Jawa Barat","city":"Bekasi","district":"Cikarang Selatan","urban":"Sukaresmi","postal_code":17530},{"province":"Jawa Barat","city":"Bekasi","district":"Cikarang Selatan","urban":"Sukasejati","postal_code":17530},{"province":"Jawa Barat","city":"Bekasi","district":"Cikarang Pusat","urban":"Sukamahi","postal_code":17530},{"province":"Jawa Barat","city":"Bekasi","district":"Cikarang Barat","urban":"Sukadanau","postal_code":17530},{"province":"Jawa Barat","city":"Bekasi","district":"Cikarang Selatan","urban":"Sukadami","postal_code":17530},{"province":"Jawa Barat","city":"Bekasi","district":"Cikarang Utara","urban":"Simpangan","postal_code":17530},{"province":"Jawa Barat","city":"Bekasi","district":"Cikarang Timur","urban":"Sertajaya","postal_code":17530},{"province":"Jawa Barat","city":"Bekasi","district":"Cikarang Pusat","urban":"Pasirtanjung","postal_code":17530},{"province":"Jawa Barat","city":"Bekasi","district":"Cikarang Selatan","urban":"Pasirsari","postal_code":17530},{"province":"Jawa Barat","city":"Bekasi","district":"Cikarang Selatan","urban":"Serang","postal_code":17530},{"province":"Jawa Barat","city":"Bekasi","district":"Cikarang Pusat","urban":"Pasirpanji","postal_code":17530},{"province":"Jawa Barat","city":"Bekasi","district":"Cikarang Utara","urban":"Pasir Gombong","postal_code":17530},{"province":"Jawa Barat","city":"Bekasi","district":"Cikarang Barat","urban":"Mekar Wangi","postal_code":17530},{"province":"Jawa Barat","city":"Bekasi","district":"Cikarang Utara","urban":"Mekarmukti","postal_code":17530},{"province":"Jawa Barat","city":"Bekasi","district":"Cikarang Timur","urban":"Karangsari","postal_code":17530},{"province":"Jawa Barat","city":"Bekasi","district":"Cikarang Timur","urban":"Labansari","postal_code":17530},{"province":"Jawa Barat","city":"Bekasi","district":"Cikarang Utara","urban":"Karangasih","postal_code":17530},{"province":"Jawa Barat","city":"Bekasi","district":"Cikarang Utara","urban":"Karangraharja","postal_code":17530},{"province":"Jawa Barat","city":"Bekasi","district":"Karangbahagia","urban":"Karangmukti","postal_code":17530},{"province":"Jawa Barat","city":"Bekasi","district":"Karangbahagia","urban":"Karang Setu","postal_code":17530},{"province":"Jawa Barat","city":"Bekasi","district":"Karangbahagia","urban":"Karanganyar","postal_code":17530},{"province":"Jawa Barat","city":"Bekasi","district":"Karangbahagia","urban":"Karang Sentosa","postal_code":17530},{"province":"Jawa Barat","city":"Bekasi","district":"Karangbahagia","urban":"Karang Setra","postal_code":17530},{"province":"Jawa Barat","city":"Bekasi","district":"Karangbahagia","urban":"Karang Rahayu","postal_code":17530},{"province":"Jawa Barat","city":"Bekasi","district":"Cikarang Utara","urban":"Karang Baru","postal_code":17530},{"province":"Jawa Barat","city":"Bekasi","district":"Karangbahagia","urban":"Karang Bahagia","postal_code":17530},{"province":"Jawa Barat","city":"Bekasi","district":"Cikarang Barat","urban":"Kali Jaya","postal_code":17530},{"province":"Jawa Barat","city":"Bekasi","district":"Cikarang Pusat","urban":"Jayamukti","postal_code":17530},{"province":"Jawa Barat","city":"Bekasi","district":"Cikarang Barat","urban":"Jatiwangi","postal_code":17530},{"province":"Jawa Barat","city":"Bekasi","district":"Cikarang Timur","urban":"Jatibaru","postal_code":17530},{"province":"Jawa Barat","city":"Bekasi","district":"Cikarang Timur","urban":"Jatireja","postal_code":17530},{"province":"Jawa Barat","city":"Bekasi","district":"Cikarang Pusat","urban":"Hegarmukti","postal_code":17530},{"province":"Jawa Barat","city":"Bekasi","district":"Cikarang Timur","urban":"Hegarmanah","postal_code":17530},{"province":"Jawa Barat","city":"Bekasi","district":"Cikarang Barat","urban":"Gandasari","postal_code":17530},{"province":"Jawa Barat","city":"Bekasi","district":"Cikarang Utara","urban":"Harja Mekar","postal_code":17530},{"province":"Jawa Barat","city":"Bekasi","district":"Cikarang Barat","urban":"Danau Indah","postal_code":17530},{"province":"Jawa Barat","city":"Bekasi","district":"Cikarang Barat","urban":"Gandamekar","postal_code":17530},{"province":"Jawa Barat","city":"Bekasi","district":"Cikarang Timur","urban":"Cipayung","postal_code":17530},{"province":"Jawa Barat","city":"Bekasi","district":"Cikarang Barat","urban":"Cikedokan","postal_code":17530},{"province":"Jawa Barat","city":"Bekasi","district":"Cikarang Utara","urban":"Cikarang Kota","postal_code":17530},{"province":"Jawa Barat","city":"Bekasi","district":"Cikarang Selatan","urban":"Cibatu","postal_code":17530},{"province":"Jawa Barat","city":"Bekasi","district":"Cikarang Pusat","urban":"Cicau","postal_code":17530},{"province":"Jawa Barat","city":"Bekasi","district":"Cikarang Selatan","urban":"Ciantra","postal_code":17530}]