[{"province":"Jawa Barat","city":"Bekasi","district":"Tambelang","urban":"Sukawijaya","postal_code":17620},{"province":"Jawa Barat","city":"Bekasi","district":"Sukawangi","urban":"Sukawangi","postal_code":17620},{"province":"Jawa Barat","city":"Bekasi","district":"Sukawangi","urban":"Sukaringin","postal_code":17620},{"province":"Jawa Barat","city":"Bekasi","district":"Sukawangi","urban":"Sukatenang","postal_code":17620},{"province":"Jawa Barat","city":"Bekasi","district":"Tambelang","urban":"Sukaraja","postal_code":17620},{"province":"Jawa Barat","city":"Bekasi","district":"Tambelang","urban":"Sukarapih","postal_code":17620},{"province":"Jawa Barat","city":"Bekasi","district":"Tambelang","urban":"Sukamantri","postal_code":17620},{"province":"Jawa Barat","city":"Bekasi","district":"Tambelang","urban":"Sukarahayu","postal_code":17620},{"province":"Jawa Barat","city":"Bekasi","district":"Sukawangi","urban":"Sukamekar","postal_code":17620},{"province":"Jawa Barat","city":"Bekasi","district":"Tambelang","urban":"Sukamaju","postal_code":17620},{"province":"Jawa Barat","city":"Bekasi","district":"Sukawangi","urban":"Sukakerta","postal_code":17620},{"province":"Jawa Barat","city":"Bekasi","district":"Sukawangi","urban":"Sukabudi","postal_code":17620},{"province":"Jawa Barat","city":"Bekasi","district":"Sukawangi","urban":"Sukadaya","postal_code":17620},{"province":"Jawa Barat","city":"Bekasi","district":"Tambelang","urban":"Sukabakti","postal_code":17620}]