[{"province":"Jawa Barat","city":"Bekasi","district":"Sukakarya","urban":"Sukamurni","postal_code":17630},{"province":"Jawa Barat","city":"Bekasi","district":"Sukatani","urban":"Sukarukun","postal_code":17630},{"province":"Jawa Barat","city":"Bekasi","district":"Sukatani","urban":"Sukamanah","postal_code":17630},{"province":"Jawa Barat","city":"Bekasi","district":"Sukatani","urban":"Sukamulya","postal_code":17630},{"province":"Jawa Barat","city":"Bekasi","district":"Sukakarya","urban":"Sukalaksana","postal_code":17630},{"province":"Jawa Barat","city":"Bekasi","district":"Sukakarya","urban":"Sukamakmur","postal_code":17630},{"province":"Jawa Barat","city":"Bekasi","district":"Sukakarya","urban":"Sukajadi","postal_code":17630},{"province":"Jawa Barat","city":"Bekasi","district":"Sukakarya","urban":"Sukakarya","postal_code":17630},{"province":"Jawa Barat","city":"Bekasi","district":"Sukakarya","urban":"Sukakersa","postal_code":17630},{"province":"Jawa Barat","city":"Bekasi","district":"Sukatani","urban":"Sukahurip","postal_code":17630},{"province":"Jawa Barat","city":"Bekasi","district":"Sukakarya","urban":"Sukaindah","postal_code":17630},{"province":"Jawa Barat","city":"Bekasi","district":"Sukatani","urban":"Suka Asih","postal_code":17630},{"province":"Jawa Barat","city":"Bekasi","district":"Sukatani","urban":"Sukadarma","postal_code":17630},{"province":"Jawa Barat","city":"Bekasi","district":"Sukatani","urban":"Banjar Sari","postal_code":17630}]