[{"province":"Jawa Barat","city":"Bekasi","district":"Pebayuran","urban":"Sumbersari","postal_code":17710},{"province":"Jawa Barat","city":"Bekasi","district":"Pebayuran","urban":"Sumberurip","postal_code":17710},{"province":"Jawa Barat","city":"Bekasi","district":"Pebayuran","urban":"Sumberreja","postal_code":17710},{"province":"Jawa Barat","city":"Bekasi","district":"Pebayuran","urban":"Kertasari","postal_code":17710},{"province":"Jawa Barat","city":"Bekasi","district":"Pebayuran","urban":"Kertajaya","postal_code":17710},{"province":"Jawa Barat","city":"Bekasi","district":"Pebayuran","urban":"Karangsegar","postal_code":17710},{"province":"Jawa Barat","city":"Bekasi","district":"Pebayuran","urban":"Karangreja","postal_code":17710},{"province":"Jawa Barat","city":"Bekasi","district":"Pebayuran","urban":"Karangjaya","postal_code":17710},{"province":"Jawa Barat","city":"Bekasi","district":"Pebayuran","urban":"Karangpatri","postal_code":17710},{"province":"Jawa Barat","city":"Bekasi","district":"Pebayuran","urban":"Karang Harja","postal_code":17710},{"province":"Jawa Barat","city":"Bekasi","district":"Pebayuran","urban":"Karanghaur","postal_code":17710},{"province":"Jawa Barat","city":"Bekasi","district":"Pebayuran","urban":"Bantarjaya","postal_code":17710},{"province":"Jawa Barat","city":"Bekasi","district":"Pebayuran","urban":"Bantarsari","postal_code":17710}]