[{"province":"Sumatera Utara","city":"Deli Serdang","district":"Namo Rambe","urban":"Uruk Gedang","postal_code":20356},{"province":"Sumatera Utara","city":"Deli Serdang","district":"Namo Rambe","urban":"Timbang Lawan","postal_code":20356},{"province":"Sumatera Utara","city":"Deli Serdang","district":"Namo Rambe","urban":"Ujung Labuhen","postal_code":20356},{"province":"Sumatera Utara","city":"Deli Serdang","district":"Namo Rambe","urban":"Suka Mulia Hulu","postal_code":20356},{"province":"Sumatera Utara","city":"Deli Serdang","district":"Namo Rambe","urban":"Tangkahan","postal_code":20356},{"province":"Sumatera Utara","city":"Deli Serdang","district":"Namo Rambe","urban":"Tanjung Selamat","postal_code":20356},{"province":"Sumatera Utara","city":"Deli Serdang","district":"Namo Rambe","urban":"Sudi Rejo","postal_code":20356},{"province":"Sumatera Utara","city":"Deli Serdang","district":"Namo Rambe","urban":"Suka Mulia Hilir","postal_code":20356},{"province":"Sumatera Utara","city":"Deli Serdang","district":"Namo Rambe","urban":"Salang Tungir","postal_code":20356},{"province":"Sumatera Utara","city":"Deli Serdang","district":"Namo Rambe","urban":"Silue Lue","postal_code":20356},{"province":"Sumatera Utara","city":"Deli Serdang","district":"Namo Rambe","urban":"Rumah Mbacang","postal_code":20356},{"province":"Sumatera Utara","city":"Deli Serdang","district":"Namo Rambe","urban":"Namo Rambe","postal_code":20356},{"province":"Sumatera Utara","city":"Deli Serdang","district":"Namo Rambe","urban":"Rumah Keben","postal_code":20356},{"province":"Sumatera Utara","city":"Deli Serdang","district":"Namo Rambe","urban":"Namo Pinang","postal_code":20356},{"province":"Sumatera Utara","city":"Deli Serdang","district":"Namo Rambe","urban":"Namo Mungkur (Rimo Mungkur)","postal_code":20356},{"province":"Sumatera Utara","city":"Deli Serdang","district":"Namo Rambe","urban":"Namo Pakam","postal_code":20356},{"province":"Sumatera Utara","city":"Deli Serdang","district":"Namo Rambe","urban":"Namo Landur","postal_code":20356},{"province":"Sumatera Utara","city":"Deli Serdang","district":"Namo Rambe","urban":"Namo Mbarao (Mbaru)","postal_code":20356},{"province":"Sumatera Utara","city":"Deli Serdang","district":"Namo Rambe","urban":"Namo Mbelin","postal_code":20356},{"province":"Sumatera Utara","city":"Deli Serdang","district":"Namo Rambe","urban":"Namo Batang","postal_code":20356},{"province":"Sumatera Utara","city":"Deli Serdang","district":"Namo Rambe","urban":"Lau Mulgap","postal_code":20356},{"province":"Sumatera Utara","city":"Deli Serdang","district":"Namo Rambe","urban":"Lubang Ido","postal_code":20356},{"province":"Sumatera Utara","city":"Deli Serdang","district":"Namo Rambe","urban":"Kuta Tengah","postal_code":20356},{"province":"Sumatera Utara","city":"Deli Serdang","district":"Namo Rambe","urban":"Kuta Tuala (Tualah)","postal_code":20356},{"province":"Sumatera Utara","city":"Deli Serdang","district":"Namo Rambe","urban":"Jaba","postal_code":20356},{"province":"Sumatera Utara","city":"Deli Serdang","district":"Namo Rambe","urban":"Jati Kusuma (Kesuma)","postal_code":20356},{"province":"Sumatera Utara","city":"Deli Serdang","district":"Namo Rambe","urban":"Kuala Simeme","postal_code":20356},{"province":"Sumatera Utara","city":"Deli Serdang","district":"Namo Rambe","urban":"Gunung Klawas (Kelawas)","postal_code":20356},{"province":"Sumatera Utara","city":"Deli Serdang","district":"Namo Rambe","urban":"Deli Tua","postal_code":20356},{"province":"Sumatera Utara","city":"Deli Serdang","district":"Namo Rambe","urban":"Gunung Berita","postal_code":20356},{"province":"Sumatera Utara","city":"Deli Serdang","district":"Namo Rambe","urban":"Batu Rejo","postal_code":20356},{"province":"Sumatera Utara","city":"Deli Serdang","district":"Namo Rambe","urban":"Bekukul","postal_code":20356},{"province":"Sumatera Utara","city":"Deli Serdang","district":"Namo Rambe","urban":"Cinta Rakyat","postal_code":20356},{"province":"Sumatera Utara","city":"Deli Serdang","district":"Namo Rambe","urban":"Batu Penjemuran","postal_code":20356},{"province":"Sumatera Utara","city":"Deli Serdang","district":"Namo Rambe","urban":"Batu Gemuk","postal_code":20356},{"province":"Sumatera Utara","city":"Deli Serdang","district":"Namo Rambe","urban":"Batu Mbelin","postal_code":20356}]