[{"province":"Sumatera Utara","city":"Deli Serdang","district":"Batang Kuis","urban":"Tanjung Sari","postal_code":20372},{"province":"Sumatera Utara","city":"Deli Serdang","district":"Batang Kuis","urban":"Tumpatan Nibung","postal_code":20372},{"province":"Sumatera Utara","city":"Deli Serdang","district":"Batang Kuis","urban":"Sena","postal_code":20372},{"province":"Sumatera Utara","city":"Deli Serdang","district":"Batang Kuis","urban":"Sidodadi","postal_code":20372},{"province":"Sumatera Utara","city":"Deli Serdang","district":"Batang Kuis","urban":"Sugiharjo","postal_code":20372},{"province":"Sumatera Utara","city":"Deli Serdang","district":"Batang Kuis","urban":"Mesjid","postal_code":20372},{"province":"Sumatera Utara","city":"Deli Serdang","district":"Batang Kuis","urban":"Paya Gambar","postal_code":20372},{"province":"Sumatera Utara","city":"Deli Serdang","district":"Batang Kuis","urban":"Bintang Meriah","postal_code":20372},{"province":"Sumatera Utara","city":"Deli Serdang","district":"Batang Kuis","urban":"Baru (kampung Baru)","postal_code":20372},{"province":"Sumatera Utara","city":"Deli Serdang","district":"Batang Kuis","urban":"Bintang Meriah","postal_code":20372},{"province":"Sumatera Utara","city":"Deli Serdang","district":"Batang Kuis","urban":"Bakaran Batu","postal_code":20372}]