[{"province":"Sumatera Utara","city":"Deli Serdang","district":"Beringin","urban":"Tumpatan","postal_code":20552},{"province":"Sumatera Utara","city":"Deli Serdang","district":"Beringin","urban":"Sidourip","postal_code":20552},{"province":"Sumatera Utara","city":"Deli Serdang","district":"Beringin","urban":"Sidoarjo Dua Ramunia","postal_code":20552},{"province":"Sumatera Utara","city":"Deli Serdang","district":"Beringin","urban":"Sidodadi Ramonia (Ramunia)","postal_code":20552},{"province":"Sumatera Utara","city":"Deli Serdang","district":"Beringin","urban":"Serdang","postal_code":20552},{"province":"Sumatera Utara","city":"Deli Serdang","district":"Beringin","urban":"Pasar Enam Kuala Namu","postal_code":20552},{"province":"Sumatera Utara","city":"Deli Serdang","district":"Beringin","urban":"Pasar Lima Kebun Kelapa","postal_code":20552},{"province":"Sumatera Utara","city":"Deli Serdang","district":"Beringin","urban":"Emplasmen Kuala Namu","postal_code":20552},{"province":"Sumatera Utara","city":"Deli Serdang","district":"Beringin","urban":"Karang Anyar","postal_code":20552},{"province":"Sumatera Utara","city":"Deli Serdang","district":"Beringin","urban":"Aras Kabu","postal_code":20552},{"province":"Sumatera Utara","city":"Deli Serdang","district":"Beringin","urban":"Beringin","postal_code":20552}]