[{"province":"Sumatera Utara","city":"Deli Serdang","district":"Pantai Labu","urban":"Sei Tuan","postal_code":20553},{"province":"Sumatera Utara","city":"Deli Serdang","district":"Pantai Labu","urban":"Sei Tuan","postal_code":20553},{"province":"Sumatera Utara","city":"Deli Serdang","district":"Pantai Labu","urban":"Regemuk","postal_code":20553},{"province":"Sumatera Utara","city":"Deli Serdang","district":"Pantai Labu","urban":"Ramonia II (Ramunia Dua)","postal_code":20553},{"province":"Sumatera Utara","city":"Deli Serdang","district":"Pantai Labu","urban":"Rantau Panjang","postal_code":20553},{"province":"Sumatera Utara","city":"Deli Serdang","district":"Pantai Labu","urban":"Perkebunan Ramonia (Ramunia)","postal_code":20553},{"province":"Sumatera Utara","city":"Deli Serdang","district":"Pantai Labu","urban":"Ramonia I (Ramunia Satu)","postal_code":20553},{"province":"Sumatera Utara","city":"Deli Serdang","district":"Pantai Labu","urban":"Pantai Labu Pekan","postal_code":20553},{"province":"Sumatera Utara","city":"Deli Serdang","district":"Pantai Labu","urban":"Pematang Biara","postal_code":20553},{"province":"Sumatera Utara","city":"Deli Serdang","district":"Pantai Labu","urban":"Paluh Sebaji","postal_code":20553},{"province":"Sumatera Utara","city":"Deli Serdang","district":"Pantai Labu","urban":"Pantai Labu Baru","postal_code":20553},{"province":"Sumatera Utara","city":"Deli Serdang","district":"Pantai Labu","urban":"Kelambir","postal_code":20553},{"province":"Sumatera Utara","city":"Deli Serdang","district":"Pantai Labu","urban":"Kubah Sentang","postal_code":20553},{"province":"Sumatera Utara","city":"Deli Serdang","district":"Pantai Labu","urban":"Durian","postal_code":20553},{"province":"Sumatera Utara","city":"Deli Serdang","district":"Pantai Labu","urban":"Denai Lama","postal_code":20553},{"province":"Sumatera Utara","city":"Deli Serdang","district":"Pantai Labu","urban":"Denai Sarang Burung","postal_code":20553},{"province":"Sumatera Utara","city":"Deli Serdang","district":"Pantai Labu","urban":"Denai Kuala","postal_code":20553},{"province":"Sumatera Utara","city":"Deli Serdang","district":"Pantai Labu","urban":"Binjai Bakung","postal_code":20553},{"province":"Sumatera Utara","city":"Deli Serdang","district":"Pantai Labu","urban":"Bagan Serdang","postal_code":20553}]