[{"province":"Sumatera Utara","city":"Deli Serdang","district":"Gunung Meriah","urban":"Ujung Meriah","postal_code":20583},{"province":"Sumatera Utara","city":"Deli Serdang","district":"Gunung Meriah","urban":"Simompar (Simempar)","postal_code":20583},{"province":"Sumatera Utara","city":"Deli Serdang","district":"Gunung Meriah","urban":"Pekan Gunung Meriah","postal_code":20583},{"province":"Sumatera Utara","city":"Deli Serdang","district":"Gunung Meriah","urban":"Marjanji Tongah","postal_code":20583},{"province":"Sumatera Utara","city":"Deli Serdang","district":"Gunung Meriah","urban":"Kuta Tengah","postal_code":20583},{"province":"Sumatera Utara","city":"Deli Serdang","district":"Gunung Meriah","urban":"Marjanji Pematang","postal_code":20583},{"province":"Sumatera Utara","city":"Deli Serdang","district":"Gunung Meriah","urban":"Gunung Sinembah","postal_code":20583},{"province":"Sumatera Utara","city":"Deli Serdang","district":"Gunung Meriah","urban":"Kuta Bayu","postal_code":20583},{"province":"Sumatera Utara","city":"Deli Serdang","district":"Gunung Meriah","urban":"Gunung Seribu","postal_code":20583},{"province":"Sumatera Utara","city":"Deli Serdang","district":"Gunung Meriah","urban":"Gunung Paribuan","postal_code":20583},{"province":"Sumatera Utara","city":"Deli Serdang","district":"Gunung Meriah","urban":"Gunung Meriah","postal_code":20583},{"province":"Sumatera Utara","city":"Deli Serdang","district":"Gunung Meriah","urban":"Bintang Meriah","postal_code":20583}]