[{"province":"Sumatera Utara","city":"Langkat","district":"Salapian","urban":"Ujung Bandar","postal_code":20773},{"province":"Sumatera Utara","city":"Langkat","district":"Salapian","urban":"Ujung Terang","postal_code":20773},{"province":"Sumatera Utara","city":"Langkat","district":"Salapian","urban":"Tanjung Langkat","postal_code":20773},{"province":"Sumatera Utara","city":"Langkat","district":"Salapian","urban":"Turangi","postal_code":20773},{"province":"Sumatera Utara","city":"Langkat","district":"Sei Lepan","urban":"Telaga Said","postal_code":20773},{"province":"Sumatera Utara","city":"Langkat","district":"Sirapit (Serapit)","urban":"Sidorejo","postal_code":20773},{"province":"Sumatera Utara","city":"Langkat","district":"Kutambaru","urban":"Sulkam","postal_code":20773},{"province":"Sumatera Utara","city":"Langkat","district":"Sirapit (Serapit)","urban":"Serapit","postal_code":20773},{"province":"Sumatera Utara","city":"Langkat","district":"Sei Lepan","urban":"Sei Bilah Timur","postal_code":20773},{"province":"Sumatera Utara","city":"Langkat","district":"Sei Lepan","urban":"Puraka II","postal_code":20773},{"province":"Sumatera Utara","city":"Langkat","district":"Sei Lepan","urban":"Sei Bilah Barat","postal_code":20773},{"province":"Sumatera Utara","city":"Langkat","district":"Kutambaru","urban":"Rampah","postal_code":20773},{"province":"Sumatera Utara","city":"Langkat","district":"Sei Lepan","urban":"Puraka I Pertamina","postal_code":20773},{"province":"Sumatera Utara","city":"Langkat","district":"Sirapit (Serapit)","urban":"Pulau Semikat","postal_code":20773},{"province":"Sumatera Utara","city":"Langkat","district":"Salapian","urban":"Perkebunan Tanjung Keliling","postal_code":20773},{"province":"Sumatera Utara","city":"Langkat","district":"Salapian","urban":"Perkebunan Tambunan","postal_code":20773},{"province":"Sumatera Utara","city":"Langkat","district":"Kutambaru","urban":"Perkebunan Namotongan","postal_code":20773},{"province":"Sumatera Utara","city":"Langkat","district":"Kutambaru","urban":"Perkebunan Marikie","postal_code":20773},{"province":"Sumatera Utara","city":"Langkat","district":"Salapian","urban":"Perkebunan Gelugur Langkat","postal_code":20773},{"province":"Sumatera Utara","city":"Langkat","district":"Salapian","urban":"Perkebunan Bandar Telu","postal_code":20773},{"province":"Sumatera Utara","city":"Langkat","district":"Salapian","urban":"Pancur Ido","postal_code":20773},{"province":"Sumatera Utara","city":"Langkat","district":"Salapian","urban":"Parangguam","postal_code":20773},{"province":"Sumatera Utara","city":"Langkat","district":"Salapian","urban":"Panco Warno","postal_code":20773},{"province":"Sumatera Utara","city":"Langkat","district":"Kutambaru","urban":"Namoteras","postal_code":20773},{"province":"Sumatera Utara","city":"Langkat","district":"Salapian","urban":"Naman Jahe","postal_code":20773},{"province":"Sumatera Utara","city":"Langkat","district":"Salapian","urban":"Pama/Pamah Tambunan","postal_code":20773},{"province":"Sumatera Utara","city":"Langkat","district":"Sei Lepan","urban":"Mekar Makmur","postal_code":20773},{"province":"Sumatera Utara","city":"Langkat","district":"Salapian","urban":"Minta Kasih","postal_code":20773},{"province":"Sumatera Utara","city":"Langkat","district":"Sei Lepan","urban":"Lama Baru","postal_code":20773},{"province":"Sumatera Utara","city":"Langkat","district":"Salapian","urban":"Lau Gugur","postal_code":20773},{"province":"Sumatera Utara","city":"Langkat","district":"Salapian","urban":"Lau Tepu","postal_code":20773},{"province":"Sumatera Utara","city":"Langkat","district":"Sei Lepan","urban":"Lama","postal_code":20773},{"province":"Sumatera Utara","city":"Langkat","district":"Kutambaru","urban":"Kutagajah","postal_code":20773},{"province":"Sumatera Utara","city":"Langkat","district":"Kutambaru","urban":"Kutambaru","postal_code":20773},{"province":"Sumatera Utara","city":"Langkat","district":"Sei Lepan","urban":"Harapan Makmur","postal_code":20773},{"province":"Sumatera Utara","city":"Langkat","district":"Kutambaru","urban":"Kaperas","postal_code":20773},{"province":"Sumatera Utara","city":"Langkat","district":"Sei Lepan","urban":"Harapan Baru","postal_code":20773},{"province":"Sumatera Utara","city":"Langkat","district":"Sei Lepan","urban":"Harapan Jaya","postal_code":20773},{"province":"Sumatera Utara","city":"Langkat","district":"Sei Lepan","urban":"Harapan Maju","postal_code":20773},{"province":"Sumatera Utara","city":"Langkat","district":"Sei Lepan","urban":"Alur Dua","postal_code":20773},{"province":"Sumatera Utara","city":"Langkat","district":"Sei Lepan","urban":"Alur Dua Baru","postal_code":20773},{"province":"Sumatera Utara","city":"Langkat","district":"Sirapit (Serapit)","urban":"Gunung Tinggi","postal_code":20773},{"province":"Sumatera Utara","city":"Langkat","district":"Salapian","urban":"Adin Tengah","postal_code":20773}]