[{"province":"Sumatera Utara","city":"Langkat","district":"Stabat","urban":"Stabat Baru","postal_code":20811},{"province":"Sumatera Utara","city":"Langkat","district":"Sawit Seberang","urban":"Simpang Tiga","postal_code":20811},{"province":"Sumatera Utara","city":"Langkat","district":"Sawit Seberang","urban":"Sawit Seberang","postal_code":20811},{"province":"Sumatera Utara","city":"Langkat","district":"Sawit Seberang","urban":"Sei Litur Tasik","postal_code":20811},{"province":"Sumatera Utara","city":"Langkat","district":"Sawit Seberang","urban":"Mekar Sawit","postal_code":20811},{"province":"Sumatera Utara","city":"Langkat","district":"Sawit Seberang","urban":"Sawit Hulu","postal_code":20811},{"province":"Sumatera Utara","city":"Langkat","district":"Stabat","urban":"Mangga","postal_code":20811},{"province":"Sumatera Utara","city":"Langkat","district":"Stabat","urban":"Kwala Bingai","postal_code":20811},{"province":"Sumatera Utara","city":"Langkat","district":"Stabat","urban":"Dendang","postal_code":20811},{"province":"Sumatera Utara","city":"Langkat","district":"Stabat","urban":"Karang Rejo","postal_code":20811},{"province":"Sumatera Utara","city":"Langkat","district":"Stabat","urban":"Kwala Begumit","postal_code":20811},{"province":"Sumatera Utara","city":"Langkat","district":"Stabat","urban":"Ara Condong","postal_code":20811},{"province":"Sumatera Utara","city":"Langkat","district":"Stabat","urban":"Banyumas","postal_code":20811},{"province":"Sumatera Utara","city":"Langkat","district":"Sawit Seberang","urban":"Alur Gadung","postal_code":20811},{"province":"Sumatera Utara","city":"Langkat","district":"Sawit Seberang","urban":"Alur Melati","postal_code":20811}]