[{"province":"Sumatera Utara","city":"Langkat","district":"Pangkalan Susu","urban":"Tanjung Pasir","postal_code":20858},{"province":"Sumatera Utara","city":"Langkat","district":"Pangkalan Susu","urban":"Sei/Sungai Meran","postal_code":20858},{"province":"Sumatera Utara","city":"Langkat","district":"Pangkalan Susu","urban":"Sei/Sungai Siur","postal_code":20858},{"province":"Sumatera Utara","city":"Langkat","district":"Pangkalan Susu","urban":"Pintu Air","postal_code":20858},{"province":"Sumatera Utara","city":"Langkat","district":"Pangkalan Susu","urban":"Pulau Kampai","postal_code":20858},{"province":"Sumatera Utara","city":"Langkat","district":"Pangkalan Susu","urban":"Pulau Sembilan","postal_code":20858},{"province":"Sumatera Utara","city":"Langkat","district":"Pematang Jaya","urban":"Pematang Tengah","postal_code":20858},{"province":"Sumatera Utara","city":"Langkat","district":"Pematang Jaya","urban":"Perkebunan Damar Condong","postal_code":20858},{"province":"Sumatera Utara","city":"Langkat","district":"Pematang Jaya","urban":"Perkebunan Perapen","postal_code":20858},{"province":"Sumatera Utara","city":"Langkat","district":"Pangkalan Susu","urban":"Pangkalan Siata","postal_code":20858},{"province":"Sumatera Utara","city":"Langkat","district":"Pangkalan Susu","urban":"Paya Tampak","postal_code":20858},{"province":"Sumatera Utara","city":"Langkat","district":"Pematang Jaya","urban":"Damar Condong","postal_code":20858},{"province":"Sumatera Utara","city":"Langkat","district":"Pematang Jaya","urban":"Limau Mungkur","postal_code":20858},{"province":"Sumatera Utara","city":"Langkat","district":"Pangkalan Susu","urban":"Alur Cempedak","postal_code":20858},{"province":"Sumatera Utara","city":"Langkat","district":"Pangkalan Susu","urban":"Beras Basah","postal_code":20858},{"province":"Sumatera Utara","city":"Langkat","district":"Pangkalan Susu","urban":"Bukit Jengkol","postal_code":20858}]