[{"province":"Sumatera Utara","city":"Langkat","district":"Padang Tualang","urban":"Tebing Tanjung Selamat","postal_code":20852},{"province":"Sumatera Utara","city":"Langkat","district":"Padang Tualang","urban":"Tanjung Putus","postal_code":20852},{"province":"Sumatera Utara","city":"Langkat","district":"Padang Tualang","urban":"Tanjung Selamat","postal_code":20852},{"province":"Sumatera Utara","city":"Langkat","district":"Padang Tualang","urban":"Suka Ramai","postal_code":20852},{"province":"Sumatera Utara","city":"Langkat","district":"Batang Serangan","urban":"Sei Serdang","postal_code":20852},{"province":"Sumatera Utara","city":"Langkat","district":"Padang Tualang","urban":"Serapuh Abc","postal_code":20852},{"province":"Sumatera Utara","city":"Langkat","district":"Batang Serangan","urban":"Sei Bamban","postal_code":20852},{"province":"Sumatera Utara","city":"Langkat","district":"Batang Serangan","urban":"Sei Musam","postal_code":20852},{"province":"Sumatera Utara","city":"Langkat","district":"Batang Serangan","urban":"Paluh Pakih Babussalam","postal_code":20852},{"province":"Sumatera Utara","city":"Langkat","district":"Padang Tualang","urban":"Padang Tualang","postal_code":20852},{"province":"Sumatera Utara","city":"Langkat","district":"Batang Serangan","urban":"Namu/Namo Sialang","postal_code":20852},{"province":"Sumatera Utara","city":"Langkat","district":"Padang Tualang","urban":"Kwala Pesilam (Kuala Besilam)","postal_code":20852},{"province":"Sumatera Utara","city":"Langkat","district":"Batang Serangan","urban":"Kwala Musam","postal_code":20852},{"province":"Sumatera Utara","city":"Langkat","district":"Padang Tualang","urban":"Jati Sari","postal_code":20852},{"province":"Sumatera Utara","city":"Langkat","district":"Batang Serangan","urban":"Karya Jadi","postal_code":20852},{"province":"Sumatera Utara","city":"Langkat","district":"Padang Tualang","urban":"Bukit Sari","postal_code":20852},{"province":"Sumatera Utara","city":"Langkat","district":"Padang Tualang","urban":"Buluh Telang","postal_code":20852},{"province":"Sumatera Utara","city":"Langkat","district":"Padang Tualang","urban":"Besilam","postal_code":20852},{"province":"Sumatera Utara","city":"Langkat","district":"Batang Serangan","urban":"Batang Serangan","postal_code":20852},{"province":"Sumatera Utara","city":"Langkat","district":"Padang Tualang","urban":"Banjar Jaya","postal_code":20852}]