[{"province":"Sumatera Utara","city":"Langkat","district":"Besitang","urban":"Suka Jaya","postal_code":20859},{"province":"Sumatera Utara","city":"Langkat","district":"Besitang","urban":"Sekoci","postal_code":20859},{"province":"Sumatera Utara","city":"Langkat","district":"Pematang Jaya","urban":"Serang Jaya","postal_code":20859},{"province":"Sumatera Utara","city":"Langkat","district":"Pematang Jaya","urban":"Serang Jaya Hilir","postal_code":20859},{"province":"Sumatera Utara","city":"Langkat","district":"Pematang Jaya","urban":"Salahaji","postal_code":20859},{"province":"Sumatera Utara","city":"Langkat","district":"Besitang","urban":"Pir Adb Besitang","postal_code":20859},{"province":"Sumatera Utara","city":"Langkat","district":"Besitang","urban":"Kampung Lama","postal_code":20859},{"province":"Sumatera Utara","city":"Langkat","district":"Besitang","urban":"Pekan Besitang","postal_code":20859},{"province":"Sumatera Utara","city":"Langkat","district":"Besitang","urban":"Bukit Selamat","postal_code":20859},{"province":"Sumatera Utara","city":"Langkat","district":"Besitang","urban":"Halaban","postal_code":20859},{"province":"Sumatera Utara","city":"Langkat","district":"Besitang","urban":"Bukit Kubu","postal_code":20859},{"province":"Sumatera Utara","city":"Langkat","district":"Besitang","urban":"Bukit Mas","postal_code":20859}]