[{"province":"Sumatera Utara","city":"Serdang Bedagai","district":"Bintang Bayu","urban":"Ujung Negeri Hulu","postal_code":20984},{"province":"Sumatera Utara","city":"Serdang Bedagai","district":"Bintang Bayu","urban":"Ujung Negeri Kahan","postal_code":20984},{"province":"Sumatera Utara","city":"Serdang Bedagai","district":"Silinda","urban":"Tarean","postal_code":20984},{"province":"Sumatera Utara","city":"Serdang Bedagai","district":"Silinda","urban":"Tapak Meriah","postal_code":20984},{"province":"Sumatera Utara","city":"Serdang Bedagai","district":"Silinda","urban":"Sungai Buaya","postal_code":20984},{"province":"Sumatera Utara","city":"Serdang Bedagai","district":"Silinda","urban":"Silinda","postal_code":20984},{"province":"Sumatera Utara","city":"Serdang Bedagai","district":"Kotarih","urban":"Sialtong","postal_code":20984},{"province":"Sumatera Utara","city":"Serdang Bedagai","district":"Bintang Bayu","urban":"Siahap","postal_code":20984},{"province":"Sumatera Utara","city":"Serdang Bedagai","district":"Kotarih","urban":"Sei Karih","postal_code":20984},{"province":"Sumatera Utara","city":"Serdang Bedagai","district":"Kotarih","urban":"Sei Ujan-Ujan","postal_code":20984},{"province":"Sumatera Utara","city":"Serdang Bedagai","district":"Bintang Bayu","urban":"Sarang Ginting Kahan","postal_code":20984},{"province":"Sumatera Utara","city":"Serdang Bedagai","district":"Bintang Bayu","urban":"Sarang Ginting Hulu","postal_code":20984},{"province":"Sumatera Utara","city":"Serdang Bedagai","district":"Kotarih","urban":"Rubun Dunia","postal_code":20984},{"province":"Sumatera Utara","city":"Serdang Bedagai","district":"Bintang Bayu","urban":"Pergajahan/Pegajahan Kahan","postal_code":20984},{"province":"Sumatera Utara","city":"Serdang Bedagai","district":"Kotarih","urban":"Perbahingan","postal_code":20984},{"province":"Sumatera Utara","city":"Serdang Bedagai","district":"Bintang Bayu","urban":"Pergajahan/Pegajahan Hulu","postal_code":20984},{"province":"Sumatera Utara","city":"Serdang Bedagai","district":"Bintang Bayu","urban":"Panombean","postal_code":20984},{"province":"Sumatera Utara","city":"Serdang Bedagai","district":"Silinda","urban":"Pamah","postal_code":20984},{"province":"Sumatera Utara","city":"Serdang Bedagai","district":"Silinda","urban":"Pagar Manik","postal_code":20984},{"province":"Sumatera Utara","city":"Serdang Bedagai","district":"Bintang Bayu","urban":"Marihat Dolok","postal_code":20984},{"province":"Sumatera Utara","city":"Serdang Bedagai","district":"Silinda","urban":"Kulasar","postal_code":20984},{"province":"Sumatera Utara","city":"Serdang Bedagai","district":"Kotarih","urban":"Kotarih Baru","postal_code":20984},{"province":"Sumatera Utara","city":"Serdang Bedagai","district":"Kotarih","urban":"Kotarih Pekan","postal_code":20984},{"province":"Sumatera Utara","city":"Serdang Bedagai","district":"Bintang Bayu","urban":"Kampung Kristen","postal_code":20984},{"province":"Sumatera Utara","city":"Serdang Bedagai","district":"Kotarih","urban":"Huta Galuh","postal_code":20984},{"province":"Sumatera Utara","city":"Serdang Bedagai","district":"Bintang Bayu","urban":"Huta Durian","postal_code":20984},{"province":"Sumatera Utara","city":"Serdang Bedagai","district":"Bintang Bayu","urban":"Gudang Garam","postal_code":20984},{"province":"Sumatera Utara","city":"Serdang Bedagai","district":"Kotarih","urban":"Durian Kondot","postal_code":20984},{"province":"Sumatera Utara","city":"Serdang Bedagai","district":"Bintang Bayu","urban":"Dolok Masango","postal_code":20984},{"province":"Sumatera Utara","city":"Serdang Bedagai","district":"Silinda","urban":"Demak/Damak Gelugur","postal_code":20984},{"province":"Sumatera Utara","city":"Serdang Bedagai","district":"Bintang Bayu","urban":"Damak Tolong Buho","postal_code":20984},{"province":"Sumatera Utara","city":"Serdang Bedagai","district":"Bintang Bayu","urban":"Bintang Bayu","postal_code":20984},{"province":"Sumatera Utara","city":"Serdang Bedagai","district":"Silinda","urban":"Batu Masagi","postal_code":20984},{"province":"Sumatera Utara","city":"Serdang Bedagai","district":"Kotarih","urban":"Banjaran Godang","postal_code":20984},{"province":"Sumatera Utara","city":"Serdang Bedagai","district":"Bintang Bayu","urban":"Bandar Pinang Rambe","postal_code":20984},{"province":"Sumatera Utara","city":"Serdang Bedagai","district":"Bintang Bayu","urban":"Bandar Pinang Kebun/Kebon","postal_code":20984},{"province":"Sumatera Utara","city":"Serdang Bedagai","district":"Bintang Bayu","urban":"Bandar Magondang (Nagodang)","postal_code":20984},{"province":"Sumatera Utara","city":"Serdang Bedagai","district":"Bintang Bayu","urban":"Bandar Negeri","postal_code":20984},{"province":"Sumatera Utara","city":"Serdang Bedagai","district":"Kotarih","urban":"Bandar Bayu","postal_code":20984}]