[{"province":"Sumatera Utara","city":"Serdang Bedagai","district":"Sei Bamban","urban":"Suka Damai","postal_code":20995},{"province":"Sumatera Utara","city":"Serdang Bedagai","district":"Sei Rampah","urban":"Tanah Raja","postal_code":20995},{"province":"Sumatera Utara","city":"Serdang Bedagai","district":"Sei Rampah","urban":"Sinah Kasih","postal_code":20995},{"province":"Sumatera Utara","city":"Serdang Bedagai","district":"Sei Rampah","urban":"Silau Rakyat","postal_code":20995},{"province":"Sumatera Utara","city":"Serdang Bedagai","district":"Sei Rampah","urban":"Simpang Empat","postal_code":20995},{"province":"Sumatera Utara","city":"Serdang Bedagai","district":"Sei Rampah","urban":"Sei Rejo","postal_code":20995},{"province":"Sumatera Utara","city":"Serdang Bedagai","district":"Sei Rampah","urban":"Sei Parit","postal_code":20995},{"province":"Sumatera Utara","city":"Serdang Bedagai","district":"Sei Rampah","urban":"Sei Rampah","postal_code":20995},{"province":"Sumatera Utara","city":"Serdang Bedagai","district":"Sei Bamban","urban":"Sei Bamban Estate","postal_code":20995},{"province":"Sumatera Utara","city":"Serdang Bedagai","district":"Sei Bamban","urban":"Sei Belutu","postal_code":20995},{"province":"Sumatera Utara","city":"Serdang Bedagai","district":"Sei Bamban","urban":"Sei Buluh Estate","postal_code":20995},{"province":"Sumatera Utara","city":"Serdang Bedagai","district":"Sei Bamban","urban":"Sei Bamban","postal_code":20995},{"province":"Sumatera Utara","city":"Serdang Bedagai","district":"Sei Rampah","urban":"Rambung Sialang Hulu","postal_code":20995},{"province":"Sumatera Utara","city":"Serdang Bedagai","district":"Sei Rampah","urban":"Rambung Sialang Tengah","postal_code":20995},{"province":"Sumatera Utara","city":"Serdang Bedagai","district":"Sei Rampah","urban":"Rambung Sialang Tengah","postal_code":20995},{"province":"Sumatera Utara","city":"Serdang Bedagai","district":"Sei Rampah","urban":"Rambung Estate","postal_code":20995},{"province":"Sumatera Utara","city":"Serdang Bedagai","district":"Sei Rampah","urban":"Rambung Sialang Hilir","postal_code":20995},{"province":"Sumatera Utara","city":"Serdang Bedagai","district":"Sei Rampah","urban":"Pergulaan","postal_code":20995},{"province":"Sumatera Utara","city":"Serdang Bedagai","district":"Sei Bamban","urban":"Pon (Kampung Pon)","postal_code":20995},{"province":"Sumatera Utara","city":"Serdang Bedagai","district":"Sei Rampah","urban":"Pematang Pelintahan","postal_code":20995},{"province":"Sumatera Utara","city":"Serdang Bedagai","district":"Sei Bamban","urban":"Penggalangan","postal_code":20995},{"province":"Sumatera Utara","city":"Serdang Bedagai","district":"Sei Rampah","urban":"Firdaus Estate","postal_code":20995},{"province":"Sumatera Utara","city":"Serdang Bedagai","district":"Sei Rampah","urban":"Pematang Ganjang","postal_code":20995},{"province":"Sumatera Utara","city":"Serdang Bedagai","district":"Sei Bamban","urban":"Gempolan","postal_code":20995},{"province":"Sumatera Utara","city":"Serdang Bedagai","district":"Sei Rampah","urban":"Cempedak Lobang","postal_code":20995},{"province":"Sumatera Utara","city":"Serdang Bedagai","district":"Sei Rampah","urban":"Firdaus","postal_code":20995},{"province":"Sumatera Utara","city":"Serdang Bedagai","district":"Sei Bamban","urban":"Bakaran Batu","postal_code":20995}]