[{"province":"Sumatera Utara","city":"Serdang Bedagai","district":"Tebing Syahbandar","urban":"Sibulan","postal_code":20998},{"province":"Sumatera Utara","city":"Serdang Bedagai","district":"Tebing Syahbandar","urban":"Tanah Besih","postal_code":20998},{"province":"Sumatera Utara","city":"Serdang Bedagai","district":"Tebing Tinggi","urban":"Sei Priok (Sungai Periok)","postal_code":20998},{"province":"Sumatera Utara","city":"Serdang Bedagai","district":"Tebing Tinggi","urban":"Sei Serimah","postal_code":20998},{"province":"Sumatera Utara","city":"Serdang Bedagai","district":"Tebing Tinggi","urban":"Penonggol","postal_code":20998},{"province":"Sumatera Utara","city":"Serdang Bedagai","district":"Tebing Tinggi","urban":"Pertapaan","postal_code":20998},{"province":"Sumatera Utara","city":"Serdang Bedagai","district":"Tebing Syahbandar","urban":"Paya Pinang","postal_code":20998},{"province":"Sumatera Utara","city":"Serdang Bedagai","district":"Tebing Syahbandar","urban":"Penggalangan","postal_code":20998},{"province":"Sumatera Utara","city":"Serdang Bedagai","district":"Tebing Syahbandar","urban":"Penggalian","postal_code":20998},{"province":"Sumatera Utara","city":"Serdang Bedagai","district":"Tebing Syahbandar","urban":"Paya Pasir","postal_code":20998},{"province":"Sumatera Utara","city":"Serdang Bedagai","district":"Tebing Tinggi","urban":"Paya Mabar","postal_code":20998},{"province":"Sumatera Utara","city":"Serdang Bedagai","district":"Tebing Tinggi","urban":"Naga Kesiangan","postal_code":20998},{"province":"Sumatera Utara","city":"Serdang Bedagai","district":"Tebing Tinggi","urban":"Paya Bagas","postal_code":20998},{"province":"Sumatera Utara","city":"Serdang Bedagai","district":"Tebing Tinggi","urban":"Paya Lombang","postal_code":20998},{"province":"Sumatera Utara","city":"Serdang Bedagai","district":"Tebing Syahbandar","urban":"Laut Tador","postal_code":20998},{"province":"Sumatera Utara","city":"Serdang Bedagai","district":"Tebing Tinggi","urban":"Mariah Padang","postal_code":20998},{"province":"Sumatera Utara","city":"Serdang Bedagai","district":"Tebing Syahbandar","urban":"Kuta Pinang","postal_code":20998},{"province":"Sumatera Utara","city":"Serdang Bedagai","district":"Tebing Tinggi","urban":"Kuta Baru","postal_code":20998},{"province":"Sumatera Utara","city":"Serdang Bedagai","district":"Tebing Tinggi","urban":"Kedai Damar","postal_code":20998},{"province":"Sumatera Utara","city":"Serdang Bedagai","district":"Tebing Tinggi","urban":"Gunung Kataran","postal_code":20998},{"province":"Sumatera Utara","city":"Serdang Bedagai","district":"Tebing Tinggi","urban":"Jambu","postal_code":20998},{"province":"Sumatera Utara","city":"Serdang Bedagai","district":"Tebing Syahbandar","urban":"Bahilang","postal_code":20998},{"province":"Sumatera Utara","city":"Serdang Bedagai","district":"Tebing Syahbandar","urban":"Binjai","postal_code":20998},{"province":"Sumatera Utara","city":"Serdang Bedagai","district":"Tebing Tinggi","urban":"Bah Sumbu","postal_code":20998}]