[{"province":"Sumatera Utara","city":"Serdang Bedagai","district":"Dolok Masihul","urban":"Tanjung Maria","postal_code":20991},{"province":"Sumatera Utara","city":"Serdang Bedagai","district":"Dolok Masihul","urban":"Tegal Sari","postal_code":20991},{"province":"Sumatera Utara","city":"Serdang Bedagai","district":"Dolok Masihul","urban":"Ujung Silau","postal_code":20991},{"province":"Sumatera Utara","city":"Serdang Bedagai","district":"Serba Jadi","urban":"Tambak Cekur","postal_code":20991},{"province":"Sumatera Utara","city":"Serdang Bedagai","district":"Serba Jadi","urban":"Tanjung Harap","postal_code":20991},{"province":"Sumatera Utara","city":"Serdang Bedagai","district":"Dolok Masihul","urban":"Sarang Torop","postal_code":20991},{"province":"Sumatera Utara","city":"Serdang Bedagai","district":"Dolok Masihul","urban":"Silau Merawan","postal_code":20991},{"province":"Sumatera Utara","city":"Serdang Bedagai","district":"Serba Jadi","urban":"Serba Jadi","postal_code":20991},{"province":"Sumatera Utara","city":"Serdang Bedagai","district":"Dolok Masihul","urban":"Sarang Ginting","postal_code":20991},{"province":"Sumatera Utara","city":"Serdang Bedagai","district":"Serba Jadi","urban":"Pulau Gambar","postal_code":20991},{"province":"Sumatera Utara","city":"Serdang Bedagai","district":"Serba Jadi","urban":"Pulau Tagor","postal_code":20991},{"province":"Sumatera Utara","city":"Serdang Bedagai","district":"Dolok Masihul","urban":"Pekan Kemis","postal_code":20991},{"province":"Sumatera Utara","city":"Serdang Bedagai","district":"Dolok Masihul","urban":"Pertambatan","postal_code":20991},{"province":"Sumatera Utara","city":"Serdang Bedagai","district":"Dolok Masihul","urban":"Pekan Dolok Masihul","postal_code":20991},{"province":"Sumatera Utara","city":"Serdang Bedagai","district":"Dolok Masihul","urban":"Martebing","postal_code":20991},{"province":"Sumatera Utara","city":"Serdang Bedagai","district":"Dolok Masihul","urban":"Pardomuan","postal_code":20991},{"province":"Sumatera Utara","city":"Serdang Bedagai","district":"Serba Jadi","urban":"Kwala/Kuala Bali","postal_code":20991},{"province":"Sumatera Utara","city":"Serdang Bedagai","district":"Dolok Masihul","urban":"Mala Sori","postal_code":20991},{"province":"Sumatera Utara","city":"Serdang Bedagai","district":"Serba Jadi","urban":"Manggis","postal_code":20991},{"province":"Sumatera Utara","city":"Serdang Bedagai","district":"Dolok Masihul","urban":"Kerapuh","postal_code":20991},{"province":"Sumatera Utara","city":"Serdang Bedagai","district":"Serba Jadi","urban":"Kelapa Bajohor/Bajohom","postal_code":20991},{"province":"Sumatera Utara","city":"Serdang Bedagai","district":"Dolok Masihul","urban":"Kota Tengah","postal_code":20991},{"province":"Sumatera Utara","city":"Serdang Bedagai","district":"Dolok Masihul","urban":"Huta Nauli","postal_code":20991},{"province":"Sumatera Utara","city":"Serdang Bedagai","district":"Serba Jadi","urban":"Karang Tengah","postal_code":20991},{"province":"Sumatera Utara","city":"Serdang Bedagai","district":"Dolok Masihul","urban":"Durian Puloan","postal_code":20991},{"province":"Sumatera Utara","city":"Serdang Bedagai","district":"Dolok Masihul","urban":"Havea","postal_code":20991},{"province":"Sumatera Utara","city":"Serdang Bedagai","district":"Dolok Masihul","urban":"Dolok Manampang","postal_code":20991},{"province":"Sumatera Utara","city":"Serdang Bedagai","district":"Dolok Masihul","urban":"Dolok Sagala","postal_code":20991},{"province":"Sumatera Utara","city":"Serdang Bedagai","district":"Dolok Masihul","urban":"Dame","postal_code":20991},{"province":"Sumatera Utara","city":"Serdang Bedagai","district":"Dolok Masihul","urban":"Blok Sepuluh","postal_code":20991},{"province":"Sumatera Utara","city":"Serdang Bedagai","district":"Dolok Masihul","urban":"Bukit Cermin Hilir","postal_code":20991},{"province":"Sumatera Utara","city":"Serdang Bedagai","district":"Dolok Masihul","urban":"Bantan","postal_code":20991},{"province":"Sumatera Utara","city":"Serdang Bedagai","district":"Dolok Masihul","urban":"Batu 12","postal_code":20991},{"province":"Sumatera Utara","city":"Serdang Bedagai","district":"Dolok Masihul","urban":"Batu 13","postal_code":20991},{"province":"Sumatera Utara","city":"Serdang Bedagai","district":"Dolok Masihul","urban":"Baja Ronggi","postal_code":20991},{"province":"Sumatera Utara","city":"Serdang Bedagai","district":"Serba Jadi","urban":"Bah Sidua Dua","postal_code":20991},{"province":"Sumatera Utara","city":"Serdang Bedagai","district":"Dolok Masihul","urban":"Bah Kerapuh","postal_code":20991},{"province":"Sumatera Utara","city":"Serdang Bedagai","district":"Dolok Masihul","urban":"Aras Panjang","postal_code":20991}]