[{"province":"Sumatera Utara","city":"Pematang Siantar","district":"Siantar Martoba","urban":"Tambun Nabolon","postal_code":21137},{"province":"Sumatera Utara","city":"Pematang Siantar","district":"Siantar Martoba","urban":"Tanjung Pinggir","postal_code":21137},{"province":"Sumatera Utara","city":"Pematang Siantar","district":"Siantar Martoba","urban":"Tanjung Tongah","postal_code":21137},{"province":"Sumatera Utara","city":"Pematang Siantar","district":"Siantar Sitalasari","urban":"Setia Negara","postal_code":21137},{"province":"Sumatera Utara","city":"Pematang Siantar","district":"Siantar Martoba","urban":"Sumber Jaya","postal_code":21137},{"province":"Sumatera Utara","city":"Pematang Siantar","district":"Siantar Sitalasari","urban":"Gurilla","postal_code":21137},{"province":"Sumatera Utara","city":"Pematang Siantar","district":"Siantar Martoba","urban":"Naga Pita","postal_code":21137},{"province":"Sumatera Utara","city":"Pematang Siantar","district":"Siantar Martoba","urban":"Pondok Sayur","postal_code":21137},{"province":"Sumatera Utara","city":"Pematang Siantar","district":"Siantar Sitalasari","urban":"Bukit Sofa/Shofa","postal_code":21137}]