[{"province":"Sumatera Utara","city":"Simalungun","district":"Tapian Dolok","urban":"Purba Sari","postal_code":21154},{"province":"Sumatera Utara","city":"Simalungun","district":"Tapian Dolok","urban":"Sinaksak","postal_code":21154},{"province":"Sumatera Utara","city":"Simalungun","district":"Tapian Dolok","urban":"Negeri Bayu Muslimin","postal_code":21154},{"province":"Sumatera Utara","city":"Simalungun","district":"Tapian Dolok","urban":"Pematang Dolok Kahean","postal_code":21154},{"province":"Sumatera Utara","city":"Simalungun","district":"Tapian Dolok","urban":"Nagur Usang","postal_code":21154},{"province":"Sumatera Utara","city":"Simalungun","district":"Tapian Dolok","urban":"Naga Dolok","postal_code":21154},{"province":"Sumatera Utara","city":"Simalungun","district":"Tapian Dolok","urban":"Dolok Ulu","postal_code":21154},{"province":"Sumatera Utara","city":"Simalungun","district":"Tapian Dolok","urban":"Dolok Kahean","postal_code":21154},{"province":"Sumatera Utara","city":"Simalungun","district":"Tapian Dolok","urban":"Dolok Maraja","postal_code":21154},{"province":"Sumatera Utara","city":"Simalungun","district":"Tapian Dolok","urban":"Batu Silangit","postal_code":21154}]