[{"province":"Sumatera Utara","city":"Simalungun","district":"Raya Kahean","urban":"Sorba Dolog","postal_code":21156},{"province":"Sumatera Utara","city":"Simalungun","district":"Raya Kahean","urban":"Sambosar Raya","postal_code":21156},{"province":"Sumatera Utara","city":"Simalungun","district":"Raya Kahean","urban":"Sindar Raya","postal_code":21156},{"province":"Sumatera Utara","city":"Simalungun","district":"Raya Kahean","urban":"Puli Buah","postal_code":21156},{"province":"Sumatera Utara","city":"Simalungun","district":"Raya Kahean","urban":"Panduman","postal_code":21156},{"province":"Sumatera Utara","city":"Simalungun","district":"Raya Kahean","urban":"Durian Banggal","postal_code":21156},{"province":"Sumatera Utara","city":"Simalungun","district":"Raya Kahean","urban":"Gunung Datas","postal_code":21156},{"province":"Sumatera Utara","city":"Simalungun","district":"Raya Kahean","urban":"Bah Tonang","postal_code":21156},{"province":"Sumatera Utara","city":"Simalungun","district":"Raya Kahean","urban":"Bangun Raya","postal_code":21156},{"province":"Sumatera Utara","city":"Simalungun","district":"Raya Kahean","urban":"Amborokan Pane Raya","postal_code":21156},{"province":"Sumatera Utara","city":"Simalungun","district":"Raya Kahean","urban":"Bah Bulian","postal_code":21156}]