[{"province":"Sumatera Utara","city":"Simalungun","district":"Dolok Silau","urban":"Tagur","postal_code":21168},{"province":"Sumatera Utara","city":"Simalungun","district":"Dolok Silau","urban":"Perasmian","postal_code":21168},{"province":"Sumatera Utara","city":"Simalungun","district":"Dolok Silau","urban":"Saran Padang","postal_code":21168},{"province":"Sumatera Utara","city":"Simalungun","district":"Dolok Silau","urban":"Mariah Dolok","postal_code":21168},{"province":"Sumatera Utara","city":"Simalungun","district":"Dolok Silau","urban":"Marubun Lokkung","postal_code":21168},{"province":"Sumatera Utara","city":"Simalungun","district":"Dolok Silau","urban":"Paribuan","postal_code":21168},{"province":"Sumatera Utara","city":"Simalungun","district":"Dolok Silau","urban":"Huta Saing","postal_code":21168},{"province":"Sumatera Utara","city":"Simalungun","district":"Dolok Silau","urban":"Dolok Mariah","postal_code":21168},{"province":"Sumatera Utara","city":"Simalungun","district":"Dolok Silau","urban":"Cingkes","postal_code":21168},{"province":"Sumatera Utara","city":"Simalungun","district":"Dolok Silau","urban":"Bawang","postal_code":21168}]