[{"province":"Sumatera Utara","city":"Simalungun","district":"Purba","urban":"Urung Purba","postal_code":21165},{"province":"Sumatera Utara","city":"Simalungun","district":"Purba","urban":"Tiga Runggu","postal_code":21165},{"province":"Sumatera Utara","city":"Simalungun","district":"Purba","urban":"Tanoh/Tano Tinggir","postal_code":21165},{"province":"Sumatera Utara","city":"Simalungun","district":"Panombeian Panei","urban":"Simpang Panei","postal_code":21165},{"province":"Sumatera Utara","city":"Simalungun","district":"Panombeian Panei","urban":"Talun Kondot","postal_code":21165},{"province":"Sumatera Utara","city":"Simalungun","district":"Panombeian Panei","urban":"Simbolon Tengkoh","postal_code":21165},{"province":"Sumatera Utara","city":"Simalungun","district":"Purba","urban":"Seribu Jadi","postal_code":21165},{"province":"Sumatera Utara","city":"Simalungun","district":"Purba","urban":"Purba Tengah/Tongah","postal_code":21165},{"province":"Sumatera Utara","city":"Simalungun","district":"Purba","urban":"Purba Sipinggan","postal_code":21165},{"province":"Sumatera Utara","city":"Simalungun","district":"Purba","urban":"Purba Dolog","postal_code":21165},{"province":"Sumatera Utara","city":"Simalungun","district":"Purba","urban":"Pematang Purba","postal_code":21165},{"province":"Sumatera Utara","city":"Simalungun","district":"Panombeian Panei","urban":"Pematang Panombeian","postal_code":21165},{"province":"Sumatera Utara","city":"Simalungun","district":"Panombeian Panei","urban":"Pematang Pane","postal_code":21165},{"province":"Sumatera Utara","city":"Simalungun","district":"Panombeian Panei","urban":"Panombeian","postal_code":21165},{"province":"Sumatera Utara","city":"Simalungun","district":"Panombeian Panei","urban":"Nagori Bosar","postal_code":21165},{"province":"Sumatera Utara","city":"Simalungun","district":"Panombeian Panei","urban":"Marjandi","postal_code":21165},{"province":"Sumatera Utara","city":"Simalungun","district":"Panombeian Panei","urban":"Marjandi Pisang","postal_code":21165},{"province":"Sumatera Utara","city":"Simalungun","district":"Purba","urban":"Huta Raja","postal_code":21165},{"province":"Sumatera Utara","city":"Simalungun","district":"Purba","urban":"Hinalang (Kinalang)","postal_code":21165},{"province":"Sumatera Utara","city":"Simalungun","district":"Panombeian Panei","urban":"Banuh Raya","postal_code":21165}]