[{"province":"Sumatera Utara","city":"Simalungun","district":"Pematang Silima Huta","urban":"Ujung Saribu","postal_code":21167},{"province":"Sumatera Utara","city":"Simalungun","district":"Pematang Silima Huta","urban":"Ujung Mariah","postal_code":21167},{"province":"Sumatera Utara","city":"Simalungun","district":"Silimakuta","urban":"Sinar Baru","postal_code":21167},{"province":"Sumatera Utara","city":"Simalungun","district":"Pematang Silima Huta","urban":"Silimakuta Barat","postal_code":21167},{"province":"Sumatera Utara","city":"Simalungun","district":"Silimakuta","urban":"Silimakuta","postal_code":21167},{"province":"Sumatera Utara","city":"Simalungun","district":"Pematang Silima Huta","urban":"Siboras","postal_code":21167},{"province":"Sumatera Utara","city":"Simalungun","district":"Silimakuta","urban":"Saribu Dolok","postal_code":21167},{"province":"Sumatera Utara","city":"Simalungun","district":"Pematang Silima Huta","urban":"Saribujandi/Saribu Janji","postal_code":21167},{"province":"Sumatera Utara","city":"Simalungun","district":"Silimakuta","urban":"Purba Tua Baru","postal_code":21167},{"province":"Sumatera Utara","city":"Simalungun","district":"Silimakuta","urban":"Purba Sinombah","postal_code":21167},{"province":"Sumatera Utara","city":"Simalungun","district":"Silimakuta","urban":"Purba Tua","postal_code":21167},{"province":"Sumatera Utara","city":"Simalungun","district":"Pematang Silima Huta","urban":"Naga Saribu","postal_code":21167},{"province":"Sumatera Utara","city":"Simalungun","district":"Pematang Silima Huta","urban":"Naga Mariah","postal_code":21167},{"province":"Sumatera Utara","city":"Simalungun","district":"Pematang Silima Huta","urban":"Mardinding","postal_code":21167},{"province":"Sumatera Utara","city":"Simalungun","district":"Silimakuta","urban":"Bangun Mariah/Meriah","postal_code":21167}]