[{"province":"Sumatera Utara","city":"Simalungun","district":"Gunung Maligas","urban":"Tumorang","postal_code":21174},{"province":"Sumatera Utara","city":"Simalungun","district":"Hatonduhan","urban":"Tonduhan","postal_code":21174},{"province":"Sumatera Utara","city":"Simalungun","district":"Girsang Sipangan Bolon","urban":"Tiga Raja","postal_code":21174},{"province":"Sumatera Utara","city":"Simalungun","district":"Gunung Malela","urban":"Syahkuda Bayu (Sah Kuda Bayu)","postal_code":21174},{"province":"Sumatera Utara","city":"Simalungun","district":"Hatonduhan","urban":"Tangga Batu","postal_code":21174},{"province":"Sumatera Utara","city":"Simalungun","district":"Girsang Sipangan Bolon","urban":"Sipangan Bolon","postal_code":21174},{"province":"Sumatera Utara","city":"Simalungun","district":"Gunung Malela","urban":"Silulu","postal_code":21174},{"province":"Sumatera Utara","city":"Simalungun","district":"Gunung Malela","urban":"Silau Malela","postal_code":21174},{"province":"Sumatera Utara","city":"Simalungun","district":"Gunung Maligas","urban":"Silau Bayu","postal_code":21174},{"province":"Sumatera Utara","city":"Simalungun","district":"Girsang Sipangan Bolon","urban":"Sibaganding","postal_code":21174},{"province":"Sumatera Utara","city":"Simalungun","district":"Gunung Malela","urban":"Serapuh","postal_code":21174},{"province":"Sumatera Utara","city":"Simalungun","district":"Hatonduhan","urban":"Saribu Asih","postal_code":21174},{"province":"Sumatera Utara","city":"Simalungun","district":"Gunung Malela","urban":"Senio","postal_code":21174},{"province":"Sumatera Utara","city":"Simalungun","district":"Gunung Malela","urban":"Pematang Gajing","postal_code":21174},{"province":"Sumatera Utara","city":"Simalungun","district":"Gunung Malela","urban":"Pematang Syahkuda (Sah Kuda)","postal_code":21174},{"province":"Sumatera Utara","city":"Simalungun","district":"Gunung Maligas","urban":"Rabuhit","postal_code":21174},{"province":"Sumatera Utara","city":"Simalungun","district":"Gunung Malela","urban":"Pematang Asilum","postal_code":21174},{"province":"Sumatera Utara","city":"Simalungun","district":"Hatonduhan","urban":"Parhundalian Jawadipar","postal_code":21174},{"province":"Sumatera Utara","city":"Simalungun","district":"Girsang Sipangan Bolon","urban":"Parapat","postal_code":21174},{"province":"Sumatera Utara","city":"Simalungun","district":"Haranggaol Horison","urban":"Nagori Sihalpe","postal_code":21174},{"province":"Sumatera Utara","city":"Simalungun","district":"Haranggaol Horison","urban":"Nagori Purba Harison/Harisan","postal_code":21174},{"province":"Sumatera Utara","city":"Simalungun","district":"Haranggaol Horison","urban":"Nagori Purba Pasir","postal_code":21174},{"province":"Sumatera Utara","city":"Simalungun","district":"Haranggaol Horison","urban":"Nagori Purba Saribu","postal_code":21174},{"province":"Sumatera Utara","city":"Simalungun","district":"Gunung Malela","urban":"Marihat Bukit","postal_code":21174},{"province":"Sumatera Utara","city":"Simalungun","district":"Gunung Malela","urban":"Nagori Malela","postal_code":21174},{"province":"Sumatera Utara","city":"Simalungun","district":"Gunung Maligas","urban":"Karang Sari","postal_code":21174},{"province":"Sumatera Utara","city":"Simalungun","district":"Gunung Malela","urban":"Lingga","postal_code":21174},{"province":"Sumatera Utara","city":"Simalungun","district":"Gunung Malela","urban":"Margo Muliyo","postal_code":21174},{"province":"Sumatera Utara","city":"Simalungun","district":"Gunung Maligas","urban":"Karang Anyer","postal_code":21174},{"province":"Sumatera Utara","city":"Simalungun","district":"Gunung Maligas","urban":"Karang Rejo","postal_code":21174},{"province":"Sumatera Utara","city":"Simalungun","district":"Hatonduhan","urban":"Jawa Tongah II","postal_code":21174},{"province":"Sumatera Utara","city":"Simalungun","district":"Hatonduhan","urban":"Jawa Tongah","postal_code":21174},{"province":"Sumatera Utara","city":"Simalungun","district":"Gunung Maligas","urban":"Hutadipar","postal_code":21174},{"province":"Sumatera Utara","city":"Simalungun","district":"Haranggaol Horison","urban":"Haranggaol","postal_code":21174},{"province":"Sumatera Utara","city":"Simalungun","district":"Gunung Maligas","urban":"Gajing","postal_code":21174},{"province":"Sumatera Utara","city":"Simalungun","district":"Girsang Sipangan Bolon","urban":"Girsang","postal_code":21174},{"province":"Sumatera Utara","city":"Simalungun","district":"Hatonduhan","urban":"Buttu Turunan (Buntu Turunan)","postal_code":21174},{"province":"Sumatera Utara","city":"Simalungun","district":"Gunung Malela","urban":"Dolok Malela","postal_code":21174},{"province":"Sumatera Utara","city":"Simalungun","district":"Hatonduhan","urban":"Buttu Bayu (Buntu Bayu)","postal_code":21174},{"province":"Sumatera Utara","city":"Simalungun","district":"Gunung Malela","urban":"Bukit Maraja","postal_code":21174},{"province":"Sumatera Utara","city":"Simalungun","district":"Gunung Malela","urban":"Bandar Siantar","postal_code":21174},{"province":"Sumatera Utara","city":"Simalungun","district":"Hatonduhan","urban":"Bosar Nauli","postal_code":21174},{"province":"Sumatera Utara","city":"Simalungun","district":"Gunung Malela","urban":"Bangun","postal_code":21174},{"province":"Sumatera Utara","city":"Simalungun","district":"Gunung Maligas","urban":"Bandar Malela","postal_code":21174}]