[{"province":"Sumatera Utara","city":"Simalungun","district":"Sidamanik","urban":"Tiga Bolon","postal_code":21171},{"province":"Sumatera Utara","city":"Simalungun","district":"Sidamanik","urban":"Mekar Sidamanik","postal_code":21171},{"province":"Sumatera Utara","city":"Simalungun","district":"Sidamanik","urban":"Sarimatondang","postal_code":21171},{"province":"Sumatera Utara","city":"Simalungun","district":"Sidamanik","urban":"Sidamanik","postal_code":21171},{"province":"Sumatera Utara","city":"Simalungun","district":"Sidamanik","urban":"Manik Hataran","postal_code":21171},{"province":"Sumatera Utara","city":"Simalungun","district":"Sidamanik","urban":"Manik Maraja","postal_code":21171},{"province":"Sumatera Utara","city":"Simalungun","district":"Sidamanik","urban":"Bahal Gajah","postal_code":21171},{"province":"Sumatera Utara","city":"Simalungun","district":"Sidamanik","urban":"Birong Ulu Manriah","postal_code":21171},{"province":"Sumatera Utara","city":"Simalungun","district":"Sidamanik","urban":"Kebun Sayur Bah Butong","postal_code":21171},{"province":"Sumatera Utara","city":"Simalungun","district":"Sidamanik","urban":"Bah Butong 1","postal_code":21171},{"province":"Sumatera Utara","city":"Simalungun","district":"Sidamanik","urban":"Bah Butong 2","postal_code":21171},{"province":"Sumatera Utara","city":"Simalungun","district":"Sidamanik","urban":"Ambarisan","postal_code":21171},{"province":"Sumatera Utara","city":"Simalungun","district":"Sidamanik","urban":"Bah Biak","postal_code":21171}]