[{"province":"Sumatera Utara","city":"Simalungun","district":"Bandar","urban":"Timbaan","postal_code":21184},{"province":"Sumatera Utara","city":"Simalungun","district":"Bandar","urban":"Sugarang Bayu","postal_code":21184},{"province":"Sumatera Utara","city":"Simalungun","district":"Bandar Huluan","urban":"Tanjung Hataran","postal_code":21184},{"province":"Sumatera Utara","city":"Simalungun","district":"Bandar","urban":"Perlanaan","postal_code":21184},{"province":"Sumatera Utara","city":"Simalungun","district":"Bandar","urban":"Sido Tani","postal_code":21184},{"province":"Sumatera Utara","city":"Simalungun","district":"Bandar","urban":"Perdagangan I","postal_code":21184},{"province":"Sumatera Utara","city":"Simalungun","district":"Bandar","urban":"Perdagangan II","postal_code":21184},{"province":"Sumatera Utara","city":"Simalungun","district":"Bandar","urban":"Perdagangan III","postal_code":21184},{"province":"Sumatera Utara","city":"Simalungun","district":"Bandar","urban":"Pematang Kerasaan Rejo","postal_code":21184},{"province":"Sumatera Utara","city":"Simalungun","district":"Bandar","urban":"Pematang Kerasaan","postal_code":21184},{"province":"Sumatera Utara","city":"Simalungun","district":"Bandar Masilam","urban":"Partimbalan","postal_code":21184},{"province":"Sumatera Utara","city":"Simalungun","district":"Bandar","urban":"Nagori Bandar","postal_code":21184},{"province":"Sumatera Utara","city":"Simalungun","district":"Bandar Masilam","urban":"Panombean Baru","postal_code":21184},{"province":"Sumatera Utara","city":"Simalungun","district":"Bandar Huluan","urban":"Naga Soppa","postal_code":21184},{"province":"Sumatera Utara","city":"Simalungun","district":"Bandar Huluan","urban":"Naga Jaya II","postal_code":21184},{"province":"Sumatera Utara","city":"Simalungun","district":"Bandar Huluan","urban":"Naga Jaya I","postal_code":21184},{"province":"Sumatera Utara","city":"Simalungun","district":"Bandar Masilam","urban":"Lias Baru","postal_code":21184},{"province":"Sumatera Utara","city":"Simalungun","district":"Bandar Huluan","urban":"Laras","postal_code":21184},{"province":"Sumatera Utara","city":"Simalungun","district":"Bandar Masilam","urban":"Gunung Serawan","postal_code":21184},{"province":"Sumatera Utara","city":"Simalungun","district":"Bandar Huluan","urban":"Bandar Tongah","postal_code":21184},{"province":"Sumatera Utara","city":"Simalungun","district":"Bandar Huluan","urban":"Dolok Parmonangan","postal_code":21184},{"province":"Sumatera Utara","city":"Simalungun","district":"Bandar Masilam","urban":"Bandar Silou","postal_code":21184},{"province":"Sumatera Utara","city":"Simalungun","district":"Bandar Masilam","urban":"Bandar Tinggi","postal_code":21184},{"province":"Sumatera Utara","city":"Simalungun","district":"Bandar","urban":"Bandar Rakyat","postal_code":21184},{"province":"Sumatera Utara","city":"Simalungun","district":"Bandar Masilam","urban":"Bandar Rejo","postal_code":21184},{"province":"Sumatera Utara","city":"Simalungun","district":"Bandar","urban":"Bandar Pulo","postal_code":21184},{"province":"Sumatera Utara","city":"Simalungun","district":"Bandar Masilam","urban":"Bandar Masilam","postal_code":21184},{"province":"Sumatera Utara","city":"Simalungun","district":"Bandar Masilam","urban":"Bandar Masilam II","postal_code":21184},{"province":"Sumatera Utara","city":"Simalungun","district":"Bandar Huluan","urban":"Bandar Betsy II","postal_code":21184},{"province":"Sumatera Utara","city":"Simalungun","district":"Bandar","urban":"Bandar Jawa","postal_code":21184},{"province":"Sumatera Utara","city":"Simalungun","district":"Bandar Huluan","urban":"Bah Gunung","postal_code":21184},{"province":"Sumatera Utara","city":"Simalungun","district":"Bandar Huluan","urban":"Bandar Betsy I","postal_code":21184},{"province":"Sumatera Utara","city":"Simalungun","district":"Bandar Huluan","urban":"Bandar Betsy I","postal_code":21184}]