[{"province":"Sumatera Utara","city":"Batu Bara","district":"Sei Suka","urban":"Tanjunggading","postal_code":21257},{"province":"Sumatera Utara","city":"Batu Bara","district":"Sei Suka","urban":"Tanjung Prapat/Parapat","postal_code":21257},{"province":"Sumatera Utara","city":"Batu Bara","district":"Sei Suka","urban":"Tanjung Seri","postal_code":21257},{"province":"Sumatera Utara","city":"Batu Bara","district":"Sei Suka","urban":"Simpang Kopi","postal_code":21257},{"province":"Sumatera Utara","city":"Batu Bara","district":"Sei Suka","urban":"Tanjung Kasau","postal_code":21257},{"province":"Sumatera Utara","city":"Batu Bara","district":"Sei Suka","urban":"Simodong","postal_code":21257},{"province":"Sumatera Utara","city":"Batu Bara","district":"Sei Suka","urban":"Sei Suka Deras","postal_code":21257},{"province":"Sumatera Utara","city":"Batu Bara","district":"Sei Suka","urban":"Perkebunan Tanjung Kasau","postal_code":21257},{"province":"Sumatera Utara","city":"Batu Bara","district":"Sei Suka","urban":"Sei Simujur","postal_code":21257},{"province":"Sumatera Utara","city":"Batu Bara","district":"Sei Suka","urban":"Pematang Kuning","postal_code":21257},{"province":"Sumatera Utara","city":"Batu Bara","district":"Sei Suka","urban":"Perkebunan Sipare-Pare","postal_code":21257},{"province":"Sumatera Utara","city":"Batu Bara","district":"Sei Suka","urban":"Pelanggiran Laut Tador","postal_code":21257},{"province":"Sumatera Utara","city":"Batu Bara","district":"Sei Suka","urban":"Pematang Jering","postal_code":21257},{"province":"Sumatera Utara","city":"Batu Bara","district":"Sei Suka","urban":"Laut Tador","postal_code":21257},{"province":"Sumatera Utara","city":"Batu Bara","district":"Sei Suka","urban":"Mekar Sari","postal_code":21257},{"province":"Sumatera Utara","city":"Batu Bara","district":"Sei Suka","urban":"Kwala/Kuala Indah","postal_code":21257},{"province":"Sumatera Utara","city":"Batu Bara","district":"Sei Suka","urban":"Kwala/Kuala Tanjung","postal_code":21257},{"province":"Sumatera Utara","city":"Batu Bara","district":"Sei Suka","urban":"Dwi Sri","postal_code":21257},{"province":"Sumatera Utara","city":"Batu Bara","district":"Sei Suka","urban":"Kandangan","postal_code":21257},{"province":"Sumatera Utara","city":"Batu Bara","district":"Sei Suka","urban":"Brohol","postal_code":21257}]