[{"province":"Sumatera Utara","city":"Asahan","district":"Pulo Bandring","urban":"Tanah Rakyat","postal_code":21264},{"province":"Sumatera Utara","city":"Asahan","district":"Pulo Bandring","urban":"Taman Sari","postal_code":21264},{"province":"Sumatera Utara","city":"Asahan","district":"Meranti","urban":"Sukajadi","postal_code":21264},{"province":"Sumatera Utara","city":"Asahan","district":"Pulo Bandring","urban":"Suka Damai","postal_code":21264},{"province":"Sumatera Utara","city":"Asahan","district":"Pulo Bandring","urban":"Suka Damai Barat","postal_code":21264},{"province":"Sumatera Utara","city":"Asahan","district":"Pulo Bandring","urban":"Suka Makmur","postal_code":21264},{"province":"Sumatera Utara","city":"Asahan","district":"Meranti","urban":"Serdang","postal_code":21264},{"province":"Sumatera Utara","city":"Asahan","district":"Pulo Bandring","urban":"Sidomulyo","postal_code":21264},{"province":"Sumatera Utara","city":"Asahan","district":"Meranti","urban":"Sei Beluru","postal_code":21264},{"province":"Sumatera Utara","city":"Asahan","district":"Rawang Panca Arga","urban":"Rawang Pasar VI","postal_code":21264},{"province":"Sumatera Utara","city":"Asahan","district":"Rawang Panca Arga","urban":"Rawang Pasar IV","postal_code":21264},{"province":"Sumatera Utara","city":"Asahan","district":"Rawang Panca Arga","urban":"Rawang Pasar V","postal_code":21264},{"province":"Sumatera Utara","city":"Asahan","district":"Rawang Panca Arga","urban":"Rawang Baru","postal_code":21264},{"province":"Sumatera Utara","city":"Asahan","district":"Rawang Panca Arga","urban":"Rawang Lama","postal_code":21264},{"province":"Sumatera Utara","city":"Asahan","district":"Pulo Bandring","urban":"Pulo Bandring","postal_code":21264},{"province":"Sumatera Utara","city":"Asahan","district":"Rawang Panca Arga","urban":"Pondok Bungur","postal_code":21264},{"province":"Sumatera Utara","city":"Asahan","district":"Pulo Bandring","urban":"Perhutaan Silau","postal_code":21264},{"province":"Sumatera Utara","city":"Asahan","district":"Rawang Panca Arga","urban":"Panca Arga","postal_code":21264},{"province":"Sumatera Utara","city":"Asahan","district":"Meranti","urban":"Perkebunan Sei Balai (Baleh)","postal_code":21264},{"province":"Sumatera Utara","city":"Asahan","district":"Meranti","urban":"Meranti","postal_code":21264},{"province":"Sumatera Utara","city":"Asahan","district":"Pulo Bandring","urban":"Gedangan","postal_code":21264},{"province":"Sumatera Utara","city":"Asahan","district":"Meranti","urban":"Gajah","postal_code":21264},{"province":"Sumatera Utara","city":"Asahan","district":"Pulo Bandring","urban":"Bunut Seberang","postal_code":21264},{"province":"Sumatera Utara","city":"Asahan","district":"Meranti","urban":"Air Putih","postal_code":21264}]