[{"province":"Sumatera Utara","city":"Asahan","district":"Air Joman","urban":"Subur","postal_code":21263},{"province":"Sumatera Utara","city":"Asahan","district":"Silau Laut","urban":"Silo Lama","postal_code":21263},{"province":"Sumatera Utara","city":"Asahan","district":"Air Joman","urban":"Punggulan","postal_code":21263},{"province":"Sumatera Utara","city":"Asahan","district":"Silau Laut","urban":"Silo Baru","postal_code":21263},{"province":"Sumatera Utara","city":"Asahan","district":"Silau Laut","urban":"Silo Bonto","postal_code":21263},{"province":"Sumatera Utara","city":"Asahan","district":"Silau Laut","urban":"Lubuk Palas","postal_code":21263},{"province":"Sumatera Utara","city":"Asahan","district":"Air Joman","urban":"Pasar Lembu","postal_code":21263},{"province":"Sumatera Utara","city":"Asahan","district":"Air Joman","urban":"Banjar","postal_code":21263},{"province":"Sumatera Utara","city":"Asahan","district":"Air Joman","urban":"Binjai Serbangan","postal_code":21263},{"province":"Sumatera Utara","city":"Asahan","district":"Silau Laut","urban":"Bangun Sari","postal_code":21263},{"province":"Sumatera Utara","city":"Asahan","district":"Air Joman","urban":"Air Joman","postal_code":21263},{"province":"Sumatera Utara","city":"Asahan","district":"Air Joman","urban":"Air Joman Baru","postal_code":21263}]