[{"province":"Sumatera Utara","city":"Asahan","district":"Tinggi Raja","urban":"Tinggi Raja","postal_code":21261},{"province":"Sumatera Utara","city":"Asahan","district":"Setia Janji","urban":"Urung Pane","postal_code":21261},{"province":"Sumatera Utara","city":"Asahan","district":"Tinggi Raja","urban":"Teladan","postal_code":21261},{"province":"Sumatera Utara","city":"Asahan","district":"Tinggi Raja","urban":"Terusan Tengah","postal_code":21261},{"province":"Sumatera Utara","city":"Asahan","district":"Buntu Pane","urban":"Sionggang","postal_code":21261},{"province":"Sumatera Utara","city":"Asahan","district":"Setia Janji","urban":"Silau Maraja","postal_code":21261},{"province":"Sumatera Utara","city":"Asahan","district":"Tinggi Raja","urban":"Sumber Harapan","postal_code":21261},{"province":"Sumatera Utara","city":"Asahan","district":"Tinggi Raja","urban":"Sidomulyo","postal_code":21261},{"province":"Sumatera Utara","city":"Asahan","district":"Setia Janji","urban":"Sei Silau Tua","postal_code":21261},{"province":"Sumatera Utara","city":"Asahan","district":"Buntu Pane","urban":"Sei Silau Timur","postal_code":21261},{"province":"Sumatera Utara","city":"Asahan","district":"Buntu Pane","urban":"Prapat Janji","postal_code":21261},{"province":"Sumatera Utara","city":"Asahan","district":"Setia Janji","urban":"Sei Silau Barat","postal_code":21261},{"province":"Sumatera Utara","city":"Asahan","district":"Tinggi Raja","urban":"Piasa Ulu","postal_code":21261},{"province":"Sumatera Utara","city":"Asahan","district":"Buntu Pane","urban":"Perkebunan Sei Silau","postal_code":21261},{"province":"Sumatera Utara","city":"Asahan","district":"Tinggi Raja","urban":"Padang Sari","postal_code":21261},{"province":"Sumatera Utara","city":"Asahan","district":"Buntu Pane","urban":"Mekar Sari","postal_code":21261},{"province":"Sumatera Utara","city":"Asahan","district":"Buntu Pane","urban":"Lestari","postal_code":21261},{"province":"Sumatera Utara","city":"Asahan","district":"Buntu Pane","urban":"Karya Ambalutu","postal_code":21261},{"province":"Sumatera Utara","city":"Asahan","district":"Buntu Pane","urban":"Buntu Pane","postal_code":21261},{"province":"Sumatera Utara","city":"Asahan","district":"Setia Janji","urban":"Bangun Sari","postal_code":21261},{"province":"Sumatera Utara","city":"Asahan","district":"Buntu Pane","urban":"Ambalutu","postal_code":21261}]