[{"province":"Sumatera Utara","city":"Asahan","district":"Teluk Dalam","urban":"Teluk Dalam","postal_code":21271},{"province":"Sumatera Utara","city":"Asahan","district":"Simpang Empat","urban":"Simpang Empat","postal_code":21271},{"province":"Sumatera Utara","city":"Asahan","district":"Simpang Empat","urban":"Sipaku Area","postal_code":21271},{"province":"Sumatera Utara","city":"Asahan","district":"Simpang Empat","urban":"Sei Dua Hulu","postal_code":21271},{"province":"Sumatera Utara","city":"Asahan","district":"Simpang Empat","urban":"Sei/Sungai Lama","postal_code":21271},{"province":"Sumatera Utara","city":"Asahan","district":"Simpang Empat","urban":"Silomlom","postal_code":21271},{"province":"Sumatera Utara","city":"Asahan","district":"Teluk Dalam","urban":"Pulau Tanjung","postal_code":21271},{"province":"Sumatera Utara","city":"Asahan","district":"Teluk Dalam","urban":"Perkebunan Teluk Dalam","postal_code":21271},{"province":"Sumatera Utara","city":"Asahan","district":"Teluk Dalam","urban":"Pulau Maria","postal_code":21271},{"province":"Sumatera Utara","city":"Asahan","district":"Simpang Empat","urban":"Perkebunan Hessa","postal_code":21271},{"province":"Sumatera Utara","city":"Asahan","district":"Simpang Empat","urban":"Perkebunan Suka Raja","postal_code":21271},{"province":"Sumatera Utara","city":"Asahan","district":"Teluk Dalam","urban":"Mekar Tanjung","postal_code":21271},{"province":"Sumatera Utara","city":"Asahan","district":"Simpang Empat","urban":"Anjung Gadang","postal_code":21271},{"province":"Sumatera Utara","city":"Asahan","district":"Teluk Dalam","urban":"Air Teluk Kiri","postal_code":21271}]