[{"province":"Sumatera Utara","city":"Asahan","district":"Sei Dadap","urban":"Tanjung Asri","postal_code":21272},{"province":"Sumatera Utara","city":"Asahan","district":"Sei Dadap","urban":"Tanjung Alam","postal_code":21272},{"province":"Sumatera Utara","city":"Asahan","district":"Air Batu","urban":"Sei/Sungai Alim Ulu","postal_code":21272},{"province":"Sumatera Utara","city":"Asahan","district":"Air Batu","urban":"Sijabut Teratai","postal_code":21272},{"province":"Sumatera Utara","city":"Asahan","district":"Sei Dadap","urban":"Sei Kamah II","postal_code":21272},{"province":"Sumatera Utara","city":"Asahan","district":"Sei Dadap","urban":"Sei Kamah Baru","postal_code":21272},{"province":"Sumatera Utara","city":"Asahan","district":"Sei Dadap","urban":"Sei Kamah II","postal_code":21272},{"province":"Sumatera Utara","city":"Asahan","district":"Air Batu","urban":"Pulau Pule","postal_code":21272},{"province":"Sumatera Utara","city":"Asahan","district":"Sei Dadap","urban":"Sei Alim Hasak","postal_code":21272},{"province":"Sumatera Utara","city":"Asahan","district":"Air Batu","urban":"Pinanggiripan","postal_code":21272},{"province":"Sumatera Utara","city":"Asahan","district":"Sei Dadap","urban":"Perkebunan Sei Dadap I-II","postal_code":21272},{"province":"Sumatera Utara","city":"Asahan","district":"Sei Dadap","urban":"Perkebunan Sei Dadap III-IV","postal_code":21272},{"province":"Sumatera Utara","city":"Asahan","district":"Air Batu","urban":"Perkebunan Air Batu III-IV","postal_code":21272},{"province":"Sumatera Utara","city":"Asahan","district":"Air Batu","urban":"Perkebunan Pulahan","postal_code":21272},{"province":"Sumatera Utara","city":"Asahan","district":"Air Batu","urban":"Perkebunan Air Batu I-II","postal_code":21272},{"province":"Sumatera Utara","city":"Asahan","district":"Sei Dadap","urban":"Pasiran","postal_code":21272},{"province":"Sumatera Utara","city":"Asahan","district":"Air Batu","urban":"Hessa Perlompongan","postal_code":21272},{"province":"Sumatera Utara","city":"Asahan","district":"Sei Dadap","urban":"Bahung Sibatu-Batu","postal_code":21272},{"province":"Sumatera Utara","city":"Asahan","district":"Air Batu","urban":"Danau Sijabut","postal_code":21272},{"province":"Sumatera Utara","city":"Asahan","district":"Air Batu","urban":"Hessa Air Genting","postal_code":21272},{"province":"Sumatera Utara","city":"Asahan","district":"Air Batu","urban":"Air Teluk Hessa","postal_code":21272},{"province":"Sumatera Utara","city":"Asahan","district":"Air Batu","urban":"Air Genting","postal_code":21272}]