[{"province":"Sumatera Utara","city":"Asahan","district":"Aek Songsongan","urban":"Tangga","postal_code":21274},{"province":"Sumatera Utara","city":"Asahan","district":"Aek Songsongan","urban":"Situnjak","postal_code":21274},{"province":"Sumatera Utara","city":"Asahan","district":"Rahuning","urban":"Rahuning I","postal_code":21274},{"province":"Sumatera Utara","city":"Asahan","district":"Rahuning","urban":"Rahuning II","postal_code":21274},{"province":"Sumatera Utara","city":"Asahan","district":"Rahuning","urban":"Rahuning","postal_code":21274},{"province":"Sumatera Utara","city":"Asahan","district":"Bandar Pulau","urban":"Perkebunan Padang Pulau","postal_code":21274},{"province":"Sumatera Utara","city":"Asahan","district":"Aek Songsongan","urban":"Perkebunan Bandar Pulau","postal_code":21274},{"province":"Sumatera Utara","city":"Asahan","district":"Aek Songsongan","urban":"Perkebunan Bandar Selamat","postal_code":21274},{"province":"Sumatera Utara","city":"Asahan","district":"Rahuning","urban":"Perkebunan Gunung Melayu","postal_code":21274},{"province":"Sumatera Utara","city":"Asahan","district":"Rahuning","urban":"Perkebunan Aek Nagaga","postal_code":21274},{"province":"Sumatera Utara","city":"Asahan","district":"Bandar Pulau","urban":"Perkebunan Aek Tarum","postal_code":21274},{"province":"Sumatera Utara","city":"Asahan","district":"Aek Songsongan","urban":"Mekar Marjanji","postal_code":21274},{"province":"Sumatera Utara","city":"Asahan","district":"Bandar Pulau","urban":"Padang Pulau","postal_code":21274},{"province":"Sumatera Utara","city":"Asahan","district":"Bandar Pulau","urban":"Huta Rao","postal_code":21274},{"province":"Sumatera Utara","city":"Asahan","district":"Aek Songsongan","urban":"Lobu Rappa","postal_code":21274},{"province":"Sumatera Utara","city":"Asahan","district":"Aek Songsongan","urban":"Marjanji Aceh","postal_code":21274},{"province":"Sumatera Utara","city":"Asahan","district":"Rahuning","urban":"Gunung Melayu","postal_code":21274},{"province":"Sumatera Utara","city":"Asahan","district":"Bandar Pulau","urban":"Gonting Malaha","postal_code":21274},{"province":"Sumatera Utara","city":"Asahan","district":"Bandar Pulau","urban":"Gunung Berkat","postal_code":21274},{"province":"Sumatera Utara","city":"Asahan","district":"Bandar Pulau","urban":"Buntu Maraja","postal_code":21274},{"province":"Sumatera Utara","city":"Asahan","district":"Bandar Pulau","urban":"Gajah Sakti","postal_code":21274},{"province":"Sumatera Utara","city":"Asahan","district":"Bandar Pulau","urban":"Bandar Pulau Pekan","postal_code":21274},{"province":"Sumatera Utara","city":"Asahan","district":"Rahuning","urban":"Batu Anam","postal_code":21274},{"province":"Sumatera Utara","city":"Asahan","district":"Bandar Pulau","urban":"Aek Nagali","postal_code":21274},{"province":"Sumatera Utara","city":"Asahan","district":"Aek Songsongan","urban":"Aek Songsongan","postal_code":21274},{"province":"Sumatera Utara","city":"Asahan","district":"Aek Songsongan","urban":"Aek Bamban","postal_code":21274}]