[{"province":"Sumatera Utara","city":"Asahan","district":"Pulau Rakyat","urban":"Tunggul Empat Lima (45)","postal_code":21273},{"province":"Sumatera Utara","city":"Asahan","district":"Aek Kuasan","urban":"Sengon Sari","postal_code":21273},{"province":"Sumatera Utara","city":"Asahan","district":"Pulau Rakyat","urban":"Sei Piring","postal_code":21273},{"province":"Sumatera Utara","city":"Asahan","district":"Pulau Rakyat","urban":"Pulau Rakyat Tua","postal_code":21273},{"province":"Sumatera Utara","city":"Asahan","district":"Aek Kuasan","urban":"Rawa Sari","postal_code":21273},{"province":"Sumatera Utara","city":"Asahan","district":"Pulau Rakyat","urban":"Persatuan","postal_code":21273},{"province":"Sumatera Utara","city":"Asahan","district":"Pulau Rakyat","urban":"Pulau Rakyat Pekan","postal_code":21273},{"province":"Sumatera Utara","city":"Asahan","district":"Aek Ledong","urban":"Padang Sipirok","postal_code":21273},{"province":"Sumatera Utara","city":"Asahan","district":"Pulau Rakyat","urban":"Ofa Padang Mahondang","postal_code":21273},{"province":"Sumatera Utara","city":"Asahan","district":"Pulau Rakyat","urban":"Orika","postal_code":21273},{"province":"Sumatera Utara","city":"Asahan","district":"Pulau Rakyat","urban":"Padang Mahondang","postal_code":21273},{"province":"Sumatera Utara","city":"Asahan","district":"Pulau Rakyat","urban":"Manis","postal_code":21273},{"province":"Sumatera Utara","city":"Asahan","district":"Aek Kuasan","urban":"Lobbu Jior (Lobu Jiur)","postal_code":21273},{"province":"Sumatera Utara","city":"Asahan","district":"Aek Ledong","urban":"Ledong Barat","postal_code":21273},{"province":"Sumatera Utara","city":"Asahan","district":"Aek Ledong","urban":"Ledong Timur","postal_code":21273},{"province":"Sumatera Utara","city":"Asahan","district":"Pulau Rakyat","urban":"Bangun","postal_code":21273},{"province":"Sumatera Utara","city":"Asahan","district":"Pulau Rakyat","urban":"Baru","postal_code":21273},{"province":"Sumatera Utara","city":"Asahan","district":"Aek Ledong","urban":"Aek Nabuntu","postal_code":21273},{"province":"Sumatera Utara","city":"Asahan","district":"Aek Kuasan","urban":"Alang Bombon (Bonbon)","postal_code":21273},{"province":"Sumatera Utara","city":"Asahan","district":"Aek Kuasan","urban":"Aek Loba","postal_code":21273},{"province":"Sumatera Utara","city":"Asahan","district":"Aek Kuasan","urban":"Aek Loba Afdeling I","postal_code":21273},{"province":"Sumatera Utara","city":"Asahan","district":"Aek Kuasan","urban":"Aek Loba Pekan","postal_code":21273},{"province":"Sumatera Utara","city":"Asahan","district":"Aek Ledong","urban":"Aek Korsik","postal_code":21273},{"province":"Sumatera Utara","city":"Asahan","district":"Aek Ledong","urban":"Aek Ledong","postal_code":21273},{"province":"Sumatera Utara","city":"Asahan","district":"Aek Ledong","urban":"Aek Bange","postal_code":21273}]