[{"province":"Sumatera Utara","city":"Labuhan Batu","district":"Bilah Barat","urban":"Tebing Linggahara Baru","postal_code":21411},{"province":"Sumatera Utara","city":"Labuhan Batu","district":"Bilah Barat","urban":"Tanjung Medan","postal_code":21411},{"province":"Sumatera Utara","city":"Labuhan Batu","district":"Bilah Barat","urban":"Tebing Linggahara","postal_code":21411},{"province":"Sumatera Utara","city":"Labuhan Batu","district":"Bilah Barat","urban":"Sibargot","postal_code":21411},{"province":"Sumatera Utara","city":"Labuhan Batu","district":"Bilah Barat","urban":"Perkebunan Afdeling I Rantau Prapat","postal_code":21411},{"province":"Sumatera Utara","city":"Labuhan Batu","district":"Bilah Barat","urban":"Perkebunan Afdeling II Rantau Prapat","postal_code":21411},{"province":"Sumatera Utara","city":"Labuhan Batu","district":"Rantau Utara","urban":"Padang Matingi","postal_code":21411},{"province":"Sumatera Utara","city":"Labuhan Batu","district":"Bilah Barat","urban":"Perkebunan Aek Buru Selatan","postal_code":21411},{"province":"Sumatera Utara","city":"Labuhan Batu","district":"Bilah Barat","urban":"Bandar Kumbul","postal_code":21411},{"province":"Sumatera Utara","city":"Labuhan Batu","district":"Bilah Barat","urban":"Janji","postal_code":21411}]