[{"province":"Sumatera Utara","city":"Labuhan Batu Utara","district":"Aek Natas","urban":"Ujung Padang","postal_code":21455},{"province":"Sumatera Utara","city":"Labuhan Batu Utara","district":"Aek Natas","urban":"Simonis","postal_code":21455},{"province":"Sumatera Utara","city":"Labuhan Batu Utara","district":"Aek Natas","urban":"Terang Bulan","postal_code":21455},{"province":"Sumatera Utara","city":"Labuhan Batu Utara","district":"Aek Kuo","urban":"Sidomulyo","postal_code":21455},{"province":"Sumatera Utara","city":"Labuhan Batu Utara","district":"Aek Natas","urban":"Sibito","postal_code":21455},{"province":"Sumatera Utara","city":"Labuhan Batu Utara","district":"Aek Kuo","urban":"Purwo Rejo","postal_code":21455},{"province":"Sumatera Utara","city":"Labuhan Batu Utara","district":"Aek Natas","urban":"Poldung","postal_code":21455},{"province":"Sumatera Utara","city":"Labuhan Batu Utara","district":"Aek Natas","urban":"Rombisan","postal_code":21455},{"province":"Sumatera Utara","city":"Labuhan Batu Utara","district":"Aek Kuo","urban":"Perkebunan Padang Halaban","postal_code":21455},{"province":"Sumatera Utara","city":"Labuhan Batu Utara","district":"Aek Kuo","urban":"Perkebunan Panigoran","postal_code":21455},{"province":"Sumatera Utara","city":"Labuhan Batu Utara","district":"Aek Natas","urban":"Perkebunan Aek Pamingke","postal_code":21455},{"province":"Sumatera Utara","city":"Labuhan Batu Utara","district":"Aek Natas","urban":"Perkebunan Halim B","postal_code":21455},{"province":"Sumatera Utara","city":"Labuhan Batu Utara","district":"Aek Kuo","urban":"Padang Maninjau","postal_code":21455},{"province":"Sumatera Utara","city":"Labuhan Batu Utara","district":"Aek Natas","urban":"Pangkalan","postal_code":21455},{"province":"Sumatera Utara","city":"Labuhan Batu Utara","district":"Aek Kuo","urban":"Karang Ayer (Anyar)","postal_code":21455},{"province":"Sumatera Utara","city":"Labuhan Batu Utara","district":"Aek Natas","urban":"Kampung Yaman","postal_code":21455},{"province":"Sumatera Utara","city":"Labuhan Batu Utara","district":"Aek Kuo","urban":"Bandar Selamat","postal_code":21455},{"province":"Sumatera Utara","city":"Labuhan Batu Utara","district":"Aek Natas","urban":"Bandar Durian","postal_code":21455},{"province":"Sumatera Utara","city":"Labuhan Batu Utara","district":"Aek Natas","urban":"Bandar Durian II","postal_code":21455},{"province":"Sumatera Utara","city":"Labuhan Batu Utara","district":"Aek Kuo","urban":"Aek Korsik","postal_code":21455},{"province":"Sumatera Utara","city":"Labuhan Batu Utara","district":"Aek Natas","urban":"Adian Torop","postal_code":21455}]