[{"province":"Sumatera Utara","city":"Labuhan Batu Utara","district":"Kualuh Selatan","urban":"Tanjung Pasir","postal_code":21457},{"province":"Sumatera Utara","city":"Labuhan Batu Utara","district":"Kualuh Hulu","urban":"Suka Rame Baru","postal_code":21457},{"province":"Sumatera Utara","city":"Labuhan Batu Utara","district":"Kualuh Hulu","urban":"Suka Rame","postal_code":21457},{"province":"Sumatera Utara","city":"Labuhan Batu Utara","district":"Kualuh Hulu","urban":"Sono Martani","postal_code":21457},{"province":"Sumatera Utara","city":"Labuhan Batu Utara","district":"Kualuh Selatan","urban":"Simangalam","postal_code":21457},{"province":"Sumatera Utara","city":"Labuhan Batu Utara","district":"Kualuh Selatan","urban":"Sialang Taji","postal_code":21457},{"province":"Sumatera Utara","city":"Labuhan Batu Utara","district":"Kualuh Selatan","urban":"Siamporik","postal_code":21457},{"province":"Sumatera Utara","city":"Labuhan Batu Utara","district":"Kualuh Selatan","urban":"Sidua Dua","postal_code":21457},{"province":"Sumatera Utara","city":"Labuhan Batu Utara","district":"Kualuh Hulu","urban":"Pulo Dogom","postal_code":21457},{"province":"Sumatera Utara","city":"Labuhan Batu Utara","district":"Kualuh Hulu","urban":"Perkebunan Mambang/Membang Muda","postal_code":21457},{"province":"Sumatera Utara","city":"Labuhan Batu Utara","district":"Kualuh Hulu","urban":"Perkebunan Kanopan Ulu","postal_code":21457},{"province":"Sumatera Utara","city":"Labuhan Batu Utara","district":"Kualuh Hulu","urban":"Perkebunan Labuhan Haji","postal_code":21457},{"province":"Sumatera Utara","city":"Labuhan Batu Utara","district":"Kualuh Hulu","urban":"Perkebunan Londut","postal_code":21457},{"province":"Sumatera Utara","city":"Labuhan Batu Utara","district":"Kualuh Hulu","urban":"Parpaudangan","postal_code":21457},{"province":"Sumatera Utara","city":"Labuhan Batu Utara","district":"Kualuh Hulu","urban":"Perkebunan Hanna","postal_code":21457},{"province":"Sumatera Utara","city":"Labuhan Batu Utara","district":"Kualuh Hulu","urban":"Kuala Beringin","postal_code":21457},{"province":"Sumatera Utara","city":"Labuhan Batu Utara","district":"Kualuh Selatan","urban":"Hasang","postal_code":21457},{"province":"Sumatera Utara","city":"Labuhan Batu Utara","district":"Kualuh Selatan","urban":"Lobu Huala","postal_code":21457},{"province":"Sumatera Utara","city":"Labuhan Batu Utara","district":"Kualuh Selatan","urban":"Gunting Saga","postal_code":21457},{"province":"Sumatera Utara","city":"Labuhan Batu Utara","district":"Kualuh Selatan","urban":"Gunung Melayu","postal_code":21457},{"province":"Sumatera Utara","city":"Labuhan Batu Utara","district":"Kualuh Selatan","urban":"Damuli Kebun (Perkebunan Damuli)","postal_code":21457},{"province":"Sumatera Utara","city":"Labuhan Batu Utara","district":"Kualuh Selatan","urban":"Damuli Pekan","postal_code":21457},{"province":"Sumatera Utara","city":"Labuhan Batu Utara","district":"Kualuh Selatan","urban":"Bandar Lama","postal_code":21457},{"province":"Sumatera Utara","city":"Labuhan Batu Utara","district":"Kualuh Hulu","urban":"Aek Kanopan Timur","postal_code":21457},{"province":"Sumatera Utara","city":"Labuhan Batu Utara","district":"Kualuh Hulu","urban":"Aek Kanopan","postal_code":21457}]