[{"province":"Sumatera Utara","city":"Labuhan Batu Utara","district":"Na IX-X","urban":"Sungai Raja","postal_code":21454},{"province":"Sumatera Utara","city":"Labuhan Batu Utara","district":"Na IX-X","urban":"Silumajang","postal_code":21454},{"province":"Sumatera Utara","city":"Labuhan Batu Utara","district":"Na IX-X","urban":"Simpang Marbau","postal_code":21454},{"province":"Sumatera Utara","city":"Labuhan Batu Utara","district":"Na IX-X","urban":"Pematang","postal_code":21454},{"province":"Sumatera Utara","city":"Labuhan Batu Utara","district":"Na IX-X","urban":"Perkebunan Berangir","postal_code":21454},{"province":"Sumatera Utara","city":"Labuhan Batu Utara","district":"Na IX-X","urban":"Pulo Jantan","postal_code":21454},{"province":"Sumatera Utara","city":"Labuhan Batu Utara","district":"Na IX-X","urban":"Meranti Omas","postal_code":21454},{"province":"Sumatera Utara","city":"Labuhan Batu Utara","district":"Na IX-X","urban":"Pasang Lela","postal_code":21454},{"province":"Sumatera Utara","city":"Labuhan Batu Utara","district":"Na IX-X","urban":"Hatapang","postal_code":21454},{"province":"Sumatera Utara","city":"Labuhan Batu Utara","district":"Na IX-X","urban":"Kampung Pajak","postal_code":21454},{"province":"Sumatera Utara","city":"Labuhan Batu Utara","district":"Na IX-X","urban":"Bangun Rejo","postal_code":21454},{"province":"Sumatera Utara","city":"Labuhan Batu Utara","district":"Na IX-X","urban":"Batu Tunggal","postal_code":21454},{"province":"Sumatera Utara","city":"Labuhan Batu Utara","district":"Na IX-X","urban":"Aek Kota Batu","postal_code":21454}]