[{"province":"Sumatera Utara","city":"Labuhan Batu Utara","district":"Marbau","urban":"Sumber Mulyo","postal_code":21452},{"province":"Sumatera Utara","city":"Labuhan Batu Utara","district":"Marbau","urban":"Tubiran","postal_code":21452},{"province":"Sumatera Utara","city":"Labuhan Batu Utara","district":"Marbau","urban":"Sipare Pare Hilir","postal_code":21452},{"province":"Sumatera Utara","city":"Labuhan Batu Utara","district":"Marbau","urban":"Sipare Pare Tengah","postal_code":21452},{"province":"Sumatera Utara","city":"Labuhan Batu Utara","district":"Marbau","urban":"Pulo Bargot","postal_code":21452},{"province":"Sumatera Utara","city":"Labuhan Batu Utara","district":"Marbau","urban":"Simpang Empat","postal_code":21452},{"province":"Sumatera Utara","city":"Labuhan Batu Utara","district":"Marbau","urban":"Perkebunan Pernantian","postal_code":21452},{"province":"Sumatera Utara","city":"Labuhan Batu Utara","district":"Marbau","urban":"Perkebunan Marbau Selatan","postal_code":21452},{"province":"Sumatera Utara","city":"Labuhan Batu Utara","district":"Marbau","urban":"Perkebunan Milano","postal_code":21452},{"province":"Sumatera Utara","city":"Labuhan Batu Utara","district":"Marbau","urban":"Marbau Selatan","postal_code":21452},{"province":"Sumatera Utara","city":"Labuhan Batu Utara","district":"Marbau","urban":"Perkebunan Brussel","postal_code":21452},{"province":"Sumatera Utara","city":"Labuhan Batu Utara","district":"Marbau","urban":"Lobu Rampah","postal_code":21452},{"province":"Sumatera Utara","city":"Labuhan Batu Utara","district":"Marbau","urban":"Marbau","postal_code":21452},{"province":"Sumatera Utara","city":"Labuhan Batu Utara","district":"Marbau","urban":"Belongkut","postal_code":21452},{"province":"Sumatera Utara","city":"Labuhan Batu Utara","district":"Marbau","urban":"Bulung Gihit (Bulungihit)","postal_code":21452},{"province":"Sumatera Utara","city":"Labuhan Batu Utara","district":"Marbau","urban":"Babussalam","postal_code":21452},{"province":"Sumatera Utara","city":"Labuhan Batu Utara","district":"Marbau","urban":"Aek Tapa","postal_code":21452},{"province":"Sumatera Utara","city":"Labuhan Batu Utara","district":"Marbau","urban":"Aek Hitetoras","postal_code":21452}]