[{"province":"Sumatera Utara","city":"Labuhan Batu Selatan","district":"Torgamba","urban":"Torganda","postal_code":21464},{"province":"Sumatera Utara","city":"Labuhan Batu Selatan","district":"Torgamba","urban":"Torgamba","postal_code":21464},{"province":"Sumatera Utara","city":"Labuhan Batu Selatan","district":"Torgamba","urban":"Teluk Rampah","postal_code":21464},{"province":"Sumatera Utara","city":"Labuhan Batu Selatan","district":"Kota Pinang","urban":"Sungai Rumbia (Perkebunan Sei Rumbia)","postal_code":21464},{"province":"Sumatera Utara","city":"Labuhan Batu Selatan","district":"Torgamba","urban":"Sungai Meranti","postal_code":21464},{"province":"Sumatera Utara","city":"Labuhan Batu Selatan","district":"Kota Pinang","urban":"Sosopan","postal_code":21464},{"province":"Sumatera Utara","city":"Labuhan Batu Selatan","district":"Kota Pinang","urban":"Sisumut","postal_code":21464},{"province":"Sumatera Utara","city":"Labuhan Batu Selatan","district":"Kota Pinang","urban":"Simatahari","postal_code":21464},{"province":"Sumatera Utara","city":"Labuhan Batu Selatan","district":"Torgamba","urban":"Rasau","postal_code":21464},{"province":"Sumatera Utara","city":"Labuhan Batu Selatan","district":"Kota Pinang","urban":"Perkebunan Normark","postal_code":21464},{"province":"Sumatera Utara","city":"Labuhan Batu Selatan","district":"Torgamba","urban":"Pinang Dame","postal_code":21464},{"province":"Sumatera Utara","city":"Labuhan Batu Selatan","district":"Kota Pinang","urban":"Perkebunan Nagodang","postal_code":21464},{"province":"Sumatera Utara","city":"Labuhan Batu Selatan","district":"Kota Pinang","urban":"Pasir Tuntung","postal_code":21464},{"province":"Sumatera Utara","city":"Labuhan Batu Selatan","district":"Torgamba","urban":"Pangarungan","postal_code":21464},{"province":"Sumatera Utara","city":"Labuhan Batu Selatan","district":"Kota Pinang","urban":"Mampang","postal_code":21464},{"province":"Sumatera Utara","city":"Labuhan Batu Selatan","district":"Kota Pinang","urban":"Kota Pinang","postal_code":21464},{"province":"Sumatera Utara","city":"Labuhan Batu Selatan","district":"Kota Pinang","urban":"Hadundung","postal_code":21464},{"province":"Sumatera Utara","city":"Labuhan Batu Selatan","district":"Torgamba","urban":"Bunut","postal_code":21464},{"province":"Sumatera Utara","city":"Labuhan Batu Selatan","district":"Torgamba","urban":"Beringin Jaya","postal_code":21464},{"province":"Sumatera Utara","city":"Labuhan Batu Selatan","district":"Torgamba","urban":"Bukit Tujuh","postal_code":21464},{"province":"Sumatera Utara","city":"Labuhan Batu Selatan","district":"Torgamba","urban":"Bangai","postal_code":21464},{"province":"Sumatera Utara","city":"Labuhan Batu Selatan","district":"Torgamba","urban":"Aek Batu","postal_code":21464},{"province":"Sumatera Utara","city":"Labuhan Batu Selatan","district":"Torgamba","urban":"Aek Raso","postal_code":21464},{"province":"Sumatera Utara","city":"Labuhan Batu Selatan","district":"Torgamba","urban":"Asam Jawa","postal_code":21464}]