[{"province":"Sumatera Utara","city":"Labuhan Batu","district":"Panai Hulu","urban":"Tanjung Sarang Elang","postal_code":21471},{"province":"Sumatera Utara","city":"Labuhan Batu","district":"Panai Hulu","urban":"Teluk Sentosa","postal_code":21471},{"province":"Sumatera Utara","city":"Labuhan Batu","district":"Bilah Hilir","urban":"Tanjung Haloban","postal_code":21471},{"province":"Sumatera Utara","city":"Labuhan Batu","district":"Bilah Hilir","urban":"Sidomulyo","postal_code":21471},{"province":"Sumatera Utara","city":"Labuhan Batu","district":"Panai Hulu","urban":"Sijawijawi (Sei Jawi Jawi)","postal_code":21471},{"province":"Sumatera Utara","city":"Labuhan Batu","district":"Bilah Hilir","urban":"Selat Besar","postal_code":21471},{"province":"Sumatera Utara","city":"Labuhan Batu","district":"Bilah Hilir","urban":"Sei Tarolat","postal_code":21471},{"province":"Sumatera Utara","city":"Labuhan Batu","district":"Bilah Hilir","urban":"Sei Tampang","postal_code":21471},{"province":"Sumatera Utara","city":"Labuhan Batu","district":"Bilah Hilir","urban":"Sei Kasih","postal_code":21471},{"province":"Sumatera Utara","city":"Labuhan Batu","district":"Panai Hulu","urban":"Sei Sentosa","postal_code":21471},{"province":"Sumatera Utara","city":"Labuhan Batu","district":"Bilah Hilir","urban":"Perkebunan Sennah","postal_code":21471},{"province":"Sumatera Utara","city":"Labuhan Batu","district":"Bilah Hilir","urban":"Perkebunan Negeri Lama","postal_code":21471},{"province":"Sumatera Utara","city":"Labuhan Batu","district":"Bilah Hilir","urban":"Negeri Lama Seberang","postal_code":21471},{"province":"Sumatera Utara","city":"Labuhan Batu","district":"Bilah Hilir","urban":"Perkebunan Bilah","postal_code":21471},{"province":"Sumatera Utara","city":"Labuhan Batu","district":"Bilah Hilir","urban":"Negeri Lama","postal_code":21471},{"province":"Sumatera Utara","city":"Labuhan Batu","district":"Bilah Hilir","urban":"Negeri Baru","postal_code":21471},{"province":"Sumatera Utara","city":"Labuhan Batu","district":"Panai Hulu","urban":"Maranti/Meranti Paham","postal_code":21471},{"province":"Sumatera Utara","city":"Labuhan Batu","district":"Panai Hulu","urban":"Cinta Makmur","postal_code":21471},{"province":"Sumatera Utara","city":"Labuhan Batu","district":"Bilah Hilir","urban":"Kampung Bilah","postal_code":21471},{"province":"Sumatera Utara","city":"Labuhan Batu","district":"Panai Hulu","urban":"Ajamu (Perkebunan IV Ajamu)","postal_code":21471}]