[{"province":"Sumatera Utara","city":"Labuhan Batu","district":"Panai Tengah","urban":"Telaga Suka","postal_code":21472},{"province":"Sumatera Utara","city":"Labuhan Batu","district":"Panai Tengah","urban":"Sei Rakyat","postal_code":21472},{"province":"Sumatera Utara","city":"Labuhan Batu","district":"Panai Tengah","urban":"Sei Siati/Siarti","postal_code":21472},{"province":"Sumatera Utara","city":"Labuhan Batu","district":"Panai Tengah","urban":"Selat Beting","postal_code":21472},{"province":"Sumatera Utara","city":"Labuhan Batu","district":"Panai Tengah","urban":"Sei Nahodaris","postal_code":21472},{"province":"Sumatera Utara","city":"Labuhan Batu","district":"Panai Tengah","urban":"Sei Plancang","postal_code":21472},{"province":"Sumatera Utara","city":"Labuhan Batu","district":"Panai Tengah","urban":"Pasar Tiga","postal_code":21472},{"province":"Sumatera Utara","city":"Labuhan Batu","district":"Panai Tengah","urban":"Sei Merdeka","postal_code":21472},{"province":"Sumatera Utara","city":"Labuhan Batu","district":"Panai Tengah","urban":"Bagan Bilah","postal_code":21472},{"province":"Sumatera Utara","city":"Labuhan Batu","district":"Panai Tengah","urban":"Labuhan Bilik","postal_code":21472}]