[{"province":"Sumatera Utara","city":"Karo","district":"Simpang Empat","urban":"Tiga Pancur","postal_code":22153},{"province":"Sumatera Utara","city":"Karo","district":"Simpang Empat","urban":"Torong","postal_code":22153},{"province":"Sumatera Utara","city":"Karo","district":"Merdeka","urban":"Ujung Teran","postal_code":22153},{"province":"Sumatera Utara","city":"Karo","district":"Simpang Empat","urban":"Surbakti","postal_code":22153},{"province":"Sumatera Utara","city":"Karo","district":"Nama Teran","urban":"Sukatepu","postal_code":22153},{"province":"Sumatera Utara","city":"Karo","district":"Nama Teran","urban":"Simacem","postal_code":22153},{"province":"Sumatera Utara","city":"Karo","district":"Nama Teran","urban":"Suka Nalu","postal_code":22153},{"province":"Sumatera Utara","city":"Karo","district":"Nama Teran","urban":"Suka Ndebi","postal_code":22153},{"province":"Sumatera Utara","city":"Karo","district":"Nama Teran","urban":"Sigarang Garang","postal_code":22153},{"province":"Sumatera Utara","city":"Karo","district":"Simpang Empat","urban":"Serumbia","postal_code":22153},{"province":"Sumatera Utara","city":"Karo","district":"Merdeka","urban":"Sada Perarih","postal_code":22153},{"province":"Sumatera Utara","city":"Karo","district":"Merdeka","urban":"Semangat","postal_code":22153},{"province":"Sumatera Utara","city":"Karo","district":"Merdeka","urban":"Semangat Gunung","postal_code":22153},{"province":"Sumatera Utara","city":"Karo","district":"Simpang Empat","urban":"Ndokum Siroga","postal_code":22153},{"province":"Sumatera Utara","city":"Karo","district":"Simpang Empat","urban":"Perteguhen","postal_code":22153},{"province":"Sumatera Utara","city":"Karo","district":"Simpang Empat","urban":"Pintu Besi","postal_code":22153},{"province":"Sumatera Utara","city":"Karo","district":"Simpang Empat","urban":"Nang Belawan","postal_code":22153},{"province":"Sumatera Utara","city":"Karo","district":"Nama Teran","urban":"Ndeskati","postal_code":22153},{"province":"Sumatera Utara","city":"Karo","district":"Simpang Empat","urban":"Lingga Julu","postal_code":22153},{"province":"Sumatera Utara","city":"Karo","district":"Simpang Empat","urban":"Lingga Julu","postal_code":22153},{"province":"Sumatera Utara","city":"Karo","district":"Nama Teran","urban":"Naman","postal_code":22153},{"province":"Sumatera Utara","city":"Karo","district":"Simpang Empat","urban":"Kuta Tengah","postal_code":22153},{"province":"Sumatera Utara","city":"Karo","district":"Simpang Empat","urban":"Lingga","postal_code":22153},{"province":"Sumatera Utara","city":"Karo","district":"Nama Teran","urban":"Kuta Tonggal","postal_code":22153},{"province":"Sumatera Utara","city":"Karo","district":"Nama Teran","urban":"Kuta Gugung","postal_code":22153},{"province":"Sumatera Utara","city":"Karo","district":"Nama Teran","urban":"Kuta Mbelin","postal_code":22153},{"province":"Sumatera Utara","city":"Karo","district":"Nama Teran","urban":"Kuta Rayat","postal_code":22153},{"province":"Sumatera Utara","city":"Karo","district":"Nama Teran","urban":"Kebayaken","postal_code":22153},{"province":"Sumatera Utara","city":"Karo","district":"Simpang Empat","urban":"Jeraya","postal_code":22153},{"province":"Sumatera Utara","city":"Karo","district":"Nama Teran","urban":"Gung Pinto","postal_code":22153},{"province":"Sumatera Utara","city":"Karo","district":"Merdeka","urban":"Jaranguda","postal_code":22153},{"province":"Sumatera Utara","city":"Karo","district":"Merdeka","urban":"Gongsol","postal_code":22153},{"province":"Sumatera Utara","city":"Karo","district":"Simpang Empat","urban":"Gamber","postal_code":22153},{"province":"Sumatera Utara","city":"Karo","district":"Simpang Empat","urban":"Gajah","postal_code":22153},{"province":"Sumatera Utara","city":"Karo","district":"Merdeka","urban":"Cinta Rayat","postal_code":22153},{"province":"Sumatera Utara","city":"Karo","district":"Merdeka","urban":"Deram","postal_code":22153},{"province":"Sumatera Utara","city":"Karo","district":"Simpang Empat","urban":"Bulan Baru","postal_code":22153},{"province":"Sumatera Utara","city":"Karo","district":"Simpang Empat","urban":"Berastepu","postal_code":22153},{"province":"Sumatera Utara","city":"Karo","district":"Simpang Empat","urban":"Beganding","postal_code":22153},{"province":"Sumatera Utara","city":"Karo","district":"Nama Teran","urban":"Bekerah","postal_code":22153}]