[{"province":"Sumatera Utara","city":"Karo","district":"Brastagi (Berastagi)","urban":"Tambak Lau Mulgap I","postal_code":22152},{"province":"Sumatera Utara","city":"Karo","district":"Brastagi (Berastagi)","urban":"Tambak Lau Mulgap II","postal_code":22152},{"province":"Sumatera Utara","city":"Karo","district":"Brastagi (Berastagi)","urban":"Rumah Brastagi/Berastagi","postal_code":22152},{"province":"Sumatera Utara","city":"Karo","district":"Brastagi (Berastagi)","urban":"Sempajaya","postal_code":22152},{"province":"Sumatera Utara","city":"Karo","district":"Brastagi (Berastagi)","urban":"Gurusinga","postal_code":22152},{"province":"Sumatera Utara","city":"Karo","district":"Brastagi (Berastagi)","urban":"Lau Gumba","postal_code":22152},{"province":"Sumatera Utara","city":"Karo","district":"Brastagi (Berastagi)","urban":"Raya","postal_code":22152},{"province":"Sumatera Utara","city":"Karo","district":"Brastagi (Berastagi)","urban":"Gundaling II","postal_code":22152},{"province":"Sumatera Utara","city":"Karo","district":"Brastagi (Berastagi)","urban":"Gundaling I","postal_code":22152},{"province":"Sumatera Utara","city":"Karo","district":"Brastagi (Berastagi)","urban":"Doulu (Daulu)","postal_code":22152}]