[{"province":"Sumatera Utara","city":"Karo","district":"Tiga Binanga","urban":"Tiga Binanga","postal_code":22162},{"province":"Sumatera Utara","city":"Karo","district":"Tiga Binanga","urban":"Simolap","postal_code":22162},{"province":"Sumatera Utara","city":"Karo","district":"Tiga Binanga","urban":"Simpang Pergendangen Perlambe","postal_code":22162},{"province":"Sumatera Utara","city":"Karo","district":"Tiga Binanga","urban":"Pergendangen","postal_code":22162},{"province":"Sumatera Utara","city":"Karo","district":"Tiga Binanga","urban":"Pertumbuken","postal_code":22162},{"province":"Sumatera Utara","city":"Karo","district":"Tiga Binanga","urban":"Limang","postal_code":22162},{"province":"Sumatera Utara","city":"Karo","district":"Tiga Binanga","urban":"Perbesi","postal_code":22162},{"province":"Sumatera Utara","city":"Karo","district":"Tiga Binanga","urban":"Kutambaru Punti Batu Mama","postal_code":22162},{"province":"Sumatera Utara","city":"Karo","district":"Tiga Binanga","urban":"Lau Kapur","postal_code":22162},{"province":"Sumatera Utara","city":"Karo","district":"Tiga Binanga","urban":"Kuta Julu","postal_code":22162},{"province":"Sumatera Utara","city":"Karo","district":"Tiga Binanga","urban":"Kuta Raya","postal_code":22162},{"province":"Sumatera Utara","city":"Karo","district":"Tiga Binanga","urban":"Kuta Galoh/Galuh","postal_code":22162},{"province":"Sumatera Utara","city":"Karo","district":"Tiga Binanga","urban":"Kuta Gerat","postal_code":22162},{"province":"Sumatera Utara","city":"Karo","district":"Tiga Binanga","urban":"Kuala","postal_code":22162},{"province":"Sumatera Utara","city":"Karo","district":"Tiga Binanga","urban":"Kuta Bangun","postal_code":22162},{"province":"Sumatera Utara","city":"Karo","district":"Tiga Binanga","urban":"Kuta Buara","postal_code":22162},{"province":"Sumatera Utara","city":"Karo","district":"Tiga Binanga","urban":"Gunung","postal_code":22162},{"province":"Sumatera Utara","city":"Karo","district":"Tiga Binanga","urban":"Kem Kem","postal_code":22162},{"province":"Sumatera Utara","city":"Karo","district":"Tiga Binanga","urban":"Bunga Baru","postal_code":22162},{"province":"Sumatera Utara","city":"Karo","district":"Tiga Binanga","urban":"Batumanak","postal_code":22162}]