[{"province":"Sumatera Utara","city":"Karo","district":"Tiga Panah","urban":"Tigapanah","postal_code":22171},{"province":"Sumatera Utara","city":"Karo","district":"Dolat Rayat","urban":"Ujung Sampun","postal_code":22171},{"province":"Sumatera Utara","city":"Karo","district":"Tiga Panah","urban":"Sukamaju","postal_code":22171},{"province":"Sumatera Utara","city":"Karo","district":"Tiga Panah","urban":"Sukapilihen","postal_code":22171},{"province":"Sumatera Utara","city":"Karo","district":"Tiga Panah","urban":"Suka Mbayak","postal_code":22171},{"province":"Sumatera Utara","city":"Karo","district":"Tiga Panah","urban":"Sukadame","postal_code":22171},{"province":"Sumatera Utara","city":"Karo","district":"Dolat Rayat","urban":"Sugihen","postal_code":22171},{"province":"Sumatera Utara","city":"Karo","district":"Tiga Panah","urban":"Singa","postal_code":22171},{"province":"Sumatera Utara","city":"Karo","district":"Tiga Panah","urban":"Suka","postal_code":22171},{"province":"Sumatera Utara","city":"Karo","district":"Dolat Rayat","urban":"Sampun","postal_code":22171},{"province":"Sumatera Utara","city":"Karo","district":"Tiga Panah","urban":"Salit","postal_code":22171},{"province":"Sumatera Utara","city":"Karo","district":"Tiga Panah","urban":"Seberaya","postal_code":22171},{"province":"Sumatera Utara","city":"Karo","district":"Tiga Panah","urban":"Mulawari","postal_code":22171},{"province":"Sumatera Utara","city":"Karo","district":"Dolat Rayat","urban":"Melas","postal_code":22171},{"province":"Sumatera Utara","city":"Karo","district":"Tiga Panah","urban":"Manuk Mulia","postal_code":22171},{"province":"Sumatera Utara","city":"Karo","district":"Tiga Panah","urban":"Lau Riman","postal_code":22171},{"province":"Sumatera Utara","city":"Karo","district":"Tiga Panah","urban":"Lepar Samura","postal_code":22171},{"province":"Sumatera Utara","city":"Karo","district":"Tiga Panah","urban":"Lambar","postal_code":22171},{"province":"Sumatera Utara","city":"Karo","district":"Tiga Panah","urban":"Kuta Mbelin","postal_code":22171},{"province":"Sumatera Utara","city":"Karo","district":"Tiga Panah","urban":"Kutajulu","postal_code":22171},{"province":"Sumatera Utara","city":"Karo","district":"Tiga Panah","urban":"Kuta Bale","postal_code":22171},{"province":"Sumatera Utara","city":"Karo","district":"Tiga Panah","urban":"Kuta Kepar","postal_code":22171},{"province":"Sumatera Utara","city":"Karo","district":"Dolat Rayat","urban":"Kubucolia","postal_code":22171},{"province":"Sumatera Utara","city":"Karo","district":"Tiga Panah","urban":"Kubu Simbelang","postal_code":22171},{"province":"Sumatera Utara","city":"Karo","district":"Tiga Panah","urban":"Bunuraya","postal_code":22171},{"province":"Sumatera Utara","city":"Karo","district":"Tiga Panah","urban":"Kacinambun","postal_code":22171},{"province":"Sumatera Utara","city":"Karo","district":"Dolat Rayat","urban":"Dolat Rayat","postal_code":22171},{"province":"Sumatera Utara","city":"Karo","district":"Dolat Rayat","urban":"Bukit","postal_code":22171},{"province":"Sumatera Utara","city":"Karo","district":"Tiga Panah","urban":"Ajijulu","postal_code":22171},{"province":"Sumatera Utara","city":"Karo","district":"Tiga Panah","urban":"Ajimbelang","postal_code":22171},{"province":"Sumatera Utara","city":"Karo","district":"Tiga Panah","urban":"Bertah","postal_code":22171},{"province":"Sumatera Utara","city":"Karo","district":"Tiga Panah","urban":"Ajibuhara","postal_code":22171},{"province":"Sumatera Utara","city":"Karo","district":"Tiga Panah","urban":"Ajijahe","postal_code":22171}]