[{"province":"Sumatera Utara","city":"Dairi","district":"Tanah Pinem","urban":"Tanah Pinem","postal_code":22253},{"province":"Sumatera Utara","city":"Dairi","district":"Tanah Pinem","urban":"Renun","postal_code":22253},{"province":"Sumatera Utara","city":"Dairi","district":"Tanah Pinem","urban":"Suka Dame","postal_code":22253},{"province":"Sumatera Utara","city":"Dairi","district":"Tanah Pinem","urban":"Pasir Tengah","postal_code":22253},{"province":"Sumatera Utara","city":"Dairi","district":"Tanah Pinem","urban":"Lau Tawar","postal_code":22253},{"province":"Sumatera Utara","city":"Dairi","district":"Tanah Pinem","urban":"Pamah","postal_code":22253},{"province":"Sumatera Utara","city":"Dairi","district":"Tanah Pinem","urban":"Kutabuluh","postal_code":22253},{"province":"Sumatera Utara","city":"Dairi","district":"Tanah Pinem","urban":"Lau Primbon","postal_code":22253},{"province":"Sumatera Utara","city":"Dairi","district":"Tanah Pinem","urban":"Kempawa","postal_code":22253},{"province":"Sumatera Utara","city":"Dairi","district":"Tanah Pinem","urban":"Kuta Gambir","postal_code":22253},{"province":"Sumatera Utara","city":"Dairi","district":"Tanah Pinem","urban":"Gunung Tua","postal_code":22253},{"province":"Sumatera Utara","city":"Dairi","district":"Tanah Pinem","urban":"Harapan","postal_code":22253}]