[{"province":"Sumatera Utara","city":"Dairi","district":"Tiga Lingga","urban":"Tiga Lingga","postal_code":22252},{"province":"Sumatera Utara","city":"Dairi","district":"Tiga Lingga","urban":"Ujung Teran","postal_code":22252},{"province":"Sumatera Utara","city":"Dairi","district":"Tiga Lingga","urban":"Sumbul Tengah","postal_code":22252},{"province":"Sumatera Utara","city":"Dairi","district":"Tiga Lingga","urban":"Sukandebi","postal_code":22252},{"province":"Sumatera Utara","city":"Dairi","district":"Tiga Lingga","urban":"Palding/Polding","postal_code":22252},{"province":"Sumatera Utara","city":"Dairi","district":"Tiga Lingga","urban":"Palding/Polding Jaya Sumbul","postal_code":22252},{"province":"Sumatera Utara","city":"Dairi","district":"Tiga Lingga","urban":"Sarintonu","postal_code":22252},{"province":"Sumatera Utara","city":"Dairi","district":"Tiga Lingga","urban":"Lau Pakpak","postal_code":22252},{"province":"Sumatera Utara","city":"Dairi","district":"Tiga Lingga","urban":"Lau Sireme","postal_code":22252},{"province":"Sumatera Utara","city":"Dairi","district":"Tiga Lingga","urban":"Lau Bagot","postal_code":22252},{"province":"Sumatera Utara","city":"Dairi","district":"Tiga Lingga","urban":"Lau Mil","postal_code":22252},{"province":"Sumatera Utara","city":"Dairi","district":"Tiga Lingga","urban":"Lau Molgap","postal_code":22252},{"province":"Sumatera Utara","city":"Dairi","district":"Tiga Lingga","urban":"Bertungen Julu","postal_code":22252},{"province":"Sumatera Utara","city":"Dairi","district":"Tiga Lingga","urban":"Juma Gerat","postal_code":22252}]