[{"province":"Sumatera Utara","city":"Dairi","district":"Siempat Nempu Hulu","urban":"Tualang","postal_code":22254},{"province":"Sumatera Utara","city":"Dairi","district":"Siempat Nempu Hulu","urban":"Tambahan","postal_code":22254},{"province":"Sumatera Utara","city":"Dairi","district":"Siempat Nempu Hulu","urban":"Sipoltong","postal_code":22254},{"province":"Sumatera Utara","city":"Dairi","district":"Siempat Nempu Hulu","urban":"Sungai Raya","postal_code":22254},{"province":"Sumatera Utara","city":"Dairi","district":"Siempat Nempu Hulu","urban":"Silumboyah","postal_code":22254},{"province":"Sumatera Utara","city":"Dairi","district":"Siempat Nempu Hulu","urban":"Sigambir Gambir","postal_code":22254},{"province":"Sumatera Utara","city":"Dairi","district":"Siempat Nempu Hulu","urban":"Pangaribuan","postal_code":22254},{"province":"Sumatera Utara","city":"Dairi","district":"Siempat Nempu Hulu","urban":"Pandan","postal_code":22254},{"province":"Sumatera Utara","city":"Dairi","district":"Siempat Nempu Hulu","urban":"Gunung Meriah","postal_code":22254},{"province":"Sumatera Utara","city":"Dairi","district":"Siempat Nempu Hulu","urban":"Kuta Tengah","postal_code":22254},{"province":"Sumatera Utara","city":"Dairi","district":"Siempat Nempu Hulu","urban":"Lae Nuaha","postal_code":22254},{"province":"Sumatera Utara","city":"Dairi","district":"Siempat Nempu Hulu","urban":"Bakal Julu","postal_code":22254}]