[{"province":"Sumatera Utara","city":"Dairi","district":"Gunung Sitember","urban":"Tupak Raja","postal_code":22251},{"province":"Sumatera Utara","city":"Dairi","district":"Gunung Sitember","urban":"Rante Besi","postal_code":22251},{"province":"Sumatera Utara","city":"Dairi","district":"Berampu (Brampu)","urban":"Sambaliang","postal_code":22251},{"province":"Sumatera Utara","city":"Dairi","district":"Gunung Sitember","urban":"Kendit Liang","postal_code":22251},{"province":"Sumatera Utara","city":"Dairi","district":"Gunung Sitember","urban":"Lau Lebah","postal_code":22251},{"province":"Sumatera Utara","city":"Dairi","district":"Berampu (Brampu)","urban":"Pasi","postal_code":22251},{"province":"Sumatera Utara","city":"Dairi","district":"Gunung Sitember","urban":"Gunung Sitember","postal_code":22251},{"province":"Sumatera Utara","city":"Dairi","district":"Berampu (Brampu)","urban":"Karing","postal_code":22251},{"province":"Sumatera Utara","city":"Dairi","district":"Gunung Sitember","urban":"Bukit Lau Kersik","postal_code":22251},{"province":"Sumatera Utara","city":"Dairi","district":"Gunung Sitember","urban":"Gundaling","postal_code":22251},{"province":"Sumatera Utara","city":"Dairi","district":"Gunung Sitember","urban":"Batu Gun-Gun","postal_code":22251},{"province":"Sumatera Utara","city":"Dairi","district":"Berampu (Brampu)","urban":"Berampu (Brampu)","postal_code":22251},{"province":"Sumatera Utara","city":"Dairi","district":"Berampu (Brampu)","urban":"Banjar Toba","postal_code":22251}]