[{"province":"Sumatera Utara","city":"Dairi","district":"Siempat Nempu Hilir","urban":"Sopobutar","postal_code":22263},{"province":"Sumatera Utara","city":"Dairi","district":"Siempat Nempu Hilir","urban":"Simungun","postal_code":22263},{"province":"Sumatera Utara","city":"Dairi","district":"Siempat Nempu Hilir","urban":"Pardomuan","postal_code":22263},{"province":"Sumatera Utara","city":"Dairi","district":"Siempat Nempu Hilir","urban":"Lae Saring","postal_code":22263},{"province":"Sumatera Utara","city":"Dairi","district":"Siempat Nempu Hilir","urban":"Lae Markelang","postal_code":22263},{"province":"Sumatera Utara","city":"Dairi","district":"Siempat Nempu Hilir","urban":"Lae Itam","postal_code":22263},{"province":"Sumatera Utara","city":"Dairi","district":"Siempat Nempu Hilir","urban":"Lae Luhung","postal_code":22263},{"province":"Sumatera Utara","city":"Dairi","district":"Siempat Nempu Hilir","urban":"Janji","postal_code":22263},{"province":"Sumatera Utara","city":"Dairi","district":"Siempat Nempu Hilir","urban":"Jambur Indonesia","postal_code":22263}]