[{"province":"Sumatera Utara","city":"Pakpak Bharat","district":"Sitellu Tali Urang Julu","urban":"Ulu Merah","postal_code":22272},{"province":"Sumatera Utara","city":"Pakpak Bharat","district":"Siempat Rube","urban":"Traju","postal_code":22272},{"province":"Sumatera Utara","city":"Pakpak Bharat","district":"Sitellu Tali Urang Jehe","urban":"Tanjung Mulia","postal_code":22272},{"province":"Sumatera Utara","city":"Pakpak Bharat","district":"Tinada","urban":"Tinada","postal_code":22272},{"province":"Sumatera Utara","city":"Pakpak Bharat","district":"Tinada","urban":"Silima Kuta","postal_code":22272},{"province":"Sumatera Utara","city":"Pakpak Bharat","district":"Sitellu Tali Urang Jehe","urban":"Simberuna","postal_code":22272},{"province":"Sumatera Utara","city":"Pakpak Bharat","district":"Sitellu Tali Urang Jehe","urban":"Tanjung Meriah","postal_code":22272},{"province":"Sumatera Utara","city":"Pakpak Bharat","district":"Sitellu Tali Urang Julu","urban":"Silima Kuta","postal_code":22272},{"province":"Sumatera Utara","city":"Pakpak Bharat","district":"Siempat Rube","urban":"Siempat Rube IV","postal_code":22272},{"province":"Sumatera Utara","city":"Pakpak Bharat","district":"Siempat Rube","urban":"Siempat Rube I","postal_code":22272},{"province":"Sumatera Utara","city":"Pakpak Bharat","district":"Siempat Rube","urban":"Siempat Rube II","postal_code":22272},{"province":"Sumatera Utara","city":"Pakpak Bharat","district":"Salak","urban":"Salak II","postal_code":22272},{"province":"Sumatera Utara","city":"Pakpak Bharat","district":"Salak","urban":"Sibongkaras","postal_code":22272},{"province":"Sumatera Utara","city":"Pakpak Bharat","district":"Tinada","urban":"Prongil","postal_code":22272},{"province":"Sumatera Utara","city":"Pakpak Bharat","district":"Sitellu Tali Urang Jehe","urban":"Perolihen","postal_code":22272},{"province":"Sumatera Utara","city":"Pakpak Bharat","district":"Salak","urban":"Salak I","postal_code":22272},{"province":"Sumatera Utara","city":"Pakpak Bharat","district":"Sitellu Tali Urang Jehe","urban":"Perjaga","postal_code":22272},{"province":"Sumatera Utara","city":"Pakpak Bharat","district":"Sitellu Tali Urang Julu","urban":"Pardomuan","postal_code":22272},{"province":"Sumatera Utara","city":"Pakpak Bharat","district":"Salak","urban":"Penanggalan Binanga Boang","postal_code":22272},{"province":"Sumatera Utara","city":"Pakpak Bharat","district":"Sitellu Tali Urang Jehe","urban":"Mbinalun","postal_code":22272},{"province":"Sumatera Utara","city":"Pakpak Bharat","district":"Siempat Rube","urban":"Mungkur","postal_code":22272},{"province":"Sumatera Utara","city":"Pakpak Bharat","district":"Sitellu Tali Urang Jehe","urban":"Maholida","postal_code":22272},{"province":"Sumatera Utara","city":"Pakpak Bharat","district":"Sitellu Tali Urang Jehe","urban":"Malum","postal_code":22272},{"province":"Sumatera Utara","city":"Pakpak Bharat","district":"Tinada","urban":"Mahala","postal_code":22272},{"province":"Sumatera Utara","city":"Pakpak Bharat","district":"Sitellu Tali Urang Julu","urban":"Lae Langge Namuseng","postal_code":22272},{"province":"Sumatera Utara","city":"Pakpak Bharat","district":"Salak","urban":"Kuta Tinggi","postal_code":22272},{"province":"Sumatera Utara","city":"Pakpak Bharat","district":"Tinada","urban":"Kuta Babo","postal_code":22272},{"province":"Sumatera Utara","city":"Pakpak Bharat","district":"Siempat Rube","urban":"Kuta Jungak","postal_code":22272},{"province":"Sumatera Utara","city":"Pakpak Bharat","district":"Sitellu Tali Urang Jehe","urban":"Kaban Tengah","postal_code":22272},{"province":"Sumatera Utara","city":"Pakpak Bharat","district":"Sitellu Tali Urang Julu","urban":"Cikaok","postal_code":22272},{"province":"Sumatera Utara","city":"Pakpak Bharat","district":"Tinada","urban":"Buluh Tellang","postal_code":22272},{"province":"Sumatera Utara","city":"Pakpak Bharat","district":"Salak","urban":"Boangmanalu Salak","postal_code":22272},{"province":"Sumatera Utara","city":"Pakpak Bharat","district":"Sitellu Tali Urang Jehe","urban":"Bandar Baru","postal_code":22272}]