[{"province":"Sumatera Utara","city":"Pakpak Bharat","district":"Kerajaan","urban":"Surung Mersada","postal_code":22271},{"province":"Sumatera Utara","city":"Pakpak Bharat","district":"Kerajaan","urban":"Sukaramai","postal_code":22271},{"province":"Sumatera Utara","city":"Pakpak Bharat","district":"Pagindar","urban":"Sibagindar","postal_code":22271},{"province":"Sumatera Utara","city":"Pakpak Bharat","district":"Pergetteng Getteng Sengkut","urban":"Simerpara","postal_code":22271},{"province":"Sumatera Utara","city":"Pakpak Bharat","district":"Kerajaan","urban":"Perduhapen","postal_code":22271},{"province":"Sumatera Utara","city":"Pakpak Bharat","district":"Kerajaan","urban":"Pardomuan","postal_code":22271},{"province":"Sumatera Utara","city":"Pakpak Bharat","district":"Kerajaan","urban":"Parpulungan/Parpulungen","postal_code":22271},{"province":"Sumatera Utara","city":"Pakpak Bharat","district":"Kerajaan","urban":"Majanggut II","postal_code":22271},{"province":"Sumatera Utara","city":"Pakpak Bharat","district":"Pagindar","urban":"Napatalun Perlambuken","postal_code":22271},{"province":"Sumatera Utara","city":"Pakpak Bharat","district":"Pagindar","urban":"Pagindar","postal_code":22271},{"province":"Sumatera Utara","city":"Pakpak Bharat","district":"Kerajaan","urban":"Majanggut I","postal_code":22271},{"province":"Sumatera Utara","city":"Pakpak Bharat","district":"Pagindar","urban":"Lae Mbentar","postal_code":22271},{"province":"Sumatera Utara","city":"Pakpak Bharat","district":"Kerajaan","urban":"Kutadame","postal_code":22271},{"province":"Sumatera Utara","city":"Pakpak Bharat","district":"Kerajaan","urban":"Kutasaga","postal_code":22271},{"province":"Sumatera Utara","city":"Pakpak Bharat","district":"Pergetteng Getteng Sengkut","urban":"Kecupak II","postal_code":22271},{"province":"Sumatera Utara","city":"Pakpak Bharat","district":"Kerajaan","urban":"Kuta Mariah/Meriah","postal_code":22271},{"province":"Sumatera Utara","city":"Pakpak Bharat","district":"Pergetteng Getteng Sengkut","urban":"Kecupak I","postal_code":22271},{"province":"Sumatera Utara","city":"Pakpak Bharat","district":"Pergetteng Getteng Sengkut","urban":"Aornakan II","postal_code":22271},{"province":"Sumatera Utara","city":"Pakpak Bharat","district":"Pergetteng Getteng Sengkut","urban":"Aornakan I","postal_code":22271}]