[{"province":"Sumatera Utara","city":"Dairi","district":"Sumbul","urban":"Tanjung Beringin","postal_code":22281},{"province":"Sumatera Utara","city":"Dairi","district":"Lae Parira","urban":"Sumbul","postal_code":22281},{"province":"Sumatera Utara","city":"Dairi","district":"Silahi Sabungan","urban":"Silalahi II","postal_code":22281},{"province":"Sumatera Utara","city":"Dairi","district":"Silahi Sabungan","urban":"Silalahi III","postal_code":22281},{"province":"Sumatera Utara","city":"Dairi","district":"Lae Parira","urban":"Sempung Polling","postal_code":22281},{"province":"Sumatera Utara","city":"Dairi","district":"Silahi Sabungan","urban":"Silalahi I","postal_code":22281},{"province":"Sumatera Utara","city":"Dairi","district":"Sumbul","urban":"Pegagan Julu X","postal_code":22281},{"province":"Sumatera Utara","city":"Dairi","district":"Sumbul","urban":"Perjuangan","postal_code":22281},{"province":"Sumatera Utara","city":"Dairi","district":"Sumbul","urban":"Pegagan Julu VII","postal_code":22281},{"province":"Sumatera Utara","city":"Dairi","district":"Sumbul","urban":"Pegagan Julu VIII","postal_code":22281},{"province":"Sumatera Utara","city":"Dairi","district":"Sumbul","urban":"Pegagan Julu IX","postal_code":22281},{"province":"Sumatera Utara","city":"Dairi","district":"Sumbul","urban":"Pegagan Julu V","postal_code":22281},{"province":"Sumatera Utara","city":"Dairi","district":"Sumbul","urban":"Pegagan Julu VI","postal_code":22281},{"province":"Sumatera Utara","city":"Dairi","district":"Sumbul","urban":"Pegagan Julu II","postal_code":22281},{"province":"Sumatera Utara","city":"Dairi","district":"Sumbul","urban":"Pegagan Julu III","postal_code":22281},{"province":"Sumatera Utara","city":"Dairi","district":"Sumbul","urban":"Pegagan Julu IV","postal_code":22281},{"province":"Sumatera Utara","city":"Dairi","district":"Silahi Sabungan","urban":"Paropo","postal_code":22281},{"province":"Sumatera Utara","city":"Dairi","district":"Sumbul","urban":"Pegagan Julu I","postal_code":22281},{"province":"Sumatera Utara","city":"Dairi","district":"Lae Parira","urban":"Lumban Toruan","postal_code":22281},{"province":"Sumatera Utara","city":"Dairi","district":"Lae Parira","urban":"Pandiangan","postal_code":22281},{"province":"Sumatera Utara","city":"Dairi","district":"Lae Parira","urban":"Pandiangan","postal_code":22281},{"province":"Sumatera Utara","city":"Dairi","district":"Sumbul","urban":"Kuta Gugung","postal_code":22281},{"province":"Sumatera Utara","city":"Dairi","district":"Lae Parira","urban":"Lae Parira","postal_code":22281},{"province":"Sumatera Utara","city":"Dairi","district":"Lae Parira","urban":"Lumban Sihite","postal_code":22281},{"province":"Sumatera Utara","city":"Dairi","district":"Sumbul","urban":"Dolok Tolong","postal_code":22281},{"province":"Sumatera Utara","city":"Dairi","district":"Lae Parira","urban":"Kentara","postal_code":22281},{"province":"Sumatera Utara","city":"Dairi","district":"Lae Parira","urban":"Bulu Duri","postal_code":22281}]