[{"province":"Sumatera Utara","city":"Toba Samosir","district":"Tampahan","urban":"Tara Bunga","postal_code":22312},{"province":"Sumatera Utara","city":"Toba Samosir","district":"Tampahan","urban":"Tangga Batu Barat","postal_code":22312},{"province":"Sumatera Utara","city":"Toba Samosir","district":"Tampahan","urban":"Tangga Batu Timur","postal_code":22312},{"province":"Sumatera Utara","city":"Toba Samosir","district":"Balige","urban":"Tambunan Sunge","postal_code":22312},{"province":"Sumatera Utara","city":"Toba Samosir","district":"Balige","urban":"Sibuntuon","postal_code":22312},{"province":"Sumatera Utara","city":"Toba Samosir","district":"Balige","urban":"Silalahi Pagar Batu","postal_code":22312},{"province":"Sumatera Utara","city":"Toba Samosir","district":"Balige","urban":"Sianipar Sihail Hail","postal_code":22312},{"province":"Sumatera Utara","city":"Toba Samosir","district":"Balige","urban":"Sibola Hotangsas","postal_code":22312},{"province":"Sumatera Utara","city":"Toba Samosir","district":"Balige","urban":"Siboruon","postal_code":22312},{"province":"Sumatera Utara","city":"Toba Samosir","district":"Balige","urban":"Sangkar Nihuta","postal_code":22312},{"province":"Sumatera Utara","city":"Toba Samosir","district":"Balige","urban":"Sariburaja Janji Maria","postal_code":22312},{"province":"Sumatera Utara","city":"Toba Samosir","district":"Balige","urban":"Parsuratan","postal_code":22312},{"province":"Sumatera Utara","city":"Toba Samosir","district":"Balige","urban":"Paindoan","postal_code":22312},{"province":"Sumatera Utara","city":"Toba Samosir","district":"Tampahan","urban":"Meat","postal_code":22312},{"province":"Sumatera Utara","city":"Toba Samosir","district":"Balige","urban":"Matio","postal_code":22312},{"province":"Sumatera Utara","city":"Toba Samosir","district":"Balige","urban":"Lumban Pea Timur","postal_code":22312},{"province":"Sumatera Utara","city":"Toba Samosir","district":"Balige","urban":"Lumban Silintong","postal_code":22312},{"province":"Sumatera Utara","city":"Toba Samosir","district":"Balige","urban":"Lumban Gaol","postal_code":22312},{"province":"Sumatera Utara","city":"Toba Samosir","district":"Balige","urban":"Lumban Gorat","postal_code":22312},{"province":"Sumatera Utara","city":"Toba Samosir","district":"Balige","urban":"Lumban Pea","postal_code":22312},{"province":"Sumatera Utara","city":"Toba Samosir","district":"Tampahan","urban":"Lintong Nihuta","postal_code":22312},{"province":"Sumatera Utara","city":"Toba Samosir","district":"Balige","urban":"Longat","postal_code":22312},{"province":"Sumatera Utara","city":"Toba Samosir","district":"Balige","urban":"Lumban Bul Bul","postal_code":22312},{"province":"Sumatera Utara","city":"Toba Samosir","district":"Balige","urban":"Huta Namora","postal_code":22312},{"province":"Sumatera Utara","city":"Toba Samosir","district":"Balige","urban":"Hutagaol Peatalun (Peatalum)","postal_code":22312},{"province":"Sumatera Utara","city":"Toba Samosir","district":"Balige","urban":"Huta Bulu Mejan","postal_code":22312},{"province":"Sumatera Utara","city":"Toba Samosir","district":"Balige","urban":"Huta Dame","postal_code":22312},{"province":"Sumatera Utara","city":"Toba Samosir","district":"Tampahan","urban":"Gukguk/Gurgur Aek Raja","postal_code":22312},{"province":"Sumatera Utara","city":"Toba Samosir","district":"Balige","urban":"Bonan Dolok III","postal_code":22312},{"province":"Sumatera Utara","city":"Toba Samosir","district":"Balige","urban":"Hinalang Bagasan","postal_code":22312},{"province":"Sumatera Utara","city":"Toba Samosir","district":"Balige","urban":"Bonan Dolok I","postal_code":22312},{"province":"Sumatera Utara","city":"Toba Samosir","district":"Balige","urban":"Bonan Dolok II","postal_code":22312},{"province":"Sumatera Utara","city":"Toba Samosir","district":"Balige","urban":"Aek Bolon Julu","postal_code":22312},{"province":"Sumatera Utara","city":"Toba Samosir","district":"Balige","urban":"Baru Ara","postal_code":22312},{"province":"Sumatera Utara","city":"Toba Samosir","district":"Balige","urban":"Aek Bolon Jae","postal_code":22312}]