[{"province":"Sumatera Utara","city":"Toba Samosir","district":"Parmaksian","urban":"Tangga Batu I","postal_code":22384},{"province":"Sumatera Utara","city":"Toba Samosir","district":"Parmaksian","urban":"Tangga Batu II","postal_code":22384},{"province":"Sumatera Utara","city":"Toba Samosir","district":"Porsea","urban":"Silamosik I","postal_code":22384},{"province":"Sumatera Utara","city":"Toba Samosir","district":"Porsea","urban":"Simpang Sigura-Gura","postal_code":22384},{"province":"Sumatera Utara","city":"Toba Samosir","district":"Siantar Narumonda","urban":"Siantar Tonga Tonga II","postal_code":22384},{"province":"Sumatera Utara","city":"Toba Samosir","district":"Parmaksian","urban":"Siantar Utara","postal_code":22384},{"province":"Sumatera Utara","city":"Toba Samosir","district":"Siantar Narumonda","urban":"Siantar Tonga-Tonga III","postal_code":22384},{"province":"Sumatera Utara","city":"Toba Samosir","district":"Siantar Narumonda","urban":"Siantar Sitiotio","postal_code":22384},{"province":"Sumatera Utara","city":"Toba Samosir","district":"Siantar Narumonda","urban":"Siantar Tonga Tonga I","postal_code":22384},{"province":"Sumatera Utara","city":"Toba Samosir","district":"Siantar Narumonda","urban":"Siantar Dangsina","postal_code":22384},{"province":"Sumatera Utara","city":"Toba Samosir","district":"Siantar Narumonda","urban":"Siantar Sigordang","postal_code":22384},{"province":"Sumatera Utara","city":"Toba Samosir","district":"Porsea","urban":"Raut Bosi","postal_code":22384},{"province":"Sumatera Utara","city":"Toba Samosir","district":"Pintu Pohan Meranti","urban":"Pintu Pohan","postal_code":22384},{"province":"Sumatera Utara","city":"Toba Samosir","district":"Pintu Pohan Meranti","urban":"Pintu Pohan Dolok","postal_code":22384},{"province":"Sumatera Utara","city":"Toba Samosir","district":"Porsea","urban":"Patane IV","postal_code":22384},{"province":"Sumatera Utara","city":"Toba Samosir","district":"Porsea","urban":"Patane V","postal_code":22384},{"province":"Sumatera Utara","city":"Toba Samosir","district":"Porsea","urban":"Patane II","postal_code":22384},{"province":"Sumatera Utara","city":"Toba Samosir","district":"Porsea","urban":"Patane III","postal_code":22384},{"province":"Sumatera Utara","city":"Toba Samosir","district":"Porsea","urban":"Patane I","postal_code":22384},{"province":"Sumatera Utara","city":"Toba Samosir","district":"Porsea","urban":"Parparean III","postal_code":22384},{"province":"Sumatera Utara","city":"Toba Samosir","district":"Porsea","urban":"Parparean IV","postal_code":22384},{"province":"Sumatera Utara","city":"Toba Samosir","district":"Porsea","urban":"Pasar Porsea","postal_code":22384},{"province":"Sumatera Utara","city":"Toba Samosir","district":"Porsea","urban":"Parparean I","postal_code":22384},{"province":"Sumatera Utara","city":"Toba Samosir","district":"Porsea","urban":"Parparean II","postal_code":22384},{"province":"Sumatera Utara","city":"Toba Samosir","district":"Parmaksian","urban":"Pangombusan","postal_code":22384},{"province":"Sumatera Utara","city":"Toba Samosir","district":"Siantar Narumonda","urban":"Narumonda VIII","postal_code":22384},{"province":"Sumatera Utara","city":"Toba Samosir","district":"Siantar Narumonda","urban":"Narumonda VII","postal_code":22384},{"province":"Sumatera Utara","city":"Toba Samosir","district":"Siantar Narumonda","urban":"Narumonda VI","postal_code":22384},{"province":"Sumatera Utara","city":"Toba Samosir","district":"Siantar Narumonda","urban":"Narumonda III","postal_code":22384},{"province":"Sumatera Utara","city":"Toba Samosir","district":"Siantar Narumonda","urban":"Narumonda IV","postal_code":22384},{"province":"Sumatera Utara","city":"Toba Samosir","district":"Siantar Narumonda","urban":"Narumonda V","postal_code":22384},{"province":"Sumatera Utara","city":"Toba Samosir","district":"Siantar Narumonda","urban":"Narumonda II","postal_code":22384},{"province":"Sumatera Utara","city":"Toba Samosir","district":"Siantar Narumonda","urban":"Narumonda I","postal_code":22384},{"province":"Sumatera Utara","city":"Toba Samosir","district":"Pintu Pohan Meranti","urban":"Meranti Utara","postal_code":22384},{"province":"Sumatera Utara","city":"Toba Samosir","district":"Porsea","urban":"Nalela","postal_code":22384},{"province":"Sumatera Utara","city":"Toba Samosir","district":"Pintu Pohan Meranti","urban":"Meranti Timur","postal_code":22384},{"province":"Sumatera Utara","city":"Toba Samosir","district":"Pintu Pohan Meranti","urban":"Meranti Tengah","postal_code":22384},{"province":"Sumatera Utara","city":"Toba Samosir","district":"Parmaksian","urban":"Lumban Manurung","postal_code":22384},{"province":"Sumatera Utara","city":"Toba Samosir","district":"Parmaksian","urban":"Lumban Sitorus","postal_code":22384},{"province":"Sumatera Utara","city":"Toba Samosir","district":"Porsea","urban":"Lumban Gurning","postal_code":22384},{"province":"Sumatera Utara","city":"Toba Samosir","district":"Parmaksian","urban":"Lumban Huala","postal_code":22384},{"province":"Sumatera Utara","city":"Toba Samosir","district":"Parmaksian","urban":"Jonggi Manulus","postal_code":22384},{"province":"Sumatera Utara","city":"Toba Samosir","district":"Pintu Pohan Meranti","urban":"Halado","postal_code":22384},{"province":"Sumatera Utara","city":"Toba Samosir","district":"Porsea","urban":"Gala Gala Pangkailan","postal_code":22384},{"province":"Sumatera Utara","city":"Toba Samosir","district":"Parmaksian","urban":"Bius Gu Barat","postal_code":22384},{"province":"Sumatera Utara","city":"Toba Samosir","district":"Parmaksian","urban":"Dolok Nauli","postal_code":22384},{"province":"Sumatera Utara","city":"Toba Samosir","district":"Porsea","urban":"Amborgang","postal_code":22384},{"province":"Sumatera Utara","city":"Toba Samosir","district":"Parmaksian","urban":"Banjar Ganjang","postal_code":22384},{"province":"Sumatera Utara","city":"Toba Samosir","district":"Pintu Pohan Meranti","urban":"Ambar Halim","postal_code":22384}]