[{"province":"Sumatera Utara","city":"Toba Samosir","district":"Habinsaran","urban":"Taon Marisi","postal_code":22383},{"province":"Sumatera Utara","city":"Toba Samosir","district":"Habinsaran","urban":"Tornagodang","postal_code":22383},{"province":"Sumatera Utara","city":"Toba Samosir","district":"Habinsaran","urban":"Sibuntuon","postal_code":22383},{"province":"Sumatera Utara","city":"Toba Samosir","district":"Bor-Bor","urban":"Simare","postal_code":22383},{"province":"Sumatera Utara","city":"Toba Samosir","district":"Nassau","urban":"Sipagabu","postal_code":22383},{"province":"Sumatera Utara","city":"Toba Samosir","district":"Bor-Bor","urban":"Riganjang","postal_code":22383},{"province":"Sumatera Utara","city":"Toba Samosir","district":"Nassau","urban":"Siantarasa","postal_code":22383},{"province":"Sumatera Utara","city":"Toba Samosir","district":"Bor-Bor","urban":"Purba Tua","postal_code":22383},{"province":"Sumatera Utara","city":"Toba Samosir","district":"Bor-Bor","urban":"Rianiate","postal_code":22383},{"province":"Sumatera Utara","city":"Toba Samosir","district":"Bor-Bor","urban":"Pasar Borbor","postal_code":22383},{"province":"Sumatera Utara","city":"Toba Samosir","district":"Habinsaran","urban":"Parsoburan Tengah","postal_code":22383},{"province":"Sumatera Utara","city":"Toba Samosir","district":"Bor-Bor","urban":"Pardomuan Nauli","postal_code":22383},{"province":"Sumatera Utara","city":"Toba Samosir","district":"Habinsaran","urban":"Parsoburan Barat","postal_code":22383},{"province":"Sumatera Utara","city":"Toba Samosir","district":"Habinsaran","urban":"Pararungan","postal_code":22383},{"province":"Sumatera Utara","city":"Toba Samosir","district":"Bor-Bor","urban":"Pangururan","postal_code":22383},{"province":"Sumatera Utara","city":"Toba Samosir","district":"Bor-Bor","urban":"Pangururan II","postal_code":22383},{"province":"Sumatera Utara","city":"Toba Samosir","district":"Bor-Bor","urban":"Pangururan III","postal_code":22383},{"province":"Sumatera Utara","city":"Toba Samosir","district":"Habinsaran","urban":"Panamparan","postal_code":22383},{"province":"Sumatera Utara","city":"Toba Samosir","district":"Habinsaran","urban":"Pangunjungan","postal_code":22383},{"province":"Sumatera Utara","city":"Toba Samosir","district":"Bor-Bor","urban":"Natu Mingka","postal_code":22383},{"province":"Sumatera Utara","city":"Toba Samosir","district":"Habinsaran","urban":"Pagar Batu","postal_code":22383},{"province":"Sumatera Utara","city":"Toba Samosir","district":"Bor-Bor","urban":"Lumban Sewa","postal_code":22383},{"province":"Sumatera Utara","city":"Toba Samosir","district":"Habinsaran","urban":"Lumban Ruhap/Ruhaya","postal_code":22383},{"province":"Sumatera Utara","city":"Toba Samosir","district":"Nassau","urban":"Napajoriho","postal_code":22383},{"province":"Sumatera Utara","city":"Toba Samosir","district":"Nassau","urban":"Lumban Rau Timur","postal_code":22383},{"province":"Sumatera Utara","city":"Toba Samosir","district":"Nassau","urban":"Lumban Rau Utara","postal_code":22383},{"province":"Sumatera Utara","city":"Toba Samosir","district":"Nassau","urban":"Lumban Rau Tenggara","postal_code":22383},{"province":"Sumatera Utara","city":"Toba Samosir","district":"Nassau","urban":"Lumban Rau Tengah","postal_code":22383},{"province":"Sumatera Utara","city":"Toba Samosir","district":"Habinsaran","urban":"Lumban Rau Balik","postal_code":22383},{"province":"Sumatera Utara","city":"Toba Samosir","district":"Habinsaran","urban":"Lumban Rau Barat","postal_code":22383},{"province":"Sumatera Utara","city":"Toba Samosir","district":"Habinsaran","urban":"Lumban Rau Selatan","postal_code":22383},{"province":"Sumatera Utara","city":"Toba Samosir","district":"Habinsaran","urban":"Lumban Pinasa","postal_code":22383},{"province":"Sumatera Utara","city":"Toba Samosir","district":"Habinsaran","urban":"Lumban Pinasa Saroba","postal_code":22383},{"province":"Sumatera Utara","city":"Toba Samosir","district":"Habinsaran","urban":"Lumban Lintong","postal_code":22383},{"province":"Sumatera Utara","city":"Toba Samosir","district":"Habinsaran","urban":"Lumban Pea","postal_code":22383},{"province":"Sumatera Utara","city":"Toba Samosir","district":"Bor-Bor","urban":"Lintong","postal_code":22383},{"province":"Sumatera Utara","city":"Toba Samosir","district":"Habinsaran","urban":"Lobu Hole","postal_code":22383},{"province":"Sumatera Utara","city":"Toba Samosir","district":"Habinsaran","urban":"Lumban Gaol","postal_code":22383},{"province":"Sumatera Utara","city":"Toba Samosir","district":"Nassau","urban":"Liat Tondung","postal_code":22383},{"province":"Sumatera Utara","city":"Toba Samosir","district":"Bor-Bor","urban":"Hutagurgur","postal_code":22383},{"province":"Sumatera Utara","city":"Toba Samosir","district":"Bor-Bor","urban":"Janji Maria","postal_code":22383},{"province":"Sumatera Utara","city":"Toba Samosir","district":"Habinsaran","urban":"Hitetano (Tite Tano)","postal_code":22383},{"province":"Sumatera Utara","city":"Toba Samosir","district":"Nassau","urban":"Cinta Damai","postal_code":22383},{"province":"Sumatera Utara","city":"Toba Samosir","district":"Habinsaran","urban":"Batu Nabolon","postal_code":22383},{"province":"Sumatera Utara","city":"Toba Samosir","district":"Nassau","urban":"Batu Manumpak","postal_code":22383},{"province":"Sumatera Utara","city":"Toba Samosir","district":"Bor-Bor","urban":"Aek Unsim","postal_code":22383},{"province":"Sumatera Utara","city":"Toba Samosir","district":"Habinsaran","urban":"Aek Ulok","postal_code":22383}]