[{"province":"Sumatera Utara","city":"Toba Samosir","district":"Laguboti","urban":"Tinggir Nipasir","postal_code":22381},{"province":"Sumatera Utara","city":"Toba Samosir","district":"Laguboti","urban":"Ujung Tanduk","postal_code":22381},{"province":"Sumatera Utara","city":"Toba Samosir","district":"Sigumpar","urban":"Situa-Tua","postal_code":22381},{"province":"Sumatera Utara","city":"Toba Samosir","district":"Laguboti","urban":"Sitoluama","postal_code":22381},{"province":"Sumatera Utara","city":"Toba Samosir","district":"Laguboti","urban":"Siraja Gorat","postal_code":22381},{"province":"Sumatera Utara","city":"Toba Samosir","district":"Laguboti","urban":"Sitangkola","postal_code":22381},{"province":"Sumatera Utara","city":"Toba Samosir","district":"Laguboti","urban":"Simatibung","postal_code":22381},{"province":"Sumatera Utara","city":"Toba Samosir","district":"Laguboti","urban":"Sintong Marnipi","postal_code":22381},{"province":"Sumatera Utara","city":"Toba Samosir","district":"Sigumpar","urban":"Sigumpar Dangsina","postal_code":22381},{"province":"Sumatera Utara","city":"Toba Samosir","district":"Sigumpar","urban":"Sigumpar Julu","postal_code":22381},{"province":"Sumatera Utara","city":"Toba Samosir","district":"Sigumpar","urban":"Sigumpar Barat","postal_code":22381},{"province":"Sumatera Utara","city":"Toba Samosir","district":"Sigumpar","urban":"Sigumpar","postal_code":22381},{"province":"Sumatera Utara","city":"Toba Samosir","district":"Laguboti","urban":"Sibuea","postal_code":22381},{"province":"Sumatera Utara","city":"Toba Samosir","district":"Laguboti","urban":"Sidulang","postal_code":22381},{"province":"Sumatera Utara","city":"Toba Samosir","district":"Laguboti","urban":"Pintu Bosi","postal_code":22381},{"province":"Sumatera Utara","city":"Toba Samosir","district":"Laguboti","urban":"Sibarani Nasampulu","postal_code":22381},{"province":"Sumatera Utara","city":"Toba Samosir","district":"Laguboti","urban":"Pasar Lagu Boti","postal_code":22381},{"province":"Sumatera Utara","city":"Toba Samosir","district":"Laguboti","urban":"Pardinggaran","postal_code":22381},{"province":"Sumatera Utara","city":"Toba Samosir","district":"Laguboti","urban":"Pardomuan Nauli","postal_code":22381},{"province":"Sumatera Utara","city":"Toba Samosir","district":"Laguboti","urban":"Ompu Raja Hutapea","postal_code":22381},{"province":"Sumatera Utara","city":"Toba Samosir","district":"Laguboti","urban":"Ompu Raja Hutapea Timur","postal_code":22381},{"province":"Sumatera Utara","city":"Toba Samosir","district":"Sigumpar","urban":"Nauli","postal_code":22381},{"province":"Sumatera Utara","city":"Toba Samosir","district":"Laguboti","urban":"Ompu Raja Hatulian","postal_code":22381},{"province":"Sumatera Utara","city":"Toba Samosir","district":"Sigumpar","urban":"Marsangap","postal_code":22381},{"province":"Sumatera Utara","city":"Toba Samosir","district":"Laguboti","urban":"Lumban Binanga","postal_code":22381},{"province":"Sumatera Utara","city":"Toba Samosir","district":"Sigumpar","urban":"Maju","postal_code":22381},{"province":"Sumatera Utara","city":"Toba Samosir","district":"Laguboti","urban":"Haunatas II","postal_code":22381},{"province":"Sumatera Utara","city":"Toba Samosir","district":"Laguboti","urban":"Lumban Bagasan","postal_code":22381},{"province":"Sumatera Utara","city":"Toba Samosir","district":"Laguboti","urban":"Gasa Ribu","postal_code":22381},{"province":"Sumatera Utara","city":"Toba Samosir","district":"Laguboti","urban":"Haunatas I","postal_code":22381},{"province":"Sumatera Utara","city":"Toba Samosir","district":"Sigumpar","urban":"Banua Huta","postal_code":22381},{"province":"Sumatera Utara","city":"Toba Samosir","district":"Sigumpar","urban":"Dolok Jior","postal_code":22381},{"province":"Sumatera Utara","city":"Toba Samosir","district":"Laguboti","urban":"Aruan","postal_code":22381}]