[{"province":"Sumatera Utara","city":"Toba Samosir","district":"Ajibata","urban":"Sirungkungon","postal_code":22386},{"province":"Sumatera Utara","city":"Toba Samosir","district":"Lumban Julu","urban":"Sionggang Tengah","postal_code":22386},{"province":"Sumatera Utara","city":"Toba Samosir","district":"Lumban Julu","urban":"Sionggang Utara","postal_code":22386},{"province":"Sumatera Utara","city":"Toba Samosir","district":"Bonatua Lunasi","urban":"Sinar Sabungan","postal_code":22386},{"province":"Sumatera Utara","city":"Toba Samosir","district":"Lumban Julu","urban":"Sionggang Selatan","postal_code":22386},{"province":"Sumatera Utara","city":"Toba Samosir","district":"Bonatua Lunasi","urban":"Sihiong","postal_code":22386},{"province":"Sumatera Utara","city":"Toba Samosir","district":"Bonatua Lunasi","urban":"Silamosik II","postal_code":22386},{"province":"Sumatera Utara","city":"Toba Samosir","district":"Bonatua Lunasi","urban":"Silombu","postal_code":22386},{"province":"Sumatera Utara","city":"Toba Samosir","district":"Lumban Julu","urban":"Sibaruang","postal_code":22386},{"province":"Sumatera Utara","city":"Toba Samosir","district":"Ajibata","urban":"Sigapiton","postal_code":22386},{"province":"Sumatera Utara","city":"Toba Samosir","district":"Bonatua Lunasi","urban":"Sibadihon","postal_code":22386},{"province":"Sumatera Utara","city":"Toba Samosir","district":"Lumban Julu","urban":"Pasar Lumban Julu","postal_code":22386},{"province":"Sumatera Utara","city":"Toba Samosir","district":"Bonatua Lunasi","urban":"Partoruan Lumban Lobu","postal_code":22386},{"province":"Sumatera Utara","city":"Toba Samosir","district":"Ajibata","urban":"Parsaoran Sibisa","postal_code":22386},{"province":"Sumatera Utara","city":"Toba Samosir","district":"Ajibata","urban":"Pardomuan Motung","postal_code":22386},{"province":"Sumatera Utara","city":"Toba Samosir","district":"Ajibata","urban":"Parsaoran Ajibata","postal_code":22386},{"province":"Sumatera Utara","city":"Toba Samosir","district":"Bonatua Lunasi","urban":"Pardolok Lumban Lobu","postal_code":22386},{"province":"Sumatera Utara","city":"Toba Samosir","district":"Ajibata","urban":"Pardamean Sibisa","postal_code":22386},{"province":"Sumatera Utara","city":"Toba Samosir","district":"Ajibata","urban":"Pardomuan Ajibata","postal_code":22386},{"province":"Sumatera Utara","city":"Toba Samosir","district":"Bonatua Lunasi","urban":"Naga Timbul","postal_code":22386},{"province":"Sumatera Utara","city":"Toba Samosir","district":"Bonatua Lunasi","urban":"Nagatimbul Timur","postal_code":22386},{"province":"Sumatera Utara","city":"Toba Samosir","district":"Ajibata","urban":"Pardamean Ajibata","postal_code":22386},{"province":"Sumatera Utara","city":"Toba Samosir","district":"Bonatua Lunasi","urban":"Lumban Lobu","postal_code":22386},{"province":"Sumatera Utara","city":"Toba Samosir","district":"Bonatua Lunasi","urban":"Lumban Sangkalan","postal_code":22386},{"province":"Sumatera Utara","city":"Toba Samosir","district":"Ajibata","urban":"Motung","postal_code":22386},{"province":"Sumatera Utara","city":"Toba Samosir","district":"Lumban Julu","urban":"Jangga Toruan","postal_code":22386},{"province":"Sumatera Utara","city":"Toba Samosir","district":"Lumban Julu","urban":"Jonggi Nihuta","postal_code":22386},{"province":"Sumatera Utara","city":"Toba Samosir","district":"Lumban Julu","urban":"Lintong Julu","postal_code":22386},{"province":"Sumatera Utara","city":"Toba Samosir","district":"Lumban Julu","urban":"Hutanamora","postal_code":22386},{"province":"Sumatera Utara","city":"Toba Samosir","district":"Lumban Julu","urban":"Jangga Dolok","postal_code":22386},{"province":"Sumatera Utara","city":"Toba Samosir","district":"Bonatua Lunasi","urban":"Harungguan","postal_code":22386},{"province":"Sumatera Utara","city":"Toba Samosir","district":"Lumban Julu","urban":"Hatinggian","postal_code":22386},{"province":"Sumatera Utara","city":"Toba Samosir","district":"Ajibata","urban":"Horsik","postal_code":22386},{"province":"Sumatera Utara","city":"Toba Samosir","district":"Lumban Julu","urban":"Aek Natolu Jaya","postal_code":22386}]