[{"province":"Sumatera Utara","city":"Samosir","district":"Sianjur Mula-Mula","urban":"Singkam","postal_code":22396},{"province":"Sumatera Utara","city":"Samosir","district":"Sianjur Mula-Mula","urban":"Sianjur Mulamula","postal_code":22396},{"province":"Sumatera Utara","city":"Samosir","district":"Sianjur Mula-Mula","urban":"Siboro","postal_code":22396},{"province":"Sumatera Utara","city":"Samosir","district":"Sianjur Mula-Mula","urban":"Sari Marihit","postal_code":22396},{"province":"Sumatera Utara","city":"Samosir","district":"Pangururan","urban":"Pasar Pangururan","postal_code":22396},{"province":"Sumatera Utara","city":"Samosir","district":"Sianjur Mula-Mula","urban":"Huta Ginjang","postal_code":22396},{"province":"Sumatera Utara","city":"Samosir","district":"Sianjur Mula-Mula","urban":"Huta Gurgur","postal_code":22396},{"province":"Sumatera Utara","city":"Samosir","district":"Sianjur Mula-Mula","urban":"Hasinggaan","postal_code":22396},{"province":"Sumatera Utara","city":"Samosir","district":"Sianjur Mula-Mula","urban":"Ginolat","postal_code":22396},{"province":"Sumatera Utara","city":"Samosir","district":"Sianjur Mula-Mula","urban":"Boho","postal_code":22396},{"province":"Sumatera Utara","city":"Samosir","district":"Sianjur Mula-Mula","urban":"Bonan Dolok","postal_code":22396},{"province":"Sumatera Utara","city":"Samosir","district":"Sianjur Mula-Mula","urban":"Aek Sipitudai","postal_code":22396}]