[{"province":"Sumatera Utara","city":"Samosir","district":"Nainggolan","urban":"Toguan Galung","postal_code":22394},{"province":"Sumatera Utara","city":"Samosir","district":"Onan Runggu","urban":"Tambun Sungkean","postal_code":22394},{"province":"Sumatera Utara","city":"Samosir","district":"Onan Runggu","urban":"Sitamiang","postal_code":22394},{"province":"Sumatera Utara","city":"Samosir","district":"Onan Runggu","urban":"Sitinjak","postal_code":22394},{"province":"Sumatera Utara","city":"Samosir","district":"Nainggolan","urban":"Sipinggan Lumban Siantar","postal_code":22394},{"province":"Sumatera Utara","city":"Samosir","district":"Nainggolan","urban":"Siruma Hombar","postal_code":22394},{"province":"Sumatera Utara","city":"Samosir","district":"Onan Runggu","urban":"Sipira","postal_code":22394},{"province":"Sumatera Utara","city":"Samosir","district":"Nainggolan","urban":"Sibonor Ompuratus","postal_code":22394},{"province":"Sumatera Utara","city":"Samosir","district":"Nainggolan","urban":"Sinaga Uruk Pandiangan","postal_code":22394},{"province":"Sumatera Utara","city":"Samosir","district":"Onan Runggu","urban":"Silima Lombu","postal_code":22394},{"province":"Sumatera Utara","city":"Samosir","district":"Onan Runggu","urban":"Rinabolak","postal_code":22394},{"province":"Sumatera Utara","city":"Samosir","district":"Nainggolan","urban":"Pasaran I","postal_code":22394},{"province":"Sumatera Utara","city":"Samosir","district":"Nainggolan","urban":"Pasaran Parsaoran","postal_code":22394},{"province":"Sumatera Utara","city":"Samosir","district":"Onan Runggu","urban":"Pardomuan","postal_code":22394},{"province":"Sumatera Utara","city":"Samosir","district":"Nainggolan","urban":"Parhusip III","postal_code":22394},{"province":"Sumatera Utara","city":"Samosir","district":"Onan Runggu","urban":"Pakpahan","postal_code":22394},{"province":"Sumatera Utara","city":"Samosir","district":"Nainggolan","urban":"Pananggangan","postal_code":22394},{"province":"Sumatera Utara","city":"Samosir","district":"Nainggolan","urban":"Pangaloan","postal_code":22394},{"province":"Sumatera Utara","city":"Samosir","district":"Nainggolan","urban":"Nainggolan","postal_code":22394},{"province":"Sumatera Utara","city":"Samosir","district":"Onan Runggu","urban":"Onan Runggu","postal_code":22394},{"province":"Sumatera Utara","city":"Samosir","district":"Onan Runggu","urban":"Janji Matogu","postal_code":22394},{"province":"Sumatera Utara","city":"Samosir","district":"Nainggolan","urban":"Huta Rihit","postal_code":22394},{"province":"Sumatera Utara","city":"Samosir","district":"Onan Runggu","urban":"Huta Hotang","postal_code":22394}]