[{"province":"Sumatera Utara","city":"Samosir","district":"Pangururan","urban":"Tanjung Bunga","postal_code":22392},{"province":"Sumatera Utara","city":"Samosir","district":"Pangururan","urban":"Sitoluhuta","postal_code":22392},{"province":"Sumatera Utara","city":"Samosir","district":"Pangururan","urban":"Situngkir","postal_code":22392},{"province":"Sumatera Utara","city":"Samosir","district":"Pangururan","urban":"Siogung Ogung","postal_code":22392},{"province":"Sumatera Utara","city":"Samosir","district":"Pangururan","urban":"Siopat Sosor","postal_code":22392},{"province":"Sumatera Utara","city":"Samosir","district":"Pangururan","urban":"Sinabulan","postal_code":22392},{"province":"Sumatera Utara","city":"Samosir","district":"Ronggur Nihuta","urban":"Sijambur","postal_code":22392},{"province":"Sumatera Utara","city":"Samosir","district":"Pangururan","urban":"Sialanguan","postal_code":22392},{"province":"Sumatera Utara","city":"Samosir","district":"Pangururan","urban":"Sianting Anting","postal_code":22392},{"province":"Sumatera Utara","city":"Samosir","district":"Ronggur Nihuta","urban":"Salaon Tonga Tonga","postal_code":22392},{"province":"Sumatera Utara","city":"Samosir","district":"Ronggur Nihuta","urban":"Salaon Toba","postal_code":22392},{"province":"Sumatera Utara","city":"Samosir","district":"Ronggur Nihuta","urban":"Salaon Dolok","postal_code":22392},{"province":"Sumatera Utara","city":"Samosir","district":"Ronggur Nihuta","urban":"Sabungan Nihuta","postal_code":22392},{"province":"Sumatera Utara","city":"Samosir","district":"Pangururan","urban":"Saitnihuta","postal_code":22392},{"province":"Sumatera Utara","city":"Samosir","district":"Ronggur Nihuta","urban":"Ronggur Nihuta","postal_code":22392},{"province":"Sumatera Utara","city":"Samosir","district":"Pangururan","urban":"Rianiate","postal_code":22392},{"province":"Sumatera Utara","city":"Samosir","district":"Pangururan","urban":"Pintu Sona","postal_code":22392},{"province":"Sumatera Utara","city":"Samosir","district":"Pangururan","urban":"Parsaoran I","postal_code":22392},{"province":"Sumatera Utara","city":"Samosir","district":"Pangururan","urban":"Parmonangan","postal_code":22392},{"province":"Sumatera Utara","city":"Samosir","district":"Pangururan","urban":"Parlondut","postal_code":22392},{"province":"Sumatera Utara","city":"Samosir","district":"Pangururan","urban":"Parhorasan","postal_code":22392},{"province":"Sumatera Utara","city":"Samosir","district":"Pangururan","urban":"Pardugul","postal_code":22392},{"province":"Sumatera Utara","city":"Samosir","district":"Pangururan","urban":"Pardomuan Nauli","postal_code":22392},{"province":"Sumatera Utara","city":"Samosir","district":"Pangururan","urban":"Pardomuan I","postal_code":22392},{"province":"Sumatera Utara","city":"Samosir","district":"Pangururan","urban":"Parbaba Dolok","postal_code":22392},{"province":"Sumatera Utara","city":"Samosir","district":"Ronggur Nihuta","urban":"Paraduan","postal_code":22392},{"province":"Sumatera Utara","city":"Samosir","district":"Pangururan","urban":"Panampangan","postal_code":22392},{"province":"Sumatera Utara","city":"Samosir","district":"Pangururan","urban":"Lumban Suhi Suhi Toruan","postal_code":22392},{"province":"Sumatera Utara","city":"Samosir","district":"Pangururan","urban":"Lumban Pinggol","postal_code":22392},{"province":"Sumatera Utara","city":"Samosir","district":"Pangururan","urban":"Lumban Suhi Suhi Dolok","postal_code":22392},{"province":"Sumatera Utara","city":"Samosir","district":"Pangururan","urban":"Huta Tinggi","postal_code":22392},{"province":"Sumatera Utara","city":"Samosir","district":"Ronggur Nihuta","urban":"Lintongnihuta","postal_code":22392},{"province":"Sumatera Utara","city":"Samosir","district":"Pangururan","urban":"Huta Bolon","postal_code":22392},{"province":"Sumatera Utara","city":"Samosir","district":"Pangururan","urban":"Huta Namora","postal_code":22392},{"province":"Sumatera Utara","city":"Samosir","district":"Pangururan","urban":"Aek Nauli","postal_code":22392}]