[{"province":"Sumatera Utara","city":"Samosir","district":"Harian","urban":"Turpuk Sagala","postal_code":22391},{"province":"Sumatera Utara","city":"Samosir","district":"Harian","urban":"Turpuk Sihotang","postal_code":22391},{"province":"Sumatera Utara","city":"Samosir","district":"Harian","urban":"Turpuk Malau","postal_code":22391},{"province":"Sumatera Utara","city":"Samosir","district":"Harian","urban":"Sosor Dolok","postal_code":22391},{"province":"Sumatera Utara","city":"Samosir","district":"Harian","urban":"Turpuk Limbong","postal_code":22391},{"province":"Sumatera Utara","city":"Samosir","district":"Harian","urban":"Siparmahan","postal_code":22391},{"province":"Sumatera Utara","city":"Samosir","district":"Harian","urban":"Partungko Naginjang","postal_code":22391},{"province":"Sumatera Utara","city":"Samosir","district":"Harian","urban":"Sampur Toba","postal_code":22391},{"province":"Sumatera Utara","city":"Samosir","district":"Harian","urban":"Janji Martahan","postal_code":22391},{"province":"Sumatera Utara","city":"Samosir","district":"Onan Runggu","urban":"Harian","postal_code":22391},{"province":"Sumatera Utara","city":"Samosir","district":"Harian","urban":"Hariara Pohan","postal_code":22391},{"province":"Sumatera Utara","city":"Samosir","district":"Harian","urban":"Dolok Raja","postal_code":22391}]