[{"province":"Sumatera Utara","city":"Tapanuli Utara","district":"Siatas Barita","urban":"Simorangkir Julu","postal_code":22417},{"province":"Sumatera Utara","city":"Tapanuli Utara","district":"Siatas Barita","urban":"Simanampang","postal_code":22417},{"province":"Sumatera Utara","city":"Tapanuli Utara","district":"Siatas Barita","urban":"Simorangkir Habinsaran","postal_code":22417},{"province":"Sumatera Utara","city":"Tapanuli Utara","district":"Tarutung","urban":"Siandor Andor","postal_code":22417},{"province":"Sumatera Utara","city":"Tapanuli Utara","district":"Siatas Barita","urban":"Sidagal","postal_code":22417},{"province":"Sumatera Utara","city":"Tapanuli Utara","district":"Siatas Barita","urban":"Lumban Siagian Jae","postal_code":22417},{"province":"Sumatera Utara","city":"Tapanuli Utara","district":"Siatas Barita","urban":"Lumban Siagian Julu","postal_code":22417},{"province":"Sumatera Utara","city":"Tapanuli Utara","district":"Siatas Barita","urban":"Si Raja Hutagalung","postal_code":22417},{"province":"Sumatera Utara","city":"Tapanuli Utara","district":"Siatas Barita","urban":"Enda Portibi","postal_code":22417},{"province":"Sumatera Utara","city":"Tapanuli Utara","district":"Siatas Barita","urban":"Lobuhole","postal_code":22417}]