[{"province":"Sumatera Utara","city":"Humbang Hasundutan","district":"Tara Bintang","urban":"Tara Bintang","postal_code":22456},{"province":"Sumatera Utara","city":"Humbang Hasundutan","district":"Tara Bintang","urban":"Sitanduk","postal_code":22456},{"province":"Sumatera Utara","city":"Humbang Hasundutan","district":"Parlilitan","urban":"Sionom Hudon Utara","postal_code":22456},{"province":"Sumatera Utara","city":"Humbang Hasundutan","district":"Parlilitan","urban":"Sionom Hudon VII","postal_code":22456},{"province":"Sumatera Utara","city":"Humbang Hasundutan","district":"Parlilitan","urban":"Sionom Hudon Toruan","postal_code":22456},{"province":"Sumatera Utara","city":"Humbang Hasundutan","district":"Parlilitan","urban":"Sionom Hudon Tonga","postal_code":22456},{"province":"Sumatera Utara","city":"Humbang Hasundutan","district":"Parlilitan","urban":"Sionom Hudon Timur","postal_code":22456},{"province":"Sumatera Utara","city":"Humbang Hasundutan","district":"Parlilitan","urban":"Sionom Hudon Timur II","postal_code":22456},{"province":"Sumatera Utara","city":"Humbang Hasundutan","district":"Parlilitan","urban":"Sionom Hudon Selatan","postal_code":22456},{"province":"Sumatera Utara","city":"Humbang Hasundutan","district":"Parlilitan","urban":"Sionom Hudon Sibulbulon","postal_code":22456},{"province":"Sumatera Utara","city":"Humbang Hasundutan","district":"Parlilitan","urban":"Sionom Hudon Julu","postal_code":22456},{"province":"Sumatera Utara","city":"Humbang Hasundutan","district":"Parlilitan","urban":"Sionom Hudon Runggu","postal_code":22456},{"province":"Sumatera Utara","city":"Humbang Hasundutan","district":"Tara Bintang","urban":"Simbara","postal_code":22456},{"province":"Sumatera Utara","city":"Humbang Hasundutan","district":"Parlilitan","urban":"Sihotang Hasugian Tonga","postal_code":22456},{"province":"Sumatera Utara","city":"Humbang Hasundutan","district":"Parlilitan","urban":"Simataniari","postal_code":22456},{"province":"Sumatera Utara","city":"Humbang Hasundutan","district":"Tara Bintang","urban":"Sihotang Hasugian Toruan","postal_code":22456},{"province":"Sumatera Utara","city":"Humbang Hasundutan","district":"Parlilitan","urban":"Sihotang Hasugian Dolok II","postal_code":22456},{"province":"Sumatera Utara","city":"Humbang Hasundutan","district":"Parlilitan","urban":"Sihotang Hasugian Habinsaran","postal_code":22456},{"province":"Sumatera Utara","city":"Humbang Hasundutan","district":"Parlilitan","urban":"Sihotang Hasugian Dolok I","postal_code":22456},{"province":"Sumatera Utara","city":"Humbang Hasundutan","district":"Tara Bintang","urban":"Sihombu","postal_code":22456},{"province":"Sumatera Utara","city":"Humbang Hasundutan","district":"Tara Bintang","urban":"Sibongkare Sianju","postal_code":22456},{"province":"Sumatera Utara","city":"Humbang Hasundutan","district":"Parlilitan","urban":"Pusuk II Simaninggir","postal_code":22456},{"province":"Sumatera Utara","city":"Humbang Hasundutan","district":"Tara Bintang","urban":"Sibongkare","postal_code":22456},{"province":"Sumatera Utara","city":"Humbang Hasundutan","district":"Parlilitan","urban":"Pusuk I","postal_code":22456},{"province":"Sumatera Utara","city":"Humbang Hasundutan","district":"Tara Bintang","urban":"Mungkur","postal_code":22456},{"province":"Sumatera Utara","city":"Humbang Hasundutan","district":"Parlilitan","urban":"Janji Hutanapa","postal_code":22456},{"province":"Sumatera Utara","city":"Humbang Hasundutan","district":"Tara Bintang","urban":"Marpadan","postal_code":22456},{"province":"Sumatera Utara","city":"Humbang Hasundutan","district":"Parlilitan","urban":"Baringin","postal_code":22456},{"province":"Sumatera Utara","city":"Humbang Hasundutan","district":"Parlilitan","urban":"Baringin Natam","postal_code":22456}]