[{"province":"Sumatera Utara","city":"Humbang Hasundutan","district":"Bakti Raja","urban":"Tipang","postal_code":22457},{"province":"Sumatera Utara","city":"Humbang Hasundutan","district":"Dolok Sanggul","urban":"Sosor Tambok","postal_code":22457},{"province":"Sumatera Utara","city":"Humbang Hasundutan","district":"Dolok Sanggul","urban":"Sosortolong Sihite III","postal_code":22457},{"province":"Sumatera Utara","city":"Humbang Hasundutan","district":"Bakti Raja","urban":"Siunong-Unong Julu","postal_code":22457},{"province":"Sumatera Utara","city":"Humbang Hasundutan","district":"Dolok Sanggul","urban":"Sosor Gonting","postal_code":22457},{"province":"Sumatera Utara","city":"Humbang Hasundutan","district":"Sijama Polang","urban":"Sitapongan","postal_code":22457},{"province":"Sumatera Utara","city":"Humbang Hasundutan","district":"Dolok Sanggul","urban":"Sirisirisi","postal_code":22457},{"province":"Sumatera Utara","city":"Humbang Hasundutan","district":"Pollung","urban":"Sipitu Huta","postal_code":22457},{"province":"Sumatera Utara","city":"Humbang Hasundutan","district":"Bakti Raja","urban":"Simangulampe","postal_code":22457},{"province":"Sumatera Utara","city":"Humbang Hasundutan","district":"Dolok Sanggul","urban":"Simarigung","postal_code":22457},{"province":"Sumatera Utara","city":"Humbang Hasundutan","district":"Bakti Raja","urban":"Sinambela","postal_code":22457},{"province":"Sumatera Utara","city":"Humbang Hasundutan","district":"Bakti Raja","urban":"Simamora","postal_code":22457},{"province":"Sumatera Utara","city":"Humbang Hasundutan","district":"Dolok Sanggul","urban":"Simangaronsang","postal_code":22457},{"province":"Sumatera Utara","city":"Humbang Hasundutan","district":"Dolok Sanggul","urban":"Sihite II","postal_code":22457},{"province":"Sumatera Utara","city":"Humbang Hasundutan","district":"Dolok Sanggul","urban":"Sileang","postal_code":22457},{"province":"Sumatera Utara","city":"Humbang Hasundutan","district":"Sijama Polang","urban":"Sigulok","postal_code":22457},{"province":"Sumatera Utara","city":"Humbang Hasundutan","district":"Dolok Sanggul","urban":"Sihite I","postal_code":22457},{"province":"Sumatera Utara","city":"Humbang Hasundutan","district":"Sijama Polang","urban":"Sibuntuon","postal_code":22457},{"province":"Sumatera Utara","city":"Humbang Hasundutan","district":"Dolok Sanggul","urban":"Sigala Gala (Silaga Laga)","postal_code":22457},{"province":"Sumatera Utara","city":"Humbang Hasundutan","district":"Sijama Polang","urban":"Siborboron","postal_code":22457},{"province":"Sumatera Utara","city":"Humbang Hasundutan","district":"Dolok Sanggul","urban":"Sampean","postal_code":22457},{"province":"Sumatera Utara","city":"Humbang Hasundutan","district":"Sijama Polang","urban":"Sanggaran I","postal_code":22457},{"province":"Sumatera Utara","city":"Humbang Hasundutan","district":"Dolok Sanggul","urban":"Saitnihuta","postal_code":22457},{"province":"Sumatera Utara","city":"Humbang Hasundutan","district":"Pollung","urban":"Ria-Ria","postal_code":22457},{"province":"Sumatera Utara","city":"Humbang Hasundutan","district":"Dolok Sanggul","urban":"Purba Manalu","postal_code":22457},{"province":"Sumatera Utara","city":"Humbang Hasundutan","district":"Dolok Sanggul","urban":"Purba Dolok","postal_code":22457},{"province":"Sumatera Utara","city":"Humbang Hasundutan","district":"Pollung","urban":"Pollung","postal_code":22457},{"province":"Sumatera Utara","city":"Humbang Hasundutan","district":"Dolok Sanggul","urban":"Pasaribu","postal_code":22457},{"province":"Sumatera Utara","city":"Humbang Hasundutan","district":"Pollung","urban":"Parsingguran I","postal_code":22457},{"province":"Sumatera Utara","city":"Humbang Hasundutan","district":"Pollung","urban":"Parsingguran II","postal_code":22457},{"province":"Sumatera Utara","city":"Humbang Hasundutan","district":"Dolok Sanggul","urban":"Parik Sinomba","postal_code":22457},{"province":"Sumatera Utara","city":"Humbang Hasundutan","district":"Pollung","urban":"Pardomuan","postal_code":22457},{"province":"Sumatera Utara","city":"Humbang Hasundutan","district":"Pollung","urban":"Pandumaan","postal_code":22457},{"province":"Sumatera Utara","city":"Humbang Hasundutan","district":"Pollung","urban":"Pansur Batu","postal_code":22457},{"province":"Sumatera Utara","city":"Humbang Hasundutan","district":"Dolok Sanggul","urban":"Pakkat","postal_code":22457},{"province":"Sumatera Utara","city":"Humbang Hasundutan","district":"Sijama Polang","urban":"Nagurguran","postal_code":22457},{"province":"Sumatera Utara","city":"Humbang Hasundutan","district":"Dolok Sanggul","urban":"Matiti II","postal_code":22457},{"province":"Sumatera Utara","city":"Humbang Hasundutan","district":"Dolok Sanggul","urban":"Matiti I","postal_code":22457},{"province":"Sumatera Utara","city":"Humbang Hasundutan","district":"Bakti Raja","urban":"Marbun","postal_code":22457},{"province":"Sumatera Utara","city":"Humbang Hasundutan","district":"Bakti Raja","urban":"Marbun Tonga Marbun Dolok","postal_code":22457},{"province":"Sumatera Utara","city":"Humbang Hasundutan","district":"Dolok Sanggul","urban":"Janji","postal_code":22457},{"province":"Sumatera Utara","city":"Humbang Hasundutan","district":"Dolok Sanggul","urban":"Lumban Purba","postal_code":22457},{"province":"Sumatera Utara","city":"Humbang Hasundutan","district":"Dolok Sanggul","urban":"Lumban Tobing","postal_code":22457},{"province":"Sumatera Utara","city":"Humbang Hasundutan","district":"Sijama Polang","urban":"Hutaginjang","postal_code":22457},{"province":"Sumatera Utara","city":"Humbang Hasundutan","district":"Dolok Sanggul","urban":"Hutaraja","postal_code":22457},{"province":"Sumatera Utara","city":"Humbang Hasundutan","district":"Pollung","urban":"Huta Paung Utara","postal_code":22457},{"province":"Sumatera Utara","city":"Humbang Hasundutan","district":"Dolok Sanggul","urban":"Hutabagasan","postal_code":22457},{"province":"Sumatera Utara","city":"Humbang Hasundutan","district":"Pollung","urban":"Huta Julu","postal_code":22457},{"province":"Sumatera Utara","city":"Humbang Hasundutan","district":"Pollung","urban":"Huta Paung","postal_code":22457},{"province":"Sumatera Utara","city":"Humbang Hasundutan","district":"Dolok Sanggul","urban":"Dolok Sanggul (Pasar Dolok Sanggul)","postal_code":22457},{"province":"Sumatera Utara","city":"Humbang Hasundutan","district":"Dolok Sanggul","urban":"Huta Gurgur","postal_code":22457},{"province":"Sumatera Utara","city":"Humbang Hasundutan","district":"Sijama Polang","urban":"Bonan Dolok II","postal_code":22457},{"province":"Sumatera Utara","city":"Humbang Hasundutan","district":"Dolok Sanggul","urban":"Bonani Onan","postal_code":22457},{"province":"Sumatera Utara","city":"Humbang Hasundutan","district":"Sijama Polang","urban":"Batu Nagajar","postal_code":22457},{"province":"Sumatera Utara","city":"Humbang Hasundutan","district":"Sijama Polang","urban":"Bonan Dolok I","postal_code":22457},{"province":"Sumatera Utara","city":"Humbang Hasundutan","district":"Pollung","urban":"Aek Nauli I","postal_code":22457},{"province":"Sumatera Utara","city":"Humbang Hasundutan","district":"Pollung","urban":"Aek Nauli II","postal_code":22457},{"province":"Sumatera Utara","city":"Humbang Hasundutan","district":"Dolok Sanggul","urban":"Aek Lung","postal_code":22457}]