[{"province":"Sumatera Utara","city":"Tapanuli Utara","district":"Pahae Jae","urban":"Tordolok Nauli","postal_code":22465},{"province":"Sumatera Utara","city":"Tapanuli Utara","district":"Pahae Jae","urban":"Sukamaju","postal_code":22465},{"province":"Sumatera Utara","city":"Tapanuli Utara","district":"Purbatua","urban":"Sitolu Ompu (Bahal)","postal_code":22465},{"province":"Sumatera Utara","city":"Tapanuli Utara","district":"Pahae Jae","urban":"Sitolu Ompu","postal_code":22465},{"province":"Sumatera Utara","city":"Tapanuli Utara","district":"Pahae Jae","urban":"Sigurung Gurung","postal_code":22465},{"province":"Sumatera Utara","city":"Tapanuli Utara","district":"Pahae Jae","urban":"Silangkitang","postal_code":22465},{"province":"Sumatera Utara","city":"Tapanuli Utara","district":"Pahae Jae","urban":"Siopat Bahal","postal_code":22465},{"province":"Sumatera Utara","city":"Tapanuli Utara","district":"Purbatua","urban":"Sidua Bahal","postal_code":22465},{"province":"Sumatera Utara","city":"Tapanuli Utara","district":"Purbatua","urban":"Sibulan Bulan","postal_code":22465},{"province":"Sumatera Utara","city":"Tapanuli Utara","district":"Pahae Jae","urban":"Setia","postal_code":22465},{"province":"Sumatera Utara","city":"Tapanuli Utara","district":"Purbatua","urban":"Robean","postal_code":22465},{"province":"Sumatera Utara","city":"Tapanuli Utara","district":"Purbatua","urban":"Selamat","postal_code":22465},{"province":"Sumatera Utara","city":"Tapanuli Utara","district":"Pahae Jae","urban":"Sarulla (Pasar Sarulla)","postal_code":22465},{"province":"Sumatera Utara","city":"Tapanuli Utara","district":"Pahae Jae","urban":"Parsaoran Nainggolan","postal_code":22465},{"province":"Sumatera Utara","city":"Tapanuli Utara","district":"Pahae Jae","urban":"Parsaoran Samosir","postal_code":22465},{"province":"Sumatera Utara","city":"Tapanuli Utara","district":"Purbatua","urban":"Purbatua","postal_code":22465},{"province":"Sumatera Utara","city":"Tapanuli Utara","district":"Pahae Jae","urban":"Pardomuan Nainggolan","postal_code":22465},{"province":"Sumatera Utara","city":"Tapanuli Utara","district":"Purbatua","urban":"Pardomuan Janji Angkola","postal_code":22465},{"province":"Sumatera Utara","city":"Tapanuli Utara","district":"Purbatua","urban":"Parsaoran Janji Angkola","postal_code":22465},{"province":"Sumatera Utara","city":"Tapanuli Utara","district":"Pahae Jae","urban":"Pardamean Nainggolan","postal_code":22465},{"province":"Sumatera Utara","city":"Tapanuli Utara","district":"Pahae Jae","urban":"Nahornop Marsada","postal_code":22465},{"province":"Sumatera Utara","city":"Tapanuli Utara","district":"Purbatua","urban":"Huta Nagodang","postal_code":22465},{"province":"Sumatera Utara","city":"Tapanuli Utara","district":"Purbatua","urban":"Janji Nauli","postal_code":22465},{"province":"Sumatera Utara","city":"Tapanuli Utara","district":"Purbatua","urban":"Bonani Dolok","postal_code":22465}]