[{"province":"Sumatera Utara","city":"Tapanuli Utara","district":"Sipahutar","urban":"Tapian Nauli III","postal_code":22471},{"province":"Sumatera Utara","city":"Tapanuli Utara","district":"Sipahutar","urban":"Tapian Nauli II","postal_code":22471},{"province":"Sumatera Utara","city":"Tapanuli Utara","district":"Sipahutar","urban":"Sipahutar II","postal_code":22471},{"province":"Sumatera Utara","city":"Tapanuli Utara","district":"Sipahutar","urban":"Sipahutar III","postal_code":22471},{"province":"Sumatera Utara","city":"Tapanuli Utara","district":"Sipahutar","urban":"Tapian Nauli I","postal_code":22471},{"province":"Sumatera Utara","city":"Tapanuli Utara","district":"Sipahutar","urban":"Siabal Abal IV","postal_code":22471},{"province":"Sumatera Utara","city":"Tapanuli Utara","district":"Sipahutar","urban":"Sipahutar I","postal_code":22471},{"province":"Sumatera Utara","city":"Tapanuli Utara","district":"Sipahutar","urban":"Siabal Abal I","postal_code":22471},{"province":"Sumatera Utara","city":"Tapanuli Utara","district":"Sipahutar","urban":"Siabal Abal II","postal_code":22471},{"province":"Sumatera Utara","city":"Tapanuli Utara","district":"Sipahutar","urban":"Siabal Abal III","postal_code":22471},{"province":"Sumatera Utara","city":"Tapanuli Utara","district":"Sipahutar","urban":"Sabungan Nihuta V","postal_code":22471},{"province":"Sumatera Utara","city":"Tapanuli Utara","district":"Sipahutar","urban":"Sabungan Nihuta IV","postal_code":22471},{"province":"Sumatera Utara","city":"Tapanuli Utara","district":"Sipahutar","urban":"Sabungan Nihuta II","postal_code":22471},{"province":"Sumatera Utara","city":"Tapanuli Utara","district":"Sipahutar","urban":"Sabungan Nihuta III","postal_code":22471},{"province":"Sumatera Utara","city":"Tapanuli Utara","district":"Sipahutar","urban":"Onan Runggu IV","postal_code":22471},{"province":"Sumatera Utara","city":"Tapanuli Utara","district":"Sipahutar","urban":"Sabungan Nihuta I","postal_code":22471},{"province":"Sumatera Utara","city":"Tapanuli Utara","district":"Sipahutar","urban":"Onan Runggu II","postal_code":22471},{"province":"Sumatera Utara","city":"Tapanuli Utara","district":"Sipahutar","urban":"Onan Runggu III","postal_code":22471},{"province":"Sumatera Utara","city":"Tapanuli Utara","district":"Sipahutar","urban":"Aek Nauli III","postal_code":22471},{"province":"Sumatera Utara","city":"Tapanuli Utara","district":"Sipahutar","urban":"Aek Nauli IV","postal_code":22471},{"province":"Sumatera Utara","city":"Tapanuli Utara","district":"Sipahutar","urban":"Onan Runggu I","postal_code":22471},{"province":"Sumatera Utara","city":"Tapanuli Utara","district":"Sipahutar","urban":"Aek Nauli I","postal_code":22471},{"province":"Sumatera Utara","city":"Tapanuli Utara","district":"Sipahutar","urban":"Aek Nauli II","postal_code":22471}]