[{"province":"Sumatera Utara","city":"Humbang Hasundutan","district":"Lintong Nihuta","urban":"Sitolu Bahal","postal_code":22475},{"province":"Sumatera Utara","city":"Humbang Hasundutan","district":"Lintong Nihuta","urban":"Tapian Nauli","postal_code":22475},{"province":"Sumatera Utara","city":"Humbang Hasundutan","district":"Paranginan","urban":"Sihonongan","postal_code":22475},{"province":"Sumatera Utara","city":"Humbang Hasundutan","district":"Lintong Nihuta","urban":"Siponjot","postal_code":22475},{"province":"Sumatera Utara","city":"Humbang Hasundutan","district":"Lintong Nihuta","urban":"Sitio II","postal_code":22475},{"province":"Sumatera Utara","city":"Humbang Hasundutan","district":"Lintong Nihuta","urban":"Sigumpar","postal_code":22475},{"province":"Sumatera Utara","city":"Humbang Hasundutan","district":"Lintong Nihuta","urban":"Siharjulu","postal_code":22475},{"province":"Sumatera Utara","city":"Humbang Hasundutan","district":"Lintong Nihuta","urban":"Sibuntuon","postal_code":22475},{"province":"Sumatera Utara","city":"Humbang Hasundutan","district":"Lintong Nihuta","urban":"Sigompul","postal_code":22475},{"province":"Sumatera Utara","city":"Humbang Hasundutan","district":"Lintong Nihuta","urban":"Sibuntoan Parpea / Parpean","postal_code":22475},{"province":"Sumatera Utara","city":"Humbang Hasundutan","district":"Paranginan","urban":"Siboru Torop","postal_code":22475},{"province":"Sumatera Utara","city":"Humbang Hasundutan","district":"Paranginan","urban":"Pearung","postal_code":22475},{"province":"Sumatera Utara","city":"Humbang Hasundutan","district":"Paranginan","urban":"Pearung Silali","postal_code":22475},{"province":"Sumatera Utara","city":"Humbang Hasundutan","district":"Lintong Nihuta","urban":"Parulohan","postal_code":22475},{"province":"Sumatera Utara","city":"Humbang Hasundutan","district":"Lintong Nihuta","urban":"Pargaulan","postal_code":22475},{"province":"Sumatera Utara","city":"Humbang Hasundutan","district":"Paranginan","urban":"Paranginan Utara","postal_code":22475},{"province":"Sumatera Utara","city":"Humbang Hasundutan","district":"Lintong Nihuta","urban":"Nagasaribu IV","postal_code":22475},{"province":"Sumatera Utara","city":"Humbang Hasundutan","district":"Lintong Nihuta","urban":"Nagasaribu V","postal_code":22475},{"province":"Sumatera Utara","city":"Humbang Hasundutan","district":"Paranginan","urban":"Paranginan Selatan","postal_code":22475},{"province":"Sumatera Utara","city":"Humbang Hasundutan","district":"Lintong Nihuta","urban":"Nagasaribu III","postal_code":22475},{"province":"Sumatera Utara","city":"Humbang Hasundutan","district":"Lintong Nihuta","urban":"Naga Saribu I","postal_code":22475},{"province":"Sumatera Utara","city":"Humbang Hasundutan","district":"Lintong Nihuta","urban":"Naga Saribu II","postal_code":22475},{"province":"Sumatera Utara","city":"Humbang Hasundutan","district":"Paranginan","urban":"Lumban Sialaman","postal_code":22475},{"province":"Sumatera Utara","city":"Humbang Hasundutan","district":"Paranginan","urban":"Lumban Sianturi","postal_code":22475},{"province":"Sumatera Utara","city":"Humbang Hasundutan","district":"Paranginan","urban":"Lumban Barat","postal_code":22475},{"province":"Sumatera Utara","city":"Humbang Hasundutan","district":"Lintong Nihuta","urban":"Lobu Tua","postal_code":22475},{"province":"Sumatera Utara","city":"Humbang Hasundutan","district":"Paranginan","urban":"Lobutolong Habinsaran","postal_code":22475},{"province":"Sumatera Utara","city":"Humbang Hasundutan","district":"Lintong Nihuta","urban":"Hutasoit II","postal_code":22475},{"province":"Sumatera Utara","city":"Humbang Hasundutan","district":"Paranginan","urban":"Lobu Tolong","postal_code":22475},{"province":"Sumatera Utara","city":"Humbang Hasundutan","district":"Lintong Nihuta","urban":"Dolok Margu (Dolok Marduga)","postal_code":22475},{"province":"Sumatera Utara","city":"Humbang Hasundutan","district":"Lintong Nihuta","urban":"Habeahan","postal_code":22475},{"province":"Sumatera Utara","city":"Humbang Hasundutan","district":"Lintong Nihuta","urban":"Hutasoit","postal_code":22475},{"province":"Sumatera Utara","city":"Humbang Hasundutan","district":"Lintong Nihuta","urban":"Bonan Dolok","postal_code":22475}]