[{"province":"Sumatera Utara","city":"Tapanuli Utara","district":"Siborong-Borong","urban":"Sitampurung","postal_code":22474},{"province":"Sumatera Utara","city":"Tapanuli Utara","district":"Siborong-Borong","urban":"Sitabotabo","postal_code":22474},{"province":"Sumatera Utara","city":"Tapanuli Utara","district":"Siborong-Borong","urban":"Sitabotabo Toruan","postal_code":22474},{"province":"Sumatera Utara","city":"Tapanuli Utara","district":"Siborong-Borong","urban":"Silait-Lait","postal_code":22474},{"province":"Sumatera Utara","city":"Tapanuli Utara","district":"Siborong-Borong","urban":"Sigumbang","postal_code":22474},{"province":"Sumatera Utara","city":"Tapanuli Utara","district":"Siborong-Borong","urban":"Siborong-Borong I","postal_code":22474},{"province":"Sumatera Utara","city":"Tapanuli Utara","district":"Siborong-Borong","urban":"Siborong-Borong II","postal_code":22474},{"province":"Sumatera Utara","city":"Tapanuli Utara","district":"Siborong-Borong","urban":"Siaro","postal_code":22474},{"province":"Sumatera Utara","city":"Tapanuli Utara","district":"Siborong-Borong","urban":"Pohan Julu","postal_code":22474},{"province":"Sumatera Utara","city":"Tapanuli Utara","district":"Siborong-Borong","urban":"Pohan Tonga","postal_code":22474},{"province":"Sumatera Utara","city":"Tapanuli Utara","district":"Siborong-Borong","urban":"Pohan Jae","postal_code":22474},{"province":"Sumatera Utara","city":"Tapanuli Utara","district":"Siborong-Borong","urban":"Pasar Siborong Borong","postal_code":22474},{"province":"Sumatera Utara","city":"Tapanuli Utara","district":"Siborong-Borong","urban":"Parik Sabungan","postal_code":22474},{"province":"Sumatera Utara","city":"Tapanuli Utara","district":"Siborong-Borong","urban":"Lumban Tonga Tonga","postal_code":22474},{"province":"Sumatera Utara","city":"Tapanuli Utara","district":"Siborong-Borong","urban":"Paniaran","postal_code":22474},{"province":"Sumatera Utara","city":"Tapanuli Utara","district":"Siborong-Borong","urban":"Lobu Siregar II","postal_code":22474},{"province":"Sumatera Utara","city":"Tapanuli Utara","district":"Siborong-Borong","urban":"Lobu Siregar I","postal_code":22474},{"province":"Sumatera Utara","city":"Tapanuli Utara","district":"Siborong-Borong","urban":"Hutabulu","postal_code":22474},{"province":"Sumatera Utara","city":"Tapanuli Utara","district":"Siborong-Borong","urban":"Bahal Batu III","postal_code":22474},{"province":"Sumatera Utara","city":"Tapanuli Utara","district":"Siborong-Borong","urban":"Bahal Batu II","postal_code":22474},{"province":"Sumatera Utara","city":"Tapanuli Utara","district":"Siborong-Borong","urban":"Bahal Batu I","postal_code":22474}]