[{"province":"Sumatera Utara","city":"Tapanuli Tengah","district":"Sorkam","urban":"Tarutung Bolak","postal_code":22563},{"province":"Sumatera Utara","city":"Tapanuli Tengah","district":"Sorkam","urban":"Teluk Roban","postal_code":22563},{"province":"Sumatera Utara","city":"Tapanuli Tengah","district":"Sorkam Barat","urban":"Sorkam Kanan 2","postal_code":22563},{"province":"Sumatera Utara","city":"Tapanuli Tengah","district":"Pasaribu Tobing","urban":"Suga-Suga (Hutagodang)","postal_code":22563},{"province":"Sumatera Utara","city":"Tapanuli Tengah","district":"Pasaribu Tobing","urban":"Suka Maju","postal_code":22563},{"province":"Sumatera Utara","city":"Tapanuli Tengah","district":"Sorkam","urban":"Sorkam","postal_code":22563},{"province":"Sumatera Utara","city":"Tapanuli Tengah","district":"Sorkam Barat","urban":"Sipea Pea","postal_code":22563},{"province":"Sumatera Utara","city":"Tapanuli Tengah","district":"Sorkam Barat","urban":"Sorkam Kanan","postal_code":22563},{"province":"Sumatera Utara","city":"Tapanuli Tengah","district":"Sorkam","urban":"Simarpinggan","postal_code":22563},{"province":"Sumatera Utara","city":"Tapanuli Tengah","district":"Pasaribu Tobing","urban":"Sipakpahi","postal_code":22563},{"province":"Sumatera Utara","city":"Tapanuli Tengah","district":"Sorkam Barat","urban":"Sidikalang","postal_code":22563},{"province":"Sumatera Utara","city":"Tapanuli Tengah","district":"Pasaribu Tobing","urban":"Sidaling","postal_code":22563},{"province":"Sumatera Utara","city":"Tapanuli Tengah","district":"Pasaribu Tobing","urban":"Simargarap","postal_code":22563},{"province":"Sumatera Utara","city":"Tapanuli Tengah","district":"Sorkam","urban":"Pelita","postal_code":22563},{"province":"Sumatera Utara","city":"Tapanuli Tengah","district":"Sorkam","urban":"Rianiate","postal_code":22563},{"province":"Sumatera Utara","city":"Tapanuli Tengah","district":"Sorkam","urban":"Pearaja","postal_code":22563},{"province":"Sumatera Utara","city":"Tapanuli Tengah","district":"Sorkam Barat","urban":"Pasaribu Tobing Jae","postal_code":22563},{"province":"Sumatera Utara","city":"Tapanuli Tengah","district":"Pasaribu Tobing","urban":"Pasaribu Tobing","postal_code":22563},{"province":"Sumatera Utara","city":"Tapanuli Tengah","district":"Sorkam Barat","urban":"Pasar Sorkam","postal_code":22563},{"province":"Sumatera Utara","city":"Tapanuli Tengah","district":"Sorkam","urban":"Pargaringan","postal_code":22563},{"province":"Sumatera Utara","city":"Tapanuli Tengah","district":"Sorkam","urban":"Pargarutan","postal_code":22563},{"province":"Sumatera Utara","city":"Tapanuli Tengah","district":"Sorkam","urban":"Pardamean","postal_code":22563},{"province":"Sumatera Utara","city":"Tapanuli Tengah","district":"Sorkam Barat","urban":"Pahieme","postal_code":22563},{"province":"Sumatera Utara","city":"Tapanuli Tengah","district":"Sorkam Barat","urban":"Pahieme II","postal_code":22563},{"province":"Sumatera Utara","city":"Tapanuli Tengah","district":"Pasaribu Tobing","urban":"Makmur","postal_code":22563},{"province":"Sumatera Utara","city":"Tapanuli Tengah","district":"Sorkam","urban":"Nai Pos Pos Barat","postal_code":22563},{"province":"Sumatera Utara","city":"Tapanuli Tengah","district":"Sorkam Barat","urban":"Maduma","postal_code":22563},{"province":"Sumatera Utara","city":"Tapanuli Tengah","district":"Sorkam","urban":"Fajar","postal_code":22563},{"province":"Sumatera Utara","city":"Tapanuli Tengah","district":"Sorkam","urban":"Gonting Mahe","postal_code":22563},{"province":"Sumatera Utara","city":"Tapanuli Tengah","district":"Sorkam","urban":"Botot","postal_code":22563},{"province":"Sumatera Utara","city":"Tapanuli Tengah","district":"Sorkam","urban":"Dolok Pantis","postal_code":22563},{"province":"Sumatera Utara","city":"Tapanuli Tengah","district":"Sorkam Barat","urban":"Aek Raso","postal_code":22563},{"province":"Sumatera Utara","city":"Tapanuli Tengah","district":"Sorkam Barat","urban":"Binasi","postal_code":22563},{"province":"Sumatera Utara","city":"Tapanuli Tengah","district":"Pasaribu Tobing","urban":"Aek Nadua","postal_code":22563}]