[{"province":"Sumatera Utara","city":"Tapanuli Tengah","district":"Manduamas","urban":"Tumba Jae","postal_code":22565},{"province":"Sumatera Utara","city":"Tapanuli Tengah","district":"Sirandorung","urban":"Siordang","postal_code":22565},{"province":"Sumatera Utara","city":"Tapanuli Tengah","district":"Manduamas","urban":"Tumba","postal_code":22565},{"province":"Sumatera Utara","city":"Tapanuli Tengah","district":"Sirandorung","urban":"Sigodung","postal_code":22565},{"province":"Sumatera Utara","city":"Tapanuli Tengah","district":"Sirandorung","urban":"Simpang Tiga Lae Bingke","postal_code":22565},{"province":"Sumatera Utara","city":"Tapanuli Tengah","district":"Manduamas","urban":"Saragih","postal_code":22565},{"province":"Sumatera Utara","city":"Tapanuli Tengah","district":"Manduamas","urban":"Sarma Nauli","postal_code":22565},{"province":"Sumatera Utara","city":"Tapanuli Tengah","district":"Sirandorung","urban":"Pardomuan","postal_code":22565},{"province":"Sumatera Utara","city":"Tapanuli Tengah","district":"Sirandorung","urban":"Sampang Maruhur","postal_code":22565},{"province":"Sumatera Utara","city":"Tapanuli Tengah","district":"Manduamas","urban":"Pasar Onan Manduamas","postal_code":22565},{"province":"Sumatera Utara","city":"Tapanuli Tengah","district":"Manduamas","urban":"Pagaran Nauli","postal_code":22565},{"province":"Sumatera Utara","city":"Tapanuli Tengah","district":"Sirandorung","urban":"Muara Ore","postal_code":22565},{"province":"Sumatera Utara","city":"Tapanuli Tengah","district":"Sirandorung","urban":"Masnauli","postal_code":22565},{"province":"Sumatera Utara","city":"Tapanuli Tengah","district":"Manduamas","urban":"Binjohara","postal_code":22565},{"province":"Sumatera Utara","city":"Tapanuli Tengah","district":"Manduamas","urban":"Lae Monong","postal_code":22565},{"province":"Sumatera Utara","city":"Tapanuli Tengah","district":"Manduamas","urban":"Manduamas Lama","postal_code":22565},{"province":"Sumatera Utara","city":"Tapanuli Tengah","district":"Sirandorung","urban":"Bajamas","postal_code":22565}]