[{"province":"Sumatera Utara","city":"Tapanuli Tengah","district":"Sosor Gadong","urban":"Unte Boang","postal_code":22564},{"province":"Sumatera Utara","city":"Tapanuli Tengah","district":"Sosor Gadong","urban":"Sosor Gadong","postal_code":22564},{"province":"Sumatera Utara","city":"Tapanuli Tengah","district":"Barus","urban":"Ujung Batu","postal_code":22564},{"province":"Sumatera Utara","city":"Tapanuli Tengah","district":"Barus Utara","urban":"Siharbangan","postal_code":22564},{"province":"Sumatera Utara","city":"Tapanuli Tengah","district":"Barus","urban":"Sigambo Gambo","postal_code":22564},{"province":"Sumatera Utara","city":"Tapanuli Tengah","district":"Barus Utara","urban":"Sihorbo","postal_code":22564},{"province":"Sumatera Utara","city":"Tapanuli Tengah","district":"Sosor Gadong","urban":"Siantar Ca","postal_code":22564},{"province":"Sumatera Utara","city":"Tapanuli Tengah","district":"Sosor Gadong","urban":"Siantar Dolok","postal_code":22564},{"province":"Sumatera Utara","city":"Tapanuli Tengah","district":"Sosor Gadong","urban":"Sibintang","postal_code":22564},{"province":"Sumatera Utara","city":"Tapanuli Tengah","district":"Barus Utara","urban":"Purbatua","postal_code":22564},{"province":"Sumatera Utara","city":"Tapanuli Tengah","district":"Barus","urban":"Patupangan","postal_code":22564},{"province":"Sumatera Utara","city":"Tapanuli Tengah","district":"Barus","urban":"Pasar Batu Gerigis","postal_code":22564},{"province":"Sumatera Utara","city":"Tapanuli Tengah","district":"Barus","urban":"Pasar Terandam","postal_code":22564},{"province":"Sumatera Utara","city":"Tapanuli Tengah","district":"Barus","urban":"Padang Masiang","postal_code":22564},{"province":"Sumatera Utara","city":"Tapanuli Tengah","district":"Barus Utara","urban":"Pananggahan","postal_code":22564},{"province":"Sumatera Utara","city":"Tapanuli Tengah","district":"Barus Utara","urban":"Parik Sinomba","postal_code":22564},{"province":"Sumatera Utara","city":"Tapanuli Tengah","district":"Sosor Gadong","urban":"Muara Bolak","postal_code":22564},{"province":"Sumatera Utara","city":"Tapanuli Tengah","district":"Barus","urban":"Kinali","postal_code":22564},{"province":"Sumatera Utara","city":"Tapanuli Tengah","district":"Barus","urban":"Kedai Gedang","postal_code":22564},{"province":"Sumatera Utara","city":"Tapanuli Tengah","district":"Sosor Gadong","urban":"Huta Tombak","postal_code":22564},{"province":"Sumatera Utara","city":"Tapanuli Tengah","district":"Barus","urban":"Kampung Mudik","postal_code":22564},{"province":"Sumatera Utara","city":"Tapanuli Tengah","district":"Barus","urban":"Kampung Solok","postal_code":22564},{"province":"Sumatera Utara","city":"Tapanuli Tengah","district":"Barus","urban":"Gabungan Hasang","postal_code":22564},{"province":"Sumatera Utara","city":"Tapanuli Tengah","district":"Barus Utara","urban":"Huta Ginjang","postal_code":22564},{"province":"Sumatera Utara","city":"Tapanuli Tengah","district":"Sosor Gadong","urban":"Baringin","postal_code":22564},{"province":"Sumatera Utara","city":"Tapanuli Tengah","district":"Barus","urban":"Bungo Tanjung","postal_code":22564},{"province":"Sumatera Utara","city":"Tapanuli Tengah","district":"Sosor Gadong","urban":"Barambang","postal_code":22564},{"province":"Sumatera Utara","city":"Tapanuli Tengah","district":"Barus","urban":"Aek Dakka","postal_code":22564}]