[{"province":"Sumatera Utara","city":"Tapanuli Tengah","district":"Tapian Nauli","urban":"Tapian Nauli IV","postal_code":22618},{"province":"Sumatera Utara","city":"Tapanuli Tengah","district":"Tapian Nauli","urban":"Tapian Nauli II","postal_code":22618},{"province":"Sumatera Utara","city":"Tapanuli Tengah","district":"Tapian Nauli","urban":"Tapian Nauli III","postal_code":22618},{"province":"Sumatera Utara","city":"Tapanuli Tengah","district":"Tapian Nauli","urban":"Tapian Nauli I","postal_code":22618},{"province":"Sumatera Utara","city":"Tapanuli Tengah","district":"Tukka","urban":"Sait Nihuta Kalangan II","postal_code":22618},{"province":"Sumatera Utara","city":"Tapanuli Tengah","district":"Tapian Nauli","urban":"Mela I","postal_code":22618},{"province":"Sumatera Utara","city":"Tapanuli Tengah","district":"Tapian Nauli","urban":"Mela II","postal_code":22618},{"province":"Sumatera Utara","city":"Tapanuli Tengah","district":"Tapian Nauli","urban":"Bair","postal_code":22618},{"province":"Sumatera Utara","city":"Tapanuli Tengah","district":"Tapian Nauli","urban":"Mela Dolok","postal_code":22618},{"province":"Sumatera Utara","city":"Tapanuli Tengah","district":"Tapian Nauli","urban":"Aloban","postal_code":22618}]