[{"province":"Sumatera Utara","city":"Tapanuli Tengah","district":"Pinangsori","urban":"Toga Basir","postal_code":22654},{"province":"Sumatera Utara","city":"Tapanuli Tengah","district":"Badiri","urban":"Sitardas","postal_code":22654},{"province":"Sumatera Utara","city":"Tapanuli Tengah","district":"Suka Bangun","urban":"Tebing Tinggi","postal_code":22654},{"province":"Sumatera Utara","city":"Tapanuli Tengah","district":"Pinangsori","urban":"Sitonong Bangun","postal_code":22654},{"province":"Sumatera Utara","city":"Tapanuli Tengah","district":"Sibabangun","urban":"Simanosor","postal_code":22654},{"province":"Sumatera Utara","city":"Tapanuli Tengah","district":"Suka Bangun","urban":"Sihapas","postal_code":22654},{"province":"Sumatera Utara","city":"Tapanuli Tengah","district":"Pinangsori","urban":"Sihaporas","postal_code":22654},{"province":"Sumatera Utara","city":"Tapanuli Tengah","district":"Suka Bangun","urban":"Sihadatuon","postal_code":22654},{"province":"Sumatera Utara","city":"Tapanuli Tengah","district":"Sibabangun","urban":"Sibabangun","postal_code":22654},{"province":"Sumatera Utara","city":"Tapanuli Tengah","district":"Sibabangun","urban":"Sibio Bio","postal_code":22654},{"province":"Sumatera Utara","city":"Tapanuli Tengah","district":"Lumut","urban":"Sialogo","postal_code":22654},{"province":"Sumatera Utara","city":"Tapanuli Tengah","district":"Lumut","urban":"Sialogo (Sihalogo)","postal_code":22654},{"province":"Sumatera Utara","city":"Tapanuli Tengah","district":"Suka Bangun","urban":"Pulo Pakkat I","postal_code":22654},{"province":"Sumatera Utara","city":"Tapanuli Tengah","district":"Suka Bangun","urban":"Pulo Pakkat II","postal_code":22654},{"province":"Sumatera Utara","city":"Tapanuli Tengah","district":"Pinangsori","urban":"Pinang Baru","postal_code":22654},{"province":"Sumatera Utara","city":"Tapanuli Tengah","district":"Pinangsori","urban":"Pinangsori","postal_code":22654},{"province":"Sumatera Utara","city":"Tapanuli Tengah","district":"Badiri","urban":"Pagaran Honas","postal_code":22654},{"province":"Sumatera Utara","city":"Tapanuli Tengah","district":"Pinangsori","urban":"Parjalihotan Baru","postal_code":22654},{"province":"Sumatera Utara","city":"Tapanuli Tengah","district":"Sibabangun","urban":"Mombang Boru","postal_code":22654},{"province":"Sumatera Utara","city":"Tapanuli Tengah","district":"Sibabangun","urban":"Muara Sibuntuon","postal_code":22654},{"province":"Sumatera Utara","city":"Tapanuli Tengah","district":"Lumut","urban":"Masundung","postal_code":22654},{"province":"Sumatera Utara","city":"Tapanuli Tengah","district":"Lumut","urban":"Lumut Nauli","postal_code":22654},{"province":"Sumatera Utara","city":"Tapanuli Tengah","district":"Badiri","urban":"Lubuk Ampolu","postal_code":22654},{"province":"Sumatera Utara","city":"Tapanuli Tengah","district":"Lumut","urban":"Lumut","postal_code":22654},{"province":"Sumatera Utara","city":"Tapanuli Tengah","district":"Lumut","urban":"Lumut Maju","postal_code":22654},{"province":"Sumatera Utara","city":"Tapanuli Tengah","district":"Badiri","urban":"Kebun Pisang","postal_code":22654},{"province":"Sumatera Utara","city":"Tapanuli Tengah","district":"Badiri","urban":"Lopian","postal_code":22654},{"province":"Sumatera Utara","city":"Tapanuli Tengah","district":"Badiri","urban":"Jago Jago","postal_code":22654},{"province":"Sumatera Utara","city":"Tapanuli Tengah","district":"Suka Bangun","urban":"Janji Maria","postal_code":22654},{"province":"Sumatera Utara","city":"Tapanuli Tengah","district":"Badiri","urban":"Hutabalang","postal_code":22654},{"province":"Sumatera Utara","city":"Tapanuli Tengah","district":"Sibabangun","urban":"Hutagurgur","postal_code":22654},{"province":"Sumatera Utara","city":"Tapanuli Tengah","district":"Pinangsori","urban":"Gunung Marijo","postal_code":22654},{"province":"Sumatera Utara","city":"Tapanuli Tengah","district":"Badiri","urban":"Gunung Kelambu","postal_code":22654},{"province":"Sumatera Utara","city":"Tapanuli Tengah","district":"Sibabangun","urban":"Anggoli","postal_code":22654},{"province":"Sumatera Utara","city":"Tapanuli Tengah","district":"Badiri","urban":"Aek Horsik","postal_code":22654},{"province":"Sumatera Utara","city":"Tapanuli Tengah","district":"Lumut","urban":"Aek Gambir","postal_code":22654}]