[{"province":"Sumatera Utara","city":"Tapanuli Selatan","district":"Angkola Sangkunur","urban":"Tindoan Laut","postal_code":22735},{"province":"Sumatera Utara","city":"Tapanuli Selatan","district":"Angkola Barat (Padang Sidempuan)","urban":"Siuhom","postal_code":22735},{"province":"Sumatera Utara","city":"Tapanuli Selatan","district":"Angkola Barat (Padang Sidempuan)","urban":"Sisundung","postal_code":22735},{"province":"Sumatera Utara","city":"Tapanuli Selatan","district":"Angkola Barat (Padang Sidempuan)","urban":"Sitinjak","postal_code":22735},{"province":"Sumatera Utara","city":"Tapanuli Selatan","district":"Angkola Barat (Padang Sidempuan)","urban":"Simatorkis Sisoma","postal_code":22735},{"province":"Sumatera Utara","city":"Tapanuli Selatan","district":"Angkola Barat (Padang Sidempuan)","urban":"Simatohir / Simatoir","postal_code":22735},{"province":"Sumatera Utara","city":"Tapanuli Selatan","district":"Angkola Sangkunur","urban":"Simatohir","postal_code":22735},{"province":"Sumatera Utara","city":"Tapanuli Selatan","district":"Angkola Sangkunur","urban":"Simataniari","postal_code":22735},{"province":"Sumatera Utara","city":"Tapanuli Selatan","district":"Angkola Barat (Padang Sidempuan)","urban":"Sigumuru","postal_code":22735},{"province":"Sumatera Utara","city":"Tapanuli Selatan","district":"Angkola Barat (Padang Sidempuan)","urban":"Sialogo","postal_code":22735},{"province":"Sumatera Utara","city":"Tapanuli Selatan","district":"Angkola Barat (Padang Sidempuan)","urban":"Sibangkua","postal_code":22735},{"province":"Sumatera Utara","city":"Tapanuli Selatan","district":"Angkola Sangkunur","urban":"Sangkunur","postal_code":22735},{"province":"Sumatera Utara","city":"Tapanuli Selatan","district":"Angkola Sangkunur","urban":"Rianiate","postal_code":22735},{"province":"Sumatera Utara","city":"Tapanuli Selatan","district":"Angkola Sangkunur","urban":"Perkebunan","postal_code":22735},{"province":"Sumatera Utara","city":"Tapanuli Selatan","district":"Angkola Barat (Padang Sidempuan)","urban":"Parsalakan","postal_code":22735},{"province":"Sumatera Utara","city":"Tapanuli Selatan","district":"Angkola Sangkunur","urban":"Malombu","postal_code":22735},{"province":"Sumatera Utara","city":"Tapanuli Selatan","district":"Angkola Barat (Padang Sidempuan)","urban":"Panobasan","postal_code":22735},{"province":"Sumatera Utara","city":"Tapanuli Selatan","district":"Angkola Barat (Padang Sidempuan)","urban":"Lobu Layan Sigordang","postal_code":22735},{"province":"Sumatera Utara","city":"Tapanuli Selatan","district":"Angkola Barat (Padang Sidempuan)","urban":"Lembah Lubuk Manik","postal_code":22735},{"province":"Sumatera Utara","city":"Tapanuli Selatan","district":"Angkola Sangkunur","urban":"Bandar Tarutung","postal_code":22735},{"province":"Sumatera Utara","city":"Tapanuli Selatan","district":"Angkola Sangkunur","urban":"Batu Godang","postal_code":22735},{"province":"Sumatera Utara","city":"Tapanuli Selatan","district":"Angkola Sangkunur","urban":"Aek Pardomuan","postal_code":22735},{"province":"Sumatera Utara","city":"Tapanuli Selatan","district":"Angkola Barat (Padang Sidempuan)","urban":"Aek Nabara","postal_code":22735}]