[{"province":"Sumatera Utara","city":"Padang Lawas Utara","district":"Hulu Sihapas","urban":"Suka Dame","postal_code":22733},{"province":"Sumatera Utara","city":"Padang Lawas Utara","district":"Hulu Sihapas","urban":"Sitabar","postal_code":22733},{"province":"Sumatera Utara","city":"Padang Lawas Utara","district":"Hulu Sihapas","urban":"Simaninggir","postal_code":22733},{"province":"Sumatera Utara","city":"Padang Lawas Utara","district":"Hulu Sihapas","urban":"Sidongdong","postal_code":22733},{"province":"Sumatera Utara","city":"Padang Lawas Utara","district":"Hulu Sihapas","urban":"Sampuran Simarloting","postal_code":22733},{"province":"Sumatera Utara","city":"Padang Lawas Utara","district":"Hulu Sihapas","urban":"Pintu Bosi","postal_code":22733},{"province":"Sumatera Utara","city":"Padang Lawas Utara","district":"Hulu Sihapas","urban":"Parmeraan","postal_code":22733},{"province":"Sumatera Utara","city":"Padang Lawas Utara","district":"Hulu Sihapas","urban":"Pangirkiran","postal_code":22733},{"province":"Sumatera Utara","city":"Padang Lawas Utara","district":"Hulu Sihapas","urban":"Aek Nauli","postal_code":22733},{"province":"Sumatera Utara","city":"Padang Lawas Utara","district":"Hulu Sihapas","urban":"Aek Godang","postal_code":22733},{"province":"Sumatera Utara","city":"Padang Sidempuan","district":"Padang Sidempuan Batunadua","urban":"Ujung Gurab","postal_code":22733},{"province":"Sumatera Utara","city":"Padang Sidempuan","district":"Padang Sidempuan Tenggara","urban":"Tarutung Baru","postal_code":22733},{"province":"Sumatera Utara","city":"Padang Sidempuan","district":"Padang Sidempuan Batunadua","urban":"Simirik","postal_code":22733},{"province":"Sumatera Utara","city":"Padang Sidempuan","district":"Padang Sidempuan Angkola Julu","urban":"Simasom","postal_code":22733},{"province":"Sumatera Utara","city":"Padang Sidempuan","district":"Padang Sidempuan Angkola Julu","urban":"Simatohir","postal_code":22733},{"province":"Sumatera Utara","city":"Padang Sidempuan","district":"Padang Sidempuan Batunadua","urban":"Siloting","postal_code":22733},{"province":"Sumatera Utara","city":"Padang Sidempuan","district":"Padang Sidempuan Tenggara","urban":"Sihitang","postal_code":22733},{"province":"Sumatera Utara","city":"Padang Sidempuan","district":"Padang Sidempuan Tenggara","urban":"Sigulang","postal_code":22733},{"province":"Sumatera Utara","city":"Padang Sidempuan","district":"Padang Sidempuan Tenggara","urban":"Salambue","postal_code":22733},{"province":"Sumatera Utara","city":"Padang Sidempuan","district":"Padang Sidempuan Angkola Julu","urban":"Rimba Soping","postal_code":22733},{"province":"Sumatera Utara","city":"Padang Sidempuan","district":"Padang Sidempuan Tenggara","urban":"Purbatua Pijor Koling","postal_code":22733},{"province":"Sumatera Utara","city":"Padang Sidempuan","district":"Padang Sidempuan Batunadua","urban":"Purwodadi","postal_code":22733},{"province":"Sumatera Utara","city":"Padang Sidempuan","district":"Padang Sidempuan Batunadua","urban":"Pudun Jae","postal_code":22733},{"province":"Sumatera Utara","city":"Padang Sidempuan","district":"Padang Sidempuan Batunadua","urban":"Pudun Julu","postal_code":22733},{"province":"Sumatera Utara","city":"Padang Sidempuan","district":"Padang Sidempuan Angkola Julu","urban":"Pintu Langit Jae","postal_code":22733},{"province":"Sumatera Utara","city":"Padang Sidempuan","district":"Padang Sidempuan Tenggara","urban":"Pijor Koling","postal_code":22733},{"province":"Sumatera Utara","city":"Padang Sidempuan","district":"Padang Sidempuan Tenggara","urban":"Perkebunan Pijor Koling","postal_code":22733},{"province":"Sumatera Utara","city":"Padang Sidempuan","district":"Padang Sidempuan Tenggara","urban":"Palopat (Pal IV) Pijor Koling","postal_code":22733},{"province":"Sumatera Utara","city":"Padang Sidempuan","district":"Padang Sidempuan Angkola Julu","urban":"Mompang","postal_code":22733},{"province":"Sumatera Utara","city":"Padang Sidempuan","district":"Padang Sidempuan Tenggara","urban":"Manunggang Julu","postal_code":22733},{"province":"Sumatera Utara","city":"Padang Sidempuan","district":"Padang Sidempuan Tenggara","urban":"Manunggang Jae","postal_code":22733},{"province":"Sumatera Utara","city":"Padang Sidempuan","district":"Padang Sidempuan Tenggara","urban":"Labuhan Rasoki","postal_code":22733},{"province":"Sumatera Utara","city":"Padang Sidempuan","district":"Padang Sidempuan Tenggara","urban":"Labuhan Labo","postal_code":22733},{"province":"Sumatera Utara","city":"Padang Sidempuan","district":"Padang Sidempuan Angkola Julu","urban":"Joring Lombang","postal_code":22733},{"province":"Sumatera Utara","city":"Padang Sidempuan","district":"Padang Sidempuan Angkola Julu","urban":"Joring Natobang","postal_code":22733},{"province":"Sumatera Utara","city":"Padang Sidempuan","district":"Padang Sidempuan Tenggara","urban":"Huta Limbong","postal_code":22733},{"province":"Sumatera Utara","city":"Padang Sidempuan","district":"Padang Sidempuan Tenggara","urban":"Huta Lombang","postal_code":22733},{"province":"Sumatera Utara","city":"Padang Sidempuan","district":"Padang Sidempuan Tenggara","urban":"Huta Padang","postal_code":22733},{"province":"Sumatera Utara","city":"Padang Sidempuan","district":"Padang Sidempuan Tenggara","urban":"Huta Koje Pijor Koling","postal_code":22733},{"province":"Sumatera Utara","city":"Padang Sidempuan","district":"Padang Sidempuan Batunadua","urban":"Gunung Hasahatan","postal_code":22733},{"province":"Sumatera Utara","city":"Padang Sidempuan","district":"Padang Sidempuan Tenggara","urban":"Goti","postal_code":22733},{"province":"Sumatera Utara","city":"Padang Sidempuan","district":"Padang Sidempuan Batunadua","urban":"Batunadua Jae","postal_code":22733},{"province":"Sumatera Utara","city":"Padang Sidempuan","district":"Padang Sidempuan Batunadua","urban":"Batunadua Julu","postal_code":22733},{"province":"Sumatera Utara","city":"Padang Sidempuan","district":"Padang Sidempuan Angkola Julu","urban":"Batu Layan","postal_code":22733},{"province":"Sumatera Utara","city":"Padang Sidempuan","district":"Padang Sidempuan Batunadua","urban":"Baruas","postal_code":22733},{"province":"Sumatera Utara","city":"Padang Sidempuan","district":"Padang Sidempuan Batunadua","urban":"Batang Bahal","postal_code":22733},{"province":"Sumatera Utara","city":"Padang Sidempuan","district":"Padang Sidempuan Batunadua","urban":"Aek Tuhul","postal_code":22733},{"province":"Sumatera Utara","city":"Padang Sidempuan","district":"Padang Sidempuan Batunadua","urban":"Bargot Topong","postal_code":22733},{"province":"Sumatera Utara","city":"Padang Sidempuan","district":"Padang Sidempuan Batunadua","urban":"Aek Najaji","postal_code":22733},{"province":"Sumatera Utara","city":"Padang Sidempuan","district":"Padang Sidempuan Batunadua","urban":"Aek Bayur","postal_code":22733},{"province":"Sumatera Utara","city":"Tapanuli Selatan","district":"Angkola Timur (Padang Sidempuan)","urban":"Tiang Aras","postal_code":22733},{"province":"Sumatera Utara","city":"Tapanuli Selatan","district":"Angkola Timur (Padang Sidempuan)","urban":"Tabusira","postal_code":22733},{"province":"Sumatera Utara","city":"Tapanuli Selatan","district":"Angkola Timur (Padang Sidempuan)","urban":"Sosopan Pargarutan","postal_code":22733},{"province":"Sumatera Utara","city":"Tapanuli Selatan","district":"Angkola Timur (Padang Sidempuan)","urban":"Sirumambe","postal_code":22733},{"province":"Sumatera Utara","city":"Tapanuli Selatan","district":"Angkola Timur (Padang Sidempuan)","urban":"Siregar Matogu","postal_code":22733},{"province":"Sumatera Utara","city":"Tapanuli Selatan","district":"Angkola Timur (Padang Sidempuan)","urban":"Simandalu","postal_code":22733},{"province":"Sumatera Utara","city":"Tapanuli Selatan","district":"Angkola Timur (Padang Sidempuan)","urban":"Sijungkang","postal_code":22733},{"province":"Sumatera Utara","city":"Tapanuli Selatan","district":"Angkola Timur (Padang Sidempuan)","urban":"Sanggapati","postal_code":22733},{"province":"Sumatera Utara","city":"Tapanuli Selatan","district":"Angkola Timur (Padang Sidempuan)","urban":"Pasar Pargarutan","postal_code":22733},{"province":"Sumatera Utara","city":"Tapanuli Selatan","district":"Angkola Timur (Padang Sidempuan)","urban":"Pargarutan Julu","postal_code":22733},{"province":"Sumatera Utara","city":"Tapanuli Selatan","district":"Angkola Timur (Padang Sidempuan)","urban":"Pargarutan Tonga","postal_code":22733},{"province":"Sumatera Utara","city":"Tapanuli Selatan","district":"Angkola Timur (Padang Sidempuan)","urban":"Pargarutan Huta Baru","postal_code":22733},{"province":"Sumatera Utara","city":"Tapanuli Selatan","district":"Angkola Timur (Padang Sidempuan)","urban":"Pargarutan Jae","postal_code":22733},{"province":"Sumatera Utara","city":"Tapanuli Selatan","district":"Angkola Timur (Padang Sidempuan)","urban":"Panompuan Jae","postal_code":22733},{"province":"Sumatera Utara","city":"Tapanuli Selatan","district":"Angkola Timur (Padang Sidempuan)","urban":"Pargarutan Dolok","postal_code":22733},{"province":"Sumatera Utara","city":"Tapanuli Selatan","district":"Angkola Timur (Padang Sidempuan)","urban":"Panompuan","postal_code":22733},{"province":"Sumatera Utara","city":"Tapanuli Selatan","district":"Angkola Timur (Padang Sidempuan)","urban":"Pall Sebelas","postal_code":22733},{"province":"Sumatera Utara","city":"Tapanuli Selatan","district":"Angkola Timur (Padang Sidempuan)","urban":"Marisi","postal_code":22733},{"province":"Sumatera Utara","city":"Tapanuli Selatan","district":"Angkola Timur (Padang Sidempuan)","urban":"Lantosan Rogas","postal_code":22733},{"province":"Sumatera Utara","city":"Tapanuli Selatan","district":"Angkola Timur (Padang Sidempuan)","urban":"Lantosan Rogas","postal_code":22733},{"province":"Sumatera Utara","city":"Tapanuli Selatan","district":"Angkola Timur (Padang Sidempuan)","urban":"Huraba","postal_code":22733},{"province":"Sumatera Utara","city":"Tapanuli Selatan","district":"Angkola Timur (Padang Sidempuan)","urban":"Huta Ginjang","postal_code":22733},{"province":"Sumatera Utara","city":"Tapanuli Selatan","district":"Angkola Timur (Padang Sidempuan)","urban":"Gunung Manungkap","postal_code":22733},{"province":"Sumatera Utara","city":"Tapanuli Selatan","district":"Angkola Timur (Padang Sidempuan)","urban":"Batang Tura Sirumambe","postal_code":22733}]