[{"province":"Sumatera Utara","city":"Padang Lawas Utara","district":"Simangambat","urban":"Ujung Gading Julu","postal_code":22747},{"province":"Sumatera Utara","city":"Padang Lawas Utara","district":"Simangambat","urban":"Ulok/Ulak Tano","postal_code":22747},{"province":"Sumatera Utara","city":"Padang Lawas Utara","district":"Simangambat","urban":"Ujung Batu Julu","postal_code":22747},{"province":"Sumatera Utara","city":"Padang Lawas Utara","district":"Simangambat","urban":"Ujung Gading Jae","postal_code":22747},{"province":"Sumatera Utara","city":"Padang Lawas Utara","district":"Simangambat","urban":"Tobing Tinggi Ub","postal_code":22747},{"province":"Sumatera Utara","city":"Padang Lawas Utara","district":"Simangambat","urban":"Ujung Batu Jae","postal_code":22747},{"province":"Sumatera Utara","city":"Padang Lawas Utara","district":"Simangambat","urban":"Tanjung Maria","postal_code":22747},{"province":"Sumatera Utara","city":"Padang Lawas Utara","district":"Simangambat","urban":"Tanjung Botung","postal_code":22747},{"province":"Sumatera Utara","city":"Padang Lawas Utara","district":"Simangambat","urban":"Simangambat Julu","postal_code":22747},{"province":"Sumatera Utara","city":"Padang Lawas Utara","district":"Simangambat","urban":"Sionggoton","postal_code":22747},{"province":"Sumatera Utara","city":"Padang Lawas Utara","district":"Simangambat","urban":"Sigagan","postal_code":22747},{"province":"Sumatera Utara","city":"Padang Lawas Utara","district":"Simangambat","urban":"Simangambat Jae","postal_code":22747},{"province":"Sumatera Utara","city":"Padang Lawas Utara","district":"Simangambat","urban":"Paya Bahung Ub (Lb/An)","postal_code":22747},{"province":"Sumatera Utara","city":"Padang Lawas Utara","district":"Simangambat","urban":"Pasar Lancat Ub (Pasir Lancat Julu)","postal_code":22747},{"province":"Sumatera Utara","city":"Padang Lawas Utara","district":"Simangambat","urban":"Paran Padang","postal_code":22747},{"province":"Sumatera Utara","city":"Padang Lawas Utara","district":"Simangambat","urban":"Paran Tonga Sim","postal_code":22747},{"province":"Sumatera Utara","city":"Padang Lawas Utara","district":"Simangambat","urban":"Martujuan","postal_code":22747},{"province":"Sumatera Utara","city":"Padang Lawas Utara","district":"Simangambat","urban":"Mandasip","postal_code":22747},{"province":"Sumatera Utara","city":"Padang Lawas Utara","district":"Simangambat","urban":"Marlaung","postal_code":22747},{"province":"Sumatera Utara","city":"Padang Lawas Utara","district":"Simangambat","urban":"Mananti","postal_code":22747},{"province":"Sumatera Utara","city":"Padang Lawas Utara","district":"Simangambat","urban":"Manare Tua","postal_code":22747},{"province":"Sumatera Utara","city":"Padang Lawas Utara","district":"Simangambat","urban":"Langkimat","postal_code":22747},{"province":"Sumatera Utara","city":"Padang Lawas Utara","district":"Simangambat","urban":"Labuhan Jurung","postal_code":22747},{"province":"Sumatera Utara","city":"Padang Lawas Utara","district":"Simangambat","urban":"Kosik Putih","postal_code":22747},{"province":"Sumatera Utara","city":"Padang Lawas Utara","district":"Simangambat","urban":"Jabi-Jabi","postal_code":22747},{"province":"Sumatera Utara","city":"Padang Lawas Utara","district":"Simangambat","urban":"Jambu Tonang","postal_code":22747},{"province":"Sumatera Utara","city":"Padang Lawas Utara","district":"Simangambat","urban":"Janji Matogu Sim","postal_code":22747},{"province":"Sumatera Utara","city":"Padang Lawas Utara","district":"Simangambat","urban":"Huta Pasir","postal_code":22747},{"province":"Sumatera Utara","city":"Padang Lawas Utara","district":"Simangambat","urban":"Huta Raja","postal_code":22747},{"province":"Sumatera Utara","city":"Padang Lawas Utara","district":"Simangambat","urban":"Gunung Manaon Ub","postal_code":22747},{"province":"Sumatera Utara","city":"Padang Lawas Utara","district":"Simangambat","urban":"Huta Baringin","postal_code":22747},{"province":"Sumatera Utara","city":"Padang Lawas Utara","district":"Simangambat","urban":"Huta Baru","postal_code":22747},{"province":"Sumatera Utara","city":"Padang Lawas Utara","district":"Simangambat","urban":"Gunung Manaon Sim","postal_code":22747},{"province":"Sumatera Utara","city":"Padang Lawas Utara","district":"Simangambat","urban":"Aek Raru","postal_code":22747},{"province":"Sumatera Utara","city":"Tapanuli Selatan","district":"Arse","urban":"Sipogu","postal_code":22747},{"province":"Sumatera Utara","city":"Tapanuli Selatan","district":"Arse","urban":"Pinagar","postal_code":22747},{"province":"Sumatera Utara","city":"Tapanuli Selatan","district":"Arse","urban":"Pinagar","postal_code":22747},{"province":"Sumatera Utara","city":"Tapanuli Selatan","district":"Arse","urban":"Pardomuan","postal_code":22747},{"province":"Sumatera Utara","city":"Tapanuli Selatan","district":"Arse","urban":"Nanggar Jati Hutapadang","postal_code":22747},{"province":"Sumatera Utara","city":"Tapanuli Selatan","district":"Arse","urban":"Natambang Roncitan","postal_code":22747},{"province":"Sumatera Utara","city":"Tapanuli Selatan","district":"Arse","urban":"Nanggar Jati","postal_code":22747},{"province":"Sumatera Utara","city":"Tapanuli Selatan","district":"Arse","urban":"Lancat","postal_code":22747},{"province":"Sumatera Utara","city":"Tapanuli Selatan","district":"Arse","urban":"Arse","postal_code":22747},{"province":"Sumatera Utara","city":"Tapanuli Selatan","district":"Arse","urban":"Arse Hanopan","postal_code":22747}]