[{"province":"Sumatera Utara","city":"Padang Lawas","district":"Huristak","urban":"Tobing Tinggi Hr","postal_code":22742},{"province":"Sumatera Utara","city":"Padang Lawas","district":"Huristak","urban":"Tanjung Morang Hr","postal_code":22742},{"province":"Sumatera Utara","city":"Padang Lawas","district":"Huristak","urban":"Tobing Jae","postal_code":22742},{"province":"Sumatera Utara","city":"Padang Lawas","district":"Huristak","urban":"Tobing Julu","postal_code":22742},{"province":"Sumatera Utara","city":"Padang Lawas","district":"Batang Lubu Sutam","urban":"Tanjung Botung Pinarik","postal_code":22742},{"province":"Sumatera Utara","city":"Padang Lawas","district":"Batang Lubu Sutam","urban":"Tanjung Barani","postal_code":22742},{"province":"Sumatera Utara","city":"Padang Lawas","district":"Batang Lubu Sutam","urban":"Tanjung Baru","postal_code":22742},{"province":"Sumatera Utara","city":"Padang Lawas","district":"Huristak","urban":"Tanjung Baringin","postal_code":22742},{"province":"Sumatera Utara","city":"Padang Lawas","district":"Batang Lubu Sutam","urban":"Tandalon","postal_code":22742},{"province":"Sumatera Utara","city":"Padang Lawas","district":"Batang Lubu Sutam","urban":"Tangga Batu","postal_code":22742},{"province":"Sumatera Utara","city":"Padang Lawas","district":"Batang Lubu Sutam","urban":"Tamiang","postal_code":22742},{"province":"Sumatera Utara","city":"Padang Lawas","district":"Huristak","urban":"Sipirok Baru","postal_code":22742},{"province":"Sumatera Utara","city":"Padang Lawas","district":"Batang Lubu Sutam","urban":"Siojo","postal_code":22742},{"province":"Sumatera Utara","city":"Padang Lawas","district":"Huristak","urban":"Sihoda-Hoda (Tarutung)","postal_code":22742},{"province":"Sumatera Utara","city":"Padang Lawas","district":"Batang Lubu Sutam","urban":"Sibodak Papaso","postal_code":22742},{"province":"Sumatera Utara","city":"Padang Lawas","district":"Huristak","urban":"Sigading","postal_code":22742},{"province":"Sumatera Utara","city":"Padang Lawas","district":"Batang Lubu Sutam","urban":"Siadam","postal_code":22742},{"province":"Sumatera Utara","city":"Padang Lawas","district":"Huristak","urban":"Siala Gundi","postal_code":22742},{"province":"Sumatera Utara","city":"Padang Lawas","district":"Batang Lubu Sutam","urban":"Salambue","postal_code":22742},{"province":"Sumatera Utara","city":"Padang Lawas","district":"Batang Lubu Sutam","urban":"Rombayan","postal_code":22742},{"province":"Sumatera Utara","city":"Padang Lawas","district":"Huristak","urban":"Pulo Barian/Bariang","postal_code":22742},{"province":"Sumatera Utara","city":"Padang Lawas","district":"Huristak","urban":"Ramba","postal_code":22742},{"province":"Sumatera Utara","city":"Padang Lawas","district":"Batang Lubu Sutam","urban":"Pinarik","postal_code":22742},{"province":"Sumatera Utara","city":"Padang Lawas","district":"Huristak","urban":"Paya Bujing","postal_code":22742},{"province":"Sumatera Utara","city":"Padang Lawas","district":"Huristak","urban":"Pasir Lancat Lama","postal_code":22742},{"province":"Sumatera Utara","city":"Padang Lawas","district":"Huristak","urban":"Pasir Pinang","postal_code":22742},{"province":"Sumatera Utara","city":"Padang Lawas","district":"Huristak","urban":"Pasir Lancat Baru","postal_code":22742},{"province":"Sumatera Utara","city":"Padang Lawas","district":"Huristak","urban":"Pasar Huristak","postal_code":22742},{"province":"Sumatera Utara","city":"Padang Lawas","district":"Huristak","urban":"Paran Tonga Hr (An)","postal_code":22742},{"province":"Sumatera Utara","city":"Padang Lawas","district":"Batang Lubu Sutam","urban":"Papaso","postal_code":22742},{"province":"Sumatera Utara","city":"Padang Lawas","district":"Batang Lubu Sutam","urban":"Pagaran Tayas","postal_code":22742},{"province":"Sumatera Utara","city":"Padang Lawas","district":"Batang Lubu Sutam","urban":"Pagaran Dolok Pinarik","postal_code":22742},{"province":"Sumatera Utara","city":"Padang Lawas","district":"Batang Lubu Sutam","urban":"Pagaran Manggis","postal_code":22742},{"province":"Sumatera Utara","city":"Padang Lawas","district":"Batang Lubu Sutam","urban":"Muara Tige","postal_code":22742},{"province":"Sumatera Utara","city":"Padang Lawas","district":"Batang Lubu Sutam","urban":"Pagaran Baringin/Beringin","postal_code":22742},{"province":"Sumatera Utara","city":"Padang Lawas","district":"Batang Lubu Sutam","urban":"Muara Malinto Baru","postal_code":22742},{"province":"Sumatera Utara","city":"Padang Lawas","district":"Batang Lubu Sutam","urban":"Muara Malinto Lama","postal_code":22742},{"province":"Sumatera Utara","city":"Padang Lawas","district":"Batang Lubu Sutam","urban":"Manggis","postal_code":22742},{"province":"Sumatera Utara","city":"Padang Lawas","district":"Batang Lubu Sutam","urban":"Hutanopan","postal_code":22742},{"province":"Sumatera Utara","city":"Padang Lawas","district":"Batang Lubu Sutam","urban":"Huta Baru","postal_code":22742},{"province":"Sumatera Utara","city":"Padang Lawas","district":"Huristak","urban":"Huta Pasir Ulak Tano","postal_code":22742},{"province":"Sumatera Utara","city":"Padang Lawas","district":"Batang Lubu Sutam","urban":"Hatongga","postal_code":22742},{"province":"Sumatera Utara","city":"Padang Lawas","district":"Huristak","urban":"Huristak","postal_code":22742},{"province":"Sumatera Utara","city":"Padang Lawas","district":"Huristak","urban":"Gunung Manaon Hr","postal_code":22742},{"province":"Sumatera Utara","city":"Padang Lawas","district":"Huristak","urban":"Gunung Matinggi","postal_code":22742},{"province":"Sumatera Utara","city":"Padang Lawas","district":"Batang Lubu Sutam","urban":"Gunung Intan","postal_code":22742},{"province":"Sumatera Utara","city":"Padang Lawas","district":"Batang Lubu Sutam","urban":"Gunung Manaon","postal_code":22742},{"province":"Sumatera Utara","city":"Padang Lawas","district":"Huristak","urban":"Gonting Jae","postal_code":22742},{"province":"Sumatera Utara","city":"Padang Lawas","district":"Huristak","urban":"Gonting Julu","postal_code":22742},{"province":"Sumatera Utara","city":"Padang Lawas","district":"Huristak","urban":"Gala Bonang","postal_code":22742},{"province":"Sumatera Utara","city":"Padang Lawas","district":"Huristak","urban":"Ganal","postal_code":22742},{"province":"Sumatera Utara","city":"Padang Lawas","district":"Huristak","urban":"Bulu Cina","postal_code":22742},{"province":"Sumatera Utara","city":"Padang Lawas","district":"Batang Lubu Sutam","urban":"Botung","postal_code":22742},{"province":"Sumatera Utara","city":"Padang Lawas","district":"Huristak","urban":"Binanga Tolu","postal_code":22742},{"province":"Sumatera Utara","city":"Padang Lawas","district":"Batang Lubu Sutam","urban":"Aek Sorik","postal_code":22742},{"province":"Sumatera Utara","city":"Tapanuli Selatan","district":"Sipirok","urban":"Somba Tolang","postal_code":22742},{"province":"Sumatera Utara","city":"Tapanuli Selatan","district":"Sipirok","urban":"Situmba","postal_code":22742},{"province":"Sumatera Utara","city":"Tapanuli Selatan","district":"Sipirok","urban":"Situmba Julu","postal_code":22742},{"province":"Sumatera Utara","city":"Tapanuli Selatan","district":"Sipirok","urban":"Sipirok Godang","postal_code":22742},{"province":"Sumatera Utara","city":"Tapanuli Selatan","district":"Sipirok","urban":"Simaninggir","postal_code":22742},{"province":"Sumatera Utara","city":"Tapanuli Selatan","district":"Sipirok","urban":"Sibadoar","postal_code":22742},{"province":"Sumatera Utara","city":"Tapanuli Selatan","district":"Sipirok","urban":"Siala Gundi","postal_code":22742},{"province":"Sumatera Utara","city":"Tapanuli Selatan","district":"Sipirok","urban":"Sialaman","postal_code":22742},{"province":"Sumatera Utara","city":"Tapanuli Selatan","district":"Sipirok","urban":"Sarogodung","postal_code":22742},{"province":"Sumatera Utara","city":"Tapanuli Selatan","district":"Sipirok","urban":"Sampean","postal_code":22742},{"province":"Sumatera Utara","city":"Tapanuli Selatan","district":"Sipirok","urban":"Saba Batang Miha","postal_code":22742},{"province":"Sumatera Utara","city":"Tapanuli Selatan","district":"Sipirok","urban":"Ramba Sihosur","postal_code":22742},{"province":"Sumatera Utara","city":"Tapanuli Selatan","district":"Sipirok","urban":"Pasar Sipirok","postal_code":22742},{"province":"Sumatera Utara","city":"Tapanuli Selatan","district":"Sipirok","urban":"Parau Sorat","postal_code":22742},{"province":"Sumatera Utara","city":"Tapanuli Selatan","district":"Sipirok","urban":"Pargarutan","postal_code":22742},{"province":"Sumatera Utara","city":"Tapanuli Selatan","district":"Sipirok","urban":"Paran Padang","postal_code":22742},{"province":"Sumatera Utara","city":"Tapanuli Selatan","district":"Sipirok","urban":"Paran Dolok Mardomu","postal_code":22742},{"province":"Sumatera Utara","city":"Tapanuli Selatan","district":"Sipirok","urban":"Paran Julu","postal_code":22742},{"province":"Sumatera Utara","city":"Tapanuli Selatan","district":"Sipirok","urban":"Pangaribuan","postal_code":22742},{"province":"Sumatera Utara","city":"Tapanuli Selatan","district":"Sipirok","urban":"Pangurabaan","postal_code":22742},{"province":"Sumatera Utara","city":"Tapanuli Selatan","district":"Sipirok","urban":"Pahae Aek Sagala","postal_code":22742},{"province":"Sumatera Utara","city":"Tapanuli Selatan","district":"Sipirok","urban":"Panaungan","postal_code":22742},{"province":"Sumatera Utara","city":"Tapanuli Selatan","district":"Sipirok","urban":"Padang Bujur","postal_code":22742},{"province":"Sumatera Utara","city":"Tapanuli Selatan","district":"Sipirok","urban":"Marsada","postal_code":22742},{"province":"Sumatera Utara","city":"Tapanuli Selatan","district":"Sipirok","urban":"Kilang Papan","postal_code":22742},{"province":"Sumatera Utara","city":"Tapanuli Selatan","district":"Sipirok","urban":"Luat Lombang","postal_code":22742},{"province":"Sumatera Utara","city":"Tapanuli Selatan","district":"Sipirok","urban":"Janji Mauli","postal_code":22742},{"province":"Sumatera Utara","city":"Tapanuli Selatan","district":"Sipirok","urban":"Huta Suhut I","postal_code":22742},{"province":"Sumatera Utara","city":"Tapanuli Selatan","district":"Sipirok","urban":"Hasang Marsada","postal_code":22742},{"province":"Sumatera Utara","city":"Tapanuli Selatan","district":"Sipirok","urban":"Gadu","postal_code":22742},{"province":"Sumatera Utara","city":"Tapanuli Selatan","district":"Sipirok","urban":"Bunga Bondar","postal_code":22742},{"province":"Sumatera Utara","city":"Tapanuli Selatan","district":"Sipirok","urban":"Dolok Sordang","postal_code":22742},{"province":"Sumatera Utara","city":"Tapanuli Selatan","district":"Sipirok","urban":"Dolok Sordang Julu","postal_code":22742},{"province":"Sumatera Utara","city":"Tapanuli Selatan","district":"Sipirok","urban":"Bulu Mario","postal_code":22742},{"province":"Sumatera Utara","city":"Tapanuli Selatan","district":"Sipirok","urban":"Batu Satail","postal_code":22742},{"province":"Sumatera Utara","city":"Tapanuli Selatan","district":"Sipirok","urban":"Batang Tura Julu","postal_code":22742},{"province":"Sumatera Utara","city":"Tapanuli Selatan","district":"Sipirok","urban":"Baringin","postal_code":22742},{"province":"Sumatera Utara","city":"Tapanuli Selatan","district":"Sipirok","urban":"Barnang/Barnag Koling","postal_code":22742},{"province":"Sumatera Utara","city":"Tapanuli Selatan","district":"Sipirok","urban":"Batang Tura","postal_code":22742},{"province":"Sumatera Utara","city":"Tapanuli Selatan","district":"Sipirok","urban":"Bagas Lombang","postal_code":22742},{"province":"Sumatera Utara","city":"Tapanuli Selatan","district":"Sipirok","urban":"Bagas Nagodang III","postal_code":22742},{"province":"Sumatera Utara","city":"Tapanuli Selatan","district":"Sipirok","urban":"Aek Batang Paya","postal_code":22742}]