[{"province":"Sumatera Utara","city":"Tapanuli Selatan","district":"Saipar Dolok Hole","urban":"Ulu Mamis Situnggaling","postal_code":22758},{"province":"Sumatera Utara","city":"Tapanuli Selatan","district":"Aek Bilah","urban":"Tapus Sipagabu","postal_code":22758},{"province":"Sumatera Utara","city":"Tapanuli Selatan","district":"Aek Bilah","urban":"Tolang","postal_code":22758},{"province":"Sumatera Utara","city":"Tapanuli Selatan","district":"Aek Bilah","urban":"Tapus Godang","postal_code":22758},{"province":"Sumatera Utara","city":"Tapanuli Selatan","district":"Saipar Dolok Hole","urban":"Sunge Sigiring Giring","postal_code":22758},{"province":"Sumatera Utara","city":"Tapanuli Selatan","district":"Saipar Dolok Hole","urban":"Silangkitang Tambiski","postal_code":22758},{"province":"Sumatera Utara","city":"Tapanuli Selatan","district":"Saipar Dolok Hole","urban":"Somba Debata Purba","postal_code":22758},{"province":"Sumatera Utara","city":"Tapanuli Selatan","district":"Saipar Dolok Hole","urban":"Silangkitang Tambiski","postal_code":22758},{"province":"Sumatera Utara","city":"Tapanuli Selatan","district":"Aek Bilah","urban":"Sihulambu","postal_code":22758},{"province":"Sumatera Utara","city":"Tapanuli Selatan","district":"Aek Bilah","urban":"Silangkitang","postal_code":22758},{"province":"Sumatera Utara","city":"Tapanuli Selatan","district":"Aek Bilah","urban":"Sigolang","postal_code":22758},{"province":"Sumatera Utara","city":"Tapanuli Selatan","district":"Saipar Dolok Hole","urban":"Saut Banua Simanosor","postal_code":22758},{"province":"Sumatera Utara","city":"Tapanuli Selatan","district":"Saipar Dolok Hole","urban":"Sidapdap Simanosor","postal_code":22758},{"province":"Sumatera Utara","city":"Tapanuli Selatan","district":"Saipar Dolok Hole","urban":"Pintu Padang Mandalasena","postal_code":22758},{"province":"Sumatera Utara","city":"Tapanuli Selatan","district":"Saipar Dolok Hole","urban":"Purbasinomba Sena","postal_code":22758},{"province":"Sumatera Utara","city":"Tapanuli Selatan","district":"Saipar Dolok Hole","urban":"Pasar Simangambat","postal_code":22758},{"province":"Sumatera Utara","city":"Tapanuli Selatan","district":"Saipar Dolok Hole","urban":"Pasar Sipagimbar","postal_code":22758},{"province":"Sumatera Utara","city":"Tapanuli Selatan","district":"Saipar Dolok Hole","urban":"Padang Mandailing Garugur","postal_code":22758},{"province":"Sumatera Utara","city":"Tapanuli Selatan","district":"Saipar Dolok Hole","urban":"Parau Sorat Sitabo-Tabo","postal_code":22758},{"province":"Sumatera Utara","city":"Tapanuli Selatan","district":"Saipar Dolok Hole","urban":"Huta Pohan","postal_code":22758},{"province":"Sumatera Utara","city":"Tapanuli Selatan","district":"Aek Bilah","urban":"Huta Tonga","postal_code":22758},{"province":"Sumatera Utara","city":"Tapanuli Selatan","district":"Aek Bilah","urban":"Lobu Tayas","postal_code":22758},{"province":"Sumatera Utara","city":"Tapanuli Selatan","district":"Saipar Dolok Hole","urban":"Huta Hombang","postal_code":22758},{"province":"Sumatera Utara","city":"Tapanuli Selatan","district":"Saipar Dolok Hole","urban":"Galanggang","postal_code":22758},{"province":"Sumatera Utara","city":"Tapanuli Selatan","district":"Aek Bilah","urban":"Huta Baru","postal_code":22758},{"province":"Sumatera Utara","city":"Tapanuli Selatan","district":"Saipar Dolok Hole","urban":"Damparan Haunatas","postal_code":22758},{"province":"Sumatera Utara","city":"Tapanuli Selatan","district":"Aek Bilah","urban":"Biru","postal_code":22758},{"province":"Sumatera Utara","city":"Tapanuli Selatan","district":"Saipar Dolok Hole","urban":"Barumun Tua (Baringin Tua)","postal_code":22758},{"province":"Sumatera Utara","city":"Tapanuli Selatan","district":"Saipar Dolok Hole","urban":"Batang Parsuluman","postal_code":22758},{"province":"Sumatera Utara","city":"Tapanuli Selatan","district":"Aek Bilah","urban":"Aek Urat","postal_code":22758},{"province":"Sumatera Utara","city":"Tapanuli Selatan","district":"Saipar Dolok Hole","urban":"Aek Simotung","postal_code":22758},{"province":"Sumatera Utara","city":"Tapanuli Selatan","district":"Aek Bilah","urban":"Aek Latong","postal_code":22758}]