[{"province":"Sumatera Utara","city":"Padang Lawas Utara","district":"Halongonan","urban":"Ujung Padang","postal_code":22753},{"province":"Sumatera Utara","city":"Padang Lawas Utara","district":"Padang Bolak Julu","urban":"Ubar","postal_code":22753},{"province":"Sumatera Utara","city":"Padang Lawas Utara","district":"Halongonan","urban":"Tapus Jae","postal_code":22753},{"province":"Sumatera Utara","city":"Padang Lawas Utara","district":"Padang Bolak","urban":"Tanjung Toram","postal_code":22753},{"province":"Sumatera Utara","city":"Padang Lawas Utara","district":"Padang Bolak","urban":"Tanjung Marulak","postal_code":22753},{"province":"Sumatera Utara","city":"Padang Lawas Utara","district":"Padang Bolak","urban":"Tangga Tangga Hambeng","postal_code":22753},{"province":"Sumatera Utara","city":"Padang Lawas Utara","district":"Padang Bolak","urban":"Sunge Tolang","postal_code":22753},{"province":"Sumatera Utara","city":"Padang Lawas Utara","district":"Padang Bolak","urban":"Sunge Orosan","postal_code":22753},{"province":"Sumatera Utara","city":"Padang Lawas Utara","district":"Padang Bolak","urban":"Sunge Durian","postal_code":22753},{"province":"Sumatera Utara","city":"Padang Lawas Utara","district":"Padang Bolak","urban":"Sosopan","postal_code":22753},{"province":"Sumatera Utara","city":"Padang Lawas Utara","district":"Padang Bolak Julu","urban":"Sobar","postal_code":22753},{"province":"Sumatera Utara","city":"Padang Lawas Utara","district":"Padang Bolak","urban":"Siunggam Jae","postal_code":22753},{"province":"Sumatera Utara","city":"Padang Lawas Utara","district":"Padang Bolak","urban":"Siunggam Julu","postal_code":22753},{"province":"Sumatera Utara","city":"Padang Lawas Utara","district":"Padang Bolak","urban":"Siunggam Tonga","postal_code":22753},{"province":"Sumatera Utara","city":"Padang Lawas Utara","district":"Halongonan","urban":"Sitonun (Sitenun)","postal_code":22753},{"province":"Sumatera Utara","city":"Padang Lawas Utara","district":"Halongonan","urban":"Situmbaga","postal_code":22753},{"province":"Sumatera Utara","city":"Padang Lawas Utara","district":"Padang Bolak Julu","urban":"Siunggam Dolok","postal_code":22753},{"province":"Sumatera Utara","city":"Padang Lawas Utara","district":"Halongonan","urban":"Sitabola","postal_code":22753},{"province":"Sumatera Utara","city":"Padang Lawas Utara","district":"Padang Bolak Julu","urban":"Sitanggoru","postal_code":22753},{"province":"Sumatera Utara","city":"Padang Lawas Utara","district":"Halongonan","urban":"Siringkit Jae","postal_code":22753},{"province":"Sumatera Utara","city":"Padang Lawas Utara","district":"Halongonan","urban":"Siringkit Julu","postal_code":22753},{"province":"Sumatera Utara","city":"Padang Lawas Utara","district":"Padang Bolak Julu","urban":"Sipupus Lombang","postal_code":22753},{"province":"Sumatera Utara","city":"Padang Lawas Utara","district":"Halongonan","urban":"Sipenggeng","postal_code":22753},{"province":"Sumatera Utara","city":"Padang Lawas Utara","district":"Halongonan","urban":"Siopuk/Sihopuk Lama","postal_code":22753},{"province":"Sumatera Utara","city":"Padang Lawas Utara","district":"Halongonan","urban":"Sipaho","postal_code":22753},{"province":"Sumatera Utara","city":"Padang Lawas Utara","district":"Padang Bolak","urban":"Siombob","postal_code":22753},{"province":"Sumatera Utara","city":"Padang Lawas Utara","district":"Padang Bolak","urban":"Simasi","postal_code":22753},{"province":"Sumatera Utara","city":"Padang Lawas Utara","district":"Padang Bolak","urban":"Simbolon","postal_code":22753},{"province":"Sumatera Utara","city":"Padang Lawas Utara","district":"Halongonan","urban":"Silantoyung","postal_code":22753},{"province":"Sumatera Utara","city":"Padang Lawas Utara","district":"Padang Bolak","urban":"Simaninggir","postal_code":22753},{"province":"Sumatera Utara","city":"Padang Lawas Utara","district":"Padang Bolak","urban":"Simanosor","postal_code":22753},{"province":"Sumatera Utara","city":"Padang Lawas Utara","district":"Padang Bolak","urban":"Sihapas Hapas","postal_code":22753},{"province":"Sumatera Utara","city":"Padang Lawas Utara","district":"Padang Bolak","urban":"Sihodahoda","postal_code":22753},{"province":"Sumatera Utara","city":"Padang Lawas Utara","district":"Padang Bolak","urban":"Sigama Ujung Gading","postal_code":22753},{"province":"Sumatera Utara","city":"Padang Lawas Utara","district":"Padang Bolak","urban":"Sigimbal","postal_code":22753},{"province":"Sumatera Utara","city":"Padang Lawas Utara","district":"Padang Bolak","urban":"Sigama","postal_code":22753},{"province":"Sumatera Utara","city":"Padang Lawas Utara","district":"Halongonan","urban":"Sigala-Gala","postal_code":22753},{"province":"Sumatera Utara","city":"Padang Lawas Utara","district":"Padang Bolak","urban":"Sidikkat (Sidingkat)","postal_code":22753},{"province":"Sumatera Utara","city":"Padang Lawas Utara","district":"Halongonan","urban":"Siboru Angin","postal_code":22753},{"province":"Sumatera Utara","city":"Padang Lawas Utara","district":"Padang Bolak","urban":"Sibatang Kayu","postal_code":22753},{"province":"Sumatera Utara","city":"Padang Lawas Utara","district":"Halongonan","urban":"Siancimun","postal_code":22753},{"province":"Sumatera Utara","city":"Padang Lawas Utara","district":"Padang Bolak","urban":"Sibagasi","postal_code":22753},{"province":"Sumatera Utara","city":"Padang Lawas Utara","district":"Padang Bolak Julu","urban":"Sialang","postal_code":22753},{"province":"Sumatera Utara","city":"Padang Lawas Utara","district":"Halongonan","urban":"Sandean Tonga","postal_code":22753},{"province":"Sumatera Utara","city":"Padang Lawas Utara","district":"Halongonan","urban":"Sandean Jae","postal_code":22753},{"province":"Sumatera Utara","city":"Padang Lawas Utara","district":"Halongonan","urban":"Sandean Julu","postal_code":22753},{"province":"Sumatera Utara","city":"Padang Lawas Utara","district":"Padang Bolak","urban":"Sampuran","postal_code":22753},{"province":"Sumatera Utara","city":"Padang Lawas Utara","district":"Padang Bolak","urban":"Saba Sitahul Tahul","postal_code":22753},{"province":"Sumatera Utara","city":"Padang Lawas Utara","district":"Padang Bolak","urban":"Saba Bangunan","postal_code":22753},{"province":"Sumatera Utara","city":"Padang Lawas Utara","district":"Halongonan","urban":"Rondaman Siburegar","postal_code":22753},{"province":"Sumatera Utara","city":"Padang Lawas Utara","district":"Halongonan","urban":"Saba","postal_code":22753},{"province":"Sumatera Utara","city":"Padang Lawas Utara","district":"Padang Bolak","urban":"Rampa Julu","postal_code":22753},{"province":"Sumatera Utara","city":"Padang Lawas Utara","district":"Halongonan","urban":"Rondaman","postal_code":22753},{"province":"Sumatera Utara","city":"Padang Lawas Utara","district":"Padang Bolak","urban":"Rahunning/Rahuning Jae","postal_code":22753},{"province":"Sumatera Utara","city":"Padang Lawas Utara","district":"Padang Bolak","urban":"Rampa Jae","postal_code":22753},{"province":"Sumatera Utara","city":"Padang Lawas Utara","district":"Padang Bolak","urban":"Purba Tua","postal_code":22753},{"province":"Sumatera Utara","city":"Padang Lawas Utara","district":"Padang Bolak","urban":"Purba Sinomba","postal_code":22753},{"province":"Sumatera Utara","city":"Padang Lawas Utara","district":"Halongonan","urban":"Pasir Baru","postal_code":22753},{"province":"Sumatera Utara","city":"Padang Lawas Utara","district":"Padang Bolak","urban":"Pasar Gunung Tua","postal_code":22753},{"province":"Sumatera Utara","city":"Padang Lawas Utara","district":"Padang Bolak Julu","urban":"Parupuk Julu","postal_code":22753},{"province":"Sumatera Utara","city":"Padang Lawas Utara","district":"Padang Bolak Julu","urban":"Parupuk Jae","postal_code":22753},{"province":"Sumatera Utara","city":"Padang Lawas Utara","district":"Padang Bolak","urban":"Paran/Parang Padang","postal_code":22753},{"province":"Sumatera Utara","city":"Padang Lawas Utara","district":"Padang Bolak","urban":"Parlimbatan","postal_code":22753},{"province":"Sumatera Utara","city":"Padang Lawas Utara","district":"Padang Bolak Julu","urban":"Paran Nangka","postal_code":22753},{"province":"Sumatera Utara","city":"Padang Lawas Utara","district":"Halongonan","urban":"Paran Honas","postal_code":22753},{"province":"Sumatera Utara","city":"Padang Lawas Utara","district":"Padang Bolak Julu","urban":"Paran Gadung","postal_code":22753},{"province":"Sumatera Utara","city":"Padang Lawas Utara","district":"Halongonan","urban":"Pangirkiran","postal_code":22753},{"province":"Sumatera Utara","city":"Padang Lawas Utara","district":"Halongonan","urban":"Paolan","postal_code":22753},{"province":"Sumatera Utara","city":"Padang Lawas Utara","district":"Halongonan","urban":"Pangarambangan","postal_code":22753},{"province":"Sumatera Utara","city":"Padang Lawas Utara","district":"Padang Bolak Julu","urban":"Pancur Pangko","postal_code":22753},{"province":"Sumatera Utara","city":"Padang Lawas Utara","district":"Padang Bolak","urban":"Pagaran Tonga","postal_code":22753},{"province":"Sumatera Utara","city":"Padang Lawas Utara","district":"Padang Bolak Julu","urban":"Pamuntaran","postal_code":22753},{"province":"Sumatera Utara","city":"Padang Lawas Utara","district":"Padang Bolak","urban":"Pagaran Singkam","postal_code":22753},{"province":"Sumatera Utara","city":"Padang Lawas Utara","district":"Halongonan","urban":"Pagar Gunung","postal_code":22753},{"province":"Sumatera Utara","city":"Padang Lawas Utara","district":"Padang Bolak","urban":"Padang Garugur","postal_code":22753},{"province":"Sumatera Utara","city":"Padang Lawas Utara","district":"Padang Bolak Julu","urban":"Padang Bujur","postal_code":22753},{"province":"Sumatera Utara","city":"Padang Lawas Utara","district":"Halongonan","urban":"Napalancat","postal_code":22753},{"province":"Sumatera Utara","city":"Padang Lawas Utara","district":"Padang Bolak Julu","urban":"Padang Baruas","postal_code":22753},{"province":"Sumatera Utara","city":"Padang Lawas Utara","district":"Padang Bolak","urban":"Napa Gadung Laut","postal_code":22753},{"province":"Sumatera Utara","city":"Padang Lawas Utara","district":"Padang Bolak","urban":"Naga Saribu","postal_code":22753},{"province":"Sumatera Utara","city":"Padang Lawas Utara","district":"Padang Bolak","urban":"Mompang/Mempang II","postal_code":22753},{"province":"Sumatera Utara","city":"Padang Lawas Utara","district":"Padang Bolak","urban":"Nabongal (Nabonggal)","postal_code":22753},{"province":"Sumatera Utara","city":"Padang Lawas Utara","district":"Padang Bolak","urban":"Mandi Angin Lombang","postal_code":22753},{"province":"Sumatera Utara","city":"Padang Lawas Utara","district":"Halongonan","urban":"Mompang I","postal_code":22753},{"province":"Sumatera Utara","city":"Padang Lawas Utara","district":"Padang Bolak","urban":"Mananti (Marenti)","postal_code":22753},{"province":"Sumatera Utara","city":"Padang Lawas Utara","district":"Padang Bolak","urban":"Mandi Angin Dolok","postal_code":22753},{"province":"Sumatera Utara","city":"Padang Lawas Utara","district":"Padang Bolak","urban":"Lubuk Torop","postal_code":22753},{"province":"Sumatera Utara","city":"Padang Lawas Utara","district":"Padang Bolak","urban":"Losung Batu","postal_code":22753},{"province":"Sumatera Utara","city":"Padang Lawas Utara","district":"Padang Bolak","urban":"Liang Hasona/Asona","postal_code":22753},{"province":"Sumatera Utara","city":"Padang Lawas Utara","district":"Padang Bolak Julu","urban":"Lantosan II","postal_code":22753},{"province":"Sumatera Utara","city":"Padang Lawas Utara","district":"Halongonan","urban":"Hutanopan","postal_code":22753},{"province":"Sumatera Utara","city":"Padang Lawas Utara","district":"Halongonan","urban":"Japinulik","postal_code":22753},{"province":"Sumatera Utara","city":"Padang Lawas Utara","district":"Padang Bolak","urban":"Hutaimbaru II","postal_code":22753},{"province":"Sumatera Utara","city":"Padang Lawas Utara","district":"Halongonan","urban":"Hutaimbaru","postal_code":22753},{"province":"Sumatera Utara","city":"Padang Lawas Utara","district":"Halongonan","urban":"Huta Baru Nangka","postal_code":22753},{"province":"Sumatera Utara","city":"Padang Lawas Utara","district":"Padang Bolak","urban":"Huta Lombang","postal_code":22753},{"province":"Sumatera Utara","city":"Padang Lawas Utara","district":"Halongonan","urban":"Hiteurat","postal_code":22753},{"province":"Sumatera Utara","city":"Padang Lawas Utara","district":"Padang Bolak Julu","urban":"Hasambi","postal_code":22753},{"province":"Sumatera Utara","city":"Padang Lawas Utara","district":"Halongonan","urban":"Hasahatan (Hasatan)","postal_code":22753},{"province":"Sumatera Utara","city":"Padang Lawas Utara","district":"Padang Bolak","urban":"Hambiri Boding","postal_code":22753},{"province":"Sumatera Utara","city":"Padang Lawas Utara","district":"Halongonan","urban":"Halongonan","postal_code":22753},{"province":"Sumatera Utara","city":"Padang Lawas Utara","district":"Halongonan","urban":"Hambulo","postal_code":22753},{"province":"Sumatera Utara","city":"Padang Lawas Utara","district":"Padang Bolak","urban":"Gunung Tua Tonga","postal_code":22753},{"province":"Sumatera Utara","city":"Padang Lawas Utara","district":"Padang Bolak","urban":"Hajoran","postal_code":22753},{"province":"Sumatera Utara","city":"Padang Lawas Utara","district":"Padang Bolak","urban":"Gunung Tua Julu","postal_code":22753},{"province":"Sumatera Utara","city":"Padang Lawas Utara","district":"Padang Bolak","urban":"Gunung Tua Jae","postal_code":22753},{"province":"Sumatera Utara","city":"Padang Lawas Utara","district":"Halongonan","urban":"Gunung Manaon III","postal_code":22753},{"province":"Sumatera Utara","city":"Padang Lawas Utara","district":"Padang Bolak","urban":"Gunung Tua Baru","postal_code":22753},{"province":"Sumatera Utara","city":"Padang Lawas Utara","district":"Halongonan","urban":"Gunung Intan","postal_code":22753},{"province":"Sumatera Utara","city":"Padang Lawas Utara","district":"Padang Bolak","urban":"Gunung Manaon II","postal_code":22753},{"province":"Sumatera Utara","city":"Padang Lawas Utara","district":"Padang Bolak","urban":"Garoga","postal_code":22753},{"province":"Sumatera Utara","city":"Padang Lawas Utara","district":"Padang Bolak","urban":"Garonggang","postal_code":22753},{"province":"Sumatera Utara","city":"Padang Lawas Utara","district":"Padang Bolak","urban":"Gulangan","postal_code":22753},{"province":"Sumatera Utara","city":"Padang Lawas Utara","district":"Padang Bolak Julu","urban":"Gariang","postal_code":22753},{"province":"Sumatera Utara","city":"Padang Lawas Utara","district":"Padang Bolak","urban":"Botung","postal_code":22753},{"province":"Sumatera Utara","city":"Padang Lawas Utara","district":"Padang Bolak","urban":"Bukit Raya Sedang / Sordang","postal_code":22753},{"province":"Sumatera Utara","city":"Padang Lawas Utara","district":"Padang Bolak","urban":"Dolok Sae","postal_code":22753},{"province":"Sumatera Utara","city":"Padang Lawas Utara","district":"Halongonan","urban":"Borgot/Bargot Topong Jae","postal_code":22753},{"province":"Sumatera Utara","city":"Padang Lawas Utara","district":"Halongonan","urban":"Borgot/Bargot Topong Julu","postal_code":22753},{"province":"Sumatera Utara","city":"Padang Lawas Utara","district":"Halongonan","urban":"Bolatan","postal_code":22753},{"province":"Sumatera Utara","city":"Padang Lawas Utara","district":"Padang Bolak","urban":"Batu Tunggal","postal_code":22753},{"province":"Sumatera Utara","city":"Padang Lawas Utara","district":"Halongonan","urban":"Batu Tunggal","postal_code":22753},{"province":"Sumatera Utara","city":"Padang Lawas Utara","district":"Padang Bolak","urban":"Batu Sundung","postal_code":22753},{"province":"Sumatera Utara","city":"Padang Lawas Utara","district":"Padang Bolak Julu","urban":"Batu Rancang","postal_code":22753},{"province":"Sumatera Utara","city":"Padang Lawas Utara","district":"Padang Bolak","urban":"Batu Tambun","postal_code":22753},{"province":"Sumatera Utara","city":"Padang Lawas Utara","district":"Padang Bolak","urban":"Batu Mamak","postal_code":22753},{"province":"Sumatera Utara","city":"Padang Lawas Utara","district":"Padang Bolak Julu","urban":"Batu Gana","postal_code":22753},{"province":"Sumatera Utara","city":"Padang Lawas Utara","district":"Padang Bolak","urban":"Batang Pane I","postal_code":22753},{"province":"Sumatera Utara","city":"Padang Lawas Utara","district":"Padang Bolak","urban":"Batang Pane II","postal_code":22753},{"province":"Sumatera Utara","city":"Padang Lawas Utara","district":"Padang Bolak","urban":"Batang Pane III","postal_code":22753},{"province":"Sumatera Utara","city":"Padang Lawas Utara","district":"Padang Bolak","urban":"Batang Baruhar Jae","postal_code":22753},{"province":"Sumatera Utara","city":"Padang Lawas Utara","district":"Padang Bolak","urban":"Batang Baruhar Julu","postal_code":22753},{"province":"Sumatera Utara","city":"Padang Lawas Utara","district":"Padang Bolak Julu","urban":"Balimbing Julu","postal_code":22753},{"province":"Sumatera Utara","city":"Padang Lawas Utara","district":"Padang Bolak","urban":"Bangun Purba","postal_code":22753},{"province":"Sumatera Utara","city":"Padang Lawas Utara","district":"Padang Bolak Julu","urban":"Balimbing Jae","postal_code":22753},{"province":"Sumatera Utara","city":"Padang Lawas Utara","district":"Halongonan","urban":"Balimbing","postal_code":22753},{"province":"Sumatera Utara","city":"Padang Lawas Utara","district":"Padang Bolak Julu","urban":"Balakka (Balangka)","postal_code":22753},{"province":"Sumatera Utara","city":"Padang Lawas Utara","district":"Padang Bolak","urban":"Ambasang Natigor","postal_code":22753},{"province":"Sumatera Utara","city":"Padang Lawas Utara","district":"Padang Bolak","urban":"Aek Suhat","postal_code":22753},{"province":"Sumatera Utara","city":"Padang Lawas Utara","district":"Padang Bolak","urban":"Aek Tolang","postal_code":22753},{"province":"Sumatera Utara","city":"Padang Lawas Utara","district":"Padang Bolak","urban":"Aek Gambir","postal_code":22753},{"province":"Sumatera Utara","city":"Padang Lawas Utara","district":"Padang Bolak","urban":"Aek Jangkang","postal_code":22753},{"province":"Sumatera Utara","city":"Padang Lawas Utara","district":"Padang Bolak Julu","urban":"Aek Bargot","postal_code":22753},{"province":"Sumatera Utara","city":"Padang Lawas Utara","district":"Padang Bolak","urban":"Aek Bayur","postal_code":22753},{"province":"Sumatera Utara","city":"Padang Sidempuan","district":"Padang Sidempuan Hutaimbaru","urban":"Tinjoman Lama","postal_code":22753},{"province":"Sumatera Utara","city":"Padang Sidempuan","district":"Padang Sidempuan Hutaimbaru","urban":"Singali","postal_code":22753},{"province":"Sumatera Utara","city":"Padang Sidempuan","district":"Padang Sidempuan Hutaimbaru","urban":"Singali","postal_code":22753},{"province":"Sumatera Utara","city":"Padang Sidempuan","district":"Padang Sidempuan Hutaimbaru","urban":"Sabungan Sipabangun","postal_code":22753},{"province":"Sumatera Utara","city":"Padang Sidempuan","district":"Padang Sidempuan Hutaimbaru","urban":"Sabungan Jae","postal_code":22753},{"province":"Sumatera Utara","city":"Padang Sidempuan","district":"Padang Sidempuan Hutaimbaru","urban":"Partihaman Saroha","postal_code":22753},{"province":"Sumatera Utara","city":"Padang Sidempuan","district":"Padang Sidempuan Hutaimbaru","urban":"Palopat Maria","postal_code":22753},{"province":"Sumatera Utara","city":"Padang Sidempuan","district":"Padang Sidempuan Hutaimbaru","urban":"Lubuk Raya","postal_code":22753},{"province":"Sumatera Utara","city":"Padang Sidempuan","district":"Padang Sidempuan Hutaimbaru","urban":"Lembah Lubuk Manik","postal_code":22753},{"province":"Sumatera Utara","city":"Padang Sidempuan","district":"Padang Sidempuan Hutaimbaru","urban":"Hutaimbaru","postal_code":22753},{"province":"Sumatera Utara","city":"Padang Sidempuan","district":"Padang Sidempuan Hutaimbaru","urban":"Huta Padang","postal_code":22753}]