[{"province":"Sumatera Utara","city":"Padang Lawas","district":"Barumun Tengah","urban":"Unte Rudang","postal_code":22755},{"province":"Sumatera Utara","city":"Padang Lawas","district":"Sihapas Barumun","urban":"Ujung Padang","postal_code":22755},{"province":"Sumatera Utara","city":"Padang Lawas","district":"Sihapas Barumun","urban":"Ujung Gading","postal_code":22755},{"province":"Sumatera Utara","city":"Padang Lawas","district":"Aek Nabara Barumun","urban":"Tanjung Rokan","postal_code":22755},{"province":"Sumatera Utara","city":"Padang Lawas","district":"Aek Nabara Barumun","urban":"Tobing","postal_code":22755},{"province":"Sumatera Utara","city":"Padang Lawas","district":"Aek Nabara Barumun","urban":"Tobing Tinggi","postal_code":22755},{"province":"Sumatera Utara","city":"Padang Lawas","district":"Sihapas Barumun","urban":"Tanjung Morang","postal_code":22755},{"province":"Sumatera Utara","city":"Padang Lawas","district":"Aek Nabara Barumun","urban":"Tanjung","postal_code":22755},{"province":"Sumatera Utara","city":"Padang Lawas","district":"Barumun Tengah","urban":"Tandihat","postal_code":22755},{"province":"Sumatera Utara","city":"Padang Lawas","district":"Sihapas Barumun","urban":"Sitada Tada","postal_code":22755},{"province":"Sumatera Utara","city":"Padang Lawas","district":"Barumun Tengah","urban":"Sisalean","postal_code":22755},{"province":"Sumatera Utara","city":"Padang Lawas","district":"Aek Nabara Barumun","urban":"Sipagabu","postal_code":22755},{"province":"Sumatera Utara","city":"Padang Lawas","district":"Barumun Tengah","urban":"Siolip","postal_code":22755},{"province":"Sumatera Utara","city":"Padang Lawas","district":"Barumun Tengah","urban":"Siparau","postal_code":22755},{"province":"Sumatera Utara","city":"Padang Lawas","district":"Sihapas Barumun","urban":"Silenjeng","postal_code":22755},{"province":"Sumatera Utara","city":"Padang Lawas","district":"Sihapas Barumun","urban":"Simaninggir","postal_code":22755},{"province":"Sumatera Utara","city":"Padang Lawas","district":"Barumun Tengah","urban":"Sihaborgoan Barum","postal_code":22755},{"province":"Sumatera Utara","city":"Padang Lawas","district":"Barumun Tengah","urban":"Sihaborgoan Dalan","postal_code":22755},{"province":"Sumatera Utara","city":"Padang Lawas","district":"Aek Nabara Barumun","urban":"Sidokan","postal_code":22755},{"province":"Sumatera Utara","city":"Padang Lawas","district":"Barumun Tengah","urban":"Sidong-Dong","postal_code":22755},{"province":"Sumatera Utara","city":"Padang Lawas","district":"Barumun Tengah","urban":"Siboris Dolok","postal_code":22755},{"province":"Sumatera Utara","city":"Padang Lawas","district":"Barumun Tengah","urban":"Siboris Lombang","postal_code":22755},{"province":"Sumatera Utara","city":"Padang Lawas","district":"Barumun Tengah","urban":"Sibatu Loting","postal_code":22755},{"province":"Sumatera Utara","city":"Padang Lawas","district":"Barumun Tengah","urban":"Sibontar","postal_code":22755},{"province":"Sumatera Utara","city":"Padang Lawas","district":"Barumun Tengah","urban":"Siboris Bahal","postal_code":22755},{"province":"Sumatera Utara","city":"Padang Lawas","district":"Aek Nabara Barumun","urban":"Sayur Mahincat","postal_code":22755},{"province":"Sumatera Utara","city":"Padang Lawas","district":"Aek Nabara Barumun","urban":"Sayur Matua","postal_code":22755},{"province":"Sumatera Utara","city":"Padang Lawas","district":"Barumun Tengah","urban":"Pp Makmur","postal_code":22755},{"province":"Sumatera Utara","city":"Padang Lawas","district":"Aek Nabara Barumun","urban":"Paya Bahung","postal_code":22755},{"province":"Sumatera Utara","city":"Padang Lawas","district":"Barumun Tengah","urban":"Pasar Binanga","postal_code":22755},{"province":"Sumatera Utara","city":"Padang Lawas","district":"Aek Nabara Barumun","urban":"Paran Tonga An","postal_code":22755},{"province":"Sumatera Utara","city":"Padang Lawas","district":"Barumun Tengah","urban":"Paran Napa Jae","postal_code":22755},{"province":"Sumatera Utara","city":"Padang Lawas","district":"Aek Nabara Barumun","urban":"Paran Julu","postal_code":22755},{"province":"Sumatera Utara","city":"Padang Lawas","district":"Barumun Tengah","urban":"Paran Napa Dolok","postal_code":22755},{"province":"Sumatera Utara","city":"Padang Lawas","district":"Sihapas Barumun","urban":"Paran Dolok","postal_code":22755},{"province":"Sumatera Utara","city":"Padang Lawas","district":"Barumun Tengah","urban":"Pangirkiran Dolok","postal_code":22755},{"province":"Sumatera Utara","city":"Padang Lawas","district":"Sihapas Barumun","urban":"Padang Hasior Lombang","postal_code":22755},{"province":"Sumatera Utara","city":"Padang Lawas","district":"Barumun Tengah","urban":"Padang Matinggi","postal_code":22755},{"province":"Sumatera Utara","city":"Padang Lawas","district":"Barumun Tengah","urban":"Padang Garugur","postal_code":22755},{"province":"Sumatera Utara","city":"Padang Lawas","district":"Aek Nabara Barumun","urban":"Padang Garugur Jae","postal_code":22755},{"province":"Sumatera Utara","city":"Padang Lawas","district":"Sihapas Barumun","urban":"Padang Hasior Dolok","postal_code":22755},{"province":"Sumatera Utara","city":"Padang Lawas","district":"Aek Nabara Barumun","urban":"Padang Galugur Julu","postal_code":22755},{"province":"Sumatera Utara","city":"Padang Lawas","district":"Aek Nabara Barumun","urban":"Padang Galugur Tonga","postal_code":22755},{"province":"Sumatera Utara","city":"Padang Lawas","district":"Aek Nabara Barumun","urban":"Marenu","postal_code":22755},{"province":"Sumatera Utara","city":"Padang Lawas","district":"Barumun Tengah","urban":"Manombo","postal_code":22755},{"province":"Sumatera Utara","city":"Padang Lawas","district":"Sihapas Barumun","urban":"Lubuk Gonting","postal_code":22755},{"province":"Sumatera Utara","city":"Padang Lawas","district":"Barumun Tengah","urban":"Janji Raja","postal_code":22755},{"province":"Sumatera Utara","city":"Padang Lawas","district":"Aek Nabara Barumun","urban":"Janji Maria","postal_code":22755},{"province":"Sumatera Utara","city":"Padang Lawas","district":"Barumun Tengah","urban":"Janji Matogu Ur","postal_code":22755},{"province":"Sumatera Utara","city":"Padang Lawas","district":"Barumun Tengah","urban":"Janji Manahan","postal_code":22755},{"province":"Sumatera Utara","city":"Padang Lawas","district":"Barumun Tengah","urban":"Huta Ruhom","postal_code":22755},{"province":"Sumatera Utara","city":"Padang Lawas","district":"Aek Nabara Barumun","urban":"Huta Bargot","postal_code":22755},{"province":"Sumatera Utara","city":"Padang Lawas","district":"Aek Nabara Barumun","urban":"Hadungdung Pintu Padang","postal_code":22755},{"province":"Sumatera Utara","city":"Padang Lawas","district":"Barumun Tengah","urban":"Gunung Manaon Ur","postal_code":22755},{"province":"Sumatera Utara","city":"Padang Lawas","district":"Aek Nabara Barumun","urban":"Hadungdung Aek Rampa","postal_code":22755},{"province":"Sumatera Utara","city":"Padang Lawas","district":"Barumun Tengah","urban":"Gunung Malintang","postal_code":22755},{"province":"Sumatera Utara","city":"Padang Lawas","district":"Barumun Tengah","urban":"Gunung Baringin","postal_code":22755},{"province":"Sumatera Utara","city":"Padang Lawas","district":"Sihapas Barumun","urban":"Gulangan","postal_code":22755},{"province":"Sumatera Utara","city":"Padang Lawas","district":"Barumun Tengah","urban":"Ginduang Batu","postal_code":22755},{"province":"Sumatera Utara","city":"Padang Lawas","district":"Barumun Tengah","urban":"Gading","postal_code":22755},{"province":"Sumatera Utara","city":"Padang Lawas","district":"Barumun Tengah","urban":"Binanga","postal_code":22755},{"province":"Sumatera Utara","city":"Padang Lawas","district":"Barumun Tengah","urban":"Bire","postal_code":22755},{"province":"Sumatera Utara","city":"Padang Lawas","district":"Barumun Tengah","urban":"Batu Sundung","postal_code":22755},{"province":"Sumatera Utara","city":"Padang Lawas","district":"Barumun Tengah","urban":"Bara Batu","postal_code":22755},{"province":"Sumatera Utara","city":"Padang Lawas","district":"Aek Nabara Barumun","urban":"Bangkuang","postal_code":22755},{"province":"Sumatera Utara","city":"Padang Lawas","district":"Sihapas Barumun","urban":"Balangka","postal_code":22755},{"province":"Sumatera Utara","city":"Padang Lawas","district":"Barumun Tengah","urban":"Bakkudu (Bangkudu)","postal_code":22755},{"province":"Sumatera Utara","city":"Padang Lawas","district":"Barumun Tengah","urban":"Bahal Batu","postal_code":22755},{"province":"Sumatera Utara","city":"Padang Lawas","district":"Barumun Tengah","urban":"Aek Tunjang","postal_code":22755},{"province":"Sumatera Utara","city":"Padang Lawas","district":"Barumun Tengah","urban":"Aek Siala","postal_code":22755},{"province":"Sumatera Utara","city":"Padang Lawas","district":"Barumun Tengah","urban":"Aek Tanduk","postal_code":22755},{"province":"Sumatera Utara","city":"Padang Lawas","district":"Aek Nabara Barumun","urban":"Aek Nabara Tonga","postal_code":22755},{"province":"Sumatera Utara","city":"Padang Lawas","district":"Aek Nabara Barumun","urban":"Aek Nabara Julu","postal_code":22755},{"province":"Sumatera Utara","city":"Padang Lawas","district":"Aek Nabara Barumun","urban":"Aek Nabara Jae","postal_code":22755},{"province":"Sumatera Utara","city":"Padang Lawas","district":"Sihapas Barumun","urban":"Aek Goti","postal_code":22755},{"province":"Sumatera Utara","city":"Padang Lawas","district":"Aek Nabara Barumun","urban":"Aek Buaton","postal_code":22755},{"province":"Sumatera Utara","city":"Padang Lawas","district":"Aek Nabara Barumun","urban":"Aek Bonban","postal_code":22755}]