[{"province":"Sumatera Utara","city":"Padang Lawas Utara","district":"Dolok Sigompulon","urban":"Unte Manis","postal_code":22756},{"province":"Sumatera Utara","city":"Padang Lawas Utara","district":"Dolok","urban":"Tanjung Longat","postal_code":22756},{"province":"Sumatera Utara","city":"Padang Lawas Utara","district":"Dolok","urban":"Tarutung Bolak","postal_code":22756},{"province":"Sumatera Utara","city":"Padang Lawas Utara","district":"Dolok","urban":"Tanjung Baru B","postal_code":22756},{"province":"Sumatera Utara","city":"Padang Lawas Utara","district":"Dolok Sigompulon","urban":"Sunut","postal_code":22756},{"province":"Sumatera Utara","city":"Padang Lawas Utara","district":"Dolok Sigompulon","urban":"Tanjung Baru Silaiya","postal_code":22756},{"province":"Sumatera Utara","city":"Padang Lawas Utara","district":"Dolok","urban":"Sungai Datar","postal_code":22756},{"province":"Sumatera Utara","city":"Padang Lawas Utara","district":"Dolok","urban":"Sungai Pining","postal_code":22756},{"province":"Sumatera Utara","city":"Padang Lawas Utara","district":"Dolok Sigompulon","urban":"Sitonun","postal_code":22756},{"province":"Sumatera Utara","city":"Padang Lawas Utara","district":"Dolok","urban":"Situmbaga","postal_code":22756},{"province":"Sumatera Utara","city":"Padang Lawas Utara","district":"Dolok","urban":"Siraga Huta Padang","postal_code":22756},{"province":"Sumatera Utara","city":"Padang Lawas Utara","district":"Dolok","urban":"Siranap","postal_code":22756},{"province":"Sumatera Utara","city":"Padang Lawas Utara","district":"Dolok Sigompulon","urban":"Sipogas A","postal_code":22756},{"province":"Sumatera Utara","city":"Padang Lawas Utara","district":"Dolok Sigompulon","urban":"Sipogas B","postal_code":22756},{"province":"Sumatera Utara","city":"Padang Lawas Utara","district":"Dolok","urban":"Sipiongot","postal_code":22756},{"province":"Sumatera Utara","city":"Padang Lawas Utara","district":"Dolok","urban":"Sinabongan","postal_code":22756},{"province":"Sumatera Utara","city":"Padang Lawas Utara","district":"Dolok","urban":"Simatorkis","postal_code":22756},{"province":"Sumatera Utara","city":"Padang Lawas Utara","district":"Dolok Sigompulon","urban":"Simundol","postal_code":22756},{"province":"Sumatera Utara","city":"Padang Lawas Utara","district":"Dolok","urban":"Simataniari","postal_code":22756},{"province":"Sumatera Utara","city":"Padang Lawas Utara","district":"Dolok","urban":"Simataniari Jae","postal_code":22756},{"province":"Sumatera Utara","city":"Padang Lawas Utara","district":"Dolok","urban":"Simaninggir Sip","postal_code":22756},{"province":"Sumatera Utara","city":"Padang Lawas Utara","district":"Dolok","urban":"Simanosor","postal_code":22756},{"province":"Sumatera Utara","city":"Padang Lawas Utara","district":"Dolok Sigompulon","urban":"Simaninggir Simundol","postal_code":22756},{"province":"Sumatera Utara","city":"Padang Lawas Utara","district":"Dolok","urban":"Simangambat Tua","postal_code":22756},{"province":"Sumatera Utara","city":"Padang Lawas Utara","district":"Dolok Sigompulon","urban":"Simadihon","postal_code":22756},{"province":"Sumatera Utara","city":"Padang Lawas Utara","district":"Dolok Sigompulon","urban":"Simangambat","postal_code":22756},{"province":"Sumatera Utara","city":"Padang Lawas Utara","district":"Dolok","urban":"Silangge","postal_code":22756},{"province":"Sumatera Utara","city":"Padang Lawas Utara","district":"Dolok","urban":"Silogo-Logo","postal_code":22756},{"province":"Sumatera Utara","city":"Padang Lawas Utara","district":"Dolok","urban":"Siloung","postal_code":22756},{"province":"Sumatera Utara","city":"Padang Lawas Utara","district":"Dolok","urban":"Sijara-Jara","postal_code":22756},{"province":"Sumatera Utara","city":"Padang Lawas Utara","district":"Dolok","urban":"Sijorang","postal_code":22756},{"province":"Sumatera Utara","city":"Padang Lawas Utara","district":"Dolok Sigompulon","urban":"Sihalo-Halo/Sihatubang","postal_code":22756},{"province":"Sumatera Utara","city":"Padang Lawas Utara","district":"Dolok","urban":"Sijantung Jae","postal_code":22756},{"province":"Sumatera Utara","city":"Padang Lawas Utara","district":"Dolok","urban":"Sijantung Julu","postal_code":22756},{"province":"Sumatera Utara","city":"Padang Lawas Utara","district":"Dolok","urban":"Siganyal (Singanyal)","postal_code":22756},{"province":"Sumatera Utara","city":"Padang Lawas Utara","district":"Dolok","urban":"Sigugah","postal_code":22756},{"province":"Sumatera Utara","city":"Padang Lawas Utara","district":"Dolok Sigompulon","urban":"Sigordang","postal_code":22756},{"province":"Sumatera Utara","city":"Padang Lawas Utara","district":"Dolok","urban":"Sigala Gala","postal_code":22756},{"province":"Sumatera Utara","city":"Padang Lawas Utara","district":"Dolok","urban":"Sigambal (Simambal)","postal_code":22756},{"province":"Sumatera Utara","city":"Padang Lawas Utara","district":"Dolok","urban":"Sibio-Bio","postal_code":22756},{"province":"Sumatera Utara","city":"Padang Lawas Utara","district":"Dolok","urban":"Sibur Bur","postal_code":22756},{"province":"Sumatera Utara","city":"Padang Lawas Utara","district":"Dolok","urban":"Sibayo Jae","postal_code":22756},{"province":"Sumatera Utara","city":"Padang Lawas Utara","district":"Dolok","urban":"Sibanga Panahasahan (Binanga Panosahan)","postal_code":22756},{"province":"Sumatera Utara","city":"Padang Lawas Utara","district":"Dolok","urban":"Sibayo","postal_code":22756},{"province":"Sumatera Utara","city":"Padang Lawas Utara","district":"Dolok","urban":"Sialang Dolok","postal_code":22756},{"province":"Sumatera Utara","city":"Padang Lawas Utara","district":"Dolok","urban":"Sialan Gundi","postal_code":22756},{"province":"Sumatera Utara","city":"Padang Lawas Utara","district":"Dolok Sigompulon","urban":"Sayur Matinggi","postal_code":22756},{"province":"Sumatera Utara","city":"Padang Lawas Utara","district":"Dolok Sigompulon","urban":"Saba Bangunan","postal_code":22756},{"province":"Sumatera Utara","city":"Padang Lawas Utara","district":"Dolok Sigompulon","urban":"Salusuhan","postal_code":22756},{"province":"Sumatera Utara","city":"Padang Lawas Utara","district":"Dolok","urban":"Purbatua (Purbaba Tua)","postal_code":22756},{"province":"Sumatera Utara","city":"Padang Lawas Utara","district":"Dolok","urban":"Rongkare","postal_code":22756},{"province":"Sumatera Utara","city":"Padang Lawas Utara","district":"Dolok","urban":"Pintu Padang Merdeka","postal_code":22756},{"province":"Sumatera Utara","city":"Padang Lawas Utara","district":"Dolok Sigompulon","urban":"Pinarik","postal_code":22756},{"province":"Sumatera Utara","city":"Padang Lawas Utara","district":"Dolok Sigompulon","urban":"Pulo Liman (Limo)","postal_code":22756},{"province":"Sumatera Utara","city":"Padang Lawas Utara","district":"Dolok","urban":"Paya Ombik","postal_code":22756},{"province":"Sumatera Utara","city":"Padang Lawas Utara","district":"Dolok","urban":"Pijor Koling","postal_code":22756},{"province":"Sumatera Utara","city":"Padang Lawas Utara","district":"Dolok","urban":"Pasar Sipiongot","postal_code":22756},{"province":"Sumatera Utara","city":"Padang Lawas Utara","district":"Dolok Sigompulon","urban":"Pasar Sayur Matinggi","postal_code":22756},{"province":"Sumatera Utara","city":"Padang Lawas Utara","district":"Dolok Sigompulon","urban":"Pasar Simundol","postal_code":22756},{"province":"Sumatera Utara","city":"Padang Lawas Utara","district":"Dolok Sigompulon","urban":"Pasang Lela","postal_code":22756},{"province":"Sumatera Utara","city":"Padang Lawas Utara","district":"Dolok","urban":"Parmeraan/Parmeran","postal_code":22756},{"province":"Sumatera Utara","city":"Padang Lawas Utara","district":"Dolok","urban":"Pancaran (Rancaran)","postal_code":22756},{"province":"Sumatera Utara","city":"Padang Lawas Utara","district":"Dolok","urban":"Parigi","postal_code":22756},{"province":"Sumatera Utara","city":"Padang Lawas Utara","district":"Dolok Sigompulon","urban":"Panyabungan","postal_code":22756},{"province":"Sumatera Utara","city":"Padang Lawas Utara","district":"Dolok","urban":"Panca","postal_code":22756},{"province":"Sumatera Utara","city":"Padang Lawas Utara","district":"Dolok Sigompulon","urban":"Pamonoran","postal_code":22756},{"province":"Sumatera Utara","city":"Padang Lawas Utara","district":"Dolok","urban":"Pagaran Siregar","postal_code":22756},{"province":"Sumatera Utara","city":"Padang Lawas Utara","district":"Dolok Sigompulon","urban":"Pamarai (Paramai)","postal_code":22756},{"province":"Sumatera Utara","city":"Padang Lawas Utara","district":"Dolok","urban":"Pagaran Julu I","postal_code":22756},{"province":"Sumatera Utara","city":"Padang Lawas Utara","district":"Dolok","urban":"Pagaran Julu II","postal_code":22756},{"province":"Sumatera Utara","city":"Padang Lawas Utara","district":"Dolok Sigompulon","urban":"Padang Matinggi Simundol","postal_code":22756},{"province":"Sumatera Utara","city":"Padang Lawas Utara","district":"Dolok Sigompulon","urban":"Padang Matinggi Gnt","postal_code":22756},{"province":"Sumatera Utara","city":"Padang Lawas Utara","district":"Dolok","urban":"Napa Sundali","postal_code":22756},{"province":"Sumatera Utara","city":"Padang Lawas Utara","district":"Dolok Sigompulon","urban":"Nahulu Julu","postal_code":22756},{"province":"Sumatera Utara","city":"Padang Lawas Utara","district":"Dolok Sigompulon","urban":"Padang Malakka (Balakka)","postal_code":22756},{"province":"Sumatera Utara","city":"Padang Lawas Utara","district":"Dolok","urban":"Naga Saribu","postal_code":22756},{"province":"Sumatera Utara","city":"Padang Lawas Utara","district":"Dolok Sigompulon","urban":"Nahulu Jae","postal_code":22756},{"province":"Sumatera Utara","city":"Padang Lawas Utara","district":"Dolok","urban":"Mompang Lombang","postal_code":22756},{"province":"Sumatera Utara","city":"Padang Lawas Utara","district":"Dolok","urban":"Nabonggal","postal_code":22756},{"province":"Sumatera Utara","city":"Padang Lawas Utara","district":"Dolok Sigompulon","urban":"Nabundong","postal_code":22756},{"province":"Sumatera Utara","city":"Padang Lawas Utara","district":"Dolok","urban":"Mompang Dolok","postal_code":22756},{"province":"Sumatera Utara","city":"Padang Lawas Utara","district":"Dolok Sigompulon","urban":"Malino","postal_code":22756},{"province":"Sumatera Utara","city":"Padang Lawas Utara","district":"Dolok","urban":"Lubuk Lanjang","postal_code":22756},{"province":"Sumatera Utara","city":"Padang Lawas Utara","district":"Dolok","urban":"Lubuk Kundur","postal_code":22756},{"province":"Sumatera Utara","city":"Padang Lawas Utara","district":"Dolok Sigompulon","urban":"Kuala Simpang","postal_code":22756},{"province":"Sumatera Utara","city":"Padang Lawas Utara","district":"Dolok","urban":"Lubuk Godang","postal_code":22756},{"province":"Sumatera Utara","city":"Padang Lawas Utara","district":"Dolok Sigompulon","urban":"Janjimanahan Gnt","postal_code":22756},{"province":"Sumatera Utara","city":"Padang Lawas Utara","district":"Dolok Sigompulon","urban":"Karang anyer/Anyar","postal_code":22756},{"province":"Sumatera Utara","city":"Padang Lawas Utara","district":"Dolok","urban":"Kuala Baringin","postal_code":22756},{"province":"Sumatera Utara","city":"Padang Lawas Utara","district":"Dolok","urban":"Janji Manahan Gul","postal_code":22756},{"province":"Sumatera Utara","city":"Padang Lawas Utara","district":"Dolok","urban":"Janji Manahan Sil","postal_code":22756},{"province":"Sumatera Utara","city":"Padang Lawas Utara","district":"Dolok","urban":"Janji Matogu","postal_code":22756},{"province":"Sumatera Utara","city":"Padang Lawas Utara","district":"Dolok","urban":"Jambur Batu","postal_code":22756},{"province":"Sumatera Utara","city":"Padang Lawas Utara","district":"Dolok Sigompulon","urban":"Huta Imbaru Simundol","postal_code":22756},{"province":"Sumatera Utara","city":"Padang Lawas Utara","district":"Dolok","urban":"Huta Baru Sil","postal_code":22756},{"province":"Sumatera Utara","city":"Padang Lawas Utara","district":"Dolok","urban":"Huta Baru Sip","postal_code":22756},{"province":"Sumatera Utara","city":"Padang Lawas Utara","district":"Dolok","urban":"Huta Imbaru Gil","postal_code":22756},{"province":"Sumatera Utara","city":"Padang Lawas Utara","district":"Dolok Sigompulon","urban":"Hasahatan","postal_code":22756},{"province":"Sumatera Utara","city":"Padang Lawas Utara","district":"Dolok Sigompulon","urban":"Hatiran","postal_code":22756},{"province":"Sumatera Utara","city":"Padang Lawas Utara","district":"Dolok Sigompulon","urban":"Gunung Sormin","postal_code":22756},{"province":"Sumatera Utara","city":"Padang Lawas Utara","district":"Dolok","urban":"Gunung Maria","postal_code":22756},{"province":"Sumatera Utara","city":"Padang Lawas Utara","district":"Dolok","urban":"Gunung Salamat","postal_code":22756},{"province":"Sumatera Utara","city":"Padang Lawas Utara","district":"Dolok","urban":"Gumaruntar","postal_code":22756},{"province":"Sumatera Utara","city":"Padang Lawas Utara","district":"Dolok","urban":"Gumbot","postal_code":22756},{"province":"Sumatera Utara","city":"Padang Lawas Utara","district":"Dolok Sigompulon","urban":"Gadung Holbung","postal_code":22756},{"province":"Sumatera Utara","city":"Padang Lawas Utara","district":"Dolok Sigompulon","urban":"Gonting Bange","postal_code":22756},{"province":"Sumatera Utara","city":"Padang Lawas Utara","district":"Dolok","urban":"Dolok Sanggul","postal_code":22756},{"province":"Sumatera Utara","city":"Padang Lawas Utara","district":"Dolok","urban":"Bukit Tinggi","postal_code":22756},{"province":"Sumatera Utara","city":"Padang Lawas Utara","district":"Dolok","urban":"Bunut","postal_code":22756},{"province":"Sumatera Utara","city":"Padang Lawas Utara","district":"Dolok","urban":"Dalihan Natolu","postal_code":22756},{"province":"Sumatera Utara","city":"Padang Lawas Utara","district":"Dolok","urban":"Batu Runding","postal_code":22756},{"province":"Sumatera Utara","city":"Padang Lawas Utara","district":"Dolok","urban":"Binanga Gumbot","postal_code":22756},{"province":"Sumatera Utara","city":"Padang Lawas Utara","district":"Dolok","urban":"Bintais Julu","postal_code":22756},{"province":"Sumatera Utara","city":"Padang Lawas Utara","district":"Dolok","urban":"Baringin Sil","postal_code":22756},{"province":"Sumatera Utara","city":"Padang Lawas Utara","district":"Dolok Sigompulon","urban":"Batu Hibul","postal_code":22756},{"province":"Sumatera Utara","city":"Padang Lawas Utara","district":"Dolok","urban":"Baringin Sip","postal_code":22756},{"province":"Sumatera Utara","city":"Padang Lawas Utara","district":"Dolok","urban":"Bahap","postal_code":22756},{"province":"Sumatera Utara","city":"Padang Lawas Utara","district":"Dolok","urban":"Bandar Nauli","postal_code":22756},{"province":"Sumatera Utara","city":"Padang Lawas Utara","district":"Dolok","urban":"Aek Sundur","postal_code":22756},{"province":"Sumatera Utara","city":"Padang Lawas Utara","district":"Dolok","urban":"Aek Tangga","postal_code":22756},{"province":"Sumatera Utara","city":"Padang Lawas Utara","district":"Dolok","urban":"Arse","postal_code":22756},{"province":"Sumatera Utara","city":"Padang Lawas Utara","district":"Dolok Sigompulon","urban":"Aek Simanat","postal_code":22756},{"province":"Sumatera Utara","city":"Padang Lawas Utara","district":"Dolok","urban":"Aek Suhat Jae","postal_code":22756},{"province":"Sumatera Utara","city":"Padang Lawas Utara","district":"Dolok","urban":"Aek Suhut Tr","postal_code":22756},{"province":"Sumatera Utara","city":"Padang Lawas Utara","district":"Dolok","urban":"Aek Rao Tapian Nadenggan","postal_code":22756},{"province":"Sumatera Utara","city":"Padang Lawas Utara","district":"Dolok Sigompulon","urban":"Aek Kundur","postal_code":22756},{"province":"Sumatera Utara","city":"Padang Lawas Utara","district":"Dolok Sigompulon","urban":"Aek Kanan","postal_code":22756},{"province":"Sumatera Utara","city":"Padang Lawas Utara","district":"Dolok","urban":"Aek Ilung","postal_code":22756},{"province":"Sumatera Utara","city":"Padang Lawas Utara","district":"Dolok Sigompulon","urban":"Aek Jabut","postal_code":22756},{"province":"Sumatera Utara","city":"Padang Lawas Utara","district":"Dolok","urban":"Aek Haruaya","postal_code":22756}]