[{"province":"Sumatera Utara","city":"Padang Lawas Utara","district":"Batang Onang","urban":"Tamosu","postal_code":22762},{"province":"Sumatera Utara","city":"Padang Lawas Utara","district":"Batang Onang","urban":"Simardona","postal_code":22762},{"province":"Sumatera Utara","city":"Padang Lawas Utara","district":"Batang Onang","urban":"Simangambat Dolok","postal_code":22762},{"province":"Sumatera Utara","city":"Padang Lawas Utara","district":"Batang Onang","urban":"Simaninggir Psm","postal_code":22762},{"province":"Sumatera Utara","city":"Padang Lawas Utara","district":"Batang Onang","urban":"Simanapang","postal_code":22762},{"province":"Sumatera Utara","city":"Padang Lawas Utara","district":"Batang Onang","urban":"Sayur Matinggi","postal_code":22762},{"province":"Sumatera Utara","city":"Padang Lawas Utara","district":"Batang Onang","urban":"Sayur Matinggi II Julu","postal_code":22762},{"province":"Sumatera Utara","city":"Padang Lawas Utara","district":"Batang Onang","urban":"Purba Tua","postal_code":22762},{"province":"Sumatera Utara","city":"Padang Lawas Utara","district":"Batang Onang","urban":"Pasir Ampolu Hepeng","postal_code":22762},{"province":"Sumatera Utara","city":"Padang Lawas Utara","district":"Batang Onang","urban":"Pintu Padang","postal_code":22762},{"province":"Sumatera Utara","city":"Padang Lawas Utara","district":"Batang Onang","urban":"Pangkalan Dolok Lama","postal_code":22762},{"province":"Sumatera Utara","city":"Padang Lawas Utara","district":"Batang Onang","urban":"Parau Sorat","postal_code":22762},{"province":"Sumatera Utara","city":"Padang Lawas Utara","district":"Batang Onang","urban":"Pasar Matanggor","postal_code":22762},{"province":"Sumatera Utara","city":"Padang Lawas Utara","district":"Batang Onang","urban":"Pangkalan Dolok Julu","postal_code":22762},{"province":"Sumatera Utara","city":"Padang Lawas Utara","district":"Batang Onang","urban":"Pagaran Batu","postal_code":22762},{"province":"Sumatera Utara","city":"Padang Lawas Utara","district":"Batang Onang","urban":"Padang Garugur","postal_code":22762},{"province":"Sumatera Utara","city":"Padang Lawas Utara","district":"Batang Onang","urban":"Padang Matinggi","postal_code":22762},{"province":"Sumatera Utara","city":"Padang Lawas Utara","district":"Batang Onang","urban":"Janji Mauli","postal_code":22762},{"province":"Sumatera Utara","city":"Padang Lawas Utara","district":"Batang Onang","urban":"Morang","postal_code":22762},{"province":"Sumatera Utara","city":"Padang Lawas Utara","district":"Batang Onang","urban":"Padang Bujur Baru","postal_code":22762},{"province":"Sumatera Utara","city":"Padang Lawas Utara","district":"Batang Onang","urban":"Huta Lambung","postal_code":22762},{"province":"Sumatera Utara","city":"Padang Lawas Utara","district":"Batang Onang","urban":"Janji Manahan","postal_code":22762},{"province":"Sumatera Utara","city":"Padang Lawas Utara","district":"Batang Onang","urban":"Gunung Tua Jati (Tumbujat)","postal_code":22762},{"province":"Sumatera Utara","city":"Padang Lawas Utara","district":"Batang Onang","urban":"Gunung Tua Julu","postal_code":22762},{"province":"Sumatera Utara","city":"Padang Lawas Utara","district":"Batang Onang","urban":"Galanggang","postal_code":22762},{"province":"Sumatera Utara","city":"Padang Lawas Utara","district":"Batang Onang","urban":"Gunung Tua Batang Onang","postal_code":22762},{"province":"Sumatera Utara","city":"Padang Lawas Utara","district":"Batang Onang","urban":"Bonan Dolok","postal_code":22762},{"province":"Sumatera Utara","city":"Padang Lawas Utara","district":"Batang Onang","urban":"Batu Mamak","postal_code":22762},{"province":"Sumatera Utara","city":"Padang Lawas Utara","district":"Batang Onang","urban":"Batu Nanggar","postal_code":22762},{"province":"Sumatera Utara","city":"Padang Lawas Utara","district":"Batang Onang","urban":"Batu Pulut","postal_code":22762},{"province":"Sumatera Utara","city":"Padang Lawas Utara","district":"Batang Onang","urban":"Batang Onang Baru","postal_code":22762},{"province":"Sumatera Utara","city":"Padang Lawas Utara","district":"Batang Onang","urban":"Batang Onang Lama","postal_code":22762},{"province":"Sumatera Utara","city":"Padang Lawas","district":"Sosopan","urban":"Ulu Aer","postal_code":22762},{"province":"Sumatera Utara","city":"Padang Lawas","district":"Sosopan","urban":"Sosopan Julu","postal_code":22762},{"province":"Sumatera Utara","city":"Padang Lawas","district":"Sosopan","urban":"Siundol Jae","postal_code":22762},{"province":"Sumatera Utara","city":"Padang Lawas","district":"Sosopan","urban":"Siundol Julu","postal_code":22762},{"province":"Sumatera Utara","city":"Padang Lawas","district":"Sosopan","urban":"Sosopan","postal_code":22762},{"province":"Sumatera Utara","city":"Padang Lawas","district":"Sosopan","urban":"Simartolu","postal_code":22762},{"province":"Sumatera Utara","city":"Padang Lawas","district":"Sosopan","urban":"Siundol Dolok","postal_code":22762},{"province":"Sumatera Utara","city":"Padang Lawas","district":"Sosopan","urban":"Simaninggir Sosopan","postal_code":22762},{"province":"Sumatera Utara","city":"Padang Lawas","district":"Sosopan","urban":"Sihaporas","postal_code":22762},{"province":"Sumatera Utara","city":"Padang Lawas","district":"Sosopan","urban":"Sianggunan","postal_code":22762},{"province":"Sumatera Utara","city":"Padang Lawas","district":"Sosopan","urban":"Sibual-Buali","postal_code":22762},{"province":"Sumatera Utara","city":"Padang Lawas","district":"Sosopan","urban":"Sigala Gala","postal_code":22762},{"province":"Sumatera Utara","city":"Padang Lawas","district":"Sosopan","urban":"Pagaran Bira Jae","postal_code":22762},{"province":"Sumatera Utara","city":"Padang Lawas","district":"Sosopan","urban":"Pagaran Bira Julu","postal_code":22762},{"province":"Sumatera Utara","city":"Padang Lawas","district":"Sosopan","urban":"Huta Baru Sosopan","postal_code":22762},{"province":"Sumatera Utara","city":"Padang Lawas","district":"Sosopan","urban":"Huta Baru Siundol","postal_code":22762},{"province":"Sumatera Utara","city":"Padang Lawas","district":"Sosopan","urban":"Hulim","postal_code":22762},{"province":"Sumatera Utara","city":"Padang Lawas","district":"Sosopan","urban":"Huta Bara","postal_code":22762},{"province":"Sumatera Utara","city":"Padang Lawas","district":"Sosopan","urban":"Huta Bara","postal_code":22762},{"province":"Sumatera Utara","city":"Padang Lawas","district":"Sosopan","urban":"Binanga Tolu","postal_code":22762},{"province":"Sumatera Utara","city":"Padang Lawas","district":"Sosopan","urban":"Banua Tonga","postal_code":22762},{"province":"Sumatera Utara","city":"Padang Lawas","district":"Sosopan","urban":"Aek Bargot","postal_code":22762}]