[{"province":"Sumatera Utara","city":"Padang Lawas","district":"Barumun","urban":"Tano Bato","postal_code":22763},{"province":"Sumatera Utara","city":"Padang Lawas","district":"Ulu Barumun","urban":"Tapian Nauli","postal_code":22763},{"province":"Sumatera Utara","city":"Padang Lawas","district":"Barumun","urban":"Tanjung Botung","postal_code":22763},{"province":"Sumatera Utara","city":"Padang Lawas","district":"Barumun","urban":"Tanjung Durian","postal_code":22763},{"province":"Sumatera Utara","city":"Padang Lawas","district":"Barumun Selatan","urban":"Tanjung Purba Baru (Purbatua)","postal_code":22763},{"province":"Sumatera Utara","city":"Padang Lawas","district":"Ulu Barumun","urban":"Tanjung","postal_code":22763},{"province":"Sumatera Utara","city":"Padang Lawas","district":"Barumun Selatan","urban":"Tanjung Baringin Sim","postal_code":22763},{"province":"Sumatera Utara","city":"Padang Lawas","district":"Lubuk Barumun","urban":"Surodingin","postal_code":22763},{"province":"Sumatera Utara","city":"Padang Lawas","district":"Lubuk Barumun","urban":"Tangga Bosi","postal_code":22763},{"province":"Sumatera Utara","city":"Padang Lawas","district":"Barumun","urban":"Sitarolo Julu","postal_code":22763},{"province":"Sumatera Utara","city":"Padang Lawas","district":"Ulu Barumun","urban":"Siraisan","postal_code":22763},{"province":"Sumatera Utara","city":"Padang Lawas","district":"Barumun","urban":"Siolip","postal_code":22763},{"province":"Sumatera Utara","city":"Padang Lawas","district":"Ulu Barumun","urban":"Simanuldang Julu","postal_code":22763},{"province":"Sumatera Utara","city":"Padang Lawas","district":"Ulu Barumun","urban":"Simanuldang Jae","postal_code":22763},{"province":"Sumatera Utara","city":"Padang Lawas","district":"Barumun","urban":"Simaninggir","postal_code":22763},{"province":"Sumatera Utara","city":"Padang Lawas","district":"Lubuk Barumun","urban":"Sihiuk","postal_code":22763},{"province":"Sumatera Utara","city":"Padang Lawas","district":"Barumun","urban":"Sigorbus Julu","postal_code":22763},{"province":"Sumatera Utara","city":"Padang Lawas","district":"Barumun","urban":"Sigorbus Jae","postal_code":22763},{"province":"Sumatera Utara","city":"Padang Lawas","district":"Barumun Selatan","urban":"Sidomulio","postal_code":22763},{"province":"Sumatera Utara","city":"Padang Lawas","district":"Ulu Barumun","urban":"Sibulus Salam","postal_code":22763},{"province":"Sumatera Utara","city":"Padang Lawas","district":"Barumun","urban":"Sibuhuan Julu","postal_code":22763},{"province":"Sumatera Utara","city":"Padang Lawas","district":"Ulu Barumun","urban":"Sibulus Salam","postal_code":22763},{"province":"Sumatera Utara","city":"Padang Lawas","district":"Ulu Barumun","urban":"Sibual Buali","postal_code":22763},{"province":"Sumatera Utara","city":"Padang Lawas","district":"Barumun","urban":"Sayur Matua","postal_code":22763},{"province":"Sumatera Utara","city":"Padang Lawas","district":"Barumun Selatan","urban":"Sayur Mahincat/Maincat","postal_code":22763},{"province":"Sumatera Utara","city":"Padang Lawas","district":"Lubuk Barumun","urban":"Siali Ali","postal_code":22763},{"province":"Sumatera Utara","city":"Padang Lawas","district":"Barumun","urban":"Salambue (Sialam Bue)","postal_code":22763},{"province":"Sumatera Utara","city":"Padang Lawas","district":"Lubuk Barumun","urban":"Sangkilon","postal_code":22763},{"province":"Sumatera Utara","city":"Padang Lawas","district":"Barumun","urban":"Saba Rimba/Riba","postal_code":22763},{"province":"Sumatera Utara","city":"Padang Lawas","district":"Barumun","urban":"Sabahotang","postal_code":22763},{"province":"Sumatera Utara","city":"Padang Lawas","district":"Ulu Barumun","urban":"Pintu Padang","postal_code":22763},{"province":"Sumatera Utara","city":"Padang Lawas","district":"Barumun","urban":"Purbatua","postal_code":22763},{"province":"Sumatera Utara","city":"Padang Lawas","district":"Ulu Barumun","urban":"Pasar Ipuh","postal_code":22763},{"province":"Sumatera Utara","city":"Padang Lawas","district":"Lubuk Barumun","urban":"Pasar Latong","postal_code":22763},{"province":"Sumatera Utara","city":"Padang Lawas","district":"Barumun","urban":"Pasar Sibuhuan","postal_code":22763},{"province":"Sumatera Utara","city":"Padang Lawas","district":"Ulu Barumun","urban":"Paringgonan Julu","postal_code":22763},{"province":"Sumatera Utara","city":"Padang Lawas","district":"Lubuk Barumun","urban":"Parsombaan","postal_code":22763},{"province":"Sumatera Utara","city":"Padang Lawas","district":"Ulu Barumun","urban":"Paringgonan","postal_code":22763},{"province":"Sumatera Utara","city":"Padang Lawas","district":"Ulu Barumun","urban":"Paran Batu (Pagaran)","postal_code":22763},{"province":"Sumatera Utara","city":"Padang Lawas","district":"Barumun","urban":"Pancaukan","postal_code":22763},{"province":"Sumatera Utara","city":"Padang Lawas","district":"Lubuk Barumun","urban":"Pagaran Silindung","postal_code":22763},{"province":"Sumatera Utara","city":"Padang Lawas","district":"Barumun Selatan","urban":"Pagur Satio","postal_code":22763},{"province":"Sumatera Utara","city":"Padang Lawas","district":"Barumun Selatan","urban":"Panarian","postal_code":22763},{"province":"Sumatera Utara","city":"Padang Lawas","district":"Lubuk Barumun","urban":"Pagaran Mompang","postal_code":22763},{"province":"Sumatera Utara","city":"Padang Lawas","district":"Lubuk Barumun","urban":"Pagaran Malaka","postal_code":22763},{"province":"Sumatera Utara","city":"Padang Lawas","district":"Lubuk Barumun","urban":"Pagaran Jae Batu","postal_code":22763},{"province":"Sumatera Utara","city":"Padang Lawas","district":"Lubuk Barumun","urban":"Pagaran Jalu Jalu","postal_code":22763},{"province":"Sumatera Utara","city":"Padang Lawas","district":"Barumun","urban":"Mompang","postal_code":22763},{"province":"Sumatera Utara","city":"Padang Lawas","district":"Barumun","urban":"Pagaran Baringin","postal_code":22763},{"province":"Sumatera Utara","city":"Padang Lawas","district":"Ulu Barumun","urban":"Matondang","postal_code":22763},{"province":"Sumatera Utara","city":"Padang Lawas","district":"Barumun","urban":"Limbong","postal_code":22763},{"province":"Sumatera Utara","city":"Padang Lawas","district":"Lubuk Barumun","urban":"Janji Matogu","postal_code":22763},{"province":"Sumatera Utara","city":"Padang Lawas","district":"Barumun","urban":"Janji Lobi","postal_code":22763},{"province":"Sumatera Utara","city":"Padang Lawas","district":"Lubuk Barumun","urban":"Janji Lobi Lima","postal_code":22763},{"province":"Sumatera Utara","city":"Padang Lawas","district":"Barumun","urban":"Hutarimbaru","postal_code":22763},{"province":"Sumatera Utara","city":"Padang Lawas","district":"Lubuk Barumun","urban":"Huta Nopan","postal_code":22763},{"province":"Sumatera Utara","city":"Padang Lawas","district":"Lubuk Barumun","urban":"Huta Ibus","postal_code":22763},{"province":"Sumatera Utara","city":"Padang Lawas","district":"Lubuk Barumun","urban":"Huta Lombang","postal_code":22763},{"province":"Sumatera Utara","city":"Padang Lawas","district":"Lubuk Barumun","urban":"Huta Dolok (Latong)","postal_code":22763},{"province":"Sumatera Utara","city":"Padang Lawas","district":"Barumun","urban":"Hasahatan Jae","postal_code":22763},{"province":"Sumatera Utara","city":"Padang Lawas","district":"Barumun","urban":"Hasahatan Julu","postal_code":22763},{"province":"Sumatera Utara","city":"Padang Lawas","district":"Ulu Barumun","urban":"Handang Kopo","postal_code":22763},{"province":"Sumatera Utara","city":"Padang Lawas","district":"Barumun","urban":"Handis Julu","postal_code":22763},{"province":"Sumatera Utara","city":"Padang Lawas","district":"Barumun Selatan","urban":"Gunung Intan","postal_code":22763},{"province":"Sumatera Utara","city":"Padang Lawas","district":"Lubuk Barumun","urban":"Gunung Manobot","postal_code":22763},{"province":"Sumatera Utara","city":"Padang Lawas","district":"Barumun Selatan","urban":"Gunung Barani","postal_code":22763},{"province":"Sumatera Utara","city":"Padang Lawas","district":"Barumun","urban":"Bulu Sonik","postal_code":22763},{"province":"Sumatera Utara","city":"Padang Lawas","district":"Lubuk Barumun","urban":"Bonal","postal_code":22763},{"province":"Sumatera Utara","city":"Padang Lawas","district":"Barumun","urban":"Binabo Jae","postal_code":22763},{"province":"Sumatera Utara","city":"Padang Lawas","district":"Barumun","urban":"Binabo Julu","postal_code":22763},{"province":"Sumatera Utara","city":"Padang Lawas","district":"Barumun Selatan","urban":"Batang Bulu Lama","postal_code":22763},{"province":"Sumatera Utara","city":"Padang Lawas","district":"Lubuk Barumun","urban":"Batang Bulu Tanggal","postal_code":22763},{"province":"Sumatera Utara","city":"Padang Lawas","district":"Lubuk Barumun","urban":"Batang Tanggal Baru","postal_code":22763},{"province":"Sumatera Utara","city":"Padang Lawas","district":"Barumun Selatan","urban":"Batang Bulu Baru","postal_code":22763},{"province":"Sumatera Utara","city":"Padang Lawas","district":"Lubuk Barumun","urban":"Batang Bulu Jae","postal_code":22763},{"province":"Sumatera Utara","city":"Padang Lawas","district":"Barumun","urban":"Arse Simatorkis","postal_code":22763},{"province":"Sumatera Utara","city":"Padang Lawas","district":"Barumun","urban":"Bangun Raya","postal_code":22763},{"province":"Sumatera Utara","city":"Padang Lawas","district":"Barumun Selatan","urban":"Banua Tonga","postal_code":22763},{"province":"Sumatera Utara","city":"Padang Lawas","district":"Ulu Barumun","urban":"Aekharuaya","postal_code":22763},{"province":"Sumatera Utara","city":"Padang Lawas","district":"Lubuk Barumun","urban":"Aek Lancat","postal_code":22763}]