[{"province":"Sumatera Utara","city":"Padang Lawas","district":"Huta Raja Tinggi","urban":"Ujung Padang","postal_code":22774},{"province":"Sumatera Utara","city":"Padang Lawas","district":"Huta Raja Tinggi","urban":"Ujung Batu IV","postal_code":22774},{"province":"Sumatera Utara","city":"Padang Lawas","district":"Huta Raja Tinggi","urban":"Ujung Batu V","postal_code":22774},{"province":"Sumatera Utara","city":"Padang Lawas","district":"Huta Raja Tinggi","urban":"Ujung Batu II","postal_code":22774},{"province":"Sumatera Utara","city":"Padang Lawas","district":"Huta Raja Tinggi","urban":"Ujung Batu III","postal_code":22774},{"province":"Sumatera Utara","city":"Padang Lawas","district":"Huta Raja Tinggi","urban":"Ujung Batu I","postal_code":22774},{"province":"Sumatera Utara","city":"Padang Lawas","district":"Huta Raja Tinggi","urban":"Tanjung Sari (Pirtrans Sosa Ib)","postal_code":22774},{"province":"Sumatera Utara","city":"Padang Lawas","district":"Huta Raja Tinggi","urban":"Tanjung Ale","postal_code":22774},{"province":"Sumatera Utara","city":"Padang Lawas","district":"Huta Raja Tinggi","urban":"Tanjung Baringin","postal_code":22774},{"province":"Sumatera Utara","city":"Padang Lawas","district":"Huta Raja Tinggi","urban":"Sosa Mulia","postal_code":22774},{"province":"Sumatera Utara","city":"Padang Lawas","district":"Huta Raja Tinggi","urban":"Suka Dame (Pirtrans Sosa III B)","postal_code":22774},{"province":"Sumatera Utara","city":"Padang Lawas","district":"Huta Raja Tinggi","urban":"Sungai Korang","postal_code":22774},{"province":"Sumatera Utara","city":"Padang Lawas","district":"Huta Raja Tinggi","urban":"Simangambat","postal_code":22774},{"province":"Sumatera Utara","city":"Padang Lawas","district":"Huta Raja Tinggi","urban":"Sigala Gala","postal_code":22774},{"province":"Sumatera Utara","city":"Padang Lawas","district":"Huta Raja Tinggi","urban":"Sigalapung","postal_code":22774},{"province":"Sumatera Utara","city":"Padang Lawas","district":"Huta Raja Tinggi","urban":"Sido Mulyo (Pirtrans Sosa III A)","postal_code":22774},{"province":"Sumatera Utara","city":"Padang Lawas","district":"Huta Raja Tinggi","urban":"Siabu","postal_code":22774},{"province":"Sumatera Utara","city":"Padang Lawas","district":"Huta Raja Tinggi","urban":"Sibodak Sosa Jae","postal_code":22774},{"province":"Sumatera Utara","city":"Padang Lawas","district":"Huta Raja Tinggi","urban":"Pirtrans Sosa II","postal_code":22774},{"province":"Sumatera Utara","city":"Padang Lawas","district":"Huta Raja Tinggi","urban":"Pasar Panyabungan","postal_code":22774},{"province":"Sumatera Utara","city":"Padang Lawas","district":"Huta Raja Tinggi","urban":"Payombur (Payaombor)","postal_code":22774},{"province":"Sumatera Utara","city":"Padang Lawas","district":"Huta Raja Tinggi","urban":"Panyabungan","postal_code":22774},{"province":"Sumatera Utara","city":"Padang Lawas","district":"Huta Raja Tinggi","urban":"Parmainan","postal_code":22774},{"province":"Sumatera Utara","city":"Padang Lawas","district":"Huta Raja Tinggi","urban":"Mulya Sari","postal_code":22774},{"province":"Sumatera Utara","city":"Padang Lawas","district":"Huta Raja Tinggi","urban":"Margo Mulia (Pirtrans Sosa IV)","postal_code":22774},{"province":"Sumatera Utara","city":"Padang Lawas","district":"Huta Raja Tinggi","urban":"Pagaran Dolok Sosa Jae","postal_code":22774},{"province":"Sumatera Utara","city":"Padang Lawas","district":"Huta Raja Tinggi","urban":"Mananti Sosa Jae","postal_code":22774},{"province":"Sumatera Utara","city":"Padang Lawas","district":"Huta Raja Tinggi","urban":"Lubuk Bunut","postal_code":22774},{"province":"Sumatera Utara","city":"Padang Lawas","district":"Huta Raja Tinggi","urban":"Huta Raja Tinggi","postal_code":22774},{"province":"Sumatera Utara","city":"Padang Lawas","district":"Huta Raja Tinggi","urban":"Gunung Mulia","postal_code":22774},{"province":"Sumatera Utara","city":"Padang Lawas","district":"Huta Raja Tinggi","urban":"Ali Aga","postal_code":22774},{"province":"Sumatera Utara","city":"Tapanuli Selatan","district":"Sayur Matinggi","urban":"Tolang Julu","postal_code":22774},{"province":"Sumatera Utara","city":"Tapanuli Selatan","district":"Sayur Matinggi","urban":"Tolang Jae","postal_code":22774},{"province":"Sumatera Utara","city":"Tapanuli Selatan","district":"Tano Tombangan Angkola","urban":"Tanjung Medan","postal_code":22774},{"province":"Sumatera Utara","city":"Tapanuli Selatan","district":"Sayur Matinggi","urban":"Sipange Siunjam","postal_code":22774},{"province":"Sumatera Utara","city":"Tapanuli Selatan","district":"Tano Tombangan Angkola","urban":"Sisoma","postal_code":22774},{"province":"Sumatera Utara","city":"Tapanuli Selatan","district":"Tano Tombangan Angkola","urban":"Situmba","postal_code":22774},{"province":"Sumatera Utara","city":"Tapanuli Selatan","district":"Sayur Matinggi","urban":"Sipange Godang","postal_code":22774},{"province":"Sumatera Utara","city":"Tapanuli Selatan","district":"Sayur Matinggi","urban":"Sipange Julu","postal_code":22774},{"province":"Sumatera Utara","city":"Tapanuli Selatan","district":"Sayur Matinggi","urban":"Simpang Tolang","postal_code":22774},{"province":"Sumatera Utara","city":"Tapanuli Selatan","district":"Tano Tombangan Angkola","urban":"Simaninggir TT","postal_code":22774},{"province":"Sumatera Utara","city":"Tapanuli Selatan","district":"Sayur Matinggi","urban":"Silaiya Tanjung Leuk","postal_code":22774},{"province":"Sumatera Utara","city":"Tapanuli Selatan","district":"Sayur Matinggi","urban":"Silaiya","postal_code":22774},{"province":"Sumatera Utara","city":"Tapanuli Selatan","district":"Sayur Matinggi","urban":"Sialang","postal_code":22774},{"province":"Sumatera Utara","city":"Tapanuli Selatan","district":"Sayur Matinggi","urban":"Samonggal Parmonangan","postal_code":22774},{"province":"Sumatera Utara","city":"Tapanuli Selatan","district":"Sayur Matinggi","urban":"Sayur Matinggi","postal_code":22774},{"province":"Sumatera Utara","city":"Tapanuli Selatan","district":"Tano Tombangan Angkola","urban":"Purba Tua","postal_code":22774},{"province":"Sumatera Utara","city":"Tapanuli Selatan","district":"Tano Tombangan Angkola","urban":"Panabari Hutatonga","postal_code":22774},{"province":"Sumatera Utara","city":"Tapanuli Selatan","district":"Tano Tombangan Angkola","urban":"Panindoan","postal_code":22774},{"province":"Sumatera Utara","city":"Tapanuli Selatan","district":"Sayur Matinggi","urban":"Mondang","postal_code":22774},{"province":"Sumatera Utara","city":"Tapanuli Selatan","district":"Tano Tombangan Angkola","urban":"Lumban Jabi-Jabi","postal_code":22774},{"province":"Sumatera Utara","city":"Tapanuli Selatan","district":"Tano Tombangan Angkola","urban":"Lumban Ratus","postal_code":22774},{"province":"Sumatera Utara","city":"Tapanuli Selatan","district":"Sayur Matinggi","urban":"Lumban Huayan","postal_code":22774},{"province":"Sumatera Utara","city":"Tapanuli Selatan","district":"Tano Tombangan Angkola","urban":"Kota Tua","postal_code":22774},{"province":"Sumatera Utara","city":"Tapanuli Selatan","district":"Sayur Matinggi","urban":"Janji Mauli Baringin","postal_code":22774},{"province":"Sumatera Utara","city":"Tapanuli Selatan","district":"Tano Tombangan Angkola","urban":"Ingul Jae","postal_code":22774},{"province":"Sumatera Utara","city":"Tapanuli Selatan","district":"Tano Tombangan Angkola","urban":"Hutaraja","postal_code":22774},{"province":"Sumatera Utara","city":"Tapanuli Selatan","district":"Sayur Matinggi","urban":"Huta Pardomuan","postal_code":22774},{"province":"Sumatera Utara","city":"Tapanuli Selatan","district":"Tano Tombangan Angkola","urban":"Harean","postal_code":22774},{"province":"Sumatera Utara","city":"Tapanuli Selatan","district":"Sayur Matinggi","urban":"Bulu Gading","postal_code":22774},{"province":"Sumatera Utara","city":"Tapanuli Selatan","district":"Sayur Matinggi","urban":"Bange","postal_code":22774},{"province":"Sumatera Utara","city":"Tapanuli Selatan","district":"Tano Tombangan Angkola","urban":"Batu Horpak","postal_code":22774},{"province":"Sumatera Utara","city":"Tapanuli Selatan","district":"Tano Tombangan Angkola","urban":"Aek Uncim","postal_code":22774},{"province":"Sumatera Utara","city":"Tapanuli Selatan","district":"Sayur Matinggi","urban":"Aek Libung","postal_code":22774},{"province":"Sumatera Utara","city":"Tapanuli Selatan","district":"Sayur Matinggi","urban":"Aek Raja","postal_code":22774},{"province":"Sumatera Utara","city":"Tapanuli Selatan","district":"Tano Tombangan Angkola","urban":"Aek Parupuk","postal_code":22774},{"province":"Sumatera Utara","city":"Tapanuli Selatan","district":"Sayur Matinggi","urban":"Aek Badak Julu","postal_code":22774},{"province":"Sumatera Utara","city":"Tapanuli Selatan","district":"Tano Tombangan Angkola","urban":"Aek Kahombu","postal_code":22774},{"province":"Sumatera Utara","city":"Tapanuli Selatan","district":"Sayur Matinggi","urban":"Aek Badak Jae","postal_code":22774}]