[{"province":"Sumatera Utara","city":"Nias","district":"Botomuzoi","urban":"Tuhegafoa I","postal_code":22815},{"province":"Sumatera Utara","city":"Nias","district":"Botomuzoi","urban":"Talafu","postal_code":22815},{"province":"Sumatera Utara","city":"Nias","district":"Botomuzoi","urban":"Tetehosi Botomuzoi","postal_code":22815},{"province":"Sumatera Utara","city":"Nias","district":"Botomuzoi","urban":"Simanaere Botomuzoi","postal_code":22815},{"province":"Sumatera Utara","city":"Nias","district":"Botomuzoi","urban":"Sisobahili Dola","postal_code":22815},{"province":"Sumatera Utara","city":"Nias","district":"Botomuzoi","urban":"Ola Nori","postal_code":22815},{"province":"Sumatera Utara","city":"Nias","district":"Botomuzoi","urban":"Ononamolo Talafu","postal_code":22815},{"province":"Sumatera Utara","city":"Nias","district":"Botomuzoi","urban":"Lololana&#8217;a","postal_code":22815},{"province":"Sumatera Utara","city":"Nias","district":"Botomuzoi","urban":"Mohili Berua Botomuzoi","postal_code":22815},{"province":"Sumatera Utara","city":"Nias","district":"Botomuzoi","urban":"Hiliwaele II","postal_code":22815},{"province":"Sumatera Utara","city":"Nias","district":"Botomuzoi","urban":"Lazara Botomuzoi","postal_code":22815},{"province":"Sumatera Utara","city":"Nias","district":"Botomuzoi","urban":"Hiliwaele I","postal_code":22815},{"province":"Sumatera Utara","city":"Nias","district":"Botomuzoi","urban":"Hiliambowo Botomuzoi","postal_code":22815},{"province":"Sumatera Utara","city":"Nias","district":"Botomuzoi","urban":"Hiligodu Botomuzoi","postal_code":22815},{"province":"Sumatera Utara","city":"Nias","district":"Botomuzoi","urban":"Banua Sibohou Botomuzoi","postal_code":22815},{"province":"Sumatera Utara","city":"Nias","district":"Botomuzoi","urban":"Hilimbowo Botomuzoi","postal_code":22815},{"province":"Sumatera Utara","city":"Nias","district":"Botomuzoi","urban":"Balohili Botomuzoi","postal_code":22815},{"province":"Sumatera Utara","city":"Nias","district":"Botomuzoi","urban":"Fulolo Botomuzoi","postal_code":22815}]