[{"province":"Sumatera Utara","city":"Nias Utara","district":"Namohalu Esiwa","urban":"Tuhenakhe I","postal_code":22816},{"province":"Sumatera Utara","city":"Nias Utara","district":"Namohalu Esiwa","urban":"Orahili","postal_code":22816},{"province":"Sumatera Utara","city":"Nias Utara","district":"Namohalu Esiwa","urban":"Sisarahili","postal_code":22816},{"province":"Sumatera Utara","city":"Nias Utara","district":"Namohalu Esiwa","urban":"Namohalu","postal_code":22816},{"province":"Sumatera Utara","city":"Nias Utara","district":"Namohalu Esiwa","urban":"Hilibanua","postal_code":22816},{"province":"Sumatera Utara","city":"Nias Utara","district":"Namohalu Esiwa","urban":"Lasara","postal_code":22816},{"province":"Sumatera Utara","city":"Nias Utara","district":"Namohalu Esiwa","urban":"Esiwa","postal_code":22816},{"province":"Sumatera Utara","city":"Nias Utara","district":"Namohalu Esiwa","urban":"Berua","postal_code":22816},{"province":"Sumatera Utara","city":"Nias Utara","district":"Namohalu Esiwa","urban":"Dahana Hiligodu","postal_code":22816},{"province":"Sumatera Utara","city":"Nias Utara","district":"Namohalu Esiwa","urban":"Banua Sibohou","postal_code":22816}]