[{"province":"Sumatera Utara","city":"Gunungsitoli","district":"Gunungsitoli","urban":"Mudik","postal_code":22814},{"province":"Sumatera Utara","city":"Nias Barat","district":"Mandrehe Utara","urban":"Taraha","postal_code":22814},{"province":"Sumatera Utara","city":"Nias Barat","district":"Mandrehe Utara","urban":"Tarahoso","postal_code":22814},{"province":"Sumatera Utara","city":"Nias Barat","district":"Mandrehe Utara","urban":"Sihareo","postal_code":22814},{"province":"Sumatera Utara","city":"Nias Barat","district":"Mandrehe Utara","urban":"Ononamolo I","postal_code":22814},{"province":"Sumatera Utara","city":"Nias Barat","district":"Mandrehe Utara","urban":"Ononamolo II","postal_code":22814},{"province":"Sumatera Utara","city":"Nias Barat","district":"Mandrehe Utara","urban":"Lolomboli","postal_code":22814},{"province":"Sumatera Utara","city":"Nias Barat","district":"Mandrehe Utara","urban":"Lahagu","postal_code":22814},{"province":"Sumatera Utara","city":"Nias Barat","district":"Mandrehe Utara","urban":"Hilimbowo","postal_code":22814},{"province":"Sumatera Utara","city":"Nias Barat","district":"Mandrehe Utara","urban":"Hiambanua","postal_code":22814},{"province":"Sumatera Utara","city":"Nias Barat","district":"Mandrehe Utara","urban":"Hili Mayo","postal_code":22814},{"province":"Sumatera Utara","city":"Nias Barat","district":"Mandrehe Utara","urban":"Balodano","postal_code":22814},{"province":"Sumatera Utara","city":"Nias Barat","district":"Mandrehe Utara","urban":"Hilimbaruzo","postal_code":22814},{"province":"Sumatera Utara","city":"Nias Utara","district":"Alasa Talumuzoi","urban":"Mazingo","postal_code":22814},{"province":"Sumatera Utara","city":"Nias Utara","district":"Alasa Talumuzoi","urban":"Hilina A","postal_code":22814},{"province":"Sumatera Utara","city":"Nias Utara","district":"Alasa Talumuzoi","urban":"Laehuwa","postal_code":22814},{"province":"Sumatera Utara","city":"Nias Utara","district":"Alasa Talumuzoi","urban":"Hilimbowo Kare","postal_code":22814},{"province":"Sumatera Utara","city":"Nias Utara","district":"Alasa Talumuzoi","urban":"Banua Sibohou III","postal_code":22814},{"province":"Sumatera Utara","city":"Nias Utara","district":"Alasa Talumuzoi","urban":"Harefanaese","postal_code":22814}]