[{"province":"Sumatera Utara","city":"Gunungsitoli","district":"Gunungsitoli","urban":"Saombo","postal_code":22812},{"province":"Sumatera Utara","city":"Gunungsitoli","district":"Gunungsitoli","urban":"Iraonogeba","postal_code":22812},{"province":"Sumatera Utara","city":"Nias Barat","district":"Mandrehe Barat","urban":"Sisarahili II","postal_code":22812},{"province":"Sumatera Utara","city":"Nias Barat","district":"Mandrehe Barat","urban":"Sisobandrao","postal_code":22812},{"province":"Sumatera Utara","city":"Nias Barat","district":"Mandrehe Barat","urban":"Sisobaoho","postal_code":22812},{"province":"Sumatera Utara","city":"Nias Barat","district":"Mandrehe Barat","urban":"Ononamolo III","postal_code":22812},{"province":"Sumatera Utara","city":"Nias Barat","district":"Mandrehe Barat","urban":"Orahili Badalu","postal_code":22812},{"province":"Sumatera Utara","city":"Nias Barat","district":"Mandrehe Barat","urban":"Onolimbuyou","postal_code":22812},{"province":"Sumatera Utara","city":"Nias Barat","district":"Mandrehe Barat","urban":"Lolohia","postal_code":22812},{"province":"Sumatera Utara","city":"Nias Barat","district":"Mandrehe Barat","urban":"Mazingo","postal_code":22812},{"province":"Sumatera Utara","city":"Nias Barat","district":"Mandrehe Barat","urban":"Onolimburaya","postal_code":22812},{"province":"Sumatera Utara","city":"Nias Barat","district":"Mandrehe Barat","urban":"Lasara Bagawu","postal_code":22812},{"province":"Sumatera Utara","city":"Nias Barat","district":"Mandrehe Barat","urban":"Lasara Faga","postal_code":22812},{"province":"Sumatera Utara","city":"Nias Barat","district":"Mandrehe Barat","urban":"Iraonogeba","postal_code":22812},{"province":"Sumatera Utara","city":"Nias Barat","district":"Mandrehe Barat","urban":"Fadoro Sifulu Banua","postal_code":22812},{"province":"Sumatera Utara","city":"Nias Barat","district":"Mandrehe Barat","urban":"Hilidaura","postal_code":22812}]