[{"province":"Sumatera Utara","city":"Gunungsitoli","district":"Gunungsitoli Selatan","urban":"Tetehosi Ombolata","postal_code":22851},{"province":"Sumatera Utara","city":"Gunungsitoli","district":"Gunungsitoli Utara","urban":"Tetehosi Afia","postal_code":22851},{"province":"Sumatera Utara","city":"Gunungsitoli","district":"Gunungsitoli Utara","urban":"Teluk Belukar","postal_code":22851},{"province":"Sumatera Utara","city":"Gunungsitoli","district":"Gunungsitoli Selatan","urban":"Sisobahili II Tanoseo","postal_code":22851},{"province":"Sumatera Utara","city":"Gunungsitoli","district":"Gunungsitoli Alo'oa","urban":"Tarakhaini","postal_code":22851},{"province":"Sumatera Utara","city":"Gunungsitoli","district":"Gunungsitoli Selatan","urban":"Sihareo I Tabaloho","postal_code":22851},{"province":"Sumatera Utara","city":"Gunungsitoli","district":"Gunungsitoli Alo'oa","urban":"Orahili Tanose&#8217;o","postal_code":22851},{"province":"Sumatera Utara","city":"Gunungsitoli","district":"Gunungsitoli Selatan","urban":"Onozitoli Tabaloho","postal_code":22851},{"province":"Sumatera Utara","city":"Gunungsitoli","district":"Gunungsitoli Selatan","urban":"Ononamolo I Lot","postal_code":22851},{"province":"Sumatera Utara","city":"Gunungsitoli","district":"Gunungsitoli Selatan","urban":"Ombolata Simenari (Simanari)","postal_code":22851},{"province":"Sumatera Utara","city":"Gunungsitoli","district":"Gunungsitoli Utara","urban":"Olora","postal_code":22851},{"province":"Sumatera Utara","city":"Gunungsitoli","district":"Gunungsitoli Alo'oa","urban":"Nazalou Lolowua","postal_code":22851},{"province":"Sumatera Utara","city":"Gunungsitoli","district":"Gunungsitoli Alo'oa","urban":"Niko&#8217;otano Dao","postal_code":22851},{"province":"Sumatera Utara","city":"Gunungsitoli","district":"Gunungsitoli Alo'oa","urban":"Nazalou Alo&#8217;oa","postal_code":22851},{"province":"Sumatera Utara","city":"Gunungsitoli","district":"Gunungsitoli Selatan","urban":"Mazingo Tabaloho","postal_code":22851},{"province":"Sumatera Utara","city":"Gunungsitoli","district":"Gunungsitoli Selatan","urban":"Luaha Laraga","postal_code":22851},{"province":"Sumatera Utara","city":"Gunungsitoli","district":"Gunungsitoli Selatan","urban":"Lolomboli","postal_code":22851},{"province":"Sumatera Utara","city":"Gunungsitoli","district":"Gunungsitoli Alo'oa","urban":"Lololawa","postal_code":22851},{"province":"Sumatera Utara","city":"Gunungsitoli","district":"Gunungsitoli Selatan","urban":"Lolofaoso Tabaloho","postal_code":22851},{"province":"Sumatera Utara","city":"Gunungsitoli","district":"Gunungsitoli Selatan","urban":"Lololakha","postal_code":22851},{"province":"Sumatera Utara","city":"Gunungsitoli","district":"Gunungsitoli Utara","urban":"Loloanaa / Lolomoyo","postal_code":22851},{"province":"Sumatera Utara","city":"Gunungsitoli","district":"Gunungsitoli Utara","urban":"Lasara Sowu","postal_code":22851},{"province":"Sumatera Utara","city":"Gunungsitoli","district":"Gunungsitoli Alo'oa","urban":"Irano Lase (Iraono Lase)","postal_code":22851},{"province":"Sumatera Utara","city":"Gunungsitoli","district":"Gunungsitoli Utara","urban":"Hilimbowo Olora","postal_code":22851},{"province":"Sumatera Utara","city":"Gunungsitoli","district":"Gunungsitoli Utara","urban":"Hiligodu Ulu","postal_code":22851},{"province":"Sumatera Utara","city":"Gunungsitoli","district":"Gunungsitoli Selatan","urban":"Hiligodu Ombolata","postal_code":22851},{"province":"Sumatera Utara","city":"Gunungsitoli","district":"Gunungsitoli Selatan","urban":"Hiligara","postal_code":22851},{"province":"Sumatera Utara","city":"Gunungsitoli","district":"Gunungsitoli Utara","urban":"Gawu Gawu Bouso/Bauso","postal_code":22851},{"province":"Sumatera Utara","city":"Gunungsitoli","district":"Gunungsitoli Utara","urban":"Hambawa","postal_code":22851},{"province":"Sumatera Utara","city":"Gunungsitoli","district":"Gunungsitoli Selatan","urban":"Faekhu","postal_code":22851},{"province":"Sumatera Utara","city":"Gunungsitoli","district":"Gunungsitoli Alo'oa","urban":"Fadoro You","postal_code":22851},{"province":"Sumatera Utara","city":"Gunungsitoli","district":"Gunungsitoli Alo'oa","urban":"Fadoro Hilimbowo","postal_code":22851},{"province":"Sumatera Utara","city":"Gunungsitoli","district":"Gunungsitoli Utara","urban":"Afia","postal_code":22851},{"province":"Sumatera Utara","city":"Nias Utara","district":"Lahewa Timur","urban":"Tugala Lauru","postal_code":22851},{"province":"Sumatera Utara","city":"Nias Utara","district":"Lahewa Timur","urban":"Tetehosi Sorowi","postal_code":22851},{"province":"Sumatera Utara","city":"Nias Utara","district":"Lahewa Timur","urban":"Tefao","postal_code":22851},{"province":"Sumatera Utara","city":"Nias Utara","district":"Afulu","urban":"Sisobahili","postal_code":22851},{"province":"Sumatera Utara","city":"Nias Utara","district":"Afulu","urban":"Sifaoroasi","postal_code":22851},{"province":"Sumatera Utara","city":"Nias Utara","district":"Afulu","urban":"Ombolata Afulu","postal_code":22851},{"province":"Sumatera Utara","city":"Nias Utara","district":"Lahewa Timur","urban":"Meafu","postal_code":22851},{"province":"Sumatera Utara","city":"Nias Utara","district":"Lahewa Timur","urban":"Muzoi","postal_code":22851},{"province":"Sumatera Utara","city":"Nias Utara","district":"Lotu","urban":"Maziaya","postal_code":22851},{"province":"Sumatera Utara","city":"Nias Utara","district":"Lahewa Timur","urban":"Lukhu Lase","postal_code":22851},{"province":"Sumatera Utara","city":"Nias Utara","district":"Lotu","urban":"Lombuzaua","postal_code":22851},{"province":"Sumatera Utara","city":"Nias Utara","district":"Lotu","urban":"Lolomboli","postal_code":22851},{"province":"Sumatera Utara","city":"Nias Utara","district":"Lotu","urban":"Lolofaoso","postal_code":22851},{"province":"Sumatera Utara","city":"Nias Utara","district":"Lotu","urban":"Lawira II","postal_code":22851},{"province":"Sumatera Utara","city":"Nias Utara","district":"Lotu","urban":"Lawira Satua","postal_code":22851},{"province":"Sumatera Utara","city":"Nias Utara","district":"Lotu","urban":"Lawira I","postal_code":22851},{"province":"Sumatera Utara","city":"Nias Utara","district":"Afulu","urban":"Lauru Lahewa","postal_code":22851},{"province":"Sumatera Utara","city":"Nias Utara","district":"Afulu","urban":"Lauru Fadoro","postal_code":22851},{"province":"Sumatera Utara","city":"Nias Utara","district":"Afulu","urban":"Lauru I Afulu","postal_code":22851},{"province":"Sumatera Utara","city":"Nias Utara","district":"Lahewa Timur","urban":"Laowowaga","postal_code":22851},{"province":"Sumatera Utara","city":"Nias Utara","district":"Lotu","urban":"Hiligeo Afia","postal_code":22851},{"province":"Sumatera Utara","city":"Nias Utara","district":"Lotu","urban":"Hiligodu","postal_code":22851},{"province":"Sumatera Utara","city":"Nias Utara","district":"Lotu","urban":"Hilidundra","postal_code":22851},{"province":"Sumatera Utara","city":"Nias Utara","district":"Afulu","urban":"Harewakhe","postal_code":22851},{"province":"Sumatera Utara","city":"Nias Utara","district":"Afulu","urban":"Faekhunaa","postal_code":22851},{"province":"Sumatera Utara","city":"Nias Utara","district":"Afulu","urban":"Faekhunaa","postal_code":22851},{"province":"Sumatera Utara","city":"Nias Utara","district":"Lotu","urban":"Fadoro Fulolo","postal_code":22851},{"province":"Sumatera Utara","city":"Nias Utara","district":"Lotu","urban":"Baho","postal_code":22851},{"province":"Sumatera Utara","city":"Nias Utara","district":"Lotu","urban":"Dahadano","postal_code":22851},{"province":"Sumatera Utara","city":"Nias","district":"Hili Serangkai (Hilisaranggu)","urban":"Orahili Idanoi","postal_code":22851},{"province":"Sumatera Utara","city":"Nias","district":"Hili Serangkai (Hilisaranggu)","urban":"Onombongi","postal_code":22851},{"province":"Sumatera Utara","city":"Nias","district":"Hili Serangkai (Hilisaranggu)","urban":"Lolowua","postal_code":22851},{"province":"Sumatera Utara","city":"Nias","district":"Hili Serangkai (Hilisaranggu)","urban":"Lolowua Hiliwarasi","postal_code":22851},{"province":"Sumatera Utara","city":"Nias","district":"Hili Serangkai (Hilisaranggu)","urban":"Lolofaoso Lalai","postal_code":22851},{"province":"Sumatera Utara","city":"Nias","district":"Hili Serangkai (Hilisaranggu)","urban":"Lolofaoso","postal_code":22851},{"province":"Sumatera Utara","city":"Nias","district":"Hili Serangkai (Hilisaranggu)","urban":"Lawa-Lawa","postal_code":22851},{"province":"Sumatera Utara","city":"Nias","district":"Hili Serangkai (Hilisaranggu)","urban":"Lalai I/II","postal_code":22851},{"province":"Sumatera Utara","city":"Nias","district":"Hili Serangkai (Hilisaranggu)","urban":"Hilizia Lauru","postal_code":22851},{"province":"Sumatera Utara","city":"Nias","district":"Bawolato","urban":"Hilihoru","postal_code":22851},{"province":"Sumatera Utara","city":"Nias","district":"Hiliduho","urban":"Hiligodu Tanoseo","postal_code":22851},{"province":"Sumatera Utara","city":"Nias","district":"Hili Serangkai (Hilisaranggu)","urban":"Fulolo Lalai","postal_code":22851},{"province":"Sumatera Utara","city":"Nias","district":"Hili Serangkai (Hilisaranggu)","urban":"Fadoro Lalai","postal_code":22851},{"province":"Sumatera Utara","city":"Nias","district":"Hili Serangkai (Hilisaranggu)","urban":"Fadoro Hunogoa","postal_code":22851},{"province":"Sumatera Utara","city":"Nias","district":"Hili Serangkai (Hilisaranggu)","urban":"Ehosakhozi","postal_code":22851},{"province":"Sumatera Utara","city":"Nias","district":"Hili Serangkai (Hilisaranggu)","urban":"Dahadano Botombawo","postal_code":22851},{"province":"Sumatera Utara","city":"Nias","district":"Bawolato","urban":"Dahana Bawolato","postal_code":22851},{"province":"Sumatera Utara","city":"Nias","district":"Hili Serangkai (Hilisaranggu)","urban":"Awela","postal_code":22851}]