[{"province":"Sumatera Utara","city":"Nias","district":"Hiliduho","urban":"Tuhegafoa II","postal_code":22854},{"province":"Sumatera Utara","city":"Nias","district":"Hiliduho","urban":"Sisobalauru","postal_code":22854},{"province":"Sumatera Utara","city":"Nias","district":"Hiliduho","urban":"Tanoseo","postal_code":22854},{"province":"Sumatera Utara","city":"Nias","district":"Hiliduho","urban":"Sinarikhi","postal_code":22854},{"province":"Sumatera Utara","city":"Nias","district":"Hiliduho","urban":"Sisobahili I Tanoseo","postal_code":22854},{"province":"Sumatera Utara","city":"Nias","district":"Hiliduho","urban":"Onozitolidulu","postal_code":22854},{"province":"Sumatera Utara","city":"Nias","district":"Hiliduho","urban":"Silimabanua","postal_code":22854},{"province":"Sumatera Utara","city":"Nias","district":"Hiliduho","urban":"Ombolata Sisarahili","postal_code":22854},{"province":"Sumatera Utara","city":"Nias","district":"Hiliduho","urban":"Ononamolo I Bot","postal_code":22854},{"province":"Sumatera Utara","city":"Nias","district":"Hiliduho","urban":"Onowaembo Hiligara","postal_code":22854},{"province":"Sumatera Utara","city":"Nias","district":"Hiliduho","urban":"Lasara Tanose&#8217;o","postal_code":22854},{"province":"Sumatera Utara","city":"Nias","district":"Hiliduho","urban":"Ombolalasalo&#8217;o","postal_code":22854},{"province":"Sumatera Utara","city":"Nias","district":"Hiliduho","urban":"Hiliduho","postal_code":22854},{"province":"Sumatera Utara","city":"Nias","district":"Hiliduho","urban":"Fadoro Lauru","postal_code":22854},{"province":"Sumatera Utara","city":"Nias","district":"Hiliduho","urban":"Dima","postal_code":22854}]