[{"province":"Sumatera Utara","city":"Nias Utara","district":"Sitolu Ori","urban":"Umbubalodano","postal_code":22852},{"province":"Sumatera Utara","city":"Nias Utara","district":"Sitolu Ori","urban":"Tetehosi Maziaya","postal_code":22852},{"province":"Sumatera Utara","city":"Nias Utara","district":"Sawo","urban":"Sisarahili Teluk Siabang","postal_code":22852},{"province":"Sumatera Utara","city":"Nias Utara","district":"Sawo","urban":"Teluk Bengkuang","postal_code":22852},{"province":"Sumatera Utara","city":"Nias Utara","district":"Tuhemberua","urban":"Silima Banua","postal_code":22852},{"province":"Sumatera Utara","city":"Nias Utara","district":"Tuhemberua","urban":"Siofa Banua","postal_code":22852},{"province":"Sumatera Utara","city":"Nias Utara","district":"Sawo","urban":"Sifahandro","postal_code":22852},{"province":"Sumatera Utara","city":"Nias Utara","district":"Sawo","urban":"Sawo","postal_code":22852},{"province":"Sumatera Utara","city":"Nias Utara","district":"Sawo","urban":"Seriwau","postal_code":22852},{"province":"Sumatera Utara","city":"Nias Utara","district":"Sawo","urban":"Onozitoli Sawo","postal_code":22852},{"province":"Sumatera Utara","city":"Nias Utara","district":"Sawo","urban":"Sanawuyu","postal_code":22852},{"province":"Sumatera Utara","city":"Nias Utara","district":"Sawo","urban":"Ombolata Sawo","postal_code":22852},{"province":"Sumatera Utara","city":"Nias Utara","district":"Tuhemberua","urban":"Ladara","postal_code":22852},{"province":"Sumatera Utara","city":"Nias Utara","district":"Sawo","urban":"Lasara Sawo","postal_code":22852},{"province":"Sumatera Utara","city":"Nias Utara","district":"Tuhemberua","urban":"Laaya","postal_code":22852},{"province":"Sumatera Utara","city":"Nias Utara","district":"Sitolu Ori","urban":"Hilisaloo","postal_code":22852},{"province":"Sumatera Utara","city":"Nias Utara","district":"Sitolu Ori","urban":"Hilimbosi","postal_code":22852},{"province":"Sumatera Utara","city":"Nias Utara","district":"Sawo","urban":"Hiliduruwa","postal_code":22852},{"province":"Sumatera Utara","city":"Nias Utara","district":"Tuhemberua","urban":"Fino","postal_code":22852},{"province":"Sumatera Utara","city":"Nias Utara","district":"Sitolu Ori","urban":"Fulolo Saloo","postal_code":22852},{"province":"Sumatera Utara","city":"Nias Utara","district":"Tuhemberua","urban":"Botolakha","postal_code":22852},{"province":"Sumatera Utara","city":"Nias Utara","district":"Sitolu Ori","urban":"Batom Bawo","postal_code":22852},{"province":"Sumatera Utara","city":"Nias Utara","district":"Tuhemberua","urban":"Banuagea","postal_code":22852},{"province":"Sumatera Utara","city":"Nias Utara","district":"Tuhemberua","urban":"Alooa","postal_code":22852},{"province":"Sumatera Utara","city":"Nias","district":"Ma'u","urban":"Tuhemberua","postal_code":22852},{"province":"Sumatera Utara","city":"Nias","district":"Ma'u","urban":"Sisarahili Ma U","postal_code":22852},{"province":"Sumatera Utara","city":"Nias","district":"Ma'u","urban":"Sihare&#8217;o III Bawosalo&#8217;o Berua","postal_code":22852},{"province":"Sumatera Utara","city":"Nias","district":"Ma'u","urban":"Sihare&#8217;o III Hilibadalu","postal_code":22852},{"province":"Sumatera Utara","city":"Nias","district":"Ma'u","urban":"Sihaero III","postal_code":22852},{"province":"Sumatera Utara","city":"Nias","district":"Ma'u","urban":"Lewa &#8211; Lewa","postal_code":22852},{"province":"Sumatera Utara","city":"Nias","district":"Ma'u","urban":"Lewu Oguru II (Lewuaguru II)","postal_code":22852},{"province":"Sumatera Utara","city":"Nias","district":"Ma'u","urban":"Lasara Siwalu Banua","postal_code":22852},{"province":"Sumatera Utara","city":"Nias","district":"Ma'u","urban":"Dekha","postal_code":22852},{"province":"Sumatera Utara","city":"Nias","district":"Ma'u","urban":"Balodano","postal_code":22852},{"province":"Sumatera Utara","city":"Nias","district":"Ma'u","urban":"Atualuo","postal_code":22852}]