[{"province":"Sumatera Utara","city":"Nias Selatan","district":"Amandraya","urban":"Tuindrao Satu","postal_code":22866},{"province":"Sumatera Utara","city":"Nias Selatan","district":"Ulususua","urban":"Susua","postal_code":22866},{"province":"Sumatera Utara","city":"Nias Selatan","district":"Amandraya","urban":"Tuhemberua Amandraya","postal_code":22866},{"province":"Sumatera Utara","city":"Nias Selatan","district":"Amandraya","urban":"Tuindrao","postal_code":22866},{"province":"Sumatera Utara","city":"Nias Selatan","district":"Amandraya","urban":"Sisobahili","postal_code":22866},{"province":"Sumatera Utara","city":"Nias Selatan","district":"Aramo","urban":"Sisobambowo","postal_code":22866},{"province":"Sumatera Utara","city":"Nias Selatan","district":"Amandraya","urban":"Sirofi","postal_code":22866},{"province":"Sumatera Utara","city":"Nias Selatan","district":"Ulususua","urban":"Sisarahili Susua","postal_code":22866},{"province":"Sumatera Utara","city":"Nias Selatan","district":"Amandraya","urban":"Sisarahili","postal_code":22866},{"province":"Sumatera Utara","city":"Nias Selatan","district":"Amandraya","urban":"Sinar Ino&#8217;o","postal_code":22866},{"province":"Sumatera Utara","city":"Nias Selatan","district":"Aramo","urban":"Sikhorilafau","postal_code":22866},{"province":"Sumatera Utara","city":"Nias Selatan","district":"Amandraya","urban":"Sifaoro&#8217;asi","postal_code":22866},{"province":"Sumatera Utara","city":"Nias Selatan","district":"Ulususua","urban":"Ramba-Ramba","postal_code":22866},{"province":"Sumatera Utara","city":"Nias Selatan","district":"Ulususua","urban":"Sifaoroasi","postal_code":22866},{"province":"Sumatera Utara","city":"Nias Selatan","district":"Ulususua","urban":"Orahili Fondrako","postal_code":22866},{"province":"Sumatera Utara","city":"Nias Selatan","district":"Ulususua","urban":"Orudu Sibohou","postal_code":22866},{"province":"Sumatera Utara","city":"Nias Selatan","district":"Amandraya","urban":"Lolozaria","postal_code":22866},{"province":"Sumatera Utara","city":"Nias Selatan","district":"Amandraya","urban":"Orahili Eho","postal_code":22866},{"province":"Sumatera Utara","city":"Nias Selatan","district":"Amandraya","urban":"Lolomoyo","postal_code":22866},{"province":"Sumatera Utara","city":"Nias Selatan","district":"Aramo","urban":"Hume","postal_code":22866},{"province":"Sumatera Utara","city":"Nias Selatan","district":"Amandraya","urban":"Loloabolo","postal_code":22866},{"province":"Sumatera Utara","city":"Nias Selatan","district":"Ulususua","urban":"Lahusa Susua","postal_code":22866},{"province":"Sumatera Utara","city":"Nias Selatan","district":"Ulususua","urban":"Hiliwosi","postal_code":22866},{"province":"Sumatera Utara","city":"Nias Selatan","district":"Aramo","urban":"Hilisawato","postal_code":22866},{"province":"Sumatera Utara","city":"Nias Selatan","district":"Aramo","urban":"Hilitatao","postal_code":22866},{"province":"Sumatera Utara","city":"Nias Selatan","district":"Amandraya","urban":"Hilisalo&#8217;o","postal_code":22866},{"province":"Sumatera Utara","city":"Nias Selatan","district":"Ulususua","urban":"Hilinifaoso","postal_code":22866},{"province":"Sumatera Utara","city":"Nias Selatan","district":"Aramo","urban":"Hilioru dua","postal_code":22866},{"province":"Sumatera Utara","city":"Nias Selatan","district":"Amandraya","urban":"Hilindraso","postal_code":22866},{"province":"Sumatera Utara","city":"Nias Selatan","district":"Aramo","urban":"Hilimezaya","postal_code":22866},{"province":"Sumatera Utara","city":"Nias Selatan","district":"Amandraya","urban":"Hilimbowo","postal_code":22866},{"province":"Sumatera Utara","city":"Nias Selatan","district":"Amandraya","urban":"Hilimbulawa","postal_code":22866},{"province":"Sumatera Utara","city":"Nias Selatan","district":"Aramo","urban":"Hilimbowo","postal_code":22866},{"province":"Sumatera Utara","city":"Nias Selatan","district":"Aramo","urban":"Hilimagiao","postal_code":22866},{"province":"Sumatera Utara","city":"Nias Selatan","district":"Amandraya","urban":"Hilimaera","postal_code":22866},{"province":"Sumatera Utara","city":"Nias Selatan","district":"Aramo","urban":"Hiligumbu","postal_code":22866},{"province":"Sumatera Utara","city":"Nias Selatan","district":"Amandraya","urban":"Hilihoru","postal_code":22866},{"province":"Sumatera Utara","city":"Nias Selatan","district":"Aramo","urban":"Hilifadolo","postal_code":22866},{"province":"Sumatera Utara","city":"Nias Selatan","district":"Aramo","urban":"Hiligafoa","postal_code":22866},{"province":"Sumatera Utara","city":"Nias Selatan","district":"Amandraya","urban":"Hilifadolo","postal_code":22866},{"province":"Sumatera Utara","city":"Nias Selatan","district":"Aramo","urban":"Hiliadolowa","postal_code":22866},{"province":"Sumatera Utara","city":"Nias Selatan","district":"Aramo","urban":"Hiliamozula / Hiliamauzula","postal_code":22866},{"province":"Sumatera Utara","city":"Nias Selatan","district":"Ulususua","urban":"Foikhu Fondrako","postal_code":22866},{"province":"Sumatera Utara","city":"Nias Selatan","district":"Ulususua","urban":"Fondrakoraya","postal_code":22866},{"province":"Sumatera Utara","city":"Nias Selatan","district":"Aramo","urban":"Dao-dao","postal_code":22866},{"province":"Sumatera Utara","city":"Nias Selatan","district":"Amandraya","urban":"Boholu","postal_code":22866},{"province":"Sumatera Utara","city":"Nias Selatan","district":"Aramo","urban":"Bagoa","postal_code":22866},{"province":"Sumatera Utara","city":"Nias Selatan","district":"Aramo","urban":"Baohao","postal_code":22866},{"province":"Sumatera Utara","city":"Nias Selatan","district":"Aramo","urban":"Aramo","postal_code":22866},{"province":"Sumatera Utara","city":"Nias Selatan","district":"Ulususua","urban":"Amandraya Ulususua","postal_code":22866},{"province":"Sumatera Utara","city":"Nias Selatan","district":"Amandraya","urban":"Amandraya","postal_code":22866}]