[{"province":"Sumatera Utara","city":"Nias Barat","district":"Mandrehe","urban":"Hayo","postal_code":22867},{"province":"Sumatera Utara","city":"Nias Selatan","district":"Huruna","urban":"Tundrombaho","postal_code":22867},{"province":"Sumatera Utara","city":"Nias Selatan","district":"Lolomatua","urban":"Tesikhori","postal_code":22867},{"province":"Sumatera Utara","city":"Nias Selatan","district":"Lolomatua","urban":"Tuhemberua","postal_code":22867},{"province":"Sumatera Utara","city":"Nias Selatan","district":"Lolomatua","urban":"Tumari","postal_code":22867},{"province":"Sumatera Utara","city":"Nias Selatan","district":"Huruna","urban":"Tarewe","postal_code":22867},{"province":"Sumatera Utara","city":"Nias Selatan","district":"Huruna","urban":"Sisarahili Huruna","postal_code":22867},{"province":"Sumatera Utara","city":"Nias Selatan","district":"Ulunoyo","urban":"Suka Maju","postal_code":22867},{"province":"Sumatera Utara","city":"Nias Selatan","district":"Huruna","urban":"Sifaoro&#8217;asi","postal_code":22867},{"province":"Sumatera Utara","city":"Nias Selatan","district":"Huruna","urban":"Sifaoroasi Huruna","postal_code":22867},{"province":"Sumatera Utara","city":"Nias Selatan","district":"Huruna","urban":"Sifalago","postal_code":22867},{"province":"Sumatera Utara","city":"Nias Selatan","district":"Ulunoyo","urban":"Sambulu","postal_code":22867},{"province":"Sumatera Utara","city":"Nias Selatan","district":"Lolomatua","urban":"Orudua Lawa-Lawa Lou","postal_code":22867},{"province":"Sumatera Utara","city":"Nias Selatan","district":"Ulunoyo","urban":"Puncak Lolomatua","postal_code":22867},{"province":"Sumatera Utara","city":"Nias Selatan","district":"Huruna","urban":"Mombawa Oladano","postal_code":22867},{"province":"Sumatera Utara","city":"Nias Selatan","district":"Huruna","urban":"Olayama","postal_code":22867},{"province":"Sumatera Utara","city":"Nias Selatan","district":"Ulunoyo","urban":"Orahili Ulunoyo","postal_code":22867},{"province":"Sumatera Utara","city":"Nias Selatan","district":"Huruna","urban":"Luahamofakhe","postal_code":22867},{"province":"Sumatera Utara","city":"Nias Selatan","district":"Ulunoyo","urban":"Marao","postal_code":22867},{"province":"Sumatera Utara","city":"Nias Selatan","district":"Lolomatua","urban":"Lawa-Lawa Luo","postal_code":22867},{"province":"Sumatera Utara","city":"Nias Selatan","district":"Ulunoyo","urban":"Loloana&#8217;a","postal_code":22867},{"province":"Sumatera Utara","city":"Nias Selatan","district":"Huruna","urban":"Lalimanawa","postal_code":22867},{"province":"Sumatera Utara","city":"Nias Selatan","district":"Lolomatua","urban":"Koendrafo","postal_code":22867},{"province":"Sumatera Utara","city":"Nias Selatan","district":"Huruna","urban":"Hilizoliga","postal_code":22867},{"province":"Sumatera Utara","city":"Nias Selatan","district":"Lolomatua","urban":"Ko&#8217;olotano","postal_code":22867},{"province":"Sumatera Utara","city":"Nias Selatan","district":"Ulunoyo","urban":"Hiliwaebu","postal_code":22867},{"province":"Sumatera Utara","city":"Nias Selatan","district":"Huruna","urban":"Hilimanawa","postal_code":22867},{"province":"Sumatera Utara","city":"Nias Selatan","district":"Lolomatua","urban":"Hilisangowola","postal_code":22867},{"province":"Sumatera Utara","city":"Nias Selatan","district":"Huruna","urban":"Hiliuso","postal_code":22867},{"province":"Sumatera Utara","city":"Nias Selatan","district":"Lolomatua","urban":"Hilifaondrato","postal_code":22867},{"province":"Sumatera Utara","city":"Nias Selatan","district":"Ulunoyo","urban":"Hilimaera","postal_code":22867},{"province":"Sumatera Utara","city":"Nias Selatan","district":"Huruna","urban":"Hilifalawu","postal_code":22867},{"province":"Sumatera Utara","city":"Nias Selatan","district":"Ulunoyo","urban":"Hilifakhe","postal_code":22867},{"province":"Sumatera Utara","city":"Nias Selatan","district":"Huruna","urban":"Fadoro Tuhemberua","postal_code":22867},{"province":"Sumatera Utara","city":"Nias Selatan","district":"Lolomatua","urban":"Hili Otalua","postal_code":22867},{"province":"Sumatera Utara","city":"Nias Selatan","district":"Huruna","urban":"Ehosakhozi","postal_code":22867},{"province":"Sumatera Utara","city":"Nias Selatan","district":"Lolomatua","urban":"Ewo","postal_code":22867},{"province":"Sumatera Utara","city":"Nias Selatan","district":"Lolomatua","urban":"Botohili Ndruria","postal_code":22867},{"province":"Sumatera Utara","city":"Nias Selatan","district":"Lolomatua","urban":"Caritas Sogawunasi","postal_code":22867},{"province":"Sumatera Utara","city":"Nias Selatan","district":"Ulunoyo","urban":"Borowosi","postal_code":22867},{"province":"Sumatera Utara","city":"Nias Selatan","district":"Huruna","urban":"Bawahosi Huruna","postal_code":22867},{"province":"Sumatera Utara","city":"Nias Selatan","district":"Ulunoyo","urban":"Bawo Lolomatua","postal_code":22867},{"province":"Sumatera Utara","city":"Nias Selatan","district":"Ulunoyo","urban":"Ambukha Satu","postal_code":22867},{"province":"Sumatera Utara","city":"Nias Selatan","district":"Ulunoyo","urban":"Amorosa","postal_code":22867}]