[{"province":"Sumatera Utara","city":"Nias Utara","district":"Tugala Oyo","urban":"Siwawo","postal_code":22861},{"province":"Sumatera Utara","city":"Nias Utara","district":"Tugala Oyo","urban":"Te&#8217;olo","postal_code":22861},{"province":"Sumatera Utara","city":"Nias Utara","district":"Alasa","urban":"Siwabanua","postal_code":22861},{"province":"Sumatera Utara","city":"Nias Utara","district":"Tugala Oyo","urban":"Ononazara","postal_code":22861},{"province":"Sumatera Utara","city":"Nias Utara","district":"Alasa","urban":"Ononamolo Tumula","postal_code":22861},{"province":"Sumatera Utara","city":"Nias Utara","district":"Alasa","urban":"Ononamolo Alasa","postal_code":22861},{"province":"Sumatera Utara","city":"Nias Utara","district":"Alasa","urban":"Ombolata","postal_code":22861},{"province":"Sumatera Utara","city":"Nias Utara","district":"Alasa","urban":"Loloana&#8217;a","postal_code":22861},{"province":"Sumatera Utara","city":"Nias Utara","district":"Alasa","urban":"Lahemboho","postal_code":22861},{"province":"Sumatera Utara","city":"Nias Utara","district":"Tugala Oyo","urban":"Humene Siheneasi","postal_code":22861},{"province":"Sumatera Utara","city":"Nias Utara","district":"Alasa","urban":"Hiligawoni","postal_code":22861},{"province":"Sumatera Utara","city":"Nias Utara","district":"Tugala Oyo","urban":"Gunung Tua","postal_code":22861},{"province":"Sumatera Utara","city":"Nias Utara","district":"Tugala Oyo","urban":"Harefa","postal_code":22861},{"province":"Sumatera Utara","city":"Nias Utara","district":"Alasa","urban":"Fulolo","postal_code":22861},{"province":"Sumatera Utara","city":"Nias Utara","district":"Alasa","urban":"Dahana Tugala Oyo","postal_code":22861},{"province":"Sumatera Utara","city":"Nias Utara","district":"Tugala Oyo","urban":"Fabaliwa Oyo","postal_code":22861},{"province":"Sumatera Utara","city":"Nias Utara","district":"Alasa","urban":"Dahana Alasa","postal_code":22861},{"province":"Sumatera Utara","city":"Nias Utara","district":"Tugala Oyo","urban":"Botona&#8217;ai","postal_code":22861},{"province":"Sumatera Utara","city":"Nias Utara","district":"Alasa","urban":"Banua Sibohou II","postal_code":22861},{"province":"Sumatera Utara","city":"Nias Utara","district":"Alasa","urban":"Bitaya","postal_code":22861},{"province":"Sumatera Utara","city":"Nias Utara","district":"Alasa","urban":"Banua Sibohou I","postal_code":22861},{"province":"Sumatera Utara","city":"Nias Utara","district":"Alasa","urban":"Anaoma","postal_code":22861},{"province":"Sumatera Utara","city":"Nias","district":"Ulugawo","urban":"Sisobahili Ulugawo","postal_code":22861},{"province":"Sumatera Utara","city":"Nias","district":"Ulugawo","urban":"Sifaoroasi Ulugawo","postal_code":22861},{"province":"Sumatera Utara","city":"Nias","district":"Ulugawo","urban":"Sisarahili Soroma&#8217;asi","postal_code":22861},{"province":"Sumatera Utara","city":"Nias","district":"Ulugawo","urban":"Orahili Somolomolo","postal_code":22861},{"province":"Sumatera Utara","city":"Nias","district":"Ulugawo","urban":"Onodalinga","postal_code":22861},{"province":"Sumatera Utara","city":"Nias","district":"Ulugawo","urban":"Mohili","postal_code":22861},{"province":"Sumatera Utara","city":"Nias","district":"Ulugawo","urban":"Lawa-Lawaluo","postal_code":22861},{"province":"Sumatera Utara","city":"Nias","district":"Ulugawo","urban":"Holi","postal_code":22861},{"province":"Sumatera Utara","city":"Nias","district":"Ulugawo","urban":"Hilimbowo","postal_code":22861},{"province":"Sumatera Utara","city":"Nias","district":"Ulugawo","urban":"Hiliweto Gela (Somolomolo)","postal_code":22861},{"province":"Sumatera Utara","city":"Nias","district":"Ulugawo","urban":"Hilibadalu","postal_code":22861},{"province":"Sumatera Utara","city":"Nias","district":"Ulugawo","urban":"Hiligafoa","postal_code":22861},{"province":"Sumatera Utara","city":"Nias","district":"Ulugawo","urban":"Fatodano","postal_code":22861},{"province":"Sumatera Utara","city":"Nias","district":"Ulugawo","urban":"Fahandrona","postal_code":22861}]