[{"province":"Sumatera Utara","city":"Nias Barat","district":"Lahomi (Gahori)","urban":"Tiga Serangkai","postal_code":22864},{"province":"Sumatera Utara","city":"Nias Barat","district":"Lahomi (Gahori)","urban":"Sitolu Banua","postal_code":22864},{"province":"Sumatera Utara","city":"Nias Barat","district":"Lahomi (Gahori)","urban":"Sisobambowo","postal_code":22864},{"province":"Sumatera Utara","city":"Nias Barat","district":"Lahomi (Gahori)","urban":"Sisobaoho","postal_code":22864},{"province":"Sumatera Utara","city":"Nias Barat","district":"Lahomi (Gahori)","urban":"Ono Waembo","postal_code":22864},{"province":"Sumatera Utara","city":"Nias Barat","district":"Lahomi (Gahori)","urban":"Ono Limbu","postal_code":22864},{"province":"Sumatera Utara","city":"Nias Barat","district":"Lahomi (Gahori)","urban":"Lolowau","postal_code":22864},{"province":"Sumatera Utara","city":"Nias Barat","district":"Lahomi (Gahori)","urban":"Lologundre","postal_code":22864},{"province":"Sumatera Utara","city":"Nias Barat","district":"Lahomi (Gahori)","urban":"Iraonogaila","postal_code":22864},{"province":"Sumatera Utara","city":"Nias Barat","district":"Lahomi (Gahori)","urban":"Hiliadulo","postal_code":22864},{"province":"Sumatera Utara","city":"Nias Barat","district":"Lahomi (Gahori)","urban":"Bawozamaiwo","postal_code":22864},{"province":"Sumatera Utara","city":"Nias Selatan","district":"Hilimegai","urban":"Tuho Owo","postal_code":22864},{"province":"Sumatera Utara","city":"Nias Selatan","district":"Hilisalawa'ahe (Hilisalawaahe)","urban":"Umbu&#8217;asi","postal_code":22864},{"province":"Sumatera Utara","city":"Nias Selatan","district":"Hilisalawa'ahe (Hilisalawaahe)","urban":"Umbuasi Barat","postal_code":22864},{"province":"Sumatera Utara","city":"Nias Selatan","district":"Hilimegai","urban":"Togizita","postal_code":22864},{"province":"Sumatera Utara","city":"Nias Selatan","district":"Hilimegai","urban":"Togozita Satu","postal_code":22864},{"province":"Sumatera Utara","city":"Nias Selatan","district":"Onohazumba","urban":"Tetehosi","postal_code":22864},{"province":"Sumatera Utara","city":"Nias Selatan","district":"Hilisalawa'ahe (Hilisalawaahe)","urban":"Talio","postal_code":22864},{"province":"Sumatera Utara","city":"Nias Selatan","district":"Hilimegai","urban":"Soledua Satu","postal_code":22864},{"province":"Sumatera Utara","city":"Nias Selatan","district":"Onohazumba","urban":"Soroma&#8217;asi","postal_code":22864},{"province":"Sumatera Utara","city":"Nias Selatan","district":"O'o'u (Oou)","urban":"Suka Maju","postal_code":22864},{"province":"Sumatera Utara","city":"Nias Selatan","district":"Hilimegai","urban":"Soledua Dua","postal_code":22864},{"province":"Sumatera Utara","city":"Nias Selatan","district":"Hilimegai","urban":"Soledua","postal_code":22864},{"province":"Sumatera Utara","city":"Nias Selatan","district":"Onohazumba","urban":"Sisobahili Huruna","postal_code":22864},{"province":"Sumatera Utara","city":"Nias Selatan","district":"Hilisalawa'ahe (Hilisalawaahe)","urban":"Sisobahili Siwalawa","postal_code":22864},{"province":"Sumatera Utara","city":"Nias Selatan","district":"Lolowau","urban":"Sisarahili Ekholo","postal_code":22864},{"province":"Sumatera Utara","city":"Nias Selatan","district":"Onohazumba","urban":"Sisarahili Oyo","postal_code":22864},{"province":"Sumatera Utara","city":"Nias Selatan","district":"Lolowau","urban":"Samiri","postal_code":22864},{"province":"Sumatera Utara","city":"Nias Selatan","district":"O'o'u (Oou)","urban":"Simandraolo / Simandaolo","postal_code":22864},{"province":"Sumatera Utara","city":"Nias Selatan","district":"O'o'u (Oou)","urban":"Simandraolo O&#8217;ou","postal_code":22864},{"province":"Sumatera Utara","city":"Nias Selatan","district":"Onohazumba","urban":"Onohazumba","postal_code":22864},{"province":"Sumatera Utara","city":"Nias Selatan","district":"Onohazumba","urban":"Orahili Huruna","postal_code":22864},{"province":"Sumatera Utara","city":"Nias Selatan","district":"Hilisalawa'ahe (Hilisalawaahe)","urban":"Manawadano","postal_code":22864},{"province":"Sumatera Utara","city":"Nias Selatan","district":"Lolowau","urban":"Nituwu Boho","postal_code":22864},{"province":"Sumatera Utara","city":"Nias Selatan","district":"Lolowau","urban":"Lolowau","postal_code":22864},{"province":"Sumatera Utara","city":"Nias Selatan","district":"Hilisalawa'ahe (Hilisalawaahe)","urban":"Maluo","postal_code":22864},{"province":"Sumatera Utara","city":"Nias Selatan","district":"Lolowau","urban":"Lolohowa","postal_code":22864},{"province":"Sumatera Utara","city":"Nias Selatan","district":"Lolowau","urban":"Lolomoyo","postal_code":22864},{"province":"Sumatera Utara","city":"Nias Selatan","district":"O'o'u (Oou)","urban":"Lolomaya","postal_code":22864},{"province":"Sumatera Utara","city":"Nias Selatan","district":"Lolowau","urban":"Lolofaoso","postal_code":22864},{"province":"Sumatera Utara","city":"Nias Selatan","district":"Onohazumba","urban":"Hiliweto","postal_code":22864},{"province":"Sumatera Utara","city":"Nias Selatan","district":"Onohazumba","urban":"La&#8217;uso","postal_code":22864},{"province":"Sumatera Utara","city":"Nias Selatan","district":"O'o'u (Oou)","urban":"Hilioru dua","postal_code":22864},{"province":"Sumatera Utara","city":"Nias Selatan","district":"Hilimegai","urban":"Hilitoese","postal_code":22864},{"province":"Sumatera Utara","city":"Nias Selatan","district":"O'o'u (Oou)","urban":"Hilinamozihono","postal_code":22864},{"province":"Sumatera Utara","city":"Nias Selatan","district":"O'o'u (Oou)","urban":"Hilinamozihono Moale","postal_code":22864},{"province":"Sumatera Utara","city":"Nias Selatan","district":"Lolowau","urban":"Hilimbowo Siwalawa","postal_code":22864},{"province":"Sumatera Utara","city":"Nias Selatan","district":"O'o'u (Oou)","urban":"Hilimbuasi","postal_code":22864},{"province":"Sumatera Utara","city":"Nias Selatan","district":"Hilisalawa'ahe (Hilisalawaahe)","urban":"Hiligodu","postal_code":22864},{"province":"Sumatera Utara","city":"Nias Selatan","district":"Lolowau","urban":"Hilikara","postal_code":22864},{"province":"Sumatera Utara","city":"Nias Selatan","district":"O'o'u (Oou)","urban":"Hilimbowo","postal_code":22864},{"province":"Sumatera Utara","city":"Nias Selatan","district":"Hilisalawa'ahe (Hilisalawaahe)","urban":"Hilidulo","postal_code":22864},{"province":"Sumatera Utara","city":"Nias Selatan","district":"Lolowau","urban":"Hili Fadolo","postal_code":22864},{"province":"Sumatera Utara","city":"Nias Selatan","district":"Hilimegai","urban":"Hiliadulo","postal_code":22864},{"province":"Sumatera Utara","city":"Nias Selatan","district":"Onohazumba","urban":"Helefanikha","postal_code":22864},{"province":"Sumatera Utara","city":"Nias Selatan","district":"Hilimegai","urban":"Dao-dao Sowo","postal_code":22864},{"province":"Sumatera Utara","city":"Nias Selatan","district":"Onohazumba","urban":"Fadoro&#8217;ewo","postal_code":22864},{"province":"Sumatera Utara","city":"Nias Selatan","district":"Hilisalawa'ahe (Hilisalawaahe)","urban":"Bukitburasi","postal_code":22864},{"province":"Sumatera Utara","city":"Nias Selatan","district":"Lolowau","urban":"Botohili","postal_code":22864},{"province":"Sumatera Utara","city":"Nias Selatan","district":"Hilisalawa'ahe (Hilisalawaahe)","urban":"Berua Siwalawa","postal_code":22864},{"province":"Sumatera Utara","city":"Nias Selatan","district":"O'o'u (Oou)","urban":"Bawosalo&#8217;o Bawoluo","postal_code":22864},{"province":"Sumatera Utara","city":"Nias Selatan","district":"Lolowau","urban":"Bawohosi","postal_code":22864},{"province":"Sumatera Utara","city":"Nias Selatan","district":"Lolowau","urban":"Bawosaloo Siwalawa / Sowalawa","postal_code":22864},{"province":"Sumatera Utara","city":"Nias Selatan","district":"Hilimegai","urban":"Bawasalo&#8217;o Dao-dao","postal_code":22864},{"province":"Sumatera Utara","city":"Nias Selatan","district":"O'o'u (Oou)","urban":"Balohili O&#8217;o&#8217;u","postal_code":22864},{"province":"Sumatera Utara","city":"Nias Selatan","district":"Hilisalawa'ahe (Hilisalawaahe)","urban":"Anaoma","postal_code":22864},{"province":"Sumatera Utara","city":"Nias Selatan","district":"Lolowau","urban":"Amuri","postal_code":22864}]