[{"province":"Sumatera Utara","city":"Nias Selatan","district":"Fanayama","urban":"Siwalawa","postal_code":22865},{"province":"Sumatera Utara","city":"Nias Selatan","district":"Fanayama","urban":"Sondregeasi","postal_code":22865},{"province":"Sumatera Utara","city":"Nias Selatan","district":"Maniamolo","urban":"Soto&#8217;o Hilisimaetano","postal_code":22865},{"province":"Sumatera Utara","city":"Nias Selatan","district":"Maniamolo","urban":"Samadaya Hilisimaetano","postal_code":22865},{"province":"Sumatera Utara","city":"Nias Selatan","district":"Fanayama","urban":"Siliwulawa","postal_code":22865},{"province":"Sumatera Utara","city":"Nias Selatan","district":"Teluk Dalam","urban":"Pasar Teluk Dalam","postal_code":22865},{"province":"Sumatera Utara","city":"Nias Selatan","district":"Maniamolo","urban":"Pekan Hilisimaetano","postal_code":22865},{"province":"Sumatera Utara","city":"Nias Selatan","district":"Fanayama","urban":"Orahili Fau","postal_code":22865},{"province":"Sumatera Utara","city":"Nias Selatan","district":"Fanayama","urban":"Ono Hondro","postal_code":22865},{"province":"Sumatera Utara","city":"Nias Selatan","district":"Fanayama","urban":"Orahili Faomasi","postal_code":22865},{"province":"Sumatera Utara","city":"Nias Selatan","district":"Teluk Dalam","urban":"Nanowa","postal_code":22865},{"province":"Sumatera Utara","city":"Nias Selatan","district":"Maniamolo","urban":"Ndraso Hilisimaetano","postal_code":22865},{"province":"Sumatera Utara","city":"Nias Selatan","district":"Mazino","urban":"Lawindra","postal_code":22865},{"province":"Sumatera Utara","city":"Nias Selatan","district":"Mazino","urban":"Lolomboli","postal_code":22865},{"province":"Sumatera Utara","city":"Nias Selatan","district":"Fanayama","urban":"Lagundri","postal_code":22865},{"province":"Sumatera Utara","city":"Nias Selatan","district":"Fanayama","urban":"Lahusa Fau","postal_code":22865},{"province":"Sumatera Utara","city":"Nias Selatan","district":"Fanayama","urban":"Hinawalo Fau","postal_code":22865},{"province":"Sumatera Utara","city":"Nias Selatan","district":"Maniamolo","urban":"Idala Jaya","postal_code":22865},{"province":"Sumatera Utara","city":"Nias Selatan","district":"Fanayama","urban":"Hilizihono","postal_code":22865},{"province":"Sumatera Utara","city":"Nias Selatan","district":"Mazino","urban":"Hilizoroilawa","postal_code":22865},{"province":"Sumatera Utara","city":"Nias Selatan","district":"Mazino","urban":"Hilizalo&#8217;otano Larono","postal_code":22865},{"province":"Sumatera Utara","city":"Nias Selatan","district":"Mazino","urban":"Hilizalo&#8217;otano Laowo","postal_code":22865},{"province":"Sumatera Utara","city":"Nias Selatan","district":"Mazino","urban":"Hilizalo&#8217;otano","postal_code":22865},{"province":"Sumatera Utara","city":"Nias Selatan","district":"Teluk Dalam","urban":"Hilitobara","postal_code":22865},{"province":"Sumatera Utara","city":"Nias Selatan","district":"Toma","urban":"Hilisoromi","postal_code":22865},{"province":"Sumatera Utara","city":"Nias Selatan","district":"Teluk Dalam","urban":"Hilisondrekha","postal_code":22865},{"province":"Sumatera Utara","city":"Nias Selatan","district":"Maniamolo","urban":"Hilisimaetano","postal_code":22865},{"province":"Sumatera Utara","city":"Nias Selatan","district":"Toma","urban":"Hilisataro Raya","postal_code":22865},{"province":"Sumatera Utara","city":"Nias Selatan","district":"Toma","urban":"Hilisataro Gewa","postal_code":22865},{"province":"Sumatera Utara","city":"Nias Selatan","district":"Toma","urban":"Hilisataro Nandisa","postal_code":22865},{"province":"Sumatera Utara","city":"Nias Selatan","district":"Toma","urban":"Hilisataro Eho Sofayo","postal_code":22865},{"province":"Sumatera Utara","city":"Nias Selatan","district":"Toma","urban":"Hilisataro","postal_code":22865},{"province":"Sumatera Utara","city":"Nias Selatan","district":"Teluk Dalam","urban":"Hilisaootoniha","postal_code":22865},{"province":"Sumatera Utara","city":"Nias Selatan","district":"Teluk Dalam","urban":"Hilisanekhehosi","postal_code":22865},{"province":"Sumatera Utara","city":"Nias Selatan","district":"Fanayama","urban":"Hilisalawa","postal_code":22865},{"province":"Sumatera Utara","city":"Nias Selatan","district":"Teluk Dalam","urban":"Hilionaha","postal_code":22865},{"province":"Sumatera Utara","city":"Nias Selatan","district":"Fanayama","urban":"Hiliofonaluo","postal_code":22865},{"province":"Sumatera Utara","city":"Nias Selatan","district":"Toma","urban":"Hilindraso Raya","postal_code":22865},{"province":"Sumatera Utara","city":"Nias Selatan","district":"Toma","urban":"Hilindrasoniha","postal_code":22865},{"province":"Sumatera Utara","city":"Nias Selatan","district":"Teluk Dalam","urban":"Hilinamozaua","postal_code":22865},{"province":"Sumatera Utara","city":"Nias Selatan","district":"Teluk Dalam","urban":"Hilinamozaua Raya","postal_code":22865},{"province":"Sumatera Utara","city":"Nias Selatan","district":"Mazino","urban":"Hilinawalo Mazino / Mazingo","postal_code":22865},{"province":"Sumatera Utara","city":"Nias Selatan","district":"Toma","urban":"Hilinamoniha","postal_code":22865},{"province":"Sumatera Utara","city":"Nias Selatan","district":"Teluk Dalam","urban":"Hilimondregeraya","postal_code":22865},{"province":"Sumatera Utara","city":"Nias Selatan","district":"Toma","urban":"Hilimagari","postal_code":22865},{"province":"Sumatera Utara","city":"Nias Selatan","district":"Maniamolo","urban":"Hilimae Namolo","postal_code":22865},{"province":"Sumatera Utara","city":"Nias Selatan","district":"Mazino","urban":"Hililaza Hilinawalo Mazino","postal_code":22865},{"province":"Sumatera Utara","city":"Nias Selatan","district":"Teluk Dalam","urban":"Hilikara","postal_code":22865},{"province":"Sumatera Utara","city":"Nias Selatan","district":"Teluk Dalam","urban":"Hililaza","postal_code":22865},{"province":"Sumatera Utara","city":"Nias Selatan","district":"Fanayama","urban":"Hilikara Maha","postal_code":22865},{"province":"Sumatera Utara","city":"Nias Selatan","district":"Fanayama","urban":"Hiligito","postal_code":22865},{"province":"Sumatera Utara","city":"Nias Selatan","district":"Teluk Dalam","urban":"Hiliganowo Salo&#8217;o","postal_code":22865},{"province":"Sumatera Utara","city":"Nias Selatan","district":"Teluk Dalam","urban":"Hiligeho","postal_code":22865},{"province":"Sumatera Utara","city":"Nias Selatan","district":"Mazino","urban":"Hilifondege Hilizoroilawa","postal_code":22865},{"province":"Sumatera Utara","city":"Nias Selatan","district":"Teluk Dalam","urban":"Hilifarono","postal_code":22865},{"province":"Sumatera Utara","city":"Nias Selatan","district":"Teluk Dalam","urban":"Hiliganowo","postal_code":22865},{"province":"Sumatera Utara","city":"Nias Selatan","district":"Fanayama","urban":"Hilifarokha","postal_code":22865},{"province":"Sumatera Utara","city":"Nias Selatan","district":"Maniamolo","urban":"Hilifalawu","postal_code":22865},{"province":"Sumatera Utara","city":"Nias Selatan","district":"Teluk Dalam","urban":"Hilifalago","postal_code":22865},{"province":"Sumatera Utara","city":"Nias Selatan","district":"Maniamolo","urban":"Hiliaurifa Hilisimaetano","postal_code":22865},{"province":"Sumatera Utara","city":"Nias Selatan","district":"Teluk Dalam","urban":"Hilifalago Raya","postal_code":22865},{"province":"Sumatera Utara","city":"Nias Selatan","district":"Teluk Dalam","urban":"Hiliamuri","postal_code":22865},{"province":"Sumatera Utara","city":"Nias Selatan","district":"Toma","urban":"Hiliasi","postal_code":22865},{"province":"Sumatera Utara","city":"Nias Selatan","district":"Teluk Dalam","urban":"Hiliana&#8217;a","postal_code":22865},{"province":"Sumatera Utara","city":"Nias Selatan","district":"Fanayama","urban":"Hiliamaetaniha","postal_code":22865},{"province":"Sumatera Utara","city":"Nias Selatan","district":"Toma","urban":"Hiliamaetaluo","postal_code":22865},{"province":"Sumatera Utara","city":"Nias Selatan","district":"Toma","urban":"Hilialawa","postal_code":22865},{"province":"Sumatera Utara","city":"Nias Selatan","district":"Teluk Dalam","urban":"Hilialito Saua","postal_code":22865},{"province":"Sumatera Utara","city":"Nias Selatan","district":"Fanayama","urban":"Ete Batu","postal_code":22865},{"province":"Sumatera Utara","city":"Nias Selatan","district":"Teluk Dalam","urban":"Ganowo Saua","postal_code":22865},{"province":"Sumatera Utara","city":"Nias Selatan","district":"Maniamolo","urban":"Faomasi Hilisimaetano","postal_code":22865},{"province":"Sumatera Utara","city":"Nias Selatan","district":"Fanayama","urban":"Botohilitano","postal_code":22865},{"province":"Sumatera Utara","city":"Nias Selatan","district":"Fanayama","urban":"Eho Orahili","postal_code":22865},{"province":"Sumatera Utara","city":"Nias Selatan","district":"Maniamolo","urban":"Eho Hilisimaetano","postal_code":22865},{"province":"Sumatera Utara","city":"Nias Selatan","district":"Fanayama","urban":"Botohili Sorake","postal_code":22865},{"province":"Sumatera Utara","city":"Nias Selatan","district":"Fanayama","urban":"Botohilisalo&#8217;o","postal_code":22865},{"province":"Sumatera Utara","city":"Nias Selatan","district":"Fanayama","urban":"Botohili Silambo","postal_code":22865},{"province":"Sumatera Utara","city":"Nias Selatan","district":"Maniamolo","urban":"Bawosaodano","postal_code":22865},{"province":"Sumatera Utara","city":"Nias Selatan","district":"Maniamolo","urban":"Bonia Hilisimaetano","postal_code":22865},{"province":"Sumatera Utara","city":"Nias Selatan","district":"Fanayama","urban":"Bawomataluo","postal_code":22865},{"province":"Sumatera Utara","city":"Nias Selatan","district":"Fanayama","urban":"Bawonahono","postal_code":22865},{"province":"Sumatera Utara","city":"Nias Selatan","district":"Maniamolo","urban":"Bawomaenamolo","postal_code":22865},{"province":"Sumatera Utara","city":"Nias Selatan","district":"Mazino","urban":"Bawolahusa","postal_code":22865},{"province":"Sumatera Utara","city":"Nias Selatan","district":"Maniamolo","urban":"Bawohosi Maniamolo","postal_code":22865},{"province":"Sumatera Utara","city":"Nias Selatan","district":"Mazino","urban":"Bawolahusa Doli-doli","postal_code":22865},{"province":"Sumatera Utara","city":"Nias Selatan","district":"Maniamolo","urban":"Bawogosali","postal_code":22865},{"province":"Sumatera Utara","city":"Nias Selatan","district":"Toma","urban":"Bawoganowo","postal_code":22865},{"province":"Sumatera Utara","city":"Nias Selatan","district":"Fanayama","urban":"Bawofanayama","postal_code":22865},{"province":"Sumatera Utara","city":"Nias Selatan","district":"Teluk Dalam","urban":"Bawo Nifaoso","postal_code":22865},{"province":"Sumatera Utara","city":"Nias Selatan","district":"Teluk Dalam","urban":"Bawo Zaua","postal_code":22865},{"province":"Sumatera Utara","city":"Nias Selatan","district":"Teluk Dalam","urban":"Bawo Dobara","postal_code":22865},{"province":"Sumatera Utara","city":"Nias Selatan","district":"Teluk Dalam","urban":"Bawo Lowalani","postal_code":22865}]