[{"province":"Sumatera Utara","city":"Nias Barat","district":"Sirombu","urban":"Tuwa Tuwa","postal_code":22863},{"province":"Sumatera Utara","city":"Nias Barat","district":"Sirombu","urban":"Tugala","postal_code":22863},{"province":"Sumatera Utara","city":"Nias Barat","district":"Sirombu","urban":"Tugalagawu","postal_code":22863},{"province":"Sumatera Utara","city":"Nias Barat","district":"Sirombu","urban":"Tetehosi","postal_code":22863},{"province":"Sumatera Utara","city":"Nias Barat","district":"Sirombu","urban":"Togideu","postal_code":22863},{"province":"Sumatera Utara","city":"Nias Barat","district":"Sirombu","urban":"Togim Bogi","postal_code":22863},{"province":"Sumatera Utara","city":"Nias Barat","district":"Sirombu","urban":"Sinene Eto","postal_code":22863},{"province":"Sumatera Utara","city":"Nias Barat","district":"Sirombu","urban":"Sirombu","postal_code":22863},{"province":"Sumatera Utara","city":"Nias Barat","district":"Sirombu","urban":"Sisobandrao","postal_code":22863},{"province":"Sumatera Utara","city":"Nias Barat","district":"Sirombu","urban":"Orahili","postal_code":22863},{"province":"Sumatera Utara","city":"Nias Barat","district":"Sirombu","urban":"Pulau Bogi","postal_code":22863},{"province":"Sumatera Utara","city":"Nias Barat","district":"Sirombu","urban":"Lahawa","postal_code":22863},{"province":"Sumatera Utara","city":"Nias Barat","district":"Sirombu","urban":"Lahusa","postal_code":22863},{"province":"Sumatera Utara","city":"Nias Barat","district":"Sirombu","urban":"Ombolata","postal_code":22863},{"province":"Sumatera Utara","city":"Nias Barat","district":"Sirombu","urban":"Imana","postal_code":22863},{"province":"Sumatera Utara","city":"Nias Barat","district":"Sirombu","urban":"Kafo Kafo","postal_code":22863},{"province":"Sumatera Utara","city":"Nias Barat","district":"Sirombu","urban":"Hilimberua","postal_code":22863},{"province":"Sumatera Utara","city":"Nias Barat","district":"Sirombu","urban":"Hinako","postal_code":22863},{"province":"Sumatera Utara","city":"Nias Barat","district":"Sirombu","urban":"Gunung Cahaya","postal_code":22863},{"province":"Sumatera Utara","city":"Nias Barat","district":"Sirombu","urban":"Halamona","postal_code":22863},{"province":"Sumatera Utara","city":"Nias Barat","district":"Sirombu","urban":"Hanofa","postal_code":22863},{"province":"Sumatera Utara","city":"Nias Barat","district":"Sirombu","urban":"Bawosaloo","postal_code":22863},{"province":"Sumatera Utara","city":"Nias Barat","district":"Sirombu","urban":"Fadoro","postal_code":22863},{"province":"Sumatera Utara","city":"Nias Barat","district":"Sirombu","urban":"Bawasawa","postal_code":22863},{"province":"Sumatera Utara","city":"Nias Barat","district":"Sirombu","urban":"Balowondrate","postal_code":22863}]