[{"province":"Sumatera Utara","city":"Nias Barat","district":"Mandrehe","urban":"ZuzuNdrao","postal_code":22862},{"province":"Sumatera Utara","city":"Nias Barat","district":"Mandrehe","urban":"Tumori","postal_code":22862},{"province":"Sumatera Utara","city":"Nias Barat","district":"Mandrehe","urban":"Tuwuuna","postal_code":22862},{"province":"Sumatera Utara","city":"Nias Barat","district":"Mandrehe","urban":"Tuhemberua","postal_code":22862},{"province":"Sumatera Utara","city":"Nias Barat","district":"Mandrehe","urban":"Tuho&#8217;owo","postal_code":22862},{"province":"Sumatera Utara","city":"Nias Barat","district":"Mandrehe","urban":"Tetehosi","postal_code":22862},{"province":"Sumatera Utara","city":"Nias Barat","district":"Moro'o","urban":"Sitolu Ewali","postal_code":22862},{"province":"Sumatera Utara","city":"Nias Barat","district":"Mandrehe","urban":"Sisarahili I","postal_code":22862},{"province":"Sumatera Utara","city":"Nias Barat","district":"Moro'o","urban":"Sitolu Banua Fadoro","postal_code":22862},{"province":"Sumatera Utara","city":"Nias Barat","district":"Mandrehe","urban":"Simae&#8217;asi","postal_code":22862},{"province":"Sumatera Utara","city":"Nias Barat","district":"Moro'o","urban":"Sidua Hili","postal_code":22862},{"province":"Sumatera Utara","city":"Nias Barat","district":"Mandrehe","urban":"Siana&#8217;a","postal_code":22862},{"province":"Sumatera Utara","city":"Nias Barat","district":"Moro'o","urban":"Onozalukhu You","postal_code":22862},{"province":"Sumatera Utara","city":"Nias Barat","district":"Ulu Moro'o (Ulu Narwo)","urban":"Saloo","postal_code":22862},{"province":"Sumatera Utara","city":"Nias Barat","district":"Mandrehe","urban":"Lolozirugi","postal_code":22862},{"province":"Sumatera Utara","city":"Nias Barat","district":"Mandrehe","urban":"Lologolu","postal_code":22862},{"province":"Sumatera Utara","city":"Nias Barat","district":"Ulu Moro'o (Ulu Narwo)","urban":"Lawelu","postal_code":22862},{"province":"Sumatera Utara","city":"Nias Barat","district":"Mandrehe","urban":"Lasara Baene","postal_code":22862},{"province":"Sumatera Utara","city":"Nias Barat","district":"Moro'o","urban":"Lasara Bahili","postal_code":22862},{"province":"Sumatera Utara","city":"Nias Barat","district":"Mandrehe","urban":"Lakhena","postal_code":22862},{"province":"Sumatera Utara","city":"Nias Barat","district":"Mandrehe","urban":"Iriani Gambo","postal_code":22862},{"province":"Sumatera Utara","city":"Nias Barat","district":"Mandrehe","urban":"Iraono Gambo","postal_code":22862},{"province":"Sumatera Utara","city":"Nias Barat","district":"Moro'o","urban":"Hiliwaloo II","postal_code":22862},{"province":"Sumatera Utara","city":"Nias Barat","district":"Mandrehe","urban":"Hiliwalo&#8217;o I","postal_code":22862},{"province":"Sumatera Utara","city":"Nias Barat","district":"Moro'o","urban":"Hilifadolo","postal_code":22862},{"province":"Sumatera Utara","city":"Nias Barat","district":"Ulu Moro'o (Ulu Narwo)","urban":"Hilisangawola","postal_code":22862},{"province":"Sumatera Utara","city":"Nias Barat","district":"Ulu Moro'o (Ulu Narwo)","urban":"Hilibadalu","postal_code":22862},{"province":"Sumatera Utara","city":"Nias Barat","district":"Moro'o","urban":"Hili Waele","postal_code":22862},{"province":"Sumatera Utara","city":"Nias Barat","district":"Moro'o","urban":"Gunung Baru","postal_code":22862},{"province":"Sumatera Utara","city":"Nias Barat","district":"Moro'o","urban":"Hili Soromi","postal_code":22862},{"province":"Sumatera Utara","city":"Nias Barat","district":"Mandrehe","urban":"Fadoro Bahili","postal_code":22862},{"province":"Sumatera Utara","city":"Nias Barat","district":"Mandrehe","urban":"Fadoro","postal_code":22862},{"province":"Sumatera Utara","city":"Nias Barat","district":"Mandrehe","urban":"Doli-Doli","postal_code":22862},{"province":"Sumatera Utara","city":"Nias Barat","district":"Ulu Moro'o (Ulu Narwo)","urban":"Bukit Tinggi","postal_code":22862}]