[{"province":"Sumatera Utara","city":"Nias Selatan","district":"Umbunasi","urban":"Umbunasi","postal_code":22873},{"province":"Sumatera Utara","city":"Nias Selatan","district":"Gomo","urban":"Umbu Orahua","postal_code":22873},{"province":"Sumatera Utara","city":"Nias Selatan","district":"Mazo","urban":"Ulu Mazo","postal_code":22873},{"province":"Sumatera Utara","city":"Nias Selatan","district":"Gomo","urban":"Umbu Idano Tae","postal_code":22873},{"province":"Sumatera Utara","city":"Nias Selatan","district":"Boronadu","urban":"Tuhegafoa","postal_code":22873},{"province":"Sumatera Utara","city":"Nias Selatan","district":"Umbunasi","urban":"Tobualo","postal_code":22873},{"province":"Sumatera Utara","city":"Nias Selatan","district":"Mazo","urban":"Tetegawa&#8217;ai Ehomo","postal_code":22873},{"province":"Sumatera Utara","city":"Nias Selatan","district":"Mazo","urban":"Tetegawa&#8217;ai Ehomo","postal_code":22873},{"province":"Sumatera Utara","city":"Nias Selatan","district":"Gomo","urban":"Tanoniko&#8217;o","postal_code":22873},{"province":"Sumatera Utara","city":"Nias Selatan","district":"Mazo","urban":"Tafulu","postal_code":22873},{"province":"Sumatera Utara","city":"Nias Selatan","district":"Gomo","urban":"Sisiwa Ewali","postal_code":22873},{"province":"Sumatera Utara","city":"Nias Selatan","district":"Susua","urban":"Sisobahili","postal_code":22873},{"province":"Sumatera Utara","city":"Nias Selatan","district":"Gomo","urban":"Suka Maju Mohili","postal_code":22873},{"province":"Sumatera Utara","city":"Nias Selatan","district":"Gomo","urban":"Sirahia","postal_code":22873},{"province":"Sumatera Utara","city":"Nias Selatan","district":"Gomo","urban":"Sisarahili Ewo","postal_code":22873},{"province":"Sumatera Utara","city":"Nias Selatan","district":"Boronadu","urban":"Siraha (Sirahia)","postal_code":22873},{"province":"Sumatera Utara","city":"Nias Selatan","district":"Umbunasi","urban":"Sindrolo","postal_code":22873},{"province":"Sumatera Utara","city":"Nias Selatan","district":"Mazo","urban":"Siofabanua","postal_code":22873},{"province":"Sumatera Utara","city":"Nias Selatan","district":"Umbunasi","urban":"Silima Banua Umbunasi","postal_code":22873},{"province":"Sumatera Utara","city":"Nias Selatan","district":"Boronadu","urban":"Sinar Helaowo","postal_code":22873},{"province":"Sumatera Utara","city":"Nias Selatan","district":"Umbunasi","urban":"Sifaoroasi Mola","postal_code":22873},{"province":"Sumatera Utara","city":"Nias Selatan","district":"Boronadu","urban":"Siholi","postal_code":22873},{"province":"Sumatera Utara","city":"Nias Selatan","district":"Gomo","urban":"Sifaoroasi Gomo","postal_code":22873},{"province":"Sumatera Utara","city":"Nias Selatan","district":"Susua","urban":"Sifalago Susua","postal_code":22873},{"province":"Sumatera Utara","city":"Nias Selatan","district":"Boronadu","urban":"Perjuangan","postal_code":22873},{"province":"Sumatera Utara","city":"Nias Selatan","district":"Boronadu","urban":"Sifalago Gomo","postal_code":22873},{"province":"Sumatera Utara","city":"Nias Selatan","district":"Umbunasi","urban":"Orlin","postal_code":22873},{"province":"Sumatera Utara","city":"Nias Selatan","district":"Umbunasi","urban":"Orlin","postal_code":22873},{"province":"Sumatera Utara","city":"Nias Selatan","district":"Mazo","urban":"Orahuahili","postal_code":22873},{"province":"Sumatera Utara","city":"Nias Selatan","district":"Gomo","urban":"Orahua","postal_code":22873},{"province":"Sumatera Utara","city":"Nias Selatan","district":"Susua","urban":"Orahua Uluzoi","postal_code":22873},{"province":"Sumatera Utara","city":"Nias Selatan","district":"Susua","urban":"Orahili Susua","postal_code":22873},{"province":"Sumatera Utara","city":"Nias Selatan","district":"Gomo","urban":"Orahili Gomo","postal_code":22873},{"province":"Sumatera Utara","city":"Nias Selatan","district":"Gomo","urban":"Orahili Sibohou","postal_code":22873},{"province":"Sumatera Utara","city":"Nias Selatan","district":"Umbunasi","urban":"Orahili Mola","postal_code":22873},{"province":"Sumatera Utara","city":"Nias Selatan","district":"Susua","urban":"Orahili Boe","postal_code":22873},{"province":"Sumatera Utara","city":"Nias Selatan","district":"Mazo","urban":"Luahandroito","postal_code":22873},{"province":"Sumatera Utara","city":"Nias Selatan","district":"Gomo","urban":"Lolosoni","postal_code":22873},{"province":"Sumatera Utara","city":"Nias Selatan","district":"Umbunasi","urban":"Lolozukhu","postal_code":22873},{"province":"Sumatera Utara","city":"Nias Selatan","district":"Boronadu","urban":"Lewa-Lewa","postal_code":22873},{"province":"Sumatera Utara","city":"Nias Selatan","district":"Gomo","urban":"Lawa-Lawaluo Idano Tae","postal_code":22873},{"province":"Sumatera Utara","city":"Nias Selatan","district":"Umbunasi","urban":"Lawindra","postal_code":22873},{"province":"Sumatera Utara","city":"Nias Selatan","district":"Gomo","urban":"Lahusa Idano Tae","postal_code":22873},{"province":"Sumatera Utara","city":"Nias Selatan","district":"Gomo","urban":"Lawa-Lawaluo Gomo","postal_code":22873},{"province":"Sumatera Utara","city":"Nias Selatan","district":"Susua","urban":"Hiliwaebu","postal_code":22873},{"province":"Sumatera Utara","city":"Nias Selatan","district":"Susua","urban":"Hilizamurugo","postal_code":22873},{"province":"Sumatera Utara","city":"Nias Selatan","district":"Susua","urban":"Hilitobara Susua","postal_code":22873},{"province":"Sumatera Utara","city":"Nias Selatan","district":"Umbunasi","urban":"Hiliuso","postal_code":22873},{"province":"Sumatera Utara","city":"Nias Selatan","district":"Gomo","urban":"Hiliserangkai","postal_code":22873},{"province":"Sumatera Utara","city":"Nias Selatan","district":"Susua","urban":"Hilisibohou","postal_code":22873},{"province":"Sumatera Utara","city":"Nias Selatan","district":"Gomo","urban":"Hilisalo&#8217;o","postal_code":22873},{"province":"Sumatera Utara","city":"Nias Selatan","district":"Susua","urban":"Hilioru dua","postal_code":22873},{"province":"Sumatera Utara","city":"Nias Selatan","district":"Gomo","urban":"Hilimbowo Idano Tae","postal_code":22873},{"province":"Sumatera Utara","city":"Nias Selatan","district":"Susua","urban":"Hiliorahua","postal_code":22873},{"province":"Sumatera Utara","city":"Nias Selatan","district":"Susua","urban":"Hilimboe","postal_code":22873},{"province":"Sumatera Utara","city":"Nias Selatan","district":"Susua","urban":"Hilimboho","postal_code":22873},{"province":"Sumatera Utara","city":"Nias Selatan","district":"Mazo","urban":"Hilimaufa","postal_code":22873},{"province":"Sumatera Utara","city":"Nias Selatan","district":"Mazo","urban":"Hilimbaruzo","postal_code":22873},{"province":"Sumatera Utara","city":"Nias Selatan","district":"Gomo","urban":"Hiligabungan","postal_code":22873},{"province":"Sumatera Utara","city":"Nias Selatan","district":"Susua","urban":"Hilidanayao","postal_code":22873},{"province":"Sumatera Utara","city":"Nias Selatan","district":"Umbunasi","urban":"Hilibadalu","postal_code":22873},{"province":"Sumatera Utara","city":"Nias Selatan","district":"Susua","urban":"Hilianaa Susua","postal_code":22873},{"province":"Sumatera Utara","city":"Nias Selatan","district":"Gomo","urban":"Hilialo&#8217;oa","postal_code":22873},{"province":"Sumatera Utara","city":"Nias Selatan","district":"Gomo","urban":"Hilianaa Gomo","postal_code":22873},{"province":"Sumatera Utara","city":"Nias Selatan","district":"Susua","urban":"Hiliadulosoi","postal_code":22873},{"province":"Sumatera Utara","city":"Nias Selatan","district":"Gomo","urban":"Gununggabungan","postal_code":22873},{"province":"Sumatera Utara","city":"Nias Selatan","district":"Gomo","urban":"Harefa Orahua","postal_code":22873},{"province":"Sumatera Utara","city":"Nias Selatan","district":"Mazo","urban":"Guigui","postal_code":22873},{"province":"Sumatera Utara","city":"Nias Selatan","district":"Gomo","urban":"Fonedanu","postal_code":22873},{"province":"Sumatera Utara","city":"Nias Selatan","district":"Umbunasi","urban":"Foikhugaga","postal_code":22873},{"province":"Sumatera Utara","city":"Nias Selatan","district":"Gomo","urban":"Fanedanu Sibohou","postal_code":22873},{"province":"Sumatera Utara","city":"Nias Selatan","district":"Gomo","urban":"Doli-Doli Idano Tae","postal_code":22873},{"province":"Sumatera Utara","city":"Nias Selatan","district":"Gomo","urban":"Dao-dao Zanuwo Idano Tae","postal_code":22873},{"province":"Sumatera Utara","city":"Nias Selatan","district":"Susua","urban":"Dao-dao Zanuwo","postal_code":22873},{"province":"Sumatera Utara","city":"Nias Selatan","district":"Gomo","urban":"Damai","postal_code":22873},{"province":"Sumatera Utara","city":"Nias Selatan","district":"Gomo","urban":"Buhawa","postal_code":22873},{"province":"Sumatera Utara","city":"Nias Selatan","district":"Boronadu","urban":"Bohalu","postal_code":22873},{"province":"Sumatera Utara","city":"Nias Selatan","district":"Susua","urban":"Bintang Baru","postal_code":22873},{"province":"Sumatera Utara","city":"Nias Selatan","district":"Gomo","urban":"Balombaruzo Orahua","postal_code":22873},{"province":"Sumatera Utara","city":"Nias Selatan","district":"Umbunasi","urban":"Balohili Mola","postal_code":22873},{"province":"Sumatera Utara","city":"Nias Selatan","district":"Boronadu","urban":"Balohili Gomo","postal_code":22873},{"province":"Sumatera Utara","city":"Nias Selatan","district":"Gomo","urban":"Awoni","postal_code":22873},{"province":"Sumatera Utara","city":"Nias Selatan","district":"Umbunasi","urban":"Ambukha","postal_code":22873}]