[{"province":"Sumatera Utara","city":"Gunungsitoli","district":"Gunungsitoli Idanoi","urban":"Tuhegeo I","postal_code":22871},{"province":"Sumatera Utara","city":"Gunungsitoli","district":"Gunungsitoli Idanoi","urban":"Tuhegeo II","postal_code":22871},{"province":"Sumatera Utara","city":"Gunungsitoli","district":"Gunungsitoli Idanoi","urban":"Tetehosi II","postal_code":22871},{"province":"Sumatera Utara","city":"Gunungsitoli","district":"Gunungsitoli Idanoi","urban":"Tetehosi I","postal_code":22871},{"province":"Sumatera Utara","city":"Gunungsitoli","district":"Gunungsitoli Idanoi","urban":"Siwalubanua I","postal_code":22871},{"province":"Sumatera Utara","city":"Gunungsitoli","district":"Gunungsitoli Idanoi","urban":"Siwalubanua II","postal_code":22871},{"province":"Sumatera Utara","city":"Gunungsitoli","district":"Gunungsitoli Idanoi","urban":"Simanaere","postal_code":22871},{"province":"Sumatera Utara","city":"Gunungsitoli","district":"Gunungsitoli Idanoi","urban":"Samasi","postal_code":22871},{"province":"Sumatera Utara","city":"Gunungsitoli","district":"Gunungsitoli Idanoi","urban":"Sifalaete","postal_code":22871},{"province":"Sumatera Utara","city":"Gunungsitoli","district":"Gunungsitoli Idanoi","urban":"Onowaembo","postal_code":22871},{"province":"Sumatera Utara","city":"Gunungsitoli","district":"Gunungsitoli Idanoi","urban":"Ombolata","postal_code":22871},{"province":"Sumatera Utara","city":"Gunungsitoli","district":"Gunungsitoli Idanoi","urban":"Loloanaa Idanoi","postal_code":22871},{"province":"Sumatera Utara","city":"Gunungsitoli","district":"Gunungsitoli Idanoi","urban":"Lewuoguru Idanoi","postal_code":22871},{"province":"Sumatera Utara","city":"Gunungsitoli","district":"Gunungsitoli Idanoi","urban":"Humene","postal_code":22871},{"province":"Sumatera Utara","city":"Gunungsitoli","district":"Gunungsitoli Idanoi","urban":"Idanotae","postal_code":22871},{"province":"Sumatera Utara","city":"Gunungsitoli","district":"Gunungsitoli Idanoi","urban":"Hiliweto Idanoi","postal_code":22871},{"province":"Sumatera Utara","city":"Gunungsitoli","district":"Gunungsitoli Idanoi","urban":"Hilimbowo Idanoi","postal_code":22871},{"province":"Sumatera Utara","city":"Gunungsitoli","district":"Gunungsitoli Idanoi","urban":"Hilimbawo Desolo","postal_code":22871},{"province":"Sumatera Utara","city":"Gunungsitoli","district":"Gunungsitoli Idanoi","urban":"Hilihambawa","postal_code":22871},{"province":"Sumatera Utara","city":"Gunungsitoli","district":"Gunungsitoli Idanoi","urban":"Helefanikha","postal_code":22871},{"province":"Sumatera Utara","city":"Gunungsitoli","district":"Gunungsitoli Idanoi","urban":"Fadoro","postal_code":22871},{"province":"Sumatera Utara","city":"Gunungsitoli","district":"Gunungsitoli Idanoi","urban":"Fowa","postal_code":22871},{"province":"Sumatera Utara","city":"Gunungsitoli","district":"Gunungsitoli Idanoi","urban":"Binaka","postal_code":22871},{"province":"Sumatera Utara","city":"Gunungsitoli","district":"Gunungsitoli Idanoi","urban":"Dahana","postal_code":22871},{"province":"Sumatera Utara","city":"Gunungsitoli","district":"Gunungsitoli Idanoi","urban":"Bawodesolo","postal_code":22871},{"province":"Sumatera Utara","city":"Gunungsitoli","district":"Gunungsitoli Idanoi","urban":"Awaai","postal_code":22871},{"province":"Sumatera Utara","city":"Nias","district":"Sogae Adu (Sogaeadu)","urban":"Wea-Wea","postal_code":22871},{"province":"Sumatera Utara","city":"Nias","district":"Gido","urban":"Umbu","postal_code":22871},{"province":"Sumatera Utara","city":"Nias","district":"Sogae Adu (Sogaeadu)","urban":"Tulumbaho","postal_code":22871},{"province":"Sumatera Utara","city":"Nias","district":"Gido","urban":"Tulumbaho Salo&#8217;o","postal_code":22871},{"province":"Sumatera Utara","city":"Nias","district":"Sogae Adu (Sogaeadu)","urban":"Tuhembuasi","postal_code":22871},{"province":"Sumatera Utara","city":"Nias","district":"Somolo-Molo (Samolo)","urban":"Somolo-Molo","postal_code":22871},{"province":"Sumatera Utara","city":"Nias","district":"Gido","urban":"Somi","postal_code":22871},{"province":"Sumatera Utara","city":"Nias","district":"Gido","urban":"Somi Botogo&#8217;o","postal_code":22871},{"province":"Sumatera Utara","city":"Nias","district":"Gido","urban":"Soewe (Saewe)","postal_code":22871},{"province":"Sumatera Utara","city":"Nias","district":"Somolo-Molo (Samolo)","urban":"So&#8217;ewali","postal_code":22871},{"province":"Sumatera Utara","city":"Nias","district":"Sogae Adu (Sogaeadu)","urban":"Sogaeadu","postal_code":22871},{"province":"Sumatera Utara","city":"Nias","district":"Gido","urban":"Sisobahili","postal_code":22871},{"province":"Sumatera Utara","city":"Nias","district":"Somolo-Molo (Samolo)","urban":"Sisobawino I","postal_code":22871},{"province":"Sumatera Utara","city":"Nias","district":"Somolo-Molo (Samolo)","urban":"Sisaratandrawa","postal_code":22871},{"province":"Sumatera Utara","city":"Nias","district":"Sogae Adu (Sogaeadu)","urban":"Sisarahili Sogeadu","postal_code":22871},{"province":"Sumatera Utara","city":"Nias","district":"Gido","urban":"Sirete","postal_code":22871},{"province":"Sumatera Utara","city":"Nias","district":"Sogae Adu (Sogaeadu)","urban":"Sihareo Sogaeadu","postal_code":22871},{"province":"Sumatera Utara","city":"Nias","district":"Somolo-Molo (Samolo)","urban":"Sifaoroasi","postal_code":22871},{"province":"Sumatera Utara","city":"Nias","district":"Sogae Adu (Sogaeadu)","urban":"Saitagaramba (Saetagaramba)","postal_code":22871},{"province":"Sumatera Utara","city":"Nias","district":"Gido","urban":"Olindrawa Sisarahili","postal_code":22871},{"province":"Sumatera Utara","city":"Nias","district":"Gido","urban":"Lolozasai","postal_code":22871},{"province":"Sumatera Utara","city":"Nias","district":"Gido","urban":"Nifolo&#8217;o Lauru","postal_code":22871},{"province":"Sumatera Utara","city":"Nias","district":"Gido","urban":"Loloanaa Gido","postal_code":22871},{"province":"Sumatera Utara","city":"Nias","district":"Somolo-Molo (Samolo)","urban":"Lewuombanua","postal_code":22871},{"province":"Sumatera Utara","city":"Nias","district":"Somolo-Molo (Samolo)","urban":"Lewuoguru I","postal_code":22871},{"province":"Sumatera Utara","city":"Nias","district":"Sogae Adu (Sogaeadu)","urban":"Lauri","postal_code":22871},{"province":"Sumatera Utara","city":"Nias","district":"Gido","urban":"Lasara Idanoi","postal_code":22871},{"province":"Sumatera Utara","city":"Nias","district":"Gido","urban":"Lasela","postal_code":22871},{"province":"Sumatera Utara","city":"Nias","district":"Gido","urban":"Ladea","postal_code":22871},{"province":"Sumatera Utara","city":"Nias","district":"Gido","urban":"Ladea Orahua","postal_code":22871},{"province":"Sumatera Utara","city":"Nias","district":"Gido","urban":"Lahemo","postal_code":22871},{"province":"Sumatera Utara","city":"Nias","district":"Somolo-Molo (Samolo)","urban":"Iodano","postal_code":22871},{"province":"Sumatera Utara","city":"Nias","district":"Somolo-Molo (Samolo)","urban":"Huno (Hino)","postal_code":22871},{"province":"Sumatera Utara","city":"Nias","district":"Gido","urban":"Hilizoi","postal_code":22871},{"province":"Sumatera Utara","city":"Nias","district":"Gido","urban":"Hiliotalua","postal_code":22871},{"province":"Sumatera Utara","city":"Nias","district":"Gido","urban":"Hilisebua","postal_code":22871},{"province":"Sumatera Utara","city":"Nias","district":"Gido","urban":"Hiliweto Gido","postal_code":22871},{"province":"Sumatera Utara","city":"Nias","district":"Sogae Adu (Sogaeadu)","urban":"Hilimbana","postal_code":22871},{"province":"Sumatera Utara","city":"Nias","district":"Somolo-Molo (Samolo)","urban":"Hiliborodano","postal_code":22871},{"province":"Sumatera Utara","city":"Nias","district":"Somolo-Molo (Samolo)","urban":"Hiligodu Somolo-Molo","postal_code":22871},{"province":"Sumatera Utara","city":"Nias","district":"Sogae Adu (Sogaeadu)","urban":"Hilibadalu","postal_code":22871},{"province":"Sumatera Utara","city":"Nias","district":"Sogae Adu (Sogaeadu)","urban":"Baruzo","postal_code":22871},{"province":"Sumatera Utara","city":"Nias","district":"Gido","urban":"Akhelaume","postal_code":22871}]