[{"province":"Sumatera Utara","city":"Nias","district":"Bawolato","urban":"Sitolubanua","postal_code":22876},{"province":"Sumatera Utara","city":"Nias","district":"Bawolato","urban":"Sohoya","postal_code":22876},{"province":"Sumatera Utara","city":"Nias","district":"Bawolato","urban":"Tagaule","postal_code":22876},{"province":"Sumatera Utara","city":"Nias","district":"Bawolato","urban":"Siofaewali","postal_code":22876},{"province":"Sumatera Utara","city":"Nias","district":"Bawolato","urban":"Sisarahili Bawolato","postal_code":22876},{"province":"Sumatera Utara","city":"Nias","district":"Bawolato","urban":"Siofabanua","postal_code":22876},{"province":"Sumatera Utara","city":"Nias","district":"Bawolato","urban":"Sifaoroasi Uluhou","postal_code":22876},{"province":"Sumatera Utara","city":"Nias","district":"Bawolato","urban":"Sindrondro","postal_code":22876},{"province":"Sumatera Utara","city":"Nias","district":"Bawolato","urban":"Orahua Faondrato","postal_code":22876},{"province":"Sumatera Utara","city":"Nias","district":"Bawolato","urban":"Si&#8217;ofaewali Selatan","postal_code":22876},{"province":"Sumatera Utara","city":"Nias","district":"Bawolato","urban":"Lagasimahe","postal_code":22876},{"province":"Sumatera Utara","city":"Nias","district":"Bawolato","urban":"Orahili","postal_code":22876},{"province":"Sumatera Utara","city":"Nias","district":"Bawolato","urban":"Orahua","postal_code":22876},{"province":"Sumatera Utara","city":"Nias","district":"Bawolato","urban":"Hilihao Cugala","postal_code":22876},{"province":"Sumatera Utara","city":"Nias","district":"Bawolato","urban":"Hiliwarokha","postal_code":22876},{"province":"Sumatera Utara","city":"Nias","district":"Bawolato","urban":"Hou","postal_code":22876},{"province":"Sumatera Utara","city":"Nias","district":"Bawolato","urban":"Hilialawa","postal_code":22876},{"province":"Sumatera Utara","city":"Nias","district":"Bawolato","urban":"Hilifaosi","postal_code":22876},{"province":"Sumatera Utara","city":"Nias","district":"Bawolato","urban":"Hiliganoita","postal_code":22876},{"province":"Sumatera Utara","city":"Nias","district":"Bawolato","urban":"Banua Sibohou Silima Ewali","postal_code":22876},{"province":"Sumatera Utara","city":"Nias","district":"Bawolato","urban":"Botohaenga","postal_code":22876},{"province":"Sumatera Utara","city":"Nias","district":"Bawolato","urban":"Gazamanu","postal_code":22876},{"province":"Sumatera Utara","city":"Nias","district":"Bawolato","urban":"Balale Toba&#8217;a","postal_code":22876}]