[{"province":"Sumatera Utara","city":"Nias Selatan","district":"Sidua'ori","urban":"Uluidanoduo","postal_code":22874},{"province":"Sumatera Utara","city":"Nias Selatan","district":"Sidua'ori","urban":"Umbu Sohahua","postal_code":22874},{"province":"Sumatera Utara","city":"Nias Selatan","district":"Lahusa","urban":"Tetezou (Fetezou)","postal_code":22874},{"province":"Sumatera Utara","city":"Nias Selatan","district":"Sidua'ori","urban":"Taluzusua","postal_code":22874},{"province":"Sumatera Utara","city":"Nias Selatan","district":"Somambawa","urban":"Siwalubanua","postal_code":22874},{"province":"Sumatera Utara","city":"Nias Selatan","district":"Somambawa","urban":"Somambawa","postal_code":22874},{"province":"Sumatera Utara","city":"Nias Selatan","district":"Lahusa","urban":"Sobawagoli","postal_code":22874},{"province":"Sumatera Utara","city":"Nias Selatan","district":"Lahusa","urban":"Sinar Baho","postal_code":22874},{"province":"Sumatera Utara","city":"Nias Selatan","district":"Lahusa","urban":"Sinar Baru","postal_code":22874},{"province":"Sumatera Utara","city":"Nias Selatan","district":"Somambawa","urban":"Sinar Susua","postal_code":22874},{"province":"Sumatera Utara","city":"Nias Selatan","district":"Somambawa","urban":"Sitolu Banua","postal_code":22874},{"province":"Sumatera Utara","city":"Nias Selatan","district":"Somambawa","urban":"Silimabanua Somambawa","postal_code":22874},{"province":"Sumatera Utara","city":"Nias Selatan","district":"Somambawa","urban":"Sihareo","postal_code":22874},{"province":"Sumatera Utara","city":"Nias Selatan","district":"Somambawa","urban":"Sifitubanua","postal_code":22874},{"province":"Sumatera Utara","city":"Nias Selatan","district":"Lahusa","urban":"Orahili Balaekha","postal_code":22874},{"province":"Sumatera Utara","city":"Nias Selatan","district":"Lahusa","urban":"Sarahililaza","postal_code":22874},{"province":"Sumatera Utara","city":"Nias Selatan","district":"Sidua'ori","urban":"Olanori","postal_code":22874},{"province":"Sumatera Utara","city":"Nias Selatan","district":"Somambawa","urban":"Oladano","postal_code":22874},{"province":"Sumatera Utara","city":"Nias Selatan","district":"Sidua'ori","urban":"Mondrowe","postal_code":22874},{"province":"Sumatera Utara","city":"Nias Selatan","district":"Sidua'ori","urban":"Na&#8217;ai","postal_code":22874},{"province":"Sumatera Utara","city":"Nias Selatan","district":"Lahusa","urban":"Oikhoda Balaekha","postal_code":22874},{"province":"Sumatera Utara","city":"Nias Selatan","district":"Somambawa","urban":"Mehaga","postal_code":22874},{"province":"Sumatera Utara","city":"Nias Selatan","district":"Lahusa","urban":"Mogae","postal_code":22874},{"province":"Sumatera Utara","city":"Nias Selatan","district":"Lahusa","urban":"Lahusa","postal_code":22874},{"province":"Sumatera Utara","city":"Nias Selatan","district":"Lahusa","urban":"Lahusa Satu","postal_code":22874},{"province":"Sumatera Utara","city":"Nias Selatan","district":"Sidua'ori","urban":"Hoya","postal_code":22874},{"province":"Sumatera Utara","city":"Nias Selatan","district":"Lahusa","urban":"Hilizomboi","postal_code":22874},{"province":"Sumatera Utara","city":"Nias Selatan","district":"Lahusa","urban":"Hiliwatema","postal_code":22874},{"province":"Sumatera Utara","city":"Nias Selatan","district":"Sidua'ori","urban":"Hilizanuwo","postal_code":22874},{"province":"Sumatera Utara","city":"Nias Selatan","district":"Lahusa","urban":"Hiliorudua","postal_code":22874},{"province":"Sumatera Utara","city":"Nias Selatan","district":"Lahusa","urban":"Hilisimaetano","postal_code":22874},{"province":"Sumatera Utara","city":"Nias Selatan","district":"Sidua'ori","urban":"Hilisao&#8217;oto","postal_code":22874},{"province":"Sumatera Utara","city":"Nias Selatan","district":"Somambawa","urban":"Hiliorahua Tasua","postal_code":22874},{"province":"Sumatera Utara","city":"Nias Selatan","district":"Lahusa","urban":"Hilinawalo Balaekha","postal_code":22874},{"province":"Sumatera Utara","city":"Nias Selatan","district":"Sidua'ori","urban":"Hilidohona","postal_code":22874},{"province":"Sumatera Utara","city":"Nias Selatan","district":"Sidua'ori","urban":"Hililaora","postal_code":22874},{"province":"Sumatera Utara","city":"Nias Selatan","district":"Lahusa","urban":"Hiligambukha","postal_code":22874},{"province":"Sumatera Utara","city":"Nias Selatan","district":"Lahusa","urban":"Harenoro","postal_code":22874},{"province":"Sumatera Utara","city":"Nias Selatan","district":"Lahusa","urban":"Hiliabolata","postal_code":22874},{"province":"Sumatera Utara","city":"Nias Selatan","district":"Somambawa","urban":"Hilialawa","postal_code":22874},{"province":"Sumatera Utara","city":"Nias Selatan","district":"Lahusa","urban":"Golambanua I","postal_code":22874},{"province":"Sumatera Utara","city":"Nias Selatan","district":"Somambawa","urban":"Golambanua II","postal_code":22874},{"province":"Sumatera Utara","city":"Nias Selatan","district":"Somambawa","urban":"Fanedanu","postal_code":22874},{"province":"Sumatera Utara","city":"Nias Selatan","district":"Somambawa","urban":"Gabungan Tasua","postal_code":22874},{"province":"Sumatera Utara","city":"Nias Selatan","district":"Lahusa","urban":"Bawolato","postal_code":22874},{"province":"Sumatera Utara","city":"Nias Selatan","district":"Lahusa","urban":"Bawootalua","postal_code":22874},{"province":"Sumatera Utara","city":"Nias Selatan","district":"Lahusa","urban":"Bawozihono","postal_code":22874},{"province":"Sumatera Utara","city":"Nias Selatan","district":"Lahusa","urban":"Angorudua Balaekha","postal_code":22874}]