[{"province":"Sumatera Utara","city":"Nias Selatan","district":"Pulau-Pulau Batu Utara","urban":"Ziabiang","postal_code":22881},{"province":"Sumatera Utara","city":"Nias Selatan","district":"Pulau-Pulau Batu Utara","urban":"Teluk Limo","postal_code":22881},{"province":"Sumatera Utara","city":"Nias Selatan","district":"Pulau-Pulau Batu Utara","urban":"Wawa","postal_code":22881},{"province":"Sumatera Utara","city":"Nias Selatan","district":"Hibala","urban":"Tuwaso","postal_code":22881},{"province":"Sumatera Utara","city":"Nias Selatan","district":"Hibala","urban":"Tano Mokinu","postal_code":22881},{"province":"Sumatera Utara","city":"Nias Selatan","district":"Hibala","urban":"Tebolo Melayu","postal_code":22881},{"province":"Sumatera Utara","city":"Nias Selatan","district":"Pulau-Pulau Batu","urban":"Siofa Ewali","postal_code":22881},{"province":"Sumatera Utara","city":"Nias Selatan","district":"Pulau-Pulau Batu","urban":"Sisarahili","postal_code":22881},{"province":"Sumatera Utara","city":"Nias Selatan","district":"Pulau-Pulau Batu Utara","urban":"Siofa Banua Lorang","postal_code":22881},{"province":"Sumatera Utara","city":"Nias Selatan","district":"Pulau-Pulau Batu Barat","urban":"Sigese","postal_code":22881},{"province":"Sumatera Utara","city":"Nias Selatan","district":"Pulau-Pulau Batu Utara","urban":"Siofa Banua Marit","postal_code":22881},{"province":"Sumatera Utara","city":"Nias Selatan","district":"Pulau-Pulau Batu","urban":"Silimaewali","postal_code":22881},{"province":"Sumatera Utara","city":"Nias Selatan","district":"Pulau-Pulau Batu","urban":"Sinauru","postal_code":22881},{"province":"Sumatera Utara","city":"Nias Selatan","district":"Pulau-Pulau Batu","urban":"Sifitu Ewali","postal_code":22881},{"province":"Sumatera Utara","city":"Nias Selatan","district":"Simuk","urban":"Silina","postal_code":22881},{"province":"Sumatera Utara","city":"Nias Selatan","district":"Tanah Masa","urban":"Sifauruasi","postal_code":22881},{"province":"Sumatera Utara","city":"Nias Selatan","district":"Simuk","urban":"Silina Baru","postal_code":22881},{"province":"Sumatera Utara","city":"Nias Selatan","district":"Pulau-Pulau Batu Barat","urban":"Sibaranun","postal_code":22881},{"province":"Sumatera Utara","city":"Nias Selatan","district":"Pulau-Pulau Batu","urban":"Simaluaya","postal_code":22881},{"province":"Sumatera Utara","city":"Nias Selatan","district":"Pulau-Pulau Batu","urban":"Siduaewali","postal_code":22881},{"province":"Sumatera Utara","city":"Nias Selatan","district":"Hibala","urban":"Sepakat","postal_code":22881},{"province":"Sumatera Utara","city":"Nias Selatan","district":"Hibala","urban":"Sialema","postal_code":22881},{"province":"Sumatera Utara","city":"Nias Selatan","district":"Pulau-Pulau Batu","urban":"Sebuasi","postal_code":22881},{"province":"Sumatera Utara","city":"Nias Selatan","district":"Tanah Masa","urban":"Saeru Melayu","postal_code":22881},{"province":"Sumatera Utara","city":"Nias Selatan","district":"Pulau-Pulau Batu","urban":"Orahili","postal_code":22881},{"province":"Sumatera Utara","city":"Nias Selatan","district":"Pulau-Pulau Batu","urban":"Pasar Pulau Telo","postal_code":22881},{"province":"Sumatera Utara","city":"Nias Selatan","district":"Pulau-Pulau Batu","urban":"Rapa Rapa Melayu","postal_code":22881},{"province":"Sumatera Utara","city":"Nias Selatan","district":"Pulau-Pulau Batu","urban":"Onaya","postal_code":22881},{"province":"Sumatera Utara","city":"Nias Selatan","district":"Hibala","urban":"Omega","postal_code":22881},{"province":"Sumatera Utara","city":"Nias Selatan","district":"Pulau-Pulau Batu Utara","urban":"Memong","postal_code":22881},{"province":"Sumatera Utara","city":"Nias Selatan","district":"Pulau-Pulau Batu Utara","urban":"Majino Lorang","postal_code":22881},{"province":"Sumatera Utara","city":"Nias Selatan","district":"Pulau-Pulau Batu Utara","urban":"Merit Baru","postal_code":22881},{"province":"Sumatera Utara","city":"Nias Selatan","district":"Hibala","urban":"Lumbui Nias","postal_code":22881},{"province":"Sumatera Utara","city":"Nias Selatan","district":"Tanah Masa","urban":"Makole","postal_code":22881},{"province":"Sumatera Utara","city":"Nias Selatan","district":"Pulau-Pulau Batu Barat","urban":"Luaha Idanopono","postal_code":22881},{"province":"Sumatera Utara","city":"Nias Selatan","district":"Simuk","urban":"Maufa","postal_code":22881},{"province":"Sumatera Utara","city":"Nias Selatan","district":"Hibala","urban":"Lumbui Melayu","postal_code":22881},{"province":"Sumatera Utara","city":"Nias Selatan","district":"Pulau-Pulau Batu Utara","urban":"Majino Lorang","postal_code":22881},{"province":"Sumatera Utara","city":"Nias Selatan","district":"Pulau-Pulau Batu","urban":"Loboi","postal_code":22881},{"province":"Sumatera Utara","city":"Nias Selatan","district":"Pulau-Pulau Batu Utara","urban":"Limo Biang","postal_code":22881},{"province":"Sumatera Utara","city":"Nias Selatan","district":"Pulau-Pulau Batu","urban":"Lasonde","postal_code":22881},{"province":"Sumatera Utara","city":"Nias Selatan","district":"Pulau-Pulau Batu Timur","urban":"Labuan Rima Baru","postal_code":22881},{"province":"Sumatera Utara","city":"Nias Selatan","district":"Pulau-Pulau Batu Timur","urban":"Lambak","postal_code":22881},{"province":"Sumatera Utara","city":"Nias Selatan","district":"Pulau-Pulau Batu Timur","urban":"Labuan Rima","postal_code":22881},{"province":"Sumatera Utara","city":"Nias Selatan","district":"Pulau-Pulau Batu Timur","urban":"Labuan Bajau","postal_code":22881},{"province":"Sumatera Utara","city":"Nias Selatan","district":"Hibala","urban":"Hilioro Dua Tebolo","postal_code":22881},{"province":"Sumatera Utara","city":"Nias Selatan","district":"Pulau-Pulau Batu Timur","urban":"Labuan Hiu / Hiyu","postal_code":22881},{"province":"Sumatera Utara","city":"Nias Selatan","district":"Tanah Masa","urban":"Hiligeho Sogawu","postal_code":22881},{"province":"Sumatera Utara","city":"Nias Selatan","district":"Pulau-Pulau Batu","urban":"Koto","postal_code":22881},{"province":"Sumatera Utara","city":"Nias Selatan","district":"Hibala","urban":"Hilikana","postal_code":22881},{"province":"Sumatera Utara","city":"Nias Selatan","district":"Pulau-Pulau Batu Timur","urban":"Labara","postal_code":22881},{"province":"Sumatera Utara","city":"Nias Selatan","district":"Pulau-Pulau Batu","urban":"Hili Amo Dula","postal_code":22881},{"province":"Sumatera Utara","city":"Nias Selatan","district":"Pulau-Pulau Batu Barat","urban":"Hilizamorogotano","postal_code":22881},{"province":"Sumatera Utara","city":"Nias Selatan","district":"Hibala","urban":"Hilianombasela","postal_code":22881},{"province":"Sumatera Utara","city":"Nias Selatan","district":"Tanah Masa","urban":"Jeke","postal_code":22881},{"province":"Sumatera Utara","city":"Nias Selatan","district":"Pulau-Pulau Batu Barat","urban":"Hayo","postal_code":22881},{"province":"Sumatera Utara","city":"Nias Selatan","district":"Pulau-Pulau Batu","urban":"Hiliotalua","postal_code":22881},{"province":"Sumatera Utara","city":"Nias Selatan","district":"Simuk","urban":"Gondia","postal_code":22881},{"province":"Sumatera Utara","city":"Nias Selatan","district":"Hibala","urban":"Hilioro Mao","postal_code":22881},{"province":"Sumatera Utara","city":"Nias Selatan","district":"Tanah Masa","urban":"Hale Baluta","postal_code":22881},{"province":"Sumatera Utara","city":"Nias Selatan","district":"Hibala","urban":"Hilinifaese","postal_code":22881},{"province":"Sumatera Utara","city":"Nias Selatan","district":"Simuk","urban":"Gobo Baru","postal_code":22881},{"province":"Sumatera Utara","city":"Nias Selatan","district":"Hibala","urban":"Hilioro Dua Tebolo","postal_code":22881},{"province":"Sumatera Utara","city":"Nias Selatan","district":"Pulau-Pulau Batu","urban":"Bawo Omasio","postal_code":22881},{"province":"Sumatera Utara","city":"Nias Selatan","district":"Simuk","urban":"Gobo","postal_code":22881},{"province":"Sumatera Utara","city":"Nias Selatan","district":"Tanah Masa","urban":"Bawo Ofuloa","postal_code":22881},{"province":"Sumatera Utara","city":"Nias Selatan","district":"Pulau-Pulau Batu Barat","urban":"Fuge","postal_code":22881},{"province":"Sumatera Utara","city":"Nias Selatan","district":"Tanah Masa","urban":"Bawo Analita Saeru","postal_code":22881},{"province":"Sumatera Utara","city":"Nias Selatan","district":"Tanah Masa","urban":"Eho Baluta","postal_code":22881},{"province":"Sumatera Utara","city":"Nias Selatan","district":"Pulau-Pulau Batu","urban":"Baruyu Lasara","postal_code":22881},{"province":"Sumatera Utara","city":"Nias Selatan","district":"Hibala","urban":"Duru","postal_code":22881},{"province":"Sumatera Utara","city":"Nias Selatan","district":"Pulau-Pulau Batu","urban":"Bawo Ama Helato","postal_code":22881},{"province":"Sumatera Utara","city":"Nias Selatan","district":"Hibala","urban":"Eho","postal_code":22881},{"province":"Sumatera Utara","city":"Nias Selatan","district":"Hibala","urban":"Baruyu Sibohou","postal_code":22881},{"province":"Sumatera Utara","city":"Nias Selatan","district":"Pulau-Pulau Batu Barat","urban":"Bintuang","postal_code":22881},{"province":"Sumatera Utara","city":"Nias Selatan","district":"Pulau-Pulau Batu","urban":"Balogia","postal_code":22881},{"province":"Sumatera Utara","city":"Nias Selatan","district":"Hibala","urban":"Bawonifaoso","postal_code":22881},{"province":"Sumatera Utara","city":"Nias Selatan","district":"Tanah Masa","urban":"Baluta","postal_code":22881},{"province":"Sumatera Utara","city":"Nias Selatan","district":"Pulau-Pulau Batu Barat","urban":"Bawositora","postal_code":22881},{"province":"Sumatera Utara","city":"Nias Selatan","district":"Pulau-Pulau Batu Utara","urban":"Bale-Bale","postal_code":22881},{"province":"Sumatera Utara","city":"Nias Selatan","district":"Pulau-Pulau Batu Barat","urban":"Bawolawindra","postal_code":22881},{"province":"Sumatera Utara","city":"Nias Selatan","district":"Pulau-Pulau Batu Utara","urban":"Bale-Bale Sibohou","postal_code":22881},{"province":"Sumatera Utara","city":"Nias Selatan","district":"Pulau-Pulau Batu","urban":"Bawodobara","postal_code":22881},{"province":"Sumatera Utara","city":"Nias Selatan","district":"Pulau-Pulau Batu Timur","urban":"Bais","postal_code":22881},{"province":"Sumatera Utara","city":"Nias Selatan","district":"Tanah Masa","urban":"Bawo Orudua","postal_code":22881},{"province":"Sumatera Utara","city":"Nias Selatan","district":"Pulau-Pulau Batu Timur","urban":"Bais Baru","postal_code":22881},{"province":"Sumatera Utara","city":"Nias Selatan","district":"Pulau-Pulau Batu Utara","urban":"Afore Gobo","postal_code":22881},{"province":"Sumatera Utara","city":"Nias Selatan","district":"Pulau-Pulau Batu Timur","urban":"Adam","postal_code":22881}]