[{"province":"Sumatera Utara","city":"Mandailing Natal","district":"Panyabungan Timur","urban":"Tebing Tinggi","postal_code":22912},{"province":"Sumatera Utara","city":"Mandailing Natal","district":"Panyabungan Timur","urban":"Tanjung Julu","postal_code":22912},{"province":"Sumatera Utara","city":"Mandailing Natal","district":"Panyabungan Kota","urban":"Sopo Batu","postal_code":22912},{"province":"Sumatera Utara","city":"Mandailing Natal","district":"Panyabungan Timur","urban":"Tanjung","postal_code":22912},{"province":"Sumatera Utara","city":"Mandailing Natal","district":"Panyabungan Kota","urban":"Siobon","postal_code":22912},{"province":"Sumatera Utara","city":"Mandailing Natal","district":"Panyabungan Kota","urban":"Sipapaga","postal_code":22912},{"province":"Sumatera Utara","city":"Mandailing Natal","district":"Panyabungan Timur","urban":"Sirangkap","postal_code":22912},{"province":"Sumatera Utara","city":"Mandailing Natal","district":"Panyabungan Kota","urban":"Sarak Matua","postal_code":22912},{"province":"Sumatera Utara","city":"Mandailing Natal","district":"Panyabungan Kota","urban":"Sigalapang Julu","postal_code":22912},{"province":"Sumatera Utara","city":"Mandailing Natal","district":"Panyabungan Timur","urban":"Ranto Natas","postal_code":22912},{"province":"Sumatera Utara","city":"Mandailing Natal","district":"Panyabungan Kota","urban":"Salambue","postal_code":22912},{"province":"Sumatera Utara","city":"Mandailing Natal","district":"Panyabungan Timur","urban":"Pardomuan","postal_code":22912},{"province":"Sumatera Utara","city":"Mandailing Natal","district":"Panyabungan Timur","urban":"Parmompang","postal_code":22912},{"province":"Sumatera Utara","city":"Mandailing Natal","district":"Panyabungan Kota","urban":"Parbangunan / Perbangunan","postal_code":22912},{"province":"Sumatera Utara","city":"Mandailing Natal","district":"Panyabungan Timur","urban":"Pagur","postal_code":22912},{"province":"Sumatera Utara","city":"Mandailing Natal","district":"Panyabungan Kota","urban":"Panyabungan I","postal_code":22912},{"province":"Sumatera Utara","city":"Mandailing Natal","district":"Panyabungan Timur","urban":"Padang Laru","postal_code":22912},{"province":"Sumatera Utara","city":"Mandailing Natal","district":"Panyabungan Kota","urban":"Pagaran Tonga","postal_code":22912},{"province":"Sumatera Utara","city":"Mandailing Natal","district":"Panyabungan Kota","urban":"Manyabar","postal_code":22912},{"province":"Sumatera Utara","city":"Mandailing Natal","district":"Panyabungan Kota","urban":"Kampung Padang","postal_code":22912},{"province":"Sumatera Utara","city":"Mandailing Natal","district":"Panyabungan Kota","urban":"Lumban Pasir","postal_code":22912},{"province":"Sumatera Utara","city":"Mandailing Natal","district":"Panyabungan Timur","urban":"Huta Rimbaru Gb","postal_code":22912},{"province":"Sumatera Utara","city":"Mandailing Natal","district":"Panyabungan Kota","urban":"Huta Lombang Lubis","postal_code":22912},{"province":"Sumatera Utara","city":"Mandailing Natal","district":"Panyabungan Timur","urban":"Huta Tinggi","postal_code":22912},{"province":"Sumatera Utara","city":"Mandailing Natal","district":"Panyabungan Timur","urban":"Huta Bangun","postal_code":22912},{"province":"Sumatera Utara","city":"Mandailing Natal","district":"Panyabungan Kota","urban":"Gunung Manaon","postal_code":22912},{"province":"Sumatera Utara","city":"Mandailing Natal","district":"Panyabungan Kota","urban":"Gunung Barani","postal_code":22912},{"province":"Sumatera Utara","city":"Mandailing Natal","district":"Panyabungan Timur","urban":"Gunung Baringin","postal_code":22912},{"province":"Sumatera Utara","city":"Mandailing Natal","district":"Panyabungan Timur","urban":"Banjar Lancat","postal_code":22912},{"province":"Sumatera Utara","city":"Mandailing Natal","district":"Panyabungan Kota","urban":"Darussalam","postal_code":22912},{"province":"Sumatera Utara","city":"Mandailing Natal","district":"Panyabungan Kota","urban":"Aek Banir","postal_code":22912},{"province":"Sumatera Utara","city":"Mandailing Natal","district":"Panyabungan Timur","urban":"Aek Nabara","postal_code":22912},{"province":"Sumatera Utara","city":"Mandailing Natal","district":"Panyabungan Kota","urban":"Aek Mata","postal_code":22912},{"province":"Sumatera Utara","city":"Mandailing Natal","district":"Panyabungan Kota","urban":"Adian Jior","postal_code":22912}]