[{"province":"Sumatera Utara","city":"Mandailing Natal","district":"Panyabungan Barat","urban":"Sirambas","postal_code":22911},{"province":"Sumatera Utara","city":"Mandailing Natal","district":"Panyabungan Barat","urban":"Saba Jior","postal_code":22911},{"province":"Sumatera Utara","city":"Mandailing Natal","district":"Panyabungan Barat","urban":"Ruding","postal_code":22911},{"province":"Sumatera Utara","city":"Mandailing Natal","district":"Panyabungan Kota","urban":"Panyabungan III","postal_code":22911},{"province":"Sumatera Utara","city":"Mandailing Natal","district":"Panyabungan Barat","urban":"Longat","postal_code":22911},{"province":"Sumatera Utara","city":"Mandailing Natal","district":"Panyabungan Barat","urban":"Huta Baringin","postal_code":22911},{"province":"Sumatera Utara","city":"Mandailing Natal","district":"Panyabungan Barat","urban":"Huta Tonga BB","postal_code":22911},{"province":"Sumatera Utara","city":"Mandailing Natal","district":"Panyabungan Barat","urban":"Barbaran Jae","postal_code":22911},{"province":"Sumatera Utara","city":"Mandailing Natal","district":"Panyabungan Barat","urban":"Batang Gadis","postal_code":22911},{"province":"Sumatera Utara","city":"Mandailing Natal","district":"Panyabungan Barat","urban":"Barbaran","postal_code":22911}]