[{"province":"Sumatera Utara","city":"Mandailing Natal","district":"Panyabungan Selatan","urban":"Tano Bato","postal_code":22952},{"province":"Sumatera Utara","city":"Mandailing Natal","district":"Panyabungan Selatan","urban":"Roburan Lombang","postal_code":22952},{"province":"Sumatera Utara","city":"Mandailing Natal","district":"Panyabungan Selatan","urban":"Pagaran Gala-Gala","postal_code":22952},{"province":"Sumatera Utara","city":"Mandailing Natal","district":"Panyabungan Selatan","urban":"Roburan Dolok","postal_code":22952},{"province":"Sumatera Utara","city":"Mandailing Natal","district":"Panyabungan Selatan","urban":"Kayu Laut","postal_code":22952},{"province":"Sumatera Utara","city":"Mandailing Natal","district":"Panyabungan Selatan","urban":"Lumban Dolok","postal_code":22952},{"province":"Sumatera Utara","city":"Mandailing Natal","district":"Panyabungan Selatan","urban":"Hutarimbaru","postal_code":22952},{"province":"Sumatera Utara","city":"Mandailing Natal","district":"Panyabungan Selatan","urban":"Hutaraja Hutajulu","postal_code":22952},{"province":"Sumatera Utara","city":"Mandailing Natal","district":"Panyabungan Selatan","urban":"Hayuraja","postal_code":22952},{"province":"Sumatera Utara","city":"Mandailing Natal","district":"Panyabungan Selatan","urban":"Aek Ngali","postal_code":22952}]