[{"province":"Sumatera Utara","city":"Mandailing Natal","district":"Naga Juang","urban":"Tambiski","postal_code":22977},{"province":"Sumatera Utara","city":"Mandailing Natal","district":"Bukit Malintang","urban":"Sidojadi","postal_code":22977},{"province":"Sumatera Utara","city":"Mandailing Natal","district":"Naga Juang","urban":"Sayur Matua","postal_code":22977},{"province":"Sumatera Utara","city":"Mandailing Natal","district":"Bukit Malintang","urban":"Malintang Julu","postal_code":22977},{"province":"Sumatera Utara","city":"Mandailing Natal","district":"Bukit Malintang","urban":"Pasar Baru Malintang","postal_code":22977},{"province":"Sumatera Utara","city":"Mandailing Natal","district":"Bukit Malintang","urban":"Lambou Darul Ihsan","postal_code":22977},{"province":"Sumatera Utara","city":"Mandailing Natal","district":"Bukit Malintang","urban":"Malintang Jae","postal_code":22977},{"province":"Sumatera Utara","city":"Mandailing Natal","district":"Bukit Malintang","urban":"Janji Matogu","postal_code":22977},{"province":"Sumatera Utara","city":"Mandailing Natal","district":"Bukit Malintang","urban":"Huta Bangun","postal_code":22977},{"province":"Sumatera Utara","city":"Mandailing Natal","district":"Bukit Malintang","urban":"Huta Bangun Jae","postal_code":22977},{"province":"Sumatera Utara","city":"Mandailing Natal","district":"Naga Juang","urban":"Banua Simanosor","postal_code":22977},{"province":"Sumatera Utara","city":"Mandailing Natal","district":"Naga Juang","urban":"Humbang I","postal_code":22977},{"province":"Sumatera Utara","city":"Mandailing Natal","district":"Naga Juang","urban":"Banua Rakyat","postal_code":22977},{"province":"Sumatera Utara","city":"Mandailing Natal","district":"Bukit Malintang","urban":"Bange","postal_code":22977},{"province":"Sumatera Utara","city":"Mandailing Natal","district":"Bukit Malintang","urban":"Bange Nauli","postal_code":22977}]