[{"province":"Sumatera Utara","city":"Mandailing Natal","district":"Panyabungan Utara","urban":"Tanjung Mompang","postal_code":22978},{"province":"Sumatera Utara","city":"Mandailing Natal","district":"Panyabungan Utara","urban":"Tor Banua Raja","postal_code":22978},{"province":"Sumatera Utara","city":"Mandailing Natal","district":"Panyabungan Utara","urban":"Sukaramai","postal_code":22978},{"province":"Sumatera Utara","city":"Mandailing Natal","district":"Panyabungan Utara","urban":"Sopo Sorik","postal_code":22978},{"province":"Sumatera Utara","city":"Mandailing Natal","district":"Panyabungan Utara","urban":"Simanondong","postal_code":22978},{"province":"Sumatera Utara","city":"Mandailing Natal","district":"Huta Bargot","urban":"Sayur Maincat","postal_code":22978},{"province":"Sumatera Utara","city":"Mandailing Natal","district":"Panyabungan Utara","urban":"Rumbio","postal_code":22978},{"province":"Sumatera Utara","city":"Mandailing Natal","district":"Huta Bargot","urban":"Mondan","postal_code":22978},{"province":"Sumatera Utara","city":"Mandailing Natal","district":"Huta Bargot","urban":"Pasar Huta Bargot","postal_code":22978},{"province":"Sumatera Utara","city":"Mandailing Natal","district":"Panyabungan Utara","urban":"Mompang Jae","postal_code":22978},{"province":"Sumatera Utara","city":"Mandailing Natal","district":"Panyabungan Utara","urban":"Mompang Julu","postal_code":22978},{"province":"Sumatera Utara","city":"Mandailing Natal","district":"Huta Bargot","urban":"Hutarimbaru","postal_code":22978},{"province":"Sumatera Utara","city":"Mandailing Natal","district":"Panyabungan Utara","urban":"Jambur Padang Matinggi","postal_code":22978},{"province":"Sumatera Utara","city":"Mandailing Natal","district":"Panyabungan Utara","urban":"Kampung Baru","postal_code":22978},{"province":"Sumatera Utara","city":"Mandailing Natal","district":"Panyabungan Utara","urban":"Hutabargot Simalang","postal_code":22978},{"province":"Sumatera Utara","city":"Mandailing Natal","district":"Panyabungan Utara","urban":"Hutanaingkan","postal_code":22978},{"province":"Sumatera Utara","city":"Mandailing Natal","district":"Huta Bargot","urban":"Huta Bargot Setia","postal_code":22978},{"province":"Sumatera Utara","city":"Mandailing Natal","district":"Panyabungan Utara","urban":"Huta Dame","postal_code":22978},{"province":"Sumatera Utara","city":"Mandailing Natal","district":"Huta Bargot","urban":"Huta Bargot Nauli","postal_code":22978},{"province":"Sumatera Utara","city":"Mandailing Natal","district":"Huta Bargot","urban":"Huta Bargot Lombang","postal_code":22978},{"province":"Sumatera Utara","city":"Mandailing Natal","district":"Panyabungan Utara","urban":"Binanga","postal_code":22978},{"province":"Sumatera Utara","city":"Mandailing Natal","district":"Huta Bargot","urban":"Huta Bargot Dolok","postal_code":22978},{"province":"Sumatera Utara","city":"Mandailing Natal","district":"Panyabungan Utara","urban":"Beringin/Baringin Jaya","postal_code":22978},{"province":"Sumatera Utara","city":"Mandailing Natal","district":"Huta Bargot","urban":"Bangun Sejati","postal_code":22978}]