[{"province":"Sumatera Utara","city":"Mandailing Natal","district":"Sinunukan","urban":"Sinunukan III","postal_code":22988},{"province":"Sumatera Utara","city":"Mandailing Natal","district":"Sinunukan","urban":"Sinunukan IV","postal_code":22988},{"province":"Sumatera Utara","city":"Mandailing Natal","district":"Batahan","urban":"Sinunukan VI","postal_code":22988},{"province":"Sumatera Utara","city":"Mandailing Natal","district":"Sinunukan","urban":"Sinunukan I","postal_code":22988},{"province":"Sumatera Utara","city":"Mandailing Natal","district":"Sinunukan","urban":"Sinunukan II","postal_code":22988},{"province":"Sumatera Utara","city":"Mandailing Natal","district":"Batahan","urban":"Pasar Batahan","postal_code":22988},{"province":"Sumatera Utara","city":"Mandailing Natal","district":"Batahan","urban":"Pulau Tamang","postal_code":22988},{"province":"Sumatera Utara","city":"Mandailing Natal","district":"Batahan","urban":"Sari Kenanga Batahan","postal_code":22988},{"province":"Sumatera Utara","city":"Mandailing Natal","district":"Batahan","urban":"Kubangan Tompek","postal_code":22988},{"province":"Sumatera Utara","city":"Mandailing Natal","district":"Batahan","urban":"Muara Pertemuan","postal_code":22988},{"province":"Sumatera Utara","city":"Mandailing Natal","district":"Batahan","urban":"Pasar Baru Batahan","postal_code":22988},{"province":"Sumatera Utara","city":"Mandailing Natal","district":"Batahan","urban":"Kuala Batahan","postal_code":22988},{"province":"Sumatera Utara","city":"Mandailing Natal","district":"Sinunukan","urban":"Kampung Kapas II","postal_code":22988},{"province":"Sumatera Utara","city":"Mandailing Natal","district":"Batahan","urban":"Kampung Kapas","postal_code":22988},{"province":"Sumatera Utara","city":"Mandailing Natal","district":"Batahan","urban":"Kampung Kapas I","postal_code":22988},{"province":"Sumatera Utara","city":"Mandailing Natal","district":"Batahan","urban":"Bintungan Bejangkar","postal_code":22988},{"province":"Sumatera Utara","city":"Mandailing Natal","district":"Sinunukan","urban":"Bintungan Bejangkar Baru","postal_code":22988},{"province":"Sumatera Utara","city":"Mandailing Natal","district":"Batahan","urban":"Batu Sondat","postal_code":22988},{"province":"Sumatera Utara","city":"Mandailing Natal","district":"Batahan","urban":"Batahan III","postal_code":22988},{"province":"Sumatera Utara","city":"Mandailing Natal","district":"Batahan","urban":"Batu Sondat","postal_code":22988},{"province":"Sumatera Utara","city":"Mandailing Natal","district":"Sinunukan","urban":"Banjar Aur Utara","postal_code":22988},{"province":"Sumatera Utara","city":"Mandailing Natal","district":"Batahan","urban":"Batahan I","postal_code":22988},{"province":"Sumatera Utara","city":"Mandailing Natal","district":"Batahan","urban":"Batahan II","postal_code":22988},{"province":"Sumatera Utara","city":"Mandailing Natal","district":"Sinunukan","urban":"Airapa","postal_code":22988},{"province":"Sumatera Utara","city":"Mandailing Natal","district":"Batahan","urban":"Banjar Aur","postal_code":22988}]