[{"province":"Sumatera Utara","city":"Mandailing Natal","district":"Batang Natal","urban":"Tombang Taluang","postal_code":22983},{"province":"Sumatera Utara","city":"Mandailing Natal","district":"Langga Bayu (Lingga Bayu)","urban":"Ulu Torusan","postal_code":22983},{"province":"Sumatera Utara","city":"Mandailing Natal","district":"Batang Natal","urban":"Tarlola","postal_code":22983},{"province":"Sumatera Utara","city":"Mandailing Natal","district":"Langga Bayu (Lingga Bayu)","urban":"Tangsi Atas","postal_code":22983},{"province":"Sumatera Utara","city":"Mandailing Natal","district":"Langga Bayu (Lingga Bayu)","urban":"Tapus","postal_code":22983},{"province":"Sumatera Utara","city":"Mandailing Natal","district":"Batang Natal","urban":"Sopo Tinjak","postal_code":22983},{"province":"Sumatera Utara","city":"Mandailing Natal","district":"Ranto Baek/Baik","urban":"Tandikek","postal_code":22983},{"province":"Sumatera Utara","city":"Mandailing Natal","district":"Langga Bayu (Lingga Bayu)","urban":"Simpang Koje","postal_code":22983},{"province":"Sumatera Utara","city":"Mandailing Natal","district":"Batang Natal","urban":"Sipogu","postal_code":22983},{"province":"Sumatera Utara","city":"Mandailing Natal","district":"Ranto Baek/Baik","urban":"Simpang Talap","postal_code":22983},{"province":"Sumatera Utara","city":"Mandailing Natal","district":"Langga Bayu (Lingga Bayu)","urban":"Simpang Gambir","postal_code":22983},{"province":"Sumatera Utara","city":"Mandailing Natal","district":"Langga Bayu (Lingga Bayu)","urban":"Simpang Durian","postal_code":22983},{"province":"Sumatera Utara","city":"Mandailing Natal","district":"Langga Bayu (Lingga Bayu)","urban":"Simpang Bajole","postal_code":22983},{"province":"Sumatera Utara","city":"Mandailing Natal","district":"Langga Bayu (Lingga Bayu)","urban":"Simpang Duku","postal_code":22983},{"province":"Sumatera Utara","city":"Mandailing Natal","district":"Batang Natal","urban":"Simanguntong","postal_code":22983},{"province":"Sumatera Utara","city":"Mandailing Natal","district":"Ranto Baek/Baik","urban":"Simaninggir","postal_code":22983},{"province":"Sumatera Utara","city":"Mandailing Natal","district":"Batang Natal","urban":"Rao Rao","postal_code":22983},{"province":"Sumatera Utara","city":"Mandailing Natal","district":"Ranto Baek/Baik","urban":"Sampuran","postal_code":22983},{"province":"Sumatera Utara","city":"Mandailing Natal","district":"Langga Bayu (Lingga Bayu)","urban":"Sikumbu","postal_code":22983},{"province":"Sumatera Utara","city":"Mandailing Natal","district":"Batang Natal","urban":"Rantobi","postal_code":22983},{"province":"Sumatera Utara","city":"Mandailing Natal","district":"Ranto Baek/Baik","urban":"Ranto Nalinjang","postal_code":22983},{"province":"Sumatera Utara","city":"Mandailing Natal","district":"Ranto Baek/Baik","urban":"Ranto Panjang","postal_code":22983},{"province":"Sumatera Utara","city":"Mandailing Natal","district":"Langga Bayu (Lingga Bayu)","urban":"Perbatasan","postal_code":22983},{"province":"Sumatera Utara","city":"Mandailing Natal","district":"Langga Bayu (Lingga Bayu)","urban":"Perk. Simpang Gambir","postal_code":22983},{"province":"Sumatera Utara","city":"Mandailing Natal","district":"Langga Bayu (Lingga Bayu)","urban":"Pangkalan","postal_code":22983},{"province":"Sumatera Utara","city":"Mandailing Natal","district":"Langga Bayu (Lingga Bayu)","urban":"Padang Silojongan","postal_code":22983},{"province":"Sumatera Utara","city":"Mandailing Natal","district":"Batang Natal","urban":"Muara Lampungan","postal_code":22983},{"province":"Sumatera Utara","city":"Mandailing Natal","district":"Batang Natal","urban":"Muara Soma","postal_code":22983},{"province":"Sumatera Utara","city":"Mandailing Natal","district":"Ranto Baek/Baik","urban":"Muara Bangko","postal_code":22983},{"province":"Sumatera Utara","city":"Mandailing Natal","district":"Ranto Baek/Baik","urban":"Manisak","postal_code":22983},{"province":"Sumatera Utara","city":"Mandailing Natal","district":"Batang Natal","urban":"Lubuk Samba","postal_code":22983},{"province":"Sumatera Utara","city":"Mandailing Natal","district":"Ranto Baek/Baik","urban":"Lubuk Kancah","postal_code":22983},{"province":"Sumatera Utara","city":"Mandailing Natal","district":"Langga Bayu (Lingga Bayu)","urban":"Lobung","postal_code":22983},{"province":"Sumatera Utara","city":"Mandailing Natal","district":"Langga Bayu (Lingga Bayu)","urban":"Kampung Baru","postal_code":22983},{"province":"Sumatera Utara","city":"Mandailing Natal","district":"Ranto Baek/Baik","urban":"Huta Nauli","postal_code":22983},{"province":"Sumatera Utara","city":"Mandailing Natal","district":"Ranto Baek/Baik","urban":"Huta Raja","postal_code":22983},{"province":"Sumatera Utara","city":"Mandailing Natal","district":"Batang Natal","urban":"Huta Lobu","postal_code":22983},{"province":"Sumatera Utara","city":"Mandailing Natal","district":"Ranto Baek/Baik","urban":"Huta Baringin","postal_code":22983},{"province":"Sumatera Utara","city":"Mandailing Natal","district":"Batang Natal","urban":"Hatupangan","postal_code":22983},{"province":"Sumatera Utara","city":"Mandailing Natal","district":"Batang Natal","urban":"Hadangkahan","postal_code":22983},{"province":"Sumatera Utara","city":"Mandailing Natal","district":"Batang Natal","urban":"Guo Batu","postal_code":22983},{"province":"Sumatera Utara","city":"Mandailing Natal","district":"Ranto Baek/Baik","urban":"Gonting","postal_code":22983},{"province":"Sumatera Utara","city":"Mandailing Natal","district":"Langga Bayu (Lingga Bayu)","urban":"Dalan Lidang","postal_code":22983},{"province":"Sumatera Utara","city":"Mandailing Natal","district":"Batang Natal","urban":"Bulu Soma","postal_code":22983},{"province":"Sumatera Utara","city":"Mandailing Natal","district":"Batang Natal","urban":"Batu Madinding","postal_code":22983},{"province":"Sumatera Utara","city":"Mandailing Natal","district":"Langga Bayu (Lingga Bayu)","urban":"Bonca Bayuon","postal_code":22983},{"province":"Sumatera Utara","city":"Mandailing Natal","district":"Langga Bayu (Lingga Bayu)","urban":"Batu Gajah","postal_code":22983},{"province":"Sumatera Utara","city":"Mandailing Natal","district":"Batang Natal","urban":"Banjar Malayu","postal_code":22983},{"province":"Sumatera Utara","city":"Mandailing Natal","district":"Ranto Baek/Baik","urban":"Banjar Maga","postal_code":22983},{"province":"Sumatera Utara","city":"Mandailing Natal","district":"Ranto Baek/Baik","urban":"Bangun Saroha","postal_code":22983},{"province":"Sumatera Utara","city":"Mandailing Natal","district":"Batang Natal","urban":"Bangkelang","postal_code":22983},{"province":"Sumatera Utara","city":"Mandailing Natal","district":"Batang Natal","urban":"Ampung Siala","postal_code":22983},{"province":"Sumatera Utara","city":"Mandailing Natal","district":"Langga Bayu (Lingga Bayu)","urban":"Bandar Limabun","postal_code":22983},{"province":"Sumatera Utara","city":"Mandailing Natal","district":"Batang Natal","urban":"Ampung Padang","postal_code":22983},{"province":"Sumatera Utara","city":"Mandailing Natal","district":"Batang Natal","urban":"Aek Nangali","postal_code":22983},{"province":"Sumatera Utara","city":"Mandailing Natal","district":"Batang Natal","urban":"Ampung Julu","postal_code":22983},{"province":"Sumatera Utara","city":"Mandailing Natal","district":"Batang Natal","urban":"Aek Nabara","postal_code":22983},{"province":"Sumatera Utara","city":"Mandailing Natal","district":"Langga Bayu (Lingga Bayu)","urban":"Aek Manyuruk","postal_code":22983},{"province":"Sumatera Utara","city":"Mandailing Natal","district":"Batang Natal","urban":"Aek Manggis","postal_code":22983},{"province":"Sumatera Utara","city":"Mandailing Natal","district":"Batang Natal","urban":"Aek Holbung","postal_code":22983},{"province":"Sumatera Utara","city":"Mandailing Natal","district":"Batang Natal","urban":"Aek Guo","postal_code":22983},{"province":"Sumatera Utara","city":"Mandailing Natal","district":"Langga Bayu (Lingga Bayu)","urban":"Aek Garinggin","postal_code":22983}]