[{"province":"Sumatera Utara","city":"Mandailing Natal","district":"Kotanopan","urban":"Ujung Marisi","postal_code":22994},{"province":"Sumatera Utara","city":"Mandailing Natal","district":"Kotanopan","urban":"Usor Tolang","postal_code":22994},{"province":"Sumatera Utara","city":"Mandailing Natal","district":"Kotanopan","urban":"Tamiang","postal_code":22994},{"province":"Sumatera Utara","city":"Mandailing Natal","district":"Kotanopan","urban":"Tobang","postal_code":22994},{"province":"Sumatera Utara","city":"Mandailing Natal","district":"Tambangan","urban":"Tambangan Pasoman","postal_code":22994},{"province":"Sumatera Utara","city":"Mandailing Natal","district":"Tambangan","urban":"Tambangan Tonga","postal_code":22994},{"province":"Sumatera Utara","city":"Mandailing Natal","district":"Tambangan","urban":"Tambangan Jae","postal_code":22994},{"province":"Sumatera Utara","city":"Mandailing Natal","district":"Kotanopan","urban":"Tambang Bustak","postal_code":22994},{"province":"Sumatera Utara","city":"Mandailing Natal","district":"Kotanopan","urban":"Singengu Julu","postal_code":22994},{"province":"Sumatera Utara","city":"Mandailing Natal","district":"Kotanopan","urban":"Singengu Jae","postal_code":22994},{"province":"Sumatera Utara","city":"Mandailing Natal","district":"Kotanopan","urban":"Simpang Tolang Julu","postal_code":22994},{"province":"Sumatera Utara","city":"Mandailing Natal","district":"Kotanopan","urban":"Simpang Tolang Jae","postal_code":22994},{"province":"Sumatera Utara","city":"Mandailing Natal","district":"Tambangan","urban":"Simangambat TB","postal_code":22994},{"province":"Sumatera Utara","city":"Mandailing Natal","district":"Kotanopan","urban":"Sibio-Bio","postal_code":22994},{"province":"Sumatera Utara","city":"Mandailing Natal","district":"Kotanopan","urban":"Simandolan","postal_code":22994},{"province":"Sumatera Utara","city":"Mandailing Natal","district":"Puncak Sorik Marapi/Merapi","urban":"Sibanggor Tonga","postal_code":22994},{"province":"Sumatera Utara","city":"Mandailing Natal","district":"Puncak Sorik Marapi/Merapi","urban":"Sibanggor Jae","postal_code":22994},{"province":"Sumatera Utara","city":"Mandailing Natal","district":"Puncak Sorik Marapi/Merapi","urban":"Sibanggor Julu","postal_code":22994},{"province":"Sumatera Utara","city":"Mandailing Natal","district":"Lembah Sorik Merapi","urban":"Sian Tona","postal_code":22994},{"province":"Sumatera Utara","city":"Mandailing Natal","district":"Kotanopan","urban":"Saba Dolok","postal_code":22994},{"province":"Sumatera Utara","city":"Mandailing Natal","district":"Kotanopan","urban":"Sayur Maincat","postal_code":22994},{"province":"Sumatera Utara","city":"Mandailing Natal","district":"Lembah Sorik Merapi","urban":"Purba Lamo","postal_code":22994},{"province":"Sumatera Utara","city":"Mandailing Natal","district":"Tambangan","urban":"Rao Rao Dolok","postal_code":22994},{"province":"Sumatera Utara","city":"Mandailing Natal","district":"Tambangan","urban":"Rao Rao Lombang","postal_code":22994},{"province":"Sumatera Utara","city":"Mandailing Natal","district":"Puncak Sorik Marapi/Merapi","urban":"Purba Julu","postal_code":22994},{"province":"Sumatera Utara","city":"Mandailing Natal","district":"Kotanopan","urban":"Patialo","postal_code":22994},{"province":"Sumatera Utara","city":"Mandailing Natal","district":"Lembah Sorik Merapi","urban":"Purba Baru","postal_code":22994},{"province":"Sumatera Utara","city":"Mandailing Natal","district":"Tambangan","urban":"Pastap Julu","postal_code":22994},{"province":"Sumatera Utara","city":"Mandailing Natal","district":"Lembah Sorik Merapi","urban":"Pasar Maga","postal_code":22994},{"province":"Sumatera Utara","city":"Mandailing Natal","district":"Tambangan","urban":"Pastap","postal_code":22994},{"province":"Sumatera Utara","city":"Mandailing Natal","district":"Tambangan","urban":"Panjaringan","postal_code":22994},{"province":"Sumatera Utara","city":"Mandailing Natal","district":"Kotanopan","urban":"Pasar Kotanopan","postal_code":22994},{"province":"Sumatera Utara","city":"Mandailing Natal","district":"Tambangan","urban":"Pasar Laru","postal_code":22994},{"province":"Sumatera Utara","city":"Mandailing Natal","district":"Tambangan","urban":"Padang Sanggar","postal_code":22994},{"province":"Sumatera Utara","city":"Mandailing Natal","district":"Kotanopan","urban":"Pagar Gunung","postal_code":22994},{"province":"Sumatera Utara","city":"Mandailing Natal","district":"Lembah Sorik Merapi","urban":"Pangkat","postal_code":22994},{"province":"Sumatera Utara","city":"Mandailing Natal","district":"Kotanopan","urban":"Muara Siambak","postal_code":22994},{"province":"Sumatera Utara","city":"Mandailing Natal","district":"Kotanopan","urban":"Padang Bulan","postal_code":22994},{"province":"Sumatera Utara","city":"Mandailing Natal","district":"Kotanopan","urban":"Muara Pungkut","postal_code":22994},{"province":"Sumatera Utara","city":"Mandailing Natal","district":"Kotanopan","urban":"Muara Saladi","postal_code":22994},{"province":"Sumatera Utara","city":"Mandailing Natal","district":"Tambangan","urban":"Muara Mais Jambur","postal_code":22994},{"province":"Sumatera Utara","city":"Mandailing Natal","district":"Kotanopan","urban":"Muara Potan","postal_code":22994},{"province":"Sumatera Utara","city":"Mandailing Natal","district":"Tambangan","urban":"Muara Mais","postal_code":22994},{"province":"Sumatera Utara","city":"Mandailing Natal","district":"Kotanopan","urban":"Manambin","postal_code":22994},{"province":"Sumatera Utara","city":"Mandailing Natal","district":"Kotanopan","urban":"Muara Botung","postal_code":22994},{"province":"Sumatera Utara","city":"Mandailing Natal","district":"Lembah Sorik Merapi","urban":"Maga Dolok","postal_code":22994},{"province":"Sumatera Utara","city":"Mandailing Natal","district":"Lembah Sorik Merapi","urban":"Maga Lombang","postal_code":22994},{"province":"Sumatera Utara","city":"Mandailing Natal","district":"Tambangan","urban":"Laru Lombang","postal_code":22994},{"province":"Sumatera Utara","city":"Mandailing Natal","district":"Tambangan","urban":"Lumban Pasir","postal_code":22994},{"province":"Sumatera Utara","city":"Mandailing Natal","district":"Tambangan","urban":"Laru Baringin","postal_code":22994},{"province":"Sumatera Utara","city":"Mandailing Natal","district":"Tambangan","urban":"Laru Bolak","postal_code":22994},{"province":"Sumatera Utara","city":"Mandailing Natal","district":"Tambangan","urban":"Laru Dolok","postal_code":22994},{"province":"Sumatera Utara","city":"Mandailing Natal","district":"Puncak Sorik Marapi/Merapi","urban":"Hutatinggi","postal_code":22994},{"province":"Sumatera Utara","city":"Mandailing Natal","district":"Puncak Sorik Marapi/Merapi","urban":"Hutanamale","postal_code":22994},{"province":"Sumatera Utara","city":"Mandailing Natal","district":"Tambangan","urban":"Huta Tonga AB","postal_code":22994},{"province":"Sumatera Utara","city":"Mandailing Natal","district":"Puncak Sorik Marapi/Merapi","urban":"Hutabaringin Julu","postal_code":22994},{"province":"Sumatera Utara","city":"Mandailing Natal","district":"Kotanopan","urban":"Huta Pungkut Tonga","postal_code":22994},{"province":"Sumatera Utara","city":"Mandailing Natal","district":"Kotanopan","urban":"Huta Rimbaru Sm","postal_code":22994},{"province":"Sumatera Utara","city":"Mandailing Natal","district":"Kotanopan","urban":"Huta Pungkut Jae","postal_code":22994},{"province":"Sumatera Utara","city":"Mandailing Natal","district":"Kotanopan","urban":"Huta Pungkut Julu","postal_code":22994},{"province":"Sumatera Utara","city":"Mandailing Natal","district":"Kotanopan","urban":"Huta Padang Sm","postal_code":22994},{"province":"Sumatera Utara","city":"Mandailing Natal","district":"Kotanopan","urban":"Huta Puli","postal_code":22994},{"province":"Sumatera Utara","city":"Mandailing Natal","district":"Kotanopan","urban":"Huta Baringin Tb","postal_code":22994},{"province":"Sumatera Utara","city":"Mandailing Natal","district":"Kotanopan","urban":"Huta Dangka","postal_code":22994},{"province":"Sumatera Utara","city":"Mandailing Natal","district":"Puncak Sorik Marapi/Merapi","urban":"Huta Lombang","postal_code":22994},{"province":"Sumatera Utara","city":"Mandailing Natal","district":"Kotanopan","urban":"Husor Tolang (Unsor Tolan)","postal_code":22994},{"province":"Sumatera Utara","city":"Mandailing Natal","district":"Puncak Sorik Marapi/Merapi","urban":"Huta Barat","postal_code":22994},{"province":"Sumatera Utara","city":"Mandailing Natal","district":"Kotanopan","urban":"Gunung Tua Ms","postal_code":22994},{"province":"Sumatera Utara","city":"Mandailing Natal","district":"Kotanopan","urban":"Gunung Tua Sm","postal_code":22994},{"province":"Sumatera Utara","city":"Mandailing Natal","district":"Puncak Sorik Marapi/Merapi","urban":"Handel","postal_code":22994},{"province":"Sumatera Utara","city":"Mandailing Natal","district":"Kotanopan","urban":"Botung","postal_code":22994},{"province":"Sumatera Utara","city":"Mandailing Natal","district":"Kotanopan","urban":"Gading Bain","postal_code":22994},{"province":"Sumatera Utara","city":"Mandailing Natal","district":"Lembah Sorik Merapi","urban":"Bangun Purba","postal_code":22994},{"province":"Sumatera Utara","city":"Mandailing Natal","district":"Kotanopan","urban":"Batahan","postal_code":22994},{"province":"Sumatera Utara","city":"Mandailing Natal","district":"Lembah Sorik Merapi","urban":"Aek Marian Mg","postal_code":22994},{"province":"Sumatera Utara","city":"Mandailing Natal","district":"Tambangan","urban":"Angin Barat","postal_code":22994}]