[{"province":"Sumatera Utara","city":"Mandailing Natal","district":"Muara Sipongi","urban":"Tamiang Mudo","postal_code":22998},{"province":"Sumatera Utara","city":"Mandailing Natal","district":"Muara Sipongi","urban":"Tanjung Alai","postal_code":22998},{"province":"Sumatera Utara","city":"Mandailing Natal","district":"Ulu Pungkut","urban":"Tolang","postal_code":22998},{"province":"Sumatera Utara","city":"Mandailing Natal","district":"Muara Sipongi","urban":"Simpang Mandepo","postal_code":22998},{"province":"Sumatera Utara","city":"Mandailing Natal","district":"Ulu Pungkut","urban":"Simpang Pining","postal_code":22998},{"province":"Sumatera Utara","city":"Mandailing Natal","district":"Ulu Pungkut","urban":"Simpang Duhu Lombang","postal_code":22998},{"province":"Sumatera Utara","city":"Mandailing Natal","district":"Ulu Pungkut","urban":"Simpang Duku Dolok","postal_code":22998},{"province":"Sumatera Utara","city":"Mandailing Natal","district":"Ulu Pungkut","urban":"Simpang Banyak Jae","postal_code":22998},{"province":"Sumatera Utara","city":"Mandailing Natal","district":"Ulu Pungkut","urban":"Simpang Banyak Julu","postal_code":22998},{"province":"Sumatera Utara","city":"Mandailing Natal","district":"Muara Sipongi","urban":"Sibinail","postal_code":22998},{"province":"Sumatera Utara","city":"Mandailing Natal","district":"Pakantan","urban":"Silogun","postal_code":22998},{"province":"Sumatera Utara","city":"Mandailing Natal","district":"Muara Sipongi","urban":"Ranjo Batu","postal_code":22998},{"province":"Sumatera Utara","city":"Mandailing Natal","district":"Ulu Pungkut","urban":"Patahajang","postal_code":22998},{"province":"Sumatera Utara","city":"Mandailing Natal","district":"Muara Sipongi","urban":"Pasar Muara Sipongi","postal_code":22998},{"province":"Sumatera Utara","city":"Mandailing Natal","district":"Pakantan","urban":"Pakantan Dolok","postal_code":22998},{"province":"Sumatera Utara","city":"Mandailing Natal","district":"Pakantan","urban":"Pakantan Lombang","postal_code":22998},{"province":"Sumatera Utara","city":"Mandailing Natal","district":"Ulu Pungkut","urban":"Muara Saladi","postal_code":22998},{"province":"Sumatera Utara","city":"Mandailing Natal","district":"Muara Sipongi","urban":"Limau Manis","postal_code":22998},{"province":"Sumatera Utara","city":"Mandailing Natal","district":"Muara Sipongi","urban":"Kampung Pinang","postal_code":22998},{"province":"Sumatera Utara","city":"Mandailing Natal","district":"Muara Sipongi","urban":"Koto Baringin","postal_code":22998},{"province":"Sumatera Utara","city":"Mandailing Natal","district":"Pakantan","urban":"Huta Toras","postal_code":22998},{"province":"Sumatera Utara","city":"Mandailing Natal","district":"Ulu Pungkut","urban":"Huta Rimbaru Up (Hutaimbaru)","postal_code":22998},{"province":"Sumatera Utara","city":"Mandailing Natal","district":"Ulu Pungkut","urban":"Huta Padang Up","postal_code":22998},{"province":"Sumatera Utara","city":"Mandailing Natal","district":"Pakantan","urban":"Huta Lancat","postal_code":22998},{"province":"Sumatera Utara","city":"Mandailing Natal","district":"Pakantan","urban":"Huta Padang","postal_code":22998},{"province":"Sumatera Utara","city":"Mandailing Natal","district":"Ulu Pungkut","urban":"Huta Godang","postal_code":22998},{"province":"Sumatera Utara","city":"Mandailing Natal","district":"Pakantan","urban":"Huta Gambir","postal_code":22998},{"province":"Sumatera Utara","city":"Mandailing Natal","district":"Pakantan","urban":"Huta Julu","postal_code":22998},{"province":"Sumatera Utara","city":"Mandailing Natal","district":"Muara Sipongi","urban":"Bandar Panjang Tuo","postal_code":22998},{"province":"Sumatera Utara","city":"Mandailing Natal","district":"Ulu Pungkut","urban":"Habincaran","postal_code":22998},{"province":"Sumatera Utara","city":"Mandailing Natal","district":"Muara Sipongi","urban":"Bandar Panjang","postal_code":22998},{"province":"Sumatera Utara","city":"Mandailing Natal","district":"Ulu Pungkut","urban":"Alahan Kae","postal_code":22998}]