[{"province":"Nanggroe Aceh Darussalam","city":"Aceh Besar","district":"Lhoknga (Lho'nga)","urban":"Weu Raya","postal_code":23353},{"province":"Nanggroe Aceh Darussalam","city":"Aceh Besar","district":"Lhoknga (Lho'nga)","urban":"Seubun Keutapang","postal_code":23353},{"province":"Nanggroe Aceh Darussalam","city":"Aceh Besar","district":"Lhoknga (Lho'nga)","urban":"Tanjong","postal_code":23353},{"province":"Nanggroe Aceh Darussalam","city":"Aceh Besar","district":"Lhoknga (Lho'nga)","urban":"Seubun Ayon","postal_code":23353},{"province":"Nanggroe Aceh Darussalam","city":"Aceh Besar","district":"Leupung","urban":"Pulot","postal_code":23353},{"province":"Nanggroe Aceh Darussalam","city":"Aceh Besar","district":"Lhoknga (Lho'nga)","urban":"Naga Umbang","postal_code":23353},{"province":"Nanggroe Aceh Darussalam","city":"Aceh Besar","district":"Lhoknga (Lho'nga)","urban":"Nusa","postal_code":23353},{"province":"Nanggroe Aceh Darussalam","city":"Aceh Besar","district":"Lhoknga (Lho'nga)","urban":"Mon Ikeun","postal_code":23353},{"province":"Nanggroe Aceh Darussalam","city":"Aceh Besar","district":"Lhoknga (Lho'nga)","urban":"Mnsh Mesjid Lam Puuk","postal_code":23353},{"province":"Nanggroe Aceh Darussalam","city":"Aceh Besar","district":"Lhoknga (Lho'nga)","urban":"Meunasah Mon Cut","postal_code":23353},{"province":"Nanggroe Aceh Darussalam","city":"Aceh Besar","district":"Lhoknga (Lho'nga)","urban":"Meunasah Mesjid Lamlhom","postal_code":23353},{"province":"Nanggroe Aceh Darussalam","city":"Aceh Besar","district":"Leupung","urban":"Meunasah Mesjid (Mesjid Leupung)","postal_code":23353},{"province":"Nanggroe Aceh Darussalam","city":"Aceh Besar","district":"Lhoknga (Lho'nga)","urban":"Meunasah Manyang","postal_code":23353},{"province":"Nanggroe Aceh Darussalam","city":"Aceh Besar","district":"Lhoknga (Lho'nga)","urban":"Meunasah Lam Girek","postal_code":23353},{"province":"Nanggroe Aceh Darussalam","city":"Aceh Besar","district":"Lhoknga (Lho'nga)","urban":"Meunasah Karieng","postal_code":23353},{"province":"Nanggroe Aceh Darussalam","city":"Aceh Besar","district":"Lhoknga (Lho'nga)","urban":"Meunasah Cut","postal_code":23353},{"province":"Nanggroe Aceh Darussalam","city":"Aceh Besar","district":"Lhoknga (Lho'nga)","urban":"Meunasah Beutong","postal_code":23353},{"province":"Nanggroe Aceh Darussalam","city":"Aceh Besar","district":"Lhoknga (Lho'nga)","urban":"Meunasah Blang","postal_code":23353},{"province":"Nanggroe Aceh Darussalam","city":"Aceh Besar","district":"Lhoknga (Lho'nga)","urban":"Meunasah Baro Lamlhom","postal_code":23353},{"province":"Nanggroe Aceh Darussalam","city":"Aceh Besar","district":"Lhoknga (Lho'nga)","urban":"Meunasah Baro Lam Puuk","postal_code":23353},{"province":"Nanggroe Aceh Darussalam","city":"Aceh Besar","district":"Lhoknga (Lho'nga)","urban":"Meunasah Balee Lamlhom","postal_code":23353},{"province":"Nanggroe Aceh Darussalam","city":"Aceh Besar","district":"Leupung","urban":"Meunasah Bak Ue","postal_code":23353},{"province":"Nanggroe Aceh Darussalam","city":"Aceh Besar","district":"Leupung","urban":"Layeun","postal_code":23353},{"province":"Nanggroe Aceh Darussalam","city":"Aceh Besar","district":"Lhoknga (Lho'nga)","urban":"Lambaro Seubun","postal_code":23353},{"province":"Nanggroe Aceh Darussalam","city":"Aceh Besar","district":"Leupung","urban":"Lamsenia (Lamseunia)","postal_code":23353},{"province":"Nanggroe Aceh Darussalam","city":"Aceh Besar","district":"Lhoknga (Lho'nga)","urban":"Lambaro Kueh","postal_code":23353},{"province":"Nanggroe Aceh Darussalam","city":"Aceh Besar","district":"Lhoknga (Lho'nga)","urban":"Lam Kruet","postal_code":23353},{"province":"Nanggroe Aceh Darussalam","city":"Aceh Besar","district":"Lhoknga (Lho'nga)","urban":"Lam Gaboh","postal_code":23353},{"province":"Nanggroe Aceh Darussalam","city":"Aceh Besar","district":"Lhoknga (Lho'nga)","urban":"Lam Cok","postal_code":23353},{"province":"Nanggroe Aceh Darussalam","city":"Aceh Besar","district":"Lhoknga (Lho'nga)","urban":"Kueh","postal_code":23353},{"province":"Nanggroe Aceh Darussalam","city":"Aceh Besar","district":"Lhoknga (Lho'nga)","urban":"Lam Ateuk","postal_code":23353},{"province":"Nanggroe Aceh Darussalam","city":"Aceh Besar","district":"Leupung","urban":"Deah Mamplam","postal_code":23353},{"province":"Nanggroe Aceh Darussalam","city":"Aceh Besar","district":"Lhoknga (Lho'nga)","urban":"Ateuk Paya","postal_code":23353}]