[{"province":"Nanggroe Aceh Darussalam","city":"Aceh Besar","district":"Darul Imarah","urban":"Ulee Tui/Thui","postal_code":23352},{"province":"Nanggroe Aceh Darussalam","city":"Aceh Besar","district":"Darul Imarah","urban":"Ulee Lueng","postal_code":23352},{"province":"Nanggroe Aceh Darussalam","city":"Aceh Besar","district":"Darul Kamal","urban":"Turam","postal_code":23352},{"province":"Nanggroe Aceh Darussalam","city":"Aceh Besar","district":"Darul Imarah","urban":"Tingkeum","postal_code":23352},{"province":"Nanggroe Aceh Darussalam","city":"Aceh Besar","district":"Darul Kamal","urban":"Teubalui","postal_code":23352},{"province":"Nanggroe Aceh Darussalam","city":"Aceh Besar","district":"Darul Imarah","urban":"Payaroh","postal_code":23352},{"province":"Nanggroe Aceh Darussalam","city":"Aceh Besar","district":"Darul Imarah","urban":"Punie","postal_code":23352},{"province":"Nanggroe Aceh Darussalam","city":"Aceh Besar","district":"Darul Imarah","urban":"Pasheu Beutong","postal_code":23352},{"province":"Nanggroe Aceh Darussalam","city":"Aceh Besar","district":"Darul Kamal","urban":"Neusok","postal_code":23352},{"province":"Nanggroe Aceh Darussalam","city":"Aceh Besar","district":"Darul Imarah","urban":"Lheu Blang","postal_code":23352},{"province":"Nanggroe Aceh Darussalam","city":"Aceh Besar","district":"Darul Kamal","urban":"Manee Dayah","postal_code":23352},{"province":"Nanggroe Aceh Darussalam","city":"Aceh Besar","district":"Darul Kamal","urban":"Lhang","postal_code":23352},{"province":"Nanggroe Aceh Darussalam","city":"Aceh Besar","district":"Darul Imarah","urban":"Leu Ue (Mata Ie)","postal_code":23352},{"province":"Nanggroe Aceh Darussalam","city":"Aceh Besar","district":"Darul Imarah","urban":"Leugeu","postal_code":23352},{"province":"Nanggroe Aceh Darussalam","city":"Aceh Besar","district":"Darul Imarah","urban":"Lamtheun","postal_code":23352},{"province":"Nanggroe Aceh Darussalam","city":"Aceh Besar","district":"Darul Kamal","urban":"Lamtadok","postal_code":23352},{"province":"Nanggroe Aceh Darussalam","city":"Aceh Besar","district":"Darul Imarah","urban":"Lamsiteh","postal_code":23352},{"province":"Nanggroe Aceh Darussalam","city":"Aceh Besar","district":"Darul Kamal","urban":"Lamsod","postal_code":23352},{"province":"Nanggroe Aceh Darussalam","city":"Aceh Besar","district":"Darul Imarah","urban":"Lamreung","postal_code":23352},{"province":"Nanggroe Aceh Darussalam","city":"Aceh Besar","district":"Darul Imarah","urban":"Lamsidaya","postal_code":23352},{"province":"Nanggroe Aceh Darussalam","city":"Aceh Besar","district":"Darul Imarah","urban":"Lampeuneurut Gampong","postal_code":23352},{"province":"Nanggroe Aceh Darussalam","city":"Aceh Besar","district":"Darul Imarah","urban":"Lampeuneurut Ujong Blang","postal_code":23352},{"province":"Nanggroe Aceh Darussalam","city":"Aceh Besar","district":"Darul Imarah","urban":"Lampasi Engking","postal_code":23352},{"province":"Nanggroe Aceh Darussalam","city":"Aceh Besar","district":"Darul Imarah","urban":"Lampeuneuen","postal_code":23352},{"province":"Nanggroe Aceh Darussalam","city":"Aceh Besar","district":"Darul Kamal","urban":"Lamkunyet","postal_code":23352},{"province":"Nanggroe Aceh Darussalam","city":"Aceh Besar","district":"Darul Imarah","urban":"Lamcot","postal_code":23352},{"province":"Nanggroe Aceh Darussalam","city":"Aceh Besar","district":"Darul Kamal","urban":"Lambatee","postal_code":23352},{"province":"Nanggroe Aceh Darussalam","city":"Aceh Besar","district":"Darul Imarah","urban":"Lam Kawe","postal_code":23352},{"province":"Nanggroe Aceh Darussalam","city":"Aceh Besar","district":"Darul Kamal","urban":"Lambaro Biluy","postal_code":23352},{"province":"Nanggroe Aceh Darussalam","city":"Aceh Besar","district":"Darul Imarah","urban":"Lam Blang Manyang","postal_code":23352},{"province":"Nanggroe Aceh Darussalam","city":"Aceh Besar","district":"Darul Imarah","urban":"Lam Blang Trieng","postal_code":23352},{"province":"Nanggroe Aceh Darussalam","city":"Aceh Besar","district":"Darul Kamal","urban":"Lam Bleut","postal_code":23352},{"province":"Nanggroe Aceh Darussalam","city":"Aceh Besar","district":"Darul Imarah","urban":"Lam Bheu","postal_code":23352},{"province":"Nanggroe Aceh Darussalam","city":"Aceh Besar","district":"Darul Imarah","urban":"Lagang","postal_code":23352},{"province":"Nanggroe Aceh Darussalam","city":"Aceh Besar","district":"Darul Imarah","urban":"Kandang","postal_code":23352},{"province":"Nanggroe Aceh Darussalam","city":"Aceh Besar","district":"Darul Imarah","urban":"Kuta Karang","postal_code":23352},{"province":"Nanggroe Aceh Darussalam","city":"Aceh Besar","district":"Darul Imarah","urban":"Geundrieng","postal_code":23352},{"province":"Nanggroe Aceh Darussalam","city":"Aceh Besar","district":"Darul Imarah","urban":"Gue Gajah","postal_code":23352},{"province":"Nanggroe Aceh Darussalam","city":"Aceh Besar","district":"Darul Imarah","urban":"Jeumpet Ajuen/Ajun","postal_code":23352},{"province":"Nanggroe Aceh Darussalam","city":"Aceh Besar","district":"Darul Kamal","urban":"Empetring (Empee Trieng)","postal_code":23352},{"province":"Nanggroe Aceh Darussalam","city":"Aceh Besar","district":"Darul Imarah","urban":"Garot Geuceu","postal_code":23352},{"province":"Nanggroe Aceh Darussalam","city":"Aceh Besar","district":"Darul Imarah","urban":"Deunong","postal_code":23352},{"province":"Nanggroe Aceh Darussalam","city":"Aceh Besar","district":"Darul Imarah","urban":"Daroy Kameu","postal_code":23352},{"province":"Nanggroe Aceh Darussalam","city":"Aceh Besar","district":"Darul Kamal","urban":"Blang Kiree","postal_code":23352},{"province":"Nanggroe Aceh Darussalam","city":"Aceh Besar","district":"Darul Imarah","urban":"Bayu","postal_code":23352},{"province":"Nanggroe Aceh Darussalam","city":"Aceh Besar","district":"Darul Kamal","urban":"Bilui/Biluy","postal_code":23352}]