[{"province":"Nanggroe Aceh Darussalam","city":"Aceh Besar","district":"Indrapuri","urban":"Ulee Oe","postal_code":23363},{"province":"Nanggroe Aceh Darussalam","city":"Aceh Besar","district":"Indrapuri","urban":"Ulee Kareung","postal_code":23363},{"province":"Nanggroe Aceh Darussalam","city":"Aceh Besar","district":"Kota Cot Glie (Kuta Cot Glie)","urban":"Tutui/Tutue","postal_code":23363},{"province":"Nanggroe Aceh Darussalam","city":"Aceh Besar","district":"Kota Malaka (Kuta Malaka)","urban":"Teudayah","postal_code":23363},{"province":"Nanggroe Aceh Darussalam","city":"Aceh Besar","district":"Kota Malaka (Kuta Malaka)","urban":"Tumbo Baro","postal_code":23363},{"province":"Nanggroe Aceh Darussalam","city":"Aceh Besar","district":"Kota Cot Glie (Kuta Cot Glie)","urban":"Siron Blang","postal_code":23363},{"province":"Nanggroe Aceh Darussalam","city":"Aceh Besar","district":"Kota Cot Glie (Kuta Cot Glie)","urban":"Siron Krueng","postal_code":23363},{"province":"Nanggroe Aceh Darussalam","city":"Aceh Besar","district":"Indrapuri","urban":"Sihom Cot","postal_code":23363},{"province":"Nanggroe Aceh Darussalam","city":"Aceh Besar","district":"Indrapuri","urban":"Sihom Lhok","postal_code":23363},{"province":"Nanggroe Aceh Darussalam","city":"Aceh Besar","district":"Indrapuri","urban":"Sinyeu","postal_code":23363},{"province":"Nanggroe Aceh Darussalam","city":"Aceh Besar","district":"Kota Cot Glie (Kuta Cot Glie)","urban":"Sigapang","postal_code":23363},{"province":"Nanggroe Aceh Darussalam","city":"Aceh Besar","district":"Indrapuri","urban":"Seulangai","postal_code":23363},{"province":"Nanggroe Aceh Darussalam","city":"Aceh Besar","district":"Indrapuri","urban":"Seureumo","postal_code":23363},{"province":"Nanggroe Aceh Darussalam","city":"Aceh Besar","district":"Indrapuri","urban":"Seot/Seuot Baroh","postal_code":23363},{"province":"Nanggroe Aceh Darussalam","city":"Aceh Besar","district":"Indrapuri","urban":"Seot/Seuot Tunong","postal_code":23363},{"province":"Nanggroe Aceh Darussalam","city":"Aceh Besar","district":"Indrapuri","urban":"Riting","postal_code":23363},{"province":"Nanggroe Aceh Darussalam","city":"Aceh Besar","district":"Kota Malaka (Kuta Malaka)","urban":"Reuleung Geulumpang","postal_code":23363},{"province":"Nanggroe Aceh Darussalam","city":"Aceh Besar","district":"Kota Malaka (Kuta Malaka)","urban":"Reuleung Karieng","postal_code":23363},{"province":"Nanggroe Aceh Darussalam","city":"Aceh Besar","district":"Indrapuri","urban":"Reukih Dayah","postal_code":23363},{"province":"Nanggroe Aceh Darussalam","city":"Aceh Besar","district":"Indrapuri","urban":"Reukih Keupula","postal_code":23363},{"province":"Nanggroe Aceh Darussalam","city":"Aceh Besar","district":"Kota Cot Glie (Kuta Cot Glie)","urban":"Pasar Lampakuk","postal_code":23363},{"province":"Nanggroe Aceh Darussalam","city":"Aceh Besar","district":"Indrapuri","urban":"Pasar Indrapuri","postal_code":23363},{"province":"Nanggroe Aceh Darussalam","city":"Aceh Besar","district":"Kota Cot Glie (Kuta Cot Glie)","urban":"Pakuk","postal_code":23363},{"province":"Nanggroe Aceh Darussalam","city":"Aceh Besar","district":"Indrapuri","urban":"Mureu Ulee Titi","postal_code":23363},{"province":"Nanggroe Aceh Darussalam","city":"Aceh Besar","district":"Indrapuri","urban":"Mureu Baro","postal_code":23363},{"province":"Nanggroe Aceh Darussalam","city":"Aceh Besar","district":"Indrapuri","urban":"Mureu Bueng-Ue","postal_code":23363},{"province":"Nanggroe Aceh Darussalam","city":"Aceh Besar","district":"Indrapuri","urban":"Mureu Lam Glumpang","postal_code":23363},{"province":"Nanggroe Aceh Darussalam","city":"Aceh Besar","district":"Indrapuri","urban":"Meusalee Lhok","postal_code":23363},{"province":"Nanggroe Aceh Darussalam","city":"Aceh Besar","district":"Indrapuri","urban":"Mon Alue","postal_code":23363},{"province":"Nanggroe Aceh Darussalam","city":"Aceh Besar","district":"Indrapuri","urban":"Meunara","postal_code":23363},{"province":"Nanggroe Aceh Darussalam","city":"Aceh Besar","district":"Indrapuri","urban":"Manggra","postal_code":23363},{"province":"Nanggroe Aceh Darussalam","city":"Aceh Besar","district":"Kota Cot Glie (Kuta Cot Glie)","urban":"Maheng","postal_code":23363},{"province":"Nanggroe Aceh Darussalam","city":"Aceh Besar","district":"Kota Malaka (Kuta Malaka)","urban":"Lubok Batee","postal_code":23363},{"province":"Nanggroe Aceh Darussalam","city":"Aceh Besar","district":"Kota Malaka (Kuta Malaka)","urban":"Lubok Buni","postal_code":23363},{"province":"Nanggroe Aceh Darussalam","city":"Aceh Besar","district":"Indrapuri","urban":"Lingom","postal_code":23363},{"province":"Nanggroe Aceh Darussalam","city":"Aceh Besar","district":"Indrapuri","urban":"Limo Lamluweung (Lamlueng)","postal_code":23363},{"province":"Nanggroe Aceh Darussalam","city":"Aceh Besar","district":"Indrapuri","urban":"Limo Mesjid","postal_code":23363},{"province":"Nanggroe Aceh Darussalam","city":"Aceh Besar","district":"Indrapuri","urban":"Lheue Jeumpa","postal_code":23363},{"province":"Nanggroe Aceh Darussalam","city":"Aceh Besar","district":"Indrapuri","urban":"Limo Blang","postal_code":23363},{"province":"Nanggroe Aceh Darussalam","city":"Aceh Besar","district":"Kota Malaka (Kuta Malaka)","urban":"Leupung Riwat","postal_code":23363},{"province":"Nanggroe Aceh Darussalam","city":"Aceh Besar","district":"Kota Malaka (Kuta Malaka)","urban":"Leupung Cut","postal_code":23363},{"province":"Nanggroe Aceh Darussalam","city":"Aceh Besar","district":"Kota Malaka (Kuta Malaka)","urban":"Leupung Rayeuk","postal_code":23363},{"province":"Nanggroe Aceh Darussalam","city":"Aceh Besar","district":"Kota Cot Glie (Kuta Cot Glie)","urban":"Leupung Baleu/Balee","postal_code":23363},{"province":"Nanggroe Aceh Darussalam","city":"Aceh Besar","district":"Kota Cot Glie (Kuta Cot Glie)","urban":"Leupung Bruk/Bruek","postal_code":23363},{"province":"Nanggroe Aceh Darussalam","city":"Aceh Besar","district":"Kota Cot Glie (Kuta Cot Glie)","urban":"Lamtui","postal_code":23363},{"province":"Nanggroe Aceh Darussalam","city":"Aceh Besar","district":"Indrapuri","urban":"Lampupok Baro","postal_code":23363},{"province":"Nanggroe Aceh Darussalam","city":"Aceh Besar","district":"Indrapuri","urban":"Lampupok Raya","postal_code":23363},{"province":"Nanggroe Aceh Darussalam","city":"Aceh Besar","district":"Kota Malaka (Kuta Malaka)","urban":"Lamsiteh Cot","postal_code":23363},{"province":"Nanggroe Aceh Darussalam","city":"Aceh Besar","district":"Kota Cot Glie (Kuta Cot Glie)","urban":"Lampoh Raja","postal_code":23363},{"province":"Nanggroe Aceh Darussalam","city":"Aceh Besar","district":"Indrapuri","urban":"Lampanah Teungoh","postal_code":23363},{"province":"Nanggroe Aceh Darussalam","city":"Aceh Besar","district":"Indrapuri","urban":"Lampanah Tunong","postal_code":23363},{"province":"Nanggroe Aceh Darussalam","city":"Aceh Besar","district":"Indrapuri","urban":"Lampanah Ranjo","postal_code":23363},{"province":"Nanggroe Aceh Darussalam","city":"Aceh Besar","district":"Indrapuri","urban":"Lampanah Baro","postal_code":23363},{"province":"Nanggroe Aceh Darussalam","city":"Aceh Besar","district":"Indrapuri","urban":"Lampanah Dayah","postal_code":23363},{"province":"Nanggroe Aceh Darussalam","city":"Aceh Besar","district":"Kota Cot Glie (Kuta Cot Glie)","urban":"Lampakuk","postal_code":23363},{"province":"Nanggroe Aceh Darussalam","city":"Aceh Besar","district":"Indrapuri","urban":"Lamleubok","postal_code":23363},{"province":"Nanggroe Aceh Darussalam","city":"Aceh Besar","district":"Kota Malaka (Kuta Malaka)","urban":"Lambaro Samahani","postal_code":23363},{"province":"Nanggroe Aceh Darussalam","city":"Aceh Besar","district":"Indrapuri","urban":"Lam Siot","postal_code":23363},{"province":"Nanggroe Aceh Darussalam","city":"Aceh Besar","district":"Indrapuri","urban":"Lambunot","postal_code":23363},{"province":"Nanggroe Aceh Darussalam","city":"Aceh Besar","district":"Kota Cot Glie (Kuta Cot Glie)","urban":"Lam Leupung","postal_code":23363},{"province":"Nanggroe Aceh Darussalam","city":"Aceh Besar","district":"Indrapuri","urban":"Lam Lueng","postal_code":23363},{"province":"Nanggroe Aceh Darussalam","city":"Aceh Besar","district":"Kota Cot Glie (Kuta Cot Glie)","urban":"Lam Kleng/Kleeng","postal_code":23363},{"province":"Nanggroe Aceh Darussalam","city":"Aceh Besar","district":"Kota Cot Glie (Kuta Cot Glie)","urban":"Lam Leuot","postal_code":23363},{"province":"Nanggroe Aceh Darussalam","city":"Aceh Besar","district":"Indrapuri","urban":"Lam Ilie Teungoh","postal_code":23363},{"province":"Nanggroe Aceh Darussalam","city":"Aceh Besar","district":"Indrapuri","urban":"Lam Beutong","postal_code":23363},{"province":"Nanggroe Aceh Darussalam","city":"Aceh Besar","district":"Indrapuri","urban":"Lam Ilie Ganto","postal_code":23363},{"province":"Nanggroe Aceh Darussalam","city":"Aceh Besar","district":"Indrapuri","urban":"Lam Ilie Mesjid","postal_code":23363},{"province":"Nanggroe Aceh Darussalam","city":"Aceh Besar","district":"Kota Cot Glie (Kuta Cot Glie)","urban":"Lam Beugak","postal_code":23363},{"province":"Nanggroe Aceh Darussalam","city":"Aceh Besar","district":"Kota Malaka (Kuta Malaka)","urban":"Lam Ara Tunong","postal_code":23363},{"province":"Nanggroe Aceh Darussalam","city":"Aceh Besar","district":"Kota Malaka (Kuta Malaka)","urban":"Lam Ara Cut","postal_code":23363},{"province":"Nanggroe Aceh Darussalam","city":"Aceh Besar","district":"Kota Malaka (Kuta Malaka)","urban":"Lam Ara Engkit","postal_code":23363},{"province":"Nanggroe Aceh Darussalam","city":"Aceh Besar","district":"Indrapuri","urban":"Krueng Lamkareung","postal_code":23363},{"province":"Nanggroe Aceh Darussalam","city":"Aceh Besar","district":"Kota Cot Glie (Kuta Cot Glie)","urban":"Lam Aling/Alieng","postal_code":23363},{"province":"Nanggroe Aceh Darussalam","city":"Aceh Besar","district":"Kota Cot Glie (Kuta Cot Glie)","urban":"Keumireu","postal_code":23363},{"province":"Nanggroe Aceh Darussalam","city":"Aceh Besar","district":"Kota Cot Glie (Kuta Cot Glie)","urban":"Keuruweung Blang","postal_code":23363},{"province":"Nanggroe Aceh Darussalam","city":"Aceh Besar","district":"Kota Cot Glie (Kuta Cot Glie)","urban":"Keuruweung Krueng","postal_code":23363},{"province":"Nanggroe Aceh Darussalam","city":"Aceh Besar","district":"Indrapuri","urban":"Jruek Bak Kreh","postal_code":23363},{"province":"Nanggroe Aceh Darussalam","city":"Aceh Besar","district":"Indrapuri","urban":"Jruek Balee","postal_code":23363},{"province":"Nanggroe Aceh Darussalam","city":"Aceh Besar","district":"Kota Cot Glie (Kuta Cot Glie)","urban":"Ie Alang Lam Kreumeuh (Keureumeun)","postal_code":23363},{"province":"Nanggroe Aceh Darussalam","city":"Aceh Besar","district":"Kota Cot Glie (Kuta Cot Glie)","urban":"Ie Alang Mesjid","postal_code":23363},{"province":"Nanggroe Aceh Darussalam","city":"Aceh Besar","district":"Indrapuri","urban":"Indrapuri","postal_code":23363},{"province":"Nanggroe Aceh Darussalam","city":"Aceh Besar","district":"Kota Cot Glie (Kuta Cot Glie)","urban":"Ie Alang Dayah","postal_code":23363},{"province":"Nanggroe Aceh Darussalam","city":"Aceh Besar","district":"Kota Cot Glie (Kuta Cot Glie)","urban":"Ie Alang Lam Ghui","postal_code":23363},{"province":"Nanggroe Aceh Darussalam","city":"Aceh Besar","district":"Indrapuri","urban":"Grot Meunasah Baro","postal_code":23363},{"province":"Nanggroe Aceh Darussalam","city":"Aceh Besar","district":"Indrapuri","urban":"Grot Meunasah Blang","postal_code":23363},{"province":"Nanggroe Aceh Darussalam","city":"Aceh Besar","district":"Indrapuri","urban":"Grot Meunasah Manyang","postal_code":23363},{"province":"Nanggroe Aceh Darussalam","city":"Aceh Besar","district":"Kota Cot Glie (Kuta Cot Glie)","urban":"Glee Jai","postal_code":23363},{"province":"Nanggroe Aceh Darussalam","city":"Aceh Besar","district":"Indrapuri","urban":"Empee Ara","postal_code":23363},{"province":"Nanggroe Aceh Darussalam","city":"Aceh Besar","district":"Indrapuri","urban":"Cot Kareung","postal_code":23363},{"province":"Nanggroe Aceh Darussalam","city":"Aceh Besar","district":"Indrapuri","urban":"Cureh","postal_code":23363},{"province":"Nanggroe Aceh Darussalam","city":"Aceh Besar","district":"Kota Cot Glie (Kuta Cot Glie)","urban":"Bueng Simek","postal_code":23363},{"province":"Nanggroe Aceh Darussalam","city":"Aceh Besar","district":"Kota Cot Glie (Kuta Cot Glie)","urban":"Cot Bayu","postal_code":23363},{"province":"Nanggroe Aceh Darussalam","city":"Aceh Besar","district":"Kota Malaka (Kuta Malaka)","urban":"Bughu","postal_code":23363},{"province":"Nanggroe Aceh Darussalam","city":"Aceh Besar","district":"Kota Cot Glie (Kuta Cot Glie)","urban":"Bandasafa","postal_code":23363},{"province":"Nanggroe Aceh Darussalam","city":"Aceh Besar","district":"Kota Cot Glie (Kuta Cot Glie)","urban":"Barih Lhok","postal_code":23363},{"province":"Nanggroe Aceh Darussalam","city":"Aceh Besar","district":"Kota Cot Glie (Kuta Cot Glie)","urban":"Bithak","postal_code":23363},{"province":"Nanggroe Aceh Darussalam","city":"Aceh Besar","district":"Indrapuri","urban":"Aneuk Glee","postal_code":23363},{"province":"Nanggroe Aceh Darussalam","city":"Aceh Besar","district":"Kota Cot Glie (Kuta Cot Glie)","urban":"Bak Sukon","postal_code":23363}]