[{"province":"Nanggroe Aceh Darussalam","city":"Aceh Besar","district":"Suka Makmur","urban":"Tampok Jeurat Raya","postal_code":23361},{"province":"Nanggroe Aceh Darussalam","city":"Aceh Besar","district":"Suka Makmur","urban":"Weusiteh","postal_code":23361},{"province":"Nanggroe Aceh Darussalam","city":"Aceh Besar","district":"Suka Makmur","urban":"Sibreh Keumudee","postal_code":23361},{"province":"Nanggroe Aceh Darussalam","city":"Aceh Besar","district":"Suka Makmur","urban":"Tampok Blang","postal_code":23361},{"province":"Nanggroe Aceh Darussalam","city":"Aceh Besar","district":"Suka Makmur","urban":"Reuhat Tuha","postal_code":23361},{"province":"Nanggroe Aceh Darussalam","city":"Aceh Besar","district":"Suka Makmur","urban":"Seumeureung","postal_code":23361},{"province":"Nanggroe Aceh Darussalam","city":"Aceh Besar","district":"Suka Makmur","urban":"Panterawa","postal_code":23361},{"province":"Nanggroe Aceh Darussalam","city":"Aceh Besar","district":"Suka Makmur","urban":"Niron","postal_code":23361},{"province":"Nanggroe Aceh Darussalam","city":"Aceh Besar","district":"Suka Makmur","urban":"Luthu Lamweu","postal_code":23361},{"province":"Nanggroe Aceh Darussalam","city":"Aceh Besar","district":"Suka Makmur","urban":"Meunasah Bakthu","postal_code":23361},{"province":"Nanggroe Aceh Darussalam","city":"Aceh Besar","district":"Suka Makmur","urban":"Meunasah Tuha","postal_code":23361},{"province":"Nanggroe Aceh Darussalam","city":"Aceh Besar","district":"Suka Makmur","urban":"Lamteh Dayah","postal_code":23361},{"province":"Nanggroe Aceh Darussalam","city":"Aceh Besar","district":"Suka Makmur","urban":"Luthu Dayah Krueng","postal_code":23361},{"province":"Nanggroe Aceh Darussalam","city":"Aceh Besar","district":"Suka Makmur","urban":"Lampanah Ineu","postal_code":23361},{"province":"Nanggroe Aceh Darussalam","city":"Aceh Besar","district":"Suka Makmur","urban":"Lampisang","postal_code":23361},{"province":"Nanggroe Aceh Darussalam","city":"Aceh Besar","district":"Suka Makmur","urban":"Lamgeu Baro","postal_code":23361},{"province":"Nanggroe Aceh Darussalam","city":"Aceh Besar","district":"Suka Makmur","urban":"Lamgeu Tuha","postal_code":23361},{"province":"Nanggroe Aceh Darussalam","city":"Aceh Besar","district":"Suka Makmur","urban":"Lambarih Jurong Raya","postal_code":23361},{"province":"Nanggroe Aceh Darussalam","city":"Aceh Besar","district":"Suka Makmur","urban":"Lambaro Sibreh","postal_code":23361},{"province":"Nanggroe Aceh Darussalam","city":"Aceh Besar","district":"Suka Makmur","urban":"Lambirah","postal_code":23361},{"province":"Nanggroe Aceh Darussalam","city":"Aceh Besar","district":"Suka Makmur","urban":"Lambarih Bak Mee","postal_code":23361},{"province":"Nanggroe Aceh Darussalam","city":"Aceh Besar","district":"Suka Makmur","urban":"Lam Tanjong","postal_code":23361},{"province":"Nanggroe Aceh Darussalam","city":"Aceh Besar","district":"Suka Makmur","urban":"Kayee Adang","postal_code":23361},{"province":"Nanggroe Aceh Darussalam","city":"Aceh Besar","district":"Suka Makmur","urban":"Klieng Manyang","postal_code":23361},{"province":"Nanggroe Aceh Darussalam","city":"Aceh Besar","district":"Suka Makmur","urban":"Lam Lheu","postal_code":23361},{"province":"Nanggroe Aceh Darussalam","city":"Aceh Besar","district":"Suka Makmur","urban":"Dilib Lamteungoh","postal_code":23361},{"province":"Nanggroe Aceh Darussalam","city":"Aceh Besar","district":"Suka Makmur","urban":"Blang Cot/Cut","postal_code":23361},{"province":"Nanggroe Aceh Darussalam","city":"Aceh Besar","district":"Suka Makmur","urban":"Bukloh","postal_code":23361},{"province":"Nanggroe Aceh Darussalam","city":"Aceh Besar","district":"Suka Makmur","urban":"Dilib Bukti","postal_code":23361},{"province":"Nanggroe Aceh Darussalam","city":"Aceh Besar","district":"Suka Makmur","urban":"Baet Mesjid","postal_code":23361},{"province":"Nanggroe Aceh Darussalam","city":"Aceh Besar","district":"Suka Makmur","urban":"Baet Meusugo","postal_code":23361},{"province":"Nanggroe Aceh Darussalam","city":"Aceh Besar","district":"Suka Makmur","urban":"Aneuk Galong Baro","postal_code":23361},{"province":"Nanggroe Aceh Darussalam","city":"Aceh Besar","district":"Suka Makmur","urban":"Aneuk Galong Titi","postal_code":23361},{"province":"Nanggroe Aceh Darussalam","city":"Aceh Besar","district":"Suka Makmur","urban":"Baet Lampuot","postal_code":23361},{"province":"Nanggroe Aceh Darussalam","city":"Aceh Besar","district":"Suka Makmur","urban":"Aneuk Batee","postal_code":23361}]