[{"province":"Nanggroe Aceh Darussalam","city":"Aceh Besar","district":"Mantasiek (Montasik)","urban":"Wue Lhok","postal_code":23362},{"province":"Nanggroe Aceh Darussalam","city":"Aceh Besar","district":"Mantasiek (Montasik)","urban":"Warabo","postal_code":23362},{"province":"Nanggroe Aceh Darussalam","city":"Aceh Besar","district":"Mantasiek (Montasik)","urban":"Weu Bada","postal_code":23362},{"province":"Nanggroe Aceh Darussalam","city":"Aceh Besar","district":"Mantasiek (Montasik)","urban":"Weu Krueng","postal_code":23362},{"province":"Nanggroe Aceh Darussalam","city":"Aceh Besar","district":"Mantasiek (Montasik)","urban":"Teubang Phui Mesjid","postal_code":23362},{"province":"Nanggroe Aceh Darussalam","city":"Aceh Besar","district":"Mantasiek (Montasik)","urban":"Ulee Lhat","postal_code":23362},{"province":"Nanggroe Aceh Darussalam","city":"Aceh Besar","district":"Blank Bintang","urban":"Teupin Batee","postal_code":23362},{"province":"Nanggroe Aceh Darussalam","city":"Aceh Besar","district":"Mantasiek (Montasik)","urban":"Seuban Lhok","postal_code":23362},{"province":"Nanggroe Aceh Darussalam","city":"Aceh Besar","district":"Mantasiek (Montasik)","urban":"Seumeut","postal_code":23362},{"province":"Nanggroe Aceh Darussalam","city":"Aceh Besar","district":"Mantasiek (Montasik)","urban":"Teubang Phui Baro","postal_code":23362},{"province":"Nanggroe Aceh Darussalam","city":"Aceh Besar","district":"Mantasiek (Montasik)","urban":"Piyeung Manee","postal_code":23362},{"province":"Nanggroe Aceh Darussalam","city":"Aceh Besar","district":"Mantasiek (Montasik)","urban":"Reudeup","postal_code":23362},{"province":"Nanggroe Aceh Darussalam","city":"Aceh Besar","district":"Mantasiek (Montasik)","urban":"Seuban Cot","postal_code":23362},{"province":"Nanggroe Aceh Darussalam","city":"Aceh Besar","district":"Mantasiek (Montasik)","urban":"Peyeung Datu","postal_code":23362},{"province":"Nanggroe Aceh Darussalam","city":"Aceh Besar","district":"Mantasiek (Montasik)","urban":"Piyeng Kuweu","postal_code":23362},{"province":"Nanggroe Aceh Darussalam","city":"Aceh Besar","district":"Mantasiek (Montasik)","urban":"Piyeung Lhang","postal_code":23362},{"province":"Nanggroe Aceh Darussalam","city":"Aceh Besar","district":"Mantasiek (Montasik)","urban":"Meunasah Tutong","postal_code":23362},{"province":"Nanggroe Aceh Darussalam","city":"Aceh Besar","district":"Mantasiek (Montasik)","urban":"Mon Ara","postal_code":23362},{"province":"Nanggroe Aceh Darussalam","city":"Aceh Besar","district":"Mantasiek (Montasik)","urban":"Peurumping","postal_code":23362},{"province":"Nanggroe Aceh Darussalam","city":"Aceh Besar","district":"Mantasiek (Montasik)","urban":"Mata Ie","postal_code":23362},{"province":"Nanggroe Aceh Darussalam","city":"Aceh Besar","district":"Mantasiek (Montasik)","urban":"Lampaseh Krueng","postal_code":23362},{"province":"Nanggroe Aceh Darussalam","city":"Aceh Besar","district":"Mantasiek (Montasik)","urban":"Lampaseh Lhok","postal_code":23362},{"province":"Nanggroe Aceh Darussalam","city":"Aceh Besar","district":"Blank Bintang","urban":"Lam Siem","postal_code":23362},{"province":"Nanggroe Aceh Darussalam","city":"Aceh Besar","district":"Mantasiek (Montasik)","urban":"Lam Raya","postal_code":23362},{"province":"Nanggroe Aceh Darussalam","city":"Aceh Besar","district":"Mantasiek (Montasik)","urban":"Lamme Garot","postal_code":23362},{"province":"Nanggroe Aceh Darussalam","city":"Aceh Besar","district":"Blank Bintang","urban":"Kayee Kunyet","postal_code":23362},{"province":"Nanggroe Aceh Darussalam","city":"Aceh Besar","district":"Mantasiek (Montasik)","urban":"Lam Nga","postal_code":23362},{"province":"Nanggroe Aceh Darussalam","city":"Aceh Besar","district":"Blank Bintang","urban":"Kampung Blang","postal_code":23362},{"province":"Nanggroe Aceh Darussalam","city":"Aceh Besar","district":"Mantasiek (Montasik)","urban":"Empee Tunong","postal_code":23362},{"province":"Nanggroe Aceh Darussalam","city":"Aceh Besar","district":"Mantasiek (Montasik)","urban":"Gampong Baroh","postal_code":23362},{"province":"Nanggroe Aceh Darussalam","city":"Aceh Besar","district":"Blank Bintang","urban":"Empee Bata","postal_code":23362},{"province":"Nanggroe Aceh Darussalam","city":"Aceh Besar","district":"Mantasiek (Montasik)","urban":"Cot Seunong","postal_code":23362},{"province":"Nanggroe Aceh Darussalam","city":"Aceh Besar","district":"Mantasiek (Montasik)","urban":"Dayah Daboh","postal_code":23362},{"province":"Nanggroe Aceh Darussalam","city":"Aceh Besar","district":"Blank Bintang","urban":"Data Makmur","postal_code":23362},{"province":"Nanggroe Aceh Darussalam","city":"Aceh Besar","district":"Blank Bintang","urban":"Cot Rumpun","postal_code":23362},{"province":"Nanggroe Aceh Darussalam","city":"Aceh Besar","district":"Blank Bintang","urban":"Cot Sayun","postal_code":23362},{"province":"Nanggroe Aceh Darussalam","city":"Aceh Besar","district":"Blank Bintang","urban":"Cot Mancang","postal_code":23362},{"province":"Nanggroe Aceh Darussalam","city":"Aceh Besar","district":"Blank Bintang","urban":"Cot Meulangen","postal_code":23362},{"province":"Nanggroe Aceh Darussalam","city":"Aceh Besar","district":"Blank Bintang","urban":"Cot Nambak","postal_code":23362},{"province":"Nanggroe Aceh Darussalam","city":"Aceh Besar","district":"Blank Bintang","urban":"Cot Leu-Ot","postal_code":23362},{"province":"Nanggroe Aceh Darussalam","city":"Aceh Besar","district":"Mantasiek (Montasik)","urban":"Cot Lampoh Soh","postal_code":23362},{"province":"Nanggroe Aceh Darussalam","city":"Aceh Besar","district":"Mantasiek (Montasik)","urban":"Cot Lhok","postal_code":23362},{"province":"Nanggroe Aceh Darussalam","city":"Aceh Besar","district":"Blank Bintang","urban":"Cot Bagie","postal_code":23362},{"province":"Nanggroe Aceh Darussalam","city":"Aceh Besar","district":"Blank Bintang","urban":"Cot Ho-Ho","postal_code":23362},{"province":"Nanggroe Aceh Darussalam","city":"Aceh Besar","district":"Blank Bintang","urban":"Cot Jambo","postal_code":23362},{"province":"Nanggroe Aceh Darussalam","city":"Aceh Besar","district":"Mantasiek (Montasik)","urban":"Bung Raya","postal_code":23362},{"province":"Nanggroe Aceh Darussalam","city":"Aceh Besar","district":"Mantasiek (Montasik)","urban":"Bung Tujuh","postal_code":23362},{"province":"Nanggroe Aceh Darussalam","city":"Aceh Besar","district":"Mantasiek (Montasik)","urban":"Bira Lhok","postal_code":23362},{"province":"Nanggroe Aceh Darussalam","city":"Aceh Besar","district":"Mantasiek (Montasik)","urban":"Bung Daroh","postal_code":23362},{"province":"Nanggroe Aceh Darussalam","city":"Aceh Besar","district":"Blank Bintang","urban":"Bueng Pageu","postal_code":23362},{"province":"Nanggroe Aceh Darussalam","city":"Aceh Besar","district":"Mantasiek (Montasik)","urban":"Bak Cirih","postal_code":23362},{"province":"Nanggroe Aceh Darussalam","city":"Aceh Besar","district":"Mantasiek (Montasik)","urban":"Bak Dilib","postal_code":23362},{"province":"Nanggroe Aceh Darussalam","city":"Aceh Besar","district":"Mantasiek (Montasik)","urban":"Bira Cot","postal_code":23362},{"province":"Nanggroe Aceh Darussalam","city":"Aceh Besar","district":"Mantasiek (Montasik)","urban":"Alue","postal_code":23362},{"province":"Nanggroe Aceh Darussalam","city":"Aceh Besar","district":"Mantasiek (Montasik)","urban":"Atong","postal_code":23362}]