[{"province":"Nanggroe Aceh Darussalam","city":"Aceh Besar","district":"Ingin Jaya","urban":"Teubang Phui","postal_code":23371},{"province":"Nanggroe Aceh Darussalam","city":"Aceh Besar","district":"Ingin Jaya","urban":"Ujong XII","postal_code":23371},{"province":"Nanggroe Aceh Darussalam","city":"Aceh Besar","district":"Simpang Tiga","urban":"Tantuha","postal_code":23371},{"province":"Nanggroe Aceh Darussalam","city":"Aceh Besar","district":"Ingin Jaya","urban":"Tanjong","postal_code":23371},{"province":"Nanggroe Aceh Darussalam","city":"Aceh Besar","district":"Ingin Jaya","urban":"Santan","postal_code":23371},{"province":"Nanggroe Aceh Darussalam","city":"Aceh Besar","district":"Ingin Jaya","urban":"Siron","postal_code":23371},{"province":"Nanggroe Aceh Darussalam","city":"Aceh Besar","district":"Ingin Jaya","urban":"Pasie Lubok","postal_code":23371},{"province":"Nanggroe Aceh Darussalam","city":"Aceh Besar","district":"Ingin Jaya","urban":"Reuloh","postal_code":23371},{"province":"Nanggroe Aceh Darussalam","city":"Aceh Besar","district":"Krueng Barona Jaya","urban":"Rumpet","postal_code":23371},{"province":"Nanggroe Aceh Darussalam","city":"Aceh Besar","district":"Ingin Jaya","urban":"Pantee","postal_code":23371},{"province":"Nanggroe Aceh Darussalam","city":"Aceh Besar","district":"Ingin Jaya","urban":"Pasie LG","postal_code":23371},{"province":"Nanggroe Aceh Darussalam","city":"Aceh Besar","district":"Simpang Tiga","urban":"Nya","postal_code":23371},{"province":"Nanggroe Aceh Darussalam","city":"Aceh Besar","district":"Ingin Jaya","urban":"Paleuh Pulo","postal_code":23371},{"province":"Nanggroe Aceh Darussalam","city":"Aceh Besar","district":"Simpang Tiga","urban":"Nya","postal_code":23371},{"province":"Nanggroe Aceh Darussalam","city":"Aceh Besar","district":"Krueng Barona Jaya","urban":"Miruk","postal_code":23371},{"province":"Nanggroe Aceh Darussalam","city":"Aceh Besar","district":"Ingin Jaya","urban":"Meunasah Teutong","postal_code":23371},{"province":"Nanggroe Aceh Darussalam","city":"Aceh Besar","district":"Krueng Barona Jaya","urban":"Meunasah Papeun","postal_code":23371},{"province":"Nanggroe Aceh Darussalam","city":"Aceh Besar","district":"Ingin Jaya","urban":"Meunasah Manyet","postal_code":23371},{"province":"Nanggroe Aceh Darussalam","city":"Aceh Besar","district":"Krueng Barona Jaya","urban":"Meunasah Manyang","postal_code":23371},{"province":"Nanggroe Aceh Darussalam","city":"Aceh Besar","district":"Ingin Jaya","urban":"Meunasah Manyang LG","postal_code":23371},{"province":"Nanggroe Aceh Darussalam","city":"Aceh Besar","district":"Ingin Jaya","urban":"Meunasah Manyang Pagar Air","postal_code":23371},{"province":"Nanggroe Aceh Darussalam","city":"Aceh Besar","district":"Krueng Barona Jaya","urban":"Meunasah Intan","postal_code":23371},{"province":"Nanggroe Aceh Darussalam","city":"Aceh Besar","district":"Ingin Jaya","urban":"Meunasah Krueng","postal_code":23371},{"province":"Nanggroe Aceh Darussalam","city":"Aceh Besar","district":"Ingin Jaya","urban":"Meunasah Baro","postal_code":23371},{"province":"Nanggroe Aceh Darussalam","city":"Aceh Besar","district":"Ingin Jaya","urban":"Meunasah Dayah","postal_code":23371},{"province":"Nanggroe Aceh Darussalam","city":"Aceh Besar","district":"Krueng Barona Jaya","urban":"Lueng Ie","postal_code":23371},{"province":"Nanggroe Aceh Darussalam","city":"Aceh Besar","district":"Krueng Barona Jaya","urban":"Meunasah Baet","postal_code":23371},{"province":"Nanggroe Aceh Darussalam","city":"Aceh Besar","district":"Krueng Barona Jaya","urban":"Meunasah Baktrieng","postal_code":23371},{"province":"Nanggroe Aceh Darussalam","city":"Aceh Besar","district":"Ingin Jaya","urban":"Lhok Sukon","postal_code":23371},{"province":"Nanggroe Aceh Darussalam","city":"Aceh Besar","district":"Ingin Jaya","urban":"Lubok Gapuy","postal_code":23371},{"province":"Nanggroe Aceh Darussalam","city":"Aceh Besar","district":"Ingin Jaya","urban":"Lubuk Batee","postal_code":23371},{"province":"Nanggroe Aceh Darussalam","city":"Aceh Besar","district":"Ingin Jaya","urban":"Lampreh L. Teungoh","postal_code":23371},{"province":"Nanggroe Aceh Darussalam","city":"Aceh Besar","district":"Ingin Jaya","urban":"Lampreh Lam Jamprok","postal_code":23371},{"province":"Nanggroe Aceh Darussalam","city":"Aceh Besar","district":"Krueng Barona Jaya","urban":"Lampermei (Lampermee)","postal_code":23371},{"province":"Nanggroe Aceh Darussalam","city":"Aceh Besar","district":"Simpang Tiga","urban":"Lamjamee Dayah","postal_code":23371},{"province":"Nanggroe Aceh Darussalam","city":"Aceh Besar","district":"Simpang Tiga","urban":"Lamjamee Lamkrak","postal_code":23371},{"province":"Nanggroe Aceh Darussalam","city":"Aceh Besar","district":"Ingin Jaya","urban":"Lambaro","postal_code":23371},{"province":"Nanggroe Aceh Darussalam","city":"Aceh Besar","district":"Ingin Jaya","urban":"Lamdaya","postal_code":23371},{"province":"Nanggroe Aceh Darussalam","city":"Aceh Besar","district":"Simpang Tiga","urban":"Lambunot","postal_code":23371},{"province":"Nanggroe Aceh Darussalam","city":"Aceh Besar","district":"Ingin Jaya","urban":"Lambada","postal_code":23371},{"province":"Nanggroe Aceh Darussalam","city":"Aceh Besar","district":"Simpang Tiga","urban":"Lam Urit","postal_code":23371},{"province":"Nanggroe Aceh Darussalam","city":"Aceh Besar","district":"Ingin Jaya","urban":"Lam Ue","postal_code":23371},{"province":"Nanggroe Aceh Darussalam","city":"Aceh Besar","district":"Ingin Jaya","urban":"Lam Sinyeu","postal_code":23371},{"province":"Nanggroe Aceh Darussalam","city":"Aceh Besar","district":"Ingin Jaya","urban":"Lam Teungoh","postal_code":23371},{"province":"Nanggroe Aceh Darussalam","city":"Aceh Besar","district":"Ingin Jaya","urban":"lam Cot","postal_code":23371},{"province":"Nanggroe Aceh Darussalam","city":"Aceh Besar","district":"Krueng Barona Jaya","urban":"Lam Gapang","postal_code":23371},{"province":"Nanggroe Aceh Darussalam","city":"Aceh Besar","district":"Simpang Tiga","urban":"Krueng Mak","postal_code":23371},{"province":"Nanggroe Aceh Darussalam","city":"Aceh Besar","district":"Simpang Tiga","urban":"Lam Batee","postal_code":23371},{"province":"Nanggroe Aceh Darussalam","city":"Aceh Besar","district":"Ingin Jaya","urban":"Kayee Lee","postal_code":23371},{"province":"Nanggroe Aceh Darussalam","city":"Aceh Besar","district":"Ingin Jaya","urban":"Jurong Peujeura","postal_code":23371},{"province":"Nanggroe Aceh Darussalam","city":"Aceh Besar","district":"Ingin Jaya","urban":"Kalut","postal_code":23371},{"province":"Nanggroe Aceh Darussalam","city":"Aceh Besar","district":"Ingin Jaya","urban":"Gani","postal_code":23371},{"province":"Nanggroe Aceh Darussalam","city":"Aceh Besar","district":"Krueng Barona Jaya","urban":"Gla Deyah","postal_code":23371},{"province":"Nanggroe Aceh Darussalam","city":"Aceh Besar","district":"Krueng Barona Jaya","urban":"Gla Meunasah Baro","postal_code":23371},{"province":"Nanggroe Aceh Darussalam","city":"Aceh Besar","district":"Ingin Jaya","urban":"Dham Ceukok","postal_code":23371},{"province":"Nanggroe Aceh Darussalam","city":"Aceh Besar","district":"Ingin Jaya","urban":"Dham Pulo","postal_code":23371},{"province":"Nanggroe Aceh Darussalam","city":"Aceh Besar","district":"Ingin Jaya","urban":"Cot Montiwan","postal_code":23371},{"province":"Nanggroe Aceh Darussalam","city":"Aceh Besar","district":"Ingin Jaya","urban":"Cot Suruy","postal_code":23371},{"province":"Nanggroe Aceh Darussalam","city":"Aceh Besar","district":"Blank Bintang","urban":"Cot Madhi/Madi","postal_code":23371},{"province":"Nanggroe Aceh Darussalam","city":"Aceh Besar","district":"Blank Bintang","urban":"Cot Malem","postal_code":23371},{"province":"Nanggroe Aceh Darussalam","city":"Aceh Besar","district":"Ingin Jaya","urban":"Cot Bada","postal_code":23371},{"province":"Nanggroe Aceh Darussalam","city":"Aceh Besar","district":"Ingin Jaya","urban":"Cot Got","postal_code":23371},{"province":"Nanggroe Aceh Darussalam","city":"Aceh Besar","district":"Blank Bintang","urban":"Cot Karieng","postal_code":23371},{"province":"Nanggroe Aceh Darussalam","city":"Aceh Besar","district":"Ingin Jaya","urban":"Bung Ceukok","postal_code":23371},{"province":"Nanggroe Aceh Darussalam","city":"Aceh Besar","district":"Ingin Jaya","urban":"Cot Alue","postal_code":23371},{"province":"Nanggroe Aceh Darussalam","city":"Aceh Besar","district":"Blank Bintang","urban":"Bueng Sidom","postal_code":23371},{"province":"Nanggroe Aceh Darussalam","city":"Aceh Besar","district":"Simpang Tiga","urban":"Blang Miro","postal_code":23371},{"province":"Nanggroe Aceh Darussalam","city":"Aceh Besar","district":"Simpang Tiga","urban":"Blang Preh","postal_code":23371},{"province":"Nanggroe Aceh Darussalam","city":"Aceh Besar","district":"Ingin Jaya","urban":"Bineeh Blang","postal_code":23371},{"province":"Nanggroe Aceh Darussalam","city":"Aceh Besar","district":"Simpang Tiga","urban":"Bantee Linteung","postal_code":23371},{"province":"Nanggroe Aceh Darussalam","city":"Aceh Besar","district":"Simpang Tiga","urban":"Bha Ulee Tutu","postal_code":23371},{"province":"Nanggroe Aceh Darussalam","city":"Aceh Besar","district":"Ingin Jaya","urban":"Bada","postal_code":23371},{"province":"Nanggroe Aceh Darussalam","city":"Aceh Besar","district":"Ingin Jaya","urban":"Bakoy","postal_code":23371},{"province":"Nanggroe Aceh Darussalam","city":"Aceh Besar","district":"Ingin Jaya","urban":"Ateuk Lueng Ie","postal_code":23371},{"province":"Nanggroe Aceh Darussalam","city":"Aceh Besar","district":"Simpang Tiga","urban":"Ateuk Mon Panah","postal_code":23371},{"province":"Nanggroe Aceh Darussalam","city":"Aceh Besar","district":"Simpang Tiga","urban":"Ateuk Lam Puot","postal_code":23371},{"province":"Nanggroe Aceh Darussalam","city":"Aceh Besar","district":"Simpang Tiga","urban":"Ateuk Lam Ura","postal_code":23371},{"province":"Nanggroe Aceh Darussalam","city":"Aceh Besar","district":"Simpang Tiga","urban":"Ateuk Lamphang","postal_code":23371},{"province":"Nanggroe Aceh Darussalam","city":"Aceh Besar","district":"Simpang Tiga","urban":"Ateuk Blang Asan","postal_code":23371},{"province":"Nanggroe Aceh Darussalam","city":"Aceh Besar","district":"Simpang Tiga","urban":"Ateuk Cut","postal_code":23371},{"province":"Nanggroe Aceh Darussalam","city":"Aceh Besar","district":"Ingin Jaya","urban":"Ajee Rayeuk","postal_code":23371},{"province":"Nanggroe Aceh Darussalam","city":"Aceh Besar","district":"Ingin Jaya","urban":"Ateuk Anggok","postal_code":23371},{"province":"Nanggroe Aceh Darussalam","city":"Aceh Besar","district":"Ingin Jaya","urban":"Ajee Pagar Air","postal_code":23371},{"province":"Nanggroe Aceh Darussalam","city":"Aceh Besar","district":"Ingin Jaya","urban":"Ajee Cut","postal_code":23371}]