[{"province":"Nanggroe Aceh Darussalam","city":"Aceh Besar","district":"Darussalam","urban":"Tungkop","postal_code":23373},{"province":"Nanggroe Aceh Darussalam","city":"Aceh Besar","district":"Darussalam","urban":"Tanjung Deyah","postal_code":23373},{"province":"Nanggroe Aceh Darussalam","city":"Aceh Besar","district":"Darussalam","urban":"Siem","postal_code":23373},{"province":"Nanggroe Aceh Darussalam","city":"Aceh Besar","district":"Darussalam","urban":"Tanjong Seulamat","postal_code":23373},{"province":"Nanggroe Aceh Darussalam","city":"Aceh Besar","district":"Darussalam","urban":"Seuleu","postal_code":23373},{"province":"Nanggroe Aceh Darussalam","city":"Aceh Besar","district":"Baitussalam","urban":"Miruk Lam Reudeup","postal_code":23373},{"province":"Nanggroe Aceh Darussalam","city":"Aceh Besar","district":"Darussalam","urban":"Limpok","postal_code":23373},{"province":"Nanggroe Aceh Darussalam","city":"Aceh Besar","district":"Darussalam","urban":"Miruek Taman","postal_code":23373},{"province":"Nanggroe Aceh Darussalam","city":"Aceh Besar","district":"Darussalam","urban":"Lie Eue","postal_code":23373},{"province":"Nanggroe Aceh Darussalam","city":"Aceh Besar","district":"Baitussalam","urban":"Lampineung","postal_code":23373},{"province":"Nanggroe Aceh Darussalam","city":"Aceh Besar","district":"Darussalam","urban":"Lambaro Sukon","postal_code":23373},{"province":"Nanggroe Aceh Darussalam","city":"Aceh Besar","district":"Darussalam","urban":"Lambiheu Siem","postal_code":23373},{"province":"Nanggroe Aceh Darussalam","city":"Aceh Besar","district":"Darussalam","urban":"Lambada Peukan","postal_code":23373},{"province":"Nanggroe Aceh Darussalam","city":"Aceh Besar","district":"Darussalam","urban":"Lam Ujong","postal_code":23373},{"province":"Nanggroe Aceh Darussalam","city":"Aceh Besar","district":"Baitussalam","urban":"Lam Ujong","postal_code":23373},{"province":"Nanggroe Aceh Darussalam","city":"Aceh Besar","district":"Darussalam","urban":"Lam Reh","postal_code":23373},{"province":"Nanggroe Aceh Darussalam","city":"Aceh Besar","district":"Darussalam","urban":"Lam Timpeung","postal_code":23373},{"province":"Nanggroe Aceh Darussalam","city":"Aceh Besar","district":"Darussalam","urban":"Lam Puuk","postal_code":23373},{"province":"Nanggroe Aceh Darussalam","city":"Aceh Besar","district":"Darussalam","urban":"Lam Puja","postal_code":23373},{"province":"Nanggroe Aceh Darussalam","city":"Aceh Besar","district":"Darussalam","urban":"Lam Klat","postal_code":23373},{"province":"Nanggroe Aceh Darussalam","city":"Aceh Besar","district":"Darussalam","urban":"Lam Peudaya","postal_code":23373},{"province":"Nanggroe Aceh Darussalam","city":"Aceh Besar","district":"Darussalam","urban":"Lam Keunung","postal_code":23373},{"province":"Nanggroe Aceh Darussalam","city":"Aceh Besar","district":"Darussalam","urban":"Lam Duroy","postal_code":23373},{"province":"Nanggroe Aceh Darussalam","city":"Aceh Besar","district":"Darussalam","urban":"Lam Gawee","postal_code":23373},{"province":"Nanggroe Aceh Darussalam","city":"Aceh Besar","district":"Darussalam","urban":"Lam Bitra","postal_code":23373},{"province":"Nanggroe Aceh Darussalam","city":"Aceh Besar","district":"Darussalam","urban":"Lam Biheu","postal_code":23373},{"province":"Nanggroe Aceh Darussalam","city":"Aceh Besar","district":"Darussalam","urban":"Lam Asan","postal_code":23373},{"province":"Nanggroe Aceh Darussalam","city":"Aceh Besar","district":"Baitussalam","urban":"Lam Bada Lhok","postal_code":23373},{"province":"Nanggroe Aceh Darussalam","city":"Aceh Besar","district":"Baitussalam","urban":"Lam Asan","postal_code":23373},{"province":"Nanggroe Aceh Darussalam","city":"Aceh Besar","district":"Darussalam","urban":"Krueng Kalee","postal_code":23373},{"province":"Nanggroe Aceh Darussalam","city":"Aceh Besar","district":"Baitussalam","urban":"Labui","postal_code":23373},{"province":"Nanggroe Aceh Darussalam","city":"Aceh Besar","district":"Baitussalam","urban":"Klieng Meuria","postal_code":23373},{"province":"Nanggroe Aceh Darussalam","city":"Aceh Besar","district":"Baitussalam","urban":"Klieng Cot Aron","postal_code":23373},{"province":"Nanggroe Aceh Darussalam","city":"Aceh Besar","district":"Baitussalam","urban":"Kajhu","postal_code":23373},{"province":"Nanggroe Aceh Darussalam","city":"Aceh Besar","district":"Darussalam","urban":"Gampong Blang","postal_code":23373},{"province":"Nanggroe Aceh Darussalam","city":"Aceh Besar","district":"Darussalam","urban":"Gampong Cot","postal_code":23373},{"province":"Nanggroe Aceh Darussalam","city":"Aceh Besar","district":"Baitussalam","urban":"Cadek","postal_code":23373},{"province":"Nanggroe Aceh Darussalam","city":"Aceh Besar","district":"Baitussalam","urban":"Cot Paya","postal_code":23373},{"province":"Nanggroe Aceh Darussalam","city":"Aceh Besar","district":"Baitussalam","urban":"Blang Krueng","postal_code":23373},{"province":"Nanggroe Aceh Darussalam","city":"Aceh Besar","district":"Darussalam","urban":"Beurabung","postal_code":23373},{"province":"Nanggroe Aceh Darussalam","city":"Aceh Besar","district":"Baitussalam","urban":"Baet","postal_code":23373},{"province":"Nanggroe Aceh Darussalam","city":"Aceh Besar","district":"Darussalam","urban":"Angan","postal_code":23373}]