[{"province":"Nanggroe Aceh Darussalam","city":"Aceh Besar","district":"Mesjid Raya","urban":"Ruyung","postal_code":23381},{"province":"Nanggroe Aceh Darussalam","city":"Aceh Besar","district":"Mesjid Raya","urban":"Paya Kameng","postal_code":23381},{"province":"Nanggroe Aceh Darussalam","city":"Aceh Besar","district":"Mesjid Raya","urban":"Neuheun","postal_code":23381},{"province":"Nanggroe Aceh Darussalam","city":"Aceh Besar","district":"Mesjid Raya","urban":"Meunasah Mon","postal_code":23381},{"province":"Nanggroe Aceh Darussalam","city":"Aceh Besar","district":"Mesjid Raya","urban":"Meunasah Kulam","postal_code":23381},{"province":"Nanggroe Aceh Darussalam","city":"Aceh Besar","district":"Mesjid Raya","urban":"Meunasah Keudee","postal_code":23381},{"province":"Nanggroe Aceh Darussalam","city":"Aceh Besar","district":"Mesjid Raya","urban":"Lamnga","postal_code":23381},{"province":"Nanggroe Aceh Darussalam","city":"Aceh Besar","district":"Mesjid Raya","urban":"Lam Reh","postal_code":23381},{"province":"Nanggroe Aceh Darussalam","city":"Aceh Besar","district":"Mesjid Raya","urban":"Ladong","postal_code":23381},{"province":"Nanggroe Aceh Darussalam","city":"Aceh Besar","district":"Mesjid Raya","urban":"Gampong Baro","postal_code":23381},{"province":"Nanggroe Aceh Darussalam","city":"Aceh Besar","district":"Mesjid Raya","urban":"Ie Seu Um","postal_code":23381},{"province":"Nanggroe Aceh Darussalam","city":"Aceh Besar","district":"Mesjid Raya","urban":"Durung","postal_code":23381},{"province":"Nanggroe Aceh Darussalam","city":"Aceh Besar","district":"Mesjid Raya","urban":"Beurandeh","postal_code":23381}]