[{"province":"Nanggroe Aceh Darussalam","city":"Aceh Barat","district":"Johan Pahlawan","urban":"Suwak Indrapuri","postal_code":23611},{"province":"Nanggroe Aceh Darussalam","city":"Aceh Barat","district":"Johan Pahlawan","urban":"Suak Ribee","postal_code":23611},{"province":"Nanggroe Aceh Darussalam","city":"Aceh Barat","district":"Johan Pahlawan","urban":"Suak Sigadeng","postal_code":23611},{"province":"Nanggroe Aceh Darussalam","city":"Aceh Barat","district":"Johan Pahlawan","urban":"Suak Nie","postal_code":23611},{"province":"Nanggroe Aceh Darussalam","city":"Aceh Barat","district":"Johan Pahlawan","urban":"Suak Raya","postal_code":23611},{"province":"Nanggroe Aceh Darussalam","city":"Aceh Barat","district":"Johan Pahlawan","urban":"Padang Seurahet","postal_code":23611},{"province":"Nanggroe Aceh Darussalam","city":"Aceh Barat","district":"Johan Pahlawan","urban":"Seuneubok","postal_code":23611},{"province":"Nanggroe Aceh Darussalam","city":"Aceh Barat","district":"Johan Pahlawan","urban":"Kampung Darat","postal_code":23611},{"province":"Nanggroe Aceh Darussalam","city":"Aceh Barat","district":"Johan Pahlawan","urban":"Kampung Pasir","postal_code":23611},{"province":"Nanggroe Aceh Darussalam","city":"Aceh Barat","district":"Johan Pahlawan","urban":"Leuhan","postal_code":23611},{"province":"Nanggroe Aceh Darussalam","city":"Aceh Barat","district":"Johan Pahlawan","urban":"Kampung Belakang","postal_code":23611},{"province":"Nanggroe Aceh Darussalam","city":"Aceh Barat","district":"Johan Pahlawan","urban":"Gampa","postal_code":23611}]