[{"province":"Nanggroe Aceh Darussalam","city":"Aceh Barat","district":"Bubon","urban":"Ulee Blang","postal_code":23652},{"province":"Nanggroe Aceh Darussalam","city":"Aceh Barat","district":"Arongan Lambalek","urban":"Ujong Simpang","postal_code":23652},{"province":"Nanggroe Aceh Darussalam","city":"Aceh Barat","district":"Samatiga","urban":"Ujong Nga","postal_code":23652},{"province":"Nanggroe Aceh Darussalam","city":"Aceh Barat","district":"Arongan Lambalek","urban":"Teupin Peuraho","postal_code":23652},{"province":"Nanggroe Aceh Darussalam","city":"Aceh Barat","district":"Arongan Lambalek","urban":"Ujong Beusa","postal_code":23652},{"province":"Nanggroe Aceh Darussalam","city":"Aceh Barat","district":"Samatiga","urban":"Suak Seukee","postal_code":23652},{"province":"Nanggroe Aceh Darussalam","city":"Aceh Barat","district":"Samatiga","urban":"Suak Seumaseh","postal_code":23652},{"province":"Nanggroe Aceh Darussalam","city":"Aceh Barat","district":"Samatiga","urban":"Suak Timah","postal_code":23652},{"province":"Nanggroe Aceh Darussalam","city":"Aceh Barat","district":"Samatiga","urban":"Suak Pante Breuh","postal_code":23652},{"province":"Nanggroe Aceh Darussalam","city":"Aceh Barat","district":"Bubon","urban":"Suak Pangkat","postal_code":23652},{"province":"Nanggroe Aceh Darussalam","city":"Aceh Barat","district":"Arongan Lambalek","urban":"Suak Ie Beusou","postal_code":23652},{"province":"Nanggroe Aceh Darussalam","city":"Aceh Barat","district":"Samatiga","urban":"Suak Pandan","postal_code":23652},{"province":"Nanggroe Aceh Darussalam","city":"Aceh Barat","district":"Arongan Lambalek","urban":"Suak Keumudee","postal_code":23652},{"province":"Nanggroe Aceh Darussalam","city":"Aceh Barat","district":"Arongan Lambalek","urban":"Suak Bidok","postal_code":23652},{"province":"Nanggroe Aceh Darussalam","city":"Aceh Barat","district":"Samatiga","urban":"Suak Geudubang","postal_code":23652},{"province":"Nanggroe Aceh Darussalam","city":"Aceh Barat","district":"Arongan Lambalek","urban":"Simpang Peut","postal_code":23652},{"province":"Nanggroe Aceh Darussalam","city":"Aceh Barat","district":"Bubon","urban":"Seuneubok Trap","postal_code":23652},{"province":"Nanggroe Aceh Darussalam","city":"Aceh Barat","district":"Arongan Lambalek","urban":"Seuneubok Lueng","postal_code":23652},{"province":"Nanggroe Aceh Darussalam","city":"Aceh Barat","district":"Arongan Lambalek","urban":"Seuneubok Teungoh","postal_code":23652},{"province":"Nanggroe Aceh Darussalam","city":"Aceh Barat","district":"Bubon","urban":"Seumuleng","postal_code":23652},{"province":"Nanggroe Aceh Darussalam","city":"Aceh Barat","district":"Arongan Lambalek","urban":"Rimba Langgeh","postal_code":23652},{"province":"Nanggroe Aceh Darussalam","city":"Aceh Barat","district":"Samatiga","urban":"Reusak","postal_code":23652},{"province":"Nanggroe Aceh Darussalam","city":"Aceh Barat","district":"Samatiga","urban":"Pucok Lueng","postal_code":23652},{"province":"Nanggroe Aceh Darussalam","city":"Aceh Barat","district":"Samatiga","urban":"Rangkileh","postal_code":23652},{"province":"Nanggroe Aceh Darussalam","city":"Aceh Barat","district":"Bubon","urban":"Rambong","postal_code":23652},{"province":"Nanggroe Aceh Darussalam","city":"Aceh Barat","district":"Arongan Lambalek","urban":"Peuribu","postal_code":23652},{"province":"Nanggroe Aceh Darussalam","city":"Aceh Barat","district":"Samatiga","urban":"Pinem","postal_code":23652},{"province":"Nanggroe Aceh Darussalam","city":"Aceh Barat","district":"Bubon","urban":"Peulanteu Sp","postal_code":23652},{"province":"Nanggroe Aceh Darussalam","city":"Aceh Barat","district":"Arongan Lambalek","urban":"Panton Makmur","postal_code":23652},{"province":"Nanggroe Aceh Darussalam","city":"Aceh Barat","district":"Arongan Lambalek","urban":"Peulanteu Lb","postal_code":23652},{"province":"Nanggroe Aceh Darussalam","city":"Aceh Barat","district":"Samatiga","urban":"Paya Lumpat","postal_code":23652},{"province":"Nanggroe Aceh Darussalam","city":"Aceh Barat","district":"Arongan Lambalek","urban":"Pante Meutia","postal_code":23652},{"province":"Nanggroe Aceh Darussalam","city":"Aceh Barat","district":"Arongan Lambalek","urban":"Panton Bahagia","postal_code":23652},{"province":"Nanggroe Aceh Darussalam","city":"Aceh Barat","district":"Samatiga","urban":"Pange","postal_code":23652},{"province":"Nanggroe Aceh Darussalam","city":"Aceh Barat","district":"Samatiga","urban":"Lubok","postal_code":23652},{"province":"Nanggroe Aceh Darussalam","city":"Aceh Barat","district":"Samatiga","urban":"Mesjid Baro","postal_code":23652},{"province":"Nanggroe Aceh Darussalam","city":"Aceh Barat","district":"Samatiga","urban":"Leukeun","postal_code":23652},{"province":"Nanggroe Aceh Darussalam","city":"Aceh Barat","district":"Samatiga","urban":"Lhok Bubon","postal_code":23652},{"province":"Nanggroe Aceh Darussalam","city":"Aceh Barat","district":"Bubon","urban":"Liceh","postal_code":23652},{"province":"Nanggroe Aceh Darussalam","city":"Aceh Barat","district":"Bubon","urban":"Kuta Padang","postal_code":23652},{"province":"Nanggroe Aceh Darussalam","city":"Aceh Barat","district":"Bubon","urban":"Layung","postal_code":23652},{"province":"Nanggroe Aceh Darussalam","city":"Aceh Barat","district":"Arongan Lambalek","urban":"Kubu","postal_code":23652},{"province":"Nanggroe Aceh Darussalam","city":"Aceh Barat","district":"Bubon","urban":"Kuala Pling","postal_code":23652},{"province":"Nanggroe Aceh Darussalam","city":"Aceh Barat","district":"Samatiga","urban":"Krueng Tinggai","postal_code":23652},{"province":"Nanggroe Aceh Darussalam","city":"Aceh Barat","district":"Samatiga","urban":"Kuala Bubon","postal_code":23652},{"province":"Nanggroe Aceh Darussalam","city":"Aceh Barat","district":"Samatiga","urban":"Keureuseng","postal_code":23652},{"province":"Nanggroe Aceh Darussalam","city":"Aceh Barat","district":"Arongan Lambalek","urban":"Keub","postal_code":23652},{"province":"Nanggroe Aceh Darussalam","city":"Aceh Barat","district":"Bubon","urban":"Gunong Panah","postal_code":23652},{"province":"Nanggroe Aceh Darussalam","city":"Aceh Barat","district":"Arongan Lambalek","urban":"Gunong Pulo","postal_code":23652},{"province":"Nanggroe Aceh Darussalam","city":"Aceh Barat","district":"Arongan Lambalek","urban":"Karang Hampa","postal_code":23652},{"province":"Nanggroe Aceh Darussalam","city":"Aceh Barat","district":"Samatiga","urban":"Gampong Cot","postal_code":23652},{"province":"Nanggroe Aceh Darussalam","city":"Aceh Barat","district":"Samatiga","urban":"Gampong Ladang","postal_code":23652},{"province":"Nanggroe Aceh Darussalam","city":"Aceh Barat","district":"Samatiga","urban":"Gampong Teungoh","postal_code":23652},{"province":"Nanggroe Aceh Darussalam","city":"Aceh Barat","district":"Samatiga","urban":"Cot Seumeureng","postal_code":23652},{"province":"Nanggroe Aceh Darussalam","city":"Aceh Barat","district":"Samatiga","urban":"Deuah","postal_code":23652},{"province":"Nanggroe Aceh Darussalam","city":"Aceh Barat","district":"Arongan Lambalek","urban":"Drien Rampak","postal_code":23652},{"province":"Nanggroe Aceh Darussalam","city":"Aceh Barat","district":"Samatiga","urban":"Cot Mesjid","postal_code":23652},{"province":"Nanggroe Aceh Darussalam","city":"Aceh Barat","district":"Samatiga","urban":"Cot Pluh","postal_code":23652},{"province":"Nanggroe Aceh Darussalam","city":"Aceh Barat","district":"Samatiga","urban":"Cot Seulamat","postal_code":23652},{"province":"Nanggroe Aceh Darussalam","city":"Aceh Barat","district":"Samatiga","urban":"Cot Lampise","postal_code":23652},{"province":"Nanggroe Aceh Darussalam","city":"Aceh Barat","district":"Bubon","urban":"Cot Lada","postal_code":23652},{"province":"Nanggroe Aceh Darussalam","city":"Aceh Barat","district":"Bubon","urban":"Cot Keumuneng","postal_code":23652},{"province":"Nanggroe Aceh Darussalam","city":"Aceh Barat","district":"Arongan Lambalek","urban":"Cot Kumbang","postal_code":23652},{"province":"Nanggroe Aceh Darussalam","city":"Aceh Barat","district":"Samatiga","urban":"Cot Darat","postal_code":23652},{"province":"Nanggroe Aceh Darussalam","city":"Aceh Barat","district":"Arongan Lambalek","urban":"Cot Buloh","postal_code":23652},{"province":"Nanggroe Aceh Darussalam","city":"Aceh Barat","district":"Arongan Lambalek","urban":"Cot Jurumudi","postal_code":23652},{"province":"Nanggroe Aceh Darussalam","city":"Aceh Barat","district":"Samatiga","urban":"Cot Amun","postal_code":23652},{"province":"Nanggroe Aceh Darussalam","city":"Aceh Barat","district":"Bubon","urban":"Blang Sibeutong","postal_code":23652},{"province":"Nanggroe Aceh Darussalam","city":"Aceh Barat","district":"Bubon","urban":"Beurawang","postal_code":23652},{"province":"Nanggroe Aceh Darussalam","city":"Aceh Barat","district":"Arongan Lambalek","urban":"Alue Sundak","postal_code":23652},{"province":"Nanggroe Aceh Darussalam","city":"Aceh Barat","district":"Arongan Lambalek","urban":"Arongan","postal_code":23652},{"province":"Nanggroe Aceh Darussalam","city":"Aceh Barat","district":"Arongan Lambalek","urban":"Alue Batee","postal_code":23652},{"province":"Nanggroe Aceh Darussalam","city":"Aceh Barat","district":"Bubon","urban":"Alue Lhok","postal_code":23652},{"province":"Nanggroe Aceh Darussalam","city":"Aceh Barat","district":"Samatiga","urban":"Alue Raya","postal_code":23652},{"province":"Nanggroe Aceh Darussalam","city":"Aceh Barat","district":"Bubon","urban":"Alue Bakong","postal_code":23652},{"province":"Nanggroe Aceh Darussalam","city":"Aceh Barat","district":"Arongan Lambalek","urban":"Alue Bagok","postal_code":23652}]