[{"province":"Nanggroe Aceh Darussalam","city":"Aceh Jaya","district":"Pasie Raya","urban":"Tuwi Perya","postal_code":23653},{"province":"Nanggroe Aceh Darussalam","city":"Aceh Jaya","district":"Teunom","urban":"Weu / Weue Gajah","postal_code":23653},{"province":"Nanggroe Aceh Darussalam","city":"Aceh Jaya","district":"Keude Panga","urban":"Tuwi Kareung Panga","postal_code":23653},{"province":"Nanggroe Aceh Darussalam","city":"Aceh Jaya","district":"Keude Panga","urban":"Tuwi Kayee","postal_code":23653},{"province":"Nanggroe Aceh Darussalam","city":"Aceh Jaya","district":"Pasie Raya","urban":"Tuwi Kareung I","postal_code":23653},{"province":"Nanggroe Aceh Darussalam","city":"Aceh Jaya","district":"Keude Panga","urban":"Tuwi Empeuk","postal_code":23653},{"province":"Nanggroe Aceh Darussalam","city":"Aceh Jaya","district":"Pasie Raya","urban":"Tim Pleung","postal_code":23653},{"province":"Nanggroe Aceh Darussalam","city":"Aceh Jaya","district":"Teunom","urban":"Teupin Ara","postal_code":23653},{"province":"Nanggroe Aceh Darussalam","city":"Aceh Jaya","district":"Teunom","urban":"Tanoh Anou / Anoe","postal_code":23653},{"province":"Nanggroe Aceh Darussalam","city":"Aceh Jaya","district":"Teunom","urban":"Tanoh Manyang","postal_code":23653},{"province":"Nanggroe Aceh Darussalam","city":"Aceh Jaya","district":"Teunom","urban":"Seumira","postal_code":23653},{"province":"Nanggroe Aceh Darussalam","city":"Aceh Jaya","district":"Pasie Raya","urban":"Sarah Raya","postal_code":23653},{"province":"Nanggroe Aceh Darussalam","city":"Aceh Jaya","district":"Teunom","urban":"Seuneubok Padang","postal_code":23653},{"province":"Nanggroe Aceh Darussalam","city":"Aceh Jaya","district":"Teunom","urban":"Rambong Payong","postal_code":23653},{"province":"Nanggroe Aceh Darussalam","city":"Aceh Jaya","district":"Pasie Raya","urban":"Pulo Tinggi","postal_code":23653},{"province":"Nanggroe Aceh Darussalam","city":"Aceh Jaya","district":"Teunom","urban":"Pasi Tulak Bala","postal_code":23653},{"province":"Nanggroe Aceh Darussalam","city":"Aceh Jaya","district":"Teunom","urban":"Pasi Tulak Bala","postal_code":23653},{"province":"Nanggroe Aceh Darussalam","city":"Aceh Jaya","district":"Pasie Raya","urban":"Pasi Teubee","postal_code":23653},{"province":"Nanggroe Aceh Darussalam","city":"Aceh Jaya","district":"Teunom","urban":"Pasi Timon","postal_code":23653},{"province":"Nanggroe Aceh Darussalam","city":"Aceh Jaya","district":"Teunom","urban":"Pasi Pawang","postal_code":23653},{"province":"Nanggroe Aceh Darussalam","city":"Aceh Jaya","district":"Keude Panga","urban":"Panton Kabu","postal_code":23653},{"province":"Nanggroe Aceh Darussalam","city":"Aceh Jaya","district":"Keude Panga","urban":"Panton Krueng","postal_code":23653},{"province":"Nanggroe Aceh Darussalam","city":"Aceh Jaya","district":"Teunom","urban":"Pasi Geulima","postal_code":23653},{"province":"Nanggroe Aceh Darussalam","city":"Aceh Jaya","district":"Teunom","urban":"Padang Kleng","postal_code":23653},{"province":"Nanggroe Aceh Darussalam","city":"Aceh Jaya","district":"Teunom","urban":"Panton","postal_code":23653},{"province":"Nanggroe Aceh Darussalam","city":"Aceh Jaya","district":"Teunom","urban":"Lueng Gayo","postal_code":23653},{"province":"Nanggroe Aceh Darussalam","city":"Aceh Jaya","district":"Pasie Raya","urban":"Lhok Guci","postal_code":23653},{"province":"Nanggroe Aceh Darussalam","city":"Aceh Jaya","district":"Teunom","urban":"Kubu","postal_code":23653},{"province":"Nanggroe Aceh Darussalam","city":"Aceh Jaya","district":"Keude Panga","urban":"Kuta Tuha","postal_code":23653},{"province":"Nanggroe Aceh Darussalam","city":"Aceh Jaya","district":"Keude Panga","urban":"Ladang Baro","postal_code":23653},{"province":"Nanggroe Aceh Darussalam","city":"Aceh Jaya","district":"Teunom","urban":"Keude Teunom","postal_code":23653},{"province":"Nanggroe Aceh Darussalam","city":"Aceh Jaya","district":"Pasie Raya","urban":"Krueng Beukah","postal_code":23653},{"province":"Nanggroe Aceh Darussalam","city":"Aceh Jaya","district":"Keude Panga","urban":"Gunong Meulinteung","postal_code":23653},{"province":"Nanggroe Aceh Darussalam","city":"Aceh Jaya","district":"Keude Panga","urban":"Keude Panga","postal_code":23653},{"province":"Nanggroe Aceh Darussalam","city":"Aceh Jaya","district":"Keude Panga","urban":"Gleputoh","postal_code":23653},{"province":"Nanggroe Aceh Darussalam","city":"Aceh Jaya","district":"Keude Panga","urban":"Gunong Buloh","postal_code":23653},{"province":"Nanggroe Aceh Darussalam","city":"Aceh Jaya","district":"Keude Panga","urban":"Gunong Mantok","postal_code":23653},{"province":"Nanggroe Aceh Darussalam","city":"Aceh Jaya","district":"Keude Panga","urban":"Gampong Harapan","postal_code":23653},{"province":"Nanggroe Aceh Darussalam","city":"Aceh Jaya","district":"Teunom","urban":"Gampong Baro","postal_code":23653},{"province":"Nanggroe Aceh Darussalam","city":"Aceh Jaya","district":"Teunom","urban":"Cot Trap","postal_code":23653},{"province":"Nanggroe Aceh Darussalam","city":"Aceh Jaya","district":"Pasie Raya","urban":"Ceuraceu","postal_code":23653},{"province":"Nanggroe Aceh Darussalam","city":"Aceh Jaya","district":"Teunom","urban":"Blang Baro","postal_code":23653},{"province":"Nanggroe Aceh Darussalam","city":"Aceh Jaya","district":"Teunom","urban":"Blang Rame","postal_code":23653},{"province":"Nanggroe Aceh Darussalam","city":"Aceh Jaya","district":"Pasie Raya","urban":"Buket Keumuneng","postal_code":23653},{"province":"Nanggroe Aceh Darussalam","city":"Aceh Jaya","district":"Pasie Raya","urban":"Bintah","postal_code":23653},{"province":"Nanggroe Aceh Darussalam","city":"Aceh Jaya","district":"Keude Panga","urban":"Batee Meutudong","postal_code":23653},{"province":"Nanggroe Aceh Darussalam","city":"Aceh Jaya","district":"Teunom","urban":"Batee-Roo","postal_code":23653},{"province":"Nanggroe Aceh Darussalam","city":"Aceh Jaya","district":"Keude Panga","urban":"Alue Teungoh","postal_code":23653},{"province":"Nanggroe Aceh Darussalam","city":"Aceh Jaya","district":"Keude Panga","urban":"Babah Ceupan","postal_code":23653},{"province":"Nanggroe Aceh Darussalam","city":"Aceh Jaya","district":"Keude Panga","urban":"Alue Raya","postal_code":23653},{"province":"Nanggroe Aceh Darussalam","city":"Aceh Jaya","district":"Pasie Raya","urban":"Alue Punti","postal_code":23653},{"province":"Nanggroe Aceh Darussalam","city":"Aceh Jaya","district":"Teunom","urban":"Alue Meuraksa / Meurasa","postal_code":23653},{"province":"Nanggroe Aceh Darussalam","city":"Aceh Jaya","district":"Pasie Raya","urban":"Alue Krueng","postal_code":23653},{"province":"Nanggroe Aceh Darussalam","city":"Aceh Jaya","district":"Keude Panga","urban":"Alue Pande","postal_code":23653},{"province":"Nanggroe Aceh Darussalam","city":"Aceh Jaya","district":"Teunom","urban":"Alue Ambang","postal_code":23653},{"province":"Nanggroe Aceh Darussalam","city":"Aceh Jaya","district":"Pasie Raya","urban":"Alue Jang","postal_code":23653},{"province":"Nanggroe Aceh Darussalam","city":"Aceh Jaya","district":"Keude Panga","urban":"Alue Abet","postal_code":23653}]