[{"province":"Nanggroe Aceh Darussalam","city":"Aceh Barat","district":"Woyla","urban":"Tingkeum Panyang","postal_code":23654},{"province":"Nanggroe Aceh Darussalam","city":"Aceh Barat","district":"Woyla","urban":"Suak Tring","postal_code":23654},{"province":"Nanggroe Aceh Darussalam","city":"Aceh Barat","district":"Woyla","urban":"Teumarom","postal_code":23654},{"province":"Nanggroe Aceh Darussalam","city":"Aceh Barat","district":"Woyla","urban":"Ranto Panyang","postal_code":23654},{"province":"Nanggroe Aceh Darussalam","city":"Aceh Barat","district":"Woyla","urban":"Seumantok","postal_code":23654},{"province":"Nanggroe Aceh Darussalam","city":"Aceh Barat","district":"Woyla","urban":"Pulo Ie","postal_code":23654},{"province":"Nanggroe Aceh Darussalam","city":"Aceh Barat","district":"Woyla","urban":"Paya Luah","postal_code":23654},{"province":"Nanggroe Aceh Darussalam","city":"Aceh Barat","district":"Woyla","urban":"Paya Dua","postal_code":23654},{"province":"Nanggroe Aceh Darussalam","city":"Aceh Barat","district":"Woyla","urban":"Pasi Lunak","postal_code":23654},{"province":"Nanggroe Aceh Darussalam","city":"Aceh Barat","district":"Woyla","urban":"Pasi Pandan","postal_code":23654},{"province":"Nanggroe Aceh Darussalam","city":"Aceh Barat","district":"Woyla","urban":"Pasi Birah","postal_code":23654},{"province":"Nanggroe Aceh Darussalam","city":"Aceh Barat","district":"Woyla","urban":"Pasi Aceh","postal_code":23654},{"province":"Nanggroe Aceh Darussalam","city":"Aceh Barat","district":"Woyla","urban":"Panton","postal_code":23654},{"province":"Nanggroe Aceh Darussalam","city":"Aceh Barat","district":"Woyla","urban":"Padang Jawa","postal_code":23654},{"province":"Nanggroe Aceh Darussalam","city":"Aceh Barat","district":"Woyla","urban":"Lueng Tanoh Tho","postal_code":23654},{"province":"Nanggroe Aceh Darussalam","city":"Aceh Barat","district":"Woyla","urban":"Lueng Jawa","postal_code":23654},{"province":"Nanggroe Aceh Darussalam","city":"Aceh Barat","district":"Woyla","urban":"Lueng Buloh","postal_code":23654},{"province":"Nanggroe Aceh Darussalam","city":"Aceh Barat","district":"Woyla","urban":"Kuala Bhee","postal_code":23654},{"province":"Nanggroe Aceh Darussalam","city":"Aceh Barat","district":"Woyla","urban":"Lhung Tgk Yah","postal_code":23654},{"province":"Nanggroe Aceh Darussalam","city":"Aceh Barat","district":"Woyla","urban":"Keuleumbah","postal_code":23654},{"province":"Nanggroe Aceh Darussalam","city":"Aceh Barat","district":"Woyla","urban":"Jawi","postal_code":23654},{"province":"Nanggroe Aceh Darussalam","city":"Aceh Barat","district":"Woyla","urban":"Ie Itam Baroh","postal_code":23654},{"province":"Nanggroe Aceh Darussalam","city":"Aceh Barat","district":"Woyla","urban":"Ie Itam Tunong","postal_code":23654},{"province":"Nanggroe Aceh Darussalam","city":"Aceh Barat","district":"Woyla","urban":"Jawa","postal_code":23654},{"province":"Nanggroe Aceh Darussalam","city":"Aceh Barat","district":"Woyla","urban":"Gunong/Gunung Rambong","postal_code":23654},{"province":"Nanggroe Aceh Darussalam","city":"Aceh Barat","district":"Woyla","urban":"Gunung Hampa","postal_code":23654},{"province":"Nanggroe Aceh Darussalam","city":"Aceh Barat","district":"Woyla","urban":"Gempa Raya","postal_code":23654},{"province":"Nanggroe Aceh Darussalam","city":"Aceh Barat","district":"Woyla","urban":"Glee Siblah","postal_code":23654},{"province":"Nanggroe Aceh Darussalam","city":"Aceh Barat","district":"Woyla","urban":"Drin Mangko","postal_code":23654},{"province":"Nanggroe Aceh Darussalam","city":"Aceh Barat","district":"Woyla","urban":"Darul Huda","postal_code":23654},{"province":"Nanggroe Aceh Darussalam","city":"Aceh Barat","district":"Woyla","urban":"Cot Lagan BB/Cm","postal_code":23654},{"province":"Nanggroe Aceh Darussalam","city":"Aceh Barat","district":"Woyla","urban":"Cot Murong","postal_code":23654},{"province":"Nanggroe Aceh Darussalam","city":"Aceh Barat","district":"Woyla","urban":"Cot Situah","postal_code":23654},{"province":"Nanggroe Aceh Darussalam","city":"Aceh Barat","district":"Woyla","urban":"Cot Keumudee","postal_code":23654},{"province":"Nanggroe Aceh Darussalam","city":"Aceh Barat","district":"Woyla","urban":"Bakat","postal_code":23654},{"province":"Nanggroe Aceh Darussalam","city":"Aceh Barat","district":"Woyla","urban":"Blang Mee","postal_code":23654},{"province":"Nanggroe Aceh Darussalam","city":"Aceh Barat","district":"Woyla","urban":"Aron Tunong","postal_code":23654},{"province":"Nanggroe Aceh Darussalam","city":"Aceh Barat","district":"Woyla","urban":"Aron Baroh","postal_code":23654},{"province":"Nanggroe Aceh Darussalam","city":"Aceh Barat","district":"Woyla","urban":"Alue Sundak","postal_code":23654},{"province":"Nanggroe Aceh Darussalam","city":"Aceh Barat","district":"Woyla","urban":"Alue Blang","postal_code":23654},{"province":"Nanggroe Aceh Darussalam","city":"Aceh Barat","district":"Woyla","urban":"Alue Panyang","postal_code":23654},{"province":"Nanggroe Aceh Darussalam","city":"Aceh Barat","district":"Woyla","urban":"Alue Sikaya","postal_code":23654},{"province":"Nanggroe Aceh Darussalam","city":"Aceh Jaya","district":"Krueng Sabee","urban":"Sentosa","postal_code":23654},{"province":"Nanggroe Aceh Darussalam","city":"Aceh Jaya","district":"Krueng Sabee","urban":"Ranto Panyang","postal_code":23654},{"province":"Nanggroe Aceh Darussalam","city":"Aceh Jaya","district":"Krueng Sabee","urban":"Panton Makmur","postal_code":23654},{"province":"Nanggroe Aceh Darussalam","city":"Aceh Jaya","district":"Krueng Sabee","urban":"Panton Makmur","postal_code":23654},{"province":"Nanggroe Aceh Darussalam","city":"Aceh Jaya","district":"Krueng Sabee","urban":"Panggong","postal_code":23654},{"province":"Nanggroe Aceh Darussalam","city":"Aceh Jaya","district":"Krueng Sabee","urban":"Padang Datar","postal_code":23654},{"province":"Nanggroe Aceh Darussalam","city":"Aceh Jaya","district":"Krueng Sabee","urban":"Mon Mata","postal_code":23654},{"province":"Nanggroe Aceh Darussalam","city":"Aceh Jaya","district":"Krueng Sabee","urban":"Keutapang","postal_code":23654},{"province":"Nanggroe Aceh Darussalam","city":"Aceh Jaya","district":"Krueng Sabee","urban":"Keude Krueng Sabee","postal_code":23654},{"province":"Nanggroe Aceh Darussalam","city":"Aceh Jaya","district":"Krueng Sabee","urban":"Kabong","postal_code":23654},{"province":"Nanggroe Aceh Darussalam","city":"Aceh Jaya","district":"Krueng Sabee","urban":"Kampung Blang (Gampong Blang)","postal_code":23654},{"province":"Nanggroe Aceh Darussalam","city":"Aceh Jaya","district":"Krueng Sabee","urban":"Dayah Baro","postal_code":23654},{"province":"Nanggroe Aceh Darussalam","city":"Aceh Jaya","district":"Krueng Sabee","urban":"Datar Luas","postal_code":23654},{"province":"Nanggroe Aceh Darussalam","city":"Aceh Jaya","district":"Krueng Sabee","urban":"Curek","postal_code":23654},{"province":"Nanggroe Aceh Darussalam","city":"Aceh Jaya","district":"Krueng Sabee","urban":"Buntha","postal_code":23654},{"province":"Nanggroe Aceh Darussalam","city":"Aceh Jaya","district":"Krueng Sabee","urban":"Bahagia","postal_code":23654},{"province":"Nanggroe Aceh Darussalam","city":"Aceh Jaya","district":"Krueng Sabee","urban":"Alue Tho","postal_code":23654}]