[{"province":"Nanggroe Aceh Darussalam","city":"Nagan Raya","district":"Darul Makmur","urban":"Ujong Tanjong","postal_code":23662},{"province":"Nanggroe Aceh Darussalam","city":"Nagan Raya","district":"Tripa Makmur","urban":"Ujong Krueng","postal_code":23662},{"province":"Nanggroe Aceh Darussalam","city":"Nagan Raya","district":"Darul Makmur","urban":"Ujong Lamie","postal_code":23662},{"province":"Nanggroe Aceh Darussalam","city":"Nagan Raya","district":"Darul Makmur","urban":"Sumber Makmur","postal_code":23662},{"province":"Nanggroe Aceh Darussalam","city":"Nagan Raya","district":"Darul Makmur","urban":"Tuwi Buya","postal_code":23662},{"province":"Nanggroe Aceh Darussalam","city":"Nagan Raya","district":"Darul Makmur","urban":"Suka Mulia","postal_code":23662},{"province":"Nanggroe Aceh Darussalam","city":"Nagan Raya","district":"Darul Makmur","urban":"Suka Raja","postal_code":23662},{"province":"Nanggroe Aceh Darussalam","city":"Nagan Raya","district":"Darul Makmur","urban":"Suka Ramai","postal_code":23662},{"province":"Nanggroe Aceh Darussalam","city":"Nagan Raya","district":"Darul Makmur","urban":"Suka Jadi","postal_code":23662},{"province":"Nanggroe Aceh Darussalam","city":"Nagan Raya","district":"Darul Makmur","urban":"Suak Palembang","postal_code":23662},{"province":"Nanggroe Aceh Darussalam","city":"Nagan Raya","district":"Darul Makmur","urban":"Simpang Dua","postal_code":23662},{"province":"Nanggroe Aceh Darussalam","city":"Nagan Raya","district":"Darul Makmur","urban":"Sp. Deli Kampong","postal_code":23662},{"province":"Nanggroe Aceh Darussalam","city":"Nagan Raya","district":"Darul Makmur","urban":"Sp. Deli Kilang","postal_code":23662},{"province":"Nanggroe Aceh Darussalam","city":"Nagan Raya","district":"Darul Makmur","urban":"Serba Jadi","postal_code":23662},{"province":"Nanggroe Aceh Darussalam","city":"Nagan Raya","district":"Darul Makmur","urban":"Sido Jadi","postal_code":23662},{"province":"Nanggroe Aceh Darussalam","city":"Nagan Raya","district":"Darul Makmur","urban":"Pulo Kruet","postal_code":23662},{"province":"Nanggroe Aceh Darussalam","city":"Nagan Raya","district":"Darul Makmur","urban":"Pulo Teungoh","postal_code":23662},{"province":"Nanggroe Aceh Darussalam","city":"Nagan Raya","district":"Darul Makmur","urban":"Serba Guna","postal_code":23662},{"province":"Nanggroe Aceh Darussalam","city":"Nagan Raya","district":"Darul Makmur","urban":"Pulo Ie","postal_code":23662},{"province":"Nanggroe Aceh Darussalam","city":"Nagan Raya","district":"Tripa Makmur","urban":"Panton Pange","postal_code":23662},{"province":"Nanggroe Aceh Darussalam","city":"Nagan Raya","district":"Tripa Makmur","urban":"Panton Pange","postal_code":23662},{"province":"Nanggroe Aceh Darussalam","city":"Nagan Raya","district":"Tripa Makmur","urban":"Pasie Keube Dom","postal_code":23662},{"province":"Nanggroe Aceh Darussalam","city":"Nagan Raya","district":"Tripa Makmur","urban":"Neubok Yee PK","postal_code":23662},{"province":"Nanggroe Aceh Darussalam","city":"Nagan Raya","district":"Tripa Makmur","urban":"Neubok Yee PP","postal_code":23662},{"province":"Nanggroe Aceh Darussalam","city":"Nagan Raya","district":"Tripa Makmur","urban":"Lueng Keube Jagat/Jagad","postal_code":23662},{"province":"Nanggroe Aceh Darussalam","city":"Nagan Raya","district":"Tripa Makmur","urban":"Mon Dua","postal_code":23662},{"province":"Nanggroe Aceh Darussalam","city":"Nagan Raya","district":"Darul Makmur","urban":"Makarti Jaya","postal_code":23662},{"province":"Nanggroe Aceh Darussalam","city":"Nagan Raya","district":"Darul Makmur","urban":"Ladang Baro","postal_code":23662},{"province":"Nanggroe Aceh Darussalam","city":"Nagan Raya","district":"Darul Makmur","urban":"Lamie","postal_code":23662},{"province":"Nanggroe Aceh Darussalam","city":"Nagan Raya","district":"Tripa Makmur","urban":"Kuala Teripa/Tripa","postal_code":23662},{"province":"Nanggroe Aceh Darussalam","city":"Nagan Raya","district":"Darul Makmur","urban":"Kuta Trieng","postal_code":23662},{"province":"Nanggroe Aceh Darussalam","city":"Nagan Raya","district":"Darul Makmur","urban":"Krueng Seumanyam","postal_code":23662},{"province":"Nanggroe Aceh Darussalam","city":"Nagan Raya","district":"Darul Makmur","urban":"Kuala Seumanyam","postal_code":23662},{"province":"Nanggroe Aceh Darussalam","city":"Nagan Raya","district":"Darul Makmur","urban":"Kayee Unoe","postal_code":23662},{"province":"Nanggroe Aceh Darussalam","city":"Nagan Raya","district":"Darul Makmur","urban":"Krueng Alem","postal_code":23662},{"province":"Nanggroe Aceh Darussalam","city":"Nagan Raya","district":"Tripa Makmur","urban":"Kabu","postal_code":23662},{"province":"Nanggroe Aceh Darussalam","city":"Nagan Raya","district":"Darul Makmur","urban":"Gunong Cut","postal_code":23662},{"province":"Nanggroe Aceh Darussalam","city":"Nagan Raya","district":"Darul Makmur","urban":"Karang Anyer","postal_code":23662},{"province":"Nanggroe Aceh Darussalam","city":"Nagan Raya","district":"Darul Makmur","urban":"Blang Luah","postal_code":23662},{"province":"Nanggroe Aceh Darussalam","city":"Nagan Raya","district":"Tripa Makmur","urban":"Drien Tujoh","postal_code":23662},{"province":"Nanggroe Aceh Darussalam","city":"Nagan Raya","district":"Darul Makmur","urban":"Gelanggang Gajah","postal_code":23662},{"province":"Nanggroe Aceh Darussalam","city":"Nagan Raya","district":"Darul Makmur","urban":"Blang Baro","postal_code":23662},{"province":"Nanggroe Aceh Darussalam","city":"Nagan Raya","district":"Tripa Makmur","urban":"Babah Lueng","postal_code":23662},{"province":"Nanggroe Aceh Darussalam","city":"Nagan Raya","district":"Darul Makmur","urban":"Alue Raya","postal_code":23662},{"province":"Nanggroe Aceh Darussalam","city":"Nagan Raya","district":"Darul Makmur","urban":"Alue Waki","postal_code":23662},{"province":"Nanggroe Aceh Darussalam","city":"Nagan Raya","district":"Darul Makmur","urban":"Alue Rambot","postal_code":23662},{"province":"Nanggroe Aceh Darussalam","city":"Nagan Raya","district":"Darul Makmur","urban":"Alue Kuyun","postal_code":23662},{"province":"Nanggroe Aceh Darussalam","city":"Nagan Raya","district":"Darul Makmur","urban":"Alue Geutah","postal_code":23662},{"province":"Nanggroe Aceh Darussalam","city":"Nagan Raya","district":"Darul Makmur","urban":"Alue Jampak","postal_code":23662},{"province":"Nanggroe Aceh Darussalam","city":"Nagan Raya","district":"Darul Makmur","urban":"Alue Bateung Brok","postal_code":23662},{"province":"Nanggroe Aceh Darussalam","city":"Nagan Raya","district":"Darul Makmur","urban":"Alue Bilie","postal_code":23662}]