[{"province":"Nanggroe Aceh Darussalam","city":"Nagan Raya","district":"Kuala","urban":"Ujong Sikuneng","postal_code":23661},{"province":"Nanggroe Aceh Darussalam","city":"Nagan Raya","district":"Kuala","urban":"Ujong Padang","postal_code":23661},{"province":"Nanggroe Aceh Darussalam","city":"Nagan Raya","district":"Kuala","urban":"Ujong Pasi","postal_code":23661},{"province":"Nanggroe Aceh Darussalam","city":"Nagan Raya","district":"Kuala","urban":"Ujong Fatihah","postal_code":23661},{"province":"Nanggroe Aceh Darussalam","city":"Nagan Raya","district":"Tadu Raya","urban":"Sumber Daya","postal_code":23661},{"province":"Nanggroe Aceh Darussalam","city":"Nagan Raya","district":"Kuala","urban":"Simpang Peut","postal_code":23661},{"province":"Nanggroe Aceh Darussalam","city":"Nagan Raya","district":"Kuala Pesisir","urban":"Suak Puntong","postal_code":23661},{"province":"Nanggroe Aceh Darussalam","city":"Nagan Raya","district":"Tadu Raya","urban":"Sarah Mantok","postal_code":23661},{"province":"Nanggroe Aceh Darussalam","city":"Nagan Raya","district":"Tadu Raya","urban":"Simpang Jaya","postal_code":23661},{"province":"Nanggroe Aceh Darussalam","city":"Nagan Raya","district":"Kuala","urban":"Purworejo","postal_code":23661},{"province":"Nanggroe Aceh Darussalam","city":"Nagan Raya","district":"Tadu Raya","urban":"Rantau Selamat","postal_code":23661},{"province":"Nanggroe Aceh Darussalam","city":"Nagan Raya","district":"Kuala Pesisir","urban":"Purwosari","postal_code":23661},{"province":"Nanggroe Aceh Darussalam","city":"Nagan Raya","district":"Kuala","urban":"Pulo Ie","postal_code":23661},{"province":"Nanggroe Aceh Darussalam","city":"Nagan Raya","district":"Kuala Pesisir","urban":"Purwodadi","postal_code":23661},{"province":"Nanggroe Aceh Darussalam","city":"Nagan Raya","district":"Tadu Raya","urban":"Pasi Luah","postal_code":23661},{"province":"Nanggroe Aceh Darussalam","city":"Nagan Raya","district":"Kuala Pesisir","urban":"Pulo","postal_code":23661},{"province":"Nanggroe Aceh Darussalam","city":"Nagan Raya","district":"Kuala Pesisir","urban":"Lueng T Ben","postal_code":23661},{"province":"Nanggroe Aceh Darussalam","city":"Nagan Raya","district":"Kuala Pesisir","urban":"Padang Panyang","postal_code":23661},{"province":"Nanggroe Aceh Darussalam","city":"Nagan Raya","district":"Kuala Pesisir","urban":"Padang Rubeek","postal_code":23661},{"province":"Nanggroe Aceh Darussalam","city":"Nagan Raya","district":"Kuala","urban":"Lawa Batu","postal_code":23661},{"province":"Nanggroe Aceh Darussalam","city":"Nagan Raya","district":"Kuala Pesisir","urban":"Langkak","postal_code":23661},{"province":"Nanggroe Aceh Darussalam","city":"Nagan Raya","district":"Kuala","urban":"Kuta Makmur","postal_code":23661},{"province":"Nanggroe Aceh Darussalam","city":"Nagan Raya","district":"Kuala Pesisir","urban":"Kuala Tuha","postal_code":23661},{"province":"Nanggroe Aceh Darussalam","city":"Nagan Raya","district":"Kuala Pesisir","urban":"Kuala Trang","postal_code":23661},{"province":"Nanggroe Aceh Darussalam","city":"Nagan Raya","district":"Tadu Raya","urban":"Kuala Tadu","postal_code":23661},{"province":"Nanggroe Aceh Darussalam","city":"Nagan Raya","district":"Kuala Pesisir","urban":"Kuala Baro","postal_code":23661},{"province":"Nanggroe Aceh Darussalam","city":"Nagan Raya","district":"Tadu Raya","urban":"Krueng Itam","postal_code":23661},{"province":"Nanggroe Aceh Darussalam","city":"Nagan Raya","district":"Kuala","urban":"Jogja/Jokja","postal_code":23661},{"province":"Nanggroe Aceh Darussalam","city":"Nagan Raya","district":"Tadu Raya","urban":"Gunong Sapek","postal_code":23661},{"province":"Nanggroe Aceh Darussalam","city":"Nagan Raya","district":"Tadu Raya","urban":"Gunong Sapek","postal_code":23661},{"province":"Nanggroe Aceh Darussalam","city":"Nagan Raya","district":"Kuala","urban":"Gunong Reubo","postal_code":23661},{"province":"Nanggroe Aceh Darussalam","city":"Nagan Raya","district":"Tadu Raya","urban":"Gunong Pungkie","postal_code":23661},{"province":"Nanggroe Aceh Darussalam","city":"Nagan Raya","district":"Tadu Raya","urban":"Gunong Gulungo (Geulugo)","postal_code":23661},{"province":"Nanggroe Aceh Darussalam","city":"Nagan Raya","district":"Tadu Raya","urban":"Gunong Kupok","postal_code":23661},{"province":"Nanggroe Aceh Darussalam","city":"Nagan Raya","district":"Kuala Pesisir","urban":"Gubang Gajah","postal_code":23661},{"province":"Nanggroe Aceh Darussalam","city":"Nagan Raya","district":"Tadu Raya","urban":"Gapa Garu","postal_code":23661},{"province":"Nanggroe Aceh Darussalam","city":"Nagan Raya","district":"Kuala Pesisir","urban":"Gampong Lhok","postal_code":23661},{"province":"Nanggroe Aceh Darussalam","city":"Nagan Raya","district":"Kuala Pesisir","urban":"Cot Rambong (Cot Me)","postal_code":23661},{"province":"Nanggroe Aceh Darussalam","city":"Nagan Raya","district":"Tadu Raya","urban":"Cot Mue","postal_code":23661},{"province":"Nanggroe Aceh Darussalam","city":"Nagan Raya","district":"Tadu Raya","urban":"Cot Mee","postal_code":23661},{"province":"Nanggroe Aceh Darussalam","city":"Nagan Raya","district":"Kuala","urban":"Blang Teungoh","postal_code":23661},{"province":"Nanggroe Aceh Darussalam","city":"Nagan Raya","district":"Kuala","urban":"Cot Kumbang","postal_code":23661},{"province":"Nanggroe Aceh Darussalam","city":"Nagan Raya","district":"Kuala","urban":"Blang Muko","postal_code":23661},{"province":"Nanggroe Aceh Darussalam","city":"Nagan Raya","district":"Kuala","urban":"Blang Bintang","postal_code":23661},{"province":"Nanggroe Aceh Darussalam","city":"Nagan Raya","district":"Kuala","urban":"Blang Baro","postal_code":23661},{"province":"Nanggroe Aceh Darussalam","city":"Nagan Raya","district":"Tadu Raya","urban":"Babah Rot","postal_code":23661},{"province":"Nanggroe Aceh Darussalam","city":"Nagan Raya","district":"Tadu Raya","urban":"Batu Raja","postal_code":23661},{"province":"Nanggroe Aceh Darussalam","city":"Nagan Raya","district":"Tadu Raya","urban":"Babah Dua","postal_code":23661},{"province":"Nanggroe Aceh Darussalam","city":"Nagan Raya","district":"Kuala Pesisir","urban":"Arongan","postal_code":23661},{"province":"Nanggroe Aceh Darussalam","city":"Nagan Raya","district":"Tadu Raya","urban":"Alue Siron","postal_code":23661},{"province":"Nanggroe Aceh Darussalam","city":"Nagan Raya","district":"Tadu Raya","urban":"Alue Labue","postal_code":23661},{"province":"Nanggroe Aceh Darussalam","city":"Nagan Raya","district":"Tadu Raya","urban":"Alue Sepeng (Seupeung)","postal_code":23661},{"province":"Nanggroe Aceh Darussalam","city":"Nagan Raya","district":"Kuala","urban":"Alue Ie Mameh","postal_code":23661},{"province":"Nanggroe Aceh Darussalam","city":"Nagan Raya","district":"Tadu Raya","urban":"Alue Gajah","postal_code":23661},{"province":"Nanggroe Aceh Darussalam","city":"Nagan Raya","district":"Tadu Raya","urban":"Alue Bata","postal_code":23661}]