[{"province":"Nanggroe Aceh Darussalam","city":"Nagan Raya","district":"Seunagan Timur","urban":"Tuwi Meuleusong","postal_code":23671},{"province":"Nanggroe Aceh Darussalam","city":"Nagan Raya","district":"Seunagan Timur","urban":"Uteun Pulo","postal_code":23671},{"province":"Nanggroe Aceh Darussalam","city":"Nagan Raya","district":"Suka Makmue","urban":"Suak Bilie","postal_code":23671},{"province":"Nanggroe Aceh Darussalam","city":"Nagan Raya","district":"Seunagan Timur","urban":"Suak Peureubong","postal_code":23671},{"province":"Nanggroe Aceh Darussalam","city":"Nagan Raya","district":"Suka Makmue","urban":"Seumambek","postal_code":23671},{"province":"Nanggroe Aceh Darussalam","city":"Nagan Raya","district":"Seunagan Timur","urban":"Sawang Mane","postal_code":23671},{"province":"Nanggroe Aceh Darussalam","city":"Nagan Raya","district":"Seunagan","urban":"Sapek","postal_code":23671},{"province":"Nanggroe Aceh Darussalam","city":"Nagan Raya","district":"Seunagan Timur","urban":"Sapeng","postal_code":23671},{"province":"Nanggroe Aceh Darussalam","city":"Nagan Raya","district":"Seunagan","urban":"Rambong Rayeuk","postal_code":23671},{"province":"Nanggroe Aceh Darussalam","city":"Nagan Raya","district":"Seunagan Timur","urban":"Pulo Teungoh","postal_code":23671},{"province":"Nanggroe Aceh Darussalam","city":"Nagan Raya","district":"Seunagan","urban":"Rambong Cut","postal_code":23671},{"province":"Nanggroe Aceh Darussalam","city":"Nagan Raya","district":"Seunagan","urban":"Peureulak","postal_code":23671},{"province":"Nanggroe Aceh Darussalam","city":"Nagan Raya","district":"Seunagan","urban":"Paya Undan","postal_code":23671},{"province":"Nanggroe Aceh Darussalam","city":"Nagan Raya","district":"Seunagan Timur","urban":"Peuleukung","postal_code":23671},{"province":"Nanggroe Aceh Darussalam","city":"Nagan Raya","district":"Seunagan","urban":"Paya Udeung","postal_code":23671},{"province":"Nanggroe Aceh Darussalam","city":"Nagan Raya","district":"Seunagan Timur","urban":"Paya","postal_code":23671},{"province":"Nanggroe Aceh Darussalam","city":"Nagan Raya","district":"Seunagan","urban":"Padang","postal_code":23671},{"province":"Nanggroe Aceh Darussalam","city":"Nagan Raya","district":"Seunagan","urban":"Pante Cermin (Ceureumen)","postal_code":23671},{"province":"Nanggroe Aceh Darussalam","city":"Nagan Raya","district":"Seunagan","urban":"Parom","postal_code":23671},{"province":"Nanggroe Aceh Darussalam","city":"Nagan Raya","district":"Seunagan","urban":"Nigan","postal_code":23671},{"province":"Nanggroe Aceh Darussalam","city":"Nagan Raya","district":"Seunagan Timur","urban":"Mon Bateung","postal_code":23671},{"province":"Nanggroe Aceh Darussalam","city":"Nagan Raya","district":"Suka Makmue","urban":"Meureubo","postal_code":23671},{"province":"Nanggroe Aceh Darussalam","city":"Nagan Raya","district":"Seunagan Timur","urban":"Meugat Meh","postal_code":23671},{"province":"Nanggroe Aceh Darussalam","city":"Nagan Raya","district":"Seunagan Timur","urban":"Meurandeh Suak","postal_code":23671},{"province":"Nanggroe Aceh Darussalam","city":"Nagan Raya","district":"Suka Makmue","urban":"Macah","postal_code":23671},{"province":"Nanggroe Aceh Darussalam","city":"Nagan Raya","district":"Suka Makmue","urban":"Lhok Rameun","postal_code":23671},{"province":"Nanggroe Aceh Darussalam","city":"Nagan Raya","district":"Suka Makmue","urban":"Lueng Baro","postal_code":23671},{"province":"Nanggroe Aceh Darussalam","city":"Nagan Raya","district":"Seunagan","urban":"Lhok Padang","postal_code":23671},{"province":"Nanggroe Aceh Darussalam","city":"Nagan Raya","district":"Seunagan","urban":"Lhok Parom","postal_code":23671},{"province":"Nanggroe Aceh Darussalam","city":"Nagan Raya","district":"Seunagan Timur","urban":"Lhok Pange","postal_code":23671},{"province":"Nanggroe Aceh Darussalam","city":"Nagan Raya","district":"Seunagan Timur","urban":"Lhok Mesjid","postal_code":23671},{"province":"Nanggroe Aceh Darussalam","city":"Nagan Raya","district":"Suka Makmue","urban":"Lhok Beutong","postal_code":23671},{"province":"Nanggroe Aceh Darussalam","city":"Nagan Raya","district":"Seunagan","urban":"Kuta Sayeh","postal_code":23671},{"province":"Nanggroe Aceh Darussalam","city":"Nagan Raya","district":"Seunagan","urban":"Latong","postal_code":23671},{"province":"Nanggroe Aceh Darussalam","city":"Nagan Raya","district":"Seunagan","urban":"Kuta Kumbang","postal_code":23671},{"province":"Nanggroe Aceh Darussalam","city":"Nagan Raya","district":"Seunagan","urban":"Kuta Paya","postal_code":23671},{"province":"Nanggroe Aceh Darussalam","city":"Nagan Raya","district":"Suka Makmue","urban":"Kuta Padang","postal_code":23671},{"province":"Nanggroe Aceh Darussalam","city":"Nagan Raya","district":"Seunagan","urban":"Kuta Baro Jeuram","postal_code":23671},{"province":"Nanggroe Aceh Darussalam","city":"Nagan Raya","district":"Suka Makmue","urban":"Kuta Baro Blang Mulieng","postal_code":23671},{"province":"Nanggroe Aceh Darussalam","city":"Nagan Raya","district":"Seunagan","urban":"Kulu","postal_code":23671},{"province":"Nanggroe Aceh Darussalam","city":"Nagan Raya","district":"Seunagan","urban":"Kuta Aceh","postal_code":23671},{"province":"Nanggroe Aceh Darussalam","city":"Nagan Raya","district":"Seunagan","urban":"Krueng Mangkom","postal_code":23671},{"province":"Nanggroe Aceh Darussalam","city":"Nagan Raya","district":"Seunagan Timur","urban":"Krueng Kulu","postal_code":23671},{"province":"Nanggroe Aceh Darussalam","city":"Nagan Raya","district":"Suka Makmue","urban":"Krak Tampai","postal_code":23671},{"province":"Nanggroe Aceh Darussalam","city":"Nagan Raya","district":"Seunagan","urban":"Krueng Ceh/Cheh","postal_code":23671},{"province":"Nanggroe Aceh Darussalam","city":"Nagan Raya","district":"Seunagan","urban":"Krueng Ceukou","postal_code":23671},{"province":"Nanggroe Aceh Darussalam","city":"Nagan Raya","district":"Seunagan Timur","urban":"Keude Linteung","postal_code":23671},{"province":"Nanggroe Aceh Darussalam","city":"Nagan Raya","district":"Seunagan Timur","urban":"Keude Neulop","postal_code":23671},{"province":"Nanggroe Aceh Darussalam","city":"Nagan Raya","district":"Seunagan Timur","urban":"Kila","postal_code":23671},{"province":"Nanggroe Aceh Darussalam","city":"Nagan Raya","district":"Seunagan Timur","urban":"Kabu Tunong","postal_code":23671},{"province":"Nanggroe Aceh Darussalam","city":"Nagan Raya","district":"Seunagan Timur","urban":"Kandeh","postal_code":23671},{"province":"Nanggroe Aceh Darussalam","city":"Nagan Raya","district":"Seunagan Timur","urban":"Kabu Baroh","postal_code":23671},{"province":"Nanggroe Aceh Darussalam","city":"Nagan Raya","district":"Suka Makmue","urban":"Kabu Blang Sapek","postal_code":23671},{"province":"Nanggroe Aceh Darussalam","city":"Nagan Raya","district":"Seunagan Timur","urban":"Ie Beudoh","postal_code":23671},{"province":"Nanggroe Aceh Darussalam","city":"Nagan Raya","district":"Suka Makmue","urban":"Gampong Teungoh","postal_code":23671},{"province":"Nanggroe Aceh Darussalam","city":"Nagan Raya","district":"Seunagan","urban":"Jeuram","postal_code":23671},{"province":"Nanggroe Aceh Darussalam","city":"Nagan Raya","district":"Seunagan Timur","urban":"Cot Teuku Dek","postal_code":23671},{"province":"Nanggroe Aceh Darussalam","city":"Nagan Raya","district":"Seunagan","urban":"Gampong Cot","postal_code":23671},{"province":"Nanggroe Aceh Darussalam","city":"Nagan Raya","district":"Suka Makmue","urban":"Cot Peradi/Peuradi","postal_code":23671},{"province":"Nanggroe Aceh Darussalam","city":"Nagan Raya","district":"Seunagan Timur","urban":"Cot Manyang","postal_code":23671},{"province":"Nanggroe Aceh Darussalam","city":"Nagan Raya","district":"Seunagan Timur","urban":"Cot Punti","postal_code":23671},{"province":"Nanggroe Aceh Darussalam","city":"Nagan Raya","district":"Suka Makmue","urban":"Cot Kuta","postal_code":23671},{"province":"Nanggroe Aceh Darussalam","city":"Nagan Raya","district":"Seunagan","urban":"Cot Lele (Lhe Lhe)","postal_code":23671},{"province":"Nanggroe Aceh Darussalam","city":"Nagan Raya","district":"Seunagan","urban":"Cot Kumbang","postal_code":23671},{"province":"Nanggroe Aceh Darussalam","city":"Nagan Raya","district":"Seunagan Timur","urban":"Cot Dirui","postal_code":23671},{"province":"Nanggroe Aceh Darussalam","city":"Nagan Raya","district":"Seunagan Timur","urban":"Cot Gud","postal_code":23671},{"province":"Nanggroe Aceh Darussalam","city":"Nagan Raya","district":"Suka Makmue","urban":"Blang Sapek","postal_code":23671},{"province":"Nanggroe Aceh Darussalam","city":"Nagan Raya","district":"Seunagan Timur","urban":"Blang Teungku","postal_code":23671},{"province":"Nanggroe Aceh Darussalam","city":"Nagan Raya","district":"Seunagan","urban":"Blang Puuk Nigan","postal_code":23671},{"province":"Nanggroe Aceh Darussalam","city":"Nagan Raya","district":"Seunagan","urban":"Blang Puuk Kulu","postal_code":23671},{"province":"Nanggroe Aceh Darussalam","city":"Nagan Raya","district":"Seunagan Timur","urban":"Blang Penyang","postal_code":23671},{"province":"Nanggroe Aceh Darussalam","city":"Nagan Raya","district":"Seunagan Timur","urban":"Blang Preh","postal_code":23671},{"province":"Nanggroe Aceh Darussalam","city":"Nagan Raya","district":"Seunagan","urban":"Blang Murong","postal_code":23671},{"province":"Nanggroe Aceh Darussalam","city":"Nagan Raya","district":"Seunagan","urban":"Blang Pateuk","postal_code":23671},{"province":"Nanggroe Aceh Darussalam","city":"Nagan Raya","district":"Suka Makmue","urban":"Blang Mulieng","postal_code":23671},{"province":"Nanggroe Aceh Darussalam","city":"Nagan Raya","district":"Seunagan Timur","urban":"Blang Geudong","postal_code":23671},{"province":"Nanggroe Aceh Darussalam","city":"Nagan Raya","district":"Seunagan Timur","urban":"Blang Lango","postal_code":23671},{"province":"Nanggroe Aceh Darussalam","city":"Nagan Raya","district":"Seunagan Timur","urban":"Blang Bayu","postal_code":23671},{"province":"Nanggroe Aceh Darussalam","city":"Nagan Raya","district":"Seunagan","urban":"Blang Baro","postal_code":23671},{"province":"Nanggroe Aceh Darussalam","city":"Nagan Raya","district":"Seunagan Timur","urban":"Blang Ara Keude","postal_code":23671},{"province":"Nanggroe Aceh Darussalam","city":"Nagan Raya","district":"Seunagan","urban":"Bantan","postal_code":23671},{"province":"Nanggroe Aceh Darussalam","city":"Nagan Raya","district":"Seunagan Timur","urban":"Blang Ara Gampong","postal_code":23671},{"province":"Nanggroe Aceh Darussalam","city":"Nagan Raya","district":"Seunagan","urban":"Alue Tho","postal_code":23671},{"province":"Nanggroe Aceh Darussalam","city":"Nagan Raya","district":"Suka Makmue","urban":"Alue Peusaja","postal_code":23671},{"province":"Nanggroe Aceh Darussalam","city":"Nagan Raya","district":"Seunagan","urban":"Alue Dodok","postal_code":23671},{"province":"Nanggroe Aceh Darussalam","city":"Nagan Raya","district":"Suka Makmue","urban":"Alue Gajah","postal_code":23671},{"province":"Nanggroe Aceh Darussalam","city":"Nagan Raya","district":"Suka Makmue","urban":"Alue Kambuk/Kambuek","postal_code":23671},{"province":"Nanggroe Aceh Darussalam","city":"Nagan Raya","district":"Seunagan","urban":"Alue Buloh","postal_code":23671}]