[{"province":"Nanggroe Aceh Darussalam","city":"Aceh Barat","district":"Panton Reu","urban":"Ujong Raja","postal_code":23681},{"province":"Nanggroe Aceh Darussalam","city":"Aceh Barat","district":"Kaway XVI","urban":"Tumpok Ladang","postal_code":23681},{"province":"Nanggroe Aceh Darussalam","city":"Aceh Barat","district":"Panton Reu","urban":"Tuwi Buya","postal_code":23681},{"province":"Nanggroe Aceh Darussalam","city":"Aceh Barat","district":"Kaway XVI","urban":"Teuladan","postal_code":23681},{"province":"Nanggroe Aceh Darussalam","city":"Aceh Barat","district":"Kaway XVI","urban":"Teupin Panah","postal_code":23681},{"province":"Nanggroe Aceh Darussalam","city":"Aceh Barat","district":"Pante Ceureumen (Pantai Ceuremen)","urban":"Tegal Sari","postal_code":23681},{"province":"Nanggroe Aceh Darussalam","city":"Aceh Barat","district":"Kaway XVI","urban":"Tanjong Bunga","postal_code":23681},{"province":"Nanggroe Aceh Darussalam","city":"Aceh Barat","district":"Kaway XVI","urban":"Tanjong Meulaboh","postal_code":23681},{"province":"Nanggroe Aceh Darussalam","city":"Aceh Barat","district":"Panton Reu","urban":"Tamping","postal_code":23681},{"province":"Nanggroe Aceh Darussalam","city":"Aceh Barat","district":"Pante Ceureumen (Pantai Ceuremen)","urban":"Suwak Awe","postal_code":23681},{"province":"Nanggroe Aceh Darussalam","city":"Aceh Barat","district":"Kaway XVI","urban":"Simpang","postal_code":23681},{"province":"Nanggroe Aceh Darussalam","city":"Aceh Barat","district":"Pante Ceureumen (Pantai Ceuremen)","urban":"Sikundo","postal_code":23681},{"province":"Nanggroe Aceh Darussalam","city":"Aceh Barat","district":"Panton Reu","urban":"Sibintang","postal_code":23681},{"province":"Nanggroe Aceh Darussalam","city":"Aceh Barat","district":"Pante Ceureumen (Pantai Ceuremen)","urban":"Seumantok","postal_code":23681},{"province":"Nanggroe Aceh Darussalam","city":"Aceh Barat","district":"Pante Ceureumen (Pantai Ceuremen)","urban":"Seumara","postal_code":23681},{"province":"Nanggroe Aceh Darussalam","city":"Aceh Barat","district":"Kaway XVI","urban":"Sawang Teubee","postal_code":23681},{"province":"Nanggroe Aceh Darussalam","city":"Aceh Barat","district":"Pante Ceureumen (Pantai Ceuremen)","urban":"Sawang Rambot","postal_code":23681},{"province":"Nanggroe Aceh Darussalam","city":"Aceh Barat","district":"Kaway XVI","urban":"Putim","postal_code":23681},{"province":"Nanggroe Aceh Darussalam","city":"Aceh Barat","district":"Kaway XVI","urban":"Puuk","postal_code":23681},{"province":"Nanggroe Aceh Darussalam","city":"Aceh Barat","district":"Pante Ceureumen (Pantai Ceuremen)","urban":"Pulo Teungoh Manyeng","postal_code":23681},{"province":"Nanggroe Aceh Darussalam","city":"Aceh Barat","district":"Kaway XVI","urban":"Pucok Pungkie","postal_code":23681},{"province":"Nanggroe Aceh Darussalam","city":"Aceh Barat","district":"Kaway XVI","urban":"Pungkie","postal_code":23681},{"province":"Nanggroe Aceh Darussalam","city":"Aceh Barat","district":"Panton Reu","urban":"Paya Baro Meuko","postal_code":23681},{"province":"Nanggroe Aceh Darussalam","city":"Aceh Barat","district":"Kaway XVI","urban":"Pasi Teungoh","postal_code":23681},{"province":"Nanggroe Aceh Darussalam","city":"Aceh Barat","district":"Kaway XVI","urban":"Peunia","postal_code":23681},{"province":"Nanggroe Aceh Darussalam","city":"Aceh Barat","district":"Kaway XVI","urban":"Pasi Kumbang","postal_code":23681},{"province":"Nanggroe Aceh Darussalam","city":"Aceh Barat","district":"Kaway XVI","urban":"Pasi Meugat","postal_code":23681},{"province":"Nanggroe Aceh Darussalam","city":"Aceh Barat","district":"Kaway XVI","urban":"Pasi Jambu","postal_code":23681},{"province":"Nanggroe Aceh Darussalam","city":"Aceh Barat","district":"Kaway XVI","urban":"Pasi Jeumpa","postal_code":23681},{"province":"Nanggroe Aceh Darussalam","city":"Aceh Barat","district":"Pante Ceureumen (Pantai Ceuremen)","urban":"Pante Ceureumen (Pante Cermin)","postal_code":23681},{"province":"Nanggroe Aceh Darussalam","city":"Aceh Barat","district":"Kaway XVI","urban":"Pasi Ara","postal_code":23681},{"province":"Nanggroe Aceh Darussalam","city":"Aceh Barat","district":"Kaway XVI","urban":"Padang Mancang","postal_code":23681},{"province":"Nanggroe Aceh Darussalam","city":"Aceh Barat","district":"Kaway XVI","urban":"Padang Sikabu","postal_code":23681},{"province":"Nanggroe Aceh Darussalam","city":"Aceh Barat","district":"Kaway XVI","urban":"Palimbungan","postal_code":23681},{"province":"Nanggroe Aceh Darussalam","city":"Aceh Barat","district":"Kaway XVI","urban":"Muko","postal_code":23681},{"province":"Nanggroe Aceh Darussalam","city":"Aceh Barat","district":"Panton Reu","urban":"Mugo Rayeuk","postal_code":23681},{"province":"Nanggroe Aceh Darussalam","city":"Aceh Barat","district":"Panton Reu","urban":"Mugo Cut","postal_code":23681},{"province":"Nanggroe Aceh Darussalam","city":"Aceh Barat","district":"Kaway XVI","urban":"Meunasah Rayeuk","postal_code":23681},{"province":"Nanggroe Aceh Darussalam","city":"Aceh Barat","district":"Panton Reu","urban":"Meutulang","postal_code":23681},{"province":"Nanggroe Aceh Darussalam","city":"Aceh Barat","district":"Kaway XVI","urban":"Meunasah Buloh","postal_code":23681},{"province":"Nanggroe Aceh Darussalam","city":"Aceh Barat","district":"Kaway XVI","urban":"Meunasah Gantung","postal_code":23681},{"province":"Nanggroe Aceh Darussalam","city":"Aceh Barat","district":"Kaway XVI","urban":"Meunasah Rambot","postal_code":23681},{"province":"Nanggroe Aceh Darussalam","city":"Aceh Barat","district":"Kaway XVI","urban":"Mesjid","postal_code":23681},{"province":"Nanggroe Aceh Darussalam","city":"Aceh Barat","district":"Kaway XVI","urban":"Meunasah Ara","postal_code":23681},{"province":"Nanggroe Aceh Darussalam","city":"Aceh Barat","district":"Pante Ceureumen (Pantai Ceuremen)","urban":"Menuang Kinco","postal_code":23681},{"province":"Nanggroe Aceh Darussalam","city":"Aceh Barat","district":"Kaway XVI","urban":"Menuang Tanjong","postal_code":23681},{"province":"Nanggroe Aceh Darussalam","city":"Aceh Barat","district":"Pante Ceureumen (Pantai Ceuremen)","urban":"Manjeng","postal_code":23681},{"province":"Nanggroe Aceh Darussalam","city":"Aceh Barat","district":"Kaway XVI","urban":"Marek","postal_code":23681},{"province":"Nanggroe Aceh Darussalam","city":"Aceh Barat","district":"Pante Ceureumen (Pantai Ceuremen)","urban":"Lhok Sari","postal_code":23681},{"province":"Nanggroe Aceh Darussalam","city":"Aceh Barat","district":"Panton Reu","urban":"Manggie","postal_code":23681},{"province":"Nanggroe Aceh Darussalam","city":"Aceh Barat","district":"Panton Reu","urban":"Lek Lek","postal_code":23681},{"province":"Nanggroe Aceh Darussalam","city":"Aceh Barat","district":"Pante Ceureumen (Pantai Ceuremen)","urban":"Lawet","postal_code":23681},{"province":"Nanggroe Aceh Darussalam","city":"Aceh Barat","district":"Pante Ceureumen (Pantai Ceuremen)","urban":"Lhok Guci","postal_code":23681},{"province":"Nanggroe Aceh Darussalam","city":"Aceh Barat","district":"Pante Ceureumen (Pantai Ceuremen)","urban":"Lango","postal_code":23681},{"province":"Nanggroe Aceh Darussalam","city":"Aceh Barat","district":"Panton Reu","urban":"Kuala Manye","postal_code":23681},{"province":"Nanggroe Aceh Darussalam","city":"Aceh Barat","district":"Pante Ceureumen (Pantai Ceuremen)","urban":"Keutambang","postal_code":23681},{"province":"Nanggroe Aceh Darussalam","city":"Aceh Barat","district":"Pante Ceureumen (Pantai Ceuremen)","urban":"Krueng Beukah","postal_code":23681},{"province":"Nanggroe Aceh Darussalam","city":"Aceh Barat","district":"Kaway XVI","urban":"Keude Tanjong","postal_code":23681},{"province":"Nanggroe Aceh Darussalam","city":"Aceh Barat","district":"Kaway XVI","urban":"Keuramat","postal_code":23681},{"province":"Nanggroe Aceh Darussalam","city":"Aceh Barat","district":"Kaway XVI","urban":"Keude Aron","postal_code":23681},{"province":"Nanggroe Aceh Darussalam","city":"Aceh Barat","district":"Pante Ceureumen (Pantai Ceuremen)","urban":"Keude Suwak Awe","postal_code":23681},{"province":"Nanggroe Aceh Darussalam","city":"Aceh Barat","district":"Pante Ceureumen (Pantai Ceuremen)","urban":"Jambak","postal_code":23681},{"province":"Nanggroe Aceh Darussalam","city":"Aceh Barat","district":"Panton Reu","urban":"Gunung Mata Ie","postal_code":23681},{"province":"Nanggroe Aceh Darussalam","city":"Aceh Barat","district":"Pante Ceureumen (Pantai Ceuremen)","urban":"Gunong Tarok","postal_code":23681},{"province":"Nanggroe Aceh Darussalam","city":"Aceh Barat","district":"Sungai Mas","urban":"Geudong","postal_code":23681},{"province":"Nanggroe Aceh Darussalam","city":"Aceh Barat","district":"Sungai Mas","urban":"Drien Sibak","postal_code":23681},{"province":"Nanggroe Aceh Darussalam","city":"Aceh Barat","district":"Panton Reu","urban":"Gampong Baro","postal_code":23681},{"province":"Nanggroe Aceh Darussalam","city":"Aceh Barat","district":"Panton Reu","urban":"Cot Manggie","postal_code":23681},{"province":"Nanggroe Aceh Darussalam","city":"Aceh Barat","district":"Kaway XVI","urban":"Drien Calee","postal_code":23681},{"province":"Nanggroe Aceh Darussalam","city":"Aceh Barat","district":"Pante Ceureumen (Pantai Ceuremen)","urban":"Canggai","postal_code":23681},{"province":"Nanggroe Aceh Darussalam","city":"Aceh Barat","district":"Panton Reu","urban":"Blang Teungoh","postal_code":23681},{"province":"Nanggroe Aceh Darussalam","city":"Aceh Barat","district":"Kaway XVI","urban":"Blang Geunang","postal_code":23681},{"province":"Nanggroe Aceh Darussalam","city":"Aceh Barat","district":"Panton Reu","urban":"Blang Balee","postal_code":23681},{"province":"Nanggroe Aceh Darussalam","city":"Aceh Barat","district":"Kaway XVI","urban":"Blang Dalam","postal_code":23681},{"province":"Nanggroe Aceh Darussalam","city":"Aceh Barat","district":"Kaway XVI","urban":"Batu Jaya","postal_code":23681},{"province":"Nanggroe Aceh Darussalam","city":"Aceh Barat","district":"Kaway XVI","urban":"Beureugang","postal_code":23681},{"province":"Nanggroe Aceh Darussalam","city":"Aceh Barat","district":"Pante Ceureumen (Pantai Ceuremen)","urban":"Berdikari","postal_code":23681},{"province":"Nanggroe Aceh Darussalam","city":"Aceh Barat","district":"Panton Reu","urban":"Baro Paya","postal_code":23681},{"province":"Nanggroe Aceh Darussalam","city":"Aceh Barat","district":"Kaway XVI","urban":"Babah Meulaboh","postal_code":23681},{"province":"Nanggroe Aceh Darussalam","city":"Aceh Barat","district":"Pante Ceureumen (Pantai Ceuremen)","urban":"Babah Krueng Teklep","postal_code":23681},{"province":"Nanggroe Aceh Darussalam","city":"Aceh Barat","district":"Pante Ceureumen (Pantai Ceuremen)","urban":"Babah Lueng","postal_code":23681},{"province":"Nanggroe Aceh Darussalam","city":"Aceh Barat","district":"Panton Reu","urban":"Babah Krueng Manggie","postal_code":23681},{"province":"Nanggroe Aceh Darussalam","city":"Aceh Barat","district":"Pante Ceureumen (Pantai Ceuremen)","urban":"Babah Iseung","postal_code":23681},{"province":"Nanggroe Aceh Darussalam","city":"Aceh Barat","district":"Kaway XVI","urban":"Alue Tampak","postal_code":23681},{"province":"Nanggroe Aceh Darussalam","city":"Aceh Barat","district":"Panton Reu","urban":"Antong","postal_code":23681},{"province":"Nanggroe Aceh Darussalam","city":"Aceh Barat","district":"Kaway XVI","urban":"Alue On","postal_code":23681},{"province":"Nanggroe Aceh Darussalam","city":"Aceh Barat","district":"Kaway XVI","urban":"Alue Peudeung","postal_code":23681},{"province":"Nanggroe Aceh Darussalam","city":"Aceh Barat","district":"Kaway XVI","urban":"Alue Lhok","postal_code":23681},{"province":"Nanggroe Aceh Darussalam","city":"Aceh Barat","district":"Kaway XVI","urban":"Alue Lhee","postal_code":23681},{"province":"Nanggroe Aceh Darussalam","city":"Aceh Barat","district":"Pante Ceureumen (Pantai Ceuremen)","urban":"Alue Keumang","postal_code":23681}]