[{"province":"Nanggroe Aceh Darussalam","city":"Aceh Selatan","district":"Tapak Tuan","urban":"Pasar","postal_code":23711},{"province":"Nanggroe Aceh Darussalam","city":"Aceh Selatan","district":"Tapak Tuan","urban":"Panton Luas","postal_code":23711},{"province":"Nanggroe Aceh Darussalam","city":"Aceh Selatan","district":"Tapak Tuan","urban":"Panjupian","postal_code":23711},{"province":"Nanggroe Aceh Darussalam","city":"Aceh Selatan","district":"Tapak Tuan","urban":"Lhok Rukam","postal_code":23711},{"province":"Nanggroe Aceh Darussalam","city":"Aceh Selatan","district":"Tapak Tuan","urban":"Gunung Kerambil","postal_code":23711},{"province":"Nanggroe Aceh Darussalam","city":"Aceh Selatan","district":"Tapak Tuan","urban":"Batu Itam","postal_code":23711},{"province":"Nanggroe Aceh Darussalam","city":"Aceh Selatan","district":"Tapak Tuan","urban":"Air Pinang","postal_code":23711},{"province":"Nanggroe Aceh Darussalam","city":"Aceh Selatan","district":"Tapak Tuan","urban":"Air Berudang","postal_code":23711}]