[{"province":"Nanggroe Aceh Darussalam","city":"Aceh Selatan","district":"Pasie Raja","urban":"Ujung Padang Asahan","postal_code":23755},{"province":"Nanggroe Aceh Darussalam","city":"Aceh Selatan","district":"Pasie Raja","urban":"Ujung Padang Rasian","postal_code":23755},{"province":"Nanggroe Aceh Darussalam","city":"Aceh Selatan","district":"Pasie Raja","urban":"Silolo","postal_code":23755},{"province":"Nanggroe Aceh Darussalam","city":"Aceh Selatan","district":"Pasie Raja","urban":"Teupin Gajah","postal_code":23755},{"province":"Nanggroe Aceh Darussalam","city":"Aceh Selatan","district":"Pasie Raja","urban":"Ujung Batee/Batu","postal_code":23755},{"province":"Nanggroe Aceh Darussalam","city":"Aceh Selatan","district":"Pasie Raja","urban":"Pulo Ie Ii","postal_code":23755},{"province":"Nanggroe Aceh Darussalam","city":"Aceh Selatan","district":"Pasie Raja","urban":"Seunebok (Si Neubok)","postal_code":23755},{"province":"Nanggroe Aceh Darussalam","city":"Aceh Selatan","district":"Pasie Raja","urban":"Paya Ateuk (Payateuk)","postal_code":23755},{"province":"Nanggroe Aceh Darussalam","city":"Aceh Selatan","district":"Pasie Raja","urban":"Pucuk/Pucok Krueng","postal_code":23755},{"province":"Nanggroe Aceh Darussalam","city":"Aceh Selatan","district":"Pasie Raja","urban":"Pante Raja","postal_code":23755},{"province":"Nanggroe Aceh Darussalam","city":"Aceh Selatan","district":"Pasie Raja","urban":"Panton Bili","postal_code":23755},{"province":"Nanggroe Aceh Darussalam","city":"Aceh Selatan","district":"Pasie Raja","urban":"Pasi/Pasie Rasian","postal_code":23755},{"province":"Nanggroe Aceh Darussalam","city":"Aceh Selatan","district":"Pasie Raja","urban":"Lhok Sialang Rayeuk","postal_code":23755},{"province":"Nanggroe Aceh Darussalam","city":"Aceh Selatan","district":"Pasie Raja","urban":"Mata Le/Ie","postal_code":23755},{"province":"Nanggroe Aceh Darussalam","city":"Aceh Selatan","district":"Pasie Raja","urban":"Ladang Teungoh","postal_code":23755},{"province":"Nanggroe Aceh Darussalam","city":"Aceh Selatan","district":"Pasie Raja","urban":"Ladang Tuha","postal_code":23755},{"province":"Nanggroe Aceh Darussalam","city":"Aceh Selatan","district":"Pasie Raja","urban":"Lhok Sialang Cut","postal_code":23755},{"province":"Nanggroe Aceh Darussalam","city":"Aceh Selatan","district":"Pasie Raja","urban":"Krueng Kelee","postal_code":23755},{"province":"Nanggroe Aceh Darussalam","city":"Aceh Selatan","district":"Pasie Raja","urban":"Ie/Le Mirah","postal_code":23755},{"province":"Nanggroe Aceh Darussalam","city":"Aceh Selatan","district":"Pasie Raja","urban":"Kampung/Kampong Baro","postal_code":23755},{"province":"Nanggroe Aceh Darussalam","city":"Aceh Selatan","district":"Pasie Raja","urban":"Kampung/Kampong Baru","postal_code":23755}]