[{"province":"Nanggroe Aceh Darussalam","city":"Aceh Barat Daya","district":"Blang Pidie","urban":"Pasar Blang Pidie","postal_code":23764},{"province":"Nanggroe Aceh Darussalam","city":"Aceh Barat Daya","district":"Blang Pidie","urban":"Seunaloh","postal_code":23764},{"province":"Nanggroe Aceh Darussalam","city":"Aceh Barat Daya","district":"Jeumpa","urban":"Padang Geulumpang","postal_code":23764},{"province":"Nanggroe Aceh Darussalam","city":"Aceh Barat Daya","district":"Blang Pidie","urban":"Meudang Ara","postal_code":23764},{"province":"Nanggroe Aceh Darussalam","city":"Aceh Barat Daya","district":"Blang Pidie","urban":"Panton Raya","postal_code":23764},{"province":"Nanggroe Aceh Darussalam","city":"Aceh Barat Daya","district":"Blang Pidie","urban":"Lhung Asan","postal_code":23764},{"province":"Nanggroe Aceh Darussalam","city":"Aceh Barat Daya","district":"Blang Pidie","urban":"Lhung Tarok","postal_code":23764},{"province":"Nanggroe Aceh Darussalam","city":"Aceh Barat Daya","district":"Blang Pidie","urban":"Mata Ie","postal_code":23764},{"province":"Nanggroe Aceh Darussalam","city":"Aceh Barat Daya","district":"Blang Pidie","urban":"Lamkuta","postal_code":23764},{"province":"Nanggroe Aceh Darussalam","city":"Aceh Barat Daya","district":"Blang Pidie","urban":"Kuta Tuha","postal_code":23764},{"province":"Nanggroe Aceh Darussalam","city":"Aceh Barat Daya","district":"Jeumpa","urban":"Ladang Neubok","postal_code":23764},{"province":"Nanggroe Aceh Darussalam","city":"Aceh Barat Daya","district":"Blang Pidie","urban":"Kuta Tinggi","postal_code":23764},{"province":"Nanggroe Aceh Darussalam","city":"Aceh Barat Daya","district":"Jeumpa","urban":"Kuta Makmur","postal_code":23764},{"province":"Nanggroe Aceh Darussalam","city":"Aceh Barat Daya","district":"Blang Pidie","urban":"Kuta Bahagia","postal_code":23764},{"province":"Nanggroe Aceh Darussalam","city":"Aceh Barat Daya","district":"Jeumpa","urban":"Kuta Jeumpa","postal_code":23764},{"province":"Nanggroe Aceh Darussalam","city":"Aceh Barat Daya","district":"Blang Pidie","urban":"Kedai / Keude Paya","postal_code":23764},{"province":"Nanggroe Aceh Darussalam","city":"Aceh Barat Daya","district":"Blang Pidie","urban":"Kedai / Keude Siblah","postal_code":23764},{"province":"Nanggroe Aceh Darussalam","city":"Aceh Barat Daya","district":"Blang Pidie","urban":"Gudang","postal_code":23764},{"province":"Nanggroe Aceh Darussalam","city":"Aceh Barat Daya","district":"Blang Pidie","urban":"Guhang","postal_code":23764},{"province":"Nanggroe Aceh Darussalam","city":"Aceh Barat Daya","district":"Jeumpa","urban":"Iku Lhung","postal_code":23764},{"province":"Nanggroe Aceh Darussalam","city":"Aceh Barat Daya","district":"Blang Pidie","urban":"Geulumpang Payong","postal_code":23764},{"province":"Nanggroe Aceh Darussalam","city":"Aceh Barat Daya","district":"Jeumpa","urban":"Cot Mane","postal_code":23764},{"province":"Nanggroe Aceh Darussalam","city":"Aceh Barat Daya","district":"Blang Pidie","urban":"Cot Jeurat","postal_code":23764},{"province":"Nanggroe Aceh Darussalam","city":"Aceh Barat Daya","district":"Jeumpa","urban":"Baru","postal_code":23764},{"province":"Nanggroe Aceh Darussalam","city":"Aceh Barat Daya","district":"Blang Pidie","urban":"Baharu","postal_code":23764},{"province":"Nanggroe Aceh Darussalam","city":"Aceh Barat Daya","district":"Jeumpa","urban":"Alue Sungai Pinang","postal_code":23764},{"province":"Nanggroe Aceh Darussalam","city":"Aceh Barat Daya","district":"Jeumpa","urban":"Asoe Nanggroe (Aso Nanggro)","postal_code":23764},{"province":"Nanggroe Aceh Darussalam","city":"Aceh Barat Daya","district":"Blang Pidie","urban":"Alue Manggota (Alum Anggota)","postal_code":23764},{"province":"Nanggroe Aceh Darussalam","city":"Aceh Barat Daya","district":"Jeumpa","urban":"Alue Rambot","postal_code":23764}]