[{"province":"Nanggroe Aceh Darussalam","city":"Aceh Selatan","district":"Labuhan Haji","urban":"Tengah Pisang","postal_code":23761},{"province":"Nanggroe Aceh Darussalam","city":"Aceh Selatan","district":"Labuhan Haji","urban":"Ujung Batu","postal_code":23761},{"province":"Nanggroe Aceh Darussalam","city":"Aceh Selatan","district":"Labuhan Haji","urban":"Pawoh","postal_code":23761},{"province":"Nanggroe Aceh Darussalam","city":"Aceh Selatan","district":"Labuhan Haji","urban":"Pisang","postal_code":23761},{"province":"Nanggroe Aceh Darussalam","city":"Aceh Selatan","district":"Labuhan Haji","urban":"Tengah Baru","postal_code":23761},{"province":"Nanggroe Aceh Darussalam","city":"Aceh Selatan","district":"Labuhan Haji","urban":"Padang Bakau","postal_code":23761},{"province":"Nanggroe Aceh Darussalam","city":"Aceh Selatan","district":"Labuhan Haji","urban":"Padang Baru","postal_code":23761},{"province":"Nanggroe Aceh Darussalam","city":"Aceh Selatan","district":"Labuhan Haji","urban":"Pasar Lama","postal_code":23761},{"province":"Nanggroe Aceh Darussalam","city":"Aceh Selatan","district":"Labuhan Haji","urban":"Lembah Baru","postal_code":23761},{"province":"Nanggroe Aceh Darussalam","city":"Aceh Selatan","district":"Labuhan Haji","urban":"Manggis Harapan","postal_code":23761},{"province":"Nanggroe Aceh Darussalam","city":"Aceh Selatan","district":"Labuhan Haji","urban":"Dalam","postal_code":23761},{"province":"Nanggroe Aceh Darussalam","city":"Aceh Selatan","district":"Labuhan Haji","urban":"Hulu Pisang","postal_code":23761},{"province":"Nanggroe Aceh Darussalam","city":"Aceh Selatan","district":"Labuhan Haji","urban":"Kota Palak","postal_code":23761},{"province":"Nanggroe Aceh Darussalam","city":"Aceh Selatan","district":"Labuhan Haji","urban":"Bakau Hulu","postal_code":23761},{"province":"Nanggroe Aceh Darussalam","city":"Aceh Selatan","district":"Labuhan Haji","urban":"Cacang","postal_code":23761},{"province":"Nanggroe Aceh Darussalam","city":"Aceh Selatan","district":"Labuhan Haji","urban":"Apha","postal_code":23761}]