[{"province":"Nanggroe Aceh Darussalam","city":"Aceh Barat Daya","district":"Susoh","urban":"Tangah","postal_code":23765},{"province":"Nanggroe Aceh Darussalam","city":"Aceh Barat Daya","district":"Susoh","urban":"Ujung Padang","postal_code":23765},{"province":"Nanggroe Aceh Darussalam","city":"Aceh Barat Daya","district":"Susoh","urban":"Rubek Meupayong","postal_code":23765},{"province":"Nanggroe Aceh Darussalam","city":"Aceh Barat Daya","district":"Susoh","urban":"Rumah Dua Lapis","postal_code":23765},{"province":"Nanggroe Aceh Darussalam","city":"Aceh Barat Daya","district":"Susoh","urban":"Rumah Panjang","postal_code":23765},{"province":"Nanggroe Aceh Darussalam","city":"Aceh Barat Daya","district":"Susoh","urban":"Pulau Kayu","postal_code":23765},{"province":"Nanggroe Aceh Darussalam","city":"Aceh Barat Daya","district":"Susoh","urban":"Pinang","postal_code":23765},{"province":"Nanggroe Aceh Darussalam","city":"Aceh Barat Daya","district":"Susoh","urban":"Panjang Baru","postal_code":23765},{"province":"Nanggroe Aceh Darussalam","city":"Aceh Barat Daya","district":"Susoh","urban":"Pantai Perak","postal_code":23765},{"province":"Nanggroe Aceh Darussalam","city":"Aceh Barat Daya","district":"Susoh","urban":"Pawoh","postal_code":23765},{"province":"Nanggroe Aceh Darussalam","city":"Aceh Barat Daya","district":"Susoh","urban":"Palak Hilir","postal_code":23765},{"province":"Nanggroe Aceh Darussalam","city":"Aceh Barat Daya","district":"Susoh","urban":"Palak Hulu","postal_code":23765},{"province":"Nanggroe Aceh Darussalam","city":"Aceh Barat Daya","district":"Susoh","urban":"Padang Hilir","postal_code":23765},{"province":"Nanggroe Aceh Darussalam","city":"Aceh Barat Daya","district":"Susoh","urban":"Padang Panjang","postal_code":23765},{"province":"Nanggroe Aceh Darussalam","city":"Aceh Barat Daya","district":"Susoh","urban":"Meunasah","postal_code":23765},{"province":"Nanggroe Aceh Darussalam","city":"Aceh Barat Daya","district":"Susoh","urban":"Padang Baru","postal_code":23765},{"province":"Nanggroe Aceh Darussalam","city":"Aceh Barat Daya","district":"Susoh","urban":"Ladang","postal_code":23765},{"province":"Nanggroe Aceh Darussalam","city":"Aceh Barat Daya","district":"Susoh","urban":"Lampoh Drien","postal_code":23765},{"province":"Nanggroe Aceh Darussalam","city":"Aceh Barat Daya","district":"Susoh","urban":"Kedai Palak Kerambil","postal_code":23765},{"province":"Nanggroe Aceh Darussalam","city":"Aceh Barat Daya","district":"Susoh","urban":"Kedai Susoh","postal_code":23765},{"province":"Nanggroe Aceh Darussalam","city":"Aceh Barat Daya","district":"Susoh","urban":"Kepala Bandar","postal_code":23765},{"province":"Nanggroe Aceh Darussalam","city":"Aceh Barat Daya","district":"Susoh","urban":"Gadang","postal_code":23765},{"province":"Nanggroe Aceh Darussalam","city":"Aceh Barat Daya","district":"Susoh","urban":"Durian Rampak","postal_code":23765},{"province":"Nanggroe Aceh Darussalam","city":"Aceh Barat Daya","district":"Susoh","urban":"Blang Dalam","postal_code":23765},{"province":"Nanggroe Aceh Darussalam","city":"Aceh Barat Daya","district":"Susoh","urban":"Cot Mancang","postal_code":23765},{"province":"Nanggroe Aceh Darussalam","city":"Aceh Barat Daya","district":"Susoh","urban":"Durian Jangek","postal_code":23765},{"province":"Nanggroe Aceh Darussalam","city":"Aceh Barat Daya","district":"Susoh","urban":"Baharu","postal_code":23765},{"province":"Nanggroe Aceh Darussalam","city":"Aceh Barat Daya","district":"Susoh","urban":"Barat","postal_code":23765}]