[{"province":"Nanggroe Aceh Darussalam","city":"Aceh Selatan","district":"Bakongan Timur","urban":"Ujung Pulo Rayeuk","postal_code":23773},{"province":"Nanggroe Aceh Darussalam","city":"Aceh Selatan","district":"Kota Bahagia","urban":"Ujung Tanoh","postal_code":23773},{"province":"Nanggroe Aceh Darussalam","city":"Aceh Selatan","district":"Bakongan","urban":"Ujung Mangki","postal_code":23773},{"province":"Nanggroe Aceh Darussalam","city":"Aceh Selatan","district":"Bakongan","urban":"Ujung Padang","postal_code":23773},{"province":"Nanggroe Aceh Darussalam","city":"Aceh Selatan","district":"Bakongan Timur","urban":"Ujung Pulo Cut","postal_code":23773},{"province":"Nanggroe Aceh Darussalam","city":"Aceh Selatan","district":"Bakongan Timur","urban":"Simpang","postal_code":23773},{"province":"Nanggroe Aceh Darussalam","city":"Aceh Selatan","district":"Kota Bahagia","urban":"Ujung Gunong Rayek","postal_code":23773},{"province":"Nanggroe Aceh Darussalam","city":"Aceh Selatan","district":"Kota Bahagia","urban":"Ujung Gunung Cut","postal_code":23773},{"province":"Nanggroe Aceh Darussalam","city":"Aceh Selatan","district":"Bakongan Timur","urban":"Seubadeh","postal_code":23773},{"province":"Nanggroe Aceh Darussalam","city":"Aceh Selatan","district":"Bakongan Timur","urban":"Seulekat (Seuleukat)","postal_code":23773},{"province":"Nanggroe Aceh Darussalam","city":"Aceh Selatan","district":"Kota Bahagia","urban":"Seunebok Keranji","postal_code":23773},{"province":"Nanggroe Aceh Darussalam","city":"Aceh Selatan","district":"Bakongan Timur","urban":"Sawah Tingkeum","postal_code":23773},{"province":"Nanggroe Aceh Darussalam","city":"Aceh Selatan","district":"Kota Bahagia","urban":"Seneubok Alur Bulah/Buloh","postal_code":23773},{"province":"Nanggroe Aceh Darussalam","city":"Aceh Selatan","district":"Bakongan","urban":"Padang Berahan","postal_code":23773},{"province":"Nanggroe Aceh Darussalam","city":"Aceh Selatan","district":"Bakongan Timur","urban":"Ladang Rimba","postal_code":23773},{"province":"Nanggroe Aceh Darussalam","city":"Aceh Selatan","district":"Bakongan","urban":"Padang Berahan","postal_code":23773},{"province":"Nanggroe Aceh Darussalam","city":"Aceh Selatan","district":"Bakongan","urban":"Keude Bakongan","postal_code":23773},{"province":"Nanggroe Aceh Darussalam","city":"Aceh Selatan","district":"Bakongan Timur","urban":"Kampung Baru","postal_code":23773},{"province":"Nanggroe Aceh Darussalam","city":"Aceh Selatan","district":"Kota Bahagia","urban":"Jambo Keupok/Keuphok","postal_code":23773},{"province":"Nanggroe Aceh Darussalam","city":"Aceh Selatan","district":"Bakongan","urban":"Gampong Drien (Kampung Drien)","postal_code":23773},{"province":"Nanggroe Aceh Darussalam","city":"Aceh Selatan","district":"Bakongan","urban":"Darul Ikhsan","postal_code":23773},{"province":"Nanggroe Aceh Darussalam","city":"Aceh Selatan","district":"Bakongan","urban":"Gampong Baro (Kampung Baru)","postal_code":23773},{"province":"Nanggroe Aceh Darussalam","city":"Aceh Selatan","district":"Kota Bahagia","urban":"Beutong","postal_code":23773},{"province":"Nanggroe Aceh Darussalam","city":"Aceh Selatan","district":"Kota Bahagia","urban":"Bukit Gading (Buket Gedeng)","postal_code":23773},{"province":"Nanggroe Aceh Darussalam","city":"Aceh Selatan","district":"Kota Bahagia","urban":"Alur Dua Mas","postal_code":23773}]