[{"province":"Nanggroe Aceh Darussalam","city":"Aceh Selatan","district":"Kluet Selatan","urban":"Ujung Pasir","postal_code":23772},{"province":"Nanggroe Aceh Darussalam","city":"Aceh Selatan","district":"Kluet Selatan","urban":"Suaq Bakong","postal_code":23772},{"province":"Nanggroe Aceh Darussalam","city":"Aceh Selatan","district":"Kluet Selatan","urban":"Ujung","postal_code":23772},{"province":"Nanggroe Aceh Darussalam","city":"Aceh Selatan","district":"Kluet Selatan","urban":"Ujung Padang","postal_code":23772},{"province":"Nanggroe Aceh Darussalam","city":"Aceh Selatan","district":"Kluet Tengah","urban":"Simpang Tiga","postal_code":23772},{"province":"Nanggroe Aceh Darussalam","city":"Aceh Selatan","district":"Kluet Tengah","urban":"Siurai-Urai","postal_code":23772},{"province":"Nanggroe Aceh Darussalam","city":"Aceh Selatan","district":"Kluet Timur","urban":"Sapik","postal_code":23772},{"province":"Nanggroe Aceh Darussalam","city":"Aceh Selatan","district":"Kluet Selatan","urban":"Sialang","postal_code":23772},{"province":"Nanggroe Aceh Darussalam","city":"Aceh Selatan","district":"Kluet Tengah","urban":"Simpang Dua","postal_code":23772},{"province":"Nanggroe Aceh Darussalam","city":"Aceh Selatan","district":"Kluet Selatan","urban":"Pulo Ie","postal_code":23772},{"province":"Nanggroe Aceh Darussalam","city":"Aceh Selatan","district":"Kluet Selatan","urban":"Rantau Binuang","postal_code":23772},{"province":"Nanggroe Aceh Darussalam","city":"Aceh Selatan","district":"Kluet Tengah","urban":"Pulo Air","postal_code":23772},{"province":"Nanggroe Aceh Darussalam","city":"Aceh Selatan","district":"Kluet Timur","urban":"Pucuk Lembang","postal_code":23772},{"province":"Nanggroe Aceh Darussalam","city":"Aceh Selatan","district":"Kluet Timur","urban":"Paya Dapur","postal_code":23772},{"province":"Nanggroe Aceh Darussalam","city":"Aceh Selatan","district":"Kluet Timur","urban":"Paya Laba","postal_code":23772},{"province":"Nanggroe Aceh Darussalam","city":"Aceh Selatan","district":"Kluet Selatan","urban":"Pasi Lembang","postal_code":23772},{"province":"Nanggroe Aceh Darussalam","city":"Aceh Selatan","district":"Kluet Selatan","urban":"Pasi Merapat","postal_code":23772},{"province":"Nanggroe Aceh Darussalam","city":"Aceh Selatan","district":"Kluet Tengah","urban":"Malaka","postal_code":23772},{"province":"Nanggroe Aceh Darussalam","city":"Aceh Selatan","district":"Kluet Tengah","urban":"Mersak","postal_code":23772},{"province":"Nanggroe Aceh Darussalam","city":"Aceh Selatan","district":"Kluet Selatan","urban":"Luar","postal_code":23772},{"province":"Nanggroe Aceh Darussalam","city":"Aceh Selatan","district":"Kluet Tengah","urban":"Lawe Melang","postal_code":23772},{"province":"Nanggroe Aceh Darussalam","city":"Aceh Selatan","district":"Kluet Timur","urban":"Lawe Sawah","postal_code":23772},{"province":"Nanggroe Aceh Darussalam","city":"Aceh Selatan","district":"Kluet Timur","urban":"Lawe Buluh Didi","postal_code":23772},{"province":"Nanggroe Aceh Darussalam","city":"Aceh Selatan","district":"Kluet Timur","urban":"Lawe Cimanok","postal_code":23772},{"province":"Nanggroe Aceh Darussalam","city":"Aceh Selatan","district":"Kluet Tengah","urban":"Koto Indarung","postal_code":23772},{"province":"Nanggroe Aceh Darussalam","city":"Aceh Selatan","district":"Kluet Tengah","urban":"Koto Menggamat","postal_code":23772},{"province":"Nanggroe Aceh Darussalam","city":"Aceh Selatan","district":"Kluet Selatan","urban":"Kapeh","postal_code":23772},{"province":"Nanggroe Aceh Darussalam","city":"Aceh Selatan","district":"Kluet Selatan","urban":"Kedai Kandang","postal_code":23772},{"province":"Nanggroe Aceh Darussalam","city":"Aceh Selatan","district":"Kluet Selatan","urban":"Kedai Runding","postal_code":23772},{"province":"Nanggroe Aceh Darussalam","city":"Aceh Selatan","district":"Kluet Tengah","urban":"Kampung Padang","postal_code":23772},{"province":"Nanggroe Aceh Darussalam","city":"Aceh Selatan","district":"Kluet Tengah","urban":"Kampung Sawah","postal_code":23772},{"province":"Nanggroe Aceh Darussalam","city":"Aceh Selatan","district":"Kluet Selatan","urban":"Jua","postal_code":23772},{"province":"Nanggroe Aceh Darussalam","city":"Aceh Selatan","district":"Kluet Tengah","urban":"Jambo Papan","postal_code":23772},{"province":"Nanggroe Aceh Darussalam","city":"Aceh Selatan","district":"Kluet Selatan","urban":"Gelumbuk","postal_code":23772},{"province":"Nanggroe Aceh Darussalam","city":"Aceh Selatan","district":"Kluet Selatan","urban":"Indra Damai","postal_code":23772},{"province":"Nanggroe Aceh Darussalam","city":"Aceh Selatan","district":"Kluet Selatan","urban":"Barat Daya","postal_code":23772},{"province":"Nanggroe Aceh Darussalam","city":"Aceh Selatan","district":"Kluet Timur","urban":"Durian Kawan","postal_code":23772},{"province":"Nanggroe Aceh Darussalam","city":"Aceh Selatan","district":"Kluet Tengah","urban":"Alur Keujrun","postal_code":23772},{"province":"Nanggroe Aceh Darussalam","city":"Aceh Selatan","district":"Kluet Timur","urban":"Alai","postal_code":23772}]