[{"province":"Nanggroe Aceh Darussalam","city":"Aceh Selatan","district":"Trumon","urban":"Ujong/Ujung Tanoh","postal_code":23774},{"province":"Nanggroe Aceh Darussalam","city":"Aceh Selatan","district":"Trumon Timur","urban":"Titi Poben","postal_code":23774},{"province":"Nanggroe Aceh Darussalam","city":"Aceh Selatan","district":"Trumon","urban":"Tepin/Teupin Tinggi","postal_code":23774},{"province":"Nanggroe Aceh Darussalam","city":"Aceh Selatan","district":"Trumon","urban":"Sigleng (Singleng)","postal_code":23774},{"province":"Nanggroe Aceh Darussalam","city":"Aceh Selatan","district":"Trumon Timur","urban":"Seuneubok Puntho","postal_code":23774},{"province":"Nanggroe Aceh Darussalam","city":"Aceh Selatan","district":"Trumon Timur","urban":"Seuneubok Pusaka","postal_code":23774},{"province":"Nanggroe Aceh Darussalam","city":"Aceh Selatan","district":"Trumon","urban":"Raket","postal_code":23774},{"province":"Nanggroe Aceh Darussalam","city":"Aceh Selatan","district":"Trumon","urban":"Seunabok Jaya","postal_code":23774},{"province":"Nanggroe Aceh Darussalam","city":"Aceh Selatan","district":"Trumon","urban":"Panton Bilie","postal_code":23774},{"province":"Nanggroe Aceh Darussalam","city":"Aceh Selatan","district":"Trumon Tengah","urban":"Pulo Paya","postal_code":23774},{"province":"Nanggroe Aceh Darussalam","city":"Aceh Selatan","district":"Trumon Timur","urban":"Pinto Rimba","postal_code":23774},{"province":"Nanggroe Aceh Darussalam","city":"Aceh Selatan","district":"Trumon Tengah","urban":"Naca","postal_code":23774},{"province":"Nanggroe Aceh Darussalam","city":"Aceh Selatan","district":"Trumon","urban":"Padang Harapan","postal_code":23774},{"province":"Nanggroe Aceh Darussalam","city":"Aceh Selatan","district":"Trumon Tengah","urban":"Ladang Rimba","postal_code":23774},{"province":"Nanggroe Aceh Darussalam","city":"Aceh Selatan","district":"Trumon Tengah","urban":"Lhok Raya","postal_code":23774},{"province":"Nanggroe Aceh Darussalam","city":"Aceh Selatan","district":"Trumon","urban":"Kuta Padang","postal_code":23774},{"province":"Nanggroe Aceh Darussalam","city":"Aceh Selatan","district":"Trumon","urban":"Kuta Baro/Baru","postal_code":23774},{"province":"Nanggroe Aceh Darussalam","city":"Aceh Selatan","district":"Trumon Tengah","urban":"Krueng Batee","postal_code":23774},{"province":"Nanggroe Aceh Darussalam","city":"Aceh Selatan","district":"Trumon Timur","urban":"Kapai Seusak","postal_code":23774},{"province":"Nanggroe Aceh Darussalam","city":"Aceh Selatan","district":"Trumon","urban":"Keude Trumon","postal_code":23774},{"province":"Nanggroe Aceh Darussalam","city":"Aceh Selatan","district":"Trumon Tengah","urban":"Jambo Papeun","postal_code":23774},{"province":"Nanggroe Aceh Darussalam","city":"Aceh Selatan","district":"Trumon Timur","urban":"Jambo Dalem","postal_code":23774},{"province":"Nanggroe Aceh Darussalam","city":"Aceh Selatan","district":"Trumon Tengah","urban":"Ie Jeureuneh","postal_code":23774},{"province":"Nanggroe Aceh Darussalam","city":"Aceh Selatan","district":"Trumon","urban":"Ie Meudama","postal_code":23774},{"province":"Nanggroe Aceh Darussalam","city":"Aceh Selatan","district":"Trumon Tengah","urban":"Gampong Teungoh (Kampong Teungoh)","postal_code":23774},{"province":"Nanggroe Aceh Darussalam","city":"Aceh Selatan","district":"Trumon Tengah","urban":"Gunong Kapo/Kapho","postal_code":23774},{"province":"Nanggroe Aceh Darussalam","city":"Aceh Selatan","district":"Trumon Tengah","urban":"Cot Bayu","postal_code":23774},{"province":"Nanggroe Aceh Darussalam","city":"Aceh Selatan","district":"Trumon Timur","urban":"Alur Bujok","postal_code":23774}]