[{"province":"Nanggroe Aceh Darussalam","city":"Simeulue","district":"Simeuleu Tengah","urban":"Wellang Kum (Wel Langkom)","postal_code":23894},{"province":"Nanggroe Aceh Darussalam","city":"Simeulue","district":"Simeuleu Tengah","urban":"Suak Baru","postal_code":23894},{"province":"Nanggroe Aceh Darussalam","city":"Simeulue","district":"Simeuleu Tengah","urban":"Wel Wel","postal_code":23894},{"province":"Nanggroe Aceh Darussalam","city":"Simeulue","district":"Simeulue Cut","urban":"Ujung Pandang / Padang","postal_code":23894},{"province":"Nanggroe Aceh Darussalam","city":"Simeulue","district":"Simeuleu Tengah","urban":"Sebbe","postal_code":23894},{"province":"Nanggroe Aceh Darussalam","city":"Simeulue","district":"Simeuleu Tengah","urban":"Situfa Jaya","postal_code":23894},{"province":"Nanggroe Aceh Darussalam","city":"Simeulue","district":"Simeulue Cut","urban":"Sibuluh","postal_code":23894},{"province":"Nanggroe Aceh Darussalam","city":"Simeulue","district":"Simeuleu Tengah","urban":"Luan Sorip","postal_code":23894},{"province":"Nanggroe Aceh Darussalam","city":"Simeulue","district":"Simeuleu Tengah","urban":"Putra Jaya","postal_code":23894},{"province":"Nanggroe Aceh Darussalam","city":"Simeulue","district":"Simeuleu Tengah","urban":"Latitik","postal_code":23894},{"province":"Nanggroe Aceh Darussalam","city":"Simeulue","district":"Simeuleu Tengah","urban":"Lauke","postal_code":23894},{"province":"Nanggroe Aceh Darussalam","city":"Simeulue","district":"Simeuleu Tengah","urban":"Laure-E","postal_code":23894},{"province":"Nanggroe Aceh Darussalam","city":"Simeulue","district":"Simeuleu Tengah","urban":"Lambaya","postal_code":23894},{"province":"Nanggroe Aceh Darussalam","city":"Simeulue","district":"Simeulue Cut","urban":"Latak Ayah","postal_code":23894},{"province":"Nanggroe Aceh Darussalam","city":"Simeulue","district":"Simeulue Cut","urban":"Kuta Padang","postal_code":23894},{"province":"Nanggroe Aceh Darussalam","city":"Simeulue","district":"Simeuleu Tengah","urban":"Lakubang","postal_code":23894},{"province":"Nanggroe Aceh Darussalam","city":"Simeulue","district":"Simeuleu Tengah","urban":"Lamayang","postal_code":23894},{"province":"Nanggroe Aceh Darussalam","city":"Simeulue","district":"Simeulue Cut","urban":"Kuta Inang","postal_code":23894},{"province":"Nanggroe Aceh Darussalam","city":"Simeulue","district":"Simeuleu Tengah","urban":"Kuta Batu","postal_code":23894},{"province":"Nanggroe Aceh Darussalam","city":"Simeulue","district":"Simeuleu Tengah","urban":"Dihit","postal_code":23894},{"province":"Nanggroe Aceh Darussalam","city":"Simeulue","district":"Simeuleu Tengah","urban":"Kampung Aie","postal_code":23894},{"province":"Nanggroe Aceh Darussalam","city":"Simeulue","district":"Simeulue Cut","urban":"Borengan","postal_code":23894},{"province":"Nanggroe Aceh Darussalam","city":"Simeulue","district":"Simeulue Cut","urban":"Bubuhan","postal_code":23894},{"province":"Nanggroe Aceh Darussalam","city":"Simeulue","district":"Simeulue Cut","urban":"Amarabu","postal_code":23894}]