[{"province":"Nanggroe Aceh Darussalam","city":"Simeulue","district":"Simeuleu Barat","urban":"Ujung Harapan","postal_code":23892},{"province":"Nanggroe Aceh Darussalam","city":"Simeulue","district":"Simeuleu Barat","urban":"Sinar Bahagia","postal_code":23892},{"province":"Nanggroe Aceh Darussalam","city":"Simeulue","district":"Teupah Barat","urban":"Sital","postal_code":23892},{"province":"Nanggroe Aceh Darussalam","city":"Simeulue","district":"Teupah Barat","urban":"Silengas","postal_code":23892},{"province":"Nanggroe Aceh Darussalam","city":"Simeulue","district":"Simeuleu Barat","urban":"Sembilan","postal_code":23892},{"province":"Nanggroe Aceh Darussalam","city":"Simeulue","district":"Simeuleu Barat","urban":"Sigulai","postal_code":23892},{"province":"Nanggroe Aceh Darussalam","city":"Simeulue","district":"Teupah Barat","urban":"Salur Latun","postal_code":23892},{"province":"Nanggroe Aceh Darussalam","city":"Simeulue","district":"Simeuleu Barat","urban":"Sanggiran","postal_code":23892},{"province":"Nanggroe Aceh Darussalam","city":"Simeulue","district":"Teupah Barat","urban":"Salur Lasengalu","postal_code":23892},{"province":"Nanggroe Aceh Darussalam","city":"Simeulue","district":"Teupah Barat","urban":"Pulau Teupah","postal_code":23892},{"province":"Nanggroe Aceh Darussalam","city":"Simeulue","district":"Teupah Barat","urban":"Salur","postal_code":23892},{"province":"Nanggroe Aceh Darussalam","city":"Simeulue","district":"Simeuleu Barat","urban":"Miteum","postal_code":23892},{"province":"Nanggroe Aceh Darussalam","city":"Simeulue","district":"Teupah Barat","urban":"Naibos","postal_code":23892},{"province":"Nanggroe Aceh Darussalam","city":"Simeulue","district":"Teupah Barat","urban":"Nancala","postal_code":23892},{"province":"Nanggroe Aceh Darussalam","city":"Simeulue","district":"Simeuleu Barat","urban":"Malasin","postal_code":23892},{"province":"Nanggroe Aceh Darussalam","city":"Simeulue","district":"Teupah Barat","urban":"Maudil","postal_code":23892},{"province":"Nanggroe Aceh Darussalam","city":"Simeulue","district":"Simeuleu Barat","urban":"Lhok Bikhao","postal_code":23892},{"province":"Nanggroe Aceh Darussalam","city":"Simeulue","district":"Simeuleu Barat","urban":"Lhok Makmur","postal_code":23892},{"province":"Nanggroe Aceh Darussalam","city":"Simeulue","district":"Simeuleu Barat","urban":"Layabaung","postal_code":23892},{"province":"Nanggroe Aceh Darussalam","city":"Simeulue","district":"Teupah Barat","urban":"Leubang Hulu","postal_code":23892},{"province":"Nanggroe Aceh Darussalam","city":"Simeulue","district":"Teupah Barat","urban":"Lantik","postal_code":23892},{"province":"Nanggroe Aceh Darussalam","city":"Simeulue","district":"Teupah Barat","urban":"Laubang (Leubang)","postal_code":23892},{"province":"Nanggroe Aceh Darussalam","city":"Simeulue","district":"Teupah Barat","urban":"Inor","postal_code":23892},{"province":"Nanggroe Aceh Darussalam","city":"Simeulue","district":"Simeuleu Barat","urban":"Lamamek","postal_code":23892},{"province":"Nanggroe Aceh Darussalam","city":"Simeulue","district":"Teupah Barat","urban":"Laayon","postal_code":23892},{"province":"Nanggroe Aceh Darussalam","city":"Simeulue","district":"Teupah Barat","urban":"Bunon","postal_code":23892},{"province":"Nanggroe Aceh Darussalam","city":"Simeulue","district":"Simeuleu Barat","urban":"Batu Ragi","postal_code":23892},{"province":"Nanggroe Aceh Darussalam","city":"Simeulue","district":"Teupah Barat","urban":"Awe Seubal","postal_code":23892},{"province":"Nanggroe Aceh Darussalam","city":"Simeulue","district":"Simeuleu Barat","urban":"Babul Makmur","postal_code":23892},{"province":"Nanggroe Aceh Darussalam","city":"Simeulue","district":"Teupah Barat","urban":"Angkeo","postal_code":23892},{"province":"Nanggroe Aceh Darussalam","city":"Simeulue","district":"Teupah Barat","urban":"Awe Kecil","postal_code":23892},{"province":"Nanggroe Aceh Darussalam","city":"Simeulue","district":"Simeuleu Barat","urban":"Amabaan","postal_code":23892}]