[{"province":"Nanggroe Aceh Darussalam","city":"Simeulue","district":"Teupah Selatan","urban":"Ulul Mayang (Manyang)","postal_code":23891},{"province":"Nanggroe Aceh Darussalam","city":"Simeulue","district":"Simeuleu Timur","urban":"Ujung Tinggi","postal_code":23891},{"province":"Nanggroe Aceh Darussalam","city":"Simeulue","district":"Teupah Selatan","urban":"Trans Maranti","postal_code":23891},{"province":"Nanggroe Aceh Darussalam","city":"Simeulue","district":"Teupah Selatan","urban":"Trans Baru","postal_code":23891},{"province":"Nanggroe Aceh Darussalam","city":"Simeulue","district":"Teupah Selatan","urban":"Trans Jernge","postal_code":23891},{"province":"Nanggroe Aceh Darussalam","city":"Simeulue","district":"Teluk Dalam","urban":"Tanjung Raya","postal_code":23891},{"province":"Nanggroe Aceh Darussalam","city":"Simeulue","district":"Simeuleu Timur","urban":"Suka Maju","postal_code":23891},{"province":"Nanggroe Aceh Darussalam","city":"Simeulue","district":"Simeuleu Timur","urban":"Suka Karya","postal_code":23891},{"province":"Nanggroe Aceh Darussalam","city":"Simeulue","district":"Simeuleu Timur","urban":"Suka Jaya","postal_code":23891},{"province":"Nanggroe Aceh Darussalam","city":"Simeulue","district":"Teupah Selatan","urban":"Suak Lamatan","postal_code":23891},{"province":"Nanggroe Aceh Darussalam","city":"Simeulue","district":"Teupah Tengah","urban":"Sua-Sua","postal_code":23891},{"province":"Nanggroe Aceh Darussalam","city":"Simeulue","district":"Simeuleu Timur","urban":"Suak Buluh","postal_code":23891},{"province":"Nanggroe Aceh Darussalam","city":"Simeulue","district":"Teupah Tengah","urban":"Situbuk","postal_code":23891},{"province":"Nanggroe Aceh Darussalam","city":"Simeulue","district":"Simeuleu Timur","urban":"Sinabang","postal_code":23891},{"province":"Nanggroe Aceh Darussalam","city":"Simeulue","district":"Teupah Tengah","urban":"Simpang Abail","postal_code":23891},{"province":"Nanggroe Aceh Darussalam","city":"Simeulue","district":"Teupah Selatan","urban":"Seuneubok","postal_code":23891},{"province":"Nanggroe Aceh Darussalam","city":"Simeulue","district":"Simeuleu Timur","urban":"Sefoyan","postal_code":23891},{"province":"Nanggroe Aceh Darussalam","city":"Simeulue","district":"Simeuleu Timur","urban":"Pulau Siumat","postal_code":23891},{"province":"Nanggroe Aceh Darussalam","city":"Simeulue","district":"Teluk Dalam","urban":"Sambay","postal_code":23891},{"province":"Nanggroe Aceh Darussalam","city":"Simeulue","district":"Teupah Selatan","urban":"Pulau Bengkalak","postal_code":23891},{"province":"Nanggroe Aceh Darussalam","city":"Simeulue","district":"Teupah Selatan","urban":"Pasir Tinggi","postal_code":23891},{"province":"Nanggroe Aceh Darussalam","city":"Simeulue","district":"Teluk Dalam","urban":"Muara Aman","postal_code":23891},{"province":"Nanggroe Aceh Darussalam","city":"Simeulue","district":"Teupah Tengah","urban":"Nancawa","postal_code":23891},{"province":"Nanggroe Aceh Darussalam","city":"Simeulue","district":"Teupah Tengah","urban":"Matan Urung","postal_code":23891},{"province":"Nanggroe Aceh Darussalam","city":"Simeulue","district":"Simeuleu Timur","urban":"Lugu","postal_code":23891},{"province":"Nanggroe Aceh Darussalam","city":"Simeulue","district":"Teluk Dalam","urban":"Lugu Sek Bahak (Sebahak)","postal_code":23891},{"province":"Nanggroe Aceh Darussalam","city":"Simeulue","district":"Teluk Dalam","urban":"Luan Balu","postal_code":23891},{"province":"Nanggroe Aceh Darussalam","city":"Simeulue","district":"Simeuleu Timur","urban":"Linggi","postal_code":23891},{"province":"Nanggroe Aceh Darussalam","city":"Simeulue","district":"Teupah Selatan","urban":"Lataling","postal_code":23891},{"province":"Nanggroe Aceh Darussalam","city":"Simeulue","district":"Teupah Selatan","urban":"Latiung","postal_code":23891},{"province":"Nanggroe Aceh Darussalam","city":"Simeulue","district":"Teupah Tengah","urban":"Lasikin","postal_code":23891},{"province":"Nanggroe Aceh Darussalam","city":"Simeulue","district":"Teupah Tengah","urban":"Lanting","postal_code":23891},{"province":"Nanggroe Aceh Darussalam","city":"Simeulue","district":"Teupah Selatan","urban":"Labuhan Jaya","postal_code":23891},{"province":"Nanggroe Aceh Darussalam","city":"Simeulue","district":"Teupah Selatan","urban":"Labuhan Bakti","postal_code":23891},{"province":"Nanggroe Aceh Darussalam","city":"Simeulue","district":"Teupah Selatan","urban":"Labuhan Bajau","postal_code":23891},{"province":"Nanggroe Aceh Darussalam","city":"Simeulue","district":"Teupah Tengah","urban":"Labuah","postal_code":23891},{"province":"Nanggroe Aceh Darussalam","city":"Simeulue","district":"Simeuleu Timur","urban":"Kuala Makmur","postal_code":23891},{"province":"Nanggroe Aceh Darussalam","city":"Simeulue","district":"Teluk Dalam","urban":"Kuala Baru","postal_code":23891},{"province":"Nanggroe Aceh Darussalam","city":"Simeulue","district":"Simeuleu Timur","urban":"Kota Batu","postal_code":23891},{"province":"Nanggroe Aceh Darussalam","city":"Simeulue","district":"Teluk Dalam","urban":"Kuala Bakti","postal_code":23891},{"province":"Nanggroe Aceh Darussalam","city":"Simeulue","district":"Teupah Selatan","urban":"Kebun Baru","postal_code":23891},{"province":"Nanggroe Aceh Darussalam","city":"Simeulue","district":"Teupah Tengah","urban":"Kahat","postal_code":23891},{"province":"Nanggroe Aceh Darussalam","city":"Simeulue","district":"Teluk Dalam","urban":"Gunung Putih","postal_code":23891},{"province":"Nanggroe Aceh Darussalam","city":"Simeulue","district":"Simeuleu Timur","urban":"Ganting","postal_code":23891},{"province":"Nanggroe Aceh Darussalam","city":"Simeulue","district":"Teupah Tengah","urban":"Busung Indah","postal_code":23891},{"province":"Nanggroe Aceh Darussalam","city":"Simeulue","district":"Teluk Dalam","urban":"Bulu Hadik","postal_code":23891},{"province":"Nanggroe Aceh Darussalam","city":"Simeulue","district":"Teupah Tengah","urban":"Batu-Batu","postal_code":23891},{"province":"Nanggroe Aceh Darussalam","city":"Simeulue","district":"Teupah Selatan","urban":"Blang Sebel","postal_code":23891},{"province":"Nanggroe Aceh Darussalam","city":"Simeulue","district":"Teupah Selatan","urban":"Badegong","postal_code":23891},{"province":"Nanggroe Aceh Darussalam","city":"Simeulue","district":"Teupah Selatan","urban":"Batu Ralang","postal_code":23891},{"province":"Nanggroe Aceh Darussalam","city":"Simeulue","district":"Teluk Dalam","urban":"Babussalam","postal_code":23891},{"province":"Nanggroe Aceh Darussalam","city":"Simeulue","district":"Simeuleu Timur","urban":"Amaiteng Mulia","postal_code":23891},{"province":"Nanggroe Aceh Darussalam","city":"Simeulue","district":"Teupah Selatan","urban":"Ana Ao","postal_code":23891},{"province":"Nanggroe Aceh Darussalam","city":"Simeulue","district":"Simeuleu Timur","urban":"Ameria Bahagia","postal_code":23891},{"province":"Nanggroe Aceh Darussalam","city":"Simeulue","district":"Teupah Selatan","urban":"Alus Alus","postal_code":23891},{"province":"Nanggroe Aceh Darussalam","city":"Simeulue","district":"Simeuleu Timur","urban":"Air Dingin","postal_code":23891},{"province":"Nanggroe Aceh Darussalam","city":"Simeulue","district":"Simeuleu Timur","urban":"Air Pinang","postal_code":23891},{"province":"Nanggroe Aceh Darussalam","city":"Simeulue","district":"Teupah Tengah","urban":"Abail","postal_code":23891}]