[{"province":"Nanggroe Aceh Darussalam","city":"Pidie","district":"Batee","urban":"Teupin Raya","postal_code":24152},{"province":"Nanggroe Aceh Darussalam","city":"Pidie","district":"Batee","urban":"Tuha","postal_code":24152},{"province":"Nanggroe Aceh Darussalam","city":"Pidie","district":"Batee","urban":"Teupin Jeue","postal_code":24152},{"province":"Nanggroe Aceh Darussalam","city":"Pidie","district":"Grong Grong","urban":"Teungoh","postal_code":24152},{"province":"Nanggroe Aceh Darussalam","city":"Pidie","district":"Grong Grong","urban":"Sukon","postal_code":24152},{"province":"Nanggroe Aceh Darussalam","city":"Pidie","district":"Batee","urban":"Seulatan","postal_code":24152},{"province":"Nanggroe Aceh Darussalam","city":"Pidie","district":"Grong Grong","urban":"Sentosa","postal_code":24152},{"province":"Nanggroe Aceh Darussalam","city":"Pidie","district":"Batee","urban":"Pulo Pande","postal_code":24152},{"province":"Nanggroe Aceh Darussalam","city":"Pidie","district":"Batee","urban":"Pulo Tukok","postal_code":24152},{"province":"Nanggroe Aceh Darussalam","city":"Pidie","district":"Batee","urban":"Rungkom","postal_code":24152},{"province":"Nanggroe Aceh Darussalam","city":"Pidie","district":"Batee","urban":"Pulo Bungong","postal_code":24152},{"province":"Nanggroe Aceh Darussalam","city":"Pidie","district":"Grong Grong","urban":"Nicah Meuaneuk","postal_code":24152},{"province":"Nanggroe Aceh Darussalam","city":"Pidie","district":"Grong Grong","urban":"Pangge/Pilok","postal_code":24152},{"province":"Nanggroe Aceh Darussalam","city":"Pidie","district":"Grong Grong","urban":"Paya","postal_code":24152},{"province":"Nanggroe Aceh Darussalam","city":"Pidie","district":"Batee","urban":"Meunasah Mee","postal_code":24152},{"province":"Nanggroe Aceh Darussalam","city":"Pidie","district":"Batee","urban":"Neuheun","postal_code":24152},{"province":"Nanggroe Aceh Darussalam","city":"Pidie","district":"Grong Grong","urban":"Mesjid Meuaneuk","postal_code":24152},{"province":"Nanggroe Aceh Darussalam","city":"Pidie","district":"Batee","urban":"Meucat","postal_code":24152},{"province":"Nanggroe Aceh Darussalam","city":"Pidie","district":"Batee","urban":"Mesjid Calong","postal_code":24152},{"province":"Nanggroe Aceh Darussalam","city":"Pidie","district":"Grong Grong","urban":"Mesjid Beureuleung","postal_code":24152},{"province":"Nanggroe Aceh Darussalam","city":"Pidie","district":"Batee","urban":"Kule","postal_code":24152},{"province":"Nanggroe Aceh Darussalam","city":"Pidie","district":"Grong Grong","urban":"Mee Beureuleung (Meunasah Mee)","postal_code":24152},{"province":"Nanggroe Aceh Darussalam","city":"Pidie","district":"Batee","urban":"Kareung","postal_code":24152},{"province":"Nanggroe Aceh Darussalam","city":"Pidie","district":"Batee","urban":"Kulam","postal_code":24152},{"province":"Nanggroe Aceh Darussalam","city":"Pidie","district":"Grong Grong","urban":"Karieng","postal_code":24152},{"province":"Nanggroe Aceh Darussalam","city":"Pidie","district":"Grong Grong","urban":"Gintong","postal_code":24152},{"province":"Nanggroe Aceh Darussalam","city":"Pidie","district":"Grong Grong","urban":"Grong Grong","postal_code":24152},{"province":"Nanggroe Aceh Darussalam","city":"Pidie","district":"Batee","urban":"Geunteng Barat","postal_code":24152},{"province":"Nanggroe Aceh Darussalam","city":"Pidie","district":"Batee","urban":"Geunteng Timur","postal_code":24152},{"province":"Nanggroe Aceh Darussalam","city":"Pidie","district":"Batee","urban":"Dayah Baroh","postal_code":24152},{"province":"Nanggroe Aceh Darussalam","city":"Pidie","district":"Batee","urban":"Dayah Tua","postal_code":24152},{"province":"Nanggroe Aceh Darussalam","city":"Pidie","district":"Batee","urban":"Geulumpang Lhee","postal_code":24152},{"province":"Nanggroe Aceh Darussalam","city":"Pidie","district":"Batee","urban":"Dayah","postal_code":24152},{"province":"Nanggroe Aceh Darussalam","city":"Pidie","district":"Batee","urban":"Crueng","postal_code":24152},{"province":"Nanggroe Aceh Darussalam","city":"Pidie","district":"Grong Grong","urban":"Daka","postal_code":24152},{"province":"Nanggroe Aceh Darussalam","city":"Pidie","district":"Batee","urban":"Calong Cut","postal_code":24152},{"province":"Nanggroe Aceh Darussalam","city":"Pidie","district":"Batee","urban":"Calong Cut","postal_code":24152},{"province":"Nanggroe Aceh Darussalam","city":"Pidie","district":"Grong Grong","urban":"Beureuleung","postal_code":24152},{"province":"Nanggroe Aceh Darussalam","city":"Pidie","district":"Batee","urban":"Bintang Hu","postal_code":24152},{"province":"Nanggroe Aceh Darussalam","city":"Pidie","district":"Grong Grong","urban":"Baroh","postal_code":24152},{"province":"Nanggroe Aceh Darussalam","city":"Pidie","district":"Batee","urban":"Awee","postal_code":24152},{"province":"Nanggroe Aceh Darussalam","city":"Pidie","district":"Batee","urban":"Alue Lada","postal_code":24152},{"province":"Nanggroe Aceh Darussalam","city":"Pidie","district":"Batee","urban":"Aron","postal_code":24152}]