[{"province":"Nanggroe Aceh Darussalam","city":"Pidie","district":"Keumala","urban":"Tunong","postal_code":24165},{"province":"Nanggroe Aceh Darussalam","city":"Pidie","district":"Keumala","urban":"U Gadeng","postal_code":24165},{"province":"Nanggroe Aceh Darussalam","city":"Pidie","district":"Keumala","urban":"Pulo Seupeng","postal_code":24165},{"province":"Nanggroe Aceh Darussalam","city":"Pidie","district":"Keumala","urban":"Rheng","postal_code":24165},{"province":"Nanggroe Aceh Darussalam","city":"Pidie","district":"Keumala","urban":"Sagoe","postal_code":24165},{"province":"Nanggroe Aceh Darussalam","city":"Pidie","district":"Keumala","urban":"Pulo Pante","postal_code":24165},{"province":"Nanggroe Aceh Darussalam","city":"Pidie","district":"Titeue","urban":"Pulo Raya","postal_code":24165},{"province":"Nanggroe Aceh Darussalam","city":"Pidie","district":"Titeue","urban":"Pulo Loh/Loih","postal_code":24165},{"province":"Nanggroe Aceh Darussalam","city":"Pidie","district":"Keumala","urban":"Pulo Baro","postal_code":24165},{"province":"Nanggroe Aceh Darussalam","city":"Pidie","district":"Keumala","urban":"Pulo Cahi (Pecahi)","postal_code":24165},{"province":"Nanggroe Aceh Darussalam","city":"Pidie","district":"Titeue","urban":"Pante Siren","postal_code":24165},{"province":"Nanggroe Aceh Darussalam","city":"Pidie","district":"Keumala","urban":"Papeuen Nicah","postal_code":24165},{"province":"Nanggroe Aceh Darussalam","city":"Pidie","district":"Keumala","urban":"Paloh Teungoh","postal_code":24165},{"province":"Nanggroe Aceh Darussalam","city":"Pidie","district":"Titeue","urban":"Pante Kulu","postal_code":24165},{"province":"Nanggroe Aceh Darussalam","city":"Pidie","district":"Keumala","urban":"Paku","postal_code":24165},{"province":"Nanggroe Aceh Darussalam","city":"Pidie","district":"Titeue","urban":"Paloh Naleueng","postal_code":24165},{"province":"Nanggroe Aceh Darussalam","city":"Pidie","district":"Keumala","urban":"Mesjid Nicah","postal_code":24165},{"province":"Nanggroe Aceh Darussalam","city":"Pidie","district":"Titeue","urban":"Mesjid Tumpeudeng","postal_code":24165},{"province":"Nanggroe Aceh Darussalam","city":"Pidie","district":"Keumala","urban":"Jijiem","postal_code":24165},{"province":"Nanggroe Aceh Darussalam","city":"Pidie","district":"Keumala","urban":"Kumbang","postal_code":24165},{"province":"Nanggroe Aceh Darussalam","city":"Pidie","district":"Titeue","urban":"Lingkok","postal_code":24165},{"province":"Nanggroe Aceh Darussalam","city":"Pidie","district":"Keumala","urban":"Dayah Keumala","postal_code":24165},{"province":"Nanggroe Aceh Darussalam","city":"Pidie","district":"Titeue","urban":"Dayah Menara","postal_code":24165},{"province":"Nanggroe Aceh Darussalam","city":"Pidie","district":"Keumala","urban":"Cot Kreh","postal_code":24165},{"province":"Nanggroe Aceh Darussalam","city":"Pidie","district":"Keumala","urban":"Cot Nuran","postal_code":24165},{"province":"Nanggroe Aceh Darussalam","city":"Pidie","district":"Titeue","urban":"Cut","postal_code":24165},{"province":"Nanggroe Aceh Darussalam","city":"Pidie","district":"Titeue","urban":"Asan Tumpeudeng","postal_code":24165},{"province":"Nanggroe Aceh Darussalam","city":"Pidie","district":"Titeue","urban":"Blang Tho","postal_code":24165},{"province":"Nanggroe Aceh Darussalam","city":"Pidie","district":"Keumala","urban":"Asan Nicah","postal_code":24165},{"province":"Nanggroe Aceh Darussalam","city":"Pidie","district":"Titeue","urban":"Alue","postal_code":24165}]