[{"province":"Nanggroe Aceh Darussalam","city":"Pidie","district":"Mutiara Timur","urban":"Ulee Tutue","postal_code":24173},{"province":"Nanggroe Aceh Darussalam","city":"Pidie","district":"Mutiara","urban":"Tuha Kp/Gp Gajah","postal_code":24173},{"province":"Nanggroe Aceh Darussalam","city":"Pidie","district":"Mutiara Timur","urban":"Ulee Gampong","postal_code":24173},{"province":"Nanggroe Aceh Darussalam","city":"Pidie","district":"Mutiara Timur","urban":"Tong Pria","postal_code":24173},{"province":"Nanggroe Aceh Darussalam","city":"Pidie","district":"Mutiara Timur","urban":"Tong Weng","postal_code":24173},{"province":"Nanggroe Aceh Darussalam","city":"Pidie","district":"Mutiara Timur","urban":"Simbee (Blang Simbee)","postal_code":24173},{"province":"Nanggroe Aceh Darussalam","city":"Pidie","district":"Mutiara Timur","urban":"Tiba Raya","postal_code":24173},{"province":"Nanggroe Aceh Darussalam","city":"Pidie","district":"Mutiara Timur","urban":"Sagoe Teumpeun","postal_code":24173},{"province":"Nanggroe Aceh Darussalam","city":"Pidie","district":"Mutiara","urban":"Sentosa","postal_code":24173},{"province":"Nanggroe Aceh Darussalam","city":"Pidie","district":"Mutiara Timur","urban":"Rinti","postal_code":24173},{"province":"Nanggroe Aceh Darussalam","city":"Pidie","district":"Mutiara","urban":"Ribeun Busu","postal_code":24173},{"province":"Nanggroe Aceh Darussalam","city":"Pidie","district":"Mutiara","urban":"Reului Busu","postal_code":24173},{"province":"Nanggroe Aceh Darussalam","city":"Pidie","district":"Mutiara Timur","urban":"Reubat","postal_code":24173},{"province":"Nanggroe Aceh Darussalam","city":"Pidie","district":"Mutiara","urban":"Rapana","postal_code":24173},{"province":"Nanggroe Aceh Darussalam","city":"Pidie","district":"Mutiara Timur","urban":"Rambong","postal_code":24173},{"province":"Nanggroe Aceh Darussalam","city":"Pidie","district":"Mutiara Timur","urban":"Rambot Adan","postal_code":24173},{"province":"Nanggroe Aceh Darussalam","city":"Pidie","district":"Mutiara Timur","urban":"Pulo Drien","postal_code":24173},{"province":"Nanggroe Aceh Darussalam","city":"Pidie","district":"Mutiara","urban":"Peureulak Busu","postal_code":24173},{"province":"Nanggroe Aceh Darussalam","city":"Pidie","district":"Mutiara","urban":"Pante Beureueh","postal_code":24173},{"province":"Nanggroe Aceh Darussalam","city":"Pidie","district":"Mutiara","urban":"Paya Tiba","postal_code":24173},{"province":"Nanggroe Aceh Darussalam","city":"Pidie","district":"Mutiara Timur","urban":"Paloh Raya","postal_code":24173},{"province":"Nanggroe Aceh Darussalam","city":"Pidie","district":"Mutiara Timur","urban":"Paloh Tinggi","postal_code":24173},{"province":"Nanggroe Aceh Darussalam","city":"Pidie","district":"Mutiara Timur","urban":"Paloh Lhok Usi","postal_code":24173},{"province":"Nanggroe Aceh Darussalam","city":"Pidie","district":"Mutiara","urban":"Paloh Kambueh","postal_code":24173},{"province":"Nanggroe Aceh Darussalam","city":"Pidie","district":"Mutiara Timur","urban":"Meucat Adan","postal_code":24173},{"province":"Nanggroe Aceh Darussalam","city":"Pidie","district":"Mutiara Timur","urban":"Nibong","postal_code":24173},{"province":"Nanggroe Aceh Darussalam","city":"Pidie","district":"Mutiara","urban":"Mesjid Yaman","postal_code":24173},{"province":"Nanggroe Aceh Darussalam","city":"Pidie","district":"Mutiara Timur","urban":"Meugit","postal_code":24173},{"province":"Nanggroe Aceh Darussalam","city":"Pidie","district":"Mutiara Timur","urban":"Mesjid Tiba","postal_code":24173},{"province":"Nanggroe Aceh Darussalam","city":"Pidie","district":"Mutiara Timur","urban":"Mon Ara","postal_code":24173},{"province":"Nanggroe Aceh Darussalam","city":"Pidie","district":"Mutiara Timur","urban":"Mesjid Usi","postal_code":24173},{"province":"Nanggroe Aceh Darussalam","city":"Pidie","district":"Mutiara Timur","urban":"Mesjid Jeurat Manyang","postal_code":24173},{"province":"Nanggroe Aceh Darussalam","city":"Pidie","district":"Mutiara","urban":"Mesjid Keumangan","postal_code":24173},{"province":"Nanggroe Aceh Darussalam","city":"Pidie","district":"Mutiara Timur","urban":"Mee Tanjong","postal_code":24173},{"province":"Nanggroe Aceh Darussalam","city":"Pidie","district":"Mutiara Timur","urban":"Mesjid Gumpueng","postal_code":24173},{"province":"Nanggroe Aceh Darussalam","city":"Pidie","district":"Mutiara","urban":"Mee Panyang Busu","postal_code":24173},{"province":"Nanggroe Aceh Darussalam","city":"Pidie","district":"Mutiara","urban":"Me Teungoh","postal_code":24173},{"province":"Nanggroe Aceh Darussalam","city":"Pidie","district":"Mutiara Timur","urban":"Me Adan","postal_code":24173},{"province":"Nanggroe Aceh Darussalam","city":"Pidie","district":"Mutiara","urban":"Lingkok Busu","postal_code":24173},{"province":"Nanggroe Aceh Darussalam","city":"Pidie","district":"Mutiara","urban":"Lueng Sagoe","postal_code":24173},{"province":"Nanggroe Aceh Darussalam","city":"Pidie","district":"Mutiara","urban":"Kumbang Busu","postal_code":24173},{"province":"Nanggroe Aceh Darussalam","city":"Pidie","district":"Mutiara","urban":"Lampoh Sirong Adan","postal_code":24173},{"province":"Nanggroe Aceh Darussalam","city":"Pidie","district":"Mutiara Timur","urban":"Kulam Ara","postal_code":24173},{"province":"Nanggroe Aceh Darussalam","city":"Pidie","district":"Mutiara Timur","urban":"Gampong Lada","postal_code":24173},{"province":"Nanggroe Aceh Darussalam","city":"Pidie","district":"Mutiara","urban":"Keumangan Cut","postal_code":24173},{"province":"Nanggroe Aceh Darussalam","city":"Pidie","district":"Mutiara Timur","urban":"Jiem","postal_code":24173},{"province":"Nanggroe Aceh Darussalam","city":"Pidie","district":"Mutiara Timur","urban":"Karieng","postal_code":24173},{"province":"Nanggroe Aceh Darussalam","city":"Pidie","district":"Mutiara","urban":"Gampong Jadan","postal_code":24173},{"province":"Nanggroe Aceh Darussalam","city":"Pidie","district":"Mutiara Timur","urban":"Jojo","postal_code":24173},{"province":"Nanggroe Aceh Darussalam","city":"Pidie","district":"Mutiara Timur","urban":"Gampong Cot Usi","postal_code":24173},{"province":"Nanggroe Aceh Darussalam","city":"Pidie","district":"Mutiara Timur","urban":"Jumphoi Adan","postal_code":24173},{"province":"Nanggroe Aceh Darussalam","city":"Pidie","district":"Mutiara Timur","urban":"Empeh","postal_code":24173},{"province":"Nanggroe Aceh Darussalam","city":"Pidie","district":"Mutiara Timur","urban":"Dayah Usi","postal_code":24173},{"province":"Nanggroe Aceh Darussalam","city":"Pidie","district":"Mutiara Timur","urban":"Didoh","postal_code":24173},{"province":"Nanggroe Aceh Darussalam","city":"Pidie","district":"Mutiara","urban":"Dayah Tidiek","postal_code":24173},{"province":"Nanggroe Aceh Darussalam","city":"Pidie","district":"Mutiara","urban":"Dayah Syarif","postal_code":24173},{"province":"Nanggroe Aceh Darussalam","city":"Pidie","district":"Mutiara Timur","urban":"Dayah Kumba","postal_code":24173},{"province":"Nanggroe Aceh Darussalam","city":"Pidie","district":"Mutiara Timur","urban":"Dayah Tanoh","postal_code":24173},{"province":"Nanggroe Aceh Darussalam","city":"Pidie","district":"Mutiara","urban":"Dayah Beureueh","postal_code":24173},{"province":"Nanggroe Aceh Darussalam","city":"Pidie","district":"Mutiara Timur","urban":"Dayah Adan","postal_code":24173},{"province":"Nanggroe Aceh Darussalam","city":"Pidie","district":"Mutiara Timur","urban":"Blangong Basah","postal_code":24173},{"province":"Nanggroe Aceh Darussalam","city":"Pidie","district":"Mutiara Timur","urban":"Campli Usi","postal_code":24173},{"province":"Nanggroe Aceh Darussalam","city":"Pidie","district":"Mutiara Timur","urban":"Cot Kuthang","postal_code":24173},{"province":"Nanggroe Aceh Darussalam","city":"Pidie","district":"Mutiara Timur","urban":"Blang Riek","postal_code":24173},{"province":"Nanggroe Aceh Darussalam","city":"Pidie","district":"Mutiara","urban":"Blang Tidiek","postal_code":24173},{"province":"Nanggroe Aceh Darussalam","city":"Pidie","district":"Mutiara","urban":"Blang Beureueh","postal_code":24173},{"province":"Nanggroe Aceh Darussalam","city":"Pidie","district":"Mutiara Timur","urban":"Baroh Ujong Rimba","postal_code":24173},{"province":"Nanggroe Aceh Darussalam","city":"Pidie","district":"Mutiara","urban":"Blang Lileue","postal_code":24173},{"province":"Nanggroe Aceh Darussalam","city":"Pidie","district":"Mutiara Timur","urban":"Beureueh II","postal_code":24173},{"province":"Nanggroe Aceh Darussalam","city":"Pidie","district":"Mutiara Timur","urban":"Baro Ujong Rimba","postal_code":24173},{"province":"Nanggroe Aceh Darussalam","city":"Pidie","district":"Mutiara","urban":"Baro Yaman","postal_code":24173},{"province":"Nanggroe Aceh Darussalam","city":"Pidie","district":"Mutiara","urban":"Balee Baro Keumangan","postal_code":24173},{"province":"Nanggroe Aceh Darussalam","city":"Pidie","district":"Mutiara Timur","urban":"Barieh","postal_code":24173},{"province":"Nanggroe Aceh Darussalam","city":"Pidie","district":"Mutiara","urban":"Baro Barat Yaman","postal_code":24173},{"province":"Nanggroe Aceh Darussalam","city":"Pidie","district":"Mutiara Timur","urban":"Bale Ujong Rimba","postal_code":24173},{"province":"Nanggroe Aceh Darussalam","city":"Pidie","district":"Mutiara Timur","urban":"Alue Adan","postal_code":24173},{"province":"Nanggroe Aceh Darussalam","city":"Pidie","district":"Mutiara","urban":"Bale Busu","postal_code":24173}]