[{"province":"Nanggroe Aceh Darussalam","city":"Pidie","district":"Indrajaya","urban":"Wakeueh","postal_code":24171},{"province":"Nanggroe Aceh Darussalam","city":"Pidie","district":"Indrajaya","urban":"Yub Mee","postal_code":24171},{"province":"Nanggroe Aceh Darussalam","city":"Pidie","district":"Indrajaya","urban":"Tungkop Cut","postal_code":24171},{"province":"Nanggroe Aceh Darussalam","city":"Pidie","district":"Indrajaya","urban":"Ulee Birah","postal_code":24171},{"province":"Nanggroe Aceh Darussalam","city":"Pidie","district":"Indrajaya","urban":"Tuha Suwiek","postal_code":24171},{"province":"Nanggroe Aceh Darussalam","city":"Pidie","district":"Indrajaya","urban":"Teungoh Blang","postal_code":24171},{"province":"Nanggroe Aceh Darussalam","city":"Pidie","district":"Indrajaya","urban":"Teungoh Suwiek","postal_code":24171},{"province":"Nanggroe Aceh Darussalam","city":"Pidie","district":"Indrajaya","urban":"Tampieng Baroh","postal_code":24171},{"province":"Nanggroe Aceh Darussalam","city":"Pidie","district":"Indrajaya","urban":"Tamping/Tampieng Tunong","postal_code":24171},{"province":"Nanggroe Aceh Darussalam","city":"Pidie","district":"Indrajaya","urban":"Rumia","postal_code":24171},{"province":"Nanggroe Aceh Darussalam","city":"Pidie","district":"Indrajaya","urban":"Sukon Tungkop","postal_code":24171},{"province":"Nanggroe Aceh Darussalam","city":"Pidie","district":"Indrajaya","urban":"Sukon Ulee Gampong","postal_code":24171},{"province":"Nanggroe Aceh Darussalam","city":"Pidie","district":"Indrajaya","urban":"Rawa Tungkop","postal_code":24171},{"province":"Nanggroe Aceh Darussalam","city":"Pidie","district":"Indrajaya","urban":"Raya Lhok Kaju","postal_code":24171},{"province":"Nanggroe Aceh Darussalam","city":"Pidie","district":"Indrajaya","urban":"Peutou","postal_code":24171},{"province":"Nanggroe Aceh Darussalam","city":"Pidie","district":"Indrajaya","urban":"Pulo Gampong U","postal_code":24171},{"province":"Nanggroe Aceh Darussalam","city":"Pidie","district":"Indrajaya","urban":"Pante Garot","postal_code":24171},{"province":"Nanggroe Aceh Darussalam","city":"Pidie","district":"Indrajaya","urban":"Pante Lhok Kaju","postal_code":24171},{"province":"Nanggroe Aceh Darussalam","city":"Pidie","district":"Indrajaya","urban":"Meulayu","postal_code":24171},{"province":"Nanggroe Aceh Darussalam","city":"Pidie","district":"Indrajaya","urban":"Neulop II","postal_code":24171},{"province":"Nanggroe Aceh Darussalam","city":"Pidie","district":"Indrajaya","urban":"Mesjid Tungkop","postal_code":24171},{"province":"Nanggroe Aceh Darussalam","city":"Pidie","district":"Indrajaya","urban":"Mesjid Ulee Gampong","postal_code":24171},{"province":"Nanggroe Aceh Darussalam","city":"Pidie","district":"Indrajaya","urban":"Mesjid Lam Ujong","postal_code":24171},{"province":"Nanggroe Aceh Darussalam","city":"Pidie","district":"Indrajaya","urban":"Mesjid Suwiek","postal_code":24171},{"province":"Nanggroe Aceh Darussalam","city":"Pidie","district":"Indrajaya","urban":"Mesjid Dijiem","postal_code":24171},{"province":"Nanggroe Aceh Darussalam","city":"Pidie","district":"Indrajaya","urban":"Lamkabu","postal_code":24171},{"province":"Nanggroe Aceh Darussalam","city":"Pidie","district":"Indrajaya","urban":"Lamreuneung","postal_code":24171},{"province":"Nanggroe Aceh Darussalam","city":"Pidie","district":"Indrajaya","urban":"Mesjid Baro","postal_code":24171},{"province":"Nanggroe Aceh Darussalam","city":"Pidie","district":"Indrajaya","urban":"Keubang","postal_code":24171},{"province":"Nanggroe Aceh Darussalam","city":"Pidie","district":"Indrajaya","urban":"Keutapang","postal_code":24171},{"province":"Nanggroe Aceh Darussalam","city":"Pidie","district":"Indrajaya","urban":"Glee Gapui","postal_code":24171},{"province":"Nanggroe Aceh Darussalam","city":"Pidie","district":"Indrajaya","urban":"Guci","postal_code":24171},{"province":"Nanggroe Aceh Darussalam","city":"Pidie","district":"Indrajaya","urban":"Gampong Jurong","postal_code":24171},{"province":"Nanggroe Aceh Darussalam","city":"Pidie","district":"Indrajaya","urban":"Garot Cut","postal_code":24171},{"province":"Nanggroe Aceh Darussalam","city":"Pidie","district":"Indrajaya","urban":"Drien","postal_code":24171},{"province":"Nanggroe Aceh Darussalam","city":"Pidie","district":"Indrajaya","urban":"Dayah Muara Garot","postal_code":24171},{"province":"Nanggroe Aceh Darussalam","city":"Pidie","district":"Indrajaya","urban":"Dayah Caleue","postal_code":24171},{"province":"Nanggroe Aceh Darussalam","city":"Pidie","district":"Indrajaya","urban":"Dayah Keurako","postal_code":24171},{"province":"Nanggroe Aceh Darussalam","city":"Pidie","district":"Indrajaya","urban":"Dayah Bie","postal_code":24171},{"province":"Nanggroe Aceh Darussalam","city":"Pidie","district":"Indrajaya","urban":"Blang Rapai Gapui","postal_code":24171},{"province":"Nanggroe Aceh Darussalam","city":"Pidie","district":"Indrajaya","urban":"Cot Seukee","postal_code":24171},{"province":"Nanggroe Aceh Darussalam","city":"Pidie","district":"Indrajaya","urban":"Beureudeup","postal_code":24171},{"province":"Nanggroe Aceh Darussalam","city":"Pidie","district":"Indrajaya","urban":"Blang Lhok Kaju","postal_code":24171},{"province":"Nanggroe Aceh Darussalam","city":"Pidie","district":"Indrajaya","urban":"Beureudeup","postal_code":24171},{"province":"Nanggroe Aceh Darussalam","city":"Pidie","district":"Indrajaya","urban":"Baro Bluek","postal_code":24171},{"province":"Nanggroe Aceh Darussalam","city":"Pidie","district":"Indrajaya","urban":"Baro Gapui","postal_code":24171},{"province":"Nanggroe Aceh Darussalam","city":"Pidie","district":"Indrajaya","urban":"Baro Jruek","postal_code":24171},{"province":"Nanggroe Aceh Darussalam","city":"Pidie","district":"Indrajaya","urban":"Balee Baroh Bluek","postal_code":24171},{"province":"Nanggroe Aceh Darussalam","city":"Pidie","district":"Indrajaya","urban":"Balee Baroh Gapui","postal_code":24171}]