[{"province":"Nanggroe Aceh Darussalam","city":"Pidie","district":"Tiro/Truseb","urban":"Pulo Glumpang","postal_code":24174},{"province":"Nanggroe Aceh Darussalam","city":"Pidie","district":"Tiro/Truseb","urban":"Pulo Keunari","postal_code":24174},{"province":"Nanggroe Aceh Darussalam","city":"Pidie","district":"Tiro/Truseb","urban":"Panah","postal_code":24174},{"province":"Nanggroe Aceh Darussalam","city":"Pidie","district":"Tiro/Truseb","urban":"Trieng Cudo Baroh","postal_code":24174},{"province":"Nanggroe Aceh Darussalam","city":"Pidie","district":"Tiro/Truseb","urban":"Panton Beunot","postal_code":24174},{"province":"Nanggroe Aceh Darussalam","city":"Pidie","district":"Tiro/Truseb","urban":"Trieng Cudo Tunong","postal_code":24174},{"province":"Nanggroe Aceh Darussalam","city":"Pidie","district":"Tiro/Truseb","urban":"Peunadok","postal_code":24174},{"province":"Nanggroe Aceh Darussalam","city":"Pidie","district":"Tiro/Truseb","urban":"Pulo Tambo","postal_code":24174},{"province":"Nanggroe Aceh Darussalam","city":"Pidie","district":"Tiro/Truseb","urban":"Lhok Igeuh","postal_code":24174},{"province":"Nanggroe Aceh Darussalam","city":"Pidie","district":"Tiro/Truseb","urban":"Rabo","postal_code":24174},{"province":"Nanggroe Aceh Darussalam","city":"Pidie","district":"Tiro/Truseb","urban":"Mamprei","postal_code":24174},{"province":"Nanggroe Aceh Darussalam","city":"Pidie","district":"Tiro/Truseb","urban":"Pulo Mesjid","postal_code":24174},{"province":"Nanggroe Aceh Darussalam","city":"Pidie","district":"Tiro/Truseb","urban":"Mancang","postal_code":24174},{"province":"Nanggroe Aceh Darussalam","city":"Pidie","district":"Tiro/Truseb","urban":"Pulo Siblah","postal_code":24174},{"province":"Nanggroe Aceh Darussalam","city":"Pidie","district":"Tiro/Truseb","urban":"Dayah Gampong Baro","postal_code":24174},{"province":"Nanggroe Aceh Darussalam","city":"Pidie","district":"Tiro/Truseb","urban":"Dayah Teungoh","postal_code":24174},{"province":"Nanggroe Aceh Darussalam","city":"Pidie","district":"Tiro/Truseb","urban":"Dayah Cot","postal_code":24174},{"province":"Nanggroe Aceh Darussalam","city":"Pidie","district":"Tiro/Truseb","urban":"Dayah Baroh","postal_code":24174},{"province":"Nanggroe Aceh Darussalam","city":"Pidie","district":"Tiro/Truseb","urban":"Blang Reukui","postal_code":24174}]