[{"province":"Nanggroe Aceh Darussalam","city":"Pidie Jaya","district":"Panteraja","urban":"Tunong Pantee Raja","postal_code":24185},{"province":"Nanggroe Aceh Darussalam","city":"Pidie Jaya","district":"Trienggadeng","urban":"Tungkluet (Tung Kleut)","postal_code":24185},{"province":"Nanggroe Aceh Darussalam","city":"Pidie Jaya","district":"Trienggadeng","urban":"Tuha","postal_code":24185},{"province":"Nanggroe Aceh Darussalam","city":"Pidie Jaya","district":"Panteraja","urban":"Teungoh Pantee Raja","postal_code":24185},{"province":"Nanggroe Aceh Darussalam","city":"Pidie Jaya","district":"Panteraja","urban":"Tu","postal_code":24185},{"province":"Nanggroe Aceh Darussalam","city":"Pidie Jaya","district":"Trienggadeng","urban":"Sagou","postal_code":24185},{"province":"Nanggroe Aceh Darussalam","city":"Pidie Jaya","district":"Trienggadeng","urban":"Tampui","postal_code":24185},{"province":"Nanggroe Aceh Darussalam","city":"Pidie Jaya","district":"Trienggadeng","urban":"Reuseb","postal_code":24185},{"province":"Nanggroe Aceh Darussalam","city":"Pidie Jaya","district":"Panteraja","urban":"Reudeup","postal_code":24185},{"province":"Nanggroe Aceh Darussalam","city":"Pidie Jaya","district":"Trienggadeng","urban":"Rawasari","postal_code":24185},{"province":"Nanggroe Aceh Darussalam","city":"Pidie Jaya","district":"Trienggadeng","urban":"Raya","postal_code":24185},{"province":"Nanggroe Aceh Darussalam","city":"Pidie Jaya","district":"Panteraja","urban":"Peuradeu","postal_code":24185},{"province":"Nanggroe Aceh Darussalam","city":"Pidie Jaya","district":"Trienggadeng","urban":"Peulandok Tunong","postal_code":24185},{"province":"Nanggroe Aceh Darussalam","city":"Pidie Jaya","district":"Trienggadeng","urban":"Paya","postal_code":24185},{"province":"Nanggroe Aceh Darussalam","city":"Pidie Jaya","district":"Trienggadeng","urban":"Peulandok Teungoh","postal_code":24185},{"province":"Nanggroe Aceh Darussalam","city":"Pidie Jaya","district":"Panteraja","urban":"Muka Blang","postal_code":24185},{"province":"Nanggroe Aceh Darussalam","city":"Pidie Jaya","district":"Trienggadeng","urban":"Panton Raya","postal_code":24185},{"province":"Nanggroe Aceh Darussalam","city":"Pidie Jaya","district":"Trienggadeng","urban":"Meucat Pangwa","postal_code":24185},{"province":"Nanggroe Aceh Darussalam","city":"Pidie Jaya","district":"Trienggadeng","urban":"Meue","postal_code":24185},{"province":"Nanggroe Aceh Darussalam","city":"Pidie Jaya","district":"Trienggadeng","urban":"Mesjid Trienggadeng","postal_code":24185},{"province":"Nanggroe Aceh Darussalam","city":"Pidie Jaya","district":"Trienggadeng","urban":"Me Peuduek (Peudok Baroh)","postal_code":24185},{"province":"Nanggroe Aceh Darussalam","city":"Pidie Jaya","district":"Trienggadeng","urban":"Mesjid Peuduek","postal_code":24185},{"province":"Nanggroe Aceh Darussalam","city":"Pidie Jaya","district":"Panteraja","urban":"Mesjid Pante Raja","postal_code":24185},{"province":"Nanggroe Aceh Darussalam","city":"Pidie Jaya","district":"Trienggadeng","urban":"Matang","postal_code":24185},{"province":"Nanggroe Aceh Darussalam","city":"Pidie Jaya","district":"Trienggadeng","urban":"Me Pangwa","postal_code":24185},{"province":"Nanggroe Aceh Darussalam","city":"Pidie Jaya","district":"Trienggadeng","urban":"Kuta Pangwa","postal_code":24185},{"province":"Nanggroe Aceh Darussalam","city":"Pidie Jaya","district":"Panteraja","urban":"Keudee Pante Raja","postal_code":24185},{"province":"Nanggroe Aceh Darussalam","city":"Pidie Jaya","district":"Panteraja","urban":"Lhok Puuk","postal_code":24185},{"province":"Nanggroe Aceh Darussalam","city":"Pidie Jaya","district":"Trienggadeng","urban":"Keude Trienggadeng","postal_code":24185},{"province":"Nanggroe Aceh Darussalam","city":"Pidie Jaya","district":"Panteraja","urban":"Hagu","postal_code":24185},{"province":"Nanggroe Aceh Darussalam","city":"Pidie Jaya","district":"Trienggadeng","urban":"De (Gampong Dee)","postal_code":24185},{"province":"Nanggroe Aceh Darussalam","city":"Pidie Jaya","district":"Trienggadeng","urban":"Dayah Pangwa","postal_code":24185},{"province":"Nanggroe Aceh Darussalam","city":"Pidie Jaya","district":"Trienggadeng","urban":"Dayah Teumanah","postal_code":24185},{"province":"Nanggroe Aceh Darussalam","city":"Pidie Jaya","district":"Trienggadeng","urban":"Dayah Ujong Baroh","postal_code":24185},{"province":"Nanggroe Aceh Darussalam","city":"Pidie Jaya","district":"Trienggadeng","urban":"Cot Lheu Rheng","postal_code":24185},{"province":"Nanggroe Aceh Darussalam","city":"Pidie Jaya","district":"Trienggadeng","urban":"Cot Makaso","postal_code":24185},{"province":"Nanggroe Aceh Darussalam","city":"Pidie Jaya","district":"Trienggadeng","urban":"Buloh","postal_code":24185}]