[{"province":"Nanggroe Aceh Darussalam","city":"Pidie","district":"Glumpang Baro","urban":"Ukee","postal_code":24183},{"province":"Nanggroe Aceh Darussalam","city":"Pidie","district":"Glumpang Tiga (Geulumpang Tiga)","urban":"Ude Gampong","postal_code":24183},{"province":"Nanggroe Aceh Darussalam","city":"Pidie","district":"Glumpang Baro","urban":"U Bungkok (U Bangkok)","postal_code":24183},{"province":"Nanggroe Aceh Darussalam","city":"Pidie","district":"Glumpang Tiga (Geulumpang Tiga)","urban":"Sukon Mesjid","postal_code":24183},{"province":"Nanggroe Aceh Darussalam","city":"Pidie","district":"Glumpang Tiga (Geulumpang Tiga)","urban":"Tufah Jeulatang","postal_code":24183},{"province":"Nanggroe Aceh Darussalam","city":"Pidie","district":"Glumpang Baro","urban":"Sukon Paku","postal_code":24183},{"province":"Nanggroe Aceh Darussalam","city":"Pidie","district":"Glumpang Tiga (Geulumpang Tiga)","urban":"Simpang","postal_code":24183},{"province":"Nanggroe Aceh Darussalam","city":"Pidie","district":"Glumpang Tiga (Geulumpang Tiga)","urban":"Sukon Baroh","postal_code":24183},{"province":"Nanggroe Aceh Darussalam","city":"Pidie","district":"Glumpang Baro","urban":"Seukee","postal_code":24183},{"province":"Nanggroe Aceh Darussalam","city":"Pidie","district":"Glumpang Baro","urban":"Seureukui Cebrek","postal_code":24183},{"province":"Nanggroe Aceh Darussalam","city":"Pidie","district":"Glumpang Baro","urban":"Sagoe","postal_code":24183},{"province":"Nanggroe Aceh Darussalam","city":"Pidie","district":"Glumpang Baro","urban":"Sangget (Sanget)","postal_code":24183},{"province":"Nanggroe Aceh Darussalam","city":"Pidie","district":"Glumpang Tiga (Geulumpang Tiga)","urban":"Reudeup Meulayu","postal_code":24183},{"province":"Nanggroe Aceh Darussalam","city":"Pidie","district":"Glumpang Baro","urban":"Pulo Panjoe","postal_code":24183},{"province":"Nanggroe Aceh Darussalam","city":"Pidie","district":"Glumpang Tiga (Geulumpang Tiga)","urban":"Pulo Lueng Teuga","postal_code":24183},{"province":"Nanggroe Aceh Darussalam","city":"Pidie","district":"Glumpang Tiga (Geulumpang Tiga)","urban":"Pulo Dayah/Pulo Lon","postal_code":24183},{"province":"Nanggroe Aceh Darussalam","city":"Pidie","district":"Glumpang Baro","urban":"Pulo Iboih","postal_code":24183},{"province":"Nanggroe Aceh Darussalam","city":"Pidie","district":"Glumpang Tiga (Geulumpang Tiga)","urban":"Pulo Gajah Mate","postal_code":24183},{"province":"Nanggroe Aceh Darussalam","city":"Pidie","district":"Glumpang Tiga (Geulumpang Tiga)","urban":"Panjou","postal_code":24183},{"province":"Nanggroe Aceh Darussalam","city":"Pidie","district":"Glumpang Tiga (Geulumpang Tiga)","urban":"Pulo Batee","postal_code":24183},{"province":"Nanggroe Aceh Darussalam","city":"Pidie","district":"Glumpang Baro","urban":"Palong","postal_code":24183},{"province":"Nanggroe Aceh Darussalam","city":"Pidie","district":"Glumpang Tiga (Geulumpang Tiga)","urban":"Neurok","postal_code":24183},{"province":"Nanggroe Aceh Darussalam","city":"Pidie","district":"Glumpang Tiga (Geulumpang Tiga)","urban":"Meunjee","postal_code":24183},{"province":"Nanggroe Aceh Darussalam","city":"Pidie","district":"Glumpang Baro","urban":"Mee Teumpen (Meu Teumpeun)","postal_code":24183},{"province":"Nanggroe Aceh Darussalam","city":"Pidie","district":"Glumpang Baro","urban":"Manyang","postal_code":24183},{"province":"Nanggroe Aceh Darussalam","city":"Pidie","district":"Glumpang Tiga (Geulumpang Tiga)","urban":"Lambaro","postal_code":24183},{"province":"Nanggroe Aceh Darussalam","city":"Pidie","district":"Glumpang Tiga (Geulumpang Tiga)","urban":"Mamplam","postal_code":24183},{"province":"Nanggroe Aceh Darussalam","city":"Pidie","district":"Glumpang Baro","urban":"Kumbang Unoe","postal_code":24183},{"province":"Nanggroe Aceh Darussalam","city":"Pidie","district":"Glumpang Tiga (Geulumpang Tiga)","urban":"Kumbang Keupula","postal_code":24183},{"province":"Nanggroe Aceh Darussalam","city":"Pidie","district":"Glumpang Baro","urban":"Kumbang Trueung Campli","postal_code":24183},{"province":"Nanggroe Aceh Darussalam","city":"Pidie","district":"Glumpang Tiga (Geulumpang Tiga)","urban":"Kruet Teumpeun","postal_code":24183},{"province":"Nanggroe Aceh Darussalam","city":"Pidie","district":"Glumpang Tiga (Geulumpang Tiga)","urban":"Krueng Nyong","postal_code":24183},{"province":"Nanggroe Aceh Darussalam","city":"Pidie","district":"Glumpang Tiga (Geulumpang Tiga)","urban":"Keutapang Mesjid","postal_code":24183},{"province":"Nanggroe Aceh Darussalam","city":"Pidie","district":"Glumpang Tiga (Geulumpang Tiga)","urban":"Krueng Jangko","postal_code":24183},{"province":"Nanggroe Aceh Darussalam","city":"Pidie","district":"Glumpang Tiga (Geulumpang Tiga)","urban":"Kayee Jatoe","postal_code":24183},{"province":"Nanggroe Aceh Darussalam","city":"Pidie","district":"Glumpang Tiga (Geulumpang Tiga)","urban":"Keupula","postal_code":24183},{"province":"Nanggroe Aceh Darussalam","city":"Pidie","district":"Glumpang Baro","urban":"Jurong Baro","postal_code":24183},{"province":"Nanggroe Aceh Darussalam","city":"Pidie","district":"Glumpang Tiga (Geulumpang Tiga)","urban":"Jurong Pande","postal_code":24183},{"province":"Nanggroe Aceh Darussalam","city":"Pidie","district":"Glumpang Baro","urban":"Geunteng","postal_code":24183},{"province":"Nanggroe Aceh Darussalam","city":"Pidie","district":"Glumpang Baro","urban":"Glumpang Bungkok","postal_code":24183},{"province":"Nanggroe Aceh Darussalam","city":"Pidie","district":"Glumpang Tiga (Geulumpang Tiga)","urban":"Dayah Tanoh","postal_code":24183},{"province":"Nanggroe Aceh Darussalam","city":"Pidie","district":"Glumpang Tiga (Geulumpang Tiga)","urban":"Gampong Jeumpa","postal_code":24183},{"province":"Nanggroe Aceh Darussalam","city":"Pidie","district":"Glumpang Tiga (Geulumpang Tiga)","urban":"Dayah Gampong Pisang","postal_code":24183},{"province":"Nanggroe Aceh Darussalam","city":"Pidie","district":"Glumpang Baro","urban":"Daboih","postal_code":24183},{"province":"Nanggroe Aceh Darussalam","city":"Pidie","district":"Glumpang Tiga (Geulumpang Tiga)","urban":"Cot Tunong","postal_code":24183},{"province":"Nanggroe Aceh Darussalam","city":"Pidie","district":"Glumpang Baro","urban":"Bungong","postal_code":24183},{"province":"Nanggroe Aceh Darussalam","city":"Pidie","district":"Glumpang Tiga (Geulumpang Tiga)","urban":"Blang Tunong","postal_code":24183},{"province":"Nanggroe Aceh Darussalam","city":"Pidie","district":"Glumpang Tiga (Geulumpang Tiga)","urban":"Cot Baroh","postal_code":24183},{"province":"Nanggroe Aceh Darussalam","city":"Pidie","district":"Glumpang Tiga (Geulumpang Tiga)","urban":"Blang Drang","postal_code":24183},{"province":"Nanggroe Aceh Darussalam","city":"Pidie","district":"Glumpang Baro","urban":"Blang Baroh","postal_code":24183},{"province":"Nanggroe Aceh Darussalam","city":"Pidie","district":"Glumpang Tiga (Geulumpang Tiga)","urban":"Blang Pueb","postal_code":24183},{"province":"Nanggroe Aceh Darussalam","city":"Pidie","district":"Glumpang Tiga (Geulumpang Tiga)","urban":"Bili","postal_code":24183},{"province":"Nanggroe Aceh Darussalam","city":"Pidie","district":"Glumpang Tiga (Geulumpang Tiga)","urban":"Balee","postal_code":24183},{"province":"Nanggroe Aceh Darussalam","city":"Pidie","district":"Glumpang Baro","urban":"Balee Gantung","postal_code":24183},{"province":"Nanggroe Aceh Darussalam","city":"Pidie","district":"Glumpang Tiga (Geulumpang Tiga)","urban":"Amut Mesjid","postal_code":24183}]