[{"province":"Nanggroe Aceh Darussalam","city":"Pidie Jaya","district":"Meureudu","urban":"Teupin Peuraho","postal_code":24186},{"province":"Nanggroe Aceh Darussalam","city":"Pidie Jaya","district":"Meurah Dua","urban":"Seunong","postal_code":24186},{"province":"Nanggroe Aceh Darussalam","city":"Pidie Jaya","district":"Meureudu","urban":"Rungkom","postal_code":24186},{"province":"Nanggroe Aceh Darussalam","city":"Pidie Jaya","district":"Meurah Dua","urban":"Sarahmane","postal_code":24186},{"province":"Nanggroe Aceh Darussalam","city":"Pidie Jaya","district":"Meureudu","urban":"Rhing Mancang","postal_code":24186},{"province":"Nanggroe Aceh Darussalam","city":"Pidie Jaya","district":"Meureudu","urban":"Rumpuen","postal_code":24186},{"province":"Nanggroe Aceh Darussalam","city":"Pidie Jaya","district":"Jangka Buya","urban":"Reului Mangat","postal_code":24186},{"province":"Nanggroe Aceh Darussalam","city":"Pidie Jaya","district":"Meureudu","urban":"Rhing Blang","postal_code":24186},{"province":"Nanggroe Aceh Darussalam","city":"Pidie Jaya","district":"Meureudu","urban":"Rhing Krueng","postal_code":24186},{"province":"Nanggroe Aceh Darussalam","city":"Pidie Jaya","district":"Meureudu","urban":"Rambong","postal_code":24186},{"province":"Nanggroe Aceh Darussalam","city":"Pidie Jaya","district":"Meureudu","urban":"Pohroh","postal_code":24186},{"province":"Nanggroe Aceh Darussalam","city":"Pidie Jaya","district":"Meureudu","urban":"Pulo U","postal_code":24186},{"province":"Nanggroe Aceh Darussalam","city":"Pidie Jaya","district":"Jangka Buya","urban":"Muko Jurong","postal_code":24186},{"province":"Nanggroe Aceh Darussalam","city":"Pidie Jaya","district":"Meurah Dua","urban":"Pante Beureune","postal_code":24186},{"province":"Nanggroe Aceh Darussalam","city":"Pidie Jaya","district":"Meureudu","urban":"Ms Kulam Beuracan","postal_code":24186},{"province":"Nanggroe Aceh Darussalam","city":"Pidie Jaya","district":"Meurah Dua","urban":"Meunasah Teungoh","postal_code":24186},{"province":"Nanggroe Aceh Darussalam","city":"Pidie Jaya","district":"Meureudu","urban":"Meuraksa","postal_code":24186},{"province":"Nanggroe Aceh Darussalam","city":"Pidie Jaya","district":"Meurah Dua","urban":"Meunasah Raya","postal_code":24186},{"province":"Nanggroe Aceh Darussalam","city":"Pidie Jaya","district":"Meureudu","urban":"Meunasah Mulieng","postal_code":24186},{"province":"Nanggroe Aceh Darussalam","city":"Pidie Jaya","district":"Meurah Dua","urban":"Meunasah Mancang","postal_code":24186},{"province":"Nanggroe Aceh Darussalam","city":"Pidie Jaya","district":"Jangka Buya","urban":"Meunasah Me","postal_code":24186},{"province":"Nanggroe Aceh Darussalam","city":"Pidie Jaya","district":"Meurah Dua","urban":"Meunasah Kulam Rentang","postal_code":24186},{"province":"Nanggroe Aceh Darussalam","city":"Pidie Jaya","district":"Meureudu","urban":"Meunasah Lhok","postal_code":24186},{"province":"Nanggroe Aceh Darussalam","city":"Pidie Jaya","district":"Jangka Buya","urban":"Meunasah Kumbang","postal_code":24186},{"province":"Nanggroe Aceh Darussalam","city":"Pidie Jaya","district":"Meurah Dua","urban":"Meunasah Jurong","postal_code":24186},{"province":"Nanggroe Aceh Darussalam","city":"Pidie Jaya","district":"Meureudu","urban":"Meunasah Hagu","postal_code":24186},{"province":"Nanggroe Aceh Darussalam","city":"Pidie Jaya","district":"Meurah Dua","urban":"Meunasah Bie","postal_code":24186},{"province":"Nanggroe Aceh Darussalam","city":"Pidie Jaya","district":"Meurah Dua","urban":"Meunasah Bie","postal_code":24186},{"province":"Nanggroe Aceh Darussalam","city":"Pidie Jaya","district":"Jangka Buya","urban":"Meuko Meugit","postal_code":24186},{"province":"Nanggroe Aceh Darussalam","city":"Pidie Jaya","district":"Meureudu","urban":"Meunasah Balek","postal_code":24186},{"province":"Nanggroe Aceh Darussalam","city":"Pidie Jaya","district":"Meureudu","urban":"Manyang Lamcok","postal_code":24186},{"province":"Nanggroe Aceh Darussalam","city":"Pidie Jaya","district":"Meureudu","urban":"Mesjid Tuha","postal_code":24186},{"province":"Nanggroe Aceh Darussalam","city":"Pidie Jaya","district":"Meureudu","urban":"Manyang Cut","postal_code":24186},{"province":"Nanggroe Aceh Darussalam","city":"Pidie Jaya","district":"Meurah Dua","urban":"Lueng Bimba","postal_code":24186},{"province":"Nanggroe Aceh Darussalam","city":"Pidie Jaya","district":"Meurah Dua","urban":"Lancok","postal_code":24186},{"province":"Nanggroe Aceh Darussalam","city":"Pidie Jaya","district":"Meurah Dua","urban":"Lhok Sandeng","postal_code":24186},{"province":"Nanggroe Aceh Darussalam","city":"Pidie Jaya","district":"Meureudu","urban":"Kuta Trieng","postal_code":24186},{"province":"Nanggroe Aceh Darussalam","city":"Pidie Jaya","district":"Meureudu","urban":"Lampoh Lada","postal_code":24186},{"province":"Nanggroe Aceh Darussalam","city":"Pidie Jaya","district":"Meureudu","urban":"Kota Meureudu","postal_code":24186},{"province":"Nanggroe Aceh Darussalam","city":"Pidie Jaya","district":"Meureudu","urban":"Kudrang","postal_code":24186},{"province":"Nanggroe Aceh Darussalam","city":"Pidie Jaya","district":"Jangka Buya","urban":"Kuta Baroh","postal_code":24186},{"province":"Nanggroe Aceh Darussalam","city":"Pidie Jaya","district":"Jangka Buya","urban":"Kiran Dayah","postal_code":24186},{"province":"Nanggroe Aceh Darussalam","city":"Pidie Jaya","district":"Jangka Buya","urban":"Kiran Krueng","postal_code":24186},{"province":"Nanggroe Aceh Darussalam","city":"Pidie Jaya","district":"Jangka Buya","urban":"Keurisi Meunasah Raya","postal_code":24186},{"province":"Nanggroe Aceh Darussalam","city":"Pidie Jaya","district":"Jangka Buya","urban":"Kiran Baroh","postal_code":24186},{"province":"Nanggroe Aceh Darussalam","city":"Pidie Jaya","district":"Jangka Buya","urban":"Keudee Jangka Buya","postal_code":24186},{"province":"Nanggroe Aceh Darussalam","city":"Pidie Jaya","district":"Jangka Buya","urban":"Keurisi Meunasah Lueng","postal_code":24186},{"province":"Nanggroe Aceh Darussalam","city":"Pidie Jaya","district":"Jangka Buya","urban":"Jurong Ara","postal_code":24186},{"province":"Nanggroe Aceh Darussalam","city":"Pidie Jaya","district":"Jangka Buya","urban":"Jurong Binje","postal_code":24186},{"province":"Nanggroe Aceh Darussalam","city":"Pidie Jaya","district":"Jangka Buya","urban":"Jurong Teungoh","postal_code":24186},{"province":"Nanggroe Aceh Darussalam","city":"Pidie Jaya","district":"Meureudu","urban":"Glumpang Tutong","postal_code":24186},{"province":"Nanggroe Aceh Darussalam","city":"Pidie Jaya","district":"Meureudu","urban":"Grong Grong","postal_code":24186},{"province":"Nanggroe Aceh Darussalam","city":"Pidie Jaya","district":"Meureudu","urban":"Geulidah","postal_code":24186},{"province":"Nanggroe Aceh Darussalam","city":"Pidie Jaya","district":"Jangka Buya","urban":"Gampong Cot","postal_code":24186},{"province":"Nanggroe Aceh Darussalam","city":"Pidie Jaya","district":"Meurah Dua","urban":"Geunteng","postal_code":24186},{"province":"Nanggroe Aceh Darussalam","city":"Pidie Jaya","district":"Meurah Dua","urban":"Gampong Blang","postal_code":24186},{"province":"Nanggroe Aceh Darussalam","city":"Pidie Jaya","district":"Meureudu","urban":"Dayah Tuha","postal_code":24186},{"province":"Nanggroe Aceh Darussalam","city":"Pidie Jaya","district":"Meurah Dua","urban":"Dayah Kruet","postal_code":24186},{"province":"Nanggroe Aceh Darussalam","city":"Pidie Jaya","district":"Meureudu","urban":"Dayah Timu","postal_code":24186},{"province":"Nanggroe Aceh Darussalam","city":"Pidie Jaya","district":"Jangka Buya","urban":"Buket Teungoh","postal_code":24186},{"province":"Nanggroe Aceh Darussalam","city":"Pidie Jaya","district":"Meurah Dua","urban":"Dayah Husen (Usien)","postal_code":24186},{"province":"Nanggroe Aceh Darussalam","city":"Pidie Jaya","district":"Meureudu","urban":"Bunot","postal_code":24186},{"province":"Nanggroe Aceh Darussalam","city":"Pidie Jaya","district":"Meurah Dua","urban":"Buangan","postal_code":24186},{"province":"Nanggroe Aceh Darussalam","city":"Pidie Jaya","district":"Meurah Dua","urban":"Blang Cut","postal_code":24186},{"province":"Nanggroe Aceh Darussalam","city":"Pidie Jaya","district":"Meureudu","urban":"Blang Awe","postal_code":24186},{"province":"Nanggroe Aceh Darussalam","city":"Pidie Jaya","district":"Meurah Dua","urban":"Beuringen (Beringin)","postal_code":24186},{"province":"Nanggroe Aceh Darussalam","city":"Pidie Jaya","district":"Meureudu","urban":"Beurawang","postal_code":24186},{"province":"Nanggroe Aceh Darussalam","city":"Pidie","district":"Mane","urban":"Turue Cut","postal_code":24186},{"province":"Nanggroe Aceh Darussalam","city":"Pidie","district":"Mane","urban":"Mane","postal_code":24186},{"province":"Nanggroe Aceh Darussalam","city":"Pidie","district":"Mane","urban":"Leuteung","postal_code":24186},{"province":"Nanggroe Aceh Darussalam","city":"Pidie","district":"Mane","urban":"Blang Dalam","postal_code":24186}]