[{"province":"Nanggroe Aceh Darussalam","city":"Pidie Jaya","district":"Bandar Dua","urban":"Seunong","postal_code":24188},{"province":"Nanggroe Aceh Darussalam","city":"Pidie Jaya","district":"Bandar Dua","urban":"Uteun Bayu","postal_code":24188},{"province":"Nanggroe Aceh Darussalam","city":"Pidie Jaya","district":"Bandar Dua","urban":"Reudeup Melayu","postal_code":24188},{"province":"Nanggroe Aceh Darussalam","city":"Pidie Jaya","district":"Bandar Dua","urban":"Pulo Gapu","postal_code":24188},{"province":"Nanggroe Aceh Darussalam","city":"Pidie Jaya","district":"Bandar Dua","urban":"Reudeup Melayu","postal_code":24188},{"province":"Nanggroe Aceh Darussalam","city":"Pidie Jaya","district":"Bandar Dua","urban":"Peulakan Tunong","postal_code":24188},{"province":"Nanggroe Aceh Darussalam","city":"Pidie Jaya","district":"Bandar Dua","urban":"Pohroh","postal_code":24188},{"province":"Nanggroe Aceh Darussalam","city":"Pidie Jaya","district":"Bandar Dua","urban":"Peulakan Tambo","postal_code":24188},{"province":"Nanggroe Aceh Darussalam","city":"Pidie Jaya","district":"Bandar Dua","urban":"Paya Pisang Klat","postal_code":24188},{"province":"Nanggroe Aceh Darussalam","city":"Pidie Jaya","district":"Bandar Dua","urban":"Paya Tunong","postal_code":24188},{"province":"Nanggroe Aceh Darussalam","city":"Pidie Jaya","district":"Bandar Dua","urban":"Peulakan Cebrek","postal_code":24188},{"province":"Nanggroe Aceh Darussalam","city":"Pidie Jaya","district":"Bandar Dua","urban":"Muko Buloh","postal_code":24188},{"province":"Nanggroe Aceh Darussalam","city":"Pidie Jaya","district":"Bandar Dua","urban":"Paya Baroh","postal_code":24188},{"province":"Nanggroe Aceh Darussalam","city":"Pidie Jaya","district":"Bandar Dua","urban":"Meunasah Paku","postal_code":24188},{"province":"Nanggroe Aceh Darussalam","city":"Pidie Jaya","district":"Bandar Dua","urban":"Meurandeh Alue","postal_code":24188},{"province":"Nanggroe Aceh Darussalam","city":"Pidie Jaya","district":"Bandar Dua","urban":"Meuko Dayah","postal_code":24188},{"province":"Nanggroe Aceh Darussalam","city":"Pidie Jaya","district":"Bandar Dua","urban":"Meuko Kuthang","postal_code":24188},{"province":"Nanggroe Aceh Darussalam","city":"Pidie Jaya","district":"Bandar Dua","urban":"Meuko Baroh","postal_code":24188},{"province":"Nanggroe Aceh Darussalam","city":"Pidie Jaya","district":"Bandar Dua","urban":"Lhok Pusong","postal_code":24188},{"province":"Nanggroe Aceh Darussalam","city":"Pidie Jaya","district":"Bandar Dua","urban":"Meugit Kayei Panyang","postal_code":24188},{"province":"Nanggroe Aceh Darussalam","city":"Pidie Jaya","district":"Bandar Dua","urban":"Meugit Sagoe","postal_code":24188},{"province":"Nanggroe Aceh Darussalam","city":"Pidie Jaya","district":"Bandar Dua","urban":"Kumba","postal_code":24188},{"province":"Nanggroe Aceh Darussalam","city":"Pidie Jaya","district":"Bandar Dua","urban":"Kuta Krueng","postal_code":24188},{"province":"Nanggroe Aceh Darussalam","city":"Pidie Jaya","district":"Bandar Dua","urban":"Keude Ulee Glee","postal_code":24188},{"province":"Nanggroe Aceh Darussalam","city":"Pidie Jaya","district":"Bandar Dua","urban":"Krueng Kiran","postal_code":24188},{"province":"Nanggroe Aceh Darussalam","city":"Pidie Jaya","district":"Bandar Dua","urban":"Jeulanga Mata Ie","postal_code":24188},{"province":"Nanggroe Aceh Darussalam","city":"Pidie Jaya","district":"Bandar Dua","urban":"Jeulanga Mesjid","postal_code":24188},{"province":"Nanggroe Aceh Darussalam","city":"Pidie Jaya","district":"Bandar Dua","urban":"Kampung Baro","postal_code":24188},{"province":"Nanggroe Aceh Darussalam","city":"Pidie Jaya","district":"Bandar Dua","urban":"Gampong Ulee Glee","postal_code":24188},{"province":"Nanggroe Aceh Darussalam","city":"Pidie Jaya","district":"Bandar Dua","urban":"Jeulanga Barat","postal_code":24188},{"province":"Nanggroe Aceh Darussalam","city":"Pidie Jaya","district":"Bandar Dua","urban":"Drien Tujoh","postal_code":24188},{"province":"Nanggroe Aceh Darussalam","city":"Pidie Jaya","district":"Bandar Dua","urban":"Gaharu","postal_code":24188},{"province":"Nanggroe Aceh Darussalam","city":"Pidie Jaya","district":"Bandar Dua","urban":"Drien Bungong","postal_code":24188},{"province":"Nanggroe Aceh Darussalam","city":"Pidie Jaya","district":"Bandar Dua","urban":"Cot Keng","postal_code":24188},{"province":"Nanggroe Aceh Darussalam","city":"Pidie Jaya","district":"Bandar Dua","urban":"Blang Mirou","postal_code":24188},{"province":"Nanggroe Aceh Darussalam","city":"Pidie Jaya","district":"Bandar Dua","urban":"Cot Geurufai","postal_code":24188},{"province":"Nanggroe Aceh Darussalam","city":"Pidie Jaya","district":"Bandar Dua","urban":"Blang Dalam","postal_code":24188},{"province":"Nanggroe Aceh Darussalam","city":"Pidie Jaya","district":"Bandar Dua","urban":"Blang Kuta","postal_code":24188},{"province":"Nanggroe Aceh Darussalam","city":"Pidie Jaya","district":"Bandar Dua","urban":"Asan Kumbang","postal_code":24188},{"province":"Nanggroe Aceh Darussalam","city":"Pidie Jaya","district":"Bandar Dua","urban":"Babah Krueng","postal_code":24188},{"province":"Nanggroe Aceh Darussalam","city":"Pidie Jaya","district":"Bandar Dua","urban":"Beurasan","postal_code":24188},{"province":"Nanggroe Aceh Darussalam","city":"Pidie Jaya","district":"Bandar Dua","urban":"Alue Sane","postal_code":24188},{"province":"Nanggroe Aceh Darussalam","city":"Pidie Jaya","district":"Bandar Dua","urban":"Alue Keutapang","postal_code":24188},{"province":"Nanggroe Aceh Darussalam","city":"Pidie Jaya","district":"Bandar Dua","urban":"Alue Me","postal_code":24188},{"province":"Nanggroe Aceh Darussalam","city":"Pidie Jaya","district":"Bandar Dua","urban":"Adan","postal_code":24188}]