[{"province":"Nanggroe Aceh Darussalam","city":"Pidie Jaya","district":"Bandar Baru","urban":"Ujong Leubat","postal_code":24184},{"province":"Nanggroe Aceh Darussalam","city":"Pidie Jaya","district":"Bandar Baru","urban":"Tutong","postal_code":24184},{"province":"Nanggroe Aceh Darussalam","city":"Pidie Jaya","district":"Bandar Baru","urban":"Udeung","postal_code":24184},{"province":"Nanggroe Aceh Darussalam","city":"Pidie Jaya","district":"Bandar Baru","urban":"Teungoh Musa","postal_code":24184},{"province":"Nanggroe Aceh Darussalam","city":"Pidie Jaya","district":"Bandar Baru","urban":"Tualada","postal_code":24184},{"province":"Nanggroe Aceh Darussalam","city":"Pidie Jaya","district":"Bandar Baru","urban":"Tanoh Mirah","postal_code":24184},{"province":"Nanggroe Aceh Darussalam","city":"Pidie Jaya","district":"Bandar Baru","urban":"Siren","postal_code":24184},{"province":"Nanggroe Aceh Darussalam","city":"Pidie Jaya","district":"Bandar Baru","urban":"Sarah Panyang","postal_code":24184},{"province":"Nanggroe Aceh Darussalam","city":"Pidie Jaya","district":"Bandar Baru","urban":"Sawang","postal_code":24184},{"province":"Nanggroe Aceh Darussalam","city":"Pidie Jaya","district":"Bandar Baru","urban":"Pulo Rheng","postal_code":24184},{"province":"Nanggroe Aceh Darussalam","city":"Pidie Jaya","district":"Bandar Baru","urban":"Sagoe","postal_code":24184},{"province":"Nanggroe Aceh Darussalam","city":"Pidie Jaya","district":"Bandar Baru","urban":"Pueb Lueng Nibong","postal_code":24184},{"province":"Nanggroe Aceh Darussalam","city":"Pidie Jaya","district":"Bandar Baru","urban":"Pulo Pueb","postal_code":24184},{"province":"Nanggroe Aceh Darussalam","city":"Pidie Jaya","district":"Bandar Baru","urban":"Paru Cot","postal_code":24184},{"province":"Nanggroe Aceh Darussalam","city":"Pidie Jaya","district":"Bandar Baru","urban":"Paru Keude","postal_code":24184},{"province":"Nanggroe Aceh Darussalam","city":"Pidie Jaya","district":"Bandar Baru","urban":"Manyang","postal_code":24184},{"province":"Nanggroe Aceh Darussalam","city":"Pidie Jaya","district":"Bandar Baru","urban":"Mesjid Lancok","postal_code":24184},{"province":"Nanggroe Aceh Darussalam","city":"Pidie Jaya","district":"Bandar Baru","urban":"Kayee Raya","postal_code":24184},{"province":"Nanggroe Aceh Darussalam","city":"Pidie Jaya","district":"Bandar Baru","urban":"Keude Lueng Putu","postal_code":24184},{"province":"Nanggroe Aceh Darussalam","city":"Pidie Jaya","district":"Bandar Baru","urban":"Lancang Paru","postal_code":24184},{"province":"Nanggroe Aceh Darussalam","city":"Pidie Jaya","district":"Bandar Baru","urban":"Kayee Jatoe","postal_code":24184},{"province":"Nanggroe Aceh Darussalam","city":"Pidie Jaya","district":"Bandar Baru","urban":"Gampong Nyong","postal_code":24184},{"province":"Nanggroe Aceh Darussalam","city":"Pidie Jaya","district":"Bandar Baru","urban":"Jijiem","postal_code":24184},{"province":"Nanggroe Aceh Darussalam","city":"Pidie Jaya","district":"Bandar Baru","urban":"Gampong Meunasah Baro (Baro Nyong)","postal_code":24184},{"province":"Nanggroe Aceh Darussalam","city":"Pidie Jaya","district":"Bandar Baru","urban":"Dayah Nyong","postal_code":24184},{"province":"Nanggroe Aceh Darussalam","city":"Pidie Jaya","district":"Bandar Baru","urban":"Gampong Cut Nyong","postal_code":24184},{"province":"Nanggroe Aceh Darussalam","city":"Pidie Jaya","district":"Bandar Baru","urban":"Daboih","postal_code":24184},{"province":"Nanggroe Aceh Darussalam","city":"Pidie Jaya","district":"Bandar Baru","urban":"Dayah Langien","postal_code":24184},{"province":"Nanggroe Aceh Darussalam","city":"Pidie Jaya","district":"Bandar Baru","urban":"Blang Sukon","postal_code":24184},{"province":"Nanggroe Aceh Darussalam","city":"Pidie Jaya","district":"Bandar Baru","urban":"Cut Langien","postal_code":24184},{"province":"Nanggroe Aceh Darussalam","city":"Pidie Jaya","district":"Bandar Baru","urban":"Blang Iboih","postal_code":24184},{"province":"Nanggroe Aceh Darussalam","city":"Pidie Jaya","district":"Bandar Baru","urban":"Blang Krueng","postal_code":24184},{"province":"Nanggroe Aceh Darussalam","city":"Pidie Jaya","district":"Bandar Baru","urban":"Blang Baro","postal_code":24184},{"province":"Nanggroe Aceh Darussalam","city":"Pidie Jaya","district":"Bandar Baru","urban":"Blang Glong","postal_code":24184},{"province":"Nanggroe Aceh Darussalam","city":"Pidie Jaya","district":"Bandar Baru","urban":"Beurandeh","postal_code":24184},{"province":"Nanggroe Aceh Darussalam","city":"Pidie Jaya","district":"Bandar Baru","urban":"Baroh Lancok","postal_code":24184},{"province":"Nanggroe Aceh Darussalam","city":"Pidie Jaya","district":"Bandar Baru","urban":"Baroh Musa","postal_code":24184},{"province":"Nanggroe Aceh Darussalam","city":"Pidie Jaya","district":"Bandar Baru","urban":"Balee","postal_code":24184},{"province":"Nanggroe Aceh Darussalam","city":"Pidie Jaya","district":"Bandar Baru","urban":"Baroh Cot","postal_code":24184},{"province":"Nanggroe Aceh Darussalam","city":"Pidie Jaya","district":"Bandar Baru","urban":"Aki Neungoh","postal_code":24184},{"province":"Nanggroe Aceh Darussalam","city":"Pidie Jaya","district":"Bandar Baru","urban":"Alue","postal_code":24184},{"province":"Nanggroe Aceh Darussalam","city":"Pidie Jaya","district":"Bandar Baru","urban":"Ara","postal_code":24184},{"province":"Nanggroe Aceh Darussalam","city":"Pidie Jaya","district":"Bandar Baru","urban":"Abah Lueng","postal_code":24184}]