[{"province":"Nanggroe Aceh Darussalam","city":"Bireuen","district":"Simpang Mamplam","urban":"Ulee Kareung","postal_code":24251},{"province":"Nanggroe Aceh Darussalam","city":"Bireuen","district":"Jeumpa","urban":"Teupok Tunong","postal_code":24251},{"province":"Nanggroe Aceh Darussalam","city":"Bireuen","district":"Kota Juang","urban":"Uteun Reutoh","postal_code":24251},{"province":"Nanggroe Aceh Darussalam","city":"Bireuen","district":"Juli","urban":"Teupin Manee","postal_code":24251},{"province":"Nanggroe Aceh Darussalam","city":"Bireuen","district":"Simpang Mamplam","urban":"Tambue Barat","postal_code":24251},{"province":"Nanggroe Aceh Darussalam","city":"Bireuen","district":"Jeumpa","urban":"Teupok Baroh","postal_code":24251},{"province":"Nanggroe Aceh Darussalam","city":"Bireuen","district":"Juli","urban":"Simpang Jaya","postal_code":24251},{"province":"Nanggroe Aceh Darussalam","city":"Bireuen","district":"Juli","urban":"Suka Tani","postal_code":24251},{"province":"Nanggroe Aceh Darussalam","city":"Bireuen","district":"Juli","urban":"Tamboi Tanjong","postal_code":24251},{"province":"Nanggroe Aceh Darussalam","city":"Bireuen","district":"Juli","urban":"Seuneubok Peuraden","postal_code":24251},{"province":"Nanggroe Aceh Darussalam","city":"Bireuen","district":"Jeumpa","urban":"Seuneubok Lhong","postal_code":24251},{"province":"Nanggroe Aceh Darussalam","city":"Bireuen","district":"Juli","urban":"Seuneubok Gunci","postal_code":24251},{"province":"Nanggroe Aceh Darussalam","city":"Bireuen","district":"Jeumpa","urban":"Seuleumbah","postal_code":24251},{"province":"Nanggroe Aceh Darussalam","city":"Bireuen","district":"Juli","urban":"Seuneubok Dalam","postal_code":24251},{"province":"Nanggroe Aceh Darussalam","city":"Bireuen","district":"Simpang Mamplam","urban":"Rheum Barouh/Baroh","postal_code":24251},{"province":"Nanggroe Aceh Darussalam","city":"Bireuen","district":"Simpang Mamplam","urban":"Rheum Timur","postal_code":24251},{"province":"Nanggroe Aceh Darussalam","city":"Bireuen","district":"Jeumpa","urban":"Salah Sirong Jaya","postal_code":24251},{"province":"Nanggroe Aceh Darussalam","city":"Bireuen","district":"Simpang Mamplam","urban":"Rheum Barat","postal_code":24251},{"province":"Nanggroe Aceh Darussalam","city":"Bireuen","district":"Juli","urban":"Ranto Panyang","postal_code":24251},{"province":"Nanggroe Aceh Darussalam","city":"Bireuen","district":"Simpang Mamplam","urban":"Pulo Drien","postal_code":24251},{"province":"Nanggroe Aceh Darussalam","city":"Bireuen","district":"Jeumpa","urban":"Pulo Lawang","postal_code":24251},{"province":"Nanggroe Aceh Darussalam","city":"Bireuen","district":"Kota Juang","urban":"Pulo Kiton","postal_code":24251},{"province":"Nanggroe Aceh Darussalam","city":"Bireuen","district":"Simpang Mamplam","urban":"Pulo Dapong","postal_code":24251},{"province":"Nanggroe Aceh Darussalam","city":"Bireuen","district":"Kota Juang","urban":"Pulo Ara Geudong Teungoh","postal_code":24251},{"province":"Nanggroe Aceh Darussalam","city":"Bireuen","district":"Simpang Mamplam","urban":"Peuneulet Tunong","postal_code":24251},{"province":"Nanggroe Aceh Darussalam","city":"Bireuen","district":"Simpang Mamplam","urban":"Peuneulet Tunong","postal_code":24251},{"province":"Nanggroe Aceh Darussalam","city":"Bireuen","district":"Juli","urban":"Paseh","postal_code":24251},{"province":"Nanggroe Aceh Darussalam","city":"Bireuen","district":"Juli","urban":"Paya Cut","postal_code":24251},{"province":"Nanggroe Aceh Darussalam","city":"Bireuen","district":"Juli","urban":"Pante Peusangan","postal_code":24251},{"province":"Nanggroe Aceh Darussalam","city":"Bireuen","district":"Jeumpa","urban":"Paloh Seulimeng","postal_code":24251},{"province":"Nanggroe Aceh Darussalam","city":"Bireuen","district":"Juli","urban":"Pante Baro","postal_code":24251},{"province":"Nanggroe Aceh Darussalam","city":"Bireuen","district":"Simpang Mamplam","urban":"Paku","postal_code":24251},{"province":"Nanggroe Aceh Darussalam","city":"Bireuen","district":"Jeumpa","urban":"Paloh Panyang","postal_code":24251},{"province":"Nanggroe Aceh Darussalam","city":"Bireuen","district":"Jeumpa","urban":"Mon Jambee","postal_code":24251},{"province":"Nanggroe Aceh Darussalam","city":"Bireuen","district":"Jeumpa","urban":"Mon Mane","postal_code":24251},{"province":"Nanggroe Aceh Darussalam","city":"Bireuen","district":"Simpang Mamplam","urban":"Meunasah Mamplam","postal_code":24251},{"province":"Nanggroe Aceh Darussalam","city":"Bireuen","district":"Simpang Mamplam","urban":"Meunasah Mesjid","postal_code":24251},{"province":"Nanggroe Aceh Darussalam","city":"Bireuen","district":"Simpang Mamplam","urban":"Meunasah Dayah","postal_code":24251},{"province":"Nanggroe Aceh Darussalam","city":"Bireuen","district":"Simpang Mamplam","urban":"Meunasah Asan","postal_code":24251},{"province":"Nanggroe Aceh Darussalam","city":"Bireuen","district":"Simpang Mamplam","urban":"Meunasah Barat","postal_code":24251},{"province":"Nanggroe Aceh Darussalam","city":"Bireuen","district":"Jeumpa","urban":"Lipah Rayeuk","postal_code":24251},{"province":"Nanggroe Aceh Darussalam","city":"Bireuen","district":"Juli","urban":"Mane Meujingki","postal_code":24251},{"province":"Nanggroe Aceh Darussalam","city":"Bireuen","district":"Jeumpa","urban":"Lipah Cut","postal_code":24251},{"province":"Nanggroe Aceh Darussalam","city":"Bireuen","district":"Simpang Mamplam","urban":"Lhok Tanoh","postal_code":24251},{"province":"Nanggroe Aceh Darussalam","city":"Bireuen","district":"Simpang Mamplam","urban":"Lhok Mane","postal_code":24251},{"province":"Nanggroe Aceh Darussalam","city":"Bireuen","district":"Jeumpa","urban":"Lhaksamana","postal_code":24251},{"province":"Nanggroe Aceh Darussalam","city":"Bireuen","district":"Kota Juang","urban":"Lhok Awe Teungoh","postal_code":24251},{"province":"Nanggroe Aceh Darussalam","city":"Bireuen","district":"Simpang Mamplam","urban":"Lancang","postal_code":24251},{"province":"Nanggroe Aceh Darussalam","city":"Bireuen","district":"Jeumpa","urban":"Kuta Meuligoe","postal_code":24251},{"province":"Nanggroe Aceh Darussalam","city":"Bireuen","district":"Jeumpa","urban":"Kuala Jeumpa","postal_code":24251},{"province":"Nanggroe Aceh Darussalam","city":"Bireuen","district":"Simpang Mamplam","urban":"Krueng Meuseugob","postal_code":24251},{"province":"Nanggroe Aceh Darussalam","city":"Bireuen","district":"Juli","urban":"Krueng Simpo","postal_code":24251},{"province":"Nanggroe Aceh Darussalam","city":"Bireuen","district":"Kota Juang","urban":"Kota Bireun (Bireuen)","postal_code":24251},{"province":"Nanggroe Aceh Darussalam","city":"Bireuen","district":"Simpang Mamplam","urban":"Jurong Binjee","postal_code":24251},{"province":"Nanggroe Aceh Darussalam","city":"Bireuen","district":"Simpang Mamplam","urban":"Keude Tambue","postal_code":24251},{"province":"Nanggroe Aceh Darussalam","city":"Bireuen","district":"Juli","urban":"Juli Uruek Anoe","postal_code":24251},{"province":"Nanggroe Aceh Darussalam","city":"Bireuen","district":"Juli","urban":"Juli Teungku Dilampoh","postal_code":24251},{"province":"Nanggroe Aceh Darussalam","city":"Bireuen","district":"Juli","urban":"Juli Tambo Tanjong","postal_code":24251},{"province":"Nanggroe Aceh Darussalam","city":"Bireuen","district":"Juli","urban":"Juli Paya Ru","postal_code":24251},{"province":"Nanggroe Aceh Darussalam","city":"Bireuen","district":"Juli","urban":"Juli Seupeng/Lampoh","postal_code":24251},{"province":"Nanggroe Aceh Darussalam","city":"Bireuen","district":"Juli","urban":"Juli Meunasah Teungoh","postal_code":24251},{"province":"Nanggroe Aceh Darussalam","city":"Bireuen","district":"Juli","urban":"Juli Meunasah Tambo","postal_code":24251},{"province":"Nanggroe Aceh Darussalam","city":"Bireuen","district":"Juli","urban":"Juli Meunasah Seutuy","postal_code":24251},{"province":"Nanggroe Aceh Darussalam","city":"Bireuen","district":"Juli","urban":"Juli Meunasah Jok","postal_code":24251},{"province":"Nanggroe Aceh Darussalam","city":"Bireuen","district":"Juli","urban":"Juli Mee Teungoh","postal_code":24251},{"province":"Nanggroe Aceh Darussalam","city":"Bireuen","district":"Juli","urban":"Juli Cot Meurak","postal_code":24251},{"province":"Nanggroe Aceh Darussalam","city":"Bireuen","district":"Juli","urban":"Juli Keudee Dua","postal_code":24251},{"province":"Nanggroe Aceh Darussalam","city":"Bireuen","district":"Juli","urban":"Juli Cot Mesjid","postal_code":24251},{"province":"Nanggroe Aceh Darussalam","city":"Bireuen","district":"Simpang Mamplam","urban":"Ie Rhob Timur","postal_code":24251},{"province":"Nanggroe Aceh Darussalam","city":"Bireuen","district":"Simpang Mamplam","urban":"Ie Rhob Barat","postal_code":24251},{"province":"Nanggroe Aceh Darussalam","city":"Bireuen","district":"Simpang Mamplam","urban":"Ie Rhob Geulumpang/Glumpang","postal_code":24251},{"province":"Nanggroe Aceh Darussalam","city":"Bireuen","district":"Simpang Mamplam","urban":"Ie Rhob Babah Lueng","postal_code":24251},{"province":"Nanggroe Aceh Darussalam","city":"Bireuen","district":"Simpang Mamplam","urban":"Gle Meundong","postal_code":24251},{"province":"Nanggroe Aceh Darussalam","city":"Bireuen","district":"Jeumpa","urban":"Geulumpang Payong","postal_code":24251},{"province":"Nanggroe Aceh Darussalam","city":"Bireuen","district":"Juli","urban":"Geulumpang Meu Jimjim","postal_code":24251},{"province":"Nanggroe Aceh Darussalam","city":"Bireuen","district":"Kota Juang","urban":"Geulanggang Kulam","postal_code":24251},{"province":"Nanggroe Aceh Darussalam","city":"Bireuen","district":"Kota Juang","urban":"Geulanggang Teungoh","postal_code":24251},{"province":"Nanggroe Aceh Darussalam","city":"Bireuen","district":"Kota Juang","urban":"Geulanggang Gampong","postal_code":24251},{"province":"Nanggroe Aceh Darussalam","city":"Bireuen","district":"Kota Juang","urban":"Geulanggang Baro","postal_code":24251},{"province":"Nanggroe Aceh Darussalam","city":"Bireuen","district":"Jeumpa","urban":"Geudong Tampu","postal_code":24251},{"province":"Nanggroe Aceh Darussalam","city":"Bireuen","district":"Kota Juang","urban":"Geudong Alue","postal_code":24251},{"province":"Nanggroe Aceh Darussalam","city":"Bireuen","district":"Kota Juang","urban":"Geudong Geudong","postal_code":24251},{"province":"Nanggroe Aceh Darussalam","city":"Bireuen","district":"Kota Juang","urban":"Gampong Baro","postal_code":24251},{"province":"Nanggroe Aceh Darussalam","city":"Bireuen","district":"Simpang Mamplam","urban":"Cure Tunong","postal_code":24251},{"province":"Nanggroe Aceh Darussalam","city":"Bireuen","district":"Simpang Mamplam","urban":"Cure Baroh","postal_code":24251},{"province":"Nanggroe Aceh Darussalam","city":"Bireuen","district":"Jeumpa","urban":"Cot Ulim","postal_code":24251},{"province":"Nanggroe Aceh Darussalam","city":"Bireuen","district":"Simpang Mamplam","urban":"Cot Trieng","postal_code":24251},{"province":"Nanggroe Aceh Darussalam","city":"Bireuen","district":"Jeumpa","urban":"Cot Tarom Tunong","postal_code":24251},{"province":"Nanggroe Aceh Darussalam","city":"Bireuen","district":"Jeumpa","urban":"Cot Tarom Baroh","postal_code":24251},{"province":"Nanggroe Aceh Darussalam","city":"Bireuen","district":"Kota Juang","urban":"Cot Peutek","postal_code":24251},{"province":"Nanggroe Aceh Darussalam","city":"Bireuen","district":"Jeumpa","urban":"Cot Meugoe","postal_code":24251},{"province":"Nanggroe Aceh Darussalam","city":"Bireuen","district":"Jeumpa","urban":"Cot Leusong","postal_code":24251},{"province":"Nanggroe Aceh Darussalam","city":"Bireuen","district":"Jeumpa","urban":"Cot Keutapang","postal_code":24251},{"province":"Nanggroe Aceh Darussalam","city":"Bireuen","district":"Kota Juang","urban":"Cot Jrat","postal_code":24251},{"province":"Nanggroe Aceh Darussalam","city":"Bireuen","district":"Jeumpa","urban":"Cot Iboh","postal_code":24251},{"province":"Nanggroe Aceh Darussalam","city":"Bireuen","district":"Kota Juang","urban":"Cot Gapu","postal_code":24251},{"province":"Nanggroe Aceh Darussalam","city":"Bireuen","district":"Jeumpa","urban":"Cot Geurundong","postal_code":24251},{"province":"Nanggroe Aceh Darussalam","city":"Bireuen","district":"Jeumpa","urban":"Cot Iboeh Timu","postal_code":24251},{"province":"Nanggroe Aceh Darussalam","city":"Bireuen","district":"Jeumpa","urban":"Cot Bada","postal_code":24251},{"province":"Nanggroe Aceh Darussalam","city":"Bireuen","district":"Jeumpa","urban":"Cot Gadong","postal_code":24251},{"province":"Nanggroe Aceh Darussalam","city":"Bireuen","district":"Juli","urban":"Bunyot (Beunyot)","postal_code":24251},{"province":"Nanggroe Aceh Darussalam","city":"Bireuen","district":"Simpang Mamplam","urban":"Calok","postal_code":24251},{"province":"Nanggroe Aceh Darussalam","city":"Bireuen","district":"Simpang Mamplam","urban":"Ceureucok","postal_code":24251},{"province":"Nanggroe Aceh Darussalam","city":"Bireuen","district":"Juli","urban":"Buket Mulia","postal_code":24251},{"province":"Nanggroe Aceh Darussalam","city":"Bireuen","district":"Kota Juang","urban":"Buket Teukueh","postal_code":24251},{"province":"Nanggroe Aceh Darussalam","city":"Bireuen","district":"Kota Juang","urban":"Blang Tingkeum","postal_code":24251},{"province":"Nanggroe Aceh Darussalam","city":"Bireuen","district":"Simpang Mamplam","urban":"Blang Teumulek","postal_code":24251},{"province":"Nanggroe Aceh Darussalam","city":"Bireuen","district":"Jeumpa","urban":"Blang Seupeng","postal_code":24251},{"province":"Nanggroe Aceh Darussalam","city":"Bireuen","district":"Simpang Mamplam","urban":"Blang Tambue","postal_code":24251},{"province":"Nanggroe Aceh Darussalam","city":"Bireuen","district":"Jeumpa","urban":"Blang Rheum","postal_code":24251},{"province":"Nanggroe Aceh Darussalam","city":"Bireuen","district":"Jeumpa","urban":"Blang Seunong","postal_code":24251},{"province":"Nanggroe Aceh Darussalam","city":"Bireuen","district":"Kota Juang","urban":"Blang Reulieng (Reuling)","postal_code":24251},{"province":"Nanggroe Aceh Darussalam","city":"Bireuen","district":"Simpang Mamplam","urban":"Blang Panyang","postal_code":24251},{"province":"Nanggroe Aceh Darussalam","city":"Bireuen","district":"Jeumpa","urban":"Blang Me","postal_code":24251},{"province":"Nanggroe Aceh Darussalam","city":"Bireuen","district":"Simpang Mamplam","urban":"Blang Mane Dua Meunasah","postal_code":24251},{"province":"Nanggroe Aceh Darussalam","city":"Bireuen","district":"Simpang Mamplam","urban":"Blang Kuta Dua Meunasah","postal_code":24251},{"province":"Nanggroe Aceh Darussalam","city":"Bireuen","district":"Simpang Mamplam","urban":"Blang Mane Barat","postal_code":24251},{"province":"Nanggroe Aceh Darussalam","city":"Bireuen","district":"Simpang Mamplam","urban":"Blang Kuta Coh","postal_code":24251},{"province":"Nanggroe Aceh Darussalam","city":"Bireuen","district":"Juli","urban":"Blang Keutumba (Ketumba)","postal_code":24251},{"province":"Nanggroe Aceh Darussalam","city":"Bireuen","district":"Jeumpa","urban":"Blang Dalam","postal_code":24251},{"province":"Nanggroe Aceh Darussalam","city":"Bireuen","district":"Jeumpa","urban":"Blang Gandai","postal_code":24251},{"province":"Nanggroe Aceh Darussalam","city":"Bireuen","district":"Jeumpa","urban":"Blang Cot Baroh","postal_code":24251},{"province":"Nanggroe Aceh Darussalam","city":"Bireuen","district":"Jeumpa","urban":"Blang Cot Tunong","postal_code":24251},{"province":"Nanggroe Aceh Darussalam","city":"Bireuen","district":"Jeumpa","urban":"Blang Bladeh","postal_code":24251},{"province":"Nanggroe Aceh Darussalam","city":"Bireuen","district":"Kota Juang","urban":"Bireun Meunasah Reuleut","postal_code":24251},{"province":"Nanggroe Aceh Darussalam","city":"Bireuen","district":"Kota Juang","urban":"Bireun Meunasah Teungku Digadong","postal_code":24251},{"province":"Nanggroe Aceh Darussalam","city":"Bireuen","district":"Kota Juang","urban":"Bireun Meunasah Capa","postal_code":24251},{"province":"Nanggroe Aceh Darussalam","city":"Bireuen","district":"Kota Juang","urban":"Bireun Meunasah Dayah","postal_code":24251},{"province":"Nanggroe Aceh Darussalam","city":"Bireuen","district":"Kota Juang","urban":"Bireun Meunasah Blang","postal_code":24251},{"province":"Nanggroe Aceh Darussalam","city":"Bireuen","district":"Jeumpa","urban":"Beurawang","postal_code":24251},{"province":"Nanggroe Aceh Darussalam","city":"Bireuen","district":"Juli","urban":"Batee Raya","postal_code":24251},{"province":"Nanggroe Aceh Darussalam","city":"Bireuen","district":"Jeumpa","urban":"Batee Timoh","postal_code":24251},{"province":"Nanggroe Aceh Darussalam","city":"Bireuen","district":"Simpang Mamplam","urban":"Balee","postal_code":24251},{"province":"Nanggroe Aceh Darussalam","city":"Bireuen","district":"Juli","urban":"Balee Panah","postal_code":24251},{"province":"Nanggroe Aceh Darussalam","city":"Bireuen","district":"Simpang Mamplam","urban":"Arongan","postal_code":24251},{"province":"Nanggroe Aceh Darussalam","city":"Bireuen","district":"Juli","urban":"Alue Unou/Unoe","postal_code":24251},{"province":"Nanggroe Aceh Darussalam","city":"Bireuen","district":"Jeumpa","urban":"Alue Limeng","postal_code":24251},{"province":"Nanggroe Aceh Darussalam","city":"Bireuen","district":"Simpang Mamplam","urban":"Alue Leuhob","postal_code":24251},{"province":"Nanggroe Aceh Darussalam","city":"Bireuen","district":"Juli","urban":"Aleu Rambong","postal_code":24251},{"province":"Nanggroe Aceh Darussalam","city":"Bireuen","district":"Jeumpa","urban":"Abeuk Usong","postal_code":24251},{"province":"Nanggroe Aceh Darussalam","city":"Bireuen","district":"Juli","urban":"Abeuk Budi","postal_code":24251},{"province":"Nanggroe Aceh Darussalam","city":"Bireuen","district":"Jeumpa","urban":"Abeuk Tingkeum","postal_code":24251}]