[{"province":"Nanggroe Aceh Darussalam","city":"Bireuen","district":"Kuala","urban":"Weu Jangka","postal_code":24261},{"province":"Nanggroe Aceh Darussalam","city":"Bireuen","district":"Peusangan Selatan","urban":"Uteun Ghatom","postal_code":24261},{"province":"Nanggroe Aceh Darussalam","city":"Bireuen","district":"Peusangan Selatan","urban":"Uteun Raya","postal_code":24261},{"province":"Nanggroe Aceh Darussalam","city":"Bireuen","district":"Peusangan","urban":"Uteun Bunta","postal_code":24261},{"province":"Nanggroe Aceh Darussalam","city":"Bireuen","district":"Jangka","urban":"Ulee Ceue","postal_code":24261},{"province":"Nanggroe Aceh Darussalam","city":"Bireuen","district":"Peusangan Selatan","urban":"Ulee Jalan","postal_code":24261},{"province":"Nanggroe Aceh Darussalam","city":"Bireuen","district":"Kuala","urban":"Ujong Blang","postal_code":24261},{"province":"Nanggroe Aceh Darussalam","city":"Bireuen","district":"Kuala","urban":"Ujong Blang Mesjid","postal_code":24261},{"province":"Nanggroe Aceh Darussalam","city":"Bireuen","district":"Peusangan Siblah Krueng","urban":"Teupin Raya","postal_code":24261},{"province":"Nanggroe Aceh Darussalam","city":"Bireuen","district":"Peusangan Selatan","urban":"Teupin Reudeup","postal_code":24261},{"province":"Nanggroe Aceh Darussalam","city":"Bireuen","district":"Peusangan","urban":"Tanoh Mirah","postal_code":24261},{"province":"Nanggroe Aceh Darussalam","city":"Bireuen","district":"Jangka","urban":"Tanoh Anoe","postal_code":24261},{"province":"Nanggroe Aceh Darussalam","city":"Bireuen","district":"Peusangan","urban":"Tanjong Paya","postal_code":24261},{"province":"Nanggroe Aceh Darussalam","city":"Bireuen","district":"Jangka","urban":"Tanjongan","postal_code":24261},{"province":"Nanggroe Aceh Darussalam","city":"Bireuen","district":"Peusangan","urban":"Tanjong Nie","postal_code":24261},{"province":"Nanggroe Aceh Darussalam","city":"Bireuen","district":"Peusangan","urban":"Tanjong Mesjid","postal_code":24261},{"province":"Nanggroe Aceh Darussalam","city":"Bireuen","district":"Peusangan Selatan","urban":"Suwak","postal_code":24261},{"province":"Nanggroe Aceh Darussalam","city":"Bireuen","district":"Peusangan Selatan","urban":"Tanjong Beuridi","postal_code":24261},{"province":"Nanggroe Aceh Darussalam","city":"Bireuen","district":"Peusangan","urban":"Seuneubok Rawa","postal_code":24261},{"province":"Nanggroe Aceh Darussalam","city":"Bireuen","district":"Peusangan","urban":"Sagoe","postal_code":24261},{"province":"Nanggroe Aceh Darussalam","city":"Bireuen","district":"Peusangan","urban":"Seuneubok Aceh","postal_code":24261},{"province":"Nanggroe Aceh Darussalam","city":"Bireuen","district":"Peusangan Siblah Krueng","urban":"Rambong Payong","postal_code":24261},{"province":"Nanggroe Aceh Darussalam","city":"Bireuen","district":"Jangka","urban":"Ruseb Ara","postal_code":24261},{"province":"Nanggroe Aceh Darussalam","city":"Bireuen","district":"Jangka","urban":"Ruseb Dayah","postal_code":24261},{"province":"Nanggroe Aceh Darussalam","city":"Bireuen","district":"Jangka","urban":"Punjot","postal_code":24261},{"province":"Nanggroe Aceh Darussalam","city":"Bireuen","district":"Peusangan","urban":"Pulo Ue Baroe","postal_code":24261},{"province":"Nanggroe Aceh Darussalam","city":"Bireuen","district":"Jangka","urban":"Pulo Seuna","postal_code":24261},{"province":"Nanggroe Aceh Darussalam","city":"Bireuen","district":"Jangka","urban":"Pulo U","postal_code":24261},{"province":"Nanggroe Aceh Darussalam","city":"Bireuen","district":"Jangka","urban":"Pulo Reudeup","postal_code":24261},{"province":"Nanggroe Aceh Darussalam","city":"Bireuen","district":"Peusangan","urban":"Pulo Pisang","postal_code":24261},{"province":"Nanggroe Aceh Darussalam","city":"Bireuen","district":"Jangka","urban":"Pulo Pineung Meunasah II","postal_code":24261},{"province":"Nanggroe Aceh Darussalam","city":"Bireuen","district":"Peusangan","urban":"Pulo Naleung","postal_code":24261},{"province":"Nanggroe Aceh Darussalam","city":"Bireuen","district":"Peusangan Selatan","urban":"Pulo Panyang","postal_code":24261},{"province":"Nanggroe Aceh Darussalam","city":"Bireuen","district":"Jangka","urban":"Pulo Iboh/Iboeh","postal_code":24261},{"province":"Nanggroe Aceh Darussalam","city":"Bireuen","district":"Peusangan Selatan","urban":"Pulo Harapan","postal_code":24261},{"province":"Nanggroe Aceh Darussalam","city":"Bireuen","district":"Jangka","urban":"Pulo Blang","postal_code":24261},{"province":"Nanggroe Aceh Darussalam","city":"Bireuen","district":"Peusangan","urban":"Paya Meuneng","postal_code":24261},{"province":"Nanggroe Aceh Darussalam","city":"Bireuen","district":"Peusangan","urban":"Paya Reuhat","postal_code":24261},{"province":"Nanggroe Aceh Darussalam","city":"Bireuen","district":"Peusangan","urban":"Paya Cut","postal_code":24261},{"province":"Nanggroe Aceh Darussalam","city":"Bireuen","district":"Peusangan","urban":"Paya Lipah","postal_code":24261},{"province":"Nanggroe Aceh Darussalam","city":"Bireuen","district":"Jangka","urban":"Paya Bieng","postal_code":24261},{"province":"Nanggroe Aceh Darussalam","city":"Bireuen","district":"Peusangan","urban":"Paya Aboe","postal_code":24261},{"province":"Nanggroe Aceh Darussalam","city":"Bireuen","district":"Peusangan","urban":"Paya Aboe","postal_code":24261},{"province":"Nanggroe Aceh Darussalam","city":"Bireuen","district":"Jangka","urban":"Pante Sukon","postal_code":24261},{"province":"Nanggroe Aceh Darussalam","city":"Bireuen","district":"Peusangan","urban":"Panton Geulima","postal_code":24261},{"province":"Nanggroe Aceh Darussalam","city":"Bireuen","district":"Jangka","urban":"Pante Ranub","postal_code":24261},{"province":"Nanggroe Aceh Darussalam","city":"Bireuen","district":"Peusangan","urban":"Pante Pisang","postal_code":24261},{"province":"Nanggroe Aceh Darussalam","city":"Bireuen","district":"Peusangan","urban":"Pante Piyeu","postal_code":24261},{"province":"Nanggroe Aceh Darussalam","city":"Bireuen","district":"Jangka","urban":"Pante Paku","postal_code":24261},{"province":"Nanggroe Aceh Darussalam","city":"Bireuen","district":"Jangka","urban":"Pante Peusangan","postal_code":24261},{"province":"Nanggroe Aceh Darussalam","city":"Bireuen","district":"Peusangan Siblah Krueng","urban":"Pante Karya","postal_code":24261},{"province":"Nanggroe Aceh Darussalam","city":"Bireuen","district":"Peusangan","urban":"Pante Lhong","postal_code":24261},{"province":"Nanggroe Aceh Darussalam","city":"Bireuen","district":"Peusangan","urban":"Pante Cut","postal_code":24261},{"province":"Nanggroe Aceh Darussalam","city":"Bireuen","district":"Peusangan","urban":"Pante Gajah","postal_code":24261},{"province":"Nanggroe Aceh Darussalam","city":"Bireuen","district":"Peusangan Siblah Krueng","urban":"Pante Baro Kumbang","postal_code":24261},{"province":"Nanggroe Aceh Darussalam","city":"Bireuen","district":"Peusangan Siblah Krueng","urban":"Pante Baro Bukit Panyang","postal_code":24261},{"province":"Nanggroe Aceh Darussalam","city":"Bireuen","district":"Peusangan Siblah Krueng","urban":"Pante Baro Glee Siblah","postal_code":24261},{"province":"Nanggroe Aceh Darussalam","city":"Bireuen","district":"Peusangan","urban":"Pante Ara","postal_code":24261},{"province":"Nanggroe Aceh Darussalam","city":"Bireuen","district":"Peusangan Siblah Krueng","urban":"Paloh Mampree","postal_code":24261},{"province":"Nanggroe Aceh Darussalam","city":"Bireuen","district":"Peusangan","urban":"Neuheuen","postal_code":24261},{"province":"Nanggroe Aceh Darussalam","city":"Bireuen","district":"Peusangan","urban":"Nicah","postal_code":24261},{"province":"Nanggroe Aceh Darussalam","city":"Bireuen","district":"Peusangan","urban":"Paloh","postal_code":24261},{"province":"Nanggroe Aceh Darussalam","city":"Bireuen","district":"Peusangan","urban":"Meunasah Meucap","postal_code":24261},{"province":"Nanggroe Aceh Darussalam","city":"Bireuen","district":"Peusangan","urban":"Meunasah Nibong","postal_code":24261},{"province":"Nanggroe Aceh Darussalam","city":"Bireuen","district":"Jangka","urban":"Meunasah Krueng","postal_code":24261},{"province":"Nanggroe Aceh Darussalam","city":"Bireuen","district":"Peusangan","urban":"Matang Sagoe","postal_code":24261},{"province":"Nanggroe Aceh Darussalam","city":"Bireuen","district":"Peusangan Selatan","urban":"Me Rayeuk","postal_code":24261},{"province":"Nanggroe Aceh Darussalam","city":"Bireuen","district":"Peusangan","urban":"Matang Mesjid","postal_code":24261},{"province":"Nanggroe Aceh Darussalam","city":"Bireuen","district":"Peusangan","urban":"Matang Glumpang II Meunasah Timur","postal_code":24261},{"province":"Nanggroe Aceh Darussalam","city":"Bireuen","district":"Peusangan","urban":"Matang Glumpang II Meunasah Dayah","postal_code":24261},{"province":"Nanggroe Aceh Darussalam","city":"Bireuen","district":"Peusangan","urban":"Mata Mamplam","postal_code":24261},{"province":"Nanggroe Aceh Darussalam","city":"Bireuen","district":"Peusangan","urban":"Matang Cot Paseh","postal_code":24261},{"province":"Nanggroe Aceh Darussalam","city":"Bireuen","district":"Peusangan Selatan","urban":"Mata Ie","postal_code":24261},{"province":"Nanggroe Aceh Darussalam","city":"Bireuen","district":"Peusangan Siblah Krueng","urban":"Lueng Daneun","postal_code":24261},{"province":"Nanggroe Aceh Darussalam","city":"Bireuen","district":"Peusangan Selatan","urban":"Lueng Kuli","postal_code":24261},{"province":"Nanggroe Aceh Darussalam","city":"Bireuen","district":"Peusangan Selatan","urban":"Lueng Baro","postal_code":24261},{"province":"Nanggroe Aceh Darussalam","city":"Bireuen","district":"Jangka","urban":"Linggong","postal_code":24261},{"province":"Nanggroe Aceh Darussalam","city":"Bireuen","district":"Jangka","urban":"Lueng","postal_code":24261},{"province":"Nanggroe Aceh Darussalam","city":"Bireuen","district":"Kuala","urban":"Lancok Pante Ara","postal_code":24261},{"province":"Nanggroe Aceh Darussalam","city":"Bireuen","district":"Kuala","urban":"Lhok Awe Awe","postal_code":24261},{"province":"Nanggroe Aceh Darussalam","city":"Bireuen","district":"Jangka","urban":"Lhok Bugeng","postal_code":24261},{"province":"Nanggroe Aceh Darussalam","city":"Bireuen","district":"Kuala","urban":"Lancok Lancok","postal_code":24261},{"province":"Nanggroe Aceh Darussalam","city":"Bireuen","district":"Jangka","urban":"Lampoh Rayeuk","postal_code":24261},{"province":"Nanggroe Aceh Darussalam","city":"Bireuen","district":"Kuala","urban":"Kuta Baro","postal_code":24261},{"province":"Nanggroe Aceh Darussalam","city":"Bireuen","district":"Jangka","urban":"Lamkuta","postal_code":24261},{"province":"Nanggroe Aceh Darussalam","city":"Bireuen","district":"Peusangan Siblah Krueng","urban":"Kubu Raya","postal_code":24261},{"province":"Nanggroe Aceh Darussalam","city":"Bireuen","district":"Peusangan Siblah Krueng","urban":"Kubu","postal_code":24261},{"province":"Nanggroe Aceh Darussalam","city":"Bireuen","district":"Kuala","urban":"Kuala Raja","postal_code":24261},{"province":"Nanggroe Aceh Darussalam","city":"Bireuen","district":"Jangka","urban":"Kuala Ceurape","postal_code":24261},{"province":"Nanggroe Aceh Darussalam","city":"Bireuen","district":"Kuala","urban":"Krueng Juli Timur","postal_code":24261},{"province":"Nanggroe Aceh Darussalam","city":"Bireuen","district":"Peusangan","urban":"Krueng Dheue","postal_code":24261},{"province":"Nanggroe Aceh Darussalam","city":"Bireuen","district":"Kuala","urban":"Krueng Juli Barat","postal_code":24261},{"province":"Nanggroe Aceh Darussalam","city":"Bireuen","district":"Peusangan Selatan","urban":"Krueng Beukah","postal_code":24261},{"province":"Nanggroe Aceh Darussalam","city":"Bireuen","district":"Peusangan","urban":"Krueng Baro Mesjid","postal_code":24261},{"province":"Nanggroe Aceh Darussalam","city":"Bireuen","district":"Peusangan","urban":"Keude Tanjong","postal_code":24261},{"province":"Nanggroe Aceh Darussalam","city":"Bireuen","district":"Peusangan","urban":"Krueng Baro Babah Krueng","postal_code":24261},{"province":"Nanggroe Aceh Darussalam","city":"Bireuen","district":"Peusangan","urban":"Karieng","postal_code":24261},{"province":"Nanggroe Aceh Darussalam","city":"Bireuen","district":"Peusangan","urban":"Keude Matang Glumpang II","postal_code":24261},{"province":"Nanggroe Aceh Darussalam","city":"Bireuen","district":"Kuala","urban":"Kareung (Kareueng)","postal_code":24261},{"province":"Nanggroe Aceh Darussalam","city":"Bireuen","district":"Jangka","urban":"Kambuk (Kambuek)","postal_code":24261},{"province":"Nanggroe Aceh Darussalam","city":"Bireuen","district":"Peusangan","urban":"Kapa","postal_code":24261},{"province":"Nanggroe Aceh Darussalam","city":"Bireuen","district":"Jangka","urban":"Jangka Alue U","postal_code":24261},{"province":"Nanggroe Aceh Darussalam","city":"Bireuen","district":"Jangka","urban":"Jangka Keutapang","postal_code":24261},{"province":"Nanggroe Aceh Darussalam","city":"Bireuen","district":"Jangka","urban":"Jangka Mesjid","postal_code":24261},{"province":"Nanggroe Aceh Darussalam","city":"Bireuen","district":"Jangka","urban":"Jangka Alue Bie","postal_code":24261},{"province":"Nanggroe Aceh Darussalam","city":"Bireuen","district":"Jangka","urban":"Jangka Alue","postal_code":24261},{"province":"Nanggroe Aceh Darussalam","city":"Bireuen","district":"Peusangan Selatan","urban":"Geulanggang Labu","postal_code":24261},{"province":"Nanggroe Aceh Darussalam","city":"Bireuen","district":"Jangka","urban":"Geundot","postal_code":24261},{"province":"Nanggroe Aceh Darussalam","city":"Bireuen","district":"Kuala","urban":"Glumpang Baroh","postal_code":24261},{"province":"Nanggroe Aceh Darussalam","city":"Bireuen","district":"Peusangan","urban":"Gampong Putoh","postal_code":24261},{"province":"Nanggroe Aceh Darussalam","city":"Bireuen","district":"Peusangan","urban":"Gampong Raya Dagang","postal_code":24261},{"province":"Nanggroe Aceh Darussalam","city":"Bireuen","district":"Peusangan","urban":"Gampong Raya Tambo","postal_code":24261},{"province":"Nanggroe Aceh Darussalam","city":"Bireuen","district":"Peusangan","urban":"Gampong Baroh","postal_code":24261},{"province":"Nanggroe Aceh Darussalam","city":"Bireuen","district":"Jangka","urban":"Gampong Meulinteung","postal_code":24261},{"province":"Nanggroe Aceh Darussalam","city":"Bireuen","district":"Peusangan Selatan","urban":"Darussalam","postal_code":24261},{"province":"Nanggroe Aceh Darussalam","city":"Bireuen","district":"Peusangan Siblah Krueng","urban":"Dayah Baroe","postal_code":24261},{"province":"Nanggroe Aceh Darussalam","city":"Bireuen","district":"Kuala","urban":"Cot U Sibak","postal_code":24261},{"province":"Nanggroe Aceh Darussalam","city":"Bireuen","district":"Kuala","urban":"Cot Unoe","postal_code":24261},{"province":"Nanggroe Aceh Darussalam","city":"Bireuen","district":"Peusangan Selatan","urban":"Darul Aman","postal_code":24261},{"province":"Nanggroe Aceh Darussalam","city":"Bireuen","district":"Peusangan Siblah Krueng","urban":"Cot Saleut","postal_code":24261},{"province":"Nanggroe Aceh Darussalam","city":"Bireuen","district":"Kuala","urban":"Cot Trieng","postal_code":24261},{"province":"Nanggroe Aceh Darussalam","city":"Bireuen","district":"Peusangan","urban":"Cot Puuk","postal_code":24261},{"province":"Nanggroe Aceh Darussalam","city":"Bireuen","district":"Peusangan","urban":"Cot Puuk","postal_code":24261},{"province":"Nanggroe Aceh Darussalam","city":"Bireuen","district":"Peusangan","urban":"Cot Rabo Baroh","postal_code":24261},{"province":"Nanggroe Aceh Darussalam","city":"Bireuen","district":"Peusangan","urban":"Cot Nga","postal_code":24261},{"province":"Nanggroe Aceh Darussalam","city":"Bireuen","district":"Peusangan","urban":"Cot Panjoe","postal_code":24261},{"province":"Nanggroe Aceh Darussalam","city":"Bireuen","district":"Kuala","urban":"Cot Kuta","postal_code":24261},{"province":"Nanggroe Aceh Darussalam","city":"Bireuen","district":"Kuala","urban":"Cot Lagasawa","postal_code":24261},{"province":"Nanggroe Aceh Darussalam","city":"Bireuen","district":"Peusangan","urban":"Cot Keuranji","postal_code":24261},{"province":"Nanggroe Aceh Darussalam","city":"Bireuen","district":"Peusangan","urban":"Cot Ijue (Ieju)","postal_code":24261},{"province":"Nanggroe Aceh Darussalam","city":"Bireuen","district":"Peusangan","urban":"Cot Keumudee","postal_code":24261},{"province":"Nanggroe Aceh Darussalam","city":"Bireuen","district":"Kuala","urban":"Cot Glumpang","postal_code":24261},{"province":"Nanggroe Aceh Darussalam","city":"Bireuen","district":"Peusangan","urban":"Cot Buket","postal_code":24261},{"province":"Nanggroe Aceh Darussalam","city":"Bireuen","district":"Peusangan","urban":"Cot Girek","postal_code":24261},{"province":"Nanggroe Aceh Darussalam","city":"Bireuen","district":"Kuala","urban":"Cot Batee","postal_code":24261},{"province":"Nanggroe Aceh Darussalam","city":"Bireuen","district":"Peusangan","urban":"Cot Bada Baroh","postal_code":24261},{"province":"Nanggroe Aceh Darussalam","city":"Bireuen","district":"Peusangan","urban":"Cot Bada Tunong","postal_code":24261},{"province":"Nanggroe Aceh Darussalam","city":"Bireuen","district":"Peusangan","urban":"Cot Bada Barat","postal_code":24261},{"province":"Nanggroe Aceh Darussalam","city":"Bireuen","district":"Peusangan Siblah Krueng","urban":"Cot Aneuk Batee","postal_code":24261},{"province":"Nanggroe Aceh Darussalam","city":"Bireuen","district":"Peusangan Selatan","urban":"Ceubrek","postal_code":24261},{"province":"Nanggroe Aceh Darussalam","city":"Bireuen","district":"Peusangan Siblah Krueng","urban":"Buket Sudan","postal_code":24261},{"province":"Nanggroe Aceh Darussalam","city":"Bireuen","district":"Jangka","urban":"Bugak Mesjid","postal_code":24261},{"province":"Nanggroe Aceh Darussalam","city":"Bireuen","district":"Jangka","urban":"Bugeng","postal_code":24261},{"province":"Nanggroe Aceh Darussalam","city":"Bireuen","district":"Jangka","urban":"Bugak Krueng","postal_code":24261},{"province":"Nanggroe Aceh Darussalam","city":"Bireuen","district":"Jangka","urban":"Bugak Krueng Mate","postal_code":24261},{"province":"Nanggroe Aceh Darussalam","city":"Bireuen","district":"Peusangan","urban":"Blang Panjoe","postal_code":24261},{"province":"Nanggroe Aceh Darussalam","city":"Bireuen","district":"Peusangan","urban":"Blang Rambong","postal_code":24261},{"province":"Nanggroe Aceh Darussalam","city":"Bireuen","district":"Jangka","urban":"Bugak Blang","postal_code":24261},{"province":"Nanggroe Aceh Darussalam","city":"Bireuen","district":"Peusangan","urban":"Blang Geulanggang","postal_code":24261},{"province":"Nanggroe Aceh Darussalam","city":"Bireuen","district":"Peusangan Selatan","urban":"Blang Mane","postal_code":24261},{"province":"Nanggroe Aceh Darussalam","city":"Bireuen","district":"Peusangan Selatan","urban":"Blang Pala","postal_code":24261},{"province":"Nanggroe Aceh Darussalam","city":"Bireuen","district":"Peusangan","urban":"Blang Dalam","postal_code":24261},{"province":"Nanggroe Aceh Darussalam","city":"Bireuen","district":"Peusangan Selatan","urban":"Blang Cut","postal_code":24261},{"province":"Nanggroe Aceh Darussalam","city":"Bireuen","district":"Peusangan","urban":"Blang Asan","postal_code":24261},{"province":"Nanggroe Aceh Darussalam","city":"Bireuen","district":"Peusangan","urban":"Blang Cut","postal_code":24261},{"province":"Nanggroe Aceh Darussalam","city":"Bireuen","district":"Peusangan Siblah Krueng","urban":"Blang Cirih","postal_code":24261},{"province":"Nanggroe Aceh Darussalam","city":"Bireuen","district":"Peusangan","urban":"Bayu","postal_code":24261},{"province":"Nanggroe Aceh Darussalam","city":"Bireuen","district":"Jangka","urban":"Barat Lanyan","postal_code":24261},{"province":"Nanggroe Aceh Darussalam","city":"Bireuen","district":"Kuala","urban":"Balee Kuyun","postal_code":24261},{"province":"Nanggroe Aceh Darussalam","city":"Bireuen","district":"Jangka","urban":"Bada Barat","postal_code":24261},{"province":"Nanggroe Aceh Darussalam","city":"Bireuen","district":"Jangka","urban":"Bada Timur","postal_code":24261},{"province":"Nanggroe Aceh Darussalam","city":"Bireuen","district":"Peusangan Siblah Krueng","urban":"Awe Geutah Paya","postal_code":24261},{"province":"Nanggroe Aceh Darussalam","city":"Bireuen","district":"Peusangan Siblah Krueng","urban":"Awe Geutah","postal_code":24261},{"province":"Nanggroe Aceh Darussalam","city":"Bireuen","district":"Peusangan","urban":"Alue Udeung","postal_code":24261},{"province":"Nanggroe Aceh Darussalam","city":"Bireuen","district":"Peusangan","urban":"Asan Bideun","postal_code":24261},{"province":"Nanggroe Aceh Darussalam","city":"Bireuen","district":"Jangka","urban":"Alue Kuta","postal_code":24261},{"province":"Nanggroe Aceh Darussalam","city":"Bireuen","district":"Peusangan Siblah Krueng","urban":"Alue Krueb","postal_code":24261},{"province":"Nanggroe Aceh Darussalam","city":"Bireuen","district":"Peusangan","urban":"Alue Peuno","postal_code":24261},{"province":"Nanggroe Aceh Darussalam","city":"Bireuen","district":"Peusangan Siblah Krueng","urban":"Alue Keupula (Kupula)","postal_code":24261},{"province":"Nanggroe Aceh Darussalam","city":"Bireuen","district":"Peusangan Siblah Krueng","urban":"Alue Glumpang Sbl.K","postal_code":24261},{"province":"Nanggroe Aceh Darussalam","city":"Bireuen","district":"Peusangan Siblah Krueng","urban":"Alue Iet","postal_code":24261},{"province":"Nanggroe Aceh Darussalam","city":"Bireuen","district":"Peusangan","urban":"Alue Glumpang Ba","postal_code":24261},{"province":"Nanggroe Aceh Darussalam","city":"Bireuen","district":"Jangka","urban":"Alue Buya Pasi","postal_code":24261},{"province":"Nanggroe Aceh Darussalam","city":"Bireuen","district":"Jangka","urban":"Alue Bie Pusong","postal_code":24261},{"province":"Nanggroe Aceh Darussalam","city":"Bireuen","district":"Jangka","urban":"Alue Buya","postal_code":24261},{"province":"Nanggroe Aceh Darussalam","city":"Bireuen","district":"Jangka","urban":"Abeuk Jaloh","postal_code":24261},{"province":"Nanggroe Aceh Darussalam","city":"Bireuen","district":"Jangka","urban":"Alue Bayeu Utang","postal_code":24261}]