[{"province":"Nanggroe Aceh Darussalam","city":"Bireuen","district":"Peulimbang (Plimbang)","urban":"Uteun Sikumbong","postal_code":24263},{"province":"Nanggroe Aceh Darussalam","city":"Bireuen","district":"Peulimbang (Plimbang)","urban":"Uteun Rungkom","postal_code":24263},{"province":"Nanggroe Aceh Darussalam","city":"Bireuen","district":"Jeunieb","urban":"Uteun Pupaleh","postal_code":24263},{"province":"Nanggroe Aceh Darussalam","city":"Bireuen","district":"Pandrah","urban":"Uteun Kruet","postal_code":24263},{"province":"Nanggroe Aceh Darussalam","city":"Bireuen","district":"Jeunieb","urban":"Ulee Rabo","postal_code":24263},{"province":"Nanggroe Aceh Darussalam","city":"Bireuen","district":"Jeunieb","urban":"Ulee Blang","postal_code":24263},{"province":"Nanggroe Aceh Darussalam","city":"Bireuen","district":"Jeunieb","urban":"Ulee Gajah","postal_code":24263},{"province":"Nanggroe Aceh Darussalam","city":"Bireuen","district":"Jeunieb","urban":"Tufah","postal_code":24263},{"province":"Nanggroe Aceh Darussalam","city":"Bireuen","district":"Peulimbang (Plimbang)","urban":"Teupin Panah","postal_code":24263},{"province":"Nanggroe Aceh Darussalam","city":"Bireuen","district":"Jeunieb","urban":"Teupin Keupula","postal_code":24263},{"province":"Nanggroe Aceh Darussalam","city":"Bireuen","district":"Peulimbang (Plimbang)","urban":"Seuneubok Seumawe","postal_code":24263},{"province":"Nanggroe Aceh Darussalam","city":"Bireuen","district":"Peulimbang (Plimbang)","urban":"Seuneubok Teungoh","postal_code":24263},{"province":"Nanggroe Aceh Darussalam","city":"Bireuen","district":"Jeunieb","urban":"Tanjong Bungong","postal_code":24263},{"province":"Nanggroe Aceh Darussalam","city":"Bireuen","district":"Peulimbang (Plimbang)","urban":"Seuneubok Nalan","postal_code":24263},{"province":"Nanggroe Aceh Darussalam","city":"Bireuen","district":"Peulimbang (Plimbang)","urban":"Seuneubok Plimbang","postal_code":24263},{"province":"Nanggroe Aceh Darussalam","city":"Bireuen","district":"Peulimbang (Plimbang)","urban":"Seuneubok Punti","postal_code":24263},{"province":"Nanggroe Aceh Darussalam","city":"Bireuen","district":"Peulimbang (Plimbang)","urban":"Seuneubok Aceh","postal_code":24263},{"province":"Nanggroe Aceh Darussalam","city":"Bireuen","district":"Pandrah","urban":"Seuneubok Baro","postal_code":24263},{"province":"Nanggroe Aceh Darussalam","city":"Bireuen","district":"Peulimbang (Plimbang)","urban":"Puuek (Pu Uk)","postal_code":24263},{"province":"Nanggroe Aceh Darussalam","city":"Bireuen","district":"Peulimbang (Plimbang)","urban":"Rambong Payong","postal_code":24263},{"province":"Nanggroe Aceh Darussalam","city":"Bireuen","district":"Jeunieb","urban":"Sampo Ajad (Sampoi Ajat)","postal_code":24263},{"province":"Nanggroe Aceh Darussalam","city":"Bireuen","district":"Jeunieb","urban":"Paya Bili","postal_code":24263},{"province":"Nanggroe Aceh Darussalam","city":"Bireuen","district":"Jeunieb","urban":"Pulo Rangkileh","postal_code":24263},{"province":"Nanggroe Aceh Darussalam","city":"Bireuen","district":"Pandrah","urban":"Pandrah Kandeh","postal_code":24263},{"province":"Nanggroe Aceh Darussalam","city":"Bireuen","district":"Pandrah","urban":"Panton","postal_code":24263},{"province":"Nanggroe Aceh Darussalam","city":"Bireuen","district":"Pandrah","urban":"Panton Bili","postal_code":24263},{"province":"Nanggroe Aceh Darussalam","city":"Bireuen","district":"Peulimbang (Plimbang)","urban":"Padang Kasab","postal_code":24263},{"province":"Nanggroe Aceh Darussalam","city":"Bireuen","district":"Peulimbang (Plimbang)","urban":"Paloh Pupu","postal_code":24263},{"province":"Nanggroe Aceh Darussalam","city":"Bireuen","district":"Pandrah","urban":"Pandrah Janeng","postal_code":24263},{"province":"Nanggroe Aceh Darussalam","city":"Bireuen","district":"Pandrah","urban":"Nase Barat","postal_code":24263},{"province":"Nanggroe Aceh Darussalam","city":"Bireuen","district":"Pandrah","urban":"Nase Me","postal_code":24263},{"province":"Nanggroe Aceh Darussalam","city":"Bireuen","district":"Jeunieb","urban":"Meunasah Tunong Lueng","postal_code":24263},{"province":"Nanggroe Aceh Darussalam","city":"Bireuen","district":"Pandrah","urban":"Meunasah Reudeup","postal_code":24263},{"province":"Nanggroe Aceh Darussalam","city":"Bireuen","district":"Pandrah","urban":"Meunasah Teungoh","postal_code":24263},{"province":"Nanggroe Aceh Darussalam","city":"Bireuen","district":"Jeunieb","urban":"Meunasah Tambo","postal_code":24263},{"province":"Nanggroe Aceh Darussalam","city":"Bireuen","district":"Jeunieb","urban":"Meunasah Kota","postal_code":24263},{"province":"Nanggroe Aceh Darussalam","city":"Bireuen","district":"Jeunieb","urban":"Meunasah Lueng","postal_code":24263},{"province":"Nanggroe Aceh Darussalam","city":"Bireuen","district":"Jeunieb","urban":"Meunasah Dayah","postal_code":24263},{"province":"Nanggroe Aceh Darussalam","city":"Bireuen","district":"Jeunieb","urban":"Meunasah Keupula","postal_code":24263},{"province":"Nanggroe Aceh Darussalam","city":"Bireuen","district":"Jeunieb","urban":"Meunasah Keutapang","postal_code":24263},{"province":"Nanggroe Aceh Darussalam","city":"Bireuen","district":"Jeunieb","urban":"Meunasah Alue","postal_code":24263},{"province":"Nanggroe Aceh Darussalam","city":"Bireuen","district":"Jeunieb","urban":"Meunasah Blang","postal_code":24263},{"province":"Nanggroe Aceh Darussalam","city":"Bireuen","district":"Jeunieb","urban":"Matang Teungoh","postal_code":24263},{"province":"Nanggroe Aceh Darussalam","city":"Bireuen","district":"Jeunieb","urban":"Matang Nibong","postal_code":24263},{"province":"Nanggroe Aceh Darussalam","city":"Bireuen","district":"Peulimbang (Plimbang)","urban":"Matang Kulee","postal_code":24263},{"province":"Nanggroe Aceh Darussalam","city":"Bireuen","district":"Jeunieb","urban":"Lhueng Tengoh","postal_code":24263},{"province":"Nanggroe Aceh Darussalam","city":"Bireuen","district":"Jeunieb","urban":"Matang Bangka","postal_code":24263},{"province":"Nanggroe Aceh Darussalam","city":"Bireuen","district":"Jeunieb","urban":"Lhok Kulam","postal_code":24263},{"province":"Nanggroe Aceh Darussalam","city":"Bireuen","district":"Pandrah","urban":"Lhok Dagang","postal_code":24263},{"province":"Nanggroe Aceh Darussalam","city":"Bireuen","district":"Jeunieb","urban":"Lheue Barat","postal_code":24263},{"province":"Nanggroe Aceh Darussalam","city":"Bireuen","district":"Jeunieb","urban":"Lheue Simpang","postal_code":24263},{"province":"Nanggroe Aceh Darussalam","city":"Bireuen","district":"Pandrah","urban":"Lancok Ulim","postal_code":24263},{"province":"Nanggroe Aceh Darussalam","city":"Bireuen","district":"Peulimbang (Plimbang)","urban":"Lancok Bungo","postal_code":24263},{"province":"Nanggroe Aceh Darussalam","city":"Bireuen","district":"Jeunieb","urban":"Lampoh Oe","postal_code":24263},{"province":"Nanggroe Aceh Darussalam","city":"Bireuen","district":"Jeunieb","urban":"Lancang","postal_code":24263},{"province":"Nanggroe Aceh Darussalam","city":"Bireuen","district":"Peulimbang (Plimbang)","urban":"Kuta Trieng","postal_code":24263},{"province":"Nanggroe Aceh Darussalam","city":"Bireuen","district":"Pandrah","urban":"Kuta Reusep/Rusep","postal_code":24263},{"province":"Nanggroe Aceh Darussalam","city":"Bireuen","district":"Jeunieb","urban":"Keude Jeunieb","postal_code":24263},{"province":"Nanggroe Aceh Darussalam","city":"Bireuen","district":"Peulimbang (Plimbang)","urban":"Keude Plimbang","postal_code":24263},{"province":"Nanggroe Aceh Darussalam","city":"Bireuen","district":"Peulimbang (Plimbang)","urban":"Krueng Baro/Baru","postal_code":24263},{"province":"Nanggroe Aceh Darussalam","city":"Bireuen","district":"Jeunieb","urban":"Janggot Seungko","postal_code":24263},{"province":"Nanggroe Aceh Darussalam","city":"Bireuen","district":"Jeunieb","urban":"Jeumpa Sikureung","postal_code":24263},{"province":"Nanggroe Aceh Darussalam","city":"Bireuen","district":"Peulimbang (Plimbang)","urban":"Jambo Dalam","postal_code":24263},{"province":"Nanggroe Aceh Darussalam","city":"Bireuen","district":"Pandrah","urban":"Garot","postal_code":24263},{"province":"Nanggroe Aceh Darussalam","city":"Bireuen","district":"Jeunieb","urban":"Dayah Blang Raleu","postal_code":24263},{"province":"Nanggroe Aceh Darussalam","city":"Bireuen","district":"Peulimbang (Plimbang)","urban":"Garab","postal_code":24263},{"province":"Nanggroe Aceh Darussalam","city":"Bireuen","district":"Pandrah","urban":"Gampong Blang","postal_code":24263},{"province":"Nanggroe Aceh Darussalam","city":"Bireuen","district":"Jeunieb","urban":"Darul Aman","postal_code":24263},{"province":"Nanggroe Aceh Darussalam","city":"Bireuen","district":"Jeunieb","urban":"Dayah Baro","postal_code":24263},{"province":"Nanggroe Aceh Darussalam","city":"Bireuen","district":"Pandrah","urban":"Cot Leubeng","postal_code":24263},{"province":"Nanggroe Aceh Darussalam","city":"Bireuen","district":"Jeunieb","urban":"Cot Geulumpang Baroh","postal_code":24263},{"province":"Nanggroe Aceh Darussalam","city":"Bireuen","district":"Jeunieb","urban":"Cot Geulumpang Tunong","postal_code":24263},{"province":"Nanggroe Aceh Darussalam","city":"Bireuen","district":"Peulimbang (Plimbang)","urban":"Cot Geulumpang","postal_code":24263},{"province":"Nanggroe Aceh Darussalam","city":"Bireuen","district":"Pandrah","urban":"Blang Sama Gadeng","postal_code":24263},{"province":"Nanggroe Aceh Darussalam","city":"Bireuen","district":"Jeunieb","urban":"Blang Mee Timur","postal_code":24263},{"province":"Nanggroe Aceh Darussalam","city":"Bireuen","district":"Jeunieb","urban":"Blang Neubok","postal_code":24263},{"province":"Nanggroe Aceh Darussalam","city":"Bireuen","district":"Jeunieb","urban":"Blang Poroh","postal_code":24263},{"province":"Nanggroe Aceh Darussalam","city":"Bireuen","district":"Jeunieb","urban":"Blang Lancang","postal_code":24263},{"province":"Nanggroe Aceh Darussalam","city":"Bireuen","district":"Jeunieb","urban":"Blang Mee Barat","postal_code":24263},{"province":"Nanggroe Aceh Darussalam","city":"Bireuen","district":"Pandrah","urban":"Bantayan","postal_code":24263},{"province":"Nanggroe Aceh Darussalam","city":"Bireuen","district":"Peulimbang (Plimbang)","urban":"Balee Daka","postal_code":24263},{"province":"Nanggroe Aceh Darussalam","city":"Bireuen","district":"Jeunieb","urban":"Alue Seutui","postal_code":24263},{"province":"Nanggroe Aceh Darussalam","city":"Bireuen","district":"Pandrah","urban":"Alue Igeueh","postal_code":24263},{"province":"Nanggroe Aceh Darussalam","city":"Bireuen","district":"Jeunieb","urban":"Alue Lamsaba","postal_code":24263}]