[{"province":"Nanggroe Aceh Darussalam","city":"Bireuen","district":"Peudada","urban":"Tanjong Seulamat","postal_code":24262},{"province":"Nanggroe Aceh Darussalam","city":"Bireuen","district":"Peudada","urban":"Teungku Di Bathon","postal_code":24262},{"province":"Nanggroe Aceh Darussalam","city":"Bireuen","district":"Peudada","urban":"Sawang","postal_code":24262},{"province":"Nanggroe Aceh Darussalam","city":"Bireuen","district":"Peudada","urban":"Seuneubok Paya","postal_code":24262},{"province":"Nanggroe Aceh Darussalam","city":"Bireuen","district":"Peudada","urban":"Pinto Rimba","postal_code":24262},{"province":"Nanggroe Aceh Darussalam","city":"Bireuen","district":"Peudada","urban":"Pulo Ara","postal_code":24262},{"province":"Nanggroe Aceh Darussalam","city":"Bireuen","district":"Peudada","urban":"Pulo Lawang","postal_code":24262},{"province":"Nanggroe Aceh Darussalam","city":"Bireuen","district":"Peudada","urban":"Paya Bunot","postal_code":24262},{"province":"Nanggroe Aceh Darussalam","city":"Bireuen","district":"Peudada","urban":"Paya Timur","postal_code":24262},{"province":"Nanggroe Aceh Darussalam","city":"Bireuen","district":"Peudada","urban":"Paya","postal_code":24262},{"province":"Nanggroe Aceh Darussalam","city":"Bireuen","district":"Peudada","urban":"Paya Barat","postal_code":24262},{"province":"Nanggroe Aceh Darussalam","city":"Bireuen","district":"Peudada","urban":"Mulia","postal_code":24262},{"province":"Nanggroe Aceh Darussalam","city":"Bireuen","district":"Peudada","urban":"Neubok Naleung","postal_code":24262},{"province":"Nanggroe Aceh Darussalam","city":"Bireuen","district":"Peudada","urban":"Meunasah Teungoh","postal_code":24262},{"province":"Nanggroe Aceh Darussalam","city":"Bireuen","district":"Peudada","urban":"Meunasah Tunong","postal_code":24262},{"province":"Nanggroe Aceh Darussalam","city":"Bireuen","district":"Peudada","urban":"Meunasah Tambo","postal_code":24262},{"province":"Nanggroe Aceh Darussalam","city":"Bireuen","district":"Peudada","urban":"Meunasah Rabo","postal_code":24262},{"province":"Nanggroe Aceh Darussalam","city":"Bireuen","district":"Peudada","urban":"Meunasah Mesjid","postal_code":24262},{"province":"Nanggroe Aceh Darussalam","city":"Bireuen","district":"Peudada","urban":"Meunasah Pulo","postal_code":24262},{"province":"Nanggroe Aceh Darussalam","city":"Bireuen","district":"Peudada","urban":"Meunasah Cut","postal_code":24262},{"province":"Nanggroe Aceh Darussalam","city":"Bireuen","district":"Peudada","urban":"Meunasah Krueng","postal_code":24262},{"province":"Nanggroe Aceh Darussalam","city":"Bireuen","district":"Peudada","urban":"Meunasah Blang","postal_code":24262},{"province":"Nanggroe Aceh Darussalam","city":"Bireuen","district":"Peudada","urban":"Meunasah Bungo","postal_code":24262},{"province":"Nanggroe Aceh Darussalam","city":"Bireuen","district":"Peudada","urban":"Meunasah Alue","postal_code":24262},{"province":"Nanggroe Aceh Darussalam","city":"Bireuen","district":"Peudada","urban":"Meunasah Baroh","postal_code":24262},{"province":"Nanggroe Aceh Darussalam","city":"Bireuen","district":"Peudada","urban":"Lawang","postal_code":24262},{"province":"Nanggroe Aceh Darussalam","city":"Bireuen","district":"Peudada","urban":"Matang Pasi","postal_code":24262},{"province":"Nanggroe Aceh Darussalam","city":"Bireuen","district":"Peudada","urban":"Matang Reuleut","postal_code":24262},{"province":"Nanggroe Aceh Darussalam","city":"Bireuen","district":"Peudada","urban":"Keude Alue Rheing","postal_code":24262},{"province":"Nanggroe Aceh Darussalam","city":"Bireuen","district":"Peudada","urban":"Kukue","postal_code":24262},{"province":"Nanggroe Aceh Darussalam","city":"Bireuen","district":"Peudada","urban":"Kampong Baro","postal_code":24262},{"province":"Nanggroe Aceh Darussalam","city":"Bireuen","district":"Peudada","urban":"Karieng","postal_code":24262},{"province":"Nanggroe Aceh Darussalam","city":"Bireuen","district":"Peudada","urban":"Jabet","postal_code":24262},{"province":"Nanggroe Aceh Darussalam","city":"Bireuen","district":"Peudada","urban":"Hagu","postal_code":24262},{"province":"Nanggroe Aceh Darussalam","city":"Bireuen","district":"Peudada","urban":"Jaba","postal_code":24262},{"province":"Nanggroe Aceh Darussalam","city":"Bireuen","district":"Peudada","urban":"Dayah Mon Ara","postal_code":24262},{"province":"Nanggroe Aceh Darussalam","city":"Bireuen","district":"Peudada","urban":"Garot","postal_code":24262},{"province":"Nanggroe Aceh Darussalam","city":"Bireuen","district":"Peudada","urban":"Cot Kruet","postal_code":24262},{"province":"Nanggroe Aceh Darussalam","city":"Bireuen","district":"Peudada","urban":"Cot Laot","postal_code":24262},{"province":"Nanggroe Aceh Darussalam","city":"Bireuen","district":"Peudada","urban":"Calok","postal_code":24262},{"province":"Nanggroe Aceh Darussalam","city":"Bireuen","district":"Peudada","urban":"Cot Keutapang","postal_code":24262},{"province":"Nanggroe Aceh Darussalam","city":"Bireuen","district":"Peudada","urban":"Buket Paya","postal_code":24262},{"province":"Nanggroe Aceh Darussalam","city":"Bireuen","district":"Peudada","urban":"Blang Matang","postal_code":24262},{"province":"Nanggroe Aceh Darussalam","city":"Bireuen","district":"Peudada","urban":"Blang Rangkuluh","postal_code":24262},{"province":"Nanggroe Aceh Darussalam","city":"Bireuen","district":"Peudada","urban":"Blang Beururu","postal_code":24262},{"province":"Nanggroe Aceh Darussalam","city":"Bireuen","district":"Peudada","urban":"Blang Glumpang","postal_code":24262},{"province":"Nanggroe Aceh Darussalam","city":"Bireuen","district":"Peudada","urban":"Blang Kubu","postal_code":24262},{"province":"Nanggroe Aceh Darussalam","city":"Bireuen","district":"Peudada","urban":"Blang Bati","postal_code":24262},{"province":"Nanggroe Aceh Darussalam","city":"Bireuen","district":"Peudada","urban":"Ara Bungong","postal_code":24262},{"province":"Nanggroe Aceh Darussalam","city":"Bireuen","district":"Peudada","urban":"Alue Keutapang","postal_code":24262},{"province":"Nanggroe Aceh Darussalam","city":"Bireuen","district":"Peudada","urban":"Alue Sijuek","postal_code":24262},{"province":"Nanggroe Aceh Darussalam","city":"Bireuen","district":"Peudada","urban":"Alue Gandai","postal_code":24262}]