[{"province":"Nanggroe Aceh Darussalam","city":"Aceh Utara","district":"Simpang Kramat (Keramat)","urban":"Paya Teungoh","postal_code":24313},{"province":"Nanggroe Aceh Darussalam","city":"Aceh Utara","district":"Simpang Kramat (Keramat)","urban":"Seunebok Punti","postal_code":24313},{"province":"Nanggroe Aceh Darussalam","city":"Aceh Utara","district":"Simpang Kramat (Keramat)","urban":"Pase Sentosa/Sentausa","postal_code":24313},{"province":"Nanggroe Aceh Darussalam","city":"Aceh Utara","district":"Simpang Kramat (Keramat)","urban":"Paya Leupah","postal_code":24313},{"province":"Nanggroe Aceh Darussalam","city":"Aceh Utara","district":"Simpang Kramat (Keramat)","urban":"Meunasah Teungoh","postal_code":24313},{"province":"Nanggroe Aceh Darussalam","city":"Aceh Utara","district":"Simpang Kramat (Keramat)","urban":"Mancang","postal_code":24313},{"province":"Nanggroe Aceh Darussalam","city":"Aceh Utara","district":"Simpang Kramat (Keramat)","urban":"Meunasah Baroh","postal_code":24313},{"province":"Nanggroe Aceh Darussalam","city":"Aceh Utara","district":"Simpang Kramat (Keramat)","urban":"Meunasah Dayah Spk","postal_code":24313},{"province":"Nanggroe Aceh Darussalam","city":"Aceh Utara","district":"Simpang Kramat (Keramat)","urban":"Keude Simpang Empat (IV)","postal_code":24313},{"province":"Nanggroe Aceh Darussalam","city":"Aceh Utara","district":"Simpang Kramat (Keramat)","urban":"Kilo Meter VI","postal_code":24313},{"province":"Nanggroe Aceh Darussalam","city":"Aceh Utara","district":"Simpang Kramat (Keramat)","urban":"Kilo Meter VIII","postal_code":24313},{"province":"Nanggroe Aceh Darussalam","city":"Aceh Utara","district":"Simpang Kramat (Keramat)","urban":"Ie Tarek I","postal_code":24313},{"province":"Nanggroe Aceh Darussalam","city":"Aceh Utara","district":"Simpang Kramat (Keramat)","urban":"Ie Tarek II","postal_code":24313},{"province":"Nanggroe Aceh Darussalam","city":"Aceh Utara","district":"Simpang Kramat (Keramat)","urban":"Kebon Baru/Baro","postal_code":24313},{"province":"Nanggroe Aceh Darussalam","city":"Aceh Utara","district":"Simpang Kramat (Keramat)","urban":"Alue Badee","postal_code":24313},{"province":"Nanggroe Aceh Darussalam","city":"Aceh Utara","district":"Simpang Kramat (Keramat)","urban":"Blang Raleue","postal_code":24313},{"province":"Nanggroe Aceh Darussalam","city":"Lhokseumawe","district":"Banda Sakti","urban":"Simpang Empat","postal_code":24313}]