[{"province":"Nanggroe Aceh Darussalam","city":"Lhokseumawe","district":"Banda Sakti","urban":"Ujong Blang","postal_code":24351},{"province":"Nanggroe Aceh Darussalam","city":"Lhokseumawe","district":"Banda Sakti","urban":"Ulee Jalan","postal_code":24351},{"province":"Nanggroe Aceh Darussalam","city":"Lhokseumawe","district":"Banda Sakti","urban":"Uteun Bayi","postal_code":24351},{"province":"Nanggroe Aceh Darussalam","city":"Lhokseumawe","district":"Banda Sakti","urban":"Lancang Garam","postal_code":24351},{"province":"Nanggroe Aceh Darussalam","city":"Lhokseumawe","district":"Banda Sakti","urban":"Mon Geudong","postal_code":24351},{"province":"Nanggroe Aceh Darussalam","city":"Lhokseumawe","district":"Banda Sakti","urban":"Pusong Lama","postal_code":24351},{"province":"Nanggroe Aceh Darussalam","city":"Lhokseumawe","district":"Banda Sakti","urban":"Kampung Jawa Lama","postal_code":24351},{"province":"Nanggroe Aceh Darussalam","city":"Lhokseumawe","district":"Banda Sakti","urban":"Keude Aceh","postal_code":24351},{"province":"Nanggroe Aceh Darussalam","city":"Lhokseumawe","district":"Banda Sakti","urban":"Kuta Blang","postal_code":24351},{"province":"Nanggroe Aceh Darussalam","city":"Lhokseumawe","district":"Banda Sakti","urban":"Hagu Teungoh","postal_code":24351},{"province":"Nanggroe Aceh Darussalam","city":"Lhokseumawe","district":"Banda Sakti","urban":"Hagu Selatan","postal_code":24351},{"province":"Nanggroe Aceh Darussalam","city":"Lhokseumawe","district":"Banda Sakti","urban":"Banda Masem","postal_code":24351},{"province":"Nanggroe Aceh Darussalam","city":"Lhokseumawe","district":"Banda Sakti","urban":"Hagu Barat Laut","postal_code":24351}]