[{"province":"Nanggroe Aceh Darussalam","city":"Bireuen","district":"Kuta Blang","urban":"Ujong Blang","postal_code":24356},{"province":"Nanggroe Aceh Darussalam","city":"Bireuen","district":"Kuta Blang","urban":"Ulee Pusong","postal_code":24356},{"province":"Nanggroe Aceh Darussalam","city":"Bireuen","district":"Kuta Blang","urban":"Tingkeum Baro","postal_code":24356},{"province":"Nanggroe Aceh Darussalam","city":"Bireuen","district":"Kuta Blang","urban":"Tingkeum Manyang","postal_code":24356},{"province":"Nanggroe Aceh Darussalam","city":"Bireuen","district":"Ganda Pura","urban":"Ujong Bayu","postal_code":24356},{"province":"Nanggroe Aceh Darussalam","city":"Bireuen","district":"Ganda Pura","urban":"Teupin Siron","postal_code":24356},{"province":"Nanggroe Aceh Darussalam","city":"Bireuen","district":"Kuta Blang","urban":"Tanjong Siron","postal_code":24356},{"province":"Nanggroe Aceh Darussalam","city":"Bireuen","district":"Ganda Pura","urban":"Tanjong Mesjid","postal_code":24356},{"province":"Nanggroe Aceh Darussalam","city":"Bireuen","district":"Ganda Pura","urban":"Tanjong Raya","postal_code":24356},{"province":"Nanggroe Aceh Darussalam","city":"Bireuen","district":"Ganda Pura","urban":"Samuti Makmur","postal_code":24356},{"province":"Nanggroe Aceh Darussalam","city":"Bireuen","district":"Ganda Pura","urban":"Samuti Rayeuk","postal_code":24356},{"province":"Nanggroe Aceh Darussalam","city":"Bireuen","district":"Ganda Pura","urban":"Tanjong Bungong","postal_code":24356},{"province":"Nanggroe Aceh Darussalam","city":"Bireuen","district":"Ganda Pura","urban":"Samuti Aman","postal_code":24356},{"province":"Nanggroe Aceh Darussalam","city":"Bireuen","district":"Ganda Pura","urban":"Samuti Krueng","postal_code":24356},{"province":"Nanggroe Aceh Darussalam","city":"Bireuen","district":"Kuta Blang","urban":"Pulo Reudeup","postal_code":24356},{"province":"Nanggroe Aceh Darussalam","city":"Bireuen","district":"Kuta Blang","urban":"Pulo Siron/Siren","postal_code":24356},{"province":"Nanggroe Aceh Darussalam","city":"Bireuen","district":"Kuta Blang","urban":"Rancong","postal_code":24356},{"province":"Nanggroe Aceh Darussalam","city":"Bireuen","district":"Kuta Blang","urban":"Pulo Nga","postal_code":24356},{"province":"Nanggroe Aceh Darussalam","city":"Bireuen","district":"Ganda Pura","urban":"Pulo Gisa","postal_code":24356},{"province":"Nanggroe Aceh Darussalam","city":"Bireuen","district":"Kuta Blang","urban":"Pulo Awe","postal_code":24356},{"province":"Nanggroe Aceh Darussalam","city":"Bireuen","district":"Kuta Blang","urban":"Pulo Blang","postal_code":24356},{"province":"Nanggroe Aceh Darussalam","city":"Bireuen","district":"Ganda Pura","urban":"Paya Seupat","postal_code":24356},{"province":"Nanggroe Aceh Darussalam","city":"Bireuen","district":"Kuta Blang","urban":"Paya Rangkuluh","postal_code":24356},{"province":"Nanggroe Aceh Darussalam","city":"Bireuen","district":"Ganda Pura","urban":"Paya Baro","postal_code":24356},{"province":"Nanggroe Aceh Darussalam","city":"Bireuen","district":"Ganda Pura","urban":"Paya Kareung","postal_code":24356},{"province":"Nanggroe Aceh Darussalam","city":"Bireuen","district":"Kuta Blang","urban":"Parang Sikureung","postal_code":24356},{"province":"Nanggroe Aceh Darussalam","city":"Bireuen","district":"Ganda Pura","urban":"Pante Sikeumbong (Sikumbong)","postal_code":24356},{"province":"Nanggroe Aceh Darussalam","city":"Bireuen","district":"Kuta Blang","urban":"Paloh Peuradi","postal_code":24356},{"province":"Nanggroe Aceh Darussalam","city":"Bireuen","district":"Kuta Blang","urban":"Paloh Raya","postal_code":24356},{"province":"Nanggroe Aceh Darussalam","city":"Bireuen","district":"Ganda Pura","urban":"Paloh Me","postal_code":24356},{"province":"Nanggroe Aceh Darussalam","city":"Bireuen","district":"Ganda Pura","urban":"Paloh Kayee Kunyet","postal_code":24356},{"province":"Nanggroe Aceh Darussalam","city":"Bireuen","district":"Kuta Blang","urban":"Paloh Dama","postal_code":24356},{"province":"Nanggroe Aceh Darussalam","city":"Bireuen","district":"Ganda Pura","urban":"Mon Jeureujak","postal_code":24356},{"province":"Nanggroe Aceh Darussalam","city":"Bireuen","district":"Ganda Pura","urban":"Mon Keulayu","postal_code":24356},{"province":"Nanggroe Aceh Darussalam","city":"Bireuen","district":"Ganda Pura","urban":"Lingka Kuta","postal_code":24356},{"province":"Nanggroe Aceh Darussalam","city":"Bireuen","district":"Ganda Pura","urban":"Mon Jambee","postal_code":24356},{"province":"Nanggroe Aceh Darussalam","city":"Bireuen","district":"Kuta Blang","urban":"Meuse","postal_code":24356},{"province":"Nanggroe Aceh Darussalam","city":"Bireuen","district":"Ganda Pura","urban":"Lhok Mambang","postal_code":24356},{"province":"Nanggroe Aceh Darussalam","city":"Bireuen","district":"Kuta Blang","urban":"Lhok Nga","postal_code":24356},{"province":"Nanggroe Aceh Darussalam","city":"Bireuen","district":"Ganda Pura","urban":"Lapang Barat","postal_code":24356},{"province":"Nanggroe Aceh Darussalam","city":"Bireuen","district":"Ganda Pura","urban":"Lapang Timur","postal_code":24356},{"province":"Nanggroe Aceh Darussalam","city":"Bireuen","district":"Kuta Blang","urban":"Kulu Kuta","postal_code":24356},{"province":"Nanggroe Aceh Darussalam","city":"Bireuen","district":"Kuta Blang","urban":"Keurumbok","postal_code":24356},{"province":"Nanggroe Aceh Darussalam","city":"Bireuen","district":"Kuta Blang","urban":"Kulu","postal_code":24356},{"province":"Nanggroe Aceh Darussalam","city":"Bireuen","district":"Ganda Pura","urban":"Keude Lapang","postal_code":24356},{"province":"Nanggroe Aceh Darussalam","city":"Bireuen","district":"Kuta Blang","urban":"Jambo Kajeung","postal_code":24356},{"province":"Nanggroe Aceh Darussalam","city":"Bireuen","district":"Kuta Blang","urban":"Jarommah Baroh (Jarummah Baroh)","postal_code":24356},{"province":"Nanggroe Aceh Darussalam","city":"Bireuen","district":"Kuta Blang","urban":"Jarommah Me (Jarummahme)","postal_code":24356},{"province":"Nanggroe Aceh Darussalam","city":"Bireuen","district":"Kuta Blang","urban":"Imbudee (Iembudee)","postal_code":24356},{"province":"Nanggroe Aceh Darussalam","city":"Bireuen","district":"Kuta Blang","urban":"Gle Putoh","postal_code":24356},{"province":"Nanggroe Aceh Darussalam","city":"Bireuen","district":"Kuta Blang","urban":"Gle Putoh","postal_code":24356},{"province":"Nanggroe Aceh Darussalam","city":"Bireuen","district":"Ganda Pura","urban":"Geurugok","postal_code":24356},{"province":"Nanggroe Aceh Darussalam","city":"Bireuen","district":"Kuta Blang","urban":"Geulanggang Panah","postal_code":24356},{"province":"Nanggroe Aceh Darussalam","city":"Bireuen","district":"Kuta Blang","urban":"Geulanggang Rayeuk","postal_code":24356},{"province":"Nanggroe Aceh Darussalam","city":"Bireuen","district":"Kuta Blang","urban":"Dayah Panjoe","postal_code":24356},{"province":"Nanggroe Aceh Darussalam","city":"Bireuen","district":"Kuta Blang","urban":"Geulanggang Meunjee","postal_code":24356},{"province":"Nanggroe Aceh Darussalam","city":"Bireuen","district":"Ganda Pura","urban":"Dama Kawan","postal_code":24356},{"province":"Nanggroe Aceh Darussalam","city":"Bireuen","district":"Kuta Blang","urban":"Dayah Mesjid","postal_code":24356},{"province":"Nanggroe Aceh Darussalam","city":"Bireuen","district":"Ganda Pura","urban":"Cot Tunong","postal_code":24356},{"province":"Nanggroe Aceh Darussalam","city":"Bireuen","district":"Kuta Blang","urban":"Crung/Crueng Kumbang","postal_code":24356},{"province":"Nanggroe Aceh Darussalam","city":"Bireuen","district":"Ganda Pura","urban":"Cot Rambat","postal_code":24356},{"province":"Nanggroe Aceh Darussalam","city":"Bireuen","district":"Ganda Pura","urban":"Cot Tube/Teubee","postal_code":24356},{"province":"Nanggroe Aceh Darussalam","city":"Bireuen","district":"Ganda Pura","urban":"Cot Tufah/Tupah","postal_code":24356},{"province":"Nanggroe Aceh Darussalam","city":"Bireuen","district":"Kuta Blang","urban":"Cot Me","postal_code":24356},{"province":"Nanggroe Aceh Darussalam","city":"Bireuen","district":"Ganda Pura","urban":"Cot Puuk","postal_code":24356},{"province":"Nanggroe Aceh Darussalam","city":"Bireuen","district":"Kuta Blang","urban":"Cot Baroh","postal_code":24356},{"province":"Nanggroe Aceh Darussalam","city":"Bireuen","district":"Ganda Pura","urban":"Cot Jabet","postal_code":24356},{"province":"Nanggroe Aceh Darussalam","city":"Bireuen","district":"Ganda Pura","urban":"Cot Mane","postal_code":24356},{"province":"Nanggroe Aceh Darussalam","city":"Bireuen","district":"Kuta Blang","urban":"Cot Ara","postal_code":24356},{"province":"Nanggroe Aceh Darussalam","city":"Bireuen","district":"Ganda Pura","urban":"Ceubo","postal_code":24356},{"province":"Nanggroe Aceh Darussalam","city":"Bireuen","district":"Kuta Blang","urban":"Bukit/Buket Dalam","postal_code":24356},{"province":"Nanggroe Aceh Darussalam","city":"Bireuen","district":"Ganda Pura","urban":"Blang Rheue","postal_code":24356},{"province":"Nanggroe Aceh Darussalam","city":"Bireuen","district":"Kuta Blang","urban":"Blang Mee","postal_code":24356},{"province":"Nanggroe Aceh Darussalam","city":"Bireuen","district":"Kuta Blang","urban":"Blang Panjoe","postal_code":24356},{"province":"Nanggroe Aceh Darussalam","city":"Bireuen","district":"Ganda Pura","urban":"Blang Guron","postal_code":24356},{"province":"Nanggroe Aceh Darussalam","city":"Bireuen","district":"Ganda Pura","urban":"Blang Keude","postal_code":24356},{"province":"Nanggroe Aceh Darussalam","city":"Bireuen","district":"Ganda Pura","urban":"Blang Kubu","postal_code":24356},{"province":"Nanggroe Aceh Darussalam","city":"Bireuen","district":"Kuta Blang","urban":"Babah Suak","postal_code":24356},{"province":"Nanggroe Aceh Darussalam","city":"Bireuen","district":"Kuta Blang","urban":"Balee Me","postal_code":24356},{"province":"Nanggroe Aceh Darussalam","city":"Bireuen","district":"Ganda Pura","urban":"Alue Mangki","postal_code":24356},{"province":"Nanggroe Aceh Darussalam","city":"Bireuen","district":"Kuta Blang","urban":"Babah Jurong","postal_code":24356}]