[{"province":"Nanggroe Aceh Darussalam","city":"Aceh Utara","district":"Cot Girek","urban":"Ulee Gampong","postal_code":24352},{"province":"Nanggroe Aceh Darussalam","city":"Aceh Utara","district":"Cot Girek","urban":"Trieng Lhoksukon Selatan","postal_code":24352},{"province":"Nanggroe Aceh Darussalam","city":"Aceh Utara","district":"Cot Girek","urban":"U Baro (Meunasah U Baro)","postal_code":24352},{"province":"Nanggroe Aceh Darussalam","city":"Aceh Utara","district":"Cot Girek","urban":"Pucok Alue","postal_code":24352},{"province":"Nanggroe Aceh Darussalam","city":"Aceh Utara","district":"Cot Girek","urban":"Seuneubok Baro","postal_code":24352},{"province":"Nanggroe Aceh Darussalam","city":"Aceh Utara","district":"Cot Girek","urban":"Seupeng","postal_code":24352},{"province":"Nanggroe Aceh Darussalam","city":"Aceh Utara","district":"Cot Girek","urban":"Meurebo","postal_code":24352},{"province":"Nanggroe Aceh Darussalam","city":"Aceh Utara","district":"Cot Girek","urban":"Matang Teungoh L","postal_code":24352},{"province":"Nanggroe Aceh Darussalam","city":"Aceh Utara","district":"Cot Girek","urban":"Lhok Reuhat","postal_code":24352},{"province":"Nanggroe Aceh Darussalam","city":"Aceh Utara","district":"Cot Girek","urban":"Lueng Baro","postal_code":24352},{"province":"Nanggroe Aceh Darussalam","city":"Aceh Utara","district":"Cot Girek","urban":"Kampung Tempel","postal_code":24352},{"province":"Nanggroe Aceh Darussalam","city":"Aceh Utara","district":"Cot Girek","urban":"Jeulikat","postal_code":24352},{"province":"Nanggroe Aceh Darussalam","city":"Aceh Utara","district":"Cot Girek","urban":"Kampung Bantan","postal_code":24352},{"province":"Nanggroe Aceh Darussalam","city":"Aceh Utara","district":"Cot Girek","urban":"Drien Dua","postal_code":24352},{"province":"Nanggroe Aceh Darussalam","city":"Aceh Utara","district":"Cot Girek","urban":"Cot Girek","postal_code":24352},{"province":"Nanggroe Aceh Darussalam","city":"Aceh Utara","district":"Cot Girek","urban":"Ceumpeudak","postal_code":24352},{"province":"Nanggroe Aceh Darussalam","city":"Aceh Utara","district":"Cot Girek","urban":"Beurandang Krueng","postal_code":24352},{"province":"Nanggroe Aceh Darussalam","city":"Aceh Utara","district":"Cot Girek","urban":"Batu XII","postal_code":24352},{"province":"Nanggroe Aceh Darussalam","city":"Aceh Utara","district":"Cot Girek","urban":"Beurandang Asan","postal_code":24352},{"province":"Nanggroe Aceh Darussalam","city":"Aceh Utara","district":"Cot Girek","urban":"Beurandang Dayah","postal_code":24352},{"province":"Nanggroe Aceh Darussalam","city":"Aceh Utara","district":"Cot Girek","urban":"Ara Lkoksukon Selatan","postal_code":24352},{"province":"Nanggroe Aceh Darussalam","city":"Aceh Utara","district":"Cot Girek","urban":"Alue Leuhob","postal_code":24352},{"province":"Nanggroe Aceh Darussalam","city":"Aceh Utara","district":"Cot Girek","urban":"Alue Seumambu","postal_code":24352},{"province":"Nanggroe Aceh Darussalam","city":"Aceh Utara","district":"Cot Girek","urban":"Alue Drien LS","postal_code":24352},{"province":"Nanggroe Aceh Darussalam","city":"Lhokseumawe","district":"Muara Dua","urban":"Uteun Kot","postal_code":24352},{"province":"Nanggroe Aceh Darussalam","city":"Lhokseumawe","district":"Muara Satu","urban":"Ujong Pacu","postal_code":24352},{"province":"Nanggroe Aceh Darussalam","city":"Lhokseumawe","district":"Muara Dua","urban":"Paya Bili","postal_code":24352},{"province":"Nanggroe Aceh Darussalam","city":"Lhokseumawe","district":"Muara Dua","urban":"Paya Punteut (Punteuet)","postal_code":24352},{"province":"Nanggroe Aceh Darussalam","city":"Lhokseumawe","district":"Muara Dua","urban":"Paloh Batee","postal_code":24352},{"province":"Nanggroe Aceh Darussalam","city":"Lhokseumawe","district":"Muara Dua","urban":"Panggoi","postal_code":24352},{"province":"Nanggroe Aceh Darussalam","city":"Lhokseumawe","district":"Muara Satu","urban":"Paloh Punti","postal_code":24352},{"province":"Nanggroe Aceh Darussalam","city":"Lhokseumawe","district":"Muara Satu","urban":"Meuria Paloh","postal_code":24352},{"province":"Nanggroe Aceh Darussalam","city":"Lhokseumawe","district":"Muara Satu","urban":"Padang Sakti","postal_code":24352},{"province":"Nanggroe Aceh Darussalam","city":"Lhokseumawe","district":"Muara Dua","urban":"Meunasah Mee","postal_code":24352},{"province":"Nanggroe Aceh Darussalam","city":"Lhokseumawe","district":"Muara Dua","urban":"Meunasah Mesjid","postal_code":24352},{"province":"Nanggroe Aceh Darussalam","city":"Lhokseumawe","district":"Muara Dua","urban":"Meunasah Blang /Blt","postal_code":24352},{"province":"Nanggroe Aceh Darussalam","city":"Lhokseumawe","district":"Muara Dua","urban":"Meunasah Manyang","postal_code":24352},{"province":"Nanggroe Aceh Darussalam","city":"Lhokseumawe","district":"Muara Satu","urban":"Meunasah Dayah","postal_code":24352},{"province":"Nanggroe Aceh Darussalam","city":"Lhokseumawe","district":"Muara Dua","urban":"Meunasah Alue","postal_code":24352},{"province":"Nanggroe Aceh Darussalam","city":"Lhokseumawe","district":"Muara Dua","urban":"Lhok Mon Puteh","postal_code":24352},{"province":"Nanggroe Aceh Darussalam","city":"Lhokseumawe","district":"Muara Dua","urban":"Keude Cunda","postal_code":24352},{"province":"Nanggroe Aceh Darussalam","city":"Lhokseumawe","district":"Muara Satu","urban":"Cot Trieng","postal_code":24352},{"province":"Nanggroe Aceh Darussalam","city":"Lhokseumawe","district":"Muara Dua","urban":"Cut Mamplam","postal_code":24352},{"province":"Nanggroe Aceh Darussalam","city":"Lhokseumawe","district":"Muara Dua","urban":"Cot Girek Kandang","postal_code":24352},{"province":"Nanggroe Aceh Darussalam","city":"Lhokseumawe","district":"Muara Satu","urban":"Blang Pulo","postal_code":24352},{"province":"Nanggroe Aceh Darussalam","city":"Lhokseumawe","district":"Muara Satu","urban":"Blang Panyang","postal_code":24352},{"province":"Nanggroe Aceh Darussalam","city":"Lhokseumawe","district":"Muara Dua","urban":"Blang Pohroh","postal_code":24352},{"province":"Nanggroe Aceh Darussalam","city":"Lhokseumawe","district":"Muara Satu","urban":"Blang Naleung Mameh","postal_code":24352},{"province":"Nanggroe Aceh Darussalam","city":"Lhokseumawe","district":"Muara Dua","urban":"Blang Crum","postal_code":24352},{"province":"Nanggroe Aceh Darussalam","city":"Lhokseumawe","district":"Muara Satu","urban":"Batu Phat Barat","postal_code":24352},{"province":"Nanggroe Aceh Darussalam","city":"Lhokseumawe","district":"Muara Satu","urban":"Batu Phat Timur","postal_code":24352},{"province":"Nanggroe Aceh Darussalam","city":"Lhokseumawe","district":"Muara Dua","urban":"Alue Awe","postal_code":24352}]