[{"province":"Nanggroe Aceh Darussalam","city":"Aceh Utara","district":"Banda Baro","urban":"Ulee Nyeu","postal_code":24376},{"province":"Nanggroe Aceh Darussalam","city":"Aceh Utara","district":"Nisam","urban":"Tingkeum","postal_code":24376},{"province":"Nanggroe Aceh Darussalam","city":"Aceh Utara","district":"Nisam","urban":"Ulee Blang","postal_code":24376},{"province":"Nanggroe Aceh Darussalam","city":"Aceh Utara","district":"Banda Baro","urban":"Paya Uleue","postal_code":24376},{"province":"Nanggroe Aceh Darussalam","city":"Aceh Utara","district":"Banda Baro","urban":"Sangkelan","postal_code":24376},{"province":"Nanggroe Aceh Darussalam","city":"Aceh Utara","district":"Nisam","urban":"Seuneubok","postal_code":24376},{"province":"Nanggroe Aceh Darussalam","city":"Aceh Utara","district":"Banda Baro","urban":"Paya Beunyot","postal_code":24376},{"province":"Nanggroe Aceh Darussalam","city":"Aceh Utara","district":"Banda Baro","urban":"Paya Dua","postal_code":24376},{"province":"Nanggroe Aceh Darussalam","city":"Aceh Utara","district":"Nisam","urban":"Panton","postal_code":24376},{"province":"Nanggroe Aceh Darussalam","city":"Aceh Utara","district":"Nisam","urban":"Paloh Mambu","postal_code":24376},{"province":"Nanggroe Aceh Darussalam","city":"Aceh Utara","district":"Nisam","urban":"Paloh Mamprei/Mampree","postal_code":24376},{"province":"Nanggroe Aceh Darussalam","city":"Aceh Utara","district":"Nisam","urban":"Meunasah Krueng","postal_code":24376},{"province":"Nanggroe Aceh Darussalam","city":"Aceh Utara","district":"Nisam","urban":"Meunasah Meucat","postal_code":24376},{"province":"Nanggroe Aceh Darussalam","city":"Aceh Utara","district":"Nisam","urban":"Paloh Kayee Kunyet","postal_code":24376},{"province":"Nanggroe Aceh Darussalam","city":"Aceh Utara","district":"Nisam","urban":"Jeulikat","postal_code":24376},{"province":"Nanggroe Aceh Darussalam","city":"Aceh Utara","district":"Nisam","urban":"Meunasah Alue","postal_code":24376},{"province":"Nanggroe Aceh Darussalam","city":"Aceh Utara","district":"Nisam","urban":"Meunasah Cut","postal_code":24376},{"province":"Nanggroe Aceh Darussalam","city":"Aceh Utara","district":"Nisam","urban":"Gampong Teungoh","postal_code":24376},{"province":"Nanggroe Aceh Darussalam","city":"Aceh Utara","district":"Banda Baro","urban":"Jamuan","postal_code":24376},{"province":"Nanggroe Aceh Darussalam","city":"Aceh Utara","district":"Nisam Antara","urban":"Gampong Seumirah","postal_code":24376},{"province":"Nanggroe Aceh Darussalam","city":"Aceh Utara","district":"Nisam","urban":"Gampong Keutapang","postal_code":24376},{"province":"Nanggroe Aceh Darussalam","city":"Aceh Utara","district":"Nisam","urban":"Gampong Meunasah Rayeuk","postal_code":24376},{"province":"Nanggroe Aceh Darussalam","city":"Aceh Utara","district":"Nisam","urban":"Gampong Peunayan","postal_code":24376},{"province":"Nanggroe Aceh Darussalam","city":"Aceh Utara","district":"Nisam Antara","urban":"Gampong Blang Pohroh","postal_code":24376},{"province":"Nanggroe Aceh Darussalam","city":"Aceh Utara","district":"Nisam Antara","urban":"Gampong Darussalam","postal_code":24376},{"province":"Nanggroe Aceh Darussalam","city":"Aceh Utara","district":"Nisam Antara","urban":"Gampong Blang Jrat","postal_code":24376},{"province":"Nanggroe Aceh Darussalam","city":"Aceh Utara","district":"Nisam","urban":"Gampong Barat","postal_code":24376},{"province":"Nanggroe Aceh Darussalam","city":"Aceh Utara","district":"Nisam Antara","urban":"Gampong Alue Papeun","postal_code":24376},{"province":"Nanggroe Aceh Darussalam","city":"Aceh Utara","district":"Nisam","urban":"Cot Me","postal_code":24376},{"province":"Nanggroe Aceh Darussalam","city":"Aceh Utara","district":"Nisam Antara","urban":"Gampong Alue Dua","postal_code":24376},{"province":"Nanggroe Aceh Darussalam","city":"Aceh Utara","district":"Nisam","urban":"Cot Leupee","postal_code":24376},{"province":"Nanggroe Aceh Darussalam","city":"Aceh Utara","district":"Nisam","urban":"Cot Mambong","postal_code":24376},{"province":"Nanggroe Aceh Darussalam","city":"Aceh Utara","district":"Banda Baro","urban":"Cot Jabet","postal_code":24376},{"province":"Nanggroe Aceh Darussalam","city":"Aceh Utara","district":"Banda Baro","urban":"Blang Pala","postal_code":24376},{"province":"Nanggroe Aceh Darussalam","city":"Aceh Utara","district":"Nisam","urban":"Blang Karieng","postal_code":24376},{"province":"Nanggroe Aceh Darussalam","city":"Aceh Utara","district":"Nisam","urban":"Cot Entung","postal_code":24376},{"province":"Nanggroe Aceh Darussalam","city":"Aceh Utara","district":"Nisam","urban":"Blang Dalam Baroh","postal_code":24376},{"province":"Nanggroe Aceh Darussalam","city":"Aceh Utara","district":"Nisam","urban":"Blang Dalam Geunteng","postal_code":24376},{"province":"Nanggroe Aceh Darussalam","city":"Aceh Utara","district":"Nisam","urban":"Blang Dalam Tunong","postal_code":24376},{"province":"Nanggroe Aceh Darussalam","city":"Aceh Utara","district":"Nisam","urban":"Binjee","postal_code":24376},{"province":"Nanggroe Aceh Darussalam","city":"Aceh Utara","district":"Nisam","urban":"Blang Crok","postal_code":24376},{"province":"Nanggroe Aceh Darussalam","city":"Aceh Utara","district":"Banda Baro","urban":"Alue Keureunyai","postal_code":24376},{"province":"Nanggroe Aceh Darussalam","city":"Aceh Utara","district":"Nisam","urban":"Beunot (Meunasah Beunot)","postal_code":24376},{"province":"Nanggroe Aceh Darussalam","city":"Aceh Utara","district":"Nisam","urban":"Alue Bili","postal_code":24376}]