[{"province":"Nanggroe Aceh Darussalam","city":"Aceh Utara","district":"Kuta Makmur","urban":"Sido Mulyo","postal_code":24371},{"province":"Nanggroe Aceh Darussalam","city":"Aceh Utara","district":"Kuta Makmur","urban":"Seuneubok Drien","postal_code":24371},{"province":"Nanggroe Aceh Darussalam","city":"Aceh Utara","district":"Kuta Makmur","urban":"Pulo Rayeuk/Rayek","postal_code":24371},{"province":"Nanggroe Aceh Darussalam","city":"Aceh Utara","district":"Kuta Makmur","urban":"Saweuk","postal_code":24371},{"province":"Nanggroe Aceh Darussalam","city":"Aceh Utara","district":"Kuta Makmur","urban":"Pulo Iboh/Iboih","postal_code":24371},{"province":"Nanggroe Aceh Darussalam","city":"Aceh Utara","district":"Kuta Makmur","urban":"Panton Rayeuk II","postal_code":24371},{"province":"Nanggroe Aceh Darussalam","city":"Aceh Utara","district":"Kuta Makmur","urban":"Pulo Barat","postal_code":24371},{"province":"Nanggroe Aceh Darussalam","city":"Aceh Utara","district":"Kuta Makmur","urban":"Mulieng/Muling Meucat","postal_code":24371},{"province":"Nanggroe Aceh Darussalam","city":"Aceh Utara","district":"Kuta Makmur","urban":"Panton Rayeuk I","postal_code":24371},{"province":"Nanggroe Aceh Darussalam","city":"Aceh Utara","district":"Kuta Makmur","urban":"Meuria (Meuriya)","postal_code":24371},{"province":"Nanggroe Aceh Darussalam","city":"Aceh Utara","district":"Kuta Makmur","urban":"Mulieng/Muling Manyang","postal_code":24371},{"province":"Nanggroe Aceh Darussalam","city":"Aceh Utara","district":"Kuta Makmur","urban":"Meunasah Kulam","postal_code":24371},{"province":"Nanggroe Aceh Darussalam","city":"Aceh Utara","district":"Kuta Makmur","urban":"Meunasah Kumbang","postal_code":24371},{"province":"Nanggroe Aceh Darussalam","city":"Aceh Utara","district":"Kuta Makmur","urban":"Meunyecut Bahagia","postal_code":24371},{"province":"Nanggroe Aceh Darussalam","city":"Aceh Utara","district":"Kuta Makmur","urban":"Meunasah Buket/Bukit","postal_code":24371},{"province":"Nanggroe Aceh Darussalam","city":"Aceh Utara","district":"Kuta Makmur","urban":"Meunasah Dayah Meunara (Mon Ara)","postal_code":24371},{"province":"Nanggroe Aceh Darussalam","city":"Aceh Utara","district":"Kuta Makmur","urban":"Lhok Jok","postal_code":24371},{"province":"Nanggroe Aceh Darussalam","city":"Aceh Utara","district":"Kuta Makmur","urban":"Meunasah Blang Ara","postal_code":24371},{"province":"Nanggroe Aceh Darussalam","city":"Aceh Utara","district":"Kuta Makmur","urban":"Krueng Seupeng","postal_code":24371},{"province":"Nanggroe Aceh Darussalam","city":"Aceh Utara","district":"Kuta Makmur","urban":"Lang Kuta","postal_code":24371},{"province":"Nanggroe Aceh Darussalam","city":"Aceh Utara","district":"Kuta Makmur","urban":"Krueng Manyang","postal_code":24371},{"province":"Nanggroe Aceh Darussalam","city":"Aceh Utara","district":"Kuta Makmur","urban":"Krueng Seunong","postal_code":24371},{"province":"Nanggroe Aceh Darussalam","city":"Aceh Utara","district":"Kuta Makmur","urban":"Keude Krueng","postal_code":24371},{"province":"Nanggroe Aceh Darussalam","city":"Aceh Utara","district":"Kuta Makmur","urban":"Keureusek","postal_code":24371},{"province":"Nanggroe Aceh Darussalam","city":"Aceh Utara","district":"Kuta Makmur","urban":"Guha Uleue","postal_code":24371},{"province":"Nanggroe Aceh Darussalam","city":"Aceh Utara","district":"Kuta Makmur","urban":"Keude Blang Ara","postal_code":24371},{"province":"Nanggroe Aceh Darussalam","city":"Aceh Utara","district":"Kuta Makmur","urban":"Cot Seuminyong (Sumiyong)","postal_code":24371},{"province":"Nanggroe Aceh Darussalam","city":"Aceh Utara","district":"Kuta Makmur","urban":"Cot Seutui","postal_code":24371},{"province":"Nanggroe Aceh Darussalam","city":"Aceh Utara","district":"Kuta Makmur","urban":"Cot Meunye Cut","postal_code":24371},{"province":"Nanggroe Aceh Darussalam","city":"Aceh Utara","district":"Kuta Makmur","urban":"Cot Rheue","postal_code":24371},{"province":"Nanggroe Aceh Darussalam","city":"Aceh Utara","district":"Kuta Makmur","urban":"Cempeudak (Ceumpeudak)","postal_code":24371},{"province":"Nanggroe Aceh Darussalam","city":"Aceh Utara","district":"Kuta Makmur","urban":"Cot Merbo/Meureubo","postal_code":24371},{"province":"Nanggroe Aceh Darussalam","city":"Aceh Utara","district":"Kuta Makmur","urban":"Blang Riek","postal_code":24371},{"province":"Nanggroe Aceh Darussalam","city":"Aceh Utara","district":"Kuta Makmur","urban":"Blang Talon","postal_code":24371},{"province":"Nanggroe Aceh Darussalam","city":"Aceh Utara","district":"Kuta Makmur","urban":"Bayu","postal_code":24371},{"province":"Nanggroe Aceh Darussalam","city":"Aceh Utara","district":"Kuta Makmur","urban":"Blang Ado","postal_code":24371},{"province":"Nanggroe Aceh Darussalam","city":"Aceh Utara","district":"Kuta Makmur","urban":"Blang Gurah","postal_code":24371},{"province":"Nanggroe Aceh Darussalam","city":"Aceh Utara","district":"Kuta Makmur","urban":"Babah Lueng","postal_code":24371},{"province":"Nanggroe Aceh Darussalam","city":"Aceh Utara","district":"Kuta Makmur","urban":"Alue Rambe","postal_code":24371}]