[{"province":"Nanggroe Aceh Darussalam","city":"Aceh Utara","district":"Pirak Timur","urban":"Ulee Blang","postal_code":24386},{"province":"Nanggroe Aceh Darussalam","city":"Aceh Utara","district":"Matangkuli","urban":"Tutong","postal_code":24386},{"province":"Nanggroe Aceh Darussalam","city":"Aceh Utara","district":"Matangkuli","urban":"Ude","postal_code":24386},{"province":"Nanggroe Aceh Darussalam","city":"Aceh Utara","district":"Matangkuli","urban":"Ujong Kulam","postal_code":24386},{"province":"Nanggroe Aceh Darussalam","city":"Aceh Utara","district":"Paya Bakong","urban":"Tunong Krueng","postal_code":24386},{"province":"Nanggroe Aceh Darussalam","city":"Aceh Utara","district":"Matangkuli","urban":"Tumpok Perlak","postal_code":24386},{"province":"Nanggroe Aceh Darussalam","city":"Aceh Utara","district":"Paya Bakong","urban":"Tumpok Mesjid","postal_code":24386},{"province":"Nanggroe Aceh Darussalam","city":"Aceh Utara","district":"Matangkuli","urban":"Tumpok Barat","postal_code":24386},{"province":"Nanggroe Aceh Darussalam","city":"Aceh Utara","district":"Pirak Timur","urban":"Trieng Krueng Kreh","postal_code":24386},{"province":"Nanggroe Aceh Darussalam","city":"Aceh Utara","district":"Matangkuli","urban":"Tj. Teungku Kari","postal_code":24386},{"province":"Nanggroe Aceh Darussalam","city":"Aceh Utara","district":"Matangkuli","urban":"Trieng Teupin Keubue","postal_code":24386},{"province":"Nanggroe Aceh Darussalam","city":"Aceh Utara","district":"Matangkuli","urban":"Teupin Keubue","postal_code":24386},{"province":"Nanggroe Aceh Darussalam","city":"Aceh Utara","district":"Pirak Timur","urban":"Teupin U","postal_code":24386},{"province":"Nanggroe Aceh Darussalam","city":"Aceh Utara","district":"Matangkuli","urban":"Teungoh Seuleumak","postal_code":24386},{"province":"Nanggroe Aceh Darussalam","city":"Aceh Utara","district":"Matangkuli","urban":"Teungoh Glumpang VII","postal_code":24386},{"province":"Nanggroe Aceh Darussalam","city":"Aceh Utara","district":"Matangkuli","urban":"Teungoh Pirak","postal_code":24386},{"province":"Nanggroe Aceh Darussalam","city":"Aceh Utara","district":"Paya Bakong","urban":"Teungku Dibanda Pirak","postal_code":24386},{"province":"Nanggroe Aceh Darussalam","city":"Aceh Utara","district":"Paya Bakong","urban":"Teungku Dibanda Tektek","postal_code":24386},{"province":"Nanggroe Aceh Darussalam","city":"Aceh Utara","district":"Matangkuli","urban":"Tanjong Teungku Ali","postal_code":24386},{"province":"Nanggroe Aceh Darussalam","city":"Aceh Utara","district":"Pirak Timur","urban":"Tanjong Seurikui","postal_code":24386},{"province":"Nanggroe Aceh Darussalam","city":"Aceh Utara","district":"Paya Bakong","urban":"Tanjong Drien","postal_code":24386},{"province":"Nanggroe Aceh Darussalam","city":"Aceh Utara","district":"Matangkuli","urban":"Tanjong Haji Muda","postal_code":24386},{"province":"Nanggroe Aceh Darussalam","city":"Aceh Utara","district":"Paya Bakong","urban":"Tanjong Beurunyong","postal_code":24386},{"province":"Nanggroe Aceh Darussalam","city":"Aceh Utara","district":"Matangkuli","urban":"Tanjong Babah Krueng","postal_code":24386},{"province":"Nanggroe Aceh Darussalam","city":"Aceh Utara","district":"Matangkuli","urban":"Siren","postal_code":24386},{"province":"Nanggroe Aceh Darussalam","city":"Aceh Utara","district":"Paya Bakong","urban":"Simpang","postal_code":24386},{"province":"Nanggroe Aceh Darussalam","city":"Aceh Utara","district":"Matangkuli","urban":"Seuriweuk","postal_code":24386},{"province":"Nanggroe Aceh Darussalam","city":"Aceh Utara","district":"Pirak Timur","urban":"Serdang","postal_code":24386},{"province":"Nanggroe Aceh Darussalam","city":"Aceh Utara","district":"Matangkuli","urban":"Rayeuk Pirak","postal_code":24386},{"province":"Nanggroe Aceh Darussalam","city":"Aceh Utara","district":"Pirak Timur","urban":"Reungkam (Rengkam)","postal_code":24386},{"province":"Nanggroe Aceh Darussalam","city":"Aceh Utara","district":"Pirak Timur","urban":"Rayeuk Pange","postal_code":24386},{"province":"Nanggroe Aceh Darussalam","city":"Aceh Utara","district":"Matangkuli","urban":"Rayeuk Matangkuli","postal_code":24386},{"province":"Nanggroe Aceh Darussalam","city":"Aceh Utara","district":"Matangkuli","urban":"Punti Matangkuli","postal_code":24386},{"province":"Nanggroe Aceh Darussalam","city":"Aceh Utara","district":"Matangkuli","urban":"Punti Matang Kuli","postal_code":24386},{"province":"Nanggroe Aceh Darussalam","city":"Aceh Utara","district":"Matangkuli","urban":"Punti Glumpang VII","postal_code":24386},{"province":"Nanggroe Aceh Darussalam","city":"Aceh Utara","district":"Paya Bakong","urban":"Pucok Alue Seuleumak","postal_code":24386},{"province":"Nanggroe Aceh Darussalam","city":"Aceh Utara","district":"Pirak Timur","urban":"Pucok Alue Pirak","postal_code":24386},{"province":"Nanggroe Aceh Darussalam","city":"Aceh Utara","district":"Paya Bakong","urban":"Peureupok","postal_code":24386},{"province":"Nanggroe Aceh Darussalam","city":"Aceh Utara","district":"Paya Bakong","urban":"Paya Meudru","postal_code":24386},{"province":"Nanggroe Aceh Darussalam","city":"Aceh Utara","district":"Pirak Timur","urban":"Paya Lueng Jalo","postal_code":24386},{"province":"Nanggroe Aceh Darussalam","city":"Aceh Utara","district":"Matangkuli","urban":"Parang Sikureung","postal_code":24386},{"province":"Nanggroe Aceh Darussalam","city":"Aceh Utara","district":"Matangkuli","urban":"Pantee Pirak","postal_code":24386},{"province":"Nanggroe Aceh Darussalam","city":"Aceh Utara","district":"Paya Bakong","urban":"Pante Seuleumak","postal_code":24386},{"province":"Nanggroe Aceh Darussalam","city":"Aceh Utara","district":"Pirak Timur","urban":"Munye Tujuh (Meunye Tujoh)","postal_code":24386},{"province":"Nanggroe Aceh Darussalam","city":"Aceh Utara","district":"Matangkuli","urban":"Munye Pirak","postal_code":24386},{"province":"Nanggroe Aceh Darussalam","city":"Aceh Utara","district":"Matangkuli","urban":"Meuriya Matangkuli","postal_code":24386},{"province":"Nanggroe Aceh Darussalam","city":"Aceh Utara","district":"Paya Bakong","urban":"Meuria Seuleumak","postal_code":24386},{"province":"Nanggroe Aceh Darussalam","city":"Aceh Utara","district":"Paya Bakong","urban":"Meunye Seuleumak","postal_code":24386},{"province":"Nanggroe Aceh Darussalam","city":"Aceh Utara","district":"Matangkuli","urban":"Mesjid Pirak","postal_code":24386},{"province":"Nanggroe Aceh Darussalam","city":"Aceh Utara","district":"Matangkuli","urban":"Mee","postal_code":24386},{"province":"Nanggroe Aceh Darussalam","city":"Aceh Utara","district":"Matangkuli","urban":"Matang Peusangan","postal_code":24386},{"province":"Nanggroe Aceh Darussalam","city":"Aceh Utara","district":"Paya Bakong","urban":"Matang Panyang","postal_code":24386},{"province":"Nanggroe Aceh Darussalam","city":"Aceh Utara","district":"Matangkuli","urban":"Matang Menye","postal_code":24386},{"province":"Nanggroe Aceh Darussalam","city":"Aceh Utara","district":"Matangkuli","urban":"Matang Me","postal_code":24386},{"province":"Nanggroe Aceh Darussalam","city":"Aceh Utara","district":"Pirak Timur","urban":"Matang Keh","postal_code":24386},{"province":"Nanggroe Aceh Darussalam","city":"Aceh Utara","district":"Paya Bakong","urban":"Lueng","postal_code":24386},{"province":"Nanggroe Aceh Darussalam","city":"Aceh Utara","district":"Pirak Timur","urban":"Leupe","postal_code":24386},{"province":"Nanggroe Aceh Darussalam","city":"Aceh Utara","district":"Paya Bakong","urban":"Leuhong","postal_code":24386},{"province":"Nanggroe Aceh Darussalam","city":"Aceh Utara","district":"Matangkuli","urban":"Leubok","postal_code":24386},{"province":"Nanggroe Aceh Darussalam","city":"Aceh Utara","district":"Matangkuli","urban":"Lawang","postal_code":24386},{"province":"Nanggroe Aceh Darussalam","city":"Aceh Utara","district":"Matangkuli","urban":"Kunyet Mule","postal_code":24386},{"province":"Nanggroe Aceh Darussalam","city":"Aceh Utara","district":"Pirak Timur","urban":"Krueng Pirak","postal_code":24386},{"province":"Nanggroe Aceh Darussalam","city":"Aceh Utara","district":"Pirak Timur","urban":"Keutapang","postal_code":24386},{"province":"Nanggroe Aceh Darussalam","city":"Aceh Utara","district":"Paya Bakong","urban":"Keude Paya Bakong","postal_code":24386},{"province":"Nanggroe Aceh Darussalam","city":"Aceh Utara","district":"Matangkuli","urban":"Keude Matangkuli","postal_code":24386},{"province":"Nanggroe Aceh Darussalam","city":"Aceh Utara","district":"Paya Bakong","urban":"Jok","postal_code":24386},{"province":"Nanggroe Aceh Darussalam","city":"Aceh Utara","district":"Paya Bakong","urban":"Keubon Pirak","postal_code":24386},{"province":"Nanggroe Aceh Darussalam","city":"Aceh Utara","district":"Matangkuli","urban":"Jeumpa Glumpang VII","postal_code":24386},{"province":"Nanggroe Aceh Darussalam","city":"Aceh Utara","district":"Matangkuli","urban":"Hagu","postal_code":24386},{"province":"Nanggroe Aceh Darussalam","city":"Aceh Utara","district":"Paya Bakong","urban":"Glumpang/Geulumpang Pirak","postal_code":24386},{"province":"Nanggroe Aceh Darussalam","city":"Aceh Utara","district":"Matangkuli","urban":"Glumpang VII","postal_code":24386},{"province":"Nanggroe Aceh Darussalam","city":"Aceh Utara","district":"Pirak Timur","urban":"Glumpang (Geulumpang)","postal_code":24386},{"province":"Nanggroe Aceh Darussalam","city":"Aceh Utara","district":"Paya Bakong","urban":"Geureughek","postal_code":24386},{"province":"Nanggroe Aceh Darussalam","city":"Aceh Utara","district":"Paya Bakong","urban":"Gampong Seuneubok Aceh","postal_code":24386},{"province":"Nanggroe Aceh Darussalam","city":"Aceh Utara","district":"Paya Bakong","urban":"Gampong Blang Ara","postal_code":24386},{"province":"Nanggroe Aceh Darussalam","city":"Aceh Utara","district":"Paya Bakong","urban":"Gampong Mampree","postal_code":24386},{"province":"Nanggroe Aceh Darussalam","city":"Aceh Utara","district":"Paya Bakong","urban":"Gampong Nga","postal_code":24386},{"province":"Nanggroe Aceh Darussalam","city":"Aceh Utara","district":"Paya Bakong","urban":"Gampong Alue Lhok","postal_code":24386},{"province":"Nanggroe Aceh Darussalam","city":"Aceh Utara","district":"Tanah Luas","urban":"Gampong Ampeh","postal_code":24386},{"province":"Nanggroe Aceh Darussalam","city":"Aceh Utara","district":"Paya Bakong","urban":"Cot Tufah","postal_code":24386},{"province":"Nanggroe Aceh Darussalam","city":"Aceh Utara","district":"Paya Bakong","urban":"Gampong Alue Leukot","postal_code":24386},{"province":"Nanggroe Aceh Darussalam","city":"Aceh Utara","district":"Matangkuli","urban":"Dayah Baro","postal_code":24386},{"province":"Nanggroe Aceh Darussalam","city":"Aceh Utara","district":"Pirak Timur","urban":"Ceumeucet","postal_code":24386},{"province":"Nanggroe Aceh Darussalam","city":"Aceh Utara","district":"Matangkuli","urban":"Ceubreuk Pirak","postal_code":24386},{"province":"Nanggroe Aceh Darussalam","city":"Aceh Utara","district":"Pirak Timur","urban":"Bungong","postal_code":24386},{"province":"Nanggroe Aceh Darussalam","city":"Aceh Utara","district":"Paya Bakong","urban":"Cempeudak (Ceumpeudak)","postal_code":24386},{"province":"Nanggroe Aceh Darussalam","city":"Aceh Utara","district":"Paya Bakong","urban":"Buket Guru","postal_code":24386},{"province":"Nanggroe Aceh Darussalam","city":"Aceh Utara","district":"Paya Bakong","urban":"Buket Pidie","postal_code":24386},{"province":"Nanggroe Aceh Darussalam","city":"Aceh Utara","district":"Paya Bakong","urban":"Blang Sialet","postal_code":24386},{"province":"Nanggroe Aceh Darussalam","city":"Aceh Utara","district":"Matangkuli","urban":"Blang Supeng","postal_code":24386},{"province":"Nanggroe Aceh Darussalam","city":"Aceh Utara","district":"Paya Bakong","urban":"Blang Paku","postal_code":24386},{"province":"Nanggroe Aceh Darussalam","city":"Aceh Utara","district":"Paya Bakong","urban":"Blang Pante","postal_code":24386},{"province":"Nanggroe Aceh Darussalam","city":"Aceh Utara","district":"Matangkuli","urban":"Blang Matangkuli","postal_code":24386},{"province":"Nanggroe Aceh Darussalam","city":"Aceh Utara","district":"Paya Bakong","urban":"Blang Mane","postal_code":24386},{"province":"Nanggroe Aceh Darussalam","city":"Aceh Utara","district":"Matangkuli","urban":"Blang Kuta","postal_code":24386},{"province":"Nanggroe Aceh Darussalam","city":"Aceh Utara","district":"Paya Bakong","urban":"Blang Dalam","postal_code":24386},{"province":"Nanggroe Aceh Darussalam","city":"Aceh Utara","district":"Paya Bakong","urban":"Blang Gunci","postal_code":24386},{"province":"Nanggroe Aceh Darussalam","city":"Aceh Utara","district":"Pirak Timur","urban":"Bili Baro","postal_code":24386},{"province":"Nanggroe Aceh Darussalam","city":"Aceh Utara","district":"Matangkuli","urban":"Beurancan Pirak","postal_code":24386},{"province":"Nanggroe Aceh Darussalam","city":"Aceh Utara","district":"Matangkuli","urban":"Beuringin","postal_code":24386},{"province":"Nanggroe Aceh Darussalam","city":"Aceh Utara","district":"Matangkuli","urban":"Baro","postal_code":24386},{"province":"Nanggroe Aceh Darussalam","city":"Aceh Utara","district":"Pirak Timur","urban":"Beuracan Rata","postal_code":24386},{"province":"Nanggroe Aceh Darussalam","city":"Aceh Utara","district":"Paya Bakong","urban":"Asan Seuleumak","postal_code":24386},{"province":"Nanggroe Aceh Darussalam","city":"Aceh Utara","district":"Matangkuli","urban":"Aron Pirak","postal_code":24386},{"province":"Nanggroe Aceh Darussalam","city":"Aceh Utara","district":"Pirak Timur","urban":"Asan Krueng Kreh","postal_code":24386},{"province":"Nanggroe Aceh Darussalam","city":"Aceh Utara","district":"Matangkuli","urban":"Aron Glumpang VII","postal_code":24386},{"province":"Nanggroe Aceh Darussalam","city":"Aceh Utara","district":"Pirak Timur","urban":"Ara Tonton Moncrang","postal_code":24386},{"province":"Nanggroe Aceh Darussalam","city":"Aceh Utara","district":"Matangkuli","urban":"Alue Tho","postal_code":24386},{"province":"Nanggroe Aceh Darussalam","city":"Aceh Utara","district":"Pirak Timur","urban":"Alue Rimei","postal_code":24386},{"province":"Nanggroe Aceh Darussalam","city":"Aceh Utara","district":"Matangkuli","urban":"Alue Entok","postal_code":24386},{"province":"Nanggroe Aceh Darussalam","city":"Aceh Utara","district":"Paya Bakong","urban":"Alue Bieng","postal_code":24386},{"province":"Nanggroe Aceh Darussalam","city":"Aceh Utara","district":"Pirak Timur","urban":"Alue Bungkoh","postal_code":24386}]