[{"province":"Nanggroe Aceh Darussalam","city":"Aceh Utara","district":"Tanah Jambo Aye","urban":"Teupin Bayu","postal_code":24394},{"province":"Nanggroe Aceh Darussalam","city":"Aceh Utara","district":"Tanah Jambo Aye","urban":"Teupin Gajah","postal_code":24394},{"province":"Nanggroe Aceh Darussalam","city":"Aceh Utara","district":"Tanah Jambo Aye","urban":"Ulee Gle","postal_code":24394},{"province":"Nanggroe Aceh Darussalam","city":"Aceh Utara","district":"Tanah Jambo Aye","urban":"Tanjung Ara","postal_code":24394},{"province":"Nanggroe Aceh Darussalam","city":"Aceh Utara","district":"Tanah Jambo Aye","urban":"Tanjung Punti","postal_code":24394},{"province":"Nanggroe Aceh Darussalam","city":"Aceh Utara","district":"Tanah Jambo Aye","urban":"Tanjong Menuang","postal_code":24394},{"province":"Nanggroe Aceh Darussalam","city":"Aceh Utara","district":"Tanah Jambo Aye","urban":"Tanjong Meunye","postal_code":24394},{"province":"Nanggroe Aceh Darussalam","city":"Aceh Utara","district":"Tanah Jambo Aye","urban":"Tanjong Dalam Utara","postal_code":24394},{"province":"Nanggroe Aceh Darussalam","city":"Aceh Utara","district":"Langkahan","urban":"Tanjong Jawa","postal_code":24394},{"province":"Nanggroe Aceh Darussalam","city":"Aceh Utara","district":"Langkahan","urban":"Tanjong Dalam Selatan","postal_code":24394},{"province":"Nanggroe Aceh Darussalam","city":"Aceh Utara","district":"Tanah Jambo Aye","urban":"Tanjong Ceungai","postal_code":24394},{"province":"Nanggroe Aceh Darussalam","city":"Aceh Utara","district":"Langkahan","urban":"Seureuke","postal_code":24394},{"province":"Nanggroe Aceh Darussalam","city":"Aceh Utara","district":"Tanah Jambo Aye","urban":"Tanjong Ceungai","postal_code":24394},{"province":"Nanggroe Aceh Darussalam","city":"Aceh Utara","district":"Tanah Jambo Aye","urban":"Seuneubok Dhou","postal_code":24394},{"province":"Nanggroe Aceh Darussalam","city":"Aceh Utara","district":"Tanah Jambo Aye","urban":"Seuneubok Pidie","postal_code":24394},{"province":"Nanggroe Aceh Darussalam","city":"Aceh Utara","district":"Langkahan","urban":"Rumoh Rayeuk","postal_code":24394},{"province":"Nanggroe Aceh Darussalam","city":"Aceh Utara","district":"Tanah Jambo Aye","urban":"Samakurok","postal_code":24394},{"province":"Nanggroe Aceh Darussalam","city":"Aceh Utara","district":"Tanah Jambo Aye","urban":"Pucok Alue","postal_code":24394},{"province":"Nanggroe Aceh Darussalam","city":"Aceh Utara","district":"Tanah Jambo Aye","urban":"Rantau Panyang","postal_code":24394},{"province":"Nanggroe Aceh Darussalam","city":"Aceh Utara","district":"Tanah Jambo Aye","urban":"Rawang Itik","postal_code":24394},{"province":"Nanggroe Aceh Darussalam","city":"Aceh Utara","district":"Langkahan","urban":"Pante Gaki Bale","postal_code":24394},{"province":"Nanggroe Aceh Darussalam","city":"Aceh Utara","district":"Langkahan","urban":"Paya Tukai","postal_code":24394},{"province":"Nanggroe Aceh Darussalam","city":"Aceh Utara","district":"Langkahan","urban":"Padang Meuria","postal_code":24394},{"province":"Nanggroe Aceh Darussalam","city":"Aceh Utara","district":"Tanah Jambo Aye","urban":"Meunasah Panton Labu","postal_code":24394},{"province":"Nanggroe Aceh Darussalam","city":"Aceh Utara","district":"Tanah Jambo Aye","urban":"Meunasah Geudong","postal_code":24394},{"province":"Nanggroe Aceh Darussalam","city":"Aceh Utara","district":"Tanah Jambo Aye","urban":"Meunasah Merbo","postal_code":24394},{"province":"Nanggroe Aceh Darussalam","city":"Aceh Utara","district":"Langkahan","urban":"Meunasah Blang","postal_code":24394},{"province":"Nanggroe Aceh Darussalam","city":"Aceh Utara","district":"Tanah Jambo Aye","urban":"Meunasah Dayah","postal_code":24394},{"province":"Nanggroe Aceh Darussalam","city":"Aceh Utara","district":"Tanah Jambo Aye","urban":"Matang Seuke Pulot","postal_code":24394},{"province":"Nanggroe Aceh Darussalam","city":"Aceh Utara","district":"Tanah Jambo Aye","urban":"Matang Teungoh Teungoh","postal_code":24394},{"province":"Nanggroe Aceh Darussalam","city":"Aceh Utara","district":"Langkahan","urban":"Matang Teungoh Selatan","postal_code":24394},{"province":"Nanggroe Aceh Darussalam","city":"Aceh Utara","district":"Tanah Jambo Aye","urban":"Matang Santot","postal_code":24394},{"province":"Nanggroe Aceh Darussalam","city":"Aceh Utara","district":"Tanah Jambo Aye","urban":"Matang Serdang","postal_code":24394},{"province":"Nanggroe Aceh Darussalam","city":"Aceh Utara","district":"Langkahan","urban":"Matang Rubek","postal_code":24394},{"province":"Nanggroe Aceh Darussalam","city":"Aceh Utara","district":"Tanah Jambo Aye","urban":"Matang Maneh","postal_code":24394},{"province":"Nanggroe Aceh Darussalam","city":"Aceh Utara","district":"Tanah Jambo Aye","urban":"Matang Raya","postal_code":24394},{"province":"Nanggroe Aceh Darussalam","city":"Aceh Utara","district":"Langkahan","urban":"Matang Keutapang","postal_code":24394},{"province":"Nanggroe Aceh Darussalam","city":"Aceh Utara","district":"Tanah Jambo Aye","urban":"Matang Jurong","postal_code":24394},{"province":"Nanggroe Aceh Darussalam","city":"Aceh Utara","district":"Tanah Jambo Aye","urban":"Matang Drien","postal_code":24394},{"province":"Nanggroe Aceh Darussalam","city":"Aceh Utara","district":"Tanah Jambo Aye","urban":"Matang Arongan","postal_code":24394},{"province":"Nanggroe Aceh Darussalam","city":"Aceh Utara","district":"Tanah Jambo Aye","urban":"Lhok Reudeup","postal_code":24394},{"province":"Nanggroe Aceh Darussalam","city":"Aceh Utara","district":"Tanah Jambo Aye","urban":"Lueng Tuha","postal_code":24394},{"province":"Nanggroe Aceh Darussalam","city":"Aceh Utara","district":"Langkahan","urban":"Lubok Pusaka","postal_code":24394},{"province":"Nanggroe Aceh Darussalam","city":"Aceh Utara","district":"Tanah Jambo Aye","urban":"Lhok Bintang Hu","postal_code":24394},{"province":"Nanggroe Aceh Darussalam","city":"Aceh Utara","district":"Tanah Jambo Aye","urban":"Lhok Merbo","postal_code":24394},{"province":"Nanggroe Aceh Darussalam","city":"Aceh Utara","district":"Tanah Jambo Aye","urban":"Lhok Beuringen","postal_code":24394},{"province":"Nanggroe Aceh Darussalam","city":"Aceh Utara","district":"Langkahan","urban":"Leubok Mane","postal_code":24394},{"province":"Nanggroe Aceh Darussalam","city":"Aceh Utara","district":"Langkahan","urban":"Langkahan","postal_code":24394},{"province":"Nanggroe Aceh Darussalam","city":"Aceh Utara","district":"Tanah Jambo Aye","urban":"Kota Panton Labu","postal_code":24394},{"province":"Nanggroe Aceh Darussalam","city":"Aceh Utara","district":"Langkahan","urban":"Krueng Lingka","postal_code":24394},{"province":"Nanggroe Aceh Darussalam","city":"Aceh Utara","district":"Langkahan","urban":"Kampung Blang","postal_code":24394},{"province":"Nanggroe Aceh Darussalam","city":"Aceh Utara","district":"Tanah Jambo Aye","urban":"Geulumpang Umpung Unou","postal_code":24394},{"province":"Nanggroe Aceh Darussalam","city":"Aceh Utara","district":"Langkahan","urban":"Geudumbak","postal_code":24394},{"province":"Nanggroe Aceh Darussalam","city":"Aceh Utara","district":"Tanah Jambo Aye","urban":"Cot Biek","postal_code":24394},{"province":"Nanggroe Aceh Darussalam","city":"Aceh Utara","district":"Tanah Jambo Aye","urban":"Ceumpeudak","postal_code":24394},{"province":"Nanggroe Aceh Darussalam","city":"Aceh Utara","district":"Langkahan","urban":"Cot Bada","postal_code":24394},{"province":"Nanggroe Aceh Darussalam","city":"Aceh Utara","district":"Tanah Jambo Aye","urban":"Bukit Padang","postal_code":24394},{"province":"Nanggroe Aceh Darussalam","city":"Aceh Utara","district":"Langkahan","urban":"Buket Linteung","postal_code":24394},{"province":"Nanggroe Aceh Darussalam","city":"Aceh Utara","district":"Tanah Jambo Aye","urban":"Buket Batee Badan","postal_code":24394},{"province":"Nanggroe Aceh Darussalam","city":"Aceh Utara","district":"Tanah Jambo Aye","urban":"Buket Jeurat Manyang","postal_code":24394},{"province":"Nanggroe Aceh Darussalam","city":"Aceh Utara","district":"Tanah Jambo Aye","urban":"Biram Rayeuk","postal_code":24394},{"province":"Nanggroe Aceh Darussalam","city":"Aceh Utara","district":"Tanah Jambo Aye","urban":"Buket Alue Puteh","postal_code":24394},{"province":"Nanggroe Aceh Darussalam","city":"Aceh Utara","district":"Tanah Jambo Aye","urban":"Biara Timur","postal_code":24394},{"province":"Nanggroe Aceh Darussalam","city":"Aceh Utara","district":"Tanah Jambo Aye","urban":"Biram Cut","postal_code":24394},{"province":"Nanggroe Aceh Darussalam","city":"Aceh Utara","district":"Langkahan","urban":"Bantayan","postal_code":24394},{"province":"Nanggroe Aceh Darussalam","city":"Aceh Utara","district":"Tanah Jambo Aye","urban":"Alue Papeun","postal_code":24394},{"province":"Nanggroe Aceh Darussalam","city":"Aceh Utara","district":"Tanah Jambo Aye","urban":"Biara Barat","postal_code":24394},{"province":"Nanggroe Aceh Darussalam","city":"Aceh Utara","district":"Langkahan","urban":"Alue Krak Kayee","postal_code":24394},{"province":"Nanggroe Aceh Darussalam","city":"Aceh Utara","district":"Tanah Jambo Aye","urban":"Alue Ie Mirah","postal_code":24394},{"province":"Nanggroe Aceh Darussalam","city":"Aceh Utara","district":"Langkahan","urban":"Alue Dua","postal_code":24394}]