[{"province":"Nanggroe Aceh Darussalam","city":"Aceh Utara","district":"Tanah Pasir","urban":"Ulee Tanoh","postal_code":24391},{"province":"Nanggroe Aceh Darussalam","city":"Aceh Utara","district":"Lapang","urban":"Tanjung/Tanjong Dama","postal_code":24391},{"province":"Nanggroe Aceh Darussalam","city":"Aceh Utara","district":"Tanah Pasir","urban":"Teupin Gapeuh","postal_code":24391},{"province":"Nanggroe Aceh Darussalam","city":"Aceh Utara","district":"Lapang","urban":"Merbo Lama","postal_code":24391},{"province":"Nanggroe Aceh Darussalam","city":"Aceh Utara","district":"Tanah Pasir","urban":"Prie (Meunasah Prey)","postal_code":24391},{"province":"Nanggroe Aceh Darussalam","city":"Aceh Utara","district":"Lapang","urban":"Merbo Jurong","postal_code":24391},{"province":"Nanggroe Aceh Darussalam","city":"Aceh Utara","district":"Lapang","urban":"Merbo Jurong","postal_code":24391},{"province":"Nanggroe Aceh Darussalam","city":"Aceh Utara","district":"Tanah Pasir","urban":"Matang Ranub Laseh","postal_code":24391},{"province":"Nanggroe Aceh Darussalam","city":"Aceh Utara","district":"Lapang","urban":"Matang Tunong","postal_code":24391},{"province":"Nanggroe Aceh Darussalam","city":"Aceh Utara","district":"Tanah Pasir","urban":"Matang Janeng","postal_code":24391},{"province":"Nanggroe Aceh Darussalam","city":"Aceh Utara","district":"Lapang","urban":"Lueng Baro","postal_code":24391},{"province":"Nanggroe Aceh Darussalam","city":"Aceh Utara","district":"Lapang","urban":"Matang Baroh","postal_code":24391},{"province":"Nanggroe Aceh Darussalam","city":"Aceh Utara","district":"Lapang","urban":"Kuala Kereutou","postal_code":24391},{"province":"Nanggroe Aceh Darussalam","city":"Aceh Utara","district":"Tanah Pasir","urban":"Kumbang","postal_code":24391},{"province":"Nanggroe Aceh Darussalam","city":"Aceh Utara","district":"Lapang","urban":"Kuala Cangkoi/Cangkoy","postal_code":24391},{"province":"Nanggroe Aceh Darussalam","city":"Aceh Utara","district":"Tanah Pasir","urban":"Keutapang","postal_code":24391},{"province":"Nanggroe Aceh Darussalam","city":"Aceh Utara","district":"Tanah Pasir","urban":"Kuala Keretou Barat","postal_code":24391},{"province":"Nanggroe Aceh Darussalam","city":"Aceh Utara","district":"Lapang","urban":"Keureutoau","postal_code":24391},{"province":"Nanggroe Aceh Darussalam","city":"Aceh Utara","district":"Tanah Pasir","urban":"Keude Matang Panyang","postal_code":24391},{"province":"Nanggroe Aceh Darussalam","city":"Aceh Utara","district":"Lapang","urban":"Keude Lapang","postal_code":24391},{"province":"Nanggroe Aceh Darussalam","city":"Aceh Utara","district":"Tanah Pasir","urban":"Keude Jrat Manyang","postal_code":24391},{"province":"Nanggroe Aceh Darussalam","city":"Aceh Utara","district":"Lapang","urban":"Geulanggang Baro","postal_code":24391},{"province":"Nanggroe Aceh Darussalam","city":"Aceh Utara","district":"Tanah Pasir","urban":"Gampong Pande","postal_code":24391},{"province":"Nanggroe Aceh Darussalam","city":"Aceh Utara","district":"Tanah Pasir","urban":"Gampong Cibrek (Meunasah Cibrek)","postal_code":24391},{"province":"Nanggroe Aceh Darussalam","city":"Aceh Utara","district":"Tanah Pasir","urban":"Gampong Me Merbo","postal_code":24391},{"province":"Nanggroe Aceh Darussalam","city":"Aceh Utara","district":"Tanah Pasir","urban":"Gampong Paloh","postal_code":24391},{"province":"Nanggroe Aceh Darussalam","city":"Aceh Utara","district":"Tanah Pasir","urban":"Blang","postal_code":24391},{"province":"Nanggroe Aceh Darussalam","city":"Aceh Utara","district":"Tanah Pasir","urban":"Cangguek (Meunasah Cangguek)","postal_code":24391},{"province":"Nanggroe Aceh Darussalam","city":"Aceh Utara","district":"Tanah Pasir","urban":"Alue (Meunasah Alue)","postal_code":24391}]