[{"province":"Nanggroe Aceh Darussalam","city":"Langsa","district":"Langsa Lama","urban":"Seulalah Baru","postal_code":24416},{"province":"Nanggroe Aceh Darussalam","city":"Langsa","district":"Langsa Lama","urban":"Seulalah","postal_code":24416},{"province":"Nanggroe Aceh Darussalam","city":"Langsa","district":"Langsa Lama","urban":"Pondok Keumuning","postal_code":24416},{"province":"Nanggroe Aceh Darussalam","city":"Langsa","district":"Langsa Lama","urban":"Pondok Pabrik","postal_code":24416},{"province":"Nanggroe Aceh Darussalam","city":"Langsa","district":"Langsa Lama","urban":"Meurandeh Teungoh","postal_code":24416},{"province":"Nanggroe Aceh Darussalam","city":"Langsa","district":"Langsa Lama","urban":"Meurandeh Aceh","postal_code":24416},{"province":"Nanggroe Aceh Darussalam","city":"Langsa","district":"Langsa Lama","urban":"Meurandeh Dayah","postal_code":24416},{"province":"Nanggroe Aceh Darussalam","city":"Langsa","district":"Langsa Lama","urban":"Meurandeh","postal_code":24416},{"province":"Nanggroe Aceh Darussalam","city":"Langsa","district":"Langsa Kota","urban":"Gampong Teungoh","postal_code":24416},{"province":"Nanggroe Aceh Darussalam","city":"Langsa","district":"Langsa Kota","urban":"Gampong Mutia","postal_code":24416},{"province":"Nanggroe Aceh Darussalam","city":"Langsa","district":"Langsa Kota","urban":"Gampong Daulat","postal_code":24416},{"province":"Nanggroe Aceh Darussalam","city":"Langsa","district":"Langsa Kota","urban":"Gampong Jawa","postal_code":24416},{"province":"Nanggroe Aceh Darussalam","city":"Langsa","district":"Langsa Lama","urban":"Gampong Baro","postal_code":24416},{"province":"Nanggroe Aceh Darussalam","city":"Langsa","district":"Langsa Kota","urban":"Gampong Blang","postal_code":24416},{"province":"Nanggroe Aceh Darussalam","city":"Langsa","district":"Langsa Lama","urban":"Baroh Langsa Lama","postal_code":24416},{"province":"Nanggroe Aceh Darussalam","city":"Langsa","district":"Langsa Lama","urban":"Asam Peutek","postal_code":24416}]