[{"province":"Nanggroe Aceh Darussalam","city":"Langsa","district":"Langsa Barat","urban":"Telaga Tujuh","postal_code":24410},{"province":"Nanggroe Aceh Darussalam","city":"Langsa","district":"Langsa Barat","urban":"Sungai Paus Tanjong","postal_code":24410},{"province":"Nanggroe Aceh Darussalam","city":"Langsa","district":"Langsa Barat","urban":"Sungai Pauh","postal_code":24410},{"province":"Nanggroe Aceh Darussalam","city":"Langsa","district":"Langsa Barat","urban":"Sungai Paus Firdaus","postal_code":24410},{"province":"Nanggroe Aceh Darussalam","city":"Langsa","district":"Langsa Barat","urban":"Sungai Paus Pusaka","postal_code":24410},{"province":"Nanggroe Aceh Darussalam","city":"Langsa","district":"Langsa Barat","urban":"Serambi Indah","postal_code":24410},{"province":"Nanggroe Aceh Darussalam","city":"Langsa","district":"Langsa Barat","urban":"Kuala Langsa","postal_code":24410},{"province":"Nanggroe Aceh Darussalam","city":"Langsa","district":"Langsa Kota","urban":"Alue Berawe","postal_code":24410}]