[{"province":"Nanggroe Aceh Darussalam","city":"Langsa","district":"Langsa Lama","urban":"Suka JD KBN Ireng","postal_code":24411},{"province":"Nanggroe Aceh Darussalam","city":"Langsa","district":"Langsa Timur","urban":"Sukarejo","postal_code":24411},{"province":"Nanggroe Aceh Darussalam","city":"Langsa","district":"Langsa Lama","urban":"Sidorejo","postal_code":24411},{"province":"Nanggroe Aceh Darussalam","city":"Langsa","district":"Langsa Timur","urban":"Simpang Wie","postal_code":24411},{"province":"Nanggroe Aceh Darussalam","city":"Langsa","district":"Langsa Lama","urban":"Sidodadi","postal_code":24411},{"province":"Nanggroe Aceh Darussalam","city":"Langsa","district":"Langsa Timur","urban":"Seuneubok Antara","postal_code":24411},{"province":"Nanggroe Aceh Darussalam","city":"Langsa","district":"Langsa Timur","urban":"Matang Panyang","postal_code":24411},{"province":"Nanggroe Aceh Darussalam","city":"Langsa","district":"Langsa Timur","urban":"Matang Seutui","postal_code":24411},{"province":"Nanggroe Aceh Darussalam","city":"Langsa","district":"Langsa Timur","urban":"Kapa","postal_code":24411},{"province":"Nanggroe Aceh Darussalam","city":"Langsa","district":"Langsa Timur","urban":"Matang Ceungai","postal_code":24411},{"province":"Nanggroe Aceh Darussalam","city":"Langsa","district":"Langsa Timur","urban":"Cinta Raja","postal_code":24411},{"province":"Nanggroe Aceh Darussalam","city":"Langsa","district":"Langsa Timur","urban":"Buket Pulo","postal_code":24411},{"province":"Nanggroe Aceh Darussalam","city":"Langsa","district":"Langsa Timur","urban":"Buket Rata","postal_code":24411},{"province":"Nanggroe Aceh Darussalam","city":"Langsa","district":"Langsa Timur","urban":"Buket Meudang Ara","postal_code":24411},{"province":"Nanggroe Aceh Darussalam","city":"Langsa","district":"Langsa Timur","urban":"Buket Meutuah","postal_code":24411},{"province":"Nanggroe Aceh Darussalam","city":"Langsa","district":"Langsa Lama","urban":"Bate Puteh","postal_code":24411},{"province":"Nanggroe Aceh Darussalam","city":"Langsa","district":"Langsa Timur","urban":"Alue Pineung","postal_code":24411},{"province":"Nanggroe Aceh Darussalam","city":"Langsa","district":"Langsa Timur","urban":"Alue Pineung Timue","postal_code":24411},{"province":"Nanggroe Aceh Darussalam","city":"Langsa","district":"Langsa Timur","urban":"Alue Merbau","postal_code":24411}]