[{"province":"Nanggroe Aceh Darussalam","city":"Aceh Timur","district":"Rantau Selamat","urban":"Simpang Peut","postal_code":24452},{"province":"Nanggroe Aceh Darussalam","city":"Aceh Timur","district":"Rantau Selamat","urban":"Simpang Aneuh","postal_code":24452},{"province":"Nanggroe Aceh Darussalam","city":"Aceh Timur","district":"Rantau Selamat","urban":"Sarah Teubee","postal_code":24452},{"province":"Nanggroe Aceh Darussalam","city":"Aceh Timur","district":"Rantau Selamat","urban":"Seuneubok Dalam","postal_code":24452},{"province":"Nanggroe Aceh Darussalam","city":"Aceh Timur","district":"Rantau Selamat","urban":"Sarah Kayee","postal_code":24452},{"province":"Nanggroe Aceh Darussalam","city":"Aceh Timur","district":"Rantau Selamat","urban":"Rantau Panjang","postal_code":24452},{"province":"Nanggroe Aceh Darussalam","city":"Aceh Timur","district":"Birem Bayeun","urban":"Paya Tampah","postal_code":24452},{"province":"Nanggroe Aceh Darussalam","city":"Aceh Timur","district":"Birem Bayeun","urban":"Peutow","postal_code":24452},{"province":"Nanggroe Aceh Darussalam","city":"Aceh Timur","district":"Birem Bayeun","urban":"Paya Peulawi","postal_code":24452},{"province":"Nanggroe Aceh Darussalam","city":"Aceh Timur","district":"Birem Bayeun","urban":"Paya Rambong","postal_code":24452},{"province":"Nanggroe Aceh Darussalam","city":"Aceh Timur","district":"Birem Bayeun","urban":"Merbau II (Merbou Dua)","postal_code":24452},{"province":"Nanggroe Aceh Darussalam","city":"Aceh Timur","district":"Birem Bayeun","urban":"Paya Bili I (Satu)","postal_code":24452},{"province":"Nanggroe Aceh Darussalam","city":"Aceh Timur","district":"Birem Bayeun","urban":"Paya Bili II (Dua)","postal_code":24452},{"province":"Nanggroe Aceh Darussalam","city":"Aceh Timur","district":"Birem Bayeun","urban":"Keude Birem","postal_code":24452},{"province":"Nanggroe Aceh Darussalam","city":"Aceh Timur","district":"Birem Bayeun","urban":"Jambo Labu","postal_code":24452},{"province":"Nanggroe Aceh Darussalam","city":"Aceh Timur","district":"Birem Bayeun","urban":"Kemuning/Keumuneng Hulu","postal_code":24452},{"province":"Nanggroe Aceh Darussalam","city":"Aceh Timur","district":"Birem Bayeun","urban":"Buket Seuleumak","postal_code":24452},{"province":"Nanggroe Aceh Darussalam","city":"Aceh Timur","district":"Birem Bayeun","urban":"Buket Tiga","postal_code":24452},{"province":"Nanggroe Aceh Darussalam","city":"Aceh Timur","district":"Rantau Selamat","urban":"Damar Siput","postal_code":24452},{"province":"Nanggroe Aceh Darussalam","city":"Aceh Timur","district":"Birem Bayeun","urban":"Birem Rayeuk","postal_code":24452},{"province":"Nanggroe Aceh Darussalam","city":"Aceh Timur","district":"Birem Bayeun","urban":"Blang Tualang","postal_code":24452},{"province":"Nanggroe Aceh Darussalam","city":"Aceh Timur","district":"Birem Bayeun","urban":"Benteng","postal_code":24452},{"province":"Nanggroe Aceh Darussalam","city":"Aceh Timur","district":"Rantau Selamat","urban":"Bayeun (Gampong Bayeun)","postal_code":24452},{"province":"Nanggroe Aceh Darussalam","city":"Aceh Timur","district":"Birem Bayeun","urban":"Aramiyah","postal_code":24452},{"province":"Nanggroe Aceh Darussalam","city":"Aceh Timur","district":"Birem Bayeun","urban":"Bayeun","postal_code":24452},{"province":"Nanggroe Aceh Darussalam","city":"Aceh Timur","district":"Birem Bayeun","urban":"Alue Teh","postal_code":24452},{"province":"Nanggroe Aceh Darussalam","city":"Aceh Timur","district":"Rantau Selamat","urban":"Alue Tuwi","postal_code":24452},{"province":"Nanggroe Aceh Darussalam","city":"Aceh Timur","district":"Rantau Selamat","urban":"Alue Seuleumak","postal_code":24452},{"province":"Nanggroe Aceh Darussalam","city":"Aceh Timur","district":"Birem Bayeun","urban":"Alue Sentang","postal_code":24452},{"province":"Nanggroe Aceh Darussalam","city":"Aceh Timur","district":"Rantau Selamat","urban":"Alue Punti","postal_code":24452},{"province":"Nanggroe Aceh Darussalam","city":"Aceh Timur","district":"Rantau Selamat","urban":"Alue Raya","postal_code":24452},{"province":"Nanggroe Aceh Darussalam","city":"Aceh Timur","district":"Birem Bayeun","urban":"Alue Nyamuk","postal_code":24452},{"province":"Nanggroe Aceh Darussalam","city":"Aceh Timur","district":"Rantau Selamat","urban":"Alue Kumba","postal_code":24452},{"province":"Nanggroe Aceh Darussalam","city":"Aceh Timur","district":"Birem Bayeun","urban":"Alue Gadeng Satu","postal_code":24452},{"province":"Nanggroe Aceh Darussalam","city":"Aceh Timur","district":"Rantau Selamat","urban":"Alue Kaul/Kaol","postal_code":24452},{"province":"Nanggroe Aceh Darussalam","city":"Aceh Timur","district":"Birem Bayeun","urban":"Alue Gadeng Dua","postal_code":24452},{"province":"Nanggroe Aceh Darussalam","city":"Aceh Timur","district":"Birem Bayeun","urban":"Alue Gadeng","postal_code":24452},{"province":"Nanggroe Aceh Darussalam","city":"Aceh Timur","district":"Birem Bayeun","urban":"Alue Drien","postal_code":24452},{"province":"Nanggroe Aceh Darussalam","city":"Aceh Timur","district":"Birem Bayeun","urban":"Alue Canang","postal_code":24452},{"province":"Nanggroe Aceh Darussalam","city":"Aceh Timur","district":"Birem Bayeun","urban":"Alue Buloh/Baloh","postal_code":24452},{"province":"Nanggroe Aceh Darussalam","city":"Aceh Timur","district":"Birem Bayeun","urban":"Afdeling II Bukit/Buket","postal_code":24452}]