[{"province":"Nanggroe Aceh Darussalam","city":"Aceh Timur","district":"Julok","urban":"Ulee Blang","postal_code":24457},{"province":"Nanggroe Aceh Darussalam","city":"Aceh Timur","district":"Julok","urban":"Ulee Tanoh","postal_code":24457},{"province":"Nanggroe Aceh Darussalam","city":"Aceh Timur","district":"Julok","urban":"Tumpok Teungoh","postal_code":24457},{"province":"Nanggroe Aceh Darussalam","city":"Aceh Timur","district":"Julok","urban":"Ujong Tunong","postal_code":24457},{"province":"Nanggroe Aceh Darussalam","city":"Aceh Timur","district":"Julok","urban":"Ulee Ateung","postal_code":24457},{"province":"Nanggroe Aceh Darussalam","city":"Aceh Timur","district":"Julok","urban":"Tanjong Tok Blang","postal_code":24457},{"province":"Nanggroe Aceh Darussalam","city":"Aceh Timur","district":"Julok","urban":"Teupin Raya","postal_code":24457},{"province":"Nanggroe Aceh Darussalam","city":"Aceh Timur","district":"Indra Makmur","urban":"Suka Makmur","postal_code":24457},{"province":"Nanggroe Aceh Darussalam","city":"Aceh Timur","district":"Julok","urban":"Simpang Lhee","postal_code":24457},{"province":"Nanggroe Aceh Darussalam","city":"Aceh Timur","district":"Indra Makmur","urban":"Seuneubok Bayu","postal_code":24457},{"province":"Nanggroe Aceh Darussalam","city":"Aceh Timur","district":"Indra Makmur","urban":"Seuneubok Cina","postal_code":24457},{"province":"Nanggroe Aceh Darussalam","city":"Aceh Timur","district":"Julok","urban":"Seuneubok Rambong","postal_code":24457},{"province":"Nanggroe Aceh Darussalam","city":"Aceh Timur","district":"Julok","urban":"Seumatang","postal_code":24457},{"province":"Nanggroe Aceh Darussalam","city":"Aceh Timur","district":"Julok","urban":"Seuneubok Baro","postal_code":24457},{"province":"Nanggroe Aceh Darussalam","city":"Aceh Timur","district":"Indra Makmur","urban":"Perkebunan Julok Rayeuk Utara","postal_code":24457},{"province":"Nanggroe Aceh Darussalam","city":"Aceh Timur","district":"Indra Makmur","urban":"Perkebunan Julok Rayeuk Selatan","postal_code":24457},{"province":"Nanggroe Aceh Darussalam","city":"Aceh Timur","district":"Indra Makmur","urban":"Pelita Sagop Jaya","postal_code":24457},{"province":"Nanggroe Aceh Darussalam","city":"Aceh Timur","district":"Julok","urban":"Paya Bakong","postal_code":24457},{"province":"Nanggroe Aceh Darussalam","city":"Aceh Timur","district":"Julok","urban":"Paya Pasi","postal_code":24457},{"province":"Nanggroe Aceh Darussalam","city":"Aceh Timur","district":"Julok","urban":"Matang","postal_code":24457},{"province":"Nanggroe Aceh Darussalam","city":"Aceh Timur","district":"Julok","urban":"Naleung","postal_code":24457},{"province":"Nanggroe Aceh Darussalam","city":"Aceh Timur","district":"Julok","urban":"Lhok Rambong","postal_code":24457},{"province":"Nanggroe Aceh Darussalam","city":"Aceh Timur","district":"Julok","urban":"Lhok Seuntang","postal_code":24457},{"province":"Nanggroe Aceh Darussalam","city":"Aceh Timur","district":"Julok","urban":"Mane Rampak","postal_code":24457},{"province":"Nanggroe Aceh Darussalam","city":"Aceh Timur","district":"Julok","urban":"Labuhan (Labohan)","postal_code":24457},{"province":"Nanggroe Aceh Darussalam","city":"Aceh Timur","district":"Julok","urban":"Ladang Baro","postal_code":24457},{"province":"Nanggroe Aceh Darussalam","city":"Aceh Timur","district":"Julok","urban":"Keumuneng","postal_code":24457},{"province":"Nanggroe Aceh Darussalam","city":"Aceh Timur","district":"Julok","urban":"Kuala Geulumpang","postal_code":24457},{"province":"Nanggroe Aceh Darussalam","city":"Aceh Timur","district":"Indra Makmur","urban":"Jambo Lubok","postal_code":24457},{"province":"Nanggroe Aceh Darussalam","city":"Aceh Timur","district":"Julok","urban":"Julok Tunong","postal_code":24457},{"province":"Nanggroe Aceh Darussalam","city":"Aceh Timur","district":"Julok","urban":"Keude Kuta Binjei","postal_code":24457},{"province":"Nanggroe Aceh Darussalam","city":"Aceh Timur","district":"Indra Makmur","urban":"Jambo Balee","postal_code":24457},{"province":"Nanggroe Aceh Darussalam","city":"Aceh Timur","district":"Julok","urban":"Gampong Baro","postal_code":24457},{"province":"Nanggroe Aceh Darussalam","city":"Aceh Timur","district":"Julok","urban":"Bukit Dindeng","postal_code":24457},{"province":"Nanggroe Aceh Darussalam","city":"Aceh Timur","district":"Julok","urban":"Bukit Makmur","postal_code":24457},{"province":"Nanggroe Aceh Darussalam","city":"Aceh Timur","district":"Julok","urban":"Buket Seuraja (Seraja)","postal_code":24457},{"province":"Nanggroe Aceh Darussalam","city":"Aceh Timur","district":"Julok","urban":"Blang Uyok","postal_code":24457},{"province":"Nanggroe Aceh Darussalam","city":"Aceh Timur","district":"Julok","urban":"Buket Panyang","postal_code":24457},{"province":"Nanggroe Aceh Darussalam","city":"Aceh Timur","district":"Julok","urban":"Blang Pauh/Paoh Dua","postal_code":24457},{"province":"Nanggroe Aceh Darussalam","city":"Aceh Timur","district":"Julok","urban":"Blang Pauh/Paoh Satu","postal_code":24457},{"province":"Nanggroe Aceh Darussalam","city":"Aceh Timur","district":"Julok","urban":"Blang Mideun","postal_code":24457},{"province":"Nanggroe Aceh Darussalam","city":"Aceh Timur","district":"Indra Makmur","urban":"Blang Nisam","postal_code":24457},{"province":"Nanggroe Aceh Darussalam","city":"Aceh Timur","district":"Julok","urban":"Blang Jambee","postal_code":24457},{"province":"Nanggroe Aceh Darussalam","city":"Aceh Timur","district":"Julok","urban":"Blang Keumuhang","postal_code":24457},{"province":"Nanggroe Aceh Darussalam","city":"Aceh Timur","district":"Julok","urban":"Blang Gleum","postal_code":24457},{"province":"Nanggroe Aceh Darussalam","city":"Aceh Timur","district":"Indra Makmur","urban":"Alue Patong","postal_code":24457},{"province":"Nanggroe Aceh Darussalam","city":"Aceh Timur","district":"Indra Makmur","urban":"Bandar Baro","postal_code":24457},{"province":"Nanggroe Aceh Darussalam","city":"Aceh Timur","district":"Indra Makmur","urban":"Alue Ie Itam","postal_code":24457},{"province":"Nanggroe Aceh Darussalam","city":"Aceh Timur","district":"Indra Makmur","urban":"Alue Ie Mirah","postal_code":24457},{"province":"Nanggroe Aceh Darussalam","city":"Aceh Timur","district":"Julok","urban":"Alue Cek Doi","postal_code":24457}]