[{"province":"Nanggroe Aceh Darussalam","city":"Aceh Timur","district":"Banda Alam","urban":"Uram Jalan","postal_code":24458},{"province":"Nanggroe Aceh Darussalam","city":"Aceh Timur","district":"Banda Alam","urban":"Ulee Jalan","postal_code":24458},{"province":"Nanggroe Aceh Darussalam","city":"Aceh Timur","district":"Madat","urban":"Ulee Ateung","postal_code":24458},{"province":"Nanggroe Aceh Darussalam","city":"Aceh Timur","district":"Simpang Ulim","urban":"Teupin Mamplam","postal_code":24458},{"province":"Nanggroe Aceh Darussalam","city":"Aceh Timur","district":"Simpang Ulim","urban":"Titi Barueh/Baroeh","postal_code":24458},{"province":"Nanggroe Aceh Darussalam","city":"Aceh Timur","district":"Simpang Ulim","urban":"Teupin Breuh","postal_code":24458},{"province":"Nanggroe Aceh Darussalam","city":"Aceh Timur","district":"Madat","urban":"Tanjung Minjei","postal_code":24458},{"province":"Nanggroe Aceh Darussalam","city":"Aceh Timur","district":"Madat","urban":"Tanjung Ara","postal_code":24458},{"province":"Nanggroe Aceh Darussalam","city":"Aceh Timur","district":"Simpang Jernih","urban":"Tampor/Tampur Paloh","postal_code":24458},{"province":"Nanggroe Aceh Darussalam","city":"Aceh Timur","district":"Simpang Jernih","urban":"Tampor/Tampur Boor","postal_code":24458},{"province":"Nanggroe Aceh Darussalam","city":"Aceh Timur","district":"Sungai Raya","urban":"Sungai Simpang","postal_code":24458},{"province":"Nanggroe Aceh Darussalam","city":"Aceh Timur","district":"Pante Bidari (Beudari)","urban":"Suka Damai","postal_code":24458},{"province":"Nanggroe Aceh Darussalam","city":"Aceh Timur","district":"Pante Bidari (Beudari)","urban":"Seuneubok Tuha","postal_code":24458},{"province":"Nanggroe Aceh Darussalam","city":"Aceh Timur","district":"Simpang Jernih","urban":"Simpang Jernih","postal_code":24458},{"province":"Nanggroe Aceh Darussalam","city":"Aceh Timur","district":"Pante Bidari (Beudari)","urban":"Seuneubok Saboh","postal_code":24458},{"province":"Nanggroe Aceh Darussalam","city":"Aceh Timur","district":"Banda Alam","urban":"Seuneubok Simpang","postal_code":24458},{"province":"Nanggroe Aceh Darussalam","city":"Aceh Timur","district":"Madat","urban":"Seuneubok Pidie","postal_code":24458},{"province":"Nanggroe Aceh Darussalam","city":"Aceh Timur","district":"Sungai Raya","urban":"Seuneubok Pase","postal_code":24458},{"province":"Nanggroe Aceh Darussalam","city":"Aceh Timur","district":"Banda Alam","urban":"Seuneubok Pangou","postal_code":24458},{"province":"Nanggroe Aceh Darussalam","city":"Aceh Timur","district":"Banda Alam","urban":"Seuneubok Kandang","postal_code":24458},{"province":"Nanggroe Aceh Darussalam","city":"Aceh Timur","district":"Banda Alam","urban":"Seuneubok Benteng","postal_code":24458},{"province":"Nanggroe Aceh Darussalam","city":"Aceh Timur","district":"Sungai Raya","urban":"Seuneubok Aceh","postal_code":24458},{"province":"Nanggroe Aceh Darussalam","city":"Aceh Timur","district":"Banda Alam","urban":"Seuneubok Bayu","postal_code":24458},{"province":"Nanggroe Aceh Darussalam","city":"Aceh Timur","district":"Simpang Jernih","urban":"Rantau Panjang","postal_code":24458},{"province":"Nanggroe Aceh Darussalam","city":"Aceh Timur","district":"Madat","urban":"Rambong Lop","postal_code":24458},{"province":"Nanggroe Aceh Darussalam","city":"Aceh Timur","district":"Pante Bidari (Beudari)","urban":"Putoh Satu","postal_code":24458},{"province":"Nanggroe Aceh Darussalam","city":"Aceh Timur","district":"Pante Bidari (Beudari)","urban":"Putoh Dua","postal_code":24458},{"province":"Nanggroe Aceh Darussalam","city":"Aceh Timur","district":"Simpang Ulim","urban":"Pucok Alue Satu","postal_code":24458},{"province":"Nanggroe Aceh Darussalam","city":"Aceh Timur","district":"Simpang Ulim","urban":"Pucok Alue Dua","postal_code":24458},{"province":"Nanggroe Aceh Darussalam","city":"Aceh Timur","district":"Simpang Ulim","urban":"Peulalu","postal_code":24458},{"province":"Nanggroe Aceh Darussalam","city":"Aceh Timur","district":"Simpang Ulim","urban":"Pucok Alue Barat","postal_code":24458},{"province":"Nanggroe Aceh Darussalam","city":"Aceh Timur","district":"Madat","urban":"Paya Naden","postal_code":24458},{"province":"Nanggroe Aceh Darussalam","city":"Aceh Timur","district":"Banda Alam","urban":"Paya Laman","postal_code":24458},{"province":"Nanggroe Aceh Darussalam","city":"Aceh Timur","district":"Sungai Raya","urban":"Paya Keutapang","postal_code":24458},{"province":"Nanggroe Aceh Darussalam","city":"Aceh Timur","district":"Madat","urban":"Paya Deumam/Demam Peut","postal_code":24458},{"province":"Nanggroe Aceh Darussalam","city":"Aceh Timur","district":"Pante Bidari (Beudari)","urban":"Paya Demam/Deumam Dua","postal_code":24458},{"province":"Nanggroe Aceh Darussalam","city":"Aceh Timur","district":"Pante Bidari (Beudari)","urban":"Paya Demam/Deumam Lhee","postal_code":24458},{"province":"Nanggroe Aceh Darussalam","city":"Aceh Timur","district":"Pante Bidari (Beudari)","urban":"Paya Demam/Deumam Satu","postal_code":24458},{"province":"Nanggroe Aceh Darussalam","city":"Aceh Timur","district":"Banda Alam","urban":"Panton Rayeuk M","postal_code":24458},{"province":"Nanggroe Aceh Darussalam","city":"Aceh Timur","district":"Banda Alam","urban":"Panton Rayeuk T","postal_code":24458},{"province":"Nanggroe Aceh Darussalam","city":"Aceh Timur","district":"Pante Bidari (Beudari)","urban":"Pante Rambong","postal_code":24458},{"province":"Nanggroe Aceh Darussalam","city":"Aceh Timur","district":"Banda Alam","urban":"Panton Rayeuk A","postal_code":24458},{"province":"Nanggroe Aceh Darussalam","city":"Aceh Timur","district":"Banda Alam","urban":"Panton Rayeuk B","postal_code":24458},{"province":"Nanggroe Aceh Darussalam","city":"Aceh Timur","district":"Pante Bidari (Beudari)","urban":"Pante Labu","postal_code":24458},{"province":"Nanggroe Aceh Darussalam","city":"Aceh Timur","district":"Pante Bidari (Beudari)","urban":"Pante Panah","postal_code":24458},{"province":"Nanggroe Aceh Darussalam","city":"Aceh Timur","district":"Madat","urban":"Pante Merbo (Meureubo)","postal_code":24458},{"province":"Nanggroe Aceh Darussalam","city":"Aceh Timur","district":"Simpang Jernih","urban":"Pante Kera","postal_code":24458},{"province":"Nanggroe Aceh Darussalam","city":"Aceh Timur","district":"Simpang Ulim","urban":"Nicah Awe","postal_code":24458},{"province":"Nanggroe Aceh Darussalam","city":"Aceh Timur","district":"Madat","urban":"Pante Bayam","postal_code":24458},{"province":"Nanggroe Aceh Darussalam","city":"Aceh Timur","district":"Pante Bidari (Beudari)","urban":"Meunasah Tunong","postal_code":24458},{"province":"Nanggroe Aceh Darussalam","city":"Aceh Timur","district":"Madat","urban":"Meunasah Tingkeum","postal_code":24458},{"province":"Nanggroe Aceh Darussalam","city":"Aceh Timur","district":"Pante Bidari (Beudari)","urban":"Meunasah Leubok","postal_code":24458},{"province":"Nanggroe Aceh Darussalam","city":"Aceh Timur","district":"Pante Bidari (Beudari)","urban":"Meunasah Teungoh","postal_code":24458},{"province":"Nanggroe Aceh Darussalam","city":"Aceh Timur","district":"Simpang Ulim","urban":"Matang Weng","postal_code":24458},{"province":"Nanggroe Aceh Darussalam","city":"Aceh Timur","district":"Madat","urban":"Meunasah Asan","postal_code":24458},{"province":"Nanggroe Aceh Darussalam","city":"Aceh Timur","district":"Simpang Jernih","urban":"Melidi","postal_code":24458},{"province":"Nanggroe Aceh Darussalam","city":"Aceh Timur","district":"Pante Bidari (Beudari)","urban":"Matang Pudeng","postal_code":24458},{"province":"Nanggroe Aceh Darussalam","city":"Aceh Timur","district":"Simpang Ulim","urban":"Matang Rayeuk","postal_code":24458},{"province":"Nanggroe Aceh Darussalam","city":"Aceh Timur","district":"Simpang Ulim","urban":"Matang Seupeng","postal_code":24458},{"province":"Nanggroe Aceh Darussalam","city":"Aceh Timur","district":"Pante Bidari (Beudari)","urban":"Matang Perlak (Peureulak)","postal_code":24458},{"province":"Nanggroe Aceh Darussalam","city":"Aceh Timur","district":"Madat","urban":"Matang Nibong","postal_code":24458},{"province":"Nanggroe Aceh Darussalam","city":"Aceh Timur","district":"Madat","urban":"Matang Kupula/Keupula Dua","postal_code":24458},{"province":"Nanggroe Aceh Darussalam","city":"Aceh Timur","district":"Madat","urban":"Matang Kupula/Keupula Lhee","postal_code":24458},{"province":"Nanggroe Aceh Darussalam","city":"Aceh Timur","district":"Madat","urban":"Matang Kupula/Keupula Satu","postal_code":24458},{"province":"Nanggroe Aceh Darussalam","city":"Aceh Timur","district":"Simpang Ulim","urban":"Matang Kumbang","postal_code":24458},{"province":"Nanggroe Aceh Darussalam","city":"Aceh Timur","district":"Pante Bidari (Beudari)","urban":"Matang Kruet","postal_code":24458},{"province":"Nanggroe Aceh Darussalam","city":"Aceh Timur","district":"Madat","urban":"Madat","postal_code":24458},{"province":"Nanggroe Aceh Darussalam","city":"Aceh Timur","district":"Madat","urban":"Matang Guru","postal_code":24458},{"province":"Nanggroe Aceh Darussalam","city":"Aceh Timur","district":"Madat","urban":"Matang Jrok","postal_code":24458},{"province":"Nanggroe Aceh Darussalam","city":"Aceh Timur","district":"Madat","urban":"Lueng Dua","postal_code":24458},{"province":"Nanggroe Aceh Darussalam","city":"Aceh Timur","district":"Madat","urban":"Lueng Peut","postal_code":24458},{"province":"Nanggroe Aceh Darussalam","city":"Aceh Timur","district":"Madat","urban":"Lueng Satu","postal_code":24458},{"province":"Nanggroe Aceh Darussalam","city":"Aceh Timur","district":"Sungai Raya","urban":"Labuhan Keude","postal_code":24458},{"province":"Nanggroe Aceh Darussalam","city":"Aceh Timur","district":"Simpang Ulim","urban":"Kuala Simpang Ulim","postal_code":24458},{"province":"Nanggroe Aceh Darussalam","city":"Aceh Timur","district":"Simpang Ulim","urban":"Lampuh Rayeuk","postal_code":24458},{"province":"Nanggroe Aceh Darussalam","city":"Aceh Timur","district":"Sungai Raya","urban":"Krueng Lingka","postal_code":24458},{"province":"Nanggroe Aceh Darussalam","city":"Aceh Timur","district":"Sungai Raya","urban":"Kuala Parek","postal_code":24458},{"province":"Nanggroe Aceh Darussalam","city":"Aceh Timur","district":"Simpang Ulim","urban":"Keude Tuha","postal_code":24458},{"province":"Nanggroe Aceh Darussalam","city":"Aceh Timur","district":"Pante Bidari (Beudari)","urban":"Keude Baro","postal_code":24458},{"province":"Nanggroe Aceh Darussalam","city":"Aceh Timur","district":"Banda Alam","urban":"Jalan Dua","postal_code":24458},{"province":"Nanggroe Aceh Darussalam","city":"Aceh Timur","district":"Banda Alam","urban":"Jambo Reuhat","postal_code":24458},{"province":"Nanggroe Aceh Darussalam","city":"Aceh Timur","district":"Pante Bidari (Beudari)","urban":"Grong Grong","postal_code":24458},{"province":"Nanggroe Aceh Darussalam","city":"Aceh Timur","district":"Simpang Jernih","urban":"Hti Ranto Naro","postal_code":24458},{"province":"Nanggroe Aceh Darussalam","city":"Aceh Timur","district":"Sungai Raya","urban":"Geulumpang Payong","postal_code":24458},{"province":"Nanggroe Aceh Darussalam","city":"Aceh Timur","district":"Simpang Ulim","urban":"Gampong Blang","postal_code":24458},{"province":"Nanggroe Aceh Darussalam","city":"Aceh Timur","district":"Sungai Raya","urban":"Gajah Mentah","postal_code":24458},{"province":"Nanggroe Aceh Darussalam","city":"Aceh Timur","district":"Simpang Ulim","urban":"Gampong Baro","postal_code":24458},{"province":"Nanggroe Aceh Darussalam","city":"Aceh Timur","district":"Simpang Ulim","urban":"Gampong Baro","postal_code":24458},{"province":"Nanggroe Aceh Darussalam","city":"Aceh Timur","district":"Sungai Raya","urban":"Bukit Drien","postal_code":24458},{"province":"Nanggroe Aceh Darussalam","city":"Aceh Timur","district":"Pante Bidari (Beudari)","urban":"Buket Kareng","postal_code":24458},{"province":"Nanggroe Aceh Darussalam","city":"Aceh Timur","district":"Banda Alam","urban":"Buket Drien","postal_code":24458},{"province":"Nanggroe Aceh Darussalam","city":"Aceh Timur","district":"Pante Bidari (Beudari)","urban":"Buket Bata","postal_code":24458},{"province":"Nanggroe Aceh Darussalam","city":"Aceh Timur","district":"Pante Bidari (Beudari)","urban":"Blang Seunong","postal_code":24458},{"province":"Nanggroe Aceh Darussalam","city":"Aceh Timur","district":"Madat","urban":"Blang Ubit","postal_code":24458},{"province":"Nanggroe Aceh Darussalam","city":"Aceh Timur","district":"Banda Alam","urban":"Blang Rambong","postal_code":24458},{"province":"Nanggroe Aceh Darussalam","city":"Aceh Timur","district":"Simpang Ulim","urban":"Blang Nie/Me","postal_code":24458},{"province":"Nanggroe Aceh Darussalam","city":"Aceh Timur","district":"Madat","urban":"Blang Andam","postal_code":24458},{"province":"Nanggroe Aceh Darussalam","city":"Aceh Timur","district":"Madat","urban":"Blang Awe","postal_code":24458},{"province":"Nanggroe Aceh Darussalam","city":"Aceh Timur","district":"Madat","urban":"Bintah","postal_code":24458},{"province":"Nanggroe Aceh Darussalam","city":"Aceh Timur","district":"Simpang Jernih","urban":"Batu Sumbang","postal_code":24458},{"province":"Nanggroe Aceh Darussalam","city":"Aceh Timur","district":"Simpang Ulim","urban":"Ara Kundo","postal_code":24458},{"province":"Nanggroe Aceh Darussalam","city":"Aceh Timur","district":"Simpang Ulim","urban":"Bantayan","postal_code":24458},{"province":"Nanggroe Aceh Darussalam","city":"Aceh Timur","district":"Sungai Raya","urban":"Alue Rangan","postal_code":24458},{"province":"Nanggroe Aceh Darussalam","city":"Aceh Timur","district":"Simpang Ulim","urban":"Alue Mulieng","postal_code":24458},{"province":"Nanggroe Aceh Darussalam","city":"Aceh Timur","district":"Sungai Raya","urban":"Alue Itam","postal_code":24458},{"province":"Nanggroe Aceh Darussalam","city":"Aceh Timur","district":"Simpang Ulim","urban":"Alue Buloh Satu","postal_code":24458},{"province":"Nanggroe Aceh Darussalam","city":"Aceh Timur","district":"Pante Bidari (Beudari)","urban":"Alue Ie Mirah","postal_code":24458},{"province":"Nanggroe Aceh Darussalam","city":"Aceh Timur","district":"Madat","urban":"Abeuk Geulanteu","postal_code":24458},{"province":"Nanggroe Aceh Darussalam","city":"Aceh Timur","district":"Simpang Ulim","urban":"Alue Buloh Dua","postal_code":24458}]