[{"province":"Nanggroe Aceh Darussalam","city":"Aceh Timur","district":"Idi Timur","urban":"Tualang Dalam","postal_code":24456},{"province":"Nanggroe Aceh Darussalam","city":"Aceh Timur","district":"Idi Timur","urban":"Ulee Glee","postal_code":24456},{"province":"Nanggroe Aceh Darussalam","city":"Aceh Timur","district":"Idi Timur","urban":"Seuneubok Timur","postal_code":24456},{"province":"Nanggroe Aceh Darussalam","city":"Aceh Timur","district":"Nurussalam","urban":"Teupin Pukat","postal_code":24456},{"province":"Nanggroe Aceh Darussalam","city":"Aceh Timur","district":"Idi Timur","urban":"Seuneubok Kuyun","postal_code":24456},{"province":"Nanggroe Aceh Darussalam","city":"Aceh Timur","district":"Idi Timur","urban":"Seuneubok Teungoh","postal_code":24456},{"province":"Nanggroe Aceh Darussalam","city":"Aceh Timur","district":"Nurussalam","urban":"Seuneubok Rambong","postal_code":24456},{"province":"Nanggroe Aceh Darussalam","city":"Aceh Timur","district":"Idi Timur","urban":"Seuneubok Dalam","postal_code":24456},{"province":"Nanggroe Aceh Darussalam","city":"Aceh Timur","district":"Nurussalam","urban":"Seuneubok Dalam","postal_code":24456},{"province":"Nanggroe Aceh Darussalam","city":"Aceh Timur","district":"Idi Timur","urban":"Seuneubok Barat","postal_code":24456},{"province":"Nanggroe Aceh Darussalam","city":"Aceh Timur","district":"Nurussalam","urban":"Seumatang Aron","postal_code":24456},{"province":"Nanggroe Aceh Darussalam","city":"Aceh Timur","district":"Nurussalam","urban":"Seuleumak Muda","postal_code":24456},{"province":"Nanggroe Aceh Darussalam","city":"Aceh Timur","district":"Nurussalam","urban":"Paya Enjee","postal_code":24456},{"province":"Nanggroe Aceh Darussalam","city":"Aceh Timur","district":"Nurussalam","urban":"Peulawi","postal_code":24456},{"province":"Nanggroe Aceh Darussalam","city":"Aceh Timur","district":"Nurussalam","urban":"Pulo U","postal_code":24456},{"province":"Nanggroe Aceh Darussalam","city":"Aceh Timur","district":"Idi Timur","urban":"Meunasah Jeumpa","postal_code":24456},{"province":"Nanggroe Aceh Darussalam","city":"Aceh Timur","district":"Nurussalam","urban":"Meunasah Teungoh","postal_code":24456},{"province":"Nanggroe Aceh Darussalam","city":"Aceh Timur","district":"Nurussalam","urban":"Medang Ara","postal_code":24456},{"province":"Nanggroe Aceh Darussalam","city":"Aceh Timur","district":"Nurussalam","urban":"Meunasah Hagu","postal_code":24456},{"province":"Nanggroe Aceh Darussalam","city":"Aceh Timur","district":"Idi Timur","urban":"Matang Rayeuk (SMK)","postal_code":24456},{"province":"Nanggroe Aceh Darussalam","city":"Aceh Timur","district":"Nurussalam","urban":"Matang Seuleumak","postal_code":24456},{"province":"Nanggroe Aceh Darussalam","city":"Aceh Timur","district":"Idi Timur","urban":"Matang Reyeuk PP","postal_code":24456},{"province":"Nanggroe Aceh Darussalam","city":"Aceh Timur","district":"Nurussalam","urban":"Matang Neuheun","postal_code":24456},{"province":"Nanggroe Aceh Darussalam","city":"Aceh Timur","district":"Nurussalam","urban":"Matang Panyang","postal_code":24456},{"province":"Nanggroe Aceh Darussalam","city":"Aceh Timur","district":"Nurussalam","urban":"Matang Kunyet","postal_code":24456},{"province":"Nanggroe Aceh Darussalam","city":"Aceh Timur","district":"Idi Timur","urban":"Lhok Asahan","postal_code":24456},{"province":"Nanggroe Aceh Darussalam","city":"Aceh Timur","district":"Idi Timur","urban":"Matang Bungong","postal_code":24456},{"province":"Nanggroe Aceh Darussalam","city":"Aceh Timur","district":"Nurussalam","urban":"Kuala Bagok","postal_code":24456},{"province":"Nanggroe Aceh Darussalam","city":"Aceh Timur","district":"Idi Timur","urban":"Keutapang Dua","postal_code":24456},{"province":"Nanggroe Aceh Darussalam","city":"Aceh Timur","district":"Nurussalam","urban":"Gampong Mesjid","postal_code":24456},{"province":"Nanggroe Aceh Darussalam","city":"Aceh Timur","district":"Nurussalam","urban":"Keude Bagok Sa","postal_code":24456},{"province":"Nanggroe Aceh Darussalam","city":"Aceh Timur","district":"Nurussalam","urban":"Gampong Keude Bagok Dua","postal_code":24456},{"province":"Nanggroe Aceh Darussalam","city":"Aceh Timur","district":"Nurussalam","urban":"Gampong Lhee","postal_code":24456},{"province":"Nanggroe Aceh Darussalam","city":"Aceh Timur","district":"Nurussalam","urban":"Buket Panyang","postal_code":24456},{"province":"Nanggroe Aceh Darussalam","city":"Aceh Timur","district":"Nurussalam","urban":"Cot Asan","postal_code":24456},{"province":"Nanggroe Aceh Darussalam","city":"Aceh Timur","district":"Nurussalam","urban":"Gampong Jalan","postal_code":24456},{"province":"Nanggroe Aceh Darussalam","city":"Aceh Timur","district":"Nurussalam","urban":"Buket Meurak","postal_code":24456},{"province":"Nanggroe Aceh Darussalam","city":"Aceh Timur","district":"Nurussalam","urban":"Buket Panjou","postal_code":24456},{"province":"Nanggroe Aceh Darussalam","city":"Aceh Timur","district":"Nurussalam","urban":"Beurandang","postal_code":24456},{"province":"Nanggroe Aceh Darussalam","city":"Aceh Timur","district":"Nurussalam","urban":"Blang Panjou","postal_code":24456},{"province":"Nanggroe Aceh Darussalam","city":"Aceh Timur","district":"Nurussalam","urban":"Bantayan","postal_code":24456},{"province":"Nanggroe Aceh Darussalam","city":"Aceh Timur","district":"Nurussalam","urban":"Baroh Bugeng","postal_code":24456},{"province":"Nanggroe Aceh Darussalam","city":"Aceh Timur","district":"Nurussalam","urban":"Alue Siwah Serdang","postal_code":24456},{"province":"Nanggroe Aceh Darussalam","city":"Aceh Timur","district":"Nurussalam","urban":"Asan Tanjong","postal_code":24456}]