[{"province":"Nanggroe Aceh Darussalam","city":"Aceh Timur","district":"Peureulak","urban":"Tualang","postal_code":24453},{"province":"Nanggroe Aceh Darussalam","city":"Aceh Timur","district":"Peureulak","urban":"Uteun Dama","postal_code":24453},{"province":"Nanggroe Aceh Darussalam","city":"Aceh Timur","district":"Peureulak Timur","urban":"Tualang Pateng","postal_code":24453},{"province":"Nanggroe Aceh Darussalam","city":"Aceh Timur","district":"Peureulak Barat","urban":"Teumpeun","postal_code":24453},{"province":"Nanggroe Aceh Darussalam","city":"Aceh Timur","district":"Peureulak","urban":"Tanoh Rata","postal_code":24453},{"province":"Nanggroe Aceh Darussalam","city":"Aceh Timur","district":"Ranto Peureulak","urban":"Tampak","postal_code":24453},{"province":"Nanggroe Aceh Darussalam","city":"Aceh Timur","district":"Peureulak Barat","urban":"Tanjung Tualang","postal_code":24453},{"province":"Nanggroe Aceh Darussalam","city":"Aceh Timur","district":"Peureulak Timur","urban":"Seuneubok Teungoh","postal_code":24453},{"province":"Nanggroe Aceh Darussalam","city":"Aceh Timur","district":"Peureulak Timur","urban":"Seuneubok Teupin","postal_code":24453},{"province":"Nanggroe Aceh Darussalam","city":"Aceh Timur","district":"Peureulak","urban":"Seuneubok Pidie","postal_code":24453},{"province":"Nanggroe Aceh Darussalam","city":"Aceh Timur","district":"Peureulak Timur","urban":"Seuneubok Punti","postal_code":24453},{"province":"Nanggroe Aceh Darussalam","city":"Aceh Timur","district":"Peureulak Timur","urban":"Seuneubok Rawang","postal_code":24453},{"province":"Nanggroe Aceh Darussalam","city":"Aceh Timur","district":"Peureulak","urban":"Seuneubok Peusangan","postal_code":24453},{"province":"Nanggroe Aceh Darussalam","city":"Aceh Timur","district":"Peureulak Timur","urban":"Seuneubok Paya","postal_code":24453},{"province":"Nanggroe Aceh Darussalam","city":"Aceh Timur","district":"Peureulak Timur","urban":"Seuneubok Lapang","postal_code":24453},{"province":"Nanggroe Aceh Darussalam","city":"Aceh Timur","district":"Ranto Peureulak","urban":"Seuneubok Johan","postal_code":24453},{"province":"Nanggroe Aceh Darussalam","city":"Aceh Timur","district":"Ranto Peureulak","urban":"Seuneubok Dalam","postal_code":24453},{"province":"Nanggroe Aceh Darussalam","city":"Aceh Timur","district":"Peureulak Timur","urban":"Seuneubok Jalan","postal_code":24453},{"province":"Nanggroe Aceh Darussalam","city":"Aceh Timur","district":"Ranto Peureulak","urban":"Seuneubok Jaya","postal_code":24453},{"province":"Nanggroe Aceh Darussalam","city":"Aceh Timur","district":"Ranto Peureulak","urban":"Seuneubok Baro","postal_code":24453},{"province":"Nanggroe Aceh Darussalam","city":"Aceh Timur","district":"Peureulak Timur","urban":"Seuneubok Dalam","postal_code":24453},{"province":"Nanggroe Aceh Darussalam","city":"Aceh Timur","district":"Peureulak","urban":"Seumatang Muda Itam","postal_code":24453},{"province":"Nanggroe Aceh Darussalam","city":"Aceh Timur","district":"Peureulak","urban":"Seuneubok Aceh","postal_code":24453},{"province":"Nanggroe Aceh Darussalam","city":"Aceh Timur","district":"Ranto Peureulak","urban":"Seulemak Muda","postal_code":24453},{"province":"Nanggroe Aceh Darussalam","city":"Aceh Timur","district":"Ranto Peureulak","urban":"Seumali (Seumaly)","postal_code":24453},{"province":"Nanggroe Aceh Darussalam","city":"Aceh Timur","district":"Peureulak Timur","urban":"Seumatang Keude","postal_code":24453},{"province":"Nanggroe Aceh Darussalam","city":"Aceh Timur","district":"Ranto Peureulak","urban":"Pulo Blang","postal_code":24453},{"province":"Nanggroe Aceh Darussalam","city":"Aceh Timur","district":"Ranto Peureulak","urban":"Punti Payong","postal_code":24453},{"province":"Nanggroe Aceh Darussalam","city":"Aceh Timur","district":"Peureulak","urban":"Punti","postal_code":24453},{"province":"Nanggroe Aceh Darussalam","city":"Aceh Timur","district":"Ranto Peureulak","urban":"Paya Unou","postal_code":24453},{"province":"Nanggroe Aceh Darussalam","city":"Aceh Timur","district":"Ranto Peureulak","urban":"Pertamina","postal_code":24453},{"province":"Nanggroe Aceh Darussalam","city":"Aceh Timur","district":"Ranto Peureulak","urban":"Paya Palas","postal_code":24453},{"province":"Nanggroe Aceh Darussalam","city":"Aceh Timur","district":"Peureulak Barat","urban":"Paya Seungat","postal_code":24453},{"province":"Nanggroe Aceh Darussalam","city":"Aceh Timur","district":"Peureulak","urban":"Paya Meuligou","postal_code":24453},{"province":"Nanggroe Aceh Darussalam","city":"Aceh Timur","district":"Peureulak","urban":"Paya Kalui","postal_code":24453},{"province":"Nanggroe Aceh Darussalam","city":"Aceh Timur","district":"Peureulak","urban":"Paya Lipah","postal_code":24453},{"province":"Nanggroe Aceh Darussalam","city":"Aceh Timur","district":"Peureulak Barat","urban":"Paya Biek","postal_code":24453},{"province":"Nanggroe Aceh Darussalam","city":"Aceh Timur","district":"Peureulak Barat","urban":"Paya Gajah","postal_code":24453},{"province":"Nanggroe Aceh Darussalam","city":"Aceh Timur","district":"Ranto Peureulak","urban":"Pasir Putih","postal_code":24453},{"province":"Nanggroe Aceh Darussalam","city":"Aceh Timur","district":"Peureulak Barat","urban":"Mon Geudong","postal_code":24453},{"province":"Nanggroe Aceh Darussalam","city":"Aceh Timur","district":"Peureulak","urban":"Pasir Putih","postal_code":24453},{"province":"Nanggroe Aceh Darussalam","city":"Aceh Timur","district":"Peureulak","urban":"Matang Pelawi","postal_code":24453},{"province":"Nanggroe Aceh Darussalam","city":"Aceh Timur","district":"Peureulak","urban":"Matang Gleum","postal_code":24453},{"province":"Nanggroe Aceh Darussalam","city":"Aceh Timur","district":"Ranto Peureulak","urban":"Mata Ie","postal_code":24453},{"province":"Nanggroe Aceh Darussalam","city":"Aceh Timur","district":"Peureulak","urban":"Lubok Pempeng","postal_code":24453},{"province":"Nanggroe Aceh Darussalam","city":"Aceh Timur","district":"Peureulak","urban":"Lhok Dalam","postal_code":24453},{"province":"Nanggroe Aceh Darussalam","city":"Aceh Timur","district":"Peureulak","urban":"Kuala Leuge","postal_code":24453},{"province":"Nanggroe Aceh Darussalam","city":"Aceh Timur","district":"Peureulak","urban":"Leuge","postal_code":24453},{"province":"Nanggroe Aceh Darussalam","city":"Aceh Timur","district":"Peureulak","urban":"Kuala Bugak","postal_code":24453},{"province":"Nanggroe Aceh Darussalam","city":"Aceh Timur","district":"Ranto Peureulak","urban":"Kliet","postal_code":24453},{"province":"Nanggroe Aceh Darussalam","city":"Aceh Timur","district":"Peureulak Timur","urban":"Krut Lintang","postal_code":24453},{"province":"Nanggroe Aceh Darussalam","city":"Aceh Timur","district":"Peureulak","urban":"Keumuneng","postal_code":24453},{"province":"Nanggroe Aceh Darussalam","city":"Aceh Timur","district":"Peureulak","urban":"Keude Peureulak","postal_code":24453},{"province":"Nanggroe Aceh Darussalam","city":"Aceh Timur","district":"Peureulak Barat","urban":"Kabu","postal_code":24453},{"province":"Nanggroe Aceh Darussalam","city":"Aceh Timur","district":"Peureulak Barat","urban":"Kebun Teumpeun","postal_code":24453},{"province":"Nanggroe Aceh Darussalam","city":"Aceh Timur","district":"Peureulak Timur","urban":"Jeungki","postal_code":24453},{"province":"Nanggroe Aceh Darussalam","city":"Aceh Timur","district":"Peureulak Timur","urban":"Geulanggang Merak","postal_code":24453},{"province":"Nanggroe Aceh Darussalam","city":"Aceh Timur","district":"Peureulak","urban":"Dama Tutong","postal_code":24453},{"province":"Nanggroe Aceh Darussalam","city":"Aceh Timur","district":"Peureulak","urban":"Cot Muda Itam","postal_code":24453},{"province":"Nanggroe Aceh Darussalam","city":"Aceh Timur","district":"Peureulak","urban":"Cot Keh","postal_code":24453},{"province":"Nanggroe Aceh Darussalam","city":"Aceh Timur","district":"Peureulak","urban":"Cot Geulumpang","postal_code":24453},{"province":"Nanggroe Aceh Darussalam","city":"Aceh Timur","district":"Peureulak","urban":"Cek Mbon","postal_code":24453},{"province":"Nanggroe Aceh Darussalam","city":"Aceh Timur","district":"Peureulak Timur","urban":"Bukit Meuriam","postal_code":24453},{"province":"Nanggroe Aceh Darussalam","city":"Aceh Timur","district":"Ranto Peureulak","urban":"Buket Pala Bsp","postal_code":24453},{"province":"Nanggroe Aceh Darussalam","city":"Aceh Timur","district":"Peureulak","urban":"Blang Simpo","postal_code":24453},{"province":"Nanggroe Aceh Darussalam","city":"Aceh Timur","district":"Peureulak","urban":"Buket Pala","postal_code":24453},{"province":"Nanggroe Aceh Darussalam","city":"Aceh Timur","district":"Peureulak","urban":"Blang Bitra","postal_code":24453},{"province":"Nanggroe Aceh Darussalam","city":"Aceh Timur","district":"Peureulak","urban":"Blang Batee","postal_code":24453},{"province":"Nanggroe Aceh Darussalam","city":"Aceh Timur","district":"Ranto Peureulak","urban":"Blang Barom","postal_code":24453},{"province":"Nanggroe Aceh Darussalam","city":"Aceh Timur","district":"Peureulak","urban":"Blang Balok","postal_code":24453},{"province":"Nanggroe Aceh Darussalam","city":"Aceh Timur","district":"Ranto Peureulak","urban":"Bhom Lama","postal_code":24453},{"province":"Nanggroe Aceh Darussalam","city":"Aceh Timur","district":"Peureulak Barat","urban":"Beusa Seberang","postal_code":24453},{"province":"Nanggroe Aceh Darussalam","city":"Aceh Timur","district":"Peureulak","urban":"Beusa Meuranoe","postal_code":24453},{"province":"Nanggroe Aceh Darussalam","city":"Aceh Timur","district":"Peureulak Barat","urban":"Beusa Baroh","postal_code":24453},{"province":"Nanggroe Aceh Darussalam","city":"Aceh Timur","district":"Peureulak Barat","urban":"Beuringin","postal_code":24453},{"province":"Nanggroe Aceh Darussalam","city":"Aceh Timur","district":"Ranto Peureulak","urban":"Beurandang","postal_code":24453},{"province":"Nanggroe Aceh Darussalam","city":"Aceh Timur","district":"Peureulak","urban":"Bangka Rimung","postal_code":24453},{"province":"Nanggroe Aceh Darussalam","city":"Aceh Timur","district":"Peureulak","urban":"Bandrong","postal_code":24453},{"province":"Nanggroe Aceh Darussalam","city":"Aceh Timur","district":"Peureulak","urban":"Balee Buya","postal_code":24453},{"province":"Nanggroe Aceh Darussalam","city":"Aceh Timur","district":"Peureulak Timur","urban":"Babah Krueng","postal_code":24453},{"province":"Nanggroe Aceh Darussalam","city":"Aceh Timur","district":"Ranto Peureulak","urban":"Alue Udep","postal_code":24453},{"province":"Nanggroe Aceh Darussalam","city":"Aceh Timur","district":"Peureulak Timur","urban":"Alue Tho","postal_code":24453},{"province":"Nanggroe Aceh Darussalam","city":"Aceh Timur","district":"Peureulak","urban":"Alue Rambong","postal_code":24453},{"province":"Nanggroe Aceh Darussalam","city":"Aceh Timur","district":"Peureulak","urban":"Alue Nibong","postal_code":24453},{"province":"Nanggroe Aceh Darussalam","city":"Aceh Timur","district":"Peureulak Timur","urban":"Alue Gurep","postal_code":24453},{"province":"Nanggroe Aceh Darussalam","city":"Aceh Timur","district":"Ranto Peureulak","urban":"Alue Geunteng","postal_code":24453},{"province":"Nanggroe Aceh Darussalam","city":"Aceh Timur","district":"Peureulak","urban":"Alue Dua Paya Gajah","postal_code":24453},{"province":"Nanggroe Aceh Darussalam","city":"Aceh Timur","district":"Ranto Peureulak","urban":"Alue Dua","postal_code":24453},{"province":"Nanggroe Aceh Darussalam","city":"Aceh Timur","district":"Peureulak Timur","urban":"Alue Bugeng","postal_code":24453},{"province":"Nanggroe Aceh Darussalam","city":"Aceh Timur","district":"Peureulak Barat","urban":"Alue Bu Tuha","postal_code":24453},{"province":"Nanggroe Aceh Darussalam","city":"Aceh Timur","district":"Peureulak Barat","urban":"Alue Bu Tunong","postal_code":24453},{"province":"Nanggroe Aceh Darussalam","city":"Aceh Timur","district":"Peureulak Barat","urban":"Alue Bu Jalan","postal_code":24453},{"province":"Nanggroe Aceh Darussalam","city":"Aceh Timur","district":"Peureulak Barat","urban":"Alue Bu Jalan Baroh","postal_code":24453},{"province":"Nanggroe Aceh Darussalam","city":"Aceh Timur","district":"Ranto Peureulak","urban":"Alue Batee","postal_code":24453},{"province":"Nanggroe Aceh Darussalam","city":"Aceh Timur","district":"Peureulak Timur","urban":"Alue Bu Alue Lhok","postal_code":24453},{"province":"Nanggroe Aceh Darussalam","city":"Aceh Timur","district":"Peureulak Timur","urban":"Alue Bu Alue Nireh","postal_code":24453}]