[{"province":"Nanggroe Aceh Darussalam","city":"Aceh Timur","district":"Idi Rayeuk","urban":"Ulee Blang","postal_code":24454},{"province":"Nanggroe Aceh Darussalam","city":"Aceh Timur","district":"Darul Falah","urban":"Tunong Paya Kruep","postal_code":24454},{"province":"Nanggroe Aceh Darussalam","city":"Aceh Timur","district":"Darul Falah","urban":"Tunong Ulee Gajah","postal_code":24454},{"province":"Nanggroe Aceh Darussalam","city":"Aceh Timur","district":"Idi Rayeuk","urban":"Titi Baro","postal_code":24454},{"province":"Nanggroe Aceh Darussalam","city":"Aceh Timur","district":"Darul Falah","urban":"Tunong Bugeng","postal_code":24454},{"province":"Nanggroe Aceh Darussalam","city":"Aceh Timur","district":"Idi Rayeuk","urban":"Tanjong Kapai","postal_code":24454},{"province":"Nanggroe Aceh Darussalam","city":"Aceh Timur","district":"Idi Rayeuk","urban":"Tanoh Anoe","postal_code":24454},{"province":"Nanggroe Aceh Darussalam","city":"Aceh Timur","district":"Idi Rayeuk","urban":"Teupin Batee","postal_code":24454},{"province":"Nanggroe Aceh Darussalam","city":"Aceh Timur","district":"Idi Rayeuk","urban":"Seuneubok Tuha","postal_code":24454},{"province":"Nanggroe Aceh Darussalam","city":"Aceh Timur","district":"Idi Rayeuk","urban":"Seuneubok Tutong","postal_code":24454},{"province":"Nanggroe Aceh Darussalam","city":"Aceh Timur","district":"Idi Rayeuk","urban":"Seuneubok Teungoh Peudawa Puntong","postal_code":24454},{"province":"Nanggroe Aceh Darussalam","city":"Aceh Timur","district":"Idi Tunong","urban":"Seuneubok Teupin Panah","postal_code":24454},{"province":"Nanggroe Aceh Darussalam","city":"Aceh Timur","district":"Peudawa","urban":"Seuneubok Teungoh","postal_code":24454},{"province":"Nanggroe Aceh Darussalam","city":"Aceh Timur","district":"Idi Rayeuk","urban":"Seuneubok Rambong","postal_code":24454},{"province":"Nanggroe Aceh Darussalam","city":"Aceh Timur","district":"Idi Tunong","urban":"Seuneubok Punti","postal_code":24454},{"province":"Nanggroe Aceh Darussalam","city":"Aceh Timur","district":"Peudawa","urban":"Seuneubok Peunteut","postal_code":24454},{"province":"Nanggroe Aceh Darussalam","city":"Aceh Timur","district":"Darul Falah","urban":"Seuneubok Panton","postal_code":24454},{"province":"Nanggroe Aceh Darussalam","city":"Aceh Timur","district":"Idi Tunong","urban":"Seuneubok Drien","postal_code":24454},{"province":"Nanggroe Aceh Darussalam","city":"Aceh Timur","district":"Idi Tunong","urban":"Seuneubok Jalan","postal_code":24454},{"province":"Nanggroe Aceh Darussalam","city":"Aceh Timur","district":"Idi Tunong","urban":"Seuneubok Meureudu (Meurudu)","postal_code":24454},{"province":"Nanggroe Aceh Darussalam","city":"Aceh Timur","district":"Idi Tunong","urban":"Seuneubok Buya","postal_code":24454},{"province":"Nanggroe Aceh Darussalam","city":"Aceh Timur","district":"Idi Tunong","urban":"Seuneubok Dalam","postal_code":24454},{"province":"Nanggroe Aceh Darussalam","city":"Aceh Timur","district":"Idi Tunong","urban":"Seuneubok Baro","postal_code":24454},{"province":"Nanggroe Aceh Darussalam","city":"Aceh Timur","district":"Idi Tunong","urban":"Seuneubok Baro","postal_code":24454},{"province":"Nanggroe Aceh Darussalam","city":"Aceh Timur","district":"Idi Rayeuk","urban":"Sampoimah","postal_code":24454},{"province":"Nanggroe Aceh Darussalam","city":"Aceh Timur","district":"Idi Rayeuk","urban":"Seuneubok Bacee","postal_code":24454},{"province":"Nanggroe Aceh Darussalam","city":"Aceh Timur","district":"Peudawa","urban":"Sama Dua","postal_code":24454},{"province":"Nanggroe Aceh Darussalam","city":"Aceh Timur","district":"Idi Tunong","urban":"Paya Gaboh","postal_code":24454},{"province":"Nanggroe Aceh Darussalam","city":"Aceh Timur","district":"Darul Falah","urban":"Paya Kruep","postal_code":24454},{"province":"Nanggroe Aceh Darussalam","city":"Aceh Timur","district":"Peudawa","urban":"Paya Bili Dua","postal_code":24454},{"province":"Nanggroe Aceh Darussalam","city":"Aceh Timur","district":"Peudawa","urban":"Paya Bili I","postal_code":24454},{"province":"Nanggroe Aceh Darussalam","city":"Aceh Timur","district":"Peudawa","urban":"Paya Dua","postal_code":24454},{"province":"Nanggroe Aceh Darussalam","city":"Aceh Timur","district":"Idi Tunong","urban":"Padang Kasah","postal_code":24454},{"province":"Nanggroe Aceh Darussalam","city":"Aceh Timur","district":"Idi Tunong","urban":"Paya Awe / Awee","postal_code":24454},{"province":"Nanggroe Aceh Darussalam","city":"Aceh Timur","district":"Idi Rayeuk","urban":"Meunasah Pu&#8217;uk","postal_code":24454},{"province":"Nanggroe Aceh Darussalam","city":"Aceh Timur","district":"Peudawa","urban":"Meunasah Krueng","postal_code":24454},{"province":"Nanggroe Aceh Darussalam","city":"Aceh Timur","district":"Idi Rayeuk","urban":"Kuta Blang","postal_code":24454},{"province":"Nanggroe Aceh Darussalam","city":"Aceh Timur","district":"Idi Rayeuk","urban":"Kuta Lawah","postal_code":24454},{"province":"Nanggroe Aceh Darussalam","city":"Aceh Timur","district":"Peudawa","urban":"Matang Rayeuk","postal_code":24454},{"province":"Nanggroe Aceh Darussalam","city":"Aceh Timur","district":"Idi Rayeuk","urban":"Kuala Peudawa Puntong","postal_code":24454},{"province":"Nanggroe Aceh Darussalam","city":"Aceh Timur","district":"Peudawa","urban":"Kuta Baro","postal_code":24454},{"province":"Nanggroe Aceh Darussalam","city":"Aceh Timur","district":"Idi Rayeuk","urban":"Keutapang Mameh","postal_code":24454},{"province":"Nanggroe Aceh Darussalam","city":"Aceh Timur","district":"Idi Rayeuk","urban":"Kuala Idi","postal_code":24454},{"province":"Nanggroe Aceh Darussalam","city":"Aceh Timur","district":"Idi Tunong","urban":"Keude Keumuneng","postal_code":24454},{"province":"Nanggroe Aceh Darussalam","city":"Aceh Timur","district":"Idi Tunong","urban":"Keumuneng Lhok","postal_code":24454},{"province":"Nanggroe Aceh Darussalam","city":"Aceh Timur","district":"Darul Falah","urban":"Keudondong","postal_code":24454},{"province":"Nanggroe Aceh Darussalam","city":"Aceh Timur","district":"Idi Rayeuk","urban":"Keude Aceh","postal_code":24454},{"province":"Nanggroe Aceh Darussalam","city":"Aceh Timur","district":"Darul Falah","urban":"Keude Blang","postal_code":24454},{"province":"Nanggroe Aceh Darussalam","city":"Aceh Timur","district":"Idi Rayeuk","urban":"Keude Blang","postal_code":24454},{"province":"Nanggroe Aceh Darussalam","city":"Aceh Timur","district":"Idi Rayeuk","urban":"Gureb Blang Gampong Jawa","postal_code":24454},{"province":"Nanggroe Aceh Darussalam","city":"Aceh Timur","district":"Peudawa","urban":"Gampong/Kampung Kuala","postal_code":24454},{"province":"Nanggroe Aceh Darussalam","city":"Aceh Timur","district":"Idi Tunong","urban":"Gampong Teupin Panah","postal_code":24454},{"province":"Nanggroe Aceh Darussalam","city":"Aceh Timur","district":"Peudawa","urban":"Gampong/Kampung Keude","postal_code":24454},{"province":"Nanggroe Aceh Darussalam","city":"Aceh Timur","district":"Idi Tunong","urban":"Gampong Keumuneng (Keumuning)","postal_code":24454},{"province":"Nanggroe Aceh Darussalam","city":"Aceh Timur","district":"Idi Rayeuk","urban":"Gampong Tanjong","postal_code":24454},{"province":"Nanggroe Aceh Darussalam","city":"Aceh Timur","district":"Idi Rayeuk","urban":"Gampong Baro","postal_code":24454},{"province":"Nanggroe Aceh Darussalam","city":"Aceh Timur","district":"Idi Rayeuk","urban":"Gampong Jalan","postal_code":24454},{"province":"Nanggroe Aceh Darussalam","city":"Aceh Timur","district":"Idi Rayeuk","urban":"Gampong Jawa","postal_code":24454},{"province":"Nanggroe Aceh Darussalam","city":"Aceh Timur","district":"Idi Rayeuk","urban":"Gampong Aceh","postal_code":24454},{"province":"Nanggroe Aceh Darussalam","city":"Aceh Timur","district":"Idi Rayeuk","urban":"Dama pulo","postal_code":24454},{"province":"Nanggroe Aceh Darussalam","city":"Aceh Timur","district":"Darul Falah","urban":"Buket Teumpeun","postal_code":24454},{"province":"Nanggroe Aceh Darussalam","city":"Aceh Timur","district":"Darul Falah","urban":"Buket Tufah","postal_code":24454},{"province":"Nanggroe Aceh Darussalam","city":"Aceh Timur","district":"Darul Falah","urban":"Cempeudak","postal_code":24454},{"province":"Nanggroe Aceh Darussalam","city":"Aceh Timur","district":"Idi Tunong","urban":"Buket Rumiya","postal_code":24454},{"province":"Nanggroe Aceh Darussalam","city":"Aceh Timur","district":"Idi Tunong","urban":"Buket Teukuh","postal_code":24454},{"province":"Nanggroe Aceh Darussalam","city":"Aceh Timur","district":"Idi Rayeuk","urban":"Buket Pala","postal_code":24454},{"province":"Nanggroe Aceh Darussalam","city":"Aceh Timur","district":"Idi Tunong","urban":"Buket Puuk","postal_code":24454},{"province":"Nanggroe Aceh Darussalam","city":"Aceh Timur","district":"Peudawa","urban":"Buket Kuta","postal_code":24454},{"province":"Nanggroe Aceh Darussalam","city":"Aceh Timur","district":"Idi Rayeuk","urban":"Buket Langa","postal_code":24454},{"province":"Nanggroe Aceh Darussalam","city":"Aceh Timur","district":"Idi Rayeuk","urban":"Buket Meulinteung","postal_code":24454},{"province":"Nanggroe Aceh Darussalam","city":"Aceh Timur","district":"Idi Rayeuk","urban":"Buket Jok","postal_code":24454},{"province":"Nanggroe Aceh Darussalam","city":"Aceh Timur","district":"Idi Rayeuk","urban":"Buket Juara","postal_code":24454},{"province":"Nanggroe Aceh Darussalam","city":"Aceh Timur","district":"Idi Tunong","urban":"Blang Minjei","postal_code":24454},{"province":"Nanggroe Aceh Darussalam","city":"Aceh Timur","district":"Idi Tunong","urban":"Blang Guci (Seguci)","postal_code":24454},{"province":"Nanggroe Aceh Darussalam","city":"Aceh Timur","district":"Peudawa","urban":"Blang Kuta","postal_code":24454},{"province":"Nanggroe Aceh Darussalam","city":"Aceh Timur","district":"Idi Rayeuk","urban":"Blang Geulumpang","postal_code":24454},{"province":"Nanggroe Aceh Darussalam","city":"Aceh Timur","district":"Peudawa","urban":"Blang Buket","postal_code":24454},{"province":"Nanggroe Aceh Darussalam","city":"Aceh Timur","district":"Idi Rayeuk","urban":"Bantayan Timu","postal_code":24454},{"province":"Nanggroe Aceh Darussalam","city":"Aceh Timur","district":"Idi Tunong","urban":"Bantayan Barat","postal_code":24454},{"province":"Nanggroe Aceh Darussalam","city":"Aceh Timur","district":"Darul Falah","urban":"Alue Siwah","postal_code":24454},{"province":"Nanggroe Aceh Darussalam","city":"Aceh Timur","district":"Peudawa","urban":"Asan Rampak","postal_code":24454},{"province":"Nanggroe Aceh Darussalam","city":"Aceh Timur","district":"Idi Tunong","urban":"Alue Kumbang M","postal_code":24454},{"province":"Nanggroe Aceh Darussalam","city":"Aceh Timur","district":"Idi Tunong","urban":"Alue Lhok","postal_code":24454},{"province":"Nanggroe Aceh Darussalam","city":"Aceh Timur","district":"Peudawa","urban":"Alue Ie Itam","postal_code":24454},{"province":"Nanggroe Aceh Darussalam","city":"Aceh Timur","district":"Idi Rayeuk","urban":"Alue Dua Muka S","postal_code":24454},{"province":"Nanggroe Aceh Darussalam","city":"Aceh Timur","district":"Idi Tunong","urban":"Alue Kumbang A","postal_code":24454},{"province":"Nanggroe Aceh Darussalam","city":"Aceh Timur","district":"Peudawa","urban":"Alue Batee","postal_code":24454},{"province":"Nanggroe Aceh Darussalam","city":"Aceh Timur","district":"Idi Rayeuk","urban":"Alue Dua Muka O","postal_code":24454}]