[{"province":"Nanggroe Aceh Darussalam","city":"Aceh Timur","district":"Serba Jadi","urban":"Umah Taring","postal_code":24461},{"province":"Nanggroe Aceh Darussalam","city":"Aceh Timur","district":"Serba Jadi","urban":"Ujung Karang","postal_code":24461},{"province":"Nanggroe Aceh Darussalam","city":"Aceh Timur","district":"Serba Jadi","urban":"Tualang","postal_code":24461},{"province":"Nanggroe Aceh Darussalam","city":"Aceh Timur","district":"Peunaron","urban":"Srimulya","postal_code":24461},{"province":"Nanggroe Aceh Darussalam","city":"Aceh Timur","district":"Serba Jadi","urban":"Sunti","postal_code":24461},{"province":"Nanggroe Aceh Darussalam","city":"Aceh Timur","district":"Serba Jadi","urban":"Terujak","postal_code":24461},{"province":"Nanggroe Aceh Darussalam","city":"Aceh Timur","district":"Serba Jadi","urban":"Sembuang","postal_code":24461},{"province":"Nanggroe Aceh Darussalam","city":"Aceh Timur","district":"Serba Jadi","urban":"Seuleumak","postal_code":24461},{"province":"Nanggroe Aceh Darussalam","city":"Aceh Timur","district":"Serba Jadi","urban":"Rampah","postal_code":24461},{"province":"Nanggroe Aceh Darussalam","city":"Aceh Timur","district":"Serba Jadi","urban":"Sekualan","postal_code":24461},{"province":"Nanggroe Aceh Darussalam","city":"Aceh Timur","district":"Peunaron","urban":"Peunaron Baru","postal_code":24461},{"province":"Nanggroe Aceh Darussalam","city":"Aceh Timur","district":"Peunaron","urban":"Peunaron Lama","postal_code":24461},{"province":"Nanggroe Aceh Darussalam","city":"Aceh Timur","district":"Serba Jadi","urban":"Nalon","postal_code":24461},{"province":"Nanggroe Aceh Darussalam","city":"Aceh Timur","district":"Serba Jadi","urban":"Loot","postal_code":24461},{"province":"Nanggroe Aceh Darussalam","city":"Aceh Timur","district":"Serba Jadi","urban":"Mesir","postal_code":24461},{"province":"Nanggroe Aceh Darussalam","city":"Aceh Timur","district":"Serba Jadi","urban":"Lokop","postal_code":24461},{"province":"Nanggroe Aceh Darussalam","city":"Aceh Timur","district":"Serba Jadi","urban":"Jering","postal_code":24461},{"province":"Nanggroe Aceh Darussalam","city":"Aceh Timur","district":"Serba Jadi","urban":"Leles","postal_code":24461},{"province":"Nanggroe Aceh Darussalam","city":"Aceh Timur","district":"Serba Jadi","urban":"Bunin","postal_code":24461},{"province":"Nanggroe Aceh Darussalam","city":"Aceh Timur","district":"Peunaron","urban":"Bukit Tiga","postal_code":24461},{"province":"Nanggroe Aceh Darussalam","city":"Aceh Timur","district":"Peunaron","urban":"Arul Pinang","postal_code":24461},{"province":"Nanggroe Aceh Darussalam","city":"Aceh Timur","district":"Serba Jadi","urban":"Arul Durin","postal_code":24461}]