[{"province":"Nanggroe Aceh Darussalam","city":"Aceh Tamiang","district":"Bandar Pusaka","urban":"Sunting","postal_code":24478},{"province":"Nanggroe Aceh Darussalam","city":"Aceh Tamiang","district":"Tamiang Hulu","urban":"Wono Sari","postal_code":24478},{"province":"Nanggroe Aceh Darussalam","city":"Aceh Tamiang","district":"Tamiang Hulu","urban":"Rongoh","postal_code":24478},{"province":"Nanggroe Aceh Darussalam","city":"Aceh Tamiang","district":"Bandar Pusaka","urban":"Serba","postal_code":24478},{"province":"Nanggroe Aceh Darussalam","city":"Aceh Tamiang","district":"Tamiang Hulu","urban":"Perkebunan Pulau Tiga","postal_code":24478},{"province":"Nanggroe Aceh Darussalam","city":"Aceh Tamiang","district":"Bandar Pusaka","urban":"Perupuk","postal_code":24478},{"province":"Nanggroe Aceh Darussalam","city":"Aceh Tamiang","district":"Bandar Pusaka","urban":"Rantau Bintang","postal_code":24478},{"province":"Nanggroe Aceh Darussalam","city":"Aceh Tamiang","district":"Bandar Pusaka","urban":"Pengidam","postal_code":24478},{"province":"Nanggroe Aceh Darussalam","city":"Aceh Tamiang","district":"Bandar Pusaka","urban":"Perkebunan Alur Jambu","postal_code":24478},{"province":"Nanggroe Aceh Darussalam","city":"Aceh Tamiang","district":"Tamiang Hulu","urban":"Kaloy","postal_code":24478},{"province":"Nanggroe Aceh Darussalam","city":"Aceh Tamiang","district":"Bandar Pusaka","urban":"Jambo/Jambu Rambong","postal_code":24478},{"province":"Nanggroe Aceh Darussalam","city":"Aceh Tamiang","district":"Bandar Pusaka","urban":"Pantai Cempa","postal_code":24478},{"province":"Nanggroe Aceh Darussalam","city":"Aceh Tamiang","district":"Bandar Pusaka","urban":"Blang Kandis","postal_code":24478},{"province":"Nanggroe Aceh Darussalam","city":"Aceh Tamiang","district":"Tamiang Hulu","urban":"Harum Sari","postal_code":24478},{"province":"Nanggroe Aceh Darussalam","city":"Aceh Tamiang","district":"Bandar Pusaka","urban":"Batu Bedulang","postal_code":24478},{"province":"Nanggroe Aceh Darussalam","city":"Aceh Tamiang","district":"Bandar Pusaka","urban":"Bengkelang","postal_code":24478},{"province":"Nanggroe Aceh Darussalam","city":"Aceh Tamiang","district":"Tamiang Hulu","urban":"Bandar Khalifah","postal_code":24478},{"province":"Nanggroe Aceh Darussalam","city":"Aceh Tamiang","district":"Tamiang Hulu","urban":"Bandar Setia","postal_code":24478},{"province":"Nanggroe Aceh Darussalam","city":"Aceh Tamiang","district":"Bandar Pusaka","urban":"Batang Ara","postal_code":24478},{"province":"Nanggroe Aceh Darussalam","city":"Aceh Tamiang","district":"Bandar Pusaka","urban":"Aras Sembilan","postal_code":24478},{"province":"Nanggroe Aceh Darussalam","city":"Aceh Tamiang","district":"Bandar Pusaka","urban":"Babo","postal_code":24478},{"province":"Nanggroe Aceh Darussalam","city":"Aceh Tamiang","district":"Tamiang Hulu","urban":"Alur Tani II","postal_code":24478},{"province":"Nanggroe Aceh Darussalam","city":"Aceh Tamiang","district":"Tamiang Hulu","urban":"Alur Tani I","postal_code":24478},{"province":"Nanggroe Aceh Darussalam","city":"Aceh Tamiang","district":"Bandar Pusaka","urban":"Alur Jambu","postal_code":24478}]