[{"province":"Nanggroe Aceh Darussalam","city":"Aceh Tamiang","district":"Sekerak","urban":"Tanjung Gelumpang","postal_code":24476},{"province":"Nanggroe Aceh Darussalam","city":"Aceh Tamiang","district":"Karang Baru","urban":"Tanjung Karang","postal_code":24476},{"province":"Nanggroe Aceh Darussalam","city":"Aceh Tamiang","district":"Karang Baru","urban":"Tanjung Seumantoh","postal_code":24476},{"province":"Nanggroe Aceh Darussalam","city":"Aceh Tamiang","district":"Sekerak","urban":"Sulum","postal_code":24476},{"province":"Nanggroe Aceh Darussalam","city":"Aceh Tamiang","district":"Karang Baru","urban":"Tanah Terban","postal_code":24476},{"province":"Nanggroe Aceh Darussalam","city":"Aceh Tamiang","district":"Karang Baru","urban":"Sukajadi Paya Bujuk","postal_code":24476},{"province":"Nanggroe Aceh Darussalam","city":"Aceh Tamiang","district":"Sekerak","urban":"Suka Makmur","postal_code":24476},{"province":"Nanggroe Aceh Darussalam","city":"Aceh Tamiang","district":"Sekerak","urban":"Sekerak Kiri","postal_code":24476},{"province":"Nanggroe Aceh Darussalam","city":"Aceh Tamiang","district":"Sekerak","urban":"Sekumur","postal_code":24476},{"province":"Nanggroe Aceh Darussalam","city":"Aceh Tamiang","district":"Karang Baru","urban":"Simpang Empat","postal_code":24476},{"province":"Nanggroe Aceh Darussalam","city":"Aceh Tamiang","district":"Sekerak","urban":"Sekerak Kanan","postal_code":24476},{"province":"Nanggroe Aceh Darussalam","city":"Aceh Tamiang","district":"Karang Baru","urban":"Rantau Panjang","postal_code":24476},{"province":"Nanggroe Aceh Darussalam","city":"Aceh Tamiang","district":"Sekerak","urban":"Pematang Durian","postal_code":24476},{"province":"Nanggroe Aceh Darussalam","city":"Aceh Tamiang","district":"Karang Baru","urban":"Paya Tampah","postal_code":24476},{"province":"Nanggroe Aceh Darussalam","city":"Aceh Tamiang","district":"Karang Baru","urban":"Payameta","postal_code":24476},{"province":"Nanggroe Aceh Darussalam","city":"Aceh Tamiang","district":"Karang Baru","urban":"Paya Awe","postal_code":24476},{"province":"Nanggroe Aceh Darussalam","city":"Aceh Tamiang","district":"Sekerak","urban":"Pantai Tinjau","postal_code":24476},{"province":"Nanggroe Aceh Darussalam","city":"Aceh Tamiang","district":"Karang Baru","urban":"Menang Gini","postal_code":24476},{"province":"Nanggroe Aceh Darussalam","city":"Aceh Tamiang","district":"Karang Baru","urban":"Paya Kulbi","postal_code":24476},{"province":"Nanggroe Aceh Darussalam","city":"Aceh Tamiang","district":"Karang Baru","urban":"Pahlawan","postal_code":24476},{"province":"Nanggroe Aceh Darussalam","city":"Aceh Tamiang","district":"Sekerak","urban":"Pantai Perlak","postal_code":24476},{"province":"Nanggroe Aceh Darussalam","city":"Aceh Tamiang","district":"Karang Baru","urban":"Medang Ara","postal_code":24476},{"province":"Nanggroe Aceh Darussalam","city":"Aceh Tamiang","district":"Sekerak","urban":"Lubuk Sidup","postal_code":24476},{"province":"Nanggroe Aceh Darussalam","city":"Aceh Tamiang","district":"Karang Baru","urban":"Kesehatan","postal_code":24476},{"province":"Nanggroe Aceh Darussalam","city":"Aceh Tamiang","district":"Karang Baru","urban":"Kebun Tanah Terban","postal_code":24476},{"province":"Nanggroe Aceh Darussalam","city":"Aceh Tamiang","district":"Karang Baru","urban":"Kebun Tanjung Seumantoh","postal_code":24476},{"province":"Nanggroe Aceh Darussalam","city":"Aceh Tamiang","district":"Karang Baru","urban":"Kebun Medang Ara","postal_code":24476},{"province":"Nanggroe Aceh Darussalam","city":"Aceh Tamiang","district":"Sekerak","urban":"Kebun Batang Ara","postal_code":24476},{"province":"Nanggroe Aceh Darussalam","city":"Aceh Tamiang","district":"Karang Baru","urban":"Kebun Afdeling Seleleh","postal_code":24476},{"province":"Nanggroe Aceh Darussalam","city":"Aceh Tamiang","district":"Sekerak","urban":"Juar","postal_code":24476},{"province":"Nanggroe Aceh Darussalam","city":"Aceh Tamiang","district":"Karang Baru","urban":"Gampong Sukajadi","postal_code":24476},{"province":"Nanggroe Aceh Darussalam","city":"Aceh Tamiang","district":"Karang Baru","urban":"Gampong Tupah","postal_code":24476},{"province":"Nanggroe Aceh Darussalam","city":"Aceh Tamiang","district":"Karang Baru","urban":"Gampong Air Tenang","postal_code":24476},{"province":"Nanggroe Aceh Darussalam","city":"Aceh Tamiang","district":"Karang Baru","urban":"Gampong Bundar","postal_code":24476},{"province":"Nanggroe Aceh Darussalam","city":"Aceh Tamiang","district":"Karang Baru","urban":"Gampong Johar","postal_code":24476},{"province":"Nanggroe Aceh Darussalam","city":"Aceh Tamiang","district":"Karang Baru","urban":"Buket Panjang","postal_code":24476},{"province":"Nanggroe Aceh Darussalam","city":"Aceh Tamiang","district":"Karang Baru","urban":"Dalam","postal_code":24476},{"province":"Nanggroe Aceh Darussalam","city":"Aceh Tamiang","district":"Sekerak","urban":"Bandar Mahligai","postal_code":24476},{"province":"Nanggroe Aceh Darussalam","city":"Aceh Tamiang","district":"Sekerak","urban":"Bandar Mahligai","postal_code":24476},{"province":"Nanggroe Aceh Darussalam","city":"Aceh Tamiang","district":"Karang Baru","urban":"Banai","postal_code":24476},{"province":"Nanggroe Aceh Darussalam","city":"Aceh Tamiang","district":"Sekerak","urban":"Baling Karang","postal_code":24476},{"province":"Nanggroe Aceh Darussalam","city":"Aceh Tamiang","district":"Karang Baru","urban":"Alur Selalas","postal_code":24476},{"province":"Nanggroe Aceh Darussalam","city":"Aceh Tamiang","district":"Karang Baru","urban":"Alur Bemban","postal_code":24476},{"province":"Nanggroe Aceh Darussalam","city":"Aceh Tamiang","district":"Karang Baru","urban":"Alur Lhok","postal_code":24476},{"province":"Nanggroe Aceh Darussalam","city":"Aceh Tamiang","district":"Karang Baru","urban":"Alur Baung","postal_code":24476}]