[{"province":"Nanggroe Aceh Darussalam","city":"Aceh Tamiang","district":"Tenggulun","urban":"Tebing Tinggi","postal_code":24477},{"province":"Nanggroe Aceh Darussalam","city":"Aceh Tamiang","district":"Tenggulun","urban":"Tenggulun","postal_code":24477},{"province":"Nanggroe Aceh Darussalam","city":"Aceh Tamiang","district":"Kejuruan Muda","urban":"Tanjung Genteng","postal_code":24477},{"province":"Nanggroe Aceh Darussalam","city":"Aceh Tamiang","district":"Kejuruan Muda","urban":"Tanjung Mancang","postal_code":24477},{"province":"Nanggroe Aceh Darussalam","city":"Aceh Tamiang","district":"Kejuruan Muda","urban":"Suka Makmur","postal_code":24477},{"province":"Nanggroe Aceh Darussalam","city":"Aceh Tamiang","district":"Kejuruan Muda","urban":"Sungai Liput","postal_code":24477},{"province":"Nanggroe Aceh Darussalam","city":"Aceh Tamiang","district":"Tenggulun","urban":"Simpang Kiri","postal_code":24477},{"province":"Nanggroe Aceh Darussalam","city":"Aceh Tamiang","district":"Kejuruan Muda","urban":"Sidodadi","postal_code":24477},{"province":"Nanggroe Aceh Darussalam","city":"Aceh Tamiang","district":"Kejuruan Muda","urban":"Simpang Kanan","postal_code":24477},{"province":"Nanggroe Aceh Darussalam","city":"Aceh Tamiang","district":"Tenggulun","urban":"Selamat","postal_code":24477},{"province":"Nanggroe Aceh Darussalam","city":"Aceh Tamiang","district":"Kejuruan Muda","urban":"Seumadam","postal_code":24477},{"province":"Nanggroe Aceh Darussalam","city":"Aceh Tamiang","district":"Kejuruan Muda","urban":"Purwodadi","postal_code":24477},{"province":"Nanggroe Aceh Darussalam","city":"Aceh Tamiang","district":"Tenggulun","urban":"Rimba Sawang","postal_code":24477},{"province":"Nanggroe Aceh Darussalam","city":"Aceh Tamiang","district":"Kejuruan Muda","urban":"Kebun Sungai Liput","postal_code":24477},{"province":"Nanggroe Aceh Darussalam","city":"Aceh Tamiang","district":"Kejuruan Muda","urban":"Pangkalan","postal_code":24477},{"province":"Nanggroe Aceh Darussalam","city":"Aceh Tamiang","district":"Kejuruan Muda","urban":"Kampung Jawa","postal_code":24477},{"province":"Nanggroe Aceh Darussalam","city":"Aceh Tamiang","district":"Kejuruan Muda","urban":"Karangjadi","postal_code":24477},{"province":"Nanggroe Aceh Darussalam","city":"Aceh Tamiang","district":"Kejuruan Muda","urban":"Gerenggam","postal_code":24477},{"province":"Nanggroe Aceh Darussalam","city":"Aceh Tamiang","district":"Kejuruan Muda","urban":"Alur Selebu","postal_code":24477},{"province":"Nanggroe Aceh Darussalam","city":"Aceh Tamiang","district":"Kejuruan Muda","urban":"Bukit Rata","postal_code":24477}]