[{"province":"Nanggroe Aceh Darussalam","city":"Bener Meriah","district":"Pintu Rime Gayo","urban":"Wih Porak","postal_code":24553},{"province":"Nanggroe Aceh Darussalam","city":"Bener Meriah","district":"Pintu Rime Gayo","urban":"Uning Mas","postal_code":24553},{"province":"Nanggroe Aceh Darussalam","city":"Bener Meriah","district":"Gajah Putih","urban":"Umah Besi","postal_code":24553},{"province":"Nanggroe Aceh Darussalam","city":"Bener Meriah","district":"Pintu Rime Gayo","urban":"Ulu Naron","postal_code":24553},{"province":"Nanggroe Aceh Darussalam","city":"Bener Meriah","district":"Timang Gajah","urban":"Tunyang","postal_code":24553},{"province":"Nanggroe Aceh Darussalam","city":"Bener Meriah","district":"Timang Gajah","urban":"Timang Rasa","postal_code":24553},{"province":"Nanggroe Aceh Darussalam","city":"Bener Meriah","district":"Gajah Putih","urban":"Timang Gajah","postal_code":24553},{"province":"Nanggroe Aceh Darussalam","city":"Bener Meriah","district":"Timang Gajah","urban":"Sumber Jaya","postal_code":24553},{"province":"Nanggroe Aceh Darussalam","city":"Bener Meriah","district":"Pintu Rime Gayo","urban":"Taman Firdaus","postal_code":24553},{"province":"Nanggroe Aceh Darussalam","city":"Bener Meriah","district":"Timang Gajah","urban":"Suka Damai","postal_code":24553},{"province":"Nanggroe Aceh Darussalam","city":"Bener Meriah","district":"Pintu Rime Gayo","urban":"Singah Mulo","postal_code":24553},{"province":"Nanggroe Aceh Darussalam","city":"Bener Meriah","district":"Pintu Rime Gayo","urban":"Singah Mulo","postal_code":24553},{"province":"Nanggroe Aceh Darussalam","city":"Bener Meriah","district":"Timang Gajah","urban":"Simpang Layang","postal_code":24553},{"province":"Nanggroe Aceh Darussalam","city":"Bener Meriah","district":"Pintu Rime Gayo","urban":"Simpang Lancang","postal_code":24553},{"province":"Nanggroe Aceh Darussalam","city":"Bener Meriah","district":"Timang Gajah","urban":"Setie","postal_code":24553},{"province":"Nanggroe Aceh Darussalam","city":"Bener Meriah","district":"Pintu Rime Gayo","urban":"Rimba Raya","postal_code":24553},{"province":"Nanggroe Aceh Darussalam","city":"Bener Meriah","district":"Gajah Putih","urban":"Rerongga (Reronga)","postal_code":24553},{"province":"Nanggroe Aceh Darussalam","city":"Bener Meriah","district":"Timang Gajah","urban":"Rembune","postal_code":24553},{"province":"Nanggroe Aceh Darussalam","city":"Bener Meriah","district":"Pintu Rime Gayo","urban":"Rata Ara","postal_code":24553},{"province":"Nanggroe Aceh Darussalam","city":"Bener Meriah","district":"Pintu Rime Gayo","urban":"Perdamaian","postal_code":24553},{"province":"Nanggroe Aceh Darussalam","city":"Bener Meriah","district":"Pintu Rime Gayo","urban":"Pulo Intan","postal_code":24553},{"province":"Nanggroe Aceh Darussalam","city":"Bener Meriah","district":"Gajah Putih","urban":"Pante Karya","postal_code":24553},{"province":"Nanggroe Aceh Darussalam","city":"Bener Meriah","district":"Pintu Rime Gayo","urban":"Pantan Sinaku","postal_code":24553},{"province":"Nanggroe Aceh Darussalam","city":"Bener Meriah","district":"Timang Gajah","urban":"Pantan Pediangen","postal_code":24553},{"province":"Nanggroe Aceh Darussalam","city":"Bener Meriah","district":"Gajah Putih","urban":"Pantan Lues","postal_code":24553},{"province":"Nanggroe Aceh Darussalam","city":"Bener Meriah","district":"Pintu Rime Gayo","urban":"Pantan Lah","postal_code":24553},{"province":"Nanggroe Aceh Darussalam","city":"Bener Meriah","district":"Pintu Rime Gayo","urban":"Negeri Antara","postal_code":24553},{"province":"Nanggroe Aceh Darussalam","city":"Bener Meriah","district":"Pintu Rime Gayo","urban":"Pancar Jelobok","postal_code":24553},{"province":"Nanggroe Aceh Darussalam","city":"Bener Meriah","district":"Timang Gajah","urban":"Pantan Kemuning","postal_code":24553},{"province":"Nanggroe Aceh Darussalam","city":"Bener Meriah","district":"Pintu Rime Gayo","urban":"Musaba","postal_code":24553},{"province":"Nanggroe Aceh Darussalam","city":"Bener Meriah","district":"Pintu Rime Gayo","urban":"Musara Pakat","postal_code":24553},{"province":"Nanggroe Aceh Darussalam","city":"Bener Meriah","district":"Gajah Putih","urban":"Meriah Jaya","postal_code":24553},{"province":"Nanggroe Aceh Darussalam","city":"Bener Meriah","district":"Timang Gajah","urban":"Mude Benara","postal_code":24553},{"province":"Nanggroe Aceh Darussalam","city":"Bener Meriah","district":"Timang Gajah","urban":"Linung Bale","postal_code":24553},{"province":"Nanggroe Aceh Darussalam","city":"Bener Meriah","district":"Timang Gajah","urban":"Mekar Ayu","postal_code":24553},{"province":"Nanggroe Aceh Darussalam","city":"Bener Meriah","district":"Timang Gajah","urban":"Lampahan Timur","postal_code":24553},{"province":"Nanggroe Aceh Darussalam","city":"Bener Meriah","district":"Timang Gajah","urban":"Lampahan Barat","postal_code":24553},{"province":"Nanggroe Aceh Darussalam","city":"Bener Meriah","district":"Timang Gajah","urban":"Kolam Para Kanis","postal_code":24553},{"province":"Nanggroe Aceh Darussalam","city":"Bener Meriah","district":"Timang Gajah","urban":"Lampahan","postal_code":24553},{"province":"Nanggroe Aceh Darussalam","city":"Bener Meriah","district":"Timang Gajah","urban":"Karang Jadi","postal_code":24553},{"province":"Nanggroe Aceh Darussalam","city":"Bener Meriah","district":"Timang Gajah","urban":"Kenine","postal_code":24553},{"province":"Nanggroe Aceh Darussalam","city":"Bener Meriah","district":"Timang Gajah","urban":"Gunung Tunyang","postal_code":24553},{"province":"Nanggroe Aceh Darussalam","city":"Bener Meriah","district":"Timang Gajah","urban":"Kampung Baru","postal_code":24553},{"province":"Nanggroe Aceh Darussalam","city":"Bener Meriah","district":"Pintu Rime Gayo","urban":"Gemasih","postal_code":24553},{"province":"Nanggroe Aceh Darussalam","city":"Bener Meriah","district":"Timang Gajah","urban":"Gegur Sepakat","postal_code":24553},{"province":"Nanggroe Aceh Darussalam","city":"Bener Meriah","district":"Gajah Putih","urban":"Gayo Setie","postal_code":24553},{"province":"Nanggroe Aceh Darussalam","city":"Bener Meriah","district":"Gajah Putih","urban":"Gajah Putih","postal_code":24553},{"province":"Nanggroe Aceh Darussalam","city":"Bener Meriah","district":"Timang Gajah","urban":"Datu Beru Tunyang","postal_code":24553},{"province":"Nanggroe Aceh Darussalam","city":"Bener Meriah","district":"Timang Gajah","urban":"Fajar Harapan","postal_code":24553},{"province":"Nanggroe Aceh Darussalam","city":"Bener Meriah","district":"Timang Gajah","urban":"Cekal Baru","postal_code":24553},{"province":"Nanggroe Aceh Darussalam","city":"Bener Meriah","district":"Timang Gajah","urban":"Damaran Baru","postal_code":24553},{"province":"Nanggroe Aceh Darussalam","city":"Bener Meriah","district":"Timang Gajah","urban":"Bukit Tunyang","postal_code":24553},{"province":"Nanggroe Aceh Darussalam","city":"Bener Meriah","district":"Timang Gajah","urban":"Bumi ayu","postal_code":24553},{"province":"Nanggroe Aceh Darussalam","city":"Bener Meriah","district":"Timang Gajah","urban":"Blang Rongka","postal_code":24553},{"province":"Nanggroe Aceh Darussalam","city":"Bener Meriah","district":"Timang Gajah","urban":"Bukit Mulie","postal_code":24553},{"province":"Nanggroe Aceh Darussalam","city":"Bener Meriah","district":"Pintu Rime Gayo","urban":"Blang Ara","postal_code":24553},{"province":"Nanggroe Aceh Darussalam","city":"Bener Meriah","district":"Pintu Rime Gayo","urban":"Blang Rakal","postal_code":24553},{"province":"Nanggroe Aceh Darussalam","city":"Bener Meriah","district":"Pintu Rime Gayo","urban":"Bener Meriah","postal_code":24553},{"province":"Nanggroe Aceh Darussalam","city":"Bener Meriah","district":"Pintu Rime Gayo","urban":"Bintang Berangun","postal_code":24553},{"province":"Nanggroe Aceh Darussalam","city":"Bener Meriah","district":"Timang Gajah","urban":"Bandar Lampahan","postal_code":24553},{"province":"Nanggroe Aceh Darussalam","city":"Bener Meriah","district":"Pintu Rime Gayo","urban":"Arul Cincin","postal_code":24553},{"province":"Nanggroe Aceh Darussalam","city":"Bener Meriah","district":"Pintu Rime Gayo","urban":"Arul Gading","postal_code":24553},{"province":"Nanggroe Aceh Darussalam","city":"Bener Meriah","district":"Gajah Putih","urban":"Alam Jaya","postal_code":24553}]