[{"province":"Nanggroe Aceh Darussalam","city":"Aceh Tengah","district":"Silih Nara","urban":"Wihni Durin","postal_code":24562},{"province":"Nanggroe Aceh Darussalam","city":"Aceh Tengah","district":"Silih Nara","urban":"Wih Sagi Indah","postal_code":24562},{"province":"Nanggroe Aceh Darussalam","city":"Aceh Tengah","district":"Silih Nara","urban":"Wihni Bakong","postal_code":24562},{"province":"Nanggroe Aceh Darussalam","city":"Aceh Tengah","district":"Silih Nara","urban":"Wih Bersih","postal_code":24562},{"province":"Nanggroe Aceh Darussalam","city":"Aceh Tengah","district":"Silih Nara","urban":"Wih Pesam","postal_code":24562},{"province":"Nanggroe Aceh Darussalam","city":"Aceh Tengah","district":"Silih Nara","urban":"Wih Porak","postal_code":24562},{"province":"Nanggroe Aceh Darussalam","city":"Aceh Tengah","district":"Celala","urban":"Uning Berawang Ramung","postal_code":24562},{"province":"Nanggroe Aceh Darussalam","city":"Aceh Tengah","district":"Rusip Antara","urban":"Tirmi Ara","postal_code":24562},{"province":"Nanggroe Aceh Darussalam","city":"Aceh Tengah","district":"Silih Nara","urban":"Tenebuk Kampung Baru","postal_code":24562},{"province":"Nanggroe Aceh Darussalam","city":"Aceh Tengah","district":"Silih Nara","urban":"Terang Engon","postal_code":24562},{"province":"Nanggroe Aceh Darussalam","city":"Aceh Tengah","district":"Silih Nara","urban":"Simpang Kemili","postal_code":24562},{"province":"Nanggroe Aceh Darussalam","city":"Aceh Tengah","district":"Celala","urban":"Tanoh Depet","postal_code":24562},{"province":"Nanggroe Aceh Darussalam","city":"Aceh Tengah","district":"Rusip Antara","urban":"Tanjung","postal_code":24562},{"province":"Nanggroe Aceh Darussalam","city":"Aceh Tengah","district":"Ketol","urban":"Serempah","postal_code":24562},{"province":"Nanggroe Aceh Darussalam","city":"Aceh Tengah","district":"Ketol","urban":"Simpang Juli","postal_code":24562},{"province":"Nanggroe Aceh Darussalam","city":"Aceh Tengah","district":"Silih Nara","urban":"Semelit Mutiara","postal_code":24562},{"province":"Nanggroe Aceh Darussalam","city":"Aceh Tengah","district":"Celala","urban":"Sepakat","postal_code":24562},{"province":"Nanggroe Aceh Darussalam","city":"Aceh Tengah","district":"Ketol","urban":"Selon","postal_code":24562},{"province":"Nanggroe Aceh Darussalam","city":"Aceh Tengah","district":"Silih Nara","urban":"Rutih","postal_code":24562},{"province":"Nanggroe Aceh Darussalam","city":"Aceh Tengah","district":"Silih Nara","urban":"Sanehen","postal_code":24562},{"province":"Nanggroe Aceh Darussalam","city":"Aceh Tengah","district":"Rusip Antara","urban":"Rusip","postal_code":24562},{"province":"Nanggroe Aceh Darussalam","city":"Aceh Tengah","district":"Silih Nara","urban":"Reremal","postal_code":24562},{"province":"Nanggroe Aceh Darussalam","city":"Aceh Tengah","district":"Silih Nara","urban":"Remesen","postal_code":24562},{"province":"Nanggroe Aceh Darussalam","city":"Aceh Tengah","district":"Silih Nara","urban":"Rebe Gedung","postal_code":24562},{"province":"Nanggroe Aceh Darussalam","city":"Aceh Tengah","district":"Ketol","urban":"Rejewali","postal_code":24562},{"province":"Nanggroe Aceh Darussalam","city":"Aceh Tengah","district":"Ketol","urban":"Pondok Balik","postal_code":24562},{"province":"Nanggroe Aceh Darussalam","city":"Aceh Tengah","district":"Celala","urban":"Ramung Ara","postal_code":24562},{"province":"Nanggroe Aceh Darussalam","city":"Aceh Tengah","district":"Rusip Antara","urban":"Pilar Wih Kiri","postal_code":24562},{"province":"Nanggroe Aceh Darussalam","city":"Aceh Tengah","district":"Rusip Antara","urban":"Pilar","postal_code":24562},{"province":"Nanggroe Aceh Darussalam","city":"Aceh Tengah","district":"Rusip Antara","urban":"Pilar Jaya","postal_code":24562},{"province":"Nanggroe Aceh Darussalam","city":"Aceh Tengah","district":"Rusip Antara","urban":"Paya Tampu/Tumpu","postal_code":24562},{"province":"Nanggroe Aceh Darussalam","city":"Aceh Tengah","district":"Silih Nara","urban":"Pepayungen Angkup","postal_code":24562},{"province":"Nanggroe Aceh Darussalam","city":"Aceh Tengah","district":"Celala","urban":"Paya Kolak","postal_code":24562},{"province":"Nanggroe Aceh Darussalam","city":"Aceh Tengah","district":"Silih Nara","urban":"Paya Pelu","postal_code":24562},{"province":"Nanggroe Aceh Darussalam","city":"Aceh Tengah","district":"Ketol","urban":"Pantan Reduk","postal_code":24562},{"province":"Nanggroe Aceh Darussalam","city":"Aceh Tengah","district":"Rusip Antara","urban":"Pantan Tengah","postal_code":24562},{"province":"Nanggroe Aceh Darussalam","city":"Aceh Tengah","district":"Silih Nara","urban":"Paya Beke","postal_code":24562},{"province":"Nanggroe Aceh Darussalam","city":"Aceh Tengah","district":"Ketol","urban":"Pantan Penyo","postal_code":24562},{"province":"Nanggroe Aceh Darussalam","city":"Aceh Tengah","district":"Rusip Antara","urban":"Meurandeh/Merandeh Paya","postal_code":24562},{"province":"Nanggroe Aceh Darussalam","city":"Aceh Tengah","district":"Rusip Antara","urban":"Pantan Bener","postal_code":24562},{"province":"Nanggroe Aceh Darussalam","city":"Aceh Tengah","district":"Silih Nara","urban":"Mulie Jadi","postal_code":24562},{"province":"Nanggroe Aceh Darussalam","city":"Aceh Tengah","district":"Rusip Antara","urban":"Mekar Maju","postal_code":24562},{"province":"Nanggroe Aceh Darussalam","city":"Aceh Tengah","district":"Celala","urban":"Melala","postal_code":24562},{"province":"Nanggroe Aceh Darussalam","city":"Aceh Tengah","district":"Celala","urban":"Makmur","postal_code":24562},{"province":"Nanggroe Aceh Darussalam","city":"Aceh Tengah","district":"Silih Nara","urban":"Mekar Indah","postal_code":24562},{"province":"Nanggroe Aceh Darussalam","city":"Aceh Tengah","district":"Rusip Antara","urban":"Lut Jaya","postal_code":24562},{"province":"Nanggroe Aceh Darussalam","city":"Aceh Tengah","district":"Celala","urban":"Kuyun Toa","postal_code":24562},{"province":"Nanggroe Aceh Darussalam","city":"Aceh Tengah","district":"Celala","urban":"Kuyun Uken","postal_code":24562},{"province":"Nanggroe Aceh Darussalam","city":"Aceh Tengah","district":"Celala","urban":"Kuyun","postal_code":24562},{"province":"Nanggroe Aceh Darussalam","city":"Aceh Tengah","district":"Ketol","urban":"Kute Gelime","postal_code":24562},{"province":"Nanggroe Aceh Darussalam","city":"Aceh Tengah","district":"Rusip Antara","urban":"Kuala Rawa","postal_code":24562},{"province":"Nanggroe Aceh Darussalam","city":"Aceh Tengah","district":"Ketol","urban":"Kekuyang","postal_code":24562},{"province":"Nanggroe Aceh Darussalam","city":"Aceh Tengah","district":"Rusip Antara","urban":"Kerawang","postal_code":24562},{"province":"Nanggroe Aceh Darussalam","city":"Aceh Tengah","district":"Ketol","urban":"Kala Ketol","postal_code":24562},{"province":"Nanggroe Aceh Darussalam","city":"Aceh Tengah","district":"Ketol","urban":"Karang Ampar","postal_code":24562},{"province":"Nanggroe Aceh Darussalam","city":"Aceh Tengah","district":"Silih Nara","urban":"Jerata","postal_code":24562},{"province":"Nanggroe Aceh Darussalam","city":"Aceh Tengah","district":"Ketol","urban":"Jaluk","postal_code":24562},{"province":"Nanggroe Aceh Darussalam","city":"Aceh Tengah","district":"Ketol","urban":"Jerata","postal_code":24562},{"province":"Nanggroe Aceh Darussalam","city":"Aceh Tengah","district":"Silih Nara","urban":"Gunung Singit","postal_code":24562},{"province":"Nanggroe Aceh Darussalam","city":"Aceh Tengah","district":"Ketol","urban":"Jalan Tengah","postal_code":24562},{"province":"Nanggroe Aceh Darussalam","city":"Aceh Tengah","district":"Silih Nara","urban":"Genting Gerbang","postal_code":24562},{"province":"Nanggroe Aceh Darussalam","city":"Aceh Tengah","district":"Ketol","urban":"Genting Bulen","postal_code":24562},{"province":"Nanggroe Aceh Darussalam","city":"Aceh Tengah","district":"Celala","urban":"Depet Indah","postal_code":24562},{"province":"Nanggroe Aceh Darussalam","city":"Aceh Tengah","district":"Ketol","urban":"Gelumpang/Glumpang Payung","postal_code":24562},{"province":"Nanggroe Aceh Darussalam","city":"Aceh Tengah","district":"Celala","urban":"Celala","postal_code":24562},{"province":"Nanggroe Aceh Darussalam","city":"Aceh Tengah","district":"Celala","urban":"Cibro","postal_code":24562},{"province":"Nanggroe Aceh Darussalam","city":"Aceh Tengah","district":"Ketol","urban":"Buter","postal_code":24562},{"province":"Nanggroe Aceh Darussalam","city":"Aceh Tengah","district":"Ketol","urban":"Cang Duri","postal_code":24562},{"province":"Nanggroe Aceh Darussalam","city":"Aceh Tengah","district":"Silih Nara","urban":"Burni Bius","postal_code":24562},{"province":"Nanggroe Aceh Darussalam","city":"Aceh Tengah","district":"Silih Nara","urban":"Burni Bius Baru","postal_code":24562},{"province":"Nanggroe Aceh Darussalam","city":"Aceh Tengah","district":"Ketol","urban":"Burlah","postal_code":24562},{"province":"Nanggroe Aceh Darussalam","city":"Aceh Tengah","district":"Ketol","urban":"Buge Ara","postal_code":24562},{"province":"Nanggroe Aceh Darussalam","city":"Aceh Tengah","district":"Ketol","urban":"Blang Mancung","postal_code":24562},{"province":"Nanggroe Aceh Darussalam","city":"Aceh Tengah","district":"Ketol","urban":"Blang Mancung Bawah","postal_code":24562},{"province":"Nanggroe Aceh Darussalam","city":"Aceh Tengah","district":"Celala","urban":"Blang Delem","postal_code":24562},{"province":"Nanggroe Aceh Darussalam","city":"Aceh Tengah","district":"Celala","urban":"Blang Kekumur","postal_code":24562},{"province":"Nanggroe Aceh Darussalam","city":"Aceh Tengah","district":"Silih Nara","urban":"Bius Utama","postal_code":24562},{"province":"Nanggroe Aceh Darussalam","city":"Aceh Tengah","district":"Ketol","urban":"Bintang Pepara","postal_code":24562},{"province":"Nanggroe Aceh Darussalam","city":"Aceh Tengah","district":"Celala","urban":"Berawang Gading","postal_code":24562},{"province":"Nanggroe Aceh Darussalam","city":"Aceh Tengah","district":"Ketol","urban":"Bergang","postal_code":24562},{"province":"Nanggroe Aceh Darussalam","city":"Aceh Tengah","district":"Ketol","urban":"Bah","postal_code":24562},{"province":"Nanggroe Aceh Darussalam","city":"Aceh Tengah","district":"Rusip Antara","urban":"Atu Singkih","postal_code":24562},{"province":"Nanggroe Aceh Darussalam","city":"Aceh Tengah","district":"Silih Nara","urban":"Arul Putih","postal_code":24562},{"province":"Nanggroe Aceh Darussalam","city":"Aceh Tengah","district":"Silih Nara","urban":"Arul Relem","postal_code":24562},{"province":"Nanggroe Aceh Darussalam","city":"Aceh Tengah","district":"Rusip Antara","urban":"Arul Pertik","postal_code":24562},{"province":"Nanggroe Aceh Darussalam","city":"Aceh Tengah","district":"Rusip Antara","urban":"Arul Pertik","postal_code":24562},{"province":"Nanggroe Aceh Darussalam","city":"Aceh Tengah","district":"Silih Nara","urban":"Arul Kumer Barat","postal_code":24562},{"province":"Nanggroe Aceh Darussalam","city":"Aceh Tengah","district":"Silih Nara","urban":"Arul Kumer Selatan","postal_code":24562},{"province":"Nanggroe Aceh Darussalam","city":"Aceh Tengah","district":"Silih Nara","urban":"Arul Kumer","postal_code":24562},{"province":"Nanggroe Aceh Darussalam","city":"Aceh Tengah","district":"Silih Nara","urban":"Arul Gele","postal_code":24562},{"province":"Nanggroe Aceh Darussalam","city":"Aceh Tengah","district":"Celala","urban":"Arul Gading","postal_code":24562}]