[{"province":"Nanggroe Aceh Darussalam","city":"Aceh Tengah","district":"Pegasing","urban":"Wih Terjun","postal_code":24561},{"province":"Nanggroe Aceh Darussalam","city":"Aceh Tengah","district":"Pegasing","urban":"Wih Nareh","postal_code":24561},{"province":"Nanggroe Aceh Darussalam","city":"Aceh Tengah","district":"Pegasing","urban":"Wih Lah","postal_code":24561},{"province":"Nanggroe Aceh Darussalam","city":"Aceh Tengah","district":"Pegasing","urban":"Uring","postal_code":24561},{"province":"Nanggroe Aceh Darussalam","city":"Aceh Tengah","district":"Pegasing","urban":"Wih Ilang","postal_code":24561},{"province":"Nanggroe Aceh Darussalam","city":"Aceh Tengah","district":"Bies","urban":"Uning Pegantungen","postal_code":24561},{"province":"Nanggroe Aceh Darussalam","city":"Aceh Tengah","district":"Pegasing","urban":"Uning","postal_code":24561},{"province":"Nanggroe Aceh Darussalam","city":"Aceh Tengah","district":"Pegasing","urban":"Terang Ulen","postal_code":24561},{"province":"Nanggroe Aceh Darussalam","city":"Aceh Tengah","district":"Pegasing","urban":"Ujung Gele","postal_code":24561},{"province":"Nanggroe Aceh Darussalam","city":"Aceh Tengah","district":"Pegasing","urban":"Tebuk","postal_code":24561},{"province":"Nanggroe Aceh Darussalam","city":"Aceh Tengah","district":"Bies","urban":"Tebes Lues","postal_code":24561},{"province":"Nanggroe Aceh Darussalam","city":"Aceh Tengah","district":"Pegasing","urban":"Suka Damai","postal_code":24561},{"province":"Nanggroe Aceh Darussalam","city":"Aceh Tengah","district":"Bies","urban":"Simpang Lukub Badak","postal_code":24561},{"province":"Nanggroe Aceh Darussalam","city":"Aceh Tengah","district":"Bies","urban":"Simpang Uning Niken","postal_code":24561},{"province":"Nanggroe Aceh Darussalam","city":"Aceh Tengah","district":"Pegasing","urban":"Simpang Kelaping","postal_code":24561},{"province":"Nanggroe Aceh Darussalam","city":"Aceh Tengah","district":"Bies","urban":"Pucuk Deku","postal_code":24561},{"province":"Nanggroe Aceh Darussalam","city":"Aceh Tengah","district":"Pegasing","urban":"Pepalang","postal_code":24561},{"province":"Nanggroe Aceh Darussalam","city":"Aceh Tengah","district":"Pegasing","urban":"Pegasing","postal_code":24561},{"province":"Nanggroe Aceh Darussalam","city":"Aceh Tengah","district":"Pegasing","urban":"Pedekok","postal_code":24561},{"province":"Nanggroe Aceh Darussalam","city":"Aceh Tengah","district":"Pegasing","urban":"Paya Jeget","postal_code":24561},{"province":"Nanggroe Aceh Darussalam","city":"Aceh Tengah","district":"Pegasing","urban":"Pantan Musara","postal_code":24561},{"province":"Nanggroe Aceh Darussalam","city":"Aceh Tengah","district":"Pegasing","urban":"Panangan Mata","postal_code":24561},{"province":"Nanggroe Aceh Darussalam","city":"Aceh Tengah","district":"Pegasing","urban":"Linung Ayu","postal_code":24561},{"province":"Nanggroe Aceh Darussalam","city":"Aceh Tengah","district":"Bies","urban":"Lenga","postal_code":24561},{"province":"Nanggroe Aceh Darussalam","city":"Aceh Tengah","district":"Pegasing","urban":"Lelumu","postal_code":24561},{"province":"Nanggroe Aceh Darussalam","city":"Aceh Tengah","district":"Pegasing","urban":"Kute Lintang","postal_code":24561},{"province":"Nanggroe Aceh Darussalam","city":"Aceh Tengah","district":"Pegasing","urban":"Kung","postal_code":24561},{"province":"Nanggroe Aceh Darussalam","city":"Aceh Tengah","district":"Pegasing","urban":"Kedelah","postal_code":24561},{"province":"Nanggroe Aceh Darussalam","city":"Aceh Tengah","district":"Pegasing","urban":"Kayu Kul","postal_code":24561},{"province":"Nanggroe Aceh Darussalam","city":"Aceh Tengah","district":"Bies","urban":"Karang Bayur","postal_code":24561},{"province":"Nanggroe Aceh Darussalam","city":"Aceh Tengah","district":"Pegasing","urban":"Kala Pegasing","postal_code":24561},{"province":"Nanggroe Aceh Darussalam","city":"Aceh Tengah","district":"Pegasing","urban":"Jejem","postal_code":24561},{"province":"Nanggroe Aceh Darussalam","city":"Aceh Tengah","district":"Pegasing","urban":"Jurusen","postal_code":24561},{"province":"Nanggroe Aceh Darussalam","city":"Aceh Tengah","district":"Pegasing","urban":"Ie Relop","postal_code":24561},{"province":"Nanggroe Aceh Darussalam","city":"Aceh Tengah","district":"Pegasing","urban":"Gele Lungi","postal_code":24561},{"province":"Nanggroe Aceh Darussalam","city":"Aceh Tengah","district":"Pegasing","urban":"Blang Bebangka","postal_code":24561},{"province":"Nanggroe Aceh Darussalam","city":"Aceh Tengah","district":"Bies","urban":"Bies Penentanan","postal_code":24561},{"province":"Nanggroe Aceh Darussalam","city":"Aceh Tengah","district":"Bies","urban":"Bies Baru","postal_code":24561},{"province":"Nanggroe Aceh Darussalam","city":"Aceh Tengah","district":"Bies","urban":"Bies Mulie","postal_code":24561},{"province":"Nanggroe Aceh Darussalam","city":"Aceh Tengah","district":"Pegasing","urban":"Berawang Baro","postal_code":24561},{"province":"Nanggroe Aceh Darussalam","city":"Aceh Tengah","district":"Bies","urban":"Atang Jungket","postal_code":24561},{"province":"Nanggroe Aceh Darussalam","city":"Aceh Tengah","district":"Bies","urban":"Arul Latong","postal_code":24561},{"province":"Nanggroe Aceh Darussalam","city":"Aceh Tengah","district":"Pegasing","urban":"Arul Badak","postal_code":24561}]