[{"province":"Nanggroe Aceh Darussalam","city":"Aceh Tengah","district":"Kute Panang","urban":"Wih Nongkal","postal_code":24568},{"province":"Nanggroe Aceh Darussalam","city":"Aceh Tengah","district":"Kute Panang","urban":"Wih Nongkal Tua","postal_code":24568},{"province":"Nanggroe Aceh Darussalam","city":"Aceh Tengah","district":"Kute Panang","urban":"Tawar Miko","postal_code":24568},{"province":"Nanggroe Aceh Darussalam","city":"Aceh Tengah","district":"Kute Panang","urban":"Tawardi","postal_code":24568},{"province":"Nanggroe Aceh Darussalam","city":"Aceh Tengah","district":"Kute Panang","urban":"Timang Rasa","postal_code":24568},{"province":"Nanggroe Aceh Darussalam","city":"Aceh Tengah","district":"Kute Panang","urban":"Tapak Moge Timur","postal_code":24568},{"province":"Nanggroe Aceh Darussalam","city":"Aceh Tengah","district":"Kute Panang","urban":"Ratawali","postal_code":24568},{"province":"Nanggroe Aceh Darussalam","city":"Aceh Tengah","district":"Kute Panang","urban":"Segene Balik","postal_code":24568},{"province":"Nanggroe Aceh Darussalam","city":"Aceh Tengah","district":"Kute Panang","urban":"Tapak Moge","postal_code":24568},{"province":"Nanggroe Aceh Darussalam","city":"Aceh Tengah","district":"Kute Panang","urban":"Pantan Sile","postal_code":24568},{"province":"Nanggroe Aceh Darussalam","city":"Aceh Tengah","district":"Kute Panang","urban":"Pantan Jerik","postal_code":24568},{"province":"Nanggroe Aceh Darussalam","city":"Aceh Tengah","district":"Kute Panang","urban":"Lukub Sabun Barat","postal_code":24568},{"province":"Nanggroe Aceh Darussalam","city":"Aceh Tengah","district":"Kute Panang","urban":"Lukub Sabun Tengah","postal_code":24568},{"province":"Nanggroe Aceh Darussalam","city":"Aceh Tengah","district":"Kute Panang","urban":"Lukub Sabun Timur","postal_code":24568},{"province":"Nanggroe Aceh Darussalam","city":"Aceh Tengah","district":"Kute Panang","urban":"Kute Panang","postal_code":24568},{"province":"Nanggroe Aceh Darussalam","city":"Aceh Tengah","district":"Kute Panang","urban":"Lukub Sabun","postal_code":24568},{"province":"Nanggroe Aceh Darussalam","city":"Aceh Tengah","district":"Kute Panang","urban":"Empu Balik","postal_code":24568},{"province":"Nanggroe Aceh Darussalam","city":"Aceh Tengah","district":"Kute Panang","urban":"Kala Nongkal","postal_code":24568},{"province":"Nanggroe Aceh Darussalam","city":"Aceh Tengah","district":"Kute Panang","urban":"Buter Balik","postal_code":24568},{"province":"Nanggroe Aceh Darussalam","city":"Aceh Tengah","district":"Kute Panang","urban":"Dedingin","postal_code":24568},{"province":"Nanggroe Aceh Darussalam","city":"Aceh Tengah","district":"Kute Panang","urban":"Balik","postal_code":24568},{"province":"Nanggroe Aceh Darussalam","city":"Aceh Tengah","district":"Kute Panang","urban":"Blang Balik","postal_code":24568},{"province":"Nanggroe Aceh Darussalam","city":"Aceh Tengah","district":"Kute Panang","urban":"Bukit Rata","postal_code":24568},{"province":"Nanggroe Aceh Darussalam","city":"Aceh Tengah","district":"Kute Panang","urban":"Atu Gogop","postal_code":24568}]