[{"province":"Nanggroe Aceh Darussalam","city":"Aceh Tengah","district":"Linge","urban":"Umang","postal_code":24563},{"province":"Nanggroe Aceh Darussalam","city":"Aceh Tengah","district":"Jagong Jeget","urban":"Telege Sari","postal_code":24563},{"province":"Nanggroe Aceh Darussalam","city":"Aceh Tengah","district":"Atu Lintang","urban":"Tanoh Abu","postal_code":24563},{"province":"Nanggroe Aceh Darussalam","city":"Aceh Tengah","district":"Linge","urban":"Simpang III Uning","postal_code":24563},{"province":"Nanggroe Aceh Darussalam","city":"Aceh Tengah","district":"Linge","urban":"Reje Payung","postal_code":24563},{"province":"Nanggroe Aceh Darussalam","city":"Aceh Tengah","district":"Jagong Jeget","urban":"Paya Dedep","postal_code":24563},{"province":"Nanggroe Aceh Darussalam","city":"Aceh Tengah","district":"Jagong Jeget","urban":"Paya Tungel/Tunggal","postal_code":24563},{"province":"Nanggroe Aceh Darussalam","city":"Aceh Tengah","district":"Linge","urban":"Penarun","postal_code":24563},{"province":"Nanggroe Aceh Darussalam","city":"Aceh Tengah","district":"Linge","urban":"Pantan Nangka","postal_code":24563},{"province":"Nanggroe Aceh Darussalam","city":"Aceh Tengah","district":"Linge","urban":"Pantan Reduk","postal_code":24563},{"province":"Nanggroe Aceh Darussalam","city":"Aceh Tengah","district":"Linge","urban":"Owaq","postal_code":24563},{"province":"Nanggroe Aceh Darussalam","city":"Aceh Tengah","district":"Atu Lintang","urban":"Pantan Damar","postal_code":24563},{"province":"Nanggroe Aceh Darussalam","city":"Aceh Tengah","district":"Jagong Jeget","urban":"Merah Said","postal_code":24563},{"province":"Nanggroe Aceh Darussalam","city":"Aceh Tengah","district":"Linge","urban":"Mungkur","postal_code":24563},{"province":"Nanggroe Aceh Darussalam","city":"Aceh Tengah","district":"Atu Lintang","urban":"Merah Mege","postal_code":24563},{"province":"Nanggroe Aceh Darussalam","city":"Aceh Tengah","district":"Atu Lintang","urban":"Merah Muyang/Mayang","postal_code":24563},{"province":"Nanggroe Aceh Darussalam","city":"Aceh Tengah","district":"Atu Lintang","urban":"Merah Pupuk","postal_code":24563},{"province":"Nanggroe Aceh Darussalam","city":"Aceh Tengah","district":"Atu Lintang","urban":"Merah Jernang","postal_code":24563},{"province":"Nanggroe Aceh Darussalam","city":"Aceh Tengah","district":"Linge","urban":"Lumut","postal_code":24563},{"province":"Nanggroe Aceh Darussalam","city":"Aceh Tengah","district":"Linge","urban":"Linge","postal_code":24563},{"province":"Nanggroe Aceh Darussalam","city":"Aceh Tengah","district":"Linge","urban":"Kute Riyem (Meriem)","postal_code":24563},{"province":"Nanggroe Aceh Darussalam","city":"Aceh Tengah","district":"Linge","urban":"Kute Robel","postal_code":24563},{"province":"Nanggroe Aceh Darussalam","city":"Aceh Tengah","district":"Linge","urban":"Kute Reje","postal_code":24563},{"province":"Nanggroe Aceh Darussalam","city":"Aceh Tengah","district":"Linge","urban":"Kute Keramil","postal_code":24563},{"province":"Nanggroe Aceh Darussalam","city":"Aceh Tengah","district":"Linge","urban":"Kute Rayang","postal_code":24563},{"province":"Nanggroe Aceh Darussalam","city":"Aceh Tengah","district":"Linge","urban":"Kute Baru","postal_code":24563},{"province":"Nanggroe Aceh Darussalam","city":"Aceh Tengah","district":"Atu Lintang","urban":"Kepala Akal","postal_code":24563},{"province":"Nanggroe Aceh Darussalam","city":"Aceh Tengah","district":"Linge","urban":"Jamat","postal_code":24563},{"province":"Nanggroe Aceh Darussalam","city":"Aceh Tengah","district":"Linge","urban":"Kemerleng (Air Asin Kemerleng)","postal_code":24563},{"province":"Nanggroe Aceh Darussalam","city":"Aceh Tengah","district":"Jagong Jeget","urban":"Jeget Ayu","postal_code":24563},{"province":"Nanggroe Aceh Darussalam","city":"Aceh Tengah","district":"Jagong Jeget","urban":"Jagong Jeget","postal_code":24563},{"province":"Nanggroe Aceh Darussalam","city":"Aceh Tengah","district":"Linge","urban":"Gewat","postal_code":24563},{"province":"Nanggroe Aceh Darussalam","city":"Aceh Tengah","district":"Linge","urban":"Ise Ise","postal_code":24563},{"province":"Nanggroe Aceh Darussalam","city":"Aceh Tengah","district":"Linge","urban":"Gelampang Gading","postal_code":24563},{"province":"Nanggroe Aceh Darussalam","city":"Aceh Tengah","district":"Linge","urban":"Gemboyah","postal_code":24563},{"province":"Nanggroe Aceh Darussalam","city":"Aceh Tengah","district":"Atu Lintang","urban":"Gayo Murni","postal_code":24563},{"province":"Nanggroe Aceh Darussalam","city":"Aceh Tengah","district":"Linge","urban":"Dispot Linge","postal_code":24563},{"province":"Nanggroe Aceh Darussalam","city":"Aceh Tengah","district":"Jagong Jeget","urban":"Gegarang","postal_code":24563},{"province":"Nanggroe Aceh Darussalam","city":"Aceh Tengah","district":"Linge","urban":"Delung Sekinel","postal_code":24563},{"province":"Nanggroe Aceh Darussalam","city":"Aceh Tengah","district":"Jagong Jeget","urban":"Bukit Sari","postal_code":24563},{"province":"Nanggroe Aceh Darussalam","city":"Aceh Tengah","district":"Atu Lintang","urban":"Damar Mulia","postal_code":24563},{"province":"Nanggroe Aceh Darussalam","city":"Aceh Tengah","district":"Jagong Jeget","urban":"Bukit Kemuning","postal_code":24563},{"province":"Nanggroe Aceh Darussalam","city":"Aceh Tengah","district":"Atu Lintang","urban":"Bintang Kekelip","postal_code":24563},{"province":"Nanggroe Aceh Darussalam","city":"Aceh Tengah","district":"Jagong Jeget","urban":"Berawang Dewal","postal_code":24563},{"province":"Nanggroe Aceh Darussalam","city":"Aceh Tengah","district":"Atu Lintang","urban":"Atu Lintang","postal_code":24563},{"province":"Nanggroe Aceh Darussalam","city":"Aceh Tengah","district":"Linge","urban":"Arul Item","postal_code":24563},{"province":"Nanggroe Aceh Darussalam","city":"Aceh Tengah","district":"Linge","urban":"Antara","postal_code":24563}]