[{"province":"Nanggroe Aceh Darussalam","city":"Bener Meriah","district":"Bandar","urban":"Wonosari","postal_code":24582},{"province":"Nanggroe Aceh Darussalam","city":"Bener Meriah","district":"Syiah Utama","urban":"Wihni Durin","postal_code":24582},{"province":"Nanggroe Aceh Darussalam","city":"Bener Meriah","district":"Permata","urban":"Wih Tenang Toa","postal_code":24582},{"province":"Nanggroe Aceh Darussalam","city":"Bener Meriah","district":"Permata","urban":"Wih Tenang Uken","postal_code":24582},{"province":"Nanggroe Aceh Darussalam","city":"Bener Meriah","district":"Mesidah","urban":"Wih Resap (Pintu Wih Resap)","postal_code":24582},{"province":"Nanggroe Aceh Darussalam","city":"Bener Meriah","district":"Mesidah","urban":"Wer Tingkem","postal_code":24582},{"province":"Nanggroe Aceh Darussalam","city":"Bener Meriah","district":"Permata","urban":"Uning Sejuk","postal_code":24582},{"province":"Nanggroe Aceh Darussalam","city":"Bener Meriah","district":"Syiah Utama","urban":"Uning","postal_code":24582},{"province":"Nanggroe Aceh Darussalam","city":"Bener Meriah","district":"Syiah Utama","urban":"Tempen Baru","postal_code":24582},{"province":"Nanggroe Aceh Darussalam","city":"Bener Meriah","district":"Syiah Utama","urban":"Tempen Baru","postal_code":24582},{"province":"Nanggroe Aceh Darussalam","city":"Bener Meriah","district":"Syiah Utama","urban":"Tembolon","postal_code":24582},{"province":"Nanggroe Aceh Darussalam","city":"Bener Meriah","district":"Permata","urban":"Temas Mumanang","postal_code":24582},{"province":"Nanggroe Aceh Darussalam","city":"Bener Meriah","district":"Bandar","urban":"Tawar Sedenge","postal_code":24582},{"province":"Nanggroe Aceh Darussalam","city":"Bener Meriah","district":"Permata","urban":"Tawar Bengi","postal_code":24582},{"province":"Nanggroe Aceh Darussalam","city":"Bener Meriah","district":"Bandar","urban":"Suku Wih Ilang","postal_code":24582},{"province":"Nanggroe Aceh Darussalam","city":"Bener Meriah","district":"Bandar","urban":"Tanjung Pura","postal_code":24582},{"province":"Nanggroe Aceh Darussalam","city":"Bener Meriah","district":"Bandar","urban":"Tansaran Bidin","postal_code":24582},{"province":"Nanggroe Aceh Darussalam","city":"Bener Meriah","district":"Bener Kelipah","urban":"Suku Bener","postal_code":24582},{"province":"Nanggroe Aceh Darussalam","city":"Bener Meriah","district":"Permata","urban":"Suku Sara Tangke","postal_code":24582},{"province":"Nanggroe Aceh Darussalam","city":"Bener Meriah","district":"Mesidah","urban":"Simpur","postal_code":24582},{"province":"Nanggroe Aceh Darussalam","city":"Bener Meriah","district":"Mesidah","urban":"Sosial","postal_code":24582},{"province":"Nanggroe Aceh Darussalam","city":"Bener Meriah","district":"Bandar","urban":"Simpang Utama","postal_code":24582},{"province":"Nanggroe Aceh Darussalam","city":"Bener Meriah","district":"Mesidah","urban":"Simpang Renggali","postal_code":24582},{"province":"Nanggroe Aceh Darussalam","city":"Bener Meriah","district":"Permata","urban":"Seni Antara","postal_code":24582},{"province":"Nanggroe Aceh Darussalam","city":"Bener Meriah","district":"Bandar","urban":"Sidodadi","postal_code":24582},{"province":"Nanggroe Aceh Darussalam","city":"Bener Meriah","district":"Bandar","urban":"Selamat Rejo","postal_code":24582},{"province":"Nanggroe Aceh Darussalam","city":"Bener Meriah","district":"Bandar","urban":"Selisih Mara","postal_code":24582},{"province":"Nanggroe Aceh Darussalam","city":"Bener Meriah","district":"Permata","urban":"Rikit Musara","postal_code":24582},{"province":"Nanggroe Aceh Darussalam","city":"Bener Meriah","district":"Syiah Utama","urban":"Rusip","postal_code":24582},{"province":"Nanggroe Aceh Darussalam","city":"Bener Meriah","district":"Bandar","urban":"Remang Ketike Jaya","postal_code":24582},{"province":"Nanggroe Aceh Darussalam","city":"Bener Meriah","district":"Syiah Utama","urban":"Rata Mulie","postal_code":24582},{"province":"Nanggroe Aceh Darussalam","city":"Bener Meriah","district":"Permata","urban":"Ramung Jaya","postal_code":24582},{"province":"Nanggroe Aceh Darussalam","city":"Bener Meriah","district":"Bandar","urban":"Purwosari","postal_code":24582},{"province":"Nanggroe Aceh Darussalam","city":"Bener Meriah","district":"Bandar","urban":"Pondok Ulung","postal_code":24582},{"province":"Nanggroe Aceh Darussalam","city":"Bener Meriah","district":"Bandar","urban":"Puja Mulia","postal_code":24582},{"province":"Nanggroe Aceh Darussalam","city":"Bener Meriah","district":"Bandar","urban":"Pondok Baru","postal_code":24582},{"province":"Nanggroe Aceh Darussalam","city":"Bener Meriah","district":"Bandar","urban":"Pondok Gajah","postal_code":24582},{"province":"Nanggroe Aceh Darussalam","city":"Bener Meriah","district":"Mesidah","urban":"Perumpaken Benjadi","postal_code":24582},{"province":"Nanggroe Aceh Darussalam","city":"Bener Meriah","district":"Bandar","urban":"Petukel/Petukal Blang Jurong","postal_code":24582},{"province":"Nanggroe Aceh Darussalam","city":"Bener Meriah","district":"Permata","urban":"Pemanggo","postal_code":24582},{"province":"Nanggroe Aceh Darussalam","city":"Bener Meriah","district":"Permata","urban":"Penosan Jaya","postal_code":24582},{"province":"Nanggroe Aceh Darussalam","city":"Bener Meriah","district":"Bandar","urban":"Paya Ringkel","postal_code":24582},{"province":"Nanggroe Aceh Darussalam","city":"Bener Meriah","district":"Syiah Utama","urban":"Payung","postal_code":24582},{"province":"Nanggroe Aceh Darussalam","city":"Bener Meriah","district":"Bandar","urban":"Paya Baning","postal_code":24582},{"province":"Nanggroe Aceh Darussalam","city":"Bener Meriah","district":"Syiah Utama","urban":"Pasir Putih","postal_code":24582},{"province":"Nanggroe Aceh Darussalam","city":"Bener Meriah","district":"Permata","urban":"Pantan Tengah Jaya","postal_code":24582},{"province":"Nanggroe Aceh Darussalam","city":"Bener Meriah","district":"Mesidah","urban":"Pantan Kuli","postal_code":24582},{"province":"Nanggroe Aceh Darussalam","city":"Bener Meriah","district":"Bandar","urban":"Pakat Jeroh","postal_code":24582},{"province":"Nanggroe Aceh Darussalam","city":"Bener Meriah","district":"Bener Kelipah","urban":"Nosar Tawar Jaya","postal_code":24582},{"province":"Nanggroe Aceh Darussalam","city":"Bener Meriah","district":"Bener Kelipah","urban":"Nosar Tawar Jaya","postal_code":24582},{"province":"Nanggroe Aceh Darussalam","city":"Bener Meriah","district":"Bandar","urban":"Muyang Kute Mangku","postal_code":24582},{"province":"Nanggroe Aceh Darussalam","city":"Bener Meriah","district":"Bandar","urban":"Mutiara","postal_code":24582},{"province":"Nanggroe Aceh Darussalam","city":"Bener Meriah","district":"Bandar","urban":"Makmur Sentosa","postal_code":24582},{"province":"Nanggroe Aceh Darussalam","city":"Bener Meriah","district":"Bener Kelipah","urban":"Lot Bener Kelipah","postal_code":24582},{"province":"Nanggroe Aceh Darussalam","city":"Bener Meriah","district":"Bandar","urban":"Lewajadi","postal_code":24582},{"province":"Nanggroe Aceh Darussalam","city":"Bener Meriah","district":"Syiah Utama","urban":"Kutelah Lane","postal_code":24582},{"province":"Nanggroe Aceh Darussalam","city":"Bener Meriah","district":"Bandar","urban":"Keramat Jaya","postal_code":24582},{"province":"Nanggroe Aceh Darussalam","city":"Bener Meriah","district":"Syiah Utama","urban":"Kerlah","postal_code":24582},{"province":"Nanggroe Aceh Darussalam","city":"Bener Meriah","district":"Permata","urban":"Kepie / Kepies","postal_code":24582},{"province":"Nanggroe Aceh Darussalam","city":"Bener Meriah","district":"Bandar","urban":"Kala Nempan","postal_code":24582},{"province":"Nanggroe Aceh Darussalam","city":"Bener Meriah","district":"Bener Kelipah","urban":"Kala Tenang","postal_code":24582},{"province":"Nanggroe Aceh Darussalam","city":"Bener Meriah","district":"Bener Kelipah","urban":"Jongok Meluem","postal_code":24582},{"province":"Nanggroe Aceh Darussalam","city":"Bener Meriah","district":"Permata","urban":"Jungke","postal_code":24582},{"province":"Nanggroe Aceh Darussalam","city":"Bener Meriah","district":"Bandar","urban":"Janarata","postal_code":24582},{"province":"Nanggroe Aceh Darussalam","city":"Bener Meriah","district":"Permata","urban":"Jelobok","postal_code":24582},{"province":"Nanggroe Aceh Darussalam","city":"Bener Meriah","district":"Bandar","urban":"Jadi Sepakat","postal_code":24582},{"province":"Nanggroe Aceh Darussalam","city":"Bener Meriah","district":"Mesidah","urban":"Jamur Atu","postal_code":24582},{"province":"Nanggroe Aceh Darussalam","city":"Bener Meriah","district":"Mesidah","urban":"Hakim Peteri Pintu","postal_code":24582},{"province":"Nanggroe Aceh Darussalam","city":"Bener Meriah","district":"Bandar","urban":"Hakim Wih Ilang","postal_code":24582},{"province":"Nanggroe Aceh Darussalam","city":"Bener Meriah","district":"Bener Kelipah","urban":"Gunung Musara","postal_code":24582},{"province":"Nanggroe Aceh Darussalam","city":"Bener Meriah","district":"Mesidah","urban":"Gunung Sayang","postal_code":24582},{"province":"Nanggroe Aceh Darussalam","city":"Bener Meriah","district":"Syiah Utama","urban":"Goneng","postal_code":24582},{"province":"Nanggroe Aceh Darussalam","city":"Bener Meriah","district":"Bandar","urban":"Gunung Antara","postal_code":24582},{"province":"Nanggroe Aceh Darussalam","city":"Bener Meriah","district":"Syiah Utama","urban":"Geruti Jaya","postal_code":24582},{"province":"Nanggroe Aceh Darussalam","city":"Bener Meriah","district":"Bandar","urban":"Gele Semayang","postal_code":24582},{"province":"Nanggroe Aceh Darussalam","city":"Bener Meriah","district":"Syiah Utama","urban":"Gerpa","postal_code":24582},{"province":"Nanggroe Aceh Darussalam","city":"Bener Meriah","district":"Mesidah","urban":"Cemparan Pakat Jeroh","postal_code":24582},{"province":"Nanggroe Aceh Darussalam","city":"Bener Meriah","district":"Permata","urban":"Darul Aman Ramu","postal_code":24582},{"province":"Nanggroe Aceh Darussalam","city":"Bener Meriah","district":"Permata","urban":"Gelampang Wih Tenang Uken","postal_code":24582},{"province":"Nanggroe Aceh Darussalam","city":"Bener Meriah","district":"Mesidah","urban":"Cemparan Jaya","postal_code":24582},{"province":"Nanggroe Aceh Darussalam","city":"Bener Meriah","district":"Mesidah","urban":"Cemparan Lama","postal_code":24582},{"province":"Nanggroe Aceh Darussalam","city":"Bener Meriah","district":"Permata","urban":"Burni Pase","postal_code":24582},{"province":"Nanggroe Aceh Darussalam","city":"Bener Meriah","district":"Permata","urban":"Ceding Ayu","postal_code":24582},{"province":"Nanggroe Aceh Darussalam","city":"Bener Meriah","district":"Bandar","urban":"Bukit Wih Ilang","postal_code":24582},{"province":"Nanggroe Aceh Darussalam","city":"Bener Meriah","district":"Mesidah","urban":"Buntul Gayo","postal_code":24582},{"province":"Nanggroe Aceh Darussalam","city":"Bener Meriah","district":"Permata","urban":"Buntul Fitri (Peteri)","postal_code":24582},{"province":"Nanggroe Aceh Darussalam","city":"Bener Meriah","district":"Bandar","urban":"Blang Pulo","postal_code":24582},{"province":"Nanggroe Aceh Darussalam","city":"Bener Meriah","district":"Syiah Utama","urban":"Blang Panu","postal_code":24582},{"province":"Nanggroe Aceh Darussalam","city":"Bener Meriah","district":"Permata","urban":"Bintang Permata","postal_code":24582},{"province":"Nanggroe Aceh Darussalam","city":"Bener Meriah","district":"Bandar","urban":"Beranun Teleden","postal_code":24582},{"province":"Nanggroe Aceh Darussalam","city":"Bener Meriah","district":"Bener Kelipah","urban":"Bintang Musara","postal_code":24582},{"province":"Nanggroe Aceh Darussalam","city":"Bener Meriah","district":"Permata","urban":"Bintang Bener","postal_code":24582},{"province":"Nanggroe Aceh Darussalam","city":"Bener Meriah","district":"Bener Kelipah","urban":"Bener Lukup II","postal_code":24582},{"province":"Nanggroe Aceh Darussalam","city":"Bener Meriah","district":"Permata","urban":"Bener Pepanyi","postal_code":24582},{"province":"Nanggroe Aceh Darussalam","city":"Bener Meriah","district":"Bener Kelipah","urban":"Batin Bandar Jaya","postal_code":24582},{"province":"Nanggroe Aceh Darussalam","city":"Bener Meriah","district":"Bener Kelipah","urban":"Bener Kelipah Selatan","postal_code":24582},{"province":"Nanggroe Aceh Darussalam","city":"Bener Meriah","district":"Bener Kelipah","urban":"Bener Kelipah Utara","postal_code":24582},{"province":"Nanggroe Aceh Darussalam","city":"Bener Meriah","district":"Permata","urban":"Bale Musara","postal_code":24582},{"province":"Nanggroe Aceh Darussalam","city":"Bener Meriah","district":"Permata","urban":"Bale Purnama","postal_code":24582},{"province":"Nanggroe Aceh Darussalam","city":"Bener Meriah","district":"Bandar","urban":"Bahgie Bentona","postal_code":24582},{"province":"Nanggroe Aceh Darussalam","city":"Bener Meriah","district":"Permata","urban":"Ayu Ara","postal_code":24582},{"province":"Nanggroe Aceh Darussalam","city":"Bener Meriah","district":"Mesidah","urban":"Amor","postal_code":24582}]