[{"province":"Nanggroe Aceh Darussalam","city":"Gayo Lues","district":"Pining (Pinding)","urban":"Uring","postal_code":24655},{"province":"Nanggroe Aceh Darussalam","city":"Gayo Lues","district":"Putri Betung","urban":"Uning Pune","postal_code":24655},{"province":"Nanggroe Aceh Darussalam","city":"Gayo Lues","district":"Kuta Panjang","urban":"Ulon Tanoh","postal_code":24655},{"province":"Nanggroe Aceh Darussalam","city":"Gayo Lues","district":"Blang Jerango","urban":"Tingkem","postal_code":24655},{"province":"Nanggroe Aceh Darussalam","city":"Gayo Lues","district":"Kuta Panjang","urban":"Tampeng","postal_code":24655},{"province":"Nanggroe Aceh Darussalam","city":"Gayo Lues","district":"Kuta Panjang","urban":"Tampeng Musara","postal_code":24655},{"province":"Nanggroe Aceh Darussalam","city":"Gayo Lues","district":"Putri Betung","urban":"Singah Mulo","postal_code":24655},{"province":"Nanggroe Aceh Darussalam","city":"Gayo Lues","district":"Blang Kejeren","urban":"Sepang","postal_code":24655},{"province":"Nanggroe Aceh Darussalam","city":"Gayo Lues","district":"Kuta Panjang","urban":"Rikit Dekat","postal_code":24655},{"province":"Nanggroe Aceh Darussalam","city":"Gayo Lues","district":"Blang Jerango","urban":"Sekuelen","postal_code":24655},{"province":"Nanggroe Aceh Darussalam","city":"Gayo Lues","district":"Kuta Panjang","urban":"Rema","postal_code":24655},{"province":"Nanggroe Aceh Darussalam","city":"Gayo Lues","district":"Kuta Panjang","urban":"Rema Baru","postal_code":24655},{"province":"Nanggroe Aceh Darussalam","city":"Gayo Lues","district":"Putri Betung","urban":"Ramung Musara","postal_code":24655},{"province":"Nanggroe Aceh Darussalam","city":"Gayo Lues","district":"Putri Betung","urban":"Putri Betung","postal_code":24655},{"province":"Nanggroe Aceh Darussalam","city":"Gayo Lues","district":"Blang Kejeren","urban":"Raklunung","postal_code":24655},{"province":"Nanggroe Aceh Darussalam","city":"Gayo Lues","district":"Blang Kejeren","urban":"Porang","postal_code":24655},{"province":"Nanggroe Aceh Darussalam","city":"Gayo Lues","district":"Pining (Pinding)","urban":"Pintu Rime","postal_code":24655},{"province":"Nanggroe Aceh Darussalam","city":"Gayo Lues","district":"Pining (Pinding)","urban":"Pertik","postal_code":24655},{"province":"Nanggroe Aceh Darussalam","city":"Gayo Lues","district":"Pining (Pinding)","urban":"Pining (Pinding)","postal_code":24655},{"province":"Nanggroe Aceh Darussalam","city":"Gayo Lues","district":"Blang Jerango","urban":"Peparik Dekat","postal_code":24655},{"province":"Nanggroe Aceh Darussalam","city":"Gayo Lues","district":"Blang Jerango","urban":"Peparik Gaib","postal_code":24655},{"province":"Nanggroe Aceh Darussalam","city":"Gayo Lues","district":"Pining (Pinding)","urban":"Pepelah","postal_code":24655},{"province":"Nanggroe Aceh Darussalam","city":"Gayo Lues","district":"Blang Jerango","urban":"Penosan","postal_code":24655},{"province":"Nanggroe Aceh Darussalam","city":"Gayo Lues","district":"Blang Jerango","urban":"Penosan Sepakat","postal_code":24655},{"province":"Nanggroe Aceh Darussalam","city":"Gayo Lues","district":"Blang Kejeren","urban":"Penggalangan","postal_code":24655},{"province":"Nanggroe Aceh Darussalam","city":"Gayo Lues","district":"Blang Kejeren","urban":"Penampaan Uken","postal_code":24655},{"province":"Nanggroe Aceh Darussalam","city":"Gayo Lues","district":"Pining (Pinding)","urban":"Pasir Putih","postal_code":24655},{"province":"Nanggroe Aceh Darussalam","city":"Gayo Lues","district":"Blang Kejeren","urban":"Penampaan Toa","postal_code":24655},{"province":"Nanggroe Aceh Darussalam","city":"Gayo Lues","district":"Putri Betung","urban":"Meloak Sepakat","postal_code":24655},{"province":"Nanggroe Aceh Darussalam","city":"Gayo Lues","district":"Blang Kejeren","urban":"Palok","postal_code":24655},{"province":"Nanggroe Aceh Darussalam","city":"Gayo Lues","district":"Putri Betung","urban":"Marpunge","postal_code":24655},{"province":"Nanggroe Aceh Darussalam","city":"Gayo Lues","district":"Pining (Pinding)","urban":"Lesten","postal_code":24655},{"province":"Nanggroe Aceh Darussalam","city":"Gayo Lues","district":"Blang Kejeren","urban":"Leme","postal_code":24655},{"province":"Nanggroe Aceh Darussalam","city":"Gayo Lues","district":"Blang Kejeren","urban":"Lempuh","postal_code":24655},{"province":"Nanggroe Aceh Darussalam","city":"Gayo Lues","district":"Putri Betung","urban":"Kutelengat Sepakat","postal_code":24655},{"province":"Nanggroe Aceh Darussalam","city":"Gayo Lues","district":"Blang Kejeren","urban":"Kute Sere","postal_code":24655},{"province":"Nanggroe Aceh Darussalam","city":"Gayo Lues","district":"Kuta Panjang","urban":"Kuta Ujung","postal_code":24655},{"province":"Nanggroe Aceh Darussalam","city":"Gayo Lues","district":"Blang Kejeren","urban":"Kota Blang Kejeren","postal_code":24655},{"province":"Nanggroe Aceh Darussalam","city":"Gayo Lues","district":"Blang Kejeren","urban":"Kuta Lintang","postal_code":24655},{"province":"Nanggroe Aceh Darussalam","city":"Gayo Lues","district":"Kuta Panjang","urban":"Kong Paluh","postal_code":24655},{"province":"Nanggroe Aceh Darussalam","city":"Gayo Lues","district":"Blang Jerango","urban":"Ketukah","postal_code":24655},{"province":"Nanggroe Aceh Darussalam","city":"Gayo Lues","district":"Kuta Panjang","urban":"Kerukunan Kota (Kuta Panjang)","postal_code":24655},{"province":"Nanggroe Aceh Darussalam","city":"Gayo Lues","district":"Putri Betung","urban":"Gumpang Lempuh","postal_code":24655},{"province":"Nanggroe Aceh Darussalam","city":"Gayo Lues","district":"Blang Kejeren","urban":"Kampung Jawa","postal_code":24655},{"province":"Nanggroe Aceh Darussalam","city":"Gayo Lues","district":"Blang Kejeren","urban":"Gele","postal_code":24655},{"province":"Nanggroe Aceh Darussalam","city":"Gayo Lues","district":"Putri Betung","urban":"Gumpang","postal_code":24655},{"province":"Nanggroe Aceh Darussalam","city":"Gayo Lues","district":"Blang Jerango","urban":"Gegarang","postal_code":24655},{"province":"Nanggroe Aceh Darussalam","city":"Gayo Lues","district":"Pining (Pinding)","urban":"Gajah","postal_code":24655},{"province":"Nanggroe Aceh Darussalam","city":"Gayo Lues","district":"Blang Kejeren","urban":"Durin","postal_code":24655},{"province":"Nanggroe Aceh Darussalam","city":"Gayo Lues","district":"Pining (Pinding)","urban":"Ekan","postal_code":24655},{"province":"Nanggroe Aceh Darussalam","city":"Gayo Lues","district":"Blang Kejeren","urban":"Cempa","postal_code":24655},{"province":"Nanggroe Aceh Darussalam","city":"Gayo Lues","district":"Kuta Panjang","urban":"Cike","postal_code":24655},{"province":"Nanggroe Aceh Darussalam","city":"Gayo Lues","district":"Blang Kejeren","urban":"Bustanussalam","postal_code":24655},{"province":"Nanggroe Aceh Darussalam","city":"Gayo Lues","district":"Blang Jerango","urban":"Blang Jerango","postal_code":24655},{"province":"Nanggroe Aceh Darussalam","city":"Gayo Lues","district":"Kuta Panjang","urban":"Beranang","postal_code":24655},{"province":"Nanggroe Aceh Darussalam","city":"Gayo Lues","district":"Blang Kejeren","urban":"Bukit","postal_code":24655},{"province":"Nanggroe Aceh Darussalam","city":"Gayo Lues","district":"Kuta Panjang","urban":"Bener","postal_code":24655},{"province":"Nanggroe Aceh Darussalam","city":"Gayo Lues","district":"Blang Kejeren","urban":"Bacang","postal_code":24655},{"province":"Nanggroe Aceh Darussalam","city":"Gayo Lues","district":"Blang Jerango","urban":"Akul","postal_code":24655},{"province":"Nanggroe Aceh Darussalam","city":"Gayo Lues","district":"Blang Kejeren","urban":"Agusen","postal_code":24655}]