[{"province":"Nanggroe Aceh Darussalam","city":"Aceh Tenggara","district":"Badar","urban":"Tanah Merah","postal_code":24652},{"province":"Nanggroe Aceh Darussalam","city":"Aceh Tenggara","district":"Badar","urban":"Tanoh Megakhe","postal_code":24652},{"province":"Nanggroe Aceh Darussalam","city":"Aceh Tenggara","district":"Ketambe","urban":"Suka Rimbun","postal_code":24652},{"province":"Nanggroe Aceh Darussalam","city":"Aceh Tenggara","district":"Ketambe","urban":"Simpang III Jongar","postal_code":24652},{"province":"Nanggroe Aceh Darussalam","city":"Aceh Tenggara","district":"Ketambe","urban":"Simpur Jaya","postal_code":24652},{"province":"Nanggroe Aceh Darussalam","city":"Aceh Tenggara","district":"Deleng Pokhisen","urban":"Salang Sigotom","postal_code":24652},{"province":"Nanggroe Aceh Darussalam","city":"Aceh Tenggara","district":"Deleng Pokhisen","urban":"Sepakat","postal_code":24652},{"province":"Nanggroe Aceh Darussalam","city":"Aceh Tenggara","district":"Badar","urban":"Salang Alas","postal_code":24652},{"province":"Nanggroe Aceh Darussalam","city":"Aceh Tenggara","district":"Deleng Pokhisen","urban":"Salang Baru","postal_code":24652},{"province":"Nanggroe Aceh Darussalam","city":"Aceh Tenggara","district":"Deleng Pokhisen","urban":"Salang Muara","postal_code":24652},{"province":"Nanggroe Aceh Darussalam","city":"Aceh Tenggara","district":"Deleng Pokhisen","urban":"Ranto Dior/Diur","postal_code":24652},{"province":"Nanggroe Aceh Darussalam","city":"Aceh Tenggara","district":"Ketambe","urban":"Rumah Bundar","postal_code":24652},{"province":"Nanggroe Aceh Darussalam","city":"Aceh Tenggara","district":"Badar","urban":"Peranginan","postal_code":24652},{"province":"Nanggroe Aceh Darussalam","city":"Aceh Tenggara","district":"Badar","urban":"Purwodadi","postal_code":24652},{"province":"Nanggroe Aceh Darussalam","city":"Aceh Tenggara","district":"Ketambe","urban":"Penungkunen","postal_code":24652},{"province":"Nanggroe Aceh Darussalam","city":"Aceh Tenggara","district":"Ketambe","urban":"Penyeberangan Cingkam","postal_code":24652},{"province":"Nanggroe Aceh Darussalam","city":"Aceh Tenggara","district":"Badar","urban":"Natam Baru","postal_code":24652},{"province":"Nanggroe Aceh Darussalam","city":"Aceh Tenggara","district":"Ketambe","urban":"Louser","postal_code":24652},{"province":"Nanggroe Aceh Darussalam","city":"Aceh Tenggara","district":"Badar","urban":"Natam","postal_code":24652},{"province":"Nanggroe Aceh Darussalam","city":"Aceh Tenggara","district":"Deleng Pokhisen","urban":"Lembah Alas","postal_code":24652},{"province":"Nanggroe Aceh Darussalam","city":"Aceh Tenggara","district":"Ketambe","urban":"Lawe Sembekan","postal_code":24652},{"province":"Nanggroe Aceh Darussalam","city":"Aceh Tenggara","district":"Badar","urban":"Lawe Sekekhah","postal_code":24652},{"province":"Nanggroe Aceh Darussalam","city":"Aceh Tenggara","district":"Ketambe","urban":"Lawe Mengkudu","postal_code":24652},{"province":"Nanggroe Aceh Darussalam","city":"Aceh Tenggara","district":"Ketambe","urban":"Lawe Penanggalan","postal_code":24652},{"province":"Nanggroe Aceh Darussalam","city":"Aceh Tenggara","district":"Ketambe","urban":"Lawe Ger Ger","postal_code":24652},{"province":"Nanggroe Aceh Darussalam","city":"Aceh Tenggara","district":"Badar","urban":"Lawe Bekung Tampahan","postal_code":24652},{"province":"Nanggroe Aceh Darussalam","city":"Aceh Tenggara","district":"Ketambe","urban":"Lawe Bekhingin","postal_code":24652},{"province":"Nanggroe Aceh Darussalam","city":"Aceh Tenggara","district":"Badar","urban":"Lawe Bekung","postal_code":24652},{"province":"Nanggroe Aceh Darussalam","city":"Aceh Tenggara","district":"Ketambe","urban":"Lawe Aunan","postal_code":24652},{"province":"Nanggroe Aceh Darussalam","city":"Aceh Tenggara","district":"Badar","urban":"Kuta/Kute Pasir","postal_code":24652},{"province":"Nanggroe Aceh Darussalam","city":"Aceh Tenggara","district":"Badar","urban":"Kuta/Kute Tinggi","postal_code":24652},{"province":"Nanggroe Aceh Darussalam","city":"Aceh Tenggara","district":"Ketambe","urban":"Ketambe","postal_code":24652},{"province":"Nanggroe Aceh Darussalam","city":"Aceh Tenggara","district":"Badar","urban":"Kumbang Indah","postal_code":24652},{"province":"Nanggroe Aceh Darussalam","city":"Aceh Tenggara","district":"Badar","urban":"Kumbang Jaya","postal_code":24652},{"province":"Nanggroe Aceh Darussalam","city":"Aceh Tenggara","district":"Deleng Pokhisen","urban":"Kaya Pangur","postal_code":24652},{"province":"Nanggroe Aceh Darussalam","city":"Aceh Tenggara","district":"Ketambe","urban":"Kayu Mentangur","postal_code":24652},{"province":"Nanggroe Aceh Darussalam","city":"Aceh Tenggara","district":"Badar","urban":"Kampung Baru","postal_code":24652},{"province":"Nanggroe Aceh Darussalam","city":"Aceh Tenggara","district":"Ketambe","urban":"Jongar","postal_code":24652},{"province":"Nanggroe Aceh Darussalam","city":"Aceh Tenggara","district":"Ketambe","urban":"Kati Maju","postal_code":24652},{"province":"Nanggroe Aceh Darussalam","city":"Aceh Tenggara","district":"Ketambe","urban":"Jambur Lak Lak","postal_code":24652},{"province":"Nanggroe Aceh Darussalam","city":"Aceh Tenggara","district":"Ketambe","urban":"Jati Rasa","postal_code":24652},{"province":"Nanggroe Aceh Darussalam","city":"Aceh Tenggara","district":"Badar","urban":"Deleng Megakhe","postal_code":24652},{"province":"Nanggroe Aceh Darussalam","city":"Aceh Tenggara","district":"Ketambe","urban":"Deleng Damar","postal_code":24652},{"province":"Nanggroe Aceh Darussalam","city":"Aceh Tenggara","district":"Deleng Pokhisen","urban":"Gusung Batu","postal_code":24652},{"province":"Nanggroe Aceh Darussalam","city":"Aceh Tenggara","district":"Ketambe","urban":"Bintang Bener","postal_code":24652},{"province":"Nanggroe Aceh Darussalam","city":"Aceh Tenggara","district":"Ketambe","urban":"Bukit Mbakhu","postal_code":24652},{"province":"Nanggroe Aceh Darussalam","city":"Aceh Tenggara","district":"Ketambe","urban":"Datok Pining","postal_code":24652},{"province":"Nanggroe Aceh Darussalam","city":"Aceh Tenggara","district":"Badar","urban":"Batu Mberong","postal_code":24652},{"province":"Nanggroe Aceh Darussalam","city":"Aceh Tenggara","district":"Ketambe","urban":"Bener Mepapah","postal_code":24652},{"province":"Nanggroe Aceh Darussalam","city":"Aceh Tenggara","district":"Badar","urban":"Badar Indah","postal_code":24652},{"province":"Nanggroe Aceh Darussalam","city":"Aceh Tenggara","district":"Ketambe","urban":"Aunan Sepakat","postal_code":24652}]