[{"province":"Nanggroe Aceh Darussalam","city":"Aceh Tenggara","district":"Darul Hasanah","urban":"Terutung Kute","postal_code":24653},{"province":"Nanggroe Aceh Darussalam","city":"Aceh Tenggara","district":"Darul Hasanah","urban":"Ujung Baru","postal_code":24653},{"province":"Nanggroe Aceh Darussalam","city":"Aceh Tenggara","district":"Darul Hasanah","urban":"Tanjung Mbakhu","postal_code":24653},{"province":"Nanggroe Aceh Darussalam","city":"Aceh Tenggara","district":"Darul Hasanah","urban":"Tanjung Muda","postal_code":24653},{"province":"Nanggroe Aceh Darussalam","city":"Aceh Tenggara","district":"Darul Hasanah","urban":"Tanjung Lama","postal_code":24653},{"province":"Nanggroe Aceh Darussalam","city":"Aceh Tenggara","district":"Darul Hasanah","urban":"Tanjung Leuser","postal_code":24653},{"province":"Nanggroe Aceh Darussalam","city":"Aceh Tenggara","district":"Darul Hasanah","urban":"Tanjung Aman","postal_code":24653},{"province":"Nanggroe Aceh Darussalam","city":"Aceh Tenggara","district":"Darul Hasanah","urban":"Serimuda","postal_code":24653},{"province":"Nanggroe Aceh Darussalam","city":"Aceh Tenggara","district":"Darul Hasanah","urban":"Simpang Empat Tanjung","postal_code":24653},{"province":"Nanggroe Aceh Darussalam","city":"Aceh Tenggara","district":"Darul Hasanah","urban":"Rambung Teldak","postal_code":24653},{"province":"Nanggroe Aceh Darussalam","city":"Aceh Tenggara","district":"Darul Hasanah","urban":"Pulo Piku","postal_code":24653},{"province":"Nanggroe Aceh Darussalam","city":"Aceh Tenggara","district":"Darul Hasanah","urban":"Rambung Jaya","postal_code":24653},{"province":"Nanggroe Aceh Darussalam","city":"Aceh Tenggara","district":"Darul Hasanah","urban":"Pulo Gadung","postal_code":24653},{"province":"Nanggroe Aceh Darussalam","city":"Aceh Tenggara","district":"Darul Hasanah","urban":"Mamas Baru","postal_code":24653},{"province":"Nanggroe Aceh Darussalam","city":"Aceh Tenggara","district":"Darul Hasanah","urban":"Mamas","postal_code":24653},{"province":"Nanggroe Aceh Darussalam","city":"Aceh Tenggara","district":"Darul Hasanah","urban":"Lawe Stul/Setul","postal_code":24653},{"province":"Nanggroe Aceh Darussalam","city":"Aceh Tenggara","district":"Darul Hasanah","urban":"Makmur Jaya","postal_code":24653},{"province":"Nanggroe Aceh Darussalam","city":"Aceh Tenggara","district":"Darul Hasanah","urban":"Lawe Mamas Indah","postal_code":24653},{"province":"Nanggroe Aceh Darussalam","city":"Aceh Tenggara","district":"Darul Hasanah","urban":"Lawe Pinis","postal_code":24653},{"province":"Nanggroe Aceh Darussalam","city":"Aceh Tenggara","district":"Darul Hasanah","urban":"Kute Rambe","postal_code":24653},{"province":"Nanggroe Aceh Darussalam","city":"Aceh Tenggara","district":"Darul Hasanah","urban":"Kute Ujung","postal_code":24653},{"province":"Nanggroe Aceh Darussalam","city":"Aceh Tenggara","district":"Darul Hasanah","urban":"Kuning Abadi","postal_code":24653},{"province":"Nanggroe Aceh Darussalam","city":"Aceh Tenggara","district":"Darul Hasanah","urban":"Kitei Meranggun","postal_code":24653},{"province":"Nanggroe Aceh Darussalam","city":"Aceh Tenggara","district":"Darul Hasanah","urban":"Kokhtan Jaya","postal_code":24653},{"province":"Nanggroe Aceh Darussalam","city":"Aceh Tenggara","district":"Darul Hasanah","urban":"Gulo","postal_code":24653},{"province":"Nanggroe Aceh Darussalam","city":"Aceh Tenggara","district":"Darul Hasanah","urban":"Istiqomah","postal_code":24653},{"province":"Nanggroe Aceh Darussalam","city":"Aceh Tenggara","district":"Darul Hasanah","urban":"Darul Makmur","postal_code":24653},{"province":"Nanggroe Aceh Darussalam","city":"Aceh Tenggara","district":"Darul Hasanah","urban":"Buntul Kendawi","postal_code":24653},{"province":"Nanggroe Aceh Darussalam","city":"Gayo Lues","district":"Blang Pegayon","urban":"Ume Lah","postal_code":24653},{"province":"Nanggroe Aceh Darussalam","city":"Gayo Lues","district":"Dabun Gelang (Debun Gelang)","urban":"Uning Gelung","postal_code":24653},{"province":"Nanggroe Aceh Darussalam","city":"Gayo Lues","district":"Dabun Gelang (Debun Gelang)","urban":"Uning Sepakat","postal_code":24653},{"province":"Nanggroe Aceh Darussalam","city":"Gayo Lues","district":"Blang Pegayon","urban":"Tetingi","postal_code":24653},{"province":"Nanggroe Aceh Darussalam","city":"Gayo Lues","district":"Dabun Gelang (Debun Gelang)","urban":"Sangir","postal_code":24653},{"province":"Nanggroe Aceh Darussalam","city":"Gayo Lues","district":"Dabun Gelang (Debun Gelang)","urban":"Rerebe","postal_code":24653},{"province":"Nanggroe Aceh Darussalam","city":"Gayo Lues","district":"Blang Pegayon","urban":"Rak Lintang","postal_code":24653},{"province":"Nanggroe Aceh Darussalam","city":"Gayo Lues","district":"Blang Pegayon","urban":"Porang Ayu","postal_code":24653},{"province":"Nanggroe Aceh Darussalam","city":"Gayo Lues","district":"Dabun Gelang (Debun Gelang)","urban":"Pangur","postal_code":24653},{"province":"Nanggroe Aceh Darussalam","city":"Gayo Lues","district":"Dabun Gelang (Debun Gelang)","urban":"Panglima/Panglime Linting","postal_code":24653},{"province":"Nanggroe Aceh Darussalam","city":"Gayo Lues","district":"Blang Pegayon","urban":"Kute/Kuta Bukit","postal_code":24653},{"province":"Nanggroe Aceh Darussalam","city":"Gayo Lues","district":"Blang Pegayon","urban":"Kong","postal_code":24653},{"province":"Nanggroe Aceh Darussalam","city":"Gayo Lues","district":"Dabun Gelang (Debun Gelang)","urban":"Kendawi","postal_code":24653},{"province":"Nanggroe Aceh Darussalam","city":"Gayo Lues","district":"Blang Pegayon","urban":"Gantung Geluni","postal_code":24653},{"province":"Nanggroe Aceh Darussalam","city":"Gayo Lues","district":"Blang Pegayon","urban":"Cinta Maju","postal_code":24653},{"province":"Nanggroe Aceh Darussalam","city":"Gayo Lues","district":"Dabun Gelang (Debun Gelang)","urban":"Blangtemung","postal_code":24653},{"province":"Nanggroe Aceh Darussalam","city":"Gayo Lues","district":"Blang Pegayon","urban":"Bener Baru","postal_code":24653},{"province":"Nanggroe Aceh Darussalam","city":"Gayo Lues","district":"Blang Pegayon","urban":"Blangbengkik","postal_code":24653},{"province":"Nanggroe Aceh Darussalam","city":"Gayo Lues","district":"Blang Pegayon","urban":"Anak Reje","postal_code":24653},{"province":"Nanggroe Aceh Darussalam","city":"Gayo Lues","district":"Dabun Gelang (Debun Gelang)","urban":"Badak","postal_code":24653},{"province":"Nanggroe Aceh Darussalam","city":"Gayo Lues","district":"Blang Pegayon","urban":"Akang Siwah","postal_code":24653}]