[{"province":"Nanggroe Aceh Darussalam","city":"Aceh Tenggara","district":"Babussalam","urban":"Ujung Barat","postal_code":24651},{"province":"Nanggroe Aceh Darussalam","city":"Aceh Tenggara","district":"Deleng Pokhisen","urban":"Tualang Lama","postal_code":24651},{"province":"Nanggroe Aceh Darussalam","city":"Aceh Tenggara","district":"Babussalam","urban":"Terutung Pedi","postal_code":24651},{"province":"Nanggroe Aceh Darussalam","city":"Aceh Tenggara","district":"Deleng Pokhisen","urban":"Tenembak/Tenebak Lang-Lang","postal_code":24651},{"province":"Nanggroe Aceh Darussalam","city":"Aceh Tenggara","district":"Deleng Pokhisen","urban":"Terutung Mbelang","postal_code":24651},{"province":"Nanggroe Aceh Darussalam","city":"Aceh Tenggara","district":"Lawe Bulan","urban":"Tenembak Juhar","postal_code":24651},{"province":"Nanggroe Aceh Darussalam","city":"Aceh Tenggara","district":"Deleng Pokhisen","urban":"Tanoh Khukahen","postal_code":24651},{"province":"Nanggroe Aceh Darussalam","city":"Aceh Tenggara","district":"Lawe Bulan","urban":"Telaga Mekar","postal_code":24651},{"province":"Nanggroe Aceh Darussalam","city":"Aceh Tenggara","district":"Deleng Pokhisen","urban":"Tading Niulihi","postal_code":24651},{"province":"Nanggroe Aceh Darussalam","city":"Aceh Tenggara","district":"Lawe Bulan","urban":"Simpang Empat","postal_code":24651},{"province":"Nanggroe Aceh Darussalam","city":"Aceh Tenggara","district":"Babussalam","urban":"Pulo Sanggakh","postal_code":24651},{"province":"Nanggroe Aceh Darussalam","city":"Aceh Tenggara","district":"Babussalam","urban":"Pulonas","postal_code":24651},{"province":"Nanggroe Aceh Darussalam","city":"Aceh Tenggara","district":"Lawe Bulan","urban":"Pulonas Baru","postal_code":24651},{"province":"Nanggroe Aceh Darussalam","city":"Aceh Tenggara","district":"Babussalam","urban":"Pulo Latong","postal_code":24651},{"province":"Nanggroe Aceh Darussalam","city":"Aceh Tenggara","district":"Babussalam","urban":"Pulo Peding","postal_code":24651},{"province":"Nanggroe Aceh Darussalam","city":"Aceh Tenggara","district":"Deleng Pokhisen","urban":"Pesuluk Pesimbe","postal_code":24651},{"province":"Nanggroe Aceh Darussalam","city":"Aceh Tenggara","district":"Babussalam","urban":"Perapat Sepakat","postal_code":24651},{"province":"Nanggroe Aceh Darussalam","city":"Aceh Tenggara","district":"Babussalam","urban":"Perapat Titi Panjang","postal_code":24651},{"province":"Nanggroe Aceh Darussalam","city":"Aceh Tenggara","district":"Babussalam","urban":"Perapat Hulu","postal_code":24651},{"province":"Nanggroe Aceh Darussalam","city":"Aceh Tenggara","district":"Babussalam","urban":"Perapat Hilir","postal_code":24651},{"province":"Nanggroe Aceh Darussalam","city":"Aceh Tenggara","district":"Deleng Pokhisen","urban":"Penampaan","postal_code":24651},{"province":"Nanggroe Aceh Darussalam","city":"Aceh Tenggara","district":"Lawe Bulan","urban":"Pekhapat Timur","postal_code":24651},{"province":"Nanggroe Aceh Darussalam","city":"Aceh Tenggara","district":"Lawe Bulan","urban":"Pasir Penjengakan","postal_code":24651},{"province":"Nanggroe Aceh Darussalam","city":"Aceh Tenggara","district":"Lawe Bulan","urban":"Pasir Gala","postal_code":24651},{"province":"Nanggroe Aceh Darussalam","city":"Aceh Tenggara","district":"Deleng Pokhisen","urban":"Muhajirin","postal_code":24651},{"province":"Nanggroe Aceh Darussalam","city":"Aceh Tenggara","district":"Babussalam","urban":"Muara Lawe Bulan","postal_code":24651},{"province":"Nanggroe Aceh Darussalam","city":"Aceh Tenggara","district":"Babussalam","urban":"Mendabe","postal_code":24651},{"province":"Nanggroe Aceh Darussalam","city":"Aceh Tenggara","district":"Babussalam","urban":"Melayu I","postal_code":24651},{"province":"Nanggroe Aceh Darussalam","city":"Aceh Tenggara","district":"Babussalam","urban":"Mburung Datuk Sekhudane","postal_code":24651},{"province":"Nanggroe Aceh Darussalam","city":"Aceh Tenggara","district":"Babussalam","urban":"Mbarung","postal_code":24651},{"province":"Nanggroe Aceh Darussalam","city":"Aceh Tenggara","district":"Lawe Bulan","urban":"Mbacang Racun","postal_code":24651},{"province":"Nanggroe Aceh Darussalam","city":"Aceh Tenggara","district":"Lawe Bulan","urban":"Lawe Sagu Hulu","postal_code":24651},{"province":"Nanggroe Aceh Darussalam","city":"Aceh Tenggara","district":"Lawe Bulan","urban":"Lawe Sagu Hilir","postal_code":24651},{"province":"Nanggroe Aceh Darussalam","city":"Aceh Tenggara","district":"Lawe Bulan","urban":"Lawe Sagu Baru","postal_code":24651},{"province":"Nanggroe Aceh Darussalam","city":"Aceh Tenggara","district":"Lawe Bulan","urban":"Lawe Sagu","postal_code":24651},{"province":"Nanggroe Aceh Darussalam","city":"Aceh Tenggara","district":"Lawe Bulan","urban":"Lawe Rutung","postal_code":24651},{"province":"Nanggroe Aceh Darussalam","city":"Aceh Tenggara","district":"Lawe Bulan","urban":"Lawe Kolok","postal_code":24651},{"province":"Nanggroe Aceh Darussalam","city":"Aceh Tenggara","district":"Deleng Pokhisen","urban":"Lawe Pangkat","postal_code":24651},{"province":"Nanggroe Aceh Darussalam","city":"Aceh Tenggara","district":"Lawe Bulan","urban":"Lawe Kinge","postal_code":24651},{"province":"Nanggroe Aceh Darussalam","city":"Aceh Tenggara","district":"Bambel","urban":"Lawe Kihing","postal_code":24651},{"province":"Nanggroe Aceh Darussalam","city":"Aceh Tenggara","district":"Deleng Pokhisen","urban":"Lawe Hakhum","postal_code":24651},{"province":"Nanggroe Aceh Darussalam","city":"Aceh Tenggara","district":"Lawe Bulan","urban":"Kutem Baru","postal_code":24651},{"province":"Nanggroe Aceh Darussalam","city":"Aceh Tenggara","district":"Babussalam","urban":"Kute Rih","postal_code":24651},{"province":"Nanggroe Aceh Darussalam","city":"Aceh Tenggara","district":"Lawe Bulan","urban":"Kute Bantil","postal_code":24651},{"province":"Nanggroe Aceh Darussalam","city":"Aceh Tenggara","district":"Babussalam","urban":"Kutacane Lama","postal_code":24651},{"province":"Nanggroe Aceh Darussalam","city":"Aceh Tenggara","district":"Lawe Bulan","urban":"Kuta Genting","postal_code":24651},{"province":"Nanggroe Aceh Darussalam","city":"Aceh Tenggara","district":"Lawe Bulan","urban":"Kuta Galuh Asli","postal_code":24651},{"province":"Nanggroe Aceh Darussalam","city":"Aceh Tenggara","district":"Lawe Bulan","urban":"Kuta Buluh Botong","postal_code":24651},{"province":"Nanggroe Aceh Darussalam","city":"Aceh Tenggara","district":"Babussalam","urban":"Kota Kutacane","postal_code":24651},{"province":"Nanggroe Aceh Darussalam","city":"Aceh Tenggara","district":"Deleng Pokhisen","urban":"Kati Jeroh","postal_code":24651},{"province":"Nanggroe Aceh Darussalam","city":"Aceh Tenggara","district":"Lawe Bulan","urban":"Katembaru Bencawan","postal_code":24651},{"province":"Nanggroe Aceh Darussalam","city":"Aceh Tenggara","district":"Deleng Pokhisen","urban":"Kane Lot","postal_code":24651},{"province":"Nanggroe Aceh Darussalam","city":"Aceh Tenggara","district":"Lawe Bulan","urban":"Kandang Mbelang Mandiri","postal_code":24651},{"province":"Nanggroe Aceh Darussalam","city":"Aceh Tenggara","district":"Babussalam","urban":"Kampung Raja","postal_code":24651},{"province":"Nanggroe Aceh Darussalam","city":"Aceh Tenggara","district":"Lawe Bulan","urban":"Kampung Nangka","postal_code":24651},{"province":"Nanggroe Aceh Darussalam","city":"Aceh Tenggara","district":"Babussalam","urban":"Kampung Melayu Gabungan","postal_code":24651},{"province":"Nanggroe Aceh Darussalam","city":"Aceh Tenggara","district":"Deleng Pokhisen","urban":"Bunga Melur Gabungan","postal_code":24651},{"province":"Nanggroe Aceh Darussalam","city":"Aceh Tenggara","district":"Deleng Pokhisen","urban":"Beriring Naru","postal_code":24651},{"province":"Nanggroe Aceh Darussalam","city":"Aceh Tenggara","district":"Babussalam","urban":"Batum Bln Baru","postal_code":24651},{"province":"Nanggroe Aceh Darussalam","city":"Aceh Tenggara","district":"Babussalam","urban":"Batu Mbulan Sepakat","postal_code":24651},{"province":"Nanggroe Aceh Darussalam","city":"Aceh Tenggara","district":"Babussalam","urban":"Batu Mbulan II","postal_code":24651},{"province":"Nanggroe Aceh Darussalam","city":"Aceh Tenggara","district":"Babussalam","urban":"Batu Mbulan Asli","postal_code":24651},{"province":"Nanggroe Aceh Darussalam","city":"Aceh Tenggara","district":"Babussalam","urban":"Batu Mbulan I","postal_code":24651},{"province":"Nanggroe Aceh Darussalam","city":"Aceh Tenggara","district":"Lawe Bulan","urban":"Bahagia","postal_code":24651},{"province":"Nanggroe Aceh Darussalam","city":"Aceh Tenggara","district":"Babussalam","urban":"Alas Memancar","postal_code":24651}]