[{"province":"Nanggroe Aceh Darussalam","city":"Gayo Lues","district":"Teripe/Tripe Jaya","urban":"Uyem Beriring","postal_code":24656},{"province":"Nanggroe Aceh Darussalam","city":"Gayo Lues","district":"Terangun (Terangon)","urban":"Terlis","postal_code":24656},{"province":"Nanggroe Aceh Darussalam","city":"Gayo Lues","district":"Terangun (Terangon)","urban":"Telege Jernih","postal_code":24656},{"province":"Nanggroe Aceh Darussalam","city":"Gayo Lues","district":"Terangun (Terangon)","urban":"Terangon","postal_code":24656},{"province":"Nanggroe Aceh Darussalam","city":"Gayo Lues","district":"Terangun (Terangon)","urban":"Soyo","postal_code":24656},{"province":"Nanggroe Aceh Darussalam","city":"Gayo Lues","district":"Teripe/Tripe Jaya","urban":"Setul","postal_code":24656},{"province":"Nanggroe Aceh Darussalam","city":"Gayo Lues","district":"Terangun (Terangon)","urban":"Rime Jaya","postal_code":24656},{"province":"Nanggroe Aceh Darussalam","city":"Gayo Lues","district":"Terangun (Terangon)","urban":"Rumpi","postal_code":24656},{"province":"Nanggroe Aceh Darussalam","city":"Gayo Lues","district":"Teripe/Tripe Jaya","urban":"Rerebe","postal_code":24656},{"province":"Nanggroe Aceh Darussalam","city":"Gayo Lues","district":"Terangun (Terangon)","urban":"Rempelan Pinang","postal_code":24656},{"province":"Nanggroe Aceh Darussalam","city":"Gayo Lues","district":"Teripe/Tripe Jaya","urban":"Pulo Gelime","postal_code":24656},{"province":"Nanggroe Aceh Darussalam","city":"Gayo Lues","district":"Terangun (Terangon)","urban":"Reje Pudung","postal_code":24656},{"province":"Nanggroe Aceh Darussalam","city":"Gayo Lues","district":"Teripe/Tripe Jaya","urban":"Perlak","postal_code":24656},{"province":"Nanggroe Aceh Darussalam","city":"Gayo Lues","district":"Terangun (Terangon)","urban":"Persada Tongra","postal_code":24656},{"province":"Nanggroe Aceh Darussalam","city":"Gayo Lues","district":"Teripe/Tripe Jaya","urban":"Pasir","postal_code":24656},{"province":"Nanggroe Aceh Darussalam","city":"Gayo Lues","district":"Teripe/Tripe Jaya","urban":"Paya Kumer","postal_code":24656},{"province":"Nanggroe Aceh Darussalam","city":"Gayo Lues","district":"Terangun (Terangon)","urban":"Pantan Lues","postal_code":24656},{"province":"Nanggroe Aceh Darussalam","city":"Gayo Lues","district":"Terangun (Terangon)","urban":"Padang","postal_code":24656},{"province":"Nanggroe Aceh Darussalam","city":"Gayo Lues","district":"Teripe/Tripe Jaya","urban":"Pantan Kela","postal_code":24656},{"province":"Nanggroe Aceh Darussalam","city":"Gayo Lues","district":"Terangun (Terangon)","urban":"Lestari","postal_code":24656},{"province":"Nanggroe Aceh Darussalam","city":"Gayo Lues","district":"Terangun (Terangon)","urban":"Makmur Jaya","postal_code":24656},{"province":"Nanggroe Aceh Darussalam","city":"Gayo Lues","district":"Terangun (Terangon)","urban":"Kutesange","postal_code":24656},{"province":"Nanggroe Aceh Darussalam","city":"Gayo Lues","district":"Terangun (Terangon)","urban":"Kute Reje","postal_code":24656},{"province":"Nanggroe Aceh Darussalam","city":"Gayo Lues","district":"Teripe/Tripe Jaya","urban":"Kuala Jernih","postal_code":24656},{"province":"Nanggroe Aceh Darussalam","city":"Gayo Lues","district":"Terangun (Terangon)","urban":"Gewat","postal_code":24656},{"province":"Nanggroe Aceh Darussalam","city":"Gayo Lues","district":"Terangun (Terangon)","urban":"Jabo","postal_code":24656},{"province":"Nanggroe Aceh Darussalam","city":"Gayo Lues","district":"Terangun (Terangon)","urban":"Garut","postal_code":24656},{"province":"Nanggroe Aceh Darussalam","city":"Gayo Lues","district":"Terangun (Terangon)","urban":"Gawar Belangi","postal_code":24656},{"province":"Nanggroe Aceh Darussalam","city":"Gayo Lues","district":"Terangun (Terangon)","urban":"Bukut","postal_code":24656},{"province":"Nanggroe Aceh Darussalam","city":"Gayo Lues","district":"Teripe/Tripe Jaya","urban":"Buntul Musara","postal_code":24656},{"province":"Nanggroe Aceh Darussalam","city":"Gayo Lues","district":"Terangun (Terangon)","urban":"Blang Kala","postal_code":24656},{"province":"Nanggroe Aceh Darussalam","city":"Gayo Lues","district":"Terangun (Terangon)","urban":"Blang Kuncir","postal_code":24656},{"province":"Nanggroe Aceh Darussalam","city":"Gayo Lues","district":"Terangun (Terangon)","urban":"Berhut","postal_code":24656}]