[{"province":"Nanggroe Aceh Darussalam","city":"Gayo Lues","district":"Rikit Gaib","urban":"Tungel Baru","postal_code":24654},{"province":"Nanggroe Aceh Darussalam","city":"Gayo Lues","district":"Rikit Gaib","urban":"Tungel","postal_code":24654},{"province":"Nanggroe Aceh Darussalam","city":"Gayo Lues","district":"Pantan Cuaca","urban":"Suri Musara","postal_code":24654},{"province":"Nanggroe Aceh Darussalam","city":"Gayo Lues","district":"Pantan Cuaca","urban":"Tetinggi","postal_code":24654},{"province":"Nanggroe Aceh Darussalam","city":"Gayo Lues","district":"Pantan Cuaca","urban":"Remukut","postal_code":24654},{"province":"Nanggroe Aceh Darussalam","city":"Gayo Lues","district":"Pantan Cuaca","urban":"Seneren","postal_code":24654},{"province":"Nanggroe Aceh Darussalam","city":"Gayo Lues","district":"Rikit Gaib","urban":"Penomon Jaya","postal_code":24654},{"province":"Nanggroe Aceh Darussalam","city":"Gayo Lues","district":"Rikit Gaib","urban":"Pinang Rugub","postal_code":24654},{"province":"Nanggroe Aceh Darussalam","city":"Gayo Lues","district":"Rikit Gaib","urban":"Rempelam","postal_code":24654},{"province":"Nanggroe Aceh Darussalam","city":"Gayo Lues","district":"Rikit Gaib","urban":"Mangang","postal_code":24654},{"province":"Nanggroe Aceh Darussalam","city":"Gayo Lues","district":"Rikit Gaib","urban":"Padang Pasir","postal_code":24654},{"province":"Nanggroe Aceh Darussalam","city":"Gayo Lues","district":"Rikit Gaib","urban":"Lukup Baru","postal_code":24654},{"province":"Nanggroe Aceh Darussalam","city":"Gayo Lues","district":"Pantan Cuaca","urban":"Kuning Kurnia","postal_code":24654},{"province":"Nanggroe Aceh Darussalam","city":"Gayo Lues","district":"Rikit Gaib","urban":"Kuning","postal_code":24654},{"province":"Nanggroe Aceh Darussalam","city":"Gayo Lues","district":"Pantan Cuaca","urban":"Kenyaran","postal_code":24654},{"province":"Nanggroe Aceh Darussalam","city":"Gayo Lues","district":"Rikit Gaib","urban":"Kota Rikit Gaib","postal_code":24654},{"province":"Nanggroe Aceh Darussalam","city":"Gayo Lues","district":"Rikit Gaib","urban":"Cane Toa","postal_code":24654},{"province":"Nanggroe Aceh Darussalam","city":"Gayo Lues","district":"Rikit Gaib","urban":"Cane Uken","postal_code":24654},{"province":"Nanggroe Aceh Darussalam","city":"Gayo Lues","district":"Pantan Cuaca","urban":"Cane Baru","postal_code":24654},{"province":"Nanggroe Aceh Darussalam","city":"Gayo Lues","district":"Pantan Cuaca","urban":"Atu Kapur","postal_code":24654},{"province":"Nanggroe Aceh Darussalam","city":"Gayo Lues","district":"Rikit Gaib","urban":"Ampa Kolak","postal_code":24654},{"province":"Nanggroe Aceh Darussalam","city":"Gayo Lues","district":"Pantan Cuaca","urban":"Aih Selah","postal_code":24654}]