[{"province":"Nanggroe Aceh Darussalam","city":"Aceh Tenggara","district":"Tanah Alas","urban":"Timang Khase","postal_code":24661},{"province":"Nanggroe Aceh Darussalam","city":"Aceh Tenggara","district":"Tanah Alas","urban":"Stambul Jaya","postal_code":24661},{"province":"Nanggroe Aceh Darussalam","city":"Aceh Tenggara","district":"Tanah Alas","urban":"Rumah Luar","postal_code":24661},{"province":"Nanggroe Aceh Darussalam","city":"Aceh Tenggara","district":"Tanah Alas","urban":"Salim Pinim II","postal_code":24661},{"province":"Nanggroe Aceh Darussalam","city":"Aceh Tenggara","district":"Lawe Alas","urban":"Rumah Kampung","postal_code":24661},{"province":"Nanggroe Aceh Darussalam","city":"Aceh Tenggara","district":"Tanah Alas","urban":"Rambah Sayang","postal_code":24661},{"province":"Nanggroe Aceh Darussalam","city":"Aceh Tenggara","district":"Lawe Alas","urban":"Rih Mbelang (Mebelang)","postal_code":24661},{"province":"Nanggroe Aceh Darussalam","city":"Aceh Tenggara","district":"Lawe Alas","urban":"Pulo Ndadap","postal_code":24661},{"province":"Nanggroe Aceh Darussalam","city":"Aceh Tenggara","district":"Lawe Alas","urban":"Pulo Ndadap","postal_code":24661},{"province":"Nanggroe Aceh Darussalam","city":"Aceh Tenggara","district":"Lawe Alas","urban":"Pintu Khimbe","postal_code":24661},{"province":"Nanggroe Aceh Darussalam","city":"Aceh Tenggara","district":"Lawe Alas","urban":"Pulo Gadung","postal_code":24661},{"province":"Nanggroe Aceh Darussalam","city":"Aceh Tenggara","district":"Lawe Alas","urban":"Paye Munje","postal_code":24661},{"province":"Nanggroe Aceh Darussalam","city":"Aceh Tenggara","district":"Lawe Alas","urban":"Perapat Batu Nunggul","postal_code":24661},{"province":"Nanggroe Aceh Darussalam","city":"Aceh Tenggara","district":"Lawe Alas","urban":"Pasir Bangun","postal_code":24661},{"province":"Nanggroe Aceh Darussalam","city":"Aceh Tenggara","district":"Lawe Alas","urban":"Pasir Nunggul","postal_code":24661},{"province":"Nanggroe Aceh Darussalam","city":"Aceh Tenggara","district":"Lawe Alas","urban":"Ngkeran","postal_code":24661},{"province":"Nanggroe Aceh Darussalam","city":"Aceh Tenggara","district":"Lawe Alas","urban":"Pasikh Nunang","postal_code":24661},{"province":"Nanggroe Aceh Darussalam","city":"Aceh Tenggara","district":"Lawe Alas","urban":"Pasikh Pekhmate","postal_code":24661},{"province":"Nanggroe Aceh Darussalam","city":"Aceh Tenggara","district":"Lawe Alas","urban":"Muara Baru","postal_code":24661},{"province":"Nanggroe Aceh Darussalam","city":"Aceh Tenggara","district":"Tanah Alas","urban":"Lawe Tungkal","postal_code":24661},{"province":"Nanggroe Aceh Darussalam","city":"Aceh Tenggara","district":"Lawe Alas","urban":"Lawe Sempilang","postal_code":24661},{"province":"Nanggroe Aceh Darussalam","city":"Aceh Tenggara","district":"Lawe Alas","urban":"Lawe Konker/Kongkir","postal_code":24661},{"province":"Nanggroe Aceh Darussalam","city":"Aceh Tenggara","district":"Lawe Alas","urban":"Lawe Lubang Indah","postal_code":24661},{"province":"Nanggroe Aceh Darussalam","city":"Aceh Tenggara","district":"Lawe Alas","urban":"Lawe Konker Hilir","postal_code":24661},{"province":"Nanggroe Aceh Darussalam","city":"Aceh Tenggara","district":"Tanah Alas","urban":"Kute Mejile","postal_code":24661},{"province":"Nanggroe Aceh Darussalam","city":"Aceh Tenggara","district":"Lawe Alas","urban":"Kuta Cingkam II","postal_code":24661},{"province":"Nanggroe Aceh Darussalam","city":"Aceh Tenggara","district":"Lawe Alas","urban":"Kuta Batu II","postal_code":24661},{"province":"Nanggroe Aceh Darussalam","city":"Aceh Tenggara","district":"Lawe Alas","urban":"Kuta Cingkam I","postal_code":24661},{"province":"Nanggroe Aceh Darussalam","city":"Aceh Tenggara","district":"Lawe Alas","urban":"Kuta Batu Baru","postal_code":24661},{"province":"Nanggroe Aceh Darussalam","city":"Aceh Tenggara","district":"Lawe Alas","urban":"Kuta Batu I","postal_code":24661},{"province":"Nanggroe Aceh Darussalam","city":"Aceh Tenggara","district":"Lawe Alas","urban":"Kubu","postal_code":24661},{"province":"Nanggroe Aceh Darussalam","city":"Aceh Tenggara","district":"Tanah Alas","urban":"Khutung Mbelang","postal_code":24661},{"province":"Nanggroe Aceh Darussalam","city":"Aceh Tenggara","district":"Lawe Alas","urban":"Engkeran","postal_code":24661},{"province":"Nanggroe Aceh Darussalam","city":"Aceh Tenggara","district":"Tanah Alas","urban":"Jambukh Pekhmate","postal_code":24661},{"province":"Nanggroe Aceh Darussalam","city":"Aceh Tenggara","district":"Lawe Alas","urban":"Deleng Kukusen","postal_code":24661},{"province":"Nanggroe Aceh Darussalam","city":"Aceh Tenggara","district":"Lawe Alas","urban":"Batu Hamparan","postal_code":24661},{"province":"Nanggroe Aceh Darussalam","city":"Aceh Tenggara","district":"Lawe Alas","urban":"Darul Amin","postal_code":24661},{"province":"Nanggroe Aceh Darussalam","city":"Aceh Tenggara","district":"Tanah Alas","urban":"Alukh Nangke","postal_code":24661},{"province":"Nanggroe Aceh Darussalam","city":"Aceh Tenggara","district":"Tanah Alas","urban":"Alur Langsat","postal_code":24661}]