[{"province":"Nanggroe Aceh Darussalam","city":"Aceh Tenggara","district":"Bambel","urban":"Tualang Sembilar","postal_code":24671},{"province":"Nanggroe Aceh Darussalam","city":"Aceh Tenggara","district":"Bambel","urban":"Terutung Seperai","postal_code":24671},{"province":"Nanggroe Aceh Darussalam","city":"Aceh Tenggara","district":"Bukit Tusam","urban":"Tualang Baru","postal_code":24671},{"province":"Nanggroe Aceh Darussalam","city":"Aceh Tenggara","district":"Bambel","urban":"Terutung Payung Gabungan","postal_code":24671},{"province":"Nanggroe Aceh Darussalam","city":"Aceh Tenggara","district":"Bambel","urban":"Terutung Payung Hilir","postal_code":24671},{"province":"Nanggroe Aceh Darussalam","city":"Aceh Tenggara","district":"Bambel","urban":"Terutung Payung Hulu","postal_code":24671},{"province":"Nanggroe Aceh Darussalam","city":"Aceh Tenggara","district":"Bambel","urban":"Terutung Megara Asli","postal_code":24671},{"province":"Nanggroe Aceh Darussalam","city":"Aceh Tenggara","district":"Lawe Sumur","urban":"Terutung Megara Lawe Pasaran","postal_code":24671},{"province":"Nanggroe Aceh Darussalam","city":"Aceh Tenggara","district":"Lawe Sumur","urban":"Tengku Mbelin","postal_code":24671},{"province":"Nanggroe Aceh Darussalam","city":"Aceh Tenggara","district":"Lawe Sumur","urban":"Terutung Megakhe Bakhu","postal_code":24671},{"province":"Nanggroe Aceh Darussalam","city":"Aceh Tenggara","district":"Bambel","urban":"Tembilakh Bakhu","postal_code":24671},{"province":"Nanggroe Aceh Darussalam","city":"Aceh Tenggara","district":"Bukit Tusam","urban":"Tenembak Bintang","postal_code":24671},{"province":"Nanggroe Aceh Darussalam","city":"Aceh Tenggara","district":"Lawe Sumur","urban":"Teger Miko","postal_code":24671},{"province":"Nanggroe Aceh Darussalam","city":"Aceh Tenggara","district":"Lawe Sumur","urban":"Setia Baru","postal_code":24671},{"province":"Nanggroe Aceh Darussalam","city":"Aceh Tenggara","district":"Bukit Tusam","urban":"Rikit Bur II","postal_code":24671},{"province":"Nanggroe Aceh Darussalam","city":"Aceh Tenggara","district":"Bukit Tusam","urban":"Sebudi Jaya","postal_code":24671},{"province":"Nanggroe Aceh Darussalam","city":"Aceh Tenggara","district":"Bambel","urban":"Rikit","postal_code":24671},{"province":"Nanggroe Aceh Darussalam","city":"Aceh Tenggara","district":"Bukit Tusam","urban":"Rema","postal_code":24671},{"province":"Nanggroe Aceh Darussalam","city":"Aceh Tenggara","district":"Bukit Tusam","urban":"Rikit Bur","postal_code":24671},{"province":"Nanggroe Aceh Darussalam","city":"Aceh Tenggara","district":"Bambel","urban":"Pulo Kedondong","postal_code":24671},{"province":"Nanggroe Aceh Darussalam","city":"Aceh Tenggara","district":"Bambel","urban":"Pulo Perengge","postal_code":24671},{"province":"Nanggroe Aceh Darussalam","city":"Aceh Tenggara","district":"Bambel","urban":"Pinding","postal_code":24671},{"province":"Nanggroe Aceh Darussalam","city":"Aceh Tenggara","district":"Lawe Sumur","urban":"Penosan","postal_code":24671},{"province":"Nanggroe Aceh Darussalam","city":"Aceh Tenggara","district":"Bambel","urban":"Pedesi","postal_code":24671},{"province":"Nanggroe Aceh Darussalam","city":"Aceh Tenggara","district":"Bukit Tusam","urban":"Pejuang","postal_code":24671},{"province":"Nanggroe Aceh Darussalam","city":"Aceh Tenggara","district":"Bambel","urban":"Pancakh Iman","postal_code":24671},{"province":"Nanggroe Aceh Darussalam","city":"Aceh Tenggara","district":"Bukit Tusam","urban":"Paya Khambung","postal_code":24671},{"province":"Nanggroe Aceh Darussalam","city":"Aceh Tenggara","district":"Bukit Tusam","urban":"Maha Singkil","postal_code":24671},{"province":"Nanggroe Aceh Darussalam","city":"Aceh Tenggara","district":"Bukit Tusam","urban":"Mbak Sako","postal_code":24671},{"province":"Nanggroe Aceh Darussalam","city":"Aceh Tenggara","district":"Bambel","urban":"Lembah Haji","postal_code":24671},{"province":"Nanggroe Aceh Darussalam","city":"Aceh Tenggara","district":"Bambel","urban":"Likat","postal_code":24671},{"province":"Nanggroe Aceh Darussalam","city":"Aceh Tenggara","district":"Lawe Sumur","urban":"Lawe Sumur Baru","postal_code":24671},{"province":"Nanggroe Aceh Darussalam","city":"Aceh Tenggara","district":"Lawe Sumur","urban":"Lawe Sumur Sepakat","postal_code":24671},{"province":"Nanggroe Aceh Darussalam","city":"Aceh Tenggara","district":"Lawe Sumur","urban":"Lawe Polak","postal_code":24671},{"province":"Nanggroe Aceh Darussalam","city":"Aceh Tenggara","district":"Lawe Sumur","urban":"Lawe Sumur","postal_code":24671},{"province":"Nanggroe Aceh Darussalam","city":"Aceh Tenggara","district":"Bambel","urban":"Lawe Hijo Metuah","postal_code":24671},{"province":"Nanggroe Aceh Darussalam","city":"Aceh Tenggara","district":"Bambel","urban":"Lawe Hijo","postal_code":24671},{"province":"Nanggroe Aceh Darussalam","city":"Aceh Tenggara","district":"Bukit Tusam","urban":"Lawe Dua Gabungan","postal_code":24671},{"province":"Nanggroe Aceh Darussalam","city":"Aceh Tenggara","district":"Bambel","urban":"Kute Seri","postal_code":24671},{"province":"Nanggroe Aceh Darussalam","city":"Aceh Tenggara","district":"Lawe Sumur","urban":"Kute Lesung","postal_code":24671},{"province":"Nanggroe Aceh Darussalam","city":"Aceh Tenggara","district":"Bambel","urban":"Kute Lang Lang Bakhu","postal_code":24671},{"province":"Nanggroe Aceh Darussalam","city":"Aceh Tenggara","district":"Bukit Tusam","urban":"Kute Gekhat","postal_code":24671},{"province":"Nanggroe Aceh Darussalam","city":"Aceh Tenggara","district":"Bukit Tusam","urban":"Kute Gekhat","postal_code":24671},{"province":"Nanggroe Aceh Darussalam","city":"Aceh Tenggara","district":"Bambel","urban":"Kute Buluh","postal_code":24671},{"province":"Nanggroe Aceh Darussalam","city":"Aceh Tenggara","district":"Lawe Sumur","urban":"Kute Bunin","postal_code":24671},{"province":"Nanggroe Aceh Darussalam","city":"Aceh Tenggara","district":"Bambel","urban":"Kute Antara","postal_code":24671},{"province":"Nanggroe Aceh Darussalam","city":"Aceh Tenggara","district":"Bukit Tusam","urban":"Kuta Lingga","postal_code":24671},{"province":"Nanggroe Aceh Darussalam","city":"Aceh Tenggara","district":"Bukit Tusam","urban":"Kuta Lengat Pagan","postal_code":24671},{"province":"Nanggroe Aceh Darussalam","city":"Aceh Tenggara","district":"Bukit Tusam","urban":"Kuta Lengat Selian","postal_code":24671},{"province":"Nanggroe Aceh Darussalam","city":"Aceh Tenggara","district":"Bambel","urban":"Kuning I","postal_code":24671},{"province":"Nanggroe Aceh Darussalam","city":"Aceh Tenggara","district":"Bambel","urban":"Kuning II","postal_code":24671},{"province":"Nanggroe Aceh Darussalam","city":"Aceh Tenggara","district":"Lawe Sumur","urban":"Kisam Kute Pasir","postal_code":24671},{"province":"Nanggroe Aceh Darussalam","city":"Aceh Tenggara","district":"Lawe Sumur","urban":"Kisam Kute Rambe","postal_code":24671},{"province":"Nanggroe Aceh Darussalam","city":"Aceh Tenggara","district":"Lawe Sumur","urban":"Kisam Lestari","postal_code":24671},{"province":"Nanggroe Aceh Darussalam","city":"Aceh Tenggara","district":"Bukit Tusam","urban":"Kerukunan","postal_code":24671},{"province":"Nanggroe Aceh Darussalam","city":"Aceh Tenggara","district":"Lawe Sumur","urban":"Kisam","postal_code":24671},{"province":"Nanggroe Aceh Darussalam","city":"Aceh Tenggara","district":"Bukit Tusam","urban":"Empat Lima","postal_code":24671},{"province":"Nanggroe Aceh Darussalam","city":"Aceh Tenggara","district":"Bukit Tusam","urban":"Gumpang","postal_code":24671},{"province":"Nanggroe Aceh Darussalam","city":"Aceh Tenggara","district":"Babussalam","urban":"Gumpang Jaya","postal_code":24671},{"province":"Nanggroe Aceh Darussalam","city":"Aceh Tenggara","district":"Bukit Tusam","urban":"Darussalam","postal_code":24671},{"province":"Nanggroe Aceh Darussalam","city":"Aceh Tenggara","district":"Bukit Tusam","urban":"Darul Imami","postal_code":24671},{"province":"Nanggroe Aceh Darussalam","city":"Aceh Tenggara","district":"Lawe Sumur","urban":"Buah Pala","postal_code":24671},{"province":"Nanggroe Aceh Darussalam","city":"Aceh Tenggara","district":"Bambel","urban":"Cinta Damai","postal_code":24671},{"province":"Nanggroe Aceh Darussalam","city":"Aceh Tenggara","district":"Bambel","urban":"Biak Muli Pantai Raja","postal_code":24671},{"province":"Nanggroe Aceh Darussalam","city":"Aceh Tenggara","district":"Bambel","urban":"Biak Muli Sejahtera","postal_code":24671},{"province":"Nanggroe Aceh Darussalam","city":"Aceh Tenggara","district":"Bambel","urban":"Biak Muli","postal_code":24671},{"province":"Nanggroe Aceh Darussalam","city":"Aceh Tenggara","district":"Bambel","urban":"Biak Muli Bakhu","postal_code":24671},{"province":"Nanggroe Aceh Darussalam","city":"Aceh Tenggara","district":"Lawe Sumur","urban":"Berandang","postal_code":24671},{"province":"Nanggroe Aceh Darussalam","city":"Aceh Tenggara","district":"Bambel","urban":"Bambel Gabungan","postal_code":24671},{"province":"Nanggroe Aceh Darussalam","city":"Aceh Tenggara","district":"Bukit Tusam","urban":"Bambel Baru","postal_code":24671},{"province":"Nanggroe Aceh Darussalam","city":"Aceh Tenggara","district":"Bambel","urban":"Bambel","postal_code":24671},{"province":"Nanggroe Aceh Darussalam","city":"Aceh Tenggara","district":"Bukit Tusam","urban":"Amaliah","postal_code":24671},{"province":"Nanggroe Aceh Darussalam","city":"Aceh Tenggara","district":"Bambel","urban":"Ampera","postal_code":24671},{"province":"Nanggroe Aceh Darussalam","city":"Aceh Tenggara","district":"Bukit Tusam","urban":"Alur Buluh (Kuta Buluh)","postal_code":24671}]