[{"province":"Nanggroe Aceh Darussalam","city":"Aceh Tenggara","district":"Leuser","urban":"Ukhat Peseluk","postal_code":24673},{"province":"Nanggroe Aceh Darussalam","city":"Aceh Tenggara","district":"Babul Rahmah","urban":"Uning Sigugur","postal_code":24673},{"province":"Nanggroe Aceh Darussalam","city":"Aceh Tenggara","district":"Babul Rahmah","urban":"Tuhi Jongkat","postal_code":24673},{"province":"Nanggroe Aceh Darussalam","city":"Aceh Tenggara","district":"Babul Rahmah","urban":"Ukekh Deleng","postal_code":24673},{"province":"Nanggroe Aceh Darussalam","city":"Aceh Tenggara","district":"Leuser","urban":"Tunas Mude","postal_code":24673},{"province":"Nanggroe Aceh Darussalam","city":"Aceh Tenggara","district":"Babul Rahmah","urban":"Titi Mas","postal_code":24673},{"province":"Nanggroe Aceh Darussalam","city":"Aceh Tenggara","district":"Babul Rahmah","urban":"Tuah Mesade","postal_code":24673},{"province":"Nanggroe Aceh Darussalam","city":"Aceh Tenggara","district":"Babul Rahmah","urban":"Titai Hakhapen","postal_code":24673},{"province":"Nanggroe Aceh Darussalam","city":"Aceh Tenggara","district":"Tanah Alas","urban":"Tenembak Alas","postal_code":24673},{"province":"Nanggroe Aceh Darussalam","city":"Aceh Tenggara","district":"Babul Rahmah","urban":"Tanoh Subukh","postal_code":24673},{"province":"Nanggroe Aceh Darussalam","city":"Aceh Tenggara","district":"Babul Makmur","urban":"Tanoh Alas","postal_code":24673},{"province":"Nanggroe Aceh Darussalam","city":"Aceh Tenggara","district":"Leuser","urban":"Tanah Khekhine","postal_code":24673},{"province":"Nanggroe Aceh Darussalam","city":"Aceh Tenggara","district":"Leuser","urban":"Tanjung Sari","postal_code":24673},{"province":"Nanggroe Aceh Darussalam","city":"Aceh Tenggara","district":"Babul Rahmah","urban":"Sumukh Alas","postal_code":24673},{"province":"Nanggroe Aceh Darussalam","city":"Aceh Tenggara","district":"Lawe Sigala-Gala","urban":"Tanah Baru","postal_code":24673},{"province":"Nanggroe Aceh Darussalam","city":"Aceh Tenggara","district":"Leuser","urban":"Suka Damai","postal_code":24673},{"province":"Nanggroe Aceh Darussalam","city":"Aceh Tenggara","district":"Lawe Sigala-Gala","urban":"Suka Jaya","postal_code":24673},{"province":"Nanggroe Aceh Darussalam","city":"Aceh Tenggara","district":"Lawe Sigala-Gala","urban":"Suka Maju","postal_code":24673},{"province":"Nanggroe Aceh Darussalam","city":"Aceh Tenggara","district":"Babul Rahmah","urban":"Sigai Indah","postal_code":24673},{"province":"Nanggroe Aceh Darussalam","city":"Aceh Tenggara","district":"Lawe Sigala-Gala","urban":"Suka Damai","postal_code":24673},{"province":"Nanggroe Aceh Darussalam","city":"Aceh Tenggara","district":"Babul Rahmah","urban":"Sepekhinding","postal_code":24673},{"province":"Nanggroe Aceh Darussalam","city":"Aceh Tenggara","district":"Babul Makmur","urban":"Sibulussalam","postal_code":24673},{"province":"Nanggroe Aceh Darussalam","city":"Aceh Tenggara","district":"Leuser","urban":"Sepakat","postal_code":24673},{"province":"Nanggroe Aceh Darussalam","city":"Aceh Tenggara","district":"Babul Makmur","urban":"Sejahtera","postal_code":24673},{"province":"Nanggroe Aceh Darussalam","city":"Aceh Tenggara","district":"Babul Makmur","urban":"Sejahtera Baru","postal_code":24673},{"province":"Nanggroe Aceh Darussalam","city":"Aceh Tenggara","district":"Lawe Sigala-Gala","urban":"Sebungke","postal_code":24673},{"province":"Nanggroe Aceh Darussalam","city":"Aceh Tenggara","district":"Babul Rahmah","urban":"Salim Pipit","postal_code":24673},{"province":"Nanggroe Aceh Darussalam","city":"Aceh Tenggara","district":"Tanah Alas","urban":"Salim Pinim","postal_code":24673},{"province":"Nanggroe Aceh Darussalam","city":"Aceh Tenggara","district":"Leuser","urban":"Sade Ate","postal_code":24673},{"province":"Nanggroe Aceh Darussalam","city":"Aceh Tenggara","district":"Leuser","urban":"Punce Nali","postal_code":24673},{"province":"Nanggroe Aceh Darussalam","city":"Aceh Tenggara","district":"Babul Makmur","urban":"Pintu Alas","postal_code":24673},{"province":"Nanggroe Aceh Darussalam","city":"Aceh Tenggara","district":"Babul Rahmah","urban":"Pinggan Mbelang","postal_code":24673},{"province":"Nanggroe Aceh Darussalam","city":"Aceh Tenggara","district":"Leuser","urban":"Permata Musara","postal_code":24673},{"province":"Nanggroe Aceh Darussalam","city":"Aceh Tenggara","district":"Babul Rahmah","urban":"Penguhapan","postal_code":24673},{"province":"Nanggroe Aceh Darussalam","city":"Aceh Tenggara","district":"Babul Rahmah","urban":"Perdamean","postal_code":24673},{"province":"Nanggroe Aceh Darussalam","city":"Aceh Tenggara","district":"Babul Makmur","urban":"Pardamean","postal_code":24673},{"province":"Nanggroe Aceh Darussalam","city":"Aceh Tenggara","district":"Babul Makmur","urban":"Pardomuan I","postal_code":24673},{"province":"Nanggroe Aceh Darussalam","city":"Aceh Tenggara","district":"Babul Makmur","urban":"Pardomuan II","postal_code":24673},{"province":"Nanggroe Aceh Darussalam","city":"Aceh Tenggara","district":"Lawe Sigala-Gala","urban":"Ndauh Nitenggo","postal_code":24673},{"province":"Nanggroe Aceh Darussalam","city":"Aceh Tenggara","district":"Leuser","urban":"Naga Timbul","postal_code":24673},{"province":"Nanggroe Aceh Darussalam","city":"Aceh Tenggara","district":"Lawe Sigala-Gala","urban":"Mulie Damai","postal_code":24673},{"province":"Nanggroe Aceh Darussalam","city":"Aceh Tenggara","district":"Babul Rahmah","urban":"Mutiara Damai","postal_code":24673},{"province":"Nanggroe Aceh Darussalam","city":"Aceh Tenggara","district":"Babul Makmur","urban":"Muara Setia","postal_code":24673},{"province":"Nanggroe Aceh Darussalam","city":"Aceh Tenggara","district":"Babul Makmur","urban":"Muara Situlen","postal_code":24673},{"province":"Nanggroe Aceh Darussalam","city":"Aceh Tenggara","district":"Babul Rahmah","urban":"Lumban Tua","postal_code":24673},{"province":"Nanggroe Aceh Darussalam","city":"Aceh Tenggara","district":"Babul Rahmah","urban":"Meranti","postal_code":24673},{"province":"Nanggroe Aceh Darussalam","city":"Aceh Tenggara","district":"Babul Rahmah","urban":"Lingge Alas","postal_code":24673},{"province":"Nanggroe Aceh Darussalam","city":"Aceh Tenggara","district":"Babul Rahmah","urban":"Lumban Sitio-Tio","postal_code":24673},{"province":"Nanggroe Aceh Darussalam","city":"Aceh Tenggara","district":"Lawe Sigala-Gala","urban":"Lawe Tua Makmur","postal_code":24673},{"province":"Nanggroe Aceh Darussalam","city":"Aceh Tenggara","district":"Lawe Sigala-Gala","urban":"Lawe Tua Persatuan","postal_code":24673},{"province":"Nanggroe Aceh Darussalam","city":"Aceh Tenggara","district":"Lawe Sigala-Gala","urban":"Lawe Tua Gabungan","postal_code":24673},{"province":"Nanggroe Aceh Darussalam","city":"Aceh Tenggara","district":"Babul Rahmah","urban":"Lawe Sumur","postal_code":24673},{"province":"Nanggroe Aceh Darussalam","city":"Aceh Tenggara","district":"Babul Makmur","urban":"Lawe Tawakh","postal_code":24673},{"province":"Nanggroe Aceh Darussalam","city":"Aceh Tenggara","district":"Lawe Sigala-Gala","urban":"Lawe Sigala Timur","postal_code":24673},{"province":"Nanggroe Aceh Darussalam","city":"Aceh Tenggara","district":"Lawe Sigala-Gala","urban":"Lawe Sigala II","postal_code":24673},{"province":"Nanggroe Aceh Darussalam","city":"Aceh Tenggara","district":"Lawe Sigala-Gala","urban":"Lawe Sigala Barat Jaya","postal_code":24673},{"province":"Nanggroe Aceh Darussalam","city":"Aceh Tenggara","district":"Lawe Sigala-Gala","urban":"Lawe Serke","postal_code":24673},{"province":"Nanggroe Aceh Darussalam","city":"Aceh Tenggara","district":"Lawe Sigala-Gala","urban":"Lawe Sigala Barat","postal_code":24673},{"province":"Nanggroe Aceh Darussalam","city":"Aceh Tenggara","district":"Leuser","urban":"Lawe Sekhakut","postal_code":24673},{"province":"Nanggroe Aceh Darussalam","city":"Aceh Tenggara","district":"Lawe Sigala-Gala","urban":"Lawe Rakat","postal_code":24673},{"province":"Nanggroe Aceh Darussalam","city":"Aceh Tenggara","district":"Babul Makmur","urban":"Lawe Perbunga","postal_code":24673},{"province":"Nanggroe Aceh Darussalam","city":"Aceh Tenggara","district":"Babul Makmur","urban":"Lawe Mantik","postal_code":24673},{"province":"Nanggroe Aceh Darussalam","city":"Aceh Tenggara","district":"Lawe Sigala-Gala","urban":"Lawe Pekhidinen","postal_code":24673},{"province":"Nanggroe Aceh Darussalam","city":"Aceh Tenggara","district":"Babul Rahmah","urban":"Lawe Malum","postal_code":24673},{"province":"Nanggroe Aceh Darussalam","city":"Aceh Tenggara","district":"Lawe Sigala-Gala","urban":"Lawe Loning Sepakat","postal_code":24673},{"province":"Nanggroe Aceh Darussalam","city":"Aceh Tenggara","district":"Lawe Sigala-Gala","urban":"Lawe Loning I","postal_code":24673},{"province":"Nanggroe Aceh Darussalam","city":"Aceh Tenggara","district":"Lawe Sigala-Gala","urban":"Lawe Loning Gabungan","postal_code":24673},{"province":"Nanggroe Aceh Darussalam","city":"Aceh Tenggara","district":"Lawe Sigala-Gala","urban":"Lawe Loning Aman","postal_code":24673},{"province":"Nanggroe Aceh Darussalam","city":"Aceh Tenggara","district":"Lawe Sigala-Gala","urban":"Lawe Kesumpat","postal_code":24673},{"province":"Nanggroe Aceh Darussalam","city":"Aceh Tenggara","district":"Babul Makmur","urban":"Lawe Desky Tongah","postal_code":24673},{"province":"Nanggroe Aceh Darussalam","city":"Aceh Tenggara","district":"Babul Makmur","urban":"Lawe Desky/Deski I","postal_code":24673},{"province":"Nanggroe Aceh Darussalam","city":"Aceh Tenggara","district":"Babul Makmur","urban":"Lawe Desky Sabas","postal_code":24673},{"province":"Nanggroe Aceh Darussalam","city":"Aceh Tenggara","district":"Leuser","urban":"Laut Tawar","postal_code":24673},{"province":"Nanggroe Aceh Darussalam","city":"Aceh Tenggara","district":"Lawe Sigala-Gala","urban":"Kute/Kuta Tengah","postal_code":24673},{"province":"Nanggroe Aceh Darussalam","city":"Aceh Tenggara","district":"Lawe Sigala-Gala","urban":"Kute Serke","postal_code":24673},{"province":"Nanggroe Aceh Darussalam","city":"Aceh Tenggara","district":"Babul Makmur","urban":"Kute Makmur","postal_code":24673},{"province":"Nanggroe Aceh Darussalam","city":"Aceh Tenggara","district":"Babul Makmur","urban":"Kute Bakti","postal_code":24673},{"province":"Nanggroe Aceh Darussalam","city":"Aceh Tenggara","district":"Babul Rahmah","urban":"Kuta/Kute Lang-Lang","postal_code":24673},{"province":"Nanggroe Aceh Darussalam","city":"Aceh Tenggara","district":"Leuser","urban":"Kompas","postal_code":24673},{"province":"Nanggroe Aceh Darussalam","city":"Aceh Tenggara","district":"Babul Rahmah","urban":"Khambung Tubung","postal_code":24673},{"province":"Nanggroe Aceh Darussalam","city":"Aceh Tenggara","district":"Lawe Sigala-Gala","urban":"Kertimbang","postal_code":24673},{"province":"Nanggroe Aceh Darussalam","city":"Aceh Tenggara","district":"Lawe Sigala-Gala","urban":"Kedataran Gabungan","postal_code":24673},{"province":"Nanggroe Aceh Darussalam","city":"Aceh Tenggara","district":"Lawe Sigala-Gala","urban":"Karya Indah","postal_code":24673},{"province":"Nanggroe Aceh Darussalam","city":"Aceh Tenggara","district":"Lawe Sigala-Gala","urban":"Kayu Mbelin","postal_code":24673},{"province":"Nanggroe Aceh Darussalam","city":"Aceh Tenggara","district":"Leuser","urban":"Kane Mende","postal_code":24673},{"province":"Nanggroe Aceh Darussalam","city":"Aceh Tenggara","district":"Tanah Alas","urban":"Jambur Damar","postal_code":24673},{"province":"Nanggroe Aceh Darussalam","city":"Aceh Tenggara","district":"Leuser","urban":"Gunung Pak-Pak","postal_code":24673},{"province":"Nanggroe Aceh Darussalam","city":"Aceh Tenggara","district":"Leuser","urban":"Hakhapen","postal_code":24673},{"province":"Nanggroe Aceh Darussalam","city":"Aceh Tenggara","district":"Lawe Sigala-Gala","urban":"Gelah Musara","postal_code":24673},{"province":"Nanggroe Aceh Darussalam","city":"Aceh Tenggara","district":"Leuser","urban":"Gaye Sendah","postal_code":24673},{"province":"Nanggroe Aceh Darussalam","city":"Aceh Tenggara","district":"Lawe Sigala-Gala","urban":"Gaya Jaya","postal_code":24673},{"province":"Nanggroe Aceh Darussalam","city":"Aceh Tenggara","district":"Lawe Sigala-Gala","urban":"Gabungan Parsaoran","postal_code":24673},{"province":"Nanggroe Aceh Darussalam","city":"Aceh Tenggara","district":"Babul Rahmah","urban":"Dolok Nauli","postal_code":24673},{"province":"Nanggroe Aceh Darussalam","city":"Aceh Tenggara","district":"Lawe Sigala-Gala","urban":"Enmya Batu Dua Ratus","postal_code":24673},{"province":"Nanggroe Aceh Darussalam","city":"Aceh Tenggara","district":"Babul Makmur","urban":"Desky Jaya","postal_code":24673},{"province":"Nanggroe Aceh Darussalam","city":"Aceh Tenggara","district":"Lawe Sigala-Gala","urban":"Darul Aman","postal_code":24673},{"province":"Nanggroe Aceh Darussalam","city":"Aceh Tenggara","district":"Babul Makmur","urban":"Cinta Makmur","postal_code":24673},{"province":"Nanggroe Aceh Darussalam","city":"Aceh Tenggara","district":"Leuser","urban":"Bunbun Indah War","postal_code":24673},{"province":"Nanggroe Aceh Darussalam","city":"Aceh Tenggara","district":"Babul Makmur","urban":"Cinta Damai","postal_code":24673},{"province":"Nanggroe Aceh Darussalam","city":"Aceh Tenggara","district":"Lawe Sigala-Gala","urban":"Bukit Sepakat","postal_code":24673},{"province":"Nanggroe Aceh Darussalam","city":"Aceh Tenggara","district":"Leuser","urban":"Bunbun Alas","postal_code":24673},{"province":"Nanggroe Aceh Darussalam","city":"Aceh Tenggara","district":"Lawe Sigala-Gala","urban":"Bukit Merdeka","postal_code":24673},{"province":"Nanggroe Aceh Darussalam","city":"Aceh Tenggara","district":"Leuser","urban":"Bukit Bintang Indah","postal_code":24673},{"province":"Nanggroe Aceh Darussalam","city":"Aceh Tenggara","district":"Leuser","urban":"Bukit Mekhiah","postal_code":24673},{"province":"Nanggroe Aceh Darussalam","city":"Aceh Tenggara","district":"Babul Rahmah","urban":"Alur Baning","postal_code":24673},{"province":"Nanggroe Aceh Darussalam","city":"Aceh Tenggara","district":"Leuser","urban":"Bintang Alga Musara","postal_code":24673},{"province":"Nanggroe Aceh Darussalam","city":"Aceh Tenggara","district":"Babul Rahmah","urban":"Alas Mesikhat","postal_code":24673},{"province":"Nanggroe Aceh Darussalam","city":"Aceh Tenggara","district":"Babul Rahmah","urban":"Alukh Bakhu","postal_code":24673},{"province":"Nanggroe Aceh Darussalam","city":"Aceh Tenggara","district":"Leuser","urban":"Akhih Majile","postal_code":24673}]