[{"province":"Nanggroe Aceh Darussalam","city":"Aceh Singkil","district":"Singkil","urban":"Ujung Bawang","postal_code":24785},{"province":"Nanggroe Aceh Darussalam","city":"Aceh Singkil","district":"Singkil","urban":"Teluk Rumbia","postal_code":24785},{"province":"Nanggroe Aceh Darussalam","city":"Aceh Singkil","district":"Singkil","urban":"Ujung","postal_code":24785},{"province":"Nanggroe Aceh Darussalam","city":"Aceh Singkil","district":"Singkil","urban":"Takal Pasir","postal_code":24785},{"province":"Nanggroe Aceh Darussalam","city":"Aceh Singkil","district":"Singkil","urban":"Teluk Ambun","postal_code":24785},{"province":"Nanggroe Aceh Darussalam","city":"Aceh Singkil","district":"Singkil Utara","urban":"Telaga Sakti","postal_code":24785},{"province":"Nanggroe Aceh Darussalam","city":"Aceh Singkil","district":"Singkil","urban":"Suka Damai","postal_code":24785},{"province":"Nanggroe Aceh Darussalam","city":"Aceh Singkil","district":"Singkil","urban":"Suka Makmur","postal_code":24785},{"province":"Nanggroe Aceh Darussalam","city":"Aceh Singkil","district":"Singkil","urban":"Siti Ambia","postal_code":24785},{"province":"Nanggroe Aceh Darussalam","city":"Aceh Singkil","district":"Singkil","urban":"Selok Aceh","postal_code":24785},{"province":"Nanggroe Aceh Darussalam","city":"Aceh Singkil","district":"Singkil","urban":"Pemuka","postal_code":24785},{"province":"Nanggroe Aceh Darussalam","city":"Aceh Singkil","district":"Singkil","urban":"Pulo Sarok","postal_code":24785},{"province":"Nanggroe Aceh Darussalam","city":"Aceh Singkil","district":"Singkil","urban":"Rantau Gedang","postal_code":24785},{"province":"Nanggroe Aceh Darussalam","city":"Aceh Singkil","district":"Singkil","urban":"Kota Simboling","postal_code":24785},{"province":"Nanggroe Aceh Darussalam","city":"Aceh Singkil","district":"Singkil","urban":"Pasar Singkil","postal_code":24785},{"province":"Nanggroe Aceh Darussalam","city":"Aceh Singkil","district":"Singkil","urban":"Paya Bumbung","postal_code":24785},{"province":"Nanggroe Aceh Darussalam","city":"Aceh Singkil","district":"Singkil Utara","urban":"Ketapang Indah","postal_code":24785},{"province":"Nanggroe Aceh Darussalam","city":"Aceh Singkil","district":"Singkil","urban":"Kilangan","postal_code":24785},{"province":"Nanggroe Aceh Darussalam","city":"Aceh Singkil","district":"Singkil Utara","urban":"Gosong Telaga Timur","postal_code":24785},{"province":"Nanggroe Aceh Darussalam","city":"Aceh Singkil","district":"Singkil Utara","urban":"Gosong Telaga Utara","postal_code":24785},{"province":"Nanggroe Aceh Darussalam","city":"Aceh Singkil","district":"Singkil Utara","urban":"Kampung Baru","postal_code":24785},{"province":"Nanggroe Aceh Darussalam","city":"Aceh Singkil","district":"Singkil Utara","urban":"Gosong Telaga Barat","postal_code":24785},{"province":"Nanggroe Aceh Darussalam","city":"Aceh Singkil","district":"Singkil Utara","urban":"Gosong Telaga Selatan","postal_code":24785}]