[{"province":"Nanggroe Aceh Darussalam","city":"Subulussalam","district":"Rundeng","urban":"Tualang","postal_code":24786},{"province":"Nanggroe Aceh Darussalam","city":"Subulussalam","district":"Rundeng","urban":"Tanah Tumbuh","postal_code":24786},{"province":"Nanggroe Aceh Darussalam","city":"Subulussalam","district":"Rundeng","urban":"Teladan Baru","postal_code":24786},{"province":"Nanggroe Aceh Darussalam","city":"Subulussalam","district":"Rundeng","urban":"Siperkas","postal_code":24786},{"province":"Nanggroe Aceh Darussalam","city":"Subulussalam","district":"Rundeng","urban":"Suaq/Suak Jampak","postal_code":24786},{"province":"Nanggroe Aceh Darussalam","city":"Subulussalam","district":"Rundeng","urban":"Sibuasan","postal_code":24786},{"province":"Nanggroe Aceh Darussalam","city":"Subulussalam","district":"Rundeng","urban":"Sibungke","postal_code":24786},{"province":"Nanggroe Aceh Darussalam","city":"Subulussalam","district":"Rundeng","urban":"Sepadan","postal_code":24786},{"province":"Nanggroe Aceh Darussalam","city":"Subulussalam","district":"Rundeng","urban":"Panglima Saman","postal_code":24786},{"province":"Nanggroe Aceh Darussalam","city":"Subulussalam","district":"Rundeng","urban":"Pasar Rundeng","postal_code":24786},{"province":"Nanggroe Aceh Darussalam","city":"Subulussalam","district":"Rundeng","urban":"Muara Batu-Batu","postal_code":24786},{"province":"Nanggroe Aceh Darussalam","city":"Subulussalam","district":"Rundeng","urban":"Oboh","postal_code":24786},{"province":"Nanggroe Aceh Darussalam","city":"Subulussalam","district":"Rundeng","urban":"Lae Mate","postal_code":24786},{"province":"Nanggroe Aceh Darussalam","city":"Subulussalam","district":"Rundeng","urban":"Mandilam","postal_code":24786},{"province":"Nanggroe Aceh Darussalam","city":"Subulussalam","district":"Rundeng","urban":"Lae Mate","postal_code":24786},{"province":"Nanggroe Aceh Darussalam","city":"Subulussalam","district":"Rundeng","urban":"Kuala Kepeng (Keupeng)","postal_code":24786},{"province":"Nanggroe Aceh Darussalam","city":"Subulussalam","district":"Rundeng","urban":"Kuta Beringin","postal_code":24786},{"province":"Nanggroe Aceh Darussalam","city":"Subulussalam","district":"Rundeng","urban":"Dah","postal_code":24786},{"province":"Nanggroe Aceh Darussalam","city":"Subulussalam","district":"Rundeng","urban":"Geruguh","postal_code":24786},{"province":"Nanggroe Aceh Darussalam","city":"Subulussalam","district":"Rundeng","urban":"Harapan Baru","postal_code":24786},{"province":"Nanggroe Aceh Darussalam","city":"Subulussalam","district":"Rundeng","urban":"Binanga","postal_code":24786},{"province":"Nanggroe Aceh Darussalam","city":"Subulussalam","district":"Rundeng","urban":"Blukur/Belukur Makmur","postal_code":24786},{"province":"Nanggroe Aceh Darussalam","city":"Subulussalam","district":"Rundeng","urban":"Badar","postal_code":24786}]