[{"province":"Nanggroe Aceh Darussalam","city":"Aceh Singkil","district":"Gunung Meriah (Mariah)","urban":"Tanjung Betik","postal_code":24784},{"province":"Nanggroe Aceh Darussalam","city":"Aceh Singkil","district":"Gunung Meriah (Mariah)","urban":"Tulaan","postal_code":24784},{"province":"Nanggroe Aceh Darussalam","city":"Aceh Singkil","district":"Gunung Meriah (Mariah)","urban":"Tunas Harapan","postal_code":24784},{"province":"Nanggroe Aceh Darussalam","city":"Aceh Singkil","district":"Gunung Meriah (Mariah)","urban":"Tanah Bara","postal_code":24784},{"province":"Nanggroe Aceh Darussalam","city":"Aceh Singkil","district":"Gunung Meriah (Mariah)","urban":"Tanah Merah","postal_code":24784},{"province":"Nanggroe Aceh Darussalam","city":"Aceh Singkil","district":"Suro Makmur","urban":"Suro Baru","postal_code":24784},{"province":"Nanggroe Aceh Darussalam","city":"Aceh Singkil","district":"Kota Baharu","urban":"Sumber Mukti","postal_code":24784},{"province":"Nanggroe Aceh Darussalam","city":"Aceh Singkil","district":"Gunung Meriah (Mariah)","urban":"Suka Makmur","postal_code":24784},{"province":"Nanggroe Aceh Darussalam","city":"Aceh Singkil","district":"Singkohor","urban":"Sri Kayu","postal_code":24784},{"province":"Nanggroe Aceh Darussalam","city":"Aceh Singkil","district":"Danau Paris","urban":"Situbuh-Tubuh","postal_code":24784},{"province":"Nanggroe Aceh Darussalam","city":"Aceh Singkil","district":"Kuala Baru","urban":"Suka Jaya","postal_code":24784},{"province":"Nanggroe Aceh Darussalam","city":"Aceh Singkil","district":"Danau Paris","urban":"Situban Makmur","postal_code":24784},{"province":"Nanggroe Aceh Darussalam","city":"Aceh Singkil","district":"Suro Makmur","urban":"Sirimo Mungkur","postal_code":24784},{"province":"Nanggroe Aceh Darussalam","city":"Aceh Singkil","district":"Singkohor","urban":"Singkohor","postal_code":24784},{"province":"Nanggroe Aceh Darussalam","city":"Aceh Singkil","district":"Danau Paris","urban":"Sikoran","postal_code":24784},{"province":"Nanggroe Aceh Darussalam","city":"Aceh Singkil","district":"Suro Makmur","urban":"Siompin","postal_code":24784},{"province":"Nanggroe Aceh Darussalam","city":"Aceh Singkil","district":"Gunung Meriah (Mariah)","urban":"Seping Baru","postal_code":24784},{"province":"Nanggroe Aceh Darussalam","city":"Aceh Singkil","district":"Gunung Meriah (Mariah)","urban":"Sianjo Anjo Merah","postal_code":24784},{"province":"Nanggroe Aceh Darussalam","city":"Aceh Singkil","district":"Gunung Meriah (Mariah)","urban":"Sidorejo","postal_code":24784},{"province":"Nanggroe Aceh Darussalam","city":"Aceh Singkil","district":"Gunung Meriah (Mariah)","urban":"Sanggaberu Silulusan","postal_code":24784},{"province":"Nanggroe Aceh Darussalam","city":"Aceh Singkil","district":"Gunung Meriah (Mariah)","urban":"Sebatang","postal_code":24784},{"province":"Nanggroe Aceh Darussalam","city":"Aceh Singkil","district":"Gunung Meriah (Mariah)","urban":"Pertampakan","postal_code":24784},{"province":"Nanggroe Aceh Darussalam","city":"Aceh Singkil","district":"Gunung Meriah (Mariah)","urban":"Rimo","postal_code":24784},{"province":"Nanggroe Aceh Darussalam","city":"Aceh Singkil","district":"Kota Baharu","urban":"Samar Dua","postal_code":24784},{"province":"Nanggroe Aceh Darussalam","city":"Aceh Singkil","district":"Singkohor","urban":"Pea Jambu","postal_code":24784},{"province":"Nanggroe Aceh Darussalam","city":"Aceh Singkil","district":"Gunung Meriah (Mariah)","urban":"Penjahitan","postal_code":24784},{"province":"Nanggroe Aceh Darussalam","city":"Aceh Singkil","district":"Gunung Meriah (Mariah)","urban":"Perangusan","postal_code":24784},{"province":"Nanggroe Aceh Darussalam","city":"Aceh Singkil","district":"Suro Makmur","urban":"Pangkalan Sulampi","postal_code":24784},{"province":"Nanggroe Aceh Darussalam","city":"Aceh Singkil","district":"Gunung Meriah (Mariah)","urban":"Pandan Sari","postal_code":24784},{"province":"Nanggroe Aceh Darussalam","city":"Aceh Singkil","district":"Danau Paris","urban":"Napa Galuh","postal_code":24784},{"province":"Nanggroe Aceh Darussalam","city":"Aceh Singkil","district":"Kota Baharu","urban":"Mukti Lincir","postal_code":24784},{"province":"Nanggroe Aceh Darussalam","city":"Aceh Singkil","district":"Singkohor","urban":"Mukti Jaya (Mukti Harapan)","postal_code":24784},{"province":"Nanggroe Aceh Darussalam","city":"Aceh Singkil","district":"Kota Baharu","urban":"Muara Pea","postal_code":24784},{"province":"Nanggroe Aceh Darussalam","city":"Aceh Singkil","district":"Suro Makmur","urban":"Mandumpang","postal_code":24784},{"province":"Nanggroe Aceh Darussalam","city":"Aceh Singkil","district":"Kota Baharu","urban":"Lentong","postal_code":24784},{"province":"Nanggroe Aceh Darussalam","city":"Aceh Singkil","district":"Singkohor","urban":"Lae Sipola","postal_code":24784},{"province":"Nanggroe Aceh Darussalam","city":"Aceh Singkil","district":"Kota Baharu","urban":"Lapahan Buaya","postal_code":24784},{"province":"Nanggroe Aceh Darussalam","city":"Aceh Singkil","district":"Singkohor","urban":"Lae Pinang","postal_code":24784},{"province":"Nanggroe Aceh Darussalam","city":"Aceh Singkil","district":"Gunung Meriah (Mariah)","urban":"Lae Butar","postal_code":24784},{"province":"Nanggroe Aceh Darussalam","city":"Aceh Singkil","district":"Suro Makmur","urban":"Lae Bangun","postal_code":24784},{"province":"Nanggroe Aceh Darussalam","city":"Aceh Singkil","district":"Danau Paris","urban":"Lae Balno","postal_code":24784},{"province":"Nanggroe Aceh Darussalam","city":"Aceh Singkil","district":"Gunung Meriah (Mariah)","urban":"Labohan Kera","postal_code":24784},{"province":"Nanggroe Aceh Darussalam","city":"Aceh Singkil","district":"Kota Baharu","urban":"Ladang Bisik","postal_code":24784},{"province":"Nanggroe Aceh Darussalam","city":"Aceh Singkil","district":"Kuala Baru","urban":"Kuala Baru Sungai","postal_code":24784},{"province":"Nanggroe Aceh Darussalam","city":"Aceh Singkil","district":"Suro Makmur","urban":"Ketangkihan","postal_code":24784},{"province":"Nanggroe Aceh Darussalam","city":"Aceh Singkil","district":"Kuala Baru","urban":"Kuala Baru Laut","postal_code":24784},{"province":"Nanggroe Aceh Darussalam","city":"Aceh Singkil","district":"Suro Makmur","urban":"Keras","postal_code":24784},{"province":"Nanggroe Aceh Darussalam","city":"Aceh Singkil","district":"Kuala Baru","urban":"Kayu Menang","postal_code":24784},{"province":"Nanggroe Aceh Darussalam","city":"Aceh Singkil","district":"Gunung Meriah (Mariah)","urban":"Gunung Lagan","postal_code":24784},{"province":"Nanggroe Aceh Darussalam","city":"Aceh Singkil","district":"Gunung Meriah (Mariah)","urban":"Cingkam","postal_code":24784},{"province":"Nanggroe Aceh Darussalam","city":"Aceh Singkil","district":"Kota Baharu","urban":"Butar","postal_code":24784},{"province":"Nanggroe Aceh Darussalam","city":"Aceh Singkil","district":"Kota Baharu","urban":"Danau Bungara","postal_code":24784},{"province":"Nanggroe Aceh Darussalam","city":"Aceh Singkil","district":"Suro Makmur","urban":"Bulu Sema","postal_code":24784},{"province":"Nanggroe Aceh Darussalam","city":"Aceh Singkil","district":"Suro Makmur","urban":"Bulu Ara","postal_code":24784},{"province":"Nanggroe Aceh Darussalam","city":"Aceh Singkil","district":"Gunung Meriah (Mariah)","urban":"Blok VI Baru","postal_code":24784},{"province":"Nanggroe Aceh Darussalam","city":"Aceh Singkil","district":"Gunung Meriah (Mariah)","urban":"Bukit Harapan","postal_code":24784},{"province":"Nanggroe Aceh Darussalam","city":"Aceh Singkil","district":"Gunung Meriah (Mariah)","urban":"Blok 18","postal_code":24784},{"province":"Nanggroe Aceh Darussalam","city":"Aceh Singkil","district":"Gunung Meriah (Mariah)","urban":"Blok 31","postal_code":24784},{"province":"Nanggroe Aceh Darussalam","city":"Aceh Singkil","district":"Gunung Meriah (Mariah)","urban":"Blok 15","postal_code":24784},{"province":"Nanggroe Aceh Darussalam","city":"Aceh Singkil","district":"Danau Paris","urban":"Biskang","postal_code":24784},{"province":"Nanggroe Aceh Darussalam","city":"Aceh Singkil","district":"Suro Makmur","urban":"Alur Linci","postal_code":24784}]