[{"province":"Nanggroe Aceh Darussalam","city":"Subulussalam","district":"Simpang Kiri","urban":"Suka Makmur","postal_code":24782},{"province":"Nanggroe Aceh Darussalam","city":"Subulussalam","district":"Simpang Kiri","urban":"Tangga Besi","postal_code":24782},{"province":"Nanggroe Aceh Darussalam","city":"Subulussalam","district":"Sultan Daulat","urban":"Suka Maju","postal_code":24782},{"province":"Nanggroe Aceh Darussalam","city":"Subulussalam","district":"Simpang Kiri","urban":"Subulussalam Utara","postal_code":24782},{"province":"Nanggroe Aceh Darussalam","city":"Subulussalam","district":"Simpang Kiri","urban":"Subulussalam Selatan","postal_code":24782},{"province":"Nanggroe Aceh Darussalam","city":"Subulussalam","district":"Sultan Daulat","urban":"Singgersing","postal_code":24782},{"province":"Nanggroe Aceh Darussalam","city":"Subulussalam","district":"Simpang Kiri","urban":"Subulussalam","postal_code":24782},{"province":"Nanggroe Aceh Darussalam","city":"Subulussalam","district":"Simpang Kiri","urban":"Subulussalam Barat","postal_code":24782},{"province":"Nanggroe Aceh Darussalam","city":"Subulussalam","district":"Sultan Daulat","urban":"Sigerun (Sigrun)","postal_code":24782},{"province":"Nanggroe Aceh Darussalam","city":"Subulussalam","district":"Longkib","urban":"Sikerabang","postal_code":24782},{"province":"Nanggroe Aceh Darussalam","city":"Subulussalam","district":"Penanggalan","urban":"Sikelang","postal_code":24782},{"province":"Nanggroe Aceh Darussalam","city":"Subulussalam","district":"Longkib","urban":"Rantau Panjang","postal_code":24782},{"province":"Nanggroe Aceh Darussalam","city":"Subulussalam","district":"Longkib","urban":"Sepang","postal_code":24782},{"province":"Nanggroe Aceh Darussalam","city":"Subulussalam","district":"Simpang Kiri","urban":"Sekelondang (Sikelondang_","postal_code":24782},{"province":"Nanggroe Aceh Darussalam","city":"Subulussalam","district":"Sultan Daulat","urban":"Pulau Belen (Pulo Bellen)","postal_code":24782},{"province":"Nanggroe Aceh Darussalam","city":"Subulussalam","district":"Sultan Daulat","urban":"Pulau Kedep (Pulo Kedep)","postal_code":24782},{"province":"Nanggroe Aceh Darussalam","city":"Subulussalam","district":"Penanggalan","urban":"Penuntungan","postal_code":24782},{"province":"Nanggroe Aceh Darussalam","city":"Subulussalam","district":"Penanggalan","urban":"Penanggalan","postal_code":24782},{"province":"Nanggroe Aceh Darussalam","city":"Subulussalam","district":"Simpang Kiri","urban":"Pegayo","postal_code":24782},{"province":"Nanggroe Aceh Darussalam","city":"Subulussalam","district":"Sultan Daulat","urban":"Pasir Belo","postal_code":24782},{"province":"Nanggroe Aceh Darussalam","city":"Subulussalam","district":"Longkib","urban":"Panji","postal_code":24782},{"province":"Nanggroe Aceh Darussalam","city":"Subulussalam","district":"Simpang Kiri","urban":"Pasar Panjang","postal_code":24782},{"province":"Nanggroe Aceh Darussalam","city":"Subulussalam","district":"Simpang Kiri","urban":"Makmur Jaya","postal_code":24782},{"province":"Nanggroe Aceh Darussalam","city":"Subulussalam","district":"Simpang Kiri","urban":"Mukti Makmur","postal_code":24782},{"province":"Nanggroe Aceh Darussalam","city":"Subulussalam","district":"Sultan Daulat","urban":"Namo Buayo","postal_code":24782},{"province":"Nanggroe Aceh Darussalam","city":"Subulussalam","district":"Sultan Daulat","urban":"Lae Simolap","postal_code":24782},{"province":"Nanggroe Aceh Darussalam","city":"Subulussalam","district":"Longkib","urban":"Lae Saga","postal_code":24782},{"province":"Nanggroe Aceh Darussalam","city":"Subulussalam","district":"Longkib","urban":"Longkib","postal_code":24782},{"province":"Nanggroe Aceh Darussalam","city":"Subulussalam","district":"Simpang Kiri","urban":"Lae Oram (Aram)","postal_code":24782},{"province":"Nanggroe Aceh Darussalam","city":"Subulussalam","district":"Penanggalan","urban":"Lae Motong","postal_code":24782},{"province":"Nanggroe Aceh Darussalam","city":"Subulussalam","district":"Sultan Daulat","urban":"Lae Langge","postal_code":24782},{"province":"Nanggroe Aceh Darussalam","city":"Subulussalam","district":"Penanggalan","urban":"Kuta Tengah","postal_code":24782},{"province":"Nanggroe Aceh Darussalam","city":"Subulussalam","district":"Penanggalan","urban":"Lae Bersih","postal_code":24782},{"province":"Nanggroe Aceh Darussalam","city":"Subulussalam","district":"Penanggalan","urban":"Lae Ikan","postal_code":24782},{"province":"Nanggroe Aceh Darussalam","city":"Subulussalam","district":"Penanggalan","urban":"Jontor","postal_code":24782},{"province":"Nanggroe Aceh Darussalam","city":"Subulussalam","district":"Penanggalan","urban":"Kampung Baru","postal_code":24782},{"province":"Nanggroe Aceh Darussalam","city":"Subulussalam","district":"Simpang Kiri","urban":"Kuta Cepu","postal_code":24782},{"province":"Nanggroe Aceh Darussalam","city":"Subulussalam","district":"Sultan Daulat","urban":"Jabi-Jabi","postal_code":24782},{"province":"Nanggroe Aceh Darussalam","city":"Subulussalam","district":"Sultan Daulat","urban":"Jambi Baru","postal_code":24782},{"province":"Nanggroe Aceh Darussalam","city":"Subulussalam","district":"Sultan Daulat","urban":"Darul Makmur","postal_code":24782},{"province":"Nanggroe Aceh Darussalam","city":"Subulussalam","district":"Sultan Daulat","urban":"Gunung Bakti","postal_code":24782},{"province":"Nanggroe Aceh Darussalam","city":"Subulussalam","district":"Longkib","urban":"Darussalam","postal_code":24782},{"province":"Nanggroe Aceh Darussalam","city":"Subulussalam","district":"Sultan Daulat","urban":"Cipar Pari/Pare","postal_code":24782},{"province":"Nanggroe Aceh Darussalam","city":"Subulussalam","district":"Sultan Daulat","urban":"Cipar Pari/Pare Timur","postal_code":24782},{"province":"Nanggroe Aceh Darussalam","city":"Subulussalam","district":"Longkib","urban":"Darul Aman (Ginasing)","postal_code":24782},{"province":"Nanggroe Aceh Darussalam","city":"Subulussalam","district":"Penanggalan","urban":"Cepu","postal_code":24782},{"province":"Nanggroe Aceh Darussalam","city":"Subulussalam","district":"Sultan Daulat","urban":"Bunga Tanjung","postal_code":24782},{"province":"Nanggroe Aceh Darussalam","city":"Subulussalam","district":"Simpang Kiri","urban":"Buluh Dori (Buluh Besi)","postal_code":24782},{"province":"Nanggroe Aceh Darussalam","city":"Subulussalam","district":"Sultan Daulat","urban":"Bawan","postal_code":24782},{"province":"Nanggroe Aceh Darussalam","city":"Subulussalam","district":"Longkib","urban":"Bukit Alim","postal_code":24782},{"province":"Nanggroe Aceh Darussalam","city":"Subulussalam","district":"Longkib","urban":"Bangun Sari","postal_code":24782}]