[{"province":"Sumatera Barat","city":"Kepulauan Mentawai","district":"Siberut Utara","urban":"Sirilogui","postal_code":25394},{"province":"Sumatera Barat","city":"Kepulauan Mentawai","district":"Siberut Utara","urban":"Sotboyak","postal_code":25394},{"province":"Sumatera Barat","city":"Kepulauan Mentawai","district":"Siberut Barat","urban":"Simalegi/Simaligi","postal_code":25394},{"province":"Sumatera Barat","city":"Kepulauan Mentawai","district":"Siberut Barat","urban":"Simatalu Sipokak","postal_code":25394},{"province":"Sumatera Barat","city":"Kepulauan Mentawai","district":"Siberut Utara","urban":"Muara/Muaro Sikabaluan","postal_code":25394},{"province":"Sumatera Barat","city":"Kepulauan Mentawai","district":"Siberut Barat","urban":"Sigapokna","postal_code":25394},{"province":"Sumatera Barat","city":"Kepulauan Mentawai","district":"Siberut Utara","urban":"Mongan Poula/Paula","postal_code":25394},{"province":"Sumatera Barat","city":"Kepulauan Mentawai","district":"Siberut Utara","urban":"Malancang","postal_code":25394},{"province":"Sumatera Barat","city":"Kepulauan Mentawai","district":"Siberut Tengah","urban":"Cimpungan","postal_code":25394},{"province":"Sumatera Barat","city":"Kepulauan Mentawai","district":"Siberut Utara","urban":"Bojakan","postal_code":25394}]