[{"province":"Sumatera Barat","city":"Kepulauan Mentawai","district":"Sipora Utara","urban":"Tuapejat","postal_code":25392},{"province":"Sumatera Barat","city":"Kepulauan Mentawai","district":"Sipora Utara","urban":"Sipora Jaya","postal_code":25392},{"province":"Sumatera Barat","city":"Kepulauan Mentawai","district":"Sipora Selatan","urban":"Sioban","postal_code":25392},{"province":"Sumatera Barat","city":"Kepulauan Mentawai","district":"Sipora Utara","urban":"Sido Makmur","postal_code":25392},{"province":"Sumatera Barat","city":"Kepulauan Mentawai","district":"Sipora Selatan","urban":"Nem-Nem Leleu","postal_code":25392},{"province":"Sumatera Barat","city":"Kepulauan Mentawai","district":"Sipora Selatan","urban":"Saureinuk","postal_code":25392},{"province":"Sumatera Barat","city":"Kepulauan Mentawai","district":"Sipora Selatan","urban":"Matobek","postal_code":25392},{"province":"Sumatera Barat","city":"Kepulauan Mentawai","district":"Sipora Selatan","urban":"Mara","postal_code":25392},{"province":"Sumatera Barat","city":"Kepulauan Mentawai","district":"Sipora Utara","urban":"Gosooinan (Goisooinan)","postal_code":25392},{"province":"Sumatera Barat","city":"Kepulauan Mentawai","district":"Sipora Utara","urban":"Bukit Pamewa","postal_code":25392},{"province":"Sumatera Barat","city":"Kepulauan Mentawai","district":"Sipora Selatan","urban":"Bosua","postal_code":25392},{"province":"Sumatera Barat","city":"Kepulauan Mentawai","district":"Sipora Utara","urban":"Betumonga (Beutomonga)","postal_code":25392},{"province":"Sumatera Barat","city":"Kepulauan Mentawai","district":"Sipora Selatan","urban":"Beriulou","postal_code":25392}]