[{"province":"Sumatera Barat","city":"Kepulauan Mentawai","district":"Siberut Barat Daya","urban":"Taileleu (Pasakiat Taleleu)","postal_code":25393},{"province":"Sumatera Barat","city":"Kepulauan Mentawai","district":"Siberut Tengah","urban":"Saibi Muara (Saibi Samukop/Samokop)","postal_code":25393},{"province":"Sumatera Barat","city":"Kepulauan Mentawai","district":"Siberut Tengah","urban":"Saliguma","postal_code":25393},{"province":"Sumatera Barat","city":"Kepulauan Mentawai","district":"Siberut Barat Daya","urban":"Sagulubek (Sagalubeg/Sagalubbek)","postal_code":25393},{"province":"Sumatera Barat","city":"Kepulauan Mentawai","district":"Siberut Selatan","urban":"Muntei","postal_code":25393},{"province":"Sumatera Barat","city":"Kepulauan Mentawai","district":"Siberut Selatan","urban":"Muara/Muaro Siberut","postal_code":25393},{"province":"Sumatera Barat","city":"Kepulauan Mentawai","district":"Siberut Selatan","urban":"Matotonan","postal_code":25393},{"province":"Sumatera Barat","city":"Kepulauan Mentawai","district":"Siberut Selatan","urban":"Maileppet/Maleppet","postal_code":25393},{"province":"Sumatera Barat","city":"Kepulauan Mentawai","district":"Siberut Selatan","urban":"Madobak Ugai","postal_code":25393},{"province":"Sumatera Barat","city":"Kepulauan Mentawai","district":"Siberut Barat Daya","urban":"Katurai/Katurei","postal_code":25393}]