[{"province":"Sumatera Barat","city":"Kepulauan Mentawai","district":"Sikakap","urban":"Taikako","postal_code":25391},{"province":"Sumatera Barat","city":"Kepulauan Mentawai","district":"Pagai Selatan","urban":"Sinakak","postal_code":25391},{"province":"Sumatera Barat","city":"Kepulauan Mentawai","district":"Pagai Utara","urban":"Silabu","postal_code":25391},{"province":"Sumatera Barat","city":"Kepulauan Mentawai","district":"Sikakap","urban":"Sikakap","postal_code":25391},{"province":"Sumatera Barat","city":"Kepulauan Mentawai","district":"Pagai Utara","urban":"Saumanganyak","postal_code":25391},{"province":"Sumatera Barat","city":"Kepulauan Mentawai","district":"Sikakap","urban":"Matobek","postal_code":25391},{"province":"Sumatera Barat","city":"Kepulauan Mentawai","district":"Pagai Selatan","urban":"Malakopak","postal_code":25391},{"province":"Sumatera Barat","city":"Kepulauan Mentawai","district":"Pagai Selatan","urban":"Makalo","postal_code":25391},{"province":"Sumatera Barat","city":"Kepulauan Mentawai","district":"Pagai Selatan","urban":"Bulasat","postal_code":25391},{"province":"Sumatera Barat","city":"Kepulauan Mentawai","district":"Pagai Utara","urban":"Betumonga","postal_code":25391}]