[{"province":"Sumatera Barat","city":"Padang Pariaman","district":"Patamuan","urban":"Tandikat/Tandikek","postal_code":25573},{"province":"Sumatera Barat","city":"Padang Pariaman","district":"Patamuan","urban":"Tandikek Utara","postal_code":25573},{"province":"Sumatera Barat","city":"Padang Pariaman","district":"VII Koto Sungai Sarik","urban":"Sungai Sariak","postal_code":25573},{"province":"Sumatera Barat","city":"Padang Pariaman","district":"Patamuan","urban":"Sungai Durian","postal_code":25573},{"province":"Sumatera Barat","city":"Padang Pariaman","district":"VII Koto Sungai Sarik","urban":"Lurah Ampalu","postal_code":25573},{"province":"Sumatera Barat","city":"Padang Pariaman","district":"V Koto Timur","urban":"Limau Puruik","postal_code":25573},{"province":"Sumatera Barat","city":"Padang Pariaman","district":"VII Koto Sungai Sarik","urban":"Lareh Nan Panjang","postal_code":25573},{"province":"Sumatera Barat","city":"Padang Pariaman","district":"Padang Sago","urban":"Koto Baru","postal_code":25573},{"province":"Sumatera Barat","city":"Padang Pariaman","district":"Padang Sago","urban":"Koto Dalam","postal_code":25573},{"province":"Sumatera Barat","city":"Padang Pariaman","district":"V Koto Timur","urban":"Kudu Ganting/Gantiang","postal_code":25573},{"province":"Sumatera Barat","city":"Padang Pariaman","district":"Padang Sago","urban":"Batu Kalang","postal_code":25573},{"province":"Sumatera Barat","city":"Padang Pariaman","district":"V Koto Timur","urban":"Gunung Padang Alai","postal_code":25573},{"province":"Sumatera Barat","city":"Padang Pariaman","district":"VII Koto Sungai Sarik","urban":"Balah Aia","postal_code":25573}]