[{"province":"Sumatera Barat","city":"Padang Pariaman","district":"Enam Lingkung","urban":"Toboh Ketek","postal_code":25584},{"province":"Sumatera Barat","city":"Padang Pariaman","district":"Enam Lingkung","urban":"Parit Malintang","postal_code":25584},{"province":"Sumatera Barat","city":"Padang Pariaman","district":"2 X 11 Enam Lingkung","urban":"Sicincin","postal_code":25584},{"province":"Sumatera Barat","city":"Padang Pariaman","district":"2 X 11 Enam Lingkung","urban":"Sungai Asam","postal_code":25584},{"province":"Sumatera Barat","city":"Padang Pariaman","district":"Enam Lingkung","urban":"Koto Tinggi","postal_code":25584},{"province":"Sumatera Barat","city":"Padang Pariaman","district":"Enam Lingkung","urban":"Pakandangan","postal_code":25584},{"province":"Sumatera Barat","city":"Padang Pariaman","district":"2 X 11 Enam Lingkung","urban":"Lubuk Pandan","postal_code":25584},{"province":"Sumatera Barat","city":"Padang Pariaman","district":"2 X 11 Kayu Tanam","urban":"Kapalo Hilalang","postal_code":25584},{"province":"Sumatera Barat","city":"Padang Pariaman","district":"2 X 11 Kayu Tanam","urban":"Kayu Tanam","postal_code":25584},{"province":"Sumatera Barat","city":"Padang Pariaman","district":"2 X 11 Kayu Tanam","urban":"Guguak","postal_code":25584},{"province":"Sumatera Barat","city":"Padang Pariaman","district":"Enam Lingkung","urban":"Gadua/Gadur","postal_code":25584},{"province":"Sumatera Barat","city":"Padang Pariaman","district":"2 X 11 Kayu Tanam","urban":"Anduring (Anduriang)","postal_code":25584}]