[{"province":"Sumatera Barat","city":"Pesisir Selatan","district":"Bayang","urban":"Tanjungdurian Pasar Baru","postal_code":25652},{"province":"Sumatera Barat","city":"Pesisir Selatan","district":"Bayang","urban":"Sawahlaweh Pasar Baru","postal_code":25652},{"province":"Sumatera Barat","city":"Pesisir Selatan","district":"Bayang","urban":"Talaok","postal_code":25652},{"province":"Sumatera Barat","city":"Pesisir Selatan","district":"IV Nagari Bayang Utara","urban":"Puluik Puluik","postal_code":25652},{"province":"Sumatera Barat","city":"Pesisir Selatan","district":"IV Nagari Bayang Utara","urban":"Puluik-Puluik Selatan","postal_code":25652},{"province":"Sumatera Barat","city":"Pesisir Selatan","district":"Bayang","urban":"Pasar Baru","postal_code":25652},{"province":"Sumatera Barat","city":"Pesisir Selatan","district":"IV Nagari Bayang Utara","urban":"Limau Gadang Pancung Taba","postal_code":25652},{"province":"Sumatera Barat","city":"Pesisir Selatan","district":"IV Nagari Bayang Utara","urban":"Muaro Aie","postal_code":25652},{"province":"Sumatera Barat","city":"Pesisir Selatan","district":"IV Nagari Bayang Utara","urban":"Pancung Taba","postal_code":25652},{"province":"Sumatera Barat","city":"Pesisir Selatan","district":"IV Nagari Bayang Utara","urban":"Koto Ranah","postal_code":25652},{"province":"Sumatera Barat","city":"Pesisir Selatan","district":"Bayang","urban":"Kubang Koto Berapak","postal_code":25652},{"province":"Sumatera Barat","city":"Pesisir Selatan","district":"Bayang","urban":"Koto Baru Koto Berapak","postal_code":25652},{"province":"Sumatera Barat","city":"Pesisir Selatan","district":"Bayang","urban":"Koto Berapak","postal_code":25652},{"province":"Sumatera Barat","city":"Pesisir Selatan","district":"Bayang","urban":"Kapeh Panji Jaya Talaok","postal_code":25652},{"province":"Sumatera Barat","city":"Pesisir Selatan","district":"Bayang","urban":"Kapelgam Koto Berapak","postal_code":25652},{"province":"Sumatera Barat","city":"Pesisir Selatan","district":"Bayang","urban":"Kapujan Koto Berapak","postal_code":25652},{"province":"Sumatera Barat","city":"Pesisir Selatan","district":"Bayang","urban":"Gurun Panjang Utara","postal_code":25652},{"province":"Sumatera Barat","city":"Pesisir Selatan","district":"Bayang","urban":"Gurun Panjang Barat","postal_code":25652},{"province":"Sumatera Barat","city":"Pesisir Selatan","district":"Bayang","urban":"Gurun Panjang Selatan","postal_code":25652},{"province":"Sumatera Barat","city":"Pesisir Selatan","district":"Bayang","urban":"Aur Begalung Talaok","postal_code":25652},{"province":"Sumatera Barat","city":"Pesisir Selatan","district":"Bayang","urban":"Gurun Panjang","postal_code":25652},{"province":"Sumatera Barat","city":"Pesisir Selatan","district":"Bayang","urban":"Api-api Pasar Baru","postal_code":25652},{"province":"Sumatera Barat","city":"Pesisir Selatan","district":"Bayang","urban":"Asamkamba Pasar Baru","postal_code":25652}]