[{"province":"Sumatera Barat","city":"Pesisir Selatan","district":"Batang Kapas","urban":"IV Koto Mudiek","postal_code":25661},{"province":"Sumatera Barat","city":"Pesisir Selatan","district":"Batang Kapas","urban":"Taluk Tigo Sakato","postal_code":25661},{"province":"Sumatera Barat","city":"Pesisir Selatan","district":"Batang Kapas","urban":"Teratak Tempatih IV Koto Mudiek","postal_code":25661},{"province":"Sumatera Barat","city":"Pesisir Selatan","district":"Batang Kapas","urban":"Tuik IV Koto Mudiek","postal_code":25661},{"province":"Sumatera Barat","city":"Pesisir Selatan","district":"Batang Kapas","urban":"Sungainyalo IV Koto Mudiek","postal_code":25661},{"province":"Sumatera Barat","city":"Pesisir Selatan","district":"Batang Kapas","urban":"Taluak","postal_code":25661},{"province":"Sumatera Barat","city":"Pesisir Selatan","district":"Batang Kapas","urban":"Koto Nan Duo IV Koto Hilie","postal_code":25661},{"province":"Sumatera Barat","city":"Pesisir Selatan","district":"Batang Kapas","urban":"Koto Nan Tigo IV Koto Hilie","postal_code":25661},{"province":"Sumatera Barat","city":"Pesisir Selatan","district":"Batang Kapas","urban":"IV Koto Hilie","postal_code":25661}]