[{"province":"Sumatera Barat","city":"Pesisir Selatan","district":"Ranah Pesisir","urban":"Sungaitunu Barat","postal_code":25666},{"province":"Sumatera Barat","city":"Pesisir Selatan","district":"Ranah Pesisir","urban":"Sungaitunu Utara","postal_code":25666},{"province":"Sumatera Barat","city":"Pesisir Selatan","district":"Ranah Pesisir","urban":"Pelangai Kaciak","postal_code":25666},{"province":"Sumatera Barat","city":"Pesisir Selatan","district":"Ranah Pesisir","urban":"Sungai Tunu","postal_code":25666},{"province":"Sumatera Barat","city":"Pesisir Selatan","district":"Ranah Pesisir","urban":"Sungailiku Pelangai","postal_code":25666},{"province":"Sumatera Barat","city":"Pesisir Selatan","district":"Ranah Pesisir","urban":"Pasia Palangai","postal_code":25666},{"province":"Sumatera Barat","city":"Pesisir Selatan","district":"Ranah Pesisir","urban":"Pelangai","postal_code":25666},{"province":"Sumatera Barat","city":"Pesisir Selatan","district":"Ranah Pesisir","urban":"Nyiur Malambai Pelangai","postal_code":25666},{"province":"Sumatera Barat","city":"Pesisir Selatan","district":"Ranah Pesisir","urban":"Palangai Gadang","postal_code":25666},{"province":"Sumatera Barat","city":"Pesisir Selatan","district":"Ranah Pesisir","urban":"Koto VIII Pelangai","postal_code":25666}]