[{"province":"Sumatera Barat","city":"Pesisir Selatan","district":"Linggo Sari Baganti","urban":"Sungaisirah Air Haji","postal_code":25668},{"province":"Sumatera Barat","city":"Pesisir Selatan","district":"Linggo Sari Baganti","urban":"Punggasan Utara","postal_code":25668},{"province":"Sumatera Barat","city":"Pesisir Selatan","district":"Linggo Sari Baganti","urban":"Rantau Simalenang Air Haji","postal_code":25668},{"province":"Sumatera Barat","city":"Pesisir Selatan","district":"Linggo Sari Baganti","urban":"Punggasan Timur","postal_code":25668},{"province":"Sumatera Barat","city":"Pesisir Selatan","district":"Linggo Sari Baganti","urban":"Pasar Lama Muara Air Haji","postal_code":25668},{"province":"Sumatera Barat","city":"Pesisir Selatan","district":"Linggo Sari Baganti","urban":"Punggasan","postal_code":25668},{"province":"Sumatera Barat","city":"Pesisir Selatan","district":"Linggo Sari Baganti","urban":"Muarakandis Punggasan","postal_code":25668},{"province":"Sumatera Barat","city":"Pesisir Selatan","district":"Linggo Sari Baganti","urban":"Padang XI Punggasan","postal_code":25668},{"province":"Sumatera Barat","city":"Pesisir Selatan","district":"Linggo Sari Baganti","urban":"Pasar Bukit Air Haji","postal_code":25668},{"province":"Sumatera Barat","city":"Pesisir Selatan","district":"Linggo Sari Baganti","urban":"Lagan Mudik Punggasan","postal_code":25668},{"province":"Sumatera Barat","city":"Pesisir Selatan","district":"Linggo Sari Baganti","urban":"Muaragadang Air Haji","postal_code":25668},{"province":"Sumatera Barat","city":"Pesisir Selatan","district":"Linggo Sari Baganti","urban":"Air Haji Tengah","postal_code":25668},{"province":"Sumatera Barat","city":"Pesisir Selatan","district":"Linggo Sari Baganti","urban":"Air Haji Tenggara","postal_code":25668},{"province":"Sumatera Barat","city":"Pesisir Selatan","district":"Linggo Sari Baganti","urban":"Lagan Hilir Punggasan","postal_code":25668},{"province":"Sumatera Barat","city":"Pesisir Selatan","district":"Linggo Sari Baganti","urban":"Air Haji","postal_code":25668},{"province":"Sumatera Barat","city":"Pesisir Selatan","district":"Linggo Sari Baganti","urban":"Air Haji Barat","postal_code":25668}]