[{"province":"Sumatera Barat","city":"Pesisir Selatan","district":"Airpura","urban":"Tluk Kualo Inderapura","postal_code":25673},{"province":"Sumatera Barat","city":"Pesisir Selatan","district":"Pancung Soal","urban":"Tiga Sepakat Inderapura","postal_code":25673},{"province":"Sumatera Barat","city":"Pesisir Selatan","district":"Pancung Soal","urban":"Tigosungai Inderapura","postal_code":25673},{"province":"Sumatera Barat","city":"Pesisir Selatan","district":"Pancung Soal","urban":"Tluk Amplu Inderapura","postal_code":25673},{"province":"Sumatera Barat","city":"Pesisir Selatan","district":"Ranah Ampek Hulu Tapan","urban":"Tebing Tinggi Tapan","postal_code":25673},{"province":"Sumatera Barat","city":"Pesisir Selatan","district":"Basa Ampek Balai Tapan","urban":"Tapan","postal_code":25673},{"province":"Sumatera Barat","city":"Pesisir Selatan","district":"Basa Ampek Balai Tapan","urban":"Tanjungpondok Tapan","postal_code":25673},{"province":"Sumatera Barat","city":"Pesisir Selatan","district":"Airpura","urban":"Tanah Bakali Inderapura","postal_code":25673},{"province":"Sumatera Barat","city":"Pesisir Selatan","district":"Ranah Ampek Hulu Tapan","urban":"Talang Koto Pulai Tapan","postal_code":25673},{"province":"Sumatera Barat","city":"Pesisir Selatan","district":"Ranah Ampek Hulu Tapan","urban":"Sungaipinang Tapan","postal_code":25673},{"province":"Sumatera Barat","city":"Pesisir Selatan","district":"Ranah Ampek Hulu Tapan","urban":"Talang Balarik Tapan","postal_code":25673},{"province":"Sumatera Barat","city":"Pesisir Selatan","district":"Ranah Ampek Hulu Tapan","urban":"Simpanggunung Tapan","postal_code":25673},{"province":"Sumatera Barat","city":"Pesisir Selatan","district":"Ranah Ampek Hulu Tapan","urban":"Sungaigambir Sako Tapan","postal_code":25673},{"province":"Sumatera Barat","city":"Pesisir Selatan","district":"Pancung Soal","urban":"Simpang Lama Inderapura","postal_code":25673},{"province":"Sumatera Barat","city":"Pesisir Selatan","district":"Basa Ampek Balai Tapan","urban":"Riakdanau Tapan","postal_code":25673},{"province":"Sumatera Barat","city":"Pesisir Selatan","district":"Basa Ampek Balai Tapan","urban":"Pasar Tapan","postal_code":25673},{"province":"Sumatera Barat","city":"Pesisir Selatan","district":"Airpura","urban":"Palokan Inderapura","postal_code":25673},{"province":"Sumatera Barat","city":"Pesisir Selatan","district":"Airpura","urban":"Pulaurajo Inderapura","postal_code":25673},{"province":"Sumatera Barat","city":"Pesisir Selatan","district":"Pancung Soal","urban":"Muaro Sakai Inderapura","postal_code":25673},{"province":"Sumatera Barat","city":"Pesisir Selatan","district":"Airpura","urban":"Muara Inderapura","postal_code":25673},{"province":"Sumatera Barat","city":"Pesisir Selatan","district":"Basa Ampek Balai Tapan","urban":"Limau Purut Tapan","postal_code":25673},{"province":"Sumatera Barat","city":"Pesisir Selatan","district":"Airpura","urban":"Lubuk Betung Inderapura","postal_code":25673},{"province":"Sumatera Barat","city":"Pesisir Selatan","district":"Pancung Soal","urban":"Kudo-Kudo Inderapura","postal_code":25673},{"province":"Sumatera Barat","city":"Pesisir Selatan","district":"Basa Ampek Balai Tapan","urban":"Koto Anau Tapan","postal_code":25673},{"province":"Sumatera Barat","city":"Pesisir Selatan","district":"Airpura","urban":"Lalang Panjang Inderapura","postal_code":25673},{"province":"Sumatera Barat","city":"Pesisir Selatan","district":"Ranah Ampek Hulu Tapan","urban":"Kampung Tengah Tapan","postal_code":25673},{"province":"Sumatera Barat","city":"Pesisir Selatan","district":"Ranah Ampek Hulu Tapan","urban":"Kobu Tapan","postal_code":25673},{"province":"Sumatera Barat","city":"Pesisir Selatan","district":"Airpura","urban":"Indrapura/Inderapura Timur","postal_code":25673},{"province":"Sumatera Barat","city":"Pesisir Selatan","district":"Airpura","urban":"Indrapura/Inderapura Utara","postal_code":25673},{"province":"Sumatera Barat","city":"Pesisir Selatan","district":"Pancung Soal","urban":"Indrapura/Inderapura Selatan","postal_code":25673},{"province":"Sumatera Barat","city":"Pesisir Selatan","district":"Pancung Soal","urban":"Indrapura/Inderapura Tengah","postal_code":25673},{"province":"Sumatera Barat","city":"Pesisir Selatan","district":"Pancung Soal","urban":"Indrapura/Inderapura Barat","postal_code":25673},{"province":"Sumatera Barat","city":"Pesisir Selatan","district":"Basa Ampek Balai Tapan","urban":"Dusun Baru Tapan","postal_code":25673},{"province":"Sumatera Barat","city":"Pesisir Selatan","district":"Pancung Soal","urban":"Inderapura","postal_code":25673},{"province":"Sumatera Barat","city":"Pesisir Selatan","district":"Basa Ampek Balai Tapan","urban":"Bukitbuai Tapan","postal_code":25673},{"province":"Sumatera Barat","city":"Pesisir Selatan","district":"Airpura","urban":"Damar Lapan Batang Inderapura","postal_code":25673},{"province":"Sumatera Barat","city":"Pesisir Selatan","district":"Basa Ampek Balai Tapan","urban":"Batang Arah Tapan","postal_code":25673},{"province":"Sumatera Barat","city":"Pesisir Selatan","district":"Basa Ampek Balai Tapan","urban":"Batang Betung Tapan","postal_code":25673},{"province":"Sumatera Barat","city":"Pesisir Selatan","district":"Ranah Ampek Hulu Tapan","urban":"Binjai Tapan","postal_code":25673},{"province":"Sumatera Barat","city":"Pesisir Selatan","district":"Basa Ampek Balai Tapan","urban":"Ampang Tulak Tapan","postal_code":25673}]