[{"province":"Sumatera Barat","city":"Pesisir Selatan","district":"Silaut","urban":"Talang Binjai","postal_code":25674},{"province":"Sumatera Barat","city":"Pesisir Selatan","district":"Silaut","urban":"Sungaipulai","postal_code":25674},{"province":"Sumatera Barat","city":"Pesisir Selatan","district":"Silaut","urban":"Sungaisarik","postal_code":25674},{"province":"Sumatera Barat","city":"Pesisir Selatan","district":"Silaut","urban":"Sungaisirah","postal_code":25674},{"province":"Sumatera Barat","city":"Pesisir Selatan","district":"Lunang","urban":"Sindang Lunang","postal_code":25674},{"province":"Sumatera Barat","city":"Pesisir Selatan","district":"Silaut","urban":"Silaut","postal_code":25674},{"province":"Sumatera Barat","city":"Pesisir Selatan","district":"Silaut","urban":"Sambungo","postal_code":25674},{"province":"Sumatera Barat","city":"Pesisir Selatan","district":"Lunang","urban":"Lunang Utara","postal_code":25674},{"province":"Sumatera Barat","city":"Pesisir Selatan","district":"Lunang","urban":"Pondok Parian Lunang","postal_code":25674},{"province":"Sumatera Barat","city":"Pesisir Selatan","district":"Silaut","urban":"Pasir Binjai","postal_code":25674},{"province":"Sumatera Barat","city":"Pesisir Selatan","district":"Lunang","urban":"Lunang Selatan","postal_code":25674},{"province":"Sumatera Barat","city":"Pesisir Selatan","district":"Lunang","urban":"Lunang Tengah","postal_code":25674},{"province":"Sumatera Barat","city":"Pesisir Selatan","district":"Lunang","urban":"Lunang Tiga","postal_code":25674},{"province":"Sumatera Barat","city":"Pesisir Selatan","district":"Lunang","urban":"Lunang Dua","postal_code":25674},{"province":"Sumatera Barat","city":"Pesisir Selatan","district":"Lunang","urban":"Lunang Satu","postal_code":25674},{"province":"Sumatera Barat","city":"Pesisir Selatan","district":"Lunang","urban":"Lunang","postal_code":25674},{"province":"Sumatera Barat","city":"Pesisir Selatan","district":"Lunang","urban":"Lunang Barat","postal_code":25674},{"province":"Sumatera Barat","city":"Pesisir Selatan","district":"Silaut","urban":"Durian Seribu","postal_code":25674},{"province":"Sumatera Barat","city":"Pesisir Selatan","district":"Silaut","urban":"Lubuk Bunta","postal_code":25674},{"province":"Sumatera Barat","city":"Pesisir Selatan","district":"Silaut","urban":"Air Hitam","postal_code":25674}]