[{"province":"Sumatera Barat","city":"Agam","district":"IV Koto (Ampek Koto)","urban":"Sungai Landia","postal_code":26161},{"province":"Sumatera Barat","city":"Agam","district":"Ampek Nagari (IV Nagari )","urban":"Sitalang","postal_code":26161},{"province":"Sumatera Barat","city":"Agam","district":"Ampek Nagari (IV Nagari )","urban":"Sitanang","postal_code":26161},{"province":"Sumatera Barat","city":"Agam","district":"IV Koto (Ampek Koto)","urban":"Sianok Anam Suku","postal_code":26161},{"province":"Sumatera Barat","city":"Agam","district":"IV Koto (Ampek Koto)","urban":"Sianok Anam Suku","postal_code":26161},{"province":"Sumatera Barat","city":"Agam","district":"Malakak","urban":"Malalak Timur","postal_code":26161},{"province":"Sumatera Barat","city":"Agam","district":"Malakak","urban":"Malalak Selatan","postal_code":26161},{"province":"Sumatera Barat","city":"Agam","district":"IV Koto (Ampek Koto)","urban":"Koto Tuo","postal_code":26161},{"province":"Sumatera Barat","city":"Agam","district":"Malakak","urban":"Malalak Barat","postal_code":26161},{"province":"Sumatera Barat","city":"Agam","district":"IV Koto (Ampek Koto)","urban":"Koto Panjang","postal_code":26161},{"province":"Sumatera Barat","city":"Agam","district":"IV Koto (Ampek Koto)","urban":"Koto Gadang","postal_code":26161},{"province":"Sumatera Barat","city":"Agam","district":"IV Koto (Ampek Koto)","urban":"Guguk Tabek Sarajo","postal_code":26161},{"province":"Sumatera Barat","city":"Agam","district":"Ampek Nagari (IV Nagari )","urban":"Bawan","postal_code":26161},{"province":"Sumatera Barat","city":"Agam","district":"Ampek Nagari (IV Nagari )","urban":"Batu Kambing","postal_code":26161},{"province":"Sumatera Barat","city":"Agam","district":"IV Koto (Ampek Koto)","urban":"Balingka","postal_code":26161}]