[{"province":"Sumatera Barat","city":"Agam","district":"Banuhampu","urban":"Taluak Ampek Suku","postal_code":26181},{"province":"Sumatera Barat","city":"Agam","district":"Sungai Pua (Puar)","urban":"Sungai Pua","postal_code":26181},{"province":"Sumatera Barat","city":"Agam","district":"Sungai Pua (Puar)","urban":"Sariak","postal_code":26181},{"province":"Sumatera Barat","city":"Agam","district":"Banuhampu","urban":"Padang Lua","postal_code":26181},{"province":"Sumatera Barat","city":"Agam","district":"Banuhampu","urban":"Pakan Sinayan","postal_code":26181},{"province":"Sumatera Barat","city":"Agam","district":"Sungai Pua (Puar)","urban":"Padang Laweh","postal_code":26181},{"province":"Sumatera Barat","city":"Agam","district":"Banuhampu","urban":"Ladang Laweh","postal_code":26181},{"province":"Sumatera Barat","city":"Agam","district":"Banuhampu","urban":"Kubang Putiah","postal_code":26181},{"province":"Sumatera Barat","city":"Agam","district":"Banuhampu","urban":"Cingkariang","postal_code":26181},{"province":"Sumatera Barat","city":"Agam","district":"Sungai Pua (Puar)","urban":"Batu Palano","postal_code":26181},{"province":"Sumatera Barat","city":"Agam","district":"Sungai Pua (Puar)","urban":"Batagak","postal_code":26181}]