[{"province":"Sumatera Barat","city":"Agam","district":"IV Angkat Candung (Ampek Angkek)","urban":"Pasia","postal_code":26191},{"province":"Sumatera Barat","city":"Agam","district":"Candung","urban":"Lasi","postal_code":26191},{"province":"Sumatera Barat","city":"Agam","district":"IV Angkat Candung (Ampek Angkek)","urban":"Panampung","postal_code":26191},{"province":"Sumatera Barat","city":"Agam","district":"Candung","urban":"Canduang Koto Laweh","postal_code":26191},{"province":"Sumatera Barat","city":"Agam","district":"IV Angkat Candung (Ampek Angkek)","urban":"Lambah","postal_code":26191},{"province":"Sumatera Barat","city":"Agam","district":"IV Angkat Candung (Ampek Angkek)","urban":"Biaro Gadang","postal_code":26191},{"province":"Sumatera Barat","city":"Agam","district":"Candung","urban":"Bukik Batabuah","postal_code":26191},{"province":"Sumatera Barat","city":"Agam","district":"IV Angkat Candung (Ampek Angkek)","urban":"Balai Gurah","postal_code":26191},{"province":"Sumatera Barat","city":"Agam","district":"IV Angkat Candung (Ampek Angkek)","urban":"Batu Taba","postal_code":26191},{"province":"Sumatera Barat","city":"Agam","district":"IV Angkat Candung (Ampek Angkek)","urban":"Ampang Gadang","postal_code":26191}]