[{"province":"Sumatera Barat","city":"Lima Puluh Koto","district":"Situjuah Limo/Lima Nagari","urban":"Tungka","postal_code":26252},{"province":"Sumatera Barat","city":"Lima Puluh Koto","district":"Akabiluru","urban":"Suayan","postal_code":26252},{"province":"Sumatera Barat","city":"Lima Puluh Koto","district":"Situjuah Limo/Lima Nagari","urban":"Situjuah Gadang","postal_code":26252},{"province":"Sumatera Barat","city":"Lima Puluh Koto","district":"Situjuah Limo/Lima Nagari","urban":"Situjuah Ladang Laweh","postal_code":26252},{"province":"Sumatera Barat","city":"Lima Puluh Koto","district":"Situjuah Limo/Lima Nagari","urban":"Situjuah Batua","postal_code":26252},{"province":"Sumatera Barat","city":"Lima Puluh Koto","district":"Situjuah Limo/Lima Nagari","urban":"Situjuah Banda Dalam","postal_code":26252},{"province":"Sumatera Barat","city":"Lima Puluh Koto","district":"Akabiluru","urban":"Sariak Laweh","postal_code":26252},{"province":"Sumatera Barat","city":"Lima Puluh Koto","district":"Akabiluru","urban":"Sei/Sungai Balantik","postal_code":26252},{"province":"Sumatera Barat","city":"Lima Puluh Koto","district":"Akabiluru","urban":"Durian Gadang","postal_code":26252},{"province":"Sumatera Barat","city":"Lima Puluh Koto","district":"Akabiluru","urban":"Koto Tangah Batu Hampa","postal_code":26252},{"province":"Sumatera Barat","city":"Lima Puluh Koto","district":"Akabiluru","urban":"Pauh Sangik","postal_code":26252},{"province":"Sumatera Barat","city":"Lima Puluh Koto","district":"Akabiluru","urban":"Batu Hampa","postal_code":26252}]