[{"province":"Sumatera Barat","city":"Pasaman","district":"Rao","urban":"Taruang Taruang","postal_code":26353},{"province":"Sumatera Barat","city":"Pasaman","district":"Rao Selatan","urban":"Tanjung Betung","postal_code":26353},{"province":"Sumatera Barat","city":"Pasaman","district":"Mapat Tunggul","urban":"Pintu Padang","postal_code":26353},{"province":"Sumatera Barat","city":"Pasaman","district":"Mapat Tunggul Selatan","urban":"Silayang","postal_code":26353},{"province":"Sumatera Barat","city":"Pasaman","district":"Mapat Tunggul Selatan","urban":"Muaro Sei/Sungai Lolo","postal_code":26353},{"province":"Sumatera Barat","city":"Pasaman","district":"Rao","urban":"Padang Metinggi/Mantinggi","postal_code":26353},{"province":"Sumatera Barat","city":"Pasaman","district":"Tigo Nagari (III Nagari)","urban":"Malampah","postal_code":26353},{"province":"Sumatera Barat","city":"Pasaman","district":"Mapat Tunggul","urban":"Muara Tais","postal_code":26353},{"province":"Sumatera Barat","city":"Pasaman","district":"Rao Selatan","urban":"Lubuak Layang","postal_code":26353},{"province":"Sumatera Barat","city":"Pasaman","district":"Mapat Tunggul","urban":"Lubuk/Lubuak Gadang","postal_code":26353},{"province":"Sumatera Barat","city":"Pasaman","district":"Rao Selatan","urban":"Lansek Kadok","postal_code":26353},{"province":"Sumatera Barat","city":"Pasaman","district":"Tigo Nagari (III Nagari)","urban":"Ladang Panjang","postal_code":26353},{"province":"Sumatera Barat","city":"Pasaman","district":"Rao Utara","urban":"Koto Rajo","postal_code":26353},{"province":"Sumatera Barat","city":"Pasaman","district":"Rao Utara","urban":"Languang","postal_code":26353},{"province":"Sumatera Barat","city":"Pasaman","district":"Rao Utara","urban":"Koto Nopan","postal_code":26353},{"province":"Sumatera Barat","city":"Pasaman","district":"Tigo Nagari (III Nagari)","urban":"Binjai","postal_code":26353}]