[{"province":"Sumatera Barat","city":"Tanah Datar","district":"Batipuh","urban":"Tanjung Barulak","postal_code":27265},{"province":"Sumatera Barat","city":"Tanah Datar","district":"Batipuh Selatan","urban":"Sumpur","postal_code":27265},{"province":"Sumatera Barat","city":"Tanah Datar","district":"Batipuh","urban":"Pitalah","postal_code":27265},{"province":"Sumatera Barat","city":"Tanah Datar","district":"Batipuh","urban":"Sabu","postal_code":27265},{"province":"Sumatera Barat","city":"Tanah Datar","district":"Batipuh","urban":"Gunung Rajo (Gunuang Rajo)","postal_code":27265},{"province":"Sumatera Barat","city":"Tanah Datar","district":"Batipuh Selatan","urban":"Padang Laweh Malalo","postal_code":27265},{"province":"Sumatera Barat","city":"Tanah Datar","district":"Batipuh","urban":"Bungo Tanjung/Tanjuang","postal_code":27265},{"province":"Sumatera Barat","city":"Tanah Datar","district":"Batipuh Selatan","urban":"Guguak Malalo","postal_code":27265},{"province":"Sumatera Barat","city":"Tanah Datar","district":"Batipuh","urban":"Batipuh Baru (Batipuah Baruah)","postal_code":27265},{"province":"Sumatera Barat","city":"Tanah Datar","district":"Batipuh Selatan","urban":"Batu Taba","postal_code":27265},{"province":"Sumatera Barat","city":"Tanah Datar","district":"Batipuh","urban":"Batipuh Ateh (Batipuah Ateh)","postal_code":27265},{"province":"Sumatera Barat","city":"Tanah Datar","district":"Batipuh","urban":"Batipuh Ateh (Batipuah Ateh)","postal_code":27265}]