[{"province":"Sumatera Barat","city":"Tanah Datar","district":"Sungai Tarab","urban":"Talang Tangah","postal_code":27261},{"province":"Sumatera Barat","city":"Tanah Datar","district":"Sungai Tarab","urban":"Simpuruik","postal_code":27261},{"province":"Sumatera Barat","city":"Tanah Datar","district":"Sungai Tarab","urban":"Sungai Tarab","postal_code":27261},{"province":"Sumatera Barat","city":"Tanah Datar","district":"Sungai Tarab","urban":"Pasie/Pasir Laweh","postal_code":27261},{"province":"Sumatera Barat","city":"Tanah Datar","district":"Sungai Tarab","urban":"Rao-Rao","postal_code":27261},{"province":"Sumatera Barat","city":"Tanah Datar","district":"Sungai Tarab","urban":"Padang Laweh","postal_code":27261},{"province":"Sumatera Barat","city":"Tanah Datar","district":"Sungai Tarab","urban":"Kumango","postal_code":27261},{"province":"Sumatera Barat","city":"Tanah Datar","district":"Sungai Tarab","urban":"Koto Baru","postal_code":27261},{"province":"Sumatera Barat","city":"Tanah Datar","district":"Sungai Tarab","urban":"Koto Tuo","postal_code":27261},{"province":"Sumatera Barat","city":"Tanah Datar","district":"Sungai Tarab","urban":"Gurun","postal_code":27261}]