[{"province":"Sumatera Barat","city":"Tanah Datar","district":"Lintau Buo","urban":"Tigo Jangko","postal_code":27292},{"province":"Sumatera Barat","city":"Tanah Datar","district":"Lintau Buo Utara","urban":"Tapi/Tepi Selo","postal_code":27292},{"province":"Sumatera Barat","city":"Tanah Datar","district":"Lintau Buo","urban":"Taluak","postal_code":27292},{"province":"Sumatera Barat","city":"Tanah Datar","district":"Lintau Buo Utara","urban":"Tanjung/Tanjuang Bonai","postal_code":27292},{"province":"Sumatera Barat","city":"Tanah Datar","district":"Lintau Buo","urban":"Pangian","postal_code":27292},{"province":"Sumatera Barat","city":"Tanah Datar","district":"Lintau Buo Utara","urban":"Lubuk/Lubuak Jantan","postal_code":27292},{"province":"Sumatera Barat","city":"Tanah Datar","district":"Lintau Buo","urban":"Buo","postal_code":27292},{"province":"Sumatera Barat","city":"Tanah Datar","district":"Lintau Buo Utara","urban":"Batu Bulek","postal_code":27292},{"province":"Sumatera Barat","city":"Tanah Datar","district":"Lintau Buo Utara","urban":"Balai Tangah","postal_code":27292}]