[{"province":"Sumatera Barat","city":"Solok","district":"X Koto Diatas","urban":"Sulik Aia","postal_code":27355},{"province":"Sumatera Barat","city":"Solok","district":"X Koto Diatas","urban":"Tanjung Balik","postal_code":27355},{"province":"Sumatera Barat","city":"Solok","district":"X Koto Diatas","urban":"Pasilihan","postal_code":27355},{"province":"Sumatera Barat","city":"Solok","district":"X Koto Diatas","urban":"Siberambang","postal_code":27355},{"province":"Sumatera Barat","city":"Solok","district":"X Koto Diatas","urban":"Nagari Sulit Air","postal_code":27355},{"province":"Sumatera Barat","city":"Solok","district":"X Koto Diatas","urban":"Paninjauan","postal_code":27355},{"province":"Sumatera Barat","city":"Solok","district":"X Koto Diatas","urban":"Labuah Panjang","postal_code":27355},{"province":"Sumatera Barat","city":"Solok","district":"X Koto Diatas","urban":"Katialo","postal_code":27355},{"province":"Sumatera Barat","city":"Solok","district":"X Koto Diatas","urban":"Kuncir","postal_code":27355},{"province":"Sumatera Barat","city":"Solok","district":"X Koto Diatas","urban":"Bukit Kanduang","postal_code":27355}]