[{"province":"Sumatera Barat","city":"Solok","district":"IX Koto Sei Lasi","urban":"Taruang Taruang","postal_code":27388},{"province":"Sumatera Barat","city":"Solok","district":"IX Koto Sei Lasi","urban":"Siaro Aro","postal_code":27388},{"province":"Sumatera Barat","city":"Solok","district":"IX Koto Sei Lasi","urban":"Sungai Durian","postal_code":27388},{"province":"Sumatera Barat","city":"Solok","district":"IX Koto Sei Lasi","urban":"Sungai Jambur","postal_code":27388},{"province":"Sumatera Barat","city":"Solok","district":"Junjung Sirih","urban":"Paninggahan","postal_code":27388},{"province":"Sumatera Barat","city":"Solok","district":"IX Koto Sei Lasi","urban":"Pianggu","postal_code":27388},{"province":"Sumatera Barat","city":"Solok","district":"Junjung Sirih","urban":"Muaro Pingai","postal_code":27388},{"province":"Sumatera Barat","city":"Solok","district":"Junjung Sirih","urban":"Muaro Pingai","postal_code":27388},{"province":"Sumatera Barat","city":"Solok","district":"IX Koto Sei Lasi","urban":"Guguk Sarai","postal_code":27388},{"province":"Sumatera Barat","city":"Solok","district":"IX Koto Sei Lasi","urban":"Indudur","postal_code":27388},{"province":"Sumatera Barat","city":"Solok","district":"IX Koto Sei Lasi","urban":"Bukit Bais","postal_code":27388}]