[{"province":"Sumatera Barat","city":"Sijunjung (Sawah Lunto Sijunjung)","district":"Lubuak Tarok","urban":"Silongo","postal_code":27553},{"province":"Sumatera Barat","city":"Sijunjung (Sawah Lunto Sijunjung)","district":"Sijunjung","urban":"Silokek","postal_code":27553},{"province":"Sumatera Barat","city":"Sijunjung (Sawah Lunto Sijunjung)","district":"Sijunjung","urban":"Paru","postal_code":27553},{"province":"Sumatera Barat","city":"Sijunjung (Sawah Lunto Sijunjung)","district":"Sijunjung","urban":"Pematang Panjang","postal_code":27553},{"province":"Sumatera Barat","city":"Sijunjung (Sawah Lunto Sijunjung)","district":"Sijunjung","urban":"Sijunjung","postal_code":27553},{"province":"Sumatera Barat","city":"Sijunjung (Sawah Lunto Sijunjung)","district":"Lubuak Tarok","urban":"Latang","postal_code":27553},{"province":"Sumatera Barat","city":"Sijunjung (Sawah Lunto Sijunjung)","district":"Lubuak Tarok","urban":"Lubuak Tarok","postal_code":27553},{"province":"Sumatera Barat","city":"Sijunjung (Sawah Lunto Sijunjung)","district":"Sijunjung","urban":"Muaro","postal_code":27553},{"province":"Sumatera Barat","city":"Sijunjung (Sawah Lunto Sijunjung)","district":"Lubuak Tarok","urban":"Lalan","postal_code":27553},{"province":"Sumatera Barat","city":"Sijunjung (Sawah Lunto Sijunjung)","district":"Lubuak Tarok","urban":"Kampung Dalam","postal_code":27553},{"province":"Sumatera Barat","city":"Sijunjung (Sawah Lunto Sijunjung)","district":"Sijunjung","urban":"Kandang Baru","postal_code":27553},{"province":"Sumatera Barat","city":"Sijunjung (Sawah Lunto Sijunjung)","district":"Lubuak Tarok","urban":"Buluah Kasok","postal_code":27553},{"province":"Sumatera Barat","city":"Sijunjung (Sawah Lunto Sijunjung)","district":"Sijunjung","urban":"Durian Gadang","postal_code":27553},{"province":"Sumatera Barat","city":"Sijunjung (Sawah Lunto Sijunjung)","district":"Sijunjung","urban":"Aie Angek","postal_code":27553}]