[{"province":"Sumatera Barat","city":"Sijunjung (Sawah Lunto Sijunjung)","district":"Sumpur Kudus","urban":"Unggan","postal_code":27563},{"province":"Sumatera Barat","city":"Sijunjung (Sawah Lunto Sijunjung)","district":"Sumpur Kudus","urban":"Tanjung Bonai Aur","postal_code":27563},{"province":"Sumatera Barat","city":"Sijunjung (Sawah Lunto Sijunjung)","district":"Sumpur Kudus","urban":"Tanjung Bonai Aur Selatan","postal_code":27563},{"province":"Sumatera Barat","city":"Sijunjung (Sawah Lunto Sijunjung)","district":"Sumpur Kudus","urban":"Sumpur Kudus Selatan","postal_code":27563},{"province":"Sumatera Barat","city":"Sijunjung (Sawah Lunto Sijunjung)","district":"Sumpur Kudus","urban":"Tamparungo","postal_code":27563},{"province":"Sumatera Barat","city":"Sijunjung (Sawah Lunto Sijunjung)","district":"Sumpur Kudus","urban":"Tanjuang Labuah","postal_code":27563},{"province":"Sumatera Barat","city":"Sijunjung (Sawah Lunto Sijunjung)","district":"Sumpur Kudus","urban":"Sumpur Kudus","postal_code":27563},{"province":"Sumatera Barat","city":"Sijunjung (Sawah Lunto Sijunjung)","district":"Sumpur Kudus","urban":"Sisawah","postal_code":27563},{"province":"Sumatera Barat","city":"Sijunjung (Sawah Lunto Sijunjung)","district":"Sumpur Kudus","urban":"Kumanis","postal_code":27563},{"province":"Sumatera Barat","city":"Sijunjung (Sawah Lunto Sijunjung)","district":"Sumpur Kudus","urban":"Mangganti","postal_code":27563},{"province":"Sumatera Barat","city":"Sijunjung (Sawah Lunto Sijunjung)","district":"Sumpur Kudus","urban":"Silantai","postal_code":27563}]