[{"province":"Sumatera Barat","city":"Dharmasraya","district":"Timpeh","urban":"Tabek (Penyebrangan)","postal_code":27678},{"province":"Sumatera Barat","city":"Dharmasraya","district":"Timpeh","urban":"Taratak Tinggi","postal_code":27678},{"province":"Sumatera Barat","city":"Dharmasraya","district":"Timpeh","urban":"Timpeh","postal_code":27678},{"province":"Sumatera Barat","city":"Dharmasraya","district":"Sitiung","urban":"Sei/Sungai Duo","postal_code":27678},{"province":"Sumatera Barat","city":"Dharmasraya","district":"Sitiung","urban":"Siguntur","postal_code":27678},{"province":"Sumatera Barat","city":"Dharmasraya","district":"Sitiung","urban":"Sitiung","postal_code":27678},{"province":"Sumatera Barat","city":"Dharmasraya","district":"Timpeh","urban":"Panyuberangan","postal_code":27678},{"province":"Sumatera Barat","city":"Dharmasraya","district":"Timpeh","urban":"Ranah Palabi","postal_code":27678},{"province":"Sumatera Barat","city":"Dharmasraya","district":"Sitiung","urban":"Gunung Medan","postal_code":27678}]