[{"province":"Sumatera Barat","city":"Dharmasraya","district":"Asam Jujuhan","urban":"Tanjung Alam","postal_code":27684},{"province":"Sumatera Barat","city":"Dharmasraya","district":"Sungai Rumbai","urban":"Sungai Rumbai Timur","postal_code":27684},{"province":"Sumatera Barat","city":"Dharmasraya","district":"Asam Jujuhan","urban":"Sei/Sungai Limau","postal_code":27684},{"province":"Sumatera Barat","city":"Dharmasraya","district":"Asam Jujuhan","urban":"Sinamar","postal_code":27684},{"province":"Sumatera Barat","city":"Dharmasraya","district":"Sungai Rumbai","urban":"Sungai Rumbai","postal_code":27684},{"province":"Sumatera Barat","city":"Dharmasraya","district":"Asam Jujuhan","urban":"Lubuk Besar","postal_code":27684},{"province":"Sumatera Barat","city":"Dharmasraya","district":"Sungai Rumbai","urban":"Kurnia Selatan","postal_code":27684},{"province":"Sumatera Barat","city":"Dharmasraya","district":"Koto Besar","urban":"Koto Tinggi","postal_code":27684},{"province":"Sumatera Barat","city":"Dharmasraya","district":"Sungai Rumbai","urban":"Kurnia Koto Salak","postal_code":27684},{"province":"Sumatera Barat","city":"Dharmasraya","district":"Koto Besar","urban":"Koto Ranah","postal_code":27684},{"province":"Sumatera Barat","city":"Dharmasraya","district":"Koto Besar","urban":"Koto Laweh","postal_code":27684},{"province":"Sumatera Barat","city":"Dharmasraya","district":"Koto Besar","urban":"Koto Gadang","postal_code":27684},{"province":"Sumatera Barat","city":"Dharmasraya","district":"Koto Besar","urban":"Koto Besar","postal_code":27684},{"province":"Sumatera Barat","city":"Dharmasraya","district":"Asam Jujuhan","urban":"Alahan Nan Tigo","postal_code":27684},{"province":"Sumatera Barat","city":"Dharmasraya","district":"Koto Besar","urban":"Bonjol","postal_code":27684},{"province":"Sumatera Barat","city":"Dharmasraya","district":"Koto Besar","urban":"Abai Siat","postal_code":27684}]