[{"province":"Sumatera Barat","city":"Dharmasraya","district":"Tiumang","urban":"Tiumang","postal_code":27681},{"province":"Sumatera Barat","city":"Dharmasraya","district":"Padang Laweh","urban":"Sopan Jaya","postal_code":27681},{"province":"Sumatera Barat","city":"Dharmasraya","district":"Tiumang","urban":"Sipangkur","postal_code":27681},{"province":"Sumatera Barat","city":"Dharmasraya","district":"Koto Salak","urban":"Simalidu","postal_code":27681},{"province":"Sumatera Barat","city":"Dharmasraya","district":"Sembilan Koto (IX Koto)","urban":"Silago","postal_code":27681},{"province":"Sumatera Barat","city":"Dharmasraya","district":"Koto Baru","urban":"Simalidu","postal_code":27681},{"province":"Sumatera Barat","city":"Dharmasraya","district":"Koto Baru","urban":"Sialang Gaung","postal_code":27681},{"province":"Sumatera Barat","city":"Dharmasraya","district":"Tiumang","urban":"Sei/Sungai Langkok","postal_code":27681},{"province":"Sumatera Barat","city":"Dharmasraya","district":"Koto Baru","urban":"Pulau Mainan","postal_code":27681},{"province":"Sumatera Barat","city":"Dharmasraya","district":"Koto Salak","urban":"Padukuan","postal_code":27681},{"province":"Sumatera Barat","city":"Dharmasraya","district":"Koto Salak","urban":"Pulau Mainan","postal_code":27681},{"province":"Sumatera Barat","city":"Dharmasraya","district":"Padang Laweh","urban":"Padang Laweh","postal_code":27681},{"province":"Sumatera Barat","city":"Dharmasraya","district":"Koto Baru","urban":"Padukuan","postal_code":27681},{"province":"Sumatera Barat","city":"Dharmasraya","district":"Sembilan Koto (IX Koto)","urban":"Lubuk Karak","postal_code":27681},{"province":"Sumatera Barat","city":"Dharmasraya","district":"Sembilan Koto (IX Koto)","urban":"Nan IV Bawauah","postal_code":27681},{"province":"Sumatera Barat","city":"Dharmasraya","district":"Padang Laweh","urban":"Muaro Sopan","postal_code":27681},{"province":"Sumatera Barat","city":"Dharmasraya","district":"Koto Baru","urban":"Koto Baru","postal_code":27681},{"province":"Sumatera Barat","city":"Dharmasraya","district":"Koto Baru","urban":"Koto Padang","postal_code":27681},{"province":"Sumatera Barat","city":"Dharmasraya","district":"Koto Salak","urban":"Koto Salak","postal_code":27681},{"province":"Sumatera Barat","city":"Dharmasraya","district":"Padang Laweh","urban":"Batu Rijal","postal_code":27681},{"province":"Sumatera Barat","city":"Dharmasraya","district":"Tiumang","urban":"Koto Baringin","postal_code":27681},{"province":"Sumatera Barat","city":"Dharmasraya","district":"Sembilan Koto (IX Koto)","urban":"Banai","postal_code":27681},{"province":"Sumatera Barat","city":"Dharmasraya","district":"Koto Baru","urban":"Ampang Kuranji","postal_code":27681},{"province":"Sumatera Barat","city":"Dharmasraya","district":"Koto Baru","urban":"Ampalu","postal_code":27681},{"province":"Sumatera Barat","city":"Dharmasraya","district":"Koto Salak","urban":"Ampalu","postal_code":27681}]