[{"province":"Sumatera Barat","city":"Solok Selatan","district":"Sangir Balai Janggo","urban":"Talunan Maju","postal_code":27777},{"province":"Sumatera Barat","city":"Solok Selatan","district":"Sangir Balai Janggo","urban":"Sungai Kunyit Barat","postal_code":27777},{"province":"Sumatera Barat","city":"Solok Selatan","district":"Sangir Balai Janggo","urban":"Talao Sungai Kunyit","postal_code":27777},{"province":"Sumatera Barat","city":"Solok Selatan","district":"Sangir Jujuan","urban":"Padang Air Dingin","postal_code":27777},{"province":"Sumatera Barat","city":"Solok Selatan","district":"Sangir Jujuan","urban":"Padang Gantiang","postal_code":27777},{"province":"Sumatera Barat","city":"Solok Selatan","district":"Sangir Balai Janggo","urban":"Sungai Kunyit","postal_code":27777},{"province":"Sumatera Barat","city":"Solok Selatan","district":"Sangir Jujuan","urban":"Lubuk/Lubuak Malako","postal_code":27777},{"province":"Sumatera Barat","city":"Solok Selatan","district":"Sangir Jujuan","urban":"Malako","postal_code":27777},{"province":"Sumatera Barat","city":"Solok Selatan","district":"Sangir Jujuan","urban":"Bidar Alam","postal_code":27777}]