[{"province":"Riau","city":"Pelalawan","district":"Teluk Meranti","urban":"Teluk Meranti","postal_code":28353},{"province":"Riau","city":"Pelalawan","district":"Pelalawan","urban":"Telayap","postal_code":28353},{"province":"Riau","city":"Pelalawan","district":"Teluk Meranti","urban":"Teluk Binjai","postal_code":28353},{"province":"Riau","city":"Pelalawan","district":"Kerumutan","urban":"Tanjung Air Hitam","postal_code":28353},{"province":"Riau","city":"Pelalawan","district":"Pelalawan","urban":"Sungai Ara","postal_code":28353},{"province":"Riau","city":"Pelalawan","district":"Teluk Meranti","urban":"Segamai","postal_code":28353},{"province":"Riau","city":"Pelalawan","district":"Pelalawan","urban":"Ransang","postal_code":28353},{"province":"Riau","city":"Pelalawan","district":"Pelalawan","urban":"Sering","postal_code":28353},{"province":"Riau","city":"Pelalawan","district":"Teluk Meranti","urban":"Petodaan","postal_code":28353},{"province":"Riau","city":"Pelalawan","district":"Teluk Meranti","urban":"Pulau Muda","postal_code":28353},{"province":"Riau","city":"Pelalawan","district":"Kerumutan","urban":"Pematang Tinggi","postal_code":28353},{"province":"Riau","city":"Pelalawan","district":"Pelalawan","urban":"Pelalawan","postal_code":28353},{"province":"Riau","city":"Pelalawan","district":"Teluk Meranti","urban":"Pangkalan Terap","postal_code":28353},{"province":"Riau","city":"Pelalawan","district":"Kerumutan","urban":"Pangkalan Tampoi/Tampui","postal_code":28353},{"province":"Riau","city":"Pelalawan","district":"Kerumutan","urban":"Pangkalan Panduk","postal_code":28353},{"province":"Riau","city":"Pelalawan","district":"Kerumutan","urban":"Mak Teduh","postal_code":28353},{"province":"Riau","city":"Pelalawan","district":"Pelalawan","urban":"Lalang Kabung","postal_code":28353},{"province":"Riau","city":"Pelalawan","district":"Kerumutan","urban":"Lipai Bulan","postal_code":28353},{"province":"Riau","city":"Pelalawan","district":"Teluk Meranti","urban":"Labuhan Bilik","postal_code":28353},{"province":"Riau","city":"Pelalawan","district":"Pelalawan","urban":"Kuala Tolam","postal_code":28353},{"province":"Riau","city":"Pelalawan","district":"Teluk Meranti","urban":"Kuala Panduk","postal_code":28353},{"province":"Riau","city":"Pelalawan","district":"Kerumutan","urban":"Kerumutan","postal_code":28353},{"province":"Riau","city":"Pelalawan","district":"Teluk Meranti","urban":"Gambut Mutiara","postal_code":28353},{"province":"Riau","city":"Pelalawan","district":"Pelalawan","urban":"Delik","postal_code":28353},{"province":"Riau","city":"Pelalawan","district":"Kerumutan","urban":"Bukit Lembah Subur","postal_code":28353},{"province":"Riau","city":"Pelalawan","district":"Pelalawan","urban":"Batang Nilo Kecil","postal_code":28353},{"province":"Riau","city":"Pelalawan","district":"Kerumutan","urban":"Beringin Makmur","postal_code":28353},{"province":"Riau","city":"Pelalawan","district":"Kerumutan","urban":"Banjar Panjang","postal_code":28353}]