[{"province":"Riau","city":"Pelalawan","district":"Langgam","urban":"Sotol","postal_code":28381},{"province":"Riau","city":"Pelalawan","district":"Langgam","urban":"Tambak","postal_code":28381},{"province":"Riau","city":"Pelalawan","district":"Langgam","urban":"Segati","postal_code":28381},{"province":"Riau","city":"Pelalawan","district":"Langgam","urban":"Penarikan","postal_code":28381},{"province":"Riau","city":"Pelalawan","district":"Pangkalan Kerinci","urban":"Rantau Baru","postal_code":28381},{"province":"Riau","city":"Pelalawan","district":"Pangkalan Kerinci","urban":"Pangkalan Kerinci Kota","postal_code":28381},{"province":"Riau","city":"Pelalawan","district":"Pangkalan Kerinci","urban":"Pangkalan Kerinci Timur","postal_code":28381},{"province":"Riau","city":"Pelalawan","district":"Langgam","urban":"Padang Luas","postal_code":28381},{"province":"Riau","city":"Pelalawan","district":"Langgam","urban":"Pangkalan Gondai","postal_code":28381},{"province":"Riau","city":"Pelalawan","district":"Pangkalan Kerinci","urban":"Pangkalan Kerinci Barat","postal_code":28381},{"province":"Riau","city":"Pelalawan","district":"Langgam","urban":"Langkan","postal_code":28381},{"province":"Riau","city":"Pelalawan","district":"Pangkalan Kerinci","urban":"Makmur","postal_code":28381},{"province":"Riau","city":"Pelalawan","district":"Langgam","urban":"Langgam","postal_code":28381},{"province":"Riau","city":"Pelalawan","district":"Pangkalan Kerinci","urban":"Kuala Terusan","postal_code":28381},{"province":"Riau","city":"Pelalawan","district":"Pangkalan Kerinci","urban":"Bukit Agung","postal_code":28381}]