[{"province":"Riau","city":"Pelalawan","district":"Ukui","urban":"Ukui II (Dua)","postal_code":28382},{"province":"Riau","city":"Pelalawan","district":"Ukui","urban":"Tri Mulya Jaya","postal_code":28382},{"province":"Riau","city":"Pelalawan","district":"Ukui","urban":"Ukui I (Satu)","postal_code":28382},{"province":"Riau","city":"Pelalawan","district":"Pangkalan Kuras","urban":"Terantang Manuk","postal_code":28382},{"province":"Riau","city":"Pelalawan","district":"Pangkalan Lesung","urban":"Tanjung Kuyo","postal_code":28382},{"province":"Riau","city":"Pelalawan","district":"Pangkalan Lesung","urban":"Tanjung Kuyo","postal_code":28382},{"province":"Riau","city":"Pelalawan","district":"Pangkalan Kuras","urban":"Sorek Satu","postal_code":28382},{"province":"Riau","city":"Pelalawan","district":"Pangkalan Kuras","urban":"Surya Indah","postal_code":28382},{"province":"Riau","city":"Pelalawan","district":"Pangkalan Kuras","urban":"Talau","postal_code":28382},{"province":"Riau","city":"Pelalawan","district":"Pangkalan Kuras","urban":"Sorek Dua","postal_code":28382},{"province":"Riau","city":"Pelalawan","district":"Ukui","urban":"Silikuan Hulu","postal_code":28382},{"province":"Riau","city":"Pelalawan","district":"Pangkalan Kuras","urban":"Sialang Indah","postal_code":28382},{"province":"Riau","city":"Pelalawan","district":"Pangkalan Lesung","urban":"Sari Mulia (Sarimulya)","postal_code":28382},{"province":"Riau","city":"Pelalawan","district":"Pangkalan Kuras","urban":"Sidomukti","postal_code":28382},{"province":"Riau","city":"Pelalawan","district":"Pangkalan Lesung","urban":"Rawang Sari","postal_code":28382},{"province":"Riau","city":"Pelalawan","district":"Pangkalan Lesung","urban":"Sari Makmur","postal_code":28382},{"province":"Riau","city":"Pelalawan","district":"Pangkalan Lesung","urban":"Pangkalan Lesung","postal_code":28382},{"province":"Riau","city":"Pelalawan","district":"Pangkalan Lesung","urban":"Pesaguan","postal_code":28382},{"province":"Riau","city":"Pelalawan","district":"Pangkalan Kuras","urban":"Palas","postal_code":28382},{"province":"Riau","city":"Pelalawan","district":"Pangkalan Lesung","urban":"Mulia Subur (Mulyasubur)","postal_code":28382},{"province":"Riau","city":"Pelalawan","district":"Pangkalan Kuras","urban":"Meranti","postal_code":28382},{"province":"Riau","city":"Pelalawan","district":"Ukui","urban":"Lubuk Kembang Sari","postal_code":28382},{"province":"Riau","city":"Pelalawan","district":"Pangkalan Lesung","urban":"Mayang Sari","postal_code":28382},{"province":"Riau","city":"Pelalawan","district":"Pangkalan Kuras","urban":"Kesuma","postal_code":28382},{"province":"Riau","city":"Pelalawan","district":"Ukui","urban":"Lubuk Kembang Bunga","postal_code":28382},{"province":"Riau","city":"Pelalawan","district":"Pangkalan Kuras","urban":"Harapan Jaya","postal_code":28382},{"province":"Riau","city":"Pelalawan","district":"Pangkalan Kuras","urban":"Kemang","postal_code":28382},{"province":"Riau","city":"Pelalawan","district":"Ukui","urban":"Kampung Baru","postal_code":28382},{"province":"Riau","city":"Pelalawan","district":"Pangkalan Lesung","urban":"Dusun Tua","postal_code":28382},{"province":"Riau","city":"Pelalawan","district":"Pangkalan Lesung","urban":"Genduang","postal_code":28382},{"province":"Riau","city":"Pelalawan","district":"Pangkalan Kuras","urban":"Dundangan","postal_code":28382},{"province":"Riau","city":"Pelalawan","district":"Ukui","urban":"Bukit Jaya","postal_code":28382},{"province":"Riau","city":"Pelalawan","district":"Ukui","urban":"Bukit Gajah","postal_code":28382},{"province":"Riau","city":"Pelalawan","district":"Pangkalan Kuras","urban":"Beringin Indah","postal_code":28382},{"province":"Riau","city":"Pelalawan","district":"Pangkalan Kuras","urban":"Betung","postal_code":28382},{"province":"Riau","city":"Pelalawan","district":"Pangkalan Kuras","urban":"Batang Kulim","postal_code":28382},{"province":"Riau","city":"Pelalawan","district":"Ukui","urban":"Bagan Limau","postal_code":28382},{"province":"Riau","city":"Pelalawan","district":"Ukui","urban":"Air Emas","postal_code":28382},{"province":"Riau","city":"Pelalawan","district":"Ukui","urban":"Air Hitam","postal_code":28382}]