[{"province":"Riau","city":"Pelalawan","district":"Bandar Petalangan","urban":"Terbangiang","postal_code":28384},{"province":"Riau","city":"Pelalawan","district":"Kuala Kampar","urban":"Teluk Beringin","postal_code":28384},{"province":"Riau","city":"Pelalawan","district":"Kuala Kampar","urban":"Teluk Dalam","postal_code":28384},{"province":"Riau","city":"Pelalawan","district":"Kuala Kampar","urban":"Teluk Bakau","postal_code":28384},{"province":"Riau","city":"Pelalawan","district":"Kuala Kampar","urban":"Tanjung Sum","postal_code":28384},{"province":"Riau","city":"Pelalawan","district":"Kuala Kampar","urban":"Teluk","postal_code":28384},{"province":"Riau","city":"Pelalawan","district":"Bandar Petalangan","urban":"Tambun","postal_code":28384},{"province":"Riau","city":"Pelalawan","district":"Kuala Kampar","urban":"Sungai Upih","postal_code":28384},{"province":"Riau","city":"Pelalawan","district":"Kuala Kampar","urban":"Sungai Mas","postal_code":28384},{"province":"Riau","city":"Pelalawan","district":"Kuala Kampar","urban":"Sungai Solok","postal_code":28384},{"province":"Riau","city":"Pelalawan","district":"Kuala Kampar","urban":"Sokoi","postal_code":28384},{"province":"Riau","city":"Pelalawan","district":"Bandar Petalangan","urban":"Sialang Bungkuk","postal_code":28384},{"province":"Riau","city":"Pelalawan","district":"Bandar Petalangan","urban":"Sialang Godang","postal_code":28384},{"province":"Riau","city":"Pelalawan","district":"Kuala Kampar","urban":"Serapung","postal_code":28384},{"province":"Riau","city":"Pelalawan","district":"Bandar Petalangan","urban":"Lubuk Terap","postal_code":28384},{"province":"Riau","city":"Pelalawan","district":"Bandar Petalangan","urban":"Pompa Air","postal_code":28384},{"province":"Riau","city":"Pelalawan","district":"Bandar Petalangan","urban":"Lubuk Raja","postal_code":28384},{"province":"Riau","city":"Pelalawan","district":"Bandar Petalangan","urban":"Lubuk Keranji Timur","postal_code":28384},{"province":"Riau","city":"Pelalawan","district":"Bandar Petalangan","urban":"Angkasa","postal_code":28384},{"province":"Riau","city":"Pelalawan","district":"Bandar Petalangan","urban":"Lubuk Keranji","postal_code":28384},{"province":"Riau","city":"Pelalawan","district":"Bandar Petalangan","urban":"Air Terjun","postal_code":28384}]