[{"province":"Riau","city":"Kampar","district":"XIII Koto Kampar","urban":"Tanjung Alai","postal_code":28453},{"province":"Riau","city":"Kampar","district":"Koto Kampar Hulu","urban":"Tanjung","postal_code":28453},{"province":"Riau","city":"Kampar","district":"Koto Kampar Hulu","urban":"Siberuang","postal_code":28453},{"province":"Riau","city":"Kampar","district":"Koto Kampar Hulu","urban":"Tabing","postal_code":28453},{"province":"Riau","city":"Kampar","district":"XIII Koto Kampar","urban":"Pongkai Istiqomah","postal_code":28453},{"province":"Riau","city":"Kampar","district":"XIII Koto Kampar","urban":"Pulau Gadang","postal_code":28453},{"province":"Riau","city":"Kampar","district":"XIII Koto Kampar","urban":"Ranah Sungkai","postal_code":28453},{"province":"Riau","city":"Kampar","district":"XIII Koto Kampar","urban":"Muara Takus","postal_code":28453},{"province":"Riau","city":"Kampar","district":"Koto Kampar Hulu","urban":"Pongkai","postal_code":28453},{"province":"Riau","city":"Kampar","district":"XIII Koto Kampar","urban":"Koto Tuo","postal_code":28453},{"province":"Riau","city":"Kampar","district":"XIII Koto Kampar","urban":"Koto Tuo Barat","postal_code":28453},{"province":"Riau","city":"Kampar","district":"XIII Koto Kampar","urban":"Lubuk Agung","postal_code":28453},{"province":"Riau","city":"Kampar","district":"XIII Koto Kampar","urban":"Koto Mesjid","postal_code":28453},{"province":"Riau","city":"Kampar","district":"XIII Koto Kampar","urban":"Gunung Bungsu","postal_code":28453},{"province":"Riau","city":"Kampar","district":"Koto Kampar Hulu","urban":"Gunung Malelo","postal_code":28453},{"province":"Riau","city":"Kampar","district":"XIII Koto Kampar","urban":"Batu Bersurat","postal_code":28453},{"province":"Riau","city":"Kampar","district":"XIII Koto Kampar","urban":"Binamang","postal_code":28453},{"province":"Riau","city":"Kampar","district":"XIII Koto Kampar","urban":"Balung","postal_code":28453},{"province":"Riau","city":"Kampar","district":"Koto Kampar Hulu","urban":"Bandur Picak","postal_code":28453}]