[{"province":"Riau","city":"Kampar","district":"Bangkinang Seberang","urban":"Suka Mulya","postal_code":28463},{"province":"Riau","city":"Kampar","district":"Kuok (Bangkinang Barat)","urban":"Pulautarap","postal_code":28463},{"province":"Riau","city":"Kampar","district":"Kuok (Bangkinang Barat)","urban":"Silam","postal_code":28463},{"province":"Riau","city":"Kampar","district":"Bangkinang Seberang","urban":"Pulau Lawas","postal_code":28463},{"province":"Riau","city":"Kampar","district":"Bangkinang Seberang","urban":"Pasir Sialang","postal_code":28463},{"province":"Riau","city":"Kampar","district":"Bangkinang Seberang","urban":"Pulau","postal_code":28463},{"province":"Riau","city":"Kampar","district":"Kuok (Bangkinang Barat)","urban":"Pulau Jambu","postal_code":28463},{"province":"Riau","city":"Kampar","district":"Bangkinang Seberang","urban":"Muara Uwai","postal_code":28463},{"province":"Riau","city":"Kampar","district":"Kuok (Bangkinang Barat)","urban":"Lereng","postal_code":28463},{"province":"Riau","city":"Kampar","district":"Kuok (Bangkinang Barat)","urban":"Merangin","postal_code":28463},{"province":"Riau","city":"Kampar","district":"Kuok (Bangkinang Barat)","urban":"Empat Balai","postal_code":28463},{"province":"Riau","city":"Kampar","district":"Kuok (Bangkinang Barat)","urban":"Kuok","postal_code":28463},{"province":"Riau","city":"Kampar","district":"Bangkinang Seberang","urban":"Laboi Jaya","postal_code":28463},{"province":"Riau","city":"Kampar","district":"Kuok (Bangkinang Barat)","urban":"Bukit Melintang","postal_code":28463},{"province":"Riau","city":"Kampar","district":"Bangkinang Seberang","urban":"Bukit Payung","postal_code":28463},{"province":"Riau","city":"Kampar","district":"Bangkinang Seberang","urban":"Bukit Sembilan","postal_code":28463},{"province":"Riau","city":"Kampar","district":"Kuok (Bangkinang Barat)","urban":"Batulangka Kecil","postal_code":28463},{"province":"Riau","city":"Kampar","district":"Bangkinang Seberang","urban":"Binuang","postal_code":28463}]