[{"province":"Riau","city":"Kampar","district":"Kampar Kiri Hulu","urban":"Terusan","postal_code":28471},{"province":"Riau","city":"Kampar","district":"Kampar Kiri Tengah","urban":"Utama Karya","postal_code":28471},{"province":"Riau","city":"Kampar","district":"Kampar Kiri","urban":"Teluk Paman","postal_code":28471},{"province":"Riau","city":"Kampar","district":"Kampar Kiri","urban":"Teluk Paman Timur","postal_code":28471},{"province":"Riau","city":"Kampar","district":"Kampar Kiri Hulu","urban":"Tanjung Permai","postal_code":28471},{"province":"Riau","city":"Kampar","district":"Kampar Kiri","urban":"Tanjung Harapan","postal_code":28471},{"province":"Riau","city":"Kampar","district":"Kampar Kiri","urban":"Tanjung Mas","postal_code":28471},{"province":"Riau","city":"Kampar","district":"Kampar Kiri Hulu","urban":"Tanjung Karang","postal_code":28471},{"province":"Riau","city":"Kampar","district":"Kampar Kiri Hulu","urban":"Tanjung Belit","postal_code":28471},{"province":"Riau","city":"Kampar","district":"Kampar Kiri Hulu","urban":"Tanjung Belit Selatan","postal_code":28471},{"province":"Riau","city":"Kampar","district":"Kampar Kiri Hulu","urban":"Tanjung Beringin","postal_code":28471},{"province":"Riau","city":"Kampar","district":"Kampar Kiri","urban":"Sungai Sarik","postal_code":28471},{"province":"Riau","city":"Kampar","district":"Kampar Kiri Hilir","urban":"Sungai Simpang Dua","postal_code":28471},{"province":"Riau","city":"Kampar","district":"Kampar Kiri","urban":"Sungai Rambai","postal_code":28471},{"province":"Riau","city":"Kampar","district":"Kampar Kiri Hulu","urban":"Sungai Santi","postal_code":28471},{"province":"Riau","city":"Kampar","district":"Kampar Kiri","urban":"Sungai Raja","postal_code":28471},{"province":"Riau","city":"Kampar","district":"Kampar Kiri Hilir","urban":"Sungai Petai","postal_code":28471},{"province":"Riau","city":"Kampar","district":"Kampar Kiri","urban":"Sungai Paku","postal_code":28471},{"province":"Riau","city":"Kampar","district":"Kampar Kiri Hilir","urban":"Sungai Pagar","postal_code":28471},{"province":"Riau","city":"Kampar","district":"Kampar Kiri","urban":"Sungai Liti","postal_code":28471},{"province":"Riau","city":"Kampar","district":"Kampar Kiri","urban":"Sungai Geringging","postal_code":28471},{"province":"Riau","city":"Kampar","district":"Kampar Kiri","urban":"Sungai Harapan","postal_code":28471},{"province":"Riau","city":"Kampar","district":"Gunung Sahilan","urban":"Sungai Lipai","postal_code":28471},{"province":"Riau","city":"Kampar","district":"Kampar Kiri Hilir","urban":"Sungai Bunga/Bungo","postal_code":28471},{"province":"Riau","city":"Kampar","district":"Gunung Sahilan","urban":"Suka Makmur","postal_code":28471},{"province":"Riau","city":"Kampar","district":"Kampar Kiri Tengah","urban":"Simalinyang","postal_code":28471},{"province":"Riau","city":"Kampar","district":"Gunung Sahilan","urban":"Subarak","postal_code":28471},{"province":"Riau","city":"Kampar","district":"Kampar Kiri Tengah","urban":"Simalinyang","postal_code":28471},{"province":"Riau","city":"Kampar","district":"Gunung Sahilan","urban":"Sahilan Darussalam","postal_code":28471},{"province":"Riau","city":"Kampar","district":"Kampar Kiri Hilir","urban":"Rantau Kasih","postal_code":28471},{"province":"Riau","city":"Kampar","district":"Kampar Kiri Hulu","urban":"Pangkalan Serai","postal_code":28471},{"province":"Riau","city":"Kampar","district":"Kampar Kiri Tengah","urban":"Penghidupan","postal_code":28471},{"province":"Riau","city":"Kampar","district":"Kampar Kiri Hulu","urban":"Pangkalan Kapas","postal_code":28471},{"province":"Riau","city":"Kampar","district":"Kampar Kiri","urban":"Muara Selaya","postal_code":28471},{"province":"Riau","city":"Kampar","district":"Kampar Kiri","urban":"Padang Sawah","postal_code":28471},{"province":"Riau","city":"Kampar","district":"Kampar Kiri Hulu","urban":"Muarobio","postal_code":28471},{"province":"Riau","city":"Kampar","district":"Kampar Kiri Hilir","urban":"Mentulik","postal_code":28471},{"province":"Riau","city":"Kampar","district":"Gunung Sahilan","urban":"Makmur Sejahtera","postal_code":28471},{"province":"Riau","city":"Kampar","district":"Kampar Kiri Tengah","urban":"Mayang Pongkai","postal_code":28471},{"province":"Riau","city":"Kampar","district":"Kampar Kiri Tengah","urban":"Mekar Jaya","postal_code":28471},{"province":"Riau","city":"Kampar","district":"Kampar Kiri Tengah","urban":"Lubuk Sakai","postal_code":28471},{"province":"Riau","city":"Kampar","district":"Kampar Kiri Hulu","urban":"Ludai","postal_code":28471},{"province":"Riau","city":"Kampar","district":"Kampar Kiri","urban":"Lipat Kain Utara","postal_code":28471},{"province":"Riau","city":"Kampar","district":"Kampar Kiri Hulu","urban":"Lubuk Bingau","postal_code":28471},{"province":"Riau","city":"Kampar","district":"Kampar Kiri","urban":"Lipat Kain","postal_code":28471},{"province":"Riau","city":"Kampar","district":"Kampar Kiri","urban":"Lipat Kain Selatan","postal_code":28471},{"province":"Riau","city":"Kampar","district":"Kampar Kiri","urban":"Kuntu","postal_code":28471},{"province":"Riau","city":"Kampar","district":"Kampar Kiri","urban":"Kuntu Darussalam","postal_code":28471},{"province":"Riau","city":"Kampar","district":"Kampar Kiri Tengah","urban":"Koto Damai","postal_code":28471},{"province":"Riau","city":"Kampar","district":"Kampar Kiri Hulu","urban":"Kebun Tinggi","postal_code":28471},{"province":"Riau","city":"Kampar","district":"Kampar Kiri Hulu","urban":"Kota Lama","postal_code":28471},{"province":"Riau","city":"Kampar","district":"Kampar Kiri Tengah","urban":"Karya Bakti/Bhakti","postal_code":28471},{"province":"Riau","city":"Kampar","district":"Gunung Sahilan","urban":"Kebun Durian","postal_code":28471},{"province":"Riau","city":"Kampar","district":"Kampar Kiri","urban":"IV Koto Setingkai","postal_code":28471},{"province":"Riau","city":"Kampar","district":"Kampar Kiri Tengah","urban":"Hidup Baru","postal_code":28471},{"province":"Riau","city":"Kampar","district":"Gunung Sahilan","urban":"Gunung Sahilan","postal_code":28471},{"province":"Riau","city":"Kampar","district":"Gunung Sahilan","urban":"Gunung Sari","postal_code":28471},{"province":"Riau","city":"Kampar","district":"Kampar Kiri Hulu","urban":"Gema","postal_code":28471},{"province":"Riau","city":"Kampar","district":"Gunung Sahilan","urban":"Gunung Mulya","postal_code":28471},{"province":"Riau","city":"Kampar","district":"Kampar Kiri Hulu","urban":"Gajah Bertalut","postal_code":28471},{"province":"Riau","city":"Kampar","district":"Kampar Kiri Hulu","urban":"Dua Sepakat","postal_code":28471},{"province":"Riau","city":"Kampar","district":"Kampar Kiri Hilir","urban":"Gading Permai","postal_code":28471},{"province":"Riau","city":"Kampar","district":"Kampar Kiri","urban":"Domo","postal_code":28471},{"province":"Riau","city":"Kampar","district":"Kampar Kiri Hulu","urban":"Danau Sontul","postal_code":28471},{"province":"Riau","city":"Kampar","district":"Kampar Kiri Hulu","urban":"Deras Tajak","postal_code":28471},{"province":"Riau","city":"Kampar","district":"Kampar Kiri Hulu","urban":"Bukit Betung","postal_code":28471},{"province":"Riau","city":"Kampar","district":"Kampar Kiri Tengah","urban":"Bukit Sakai","postal_code":28471},{"province":"Riau","city":"Kampar","district":"Kampar Kiri Tengah","urban":"Bina Baru","postal_code":28471},{"province":"Riau","city":"Kampar","district":"Kampar Kiri Hulu","urban":"Batu Sasak","postal_code":28471},{"province":"Riau","city":"Kampar","district":"Kampar Kiri Hilir","urban":"Bangun Sari","postal_code":28471},{"province":"Riau","city":"Kampar","district":"Kampar Kiri Hulu","urban":"Batu Sanggan","postal_code":28471},{"province":"Riau","city":"Kampar","district":"Kampar Kiri Hulu","urban":"Aur Kuning","postal_code":28471}]