[{"province":"Riau","city":"Rokan Hulu","district":"Ujung Batu","urban":"Ujung Batu Timur","postal_code":28554},{"province":"Riau","city":"Rokan Hulu","district":"Tandun","urban":"Tapung Jaya","postal_code":28554},{"province":"Riau","city":"Rokan Hulu","district":"Ujung Batu","urban":"Ujung Batu","postal_code":28554},{"province":"Riau","city":"Rokan Hulu","district":"Tandun","urban":"Tandun Barat","postal_code":28554},{"province":"Riau","city":"Rokan Hulu","district":"Tandun","urban":"Sei/Sungai Kuning","postal_code":28554},{"province":"Riau","city":"Rokan Hulu","district":"Tandun","urban":"Tandun","postal_code":28554},{"province":"Riau","city":"Rokan Hulu","district":"Tandun","urban":"Tandun","postal_code":28554},{"province":"Riau","city":"Rokan Hulu","district":"Ujung Batu","urban":"Pematang Tebih","postal_code":28554},{"province":"Riau","city":"Rokan Hulu","district":"Tandun","urban":"Puo Raya","postal_code":28554},{"province":"Riau","city":"Rokan Hulu","district":"Ujung Batu","urban":"Ngaso","postal_code":28554},{"province":"Riau","city":"Rokan Hulu","district":"Tandun","urban":"Kumain","postal_code":28554},{"province":"Riau","city":"Rokan Hulu","district":"Kabun","urban":"Kota/Koto Ranah","postal_code":28554},{"province":"Riau","city":"Rokan Hulu","district":"Tandun","urban":"Koto Tandun","postal_code":28554},{"province":"Riau","city":"Rokan Hulu","district":"Kabun","urban":"Giti","postal_code":28554},{"province":"Riau","city":"Rokan Hulu","district":"Kabun","urban":"Kabun","postal_code":28554},{"province":"Riau","city":"Rokan Hulu","district":"Tandun","urban":"Dayo","postal_code":28554},{"province":"Riau","city":"Rokan Hulu","district":"Kabun","urban":"Bencah/Boncah Kesuma","postal_code":28554},{"province":"Riau","city":"Rokan Hulu","district":"Tandun","urban":"Bono Tapung","postal_code":28554},{"province":"Riau","city":"Rokan Hulu","district":"Kabun","urban":"Aliantan","postal_code":28554},{"province":"Riau","city":"Rokan Hulu","district":"Kabun","urban":"Batu Langkah Besar","postal_code":28554}]