[{"province":"Riau","city":"Rokan Hulu","district":"Kepenuhan","urban":"Ulak Patian","postal_code":28559},{"province":"Riau","city":"Rokan Hulu","district":"Bonai Darussalam","urban":"Sontang","postal_code":28559},{"province":"Riau","city":"Rokan Hulu","district":"Bonai Darussalam","urban":"Teluk Sono","postal_code":28559},{"province":"Riau","city":"Rokan Hulu","district":"Bonai Darussalam","urban":"Rawa Makmur","postal_code":28559},{"province":"Riau","city":"Rokan Hulu","district":"Kepenuhan","urban":"Rantau Binuang Sakti","postal_code":28559},{"province":"Riau","city":"Rokan Hulu","district":"Kepenuhan Hulu","urban":"Pekan Tebih","postal_code":28559},{"province":"Riau","city":"Rokan Hulu","district":"Bonai Darussalam","urban":"Pauh","postal_code":28559},{"province":"Riau","city":"Rokan Hulu","district":"Kepenuhan Hulu","urban":"Muara Jaya","postal_code":28559},{"province":"Riau","city":"Rokan Hulu","district":"Kepenuhan","urban":"Kepenuhan Suka","postal_code":28559},{"province":"Riau","city":"Rokan Hulu","district":"Kepenuhan","urban":"Kepenuhan Tengah","postal_code":28559},{"province":"Riau","city":"Rokan Hulu","district":"Kepenuhan Hulu","urban":"Kepenuhan Jaya","postal_code":28559},{"province":"Riau","city":"Rokan Hulu","district":"Kepenuhan","urban":"Kepenuhan Raya","postal_code":28559},{"province":"Riau","city":"Rokan Hulu","district":"Kepenuhan Hulu","urban":"Kepenuhan Hulu","postal_code":28559},{"province":"Riau","city":"Rokan Hulu","district":"Kepenuhan","urban":"Kepenuhan Baru","postal_code":28559},{"province":"Riau","city":"Rokan Hulu","district":"Kepenuhan","urban":"Kepenuhan Hilir","postal_code":28559},{"province":"Riau","city":"Rokan Hulu","district":"Kepenuhan","urban":"Kepenuhan Barat Mulya","postal_code":28559},{"province":"Riau","city":"Rokan Hulu","district":"Kepenuhan","urban":"Kepenuhan Barat Sei Rokan Jaya","postal_code":28559},{"province":"Riau","city":"Rokan Hulu","district":"Kepenuhan","urban":"Kepenuhan Barat","postal_code":28559},{"province":"Riau","city":"Rokan Hulu","district":"Bonai Darussalam","urban":"Kasang Padang","postal_code":28559},{"province":"Riau","city":"Rokan Hulu","district":"Kepenuhan Hulu","urban":"Kepayan","postal_code":28559},{"province":"Riau","city":"Rokan Hulu","district":"Bonai Darussalam","urban":"Bonai","postal_code":28559},{"province":"Riau","city":"Rokan Hulu","district":"Bonai Darussalam","urban":"Kasang Mungai","postal_code":28559}]