[{"province":"Riau","city":"Siak","district":"Sungai Apit","urban":"Teluk Mesjid","postal_code":28662},{"province":"Riau","city":"Siak","district":"Sungai Apit","urban":"Teluk Batil","postal_code":28662},{"province":"Riau","city":"Siak","district":"Sungai Apit","urban":"Teluk Lanus","postal_code":28662},{"province":"Riau","city":"Siak","district":"Sungai Apit","urban":"Sungai Kayu Ara","postal_code":28662},{"province":"Riau","city":"Siak","district":"Sungai Apit","urban":"Sungai Rawa","postal_code":28662},{"province":"Riau","city":"Siak","district":"Sungai Apit","urban":"Tanjung Kuras","postal_code":28662},{"province":"Riau","city":"Siak","district":"Sungai Apit","urban":"Penyengat","postal_code":28662},{"province":"Riau","city":"Siak","district":"Sungai Apit","urban":"Rawa Mekar Jaya","postal_code":28662},{"province":"Riau","city":"Siak","district":"Sungai Apit","urban":"Sungai Apit","postal_code":28662},{"province":"Riau","city":"Siak","district":"Sungai Apit","urban":"Mengkapan","postal_code":28662},{"province":"Riau","city":"Siak","district":"Sungai Apit","urban":"Parit I/II","postal_code":28662},{"province":"Riau","city":"Siak","district":"Sungai Apit","urban":"Lalang","postal_code":28662},{"province":"Riau","city":"Siak","district":"Sungai Apit","urban":"Kayu Ara Permai","postal_code":28662},{"province":"Riau","city":"Siak","district":"Sungai Apit","urban":"Harapan","postal_code":28662},{"province":"Riau","city":"Siak","district":"Sungai Apit","urban":"Bunsur","postal_code":28662}]