[{"province":"Riau","city":"Siak","district":"Koto Gasib","urban":"Teluk Rimba","postal_code":28671},{"province":"Riau","city":"Siak","district":"Siak","urban":"Tumang","postal_code":28671},{"province":"Riau","city":"Siak","district":"Sungai Mandau","urban":"Teluk Lancang","postal_code":28671},{"province":"Riau","city":"Siak","district":"Koto Gasib","urban":"Tasik Seminai","postal_code":28671},{"province":"Riau","city":"Siak","district":"Dayun","urban":"Teluk Merbau","postal_code":28671},{"province":"Riau","city":"Siak","district":"Sungai Mandau","urban":"Tasik Betung","postal_code":28671},{"province":"Riau","city":"Siak","district":"Sungai Mandau","urban":"Sungai Lodang","postal_code":28671},{"province":"Riau","city":"Siak","district":"Koto Gasib","urban":"Sri Gemilang","postal_code":28671},{"province":"Riau","city":"Siak","district":"Dayun","urban":"Suka Mulia/Mulya","postal_code":28671},{"province":"Riau","city":"Siak","district":"Koto Gasib","urban":"Sri Gemilang","postal_code":28671},{"province":"Riau","city":"Siak","district":"Koto Gasib","urban":"Sengkemang","postal_code":28671},{"province":"Riau","city":"Siak","district":"Dayun","urban":"Sawit Permai","postal_code":28671},{"province":"Riau","city":"Siak","district":"Dayun","urban":"Sialang Sakti","postal_code":28671},{"province":"Riau","city":"Siak","district":"Siak","urban":"Rawang Air Putih","postal_code":28671},{"province":"Riau","city":"Siak","district":"Koto Gasib","urban":"Pangkalan Pisang","postal_code":28671},{"province":"Riau","city":"Siak","district":"Koto Gasib","urban":"Rantau Panjang","postal_code":28671},{"province":"Riau","city":"Siak","district":"Sungai Mandau","urban":"Muara Kelantan","postal_code":28671},{"province":"Riau","city":"Siak","district":"Sungai Mandau","urban":"Olak","postal_code":28671},{"province":"Riau","city":"Siak","district":"Dayun","urban":"Pangkalan Makmur","postal_code":28671},{"province":"Riau","city":"Siak","district":"Sungai Mandau","urban":"Muara Bungkal","postal_code":28671},{"province":"Riau","city":"Siak","district":"Siak","urban":"Merempan Hulu","postal_code":28671},{"province":"Riau","city":"Siak","district":"Sungai Mandau","urban":"Lubuk Umbut","postal_code":28671},{"province":"Riau","city":"Siak","district":"Dayun","urban":"Lubuk Tilan","postal_code":28671},{"province":"Riau","city":"Siak","district":"Dayun","urban":"Merangkai","postal_code":28671},{"province":"Riau","city":"Siak","district":"Sungai Mandau","urban":"Lubuk Jering","postal_code":28671},{"province":"Riau","city":"Siak","district":"Siak","urban":"Langkai","postal_code":28671},{"province":"Riau","city":"Siak","district":"Koto Gasib","urban":"Keranji Guguh","postal_code":28671},{"province":"Riau","city":"Siak","district":"Koto Gasib","urban":"Kuala Gasib","postal_code":28671},{"province":"Riau","city":"Siak","district":"Siak","urban":"Kampung Rempak","postal_code":28671},{"province":"Riau","city":"Siak","district":"Dayun","urban":"Dayun","postal_code":28671},{"province":"Riau","city":"Siak","district":"Siak","urban":"Kampung Dalam","postal_code":28671},{"province":"Riau","city":"Siak","district":"Koto Gasib","urban":"Empang Pandan","postal_code":28671},{"province":"Riau","city":"Siak","district":"Koto Gasib","urban":"Buatan I","postal_code":28671},{"province":"Riau","city":"Siak","district":"Koto Gasib","urban":"Buatan II","postal_code":28671},{"province":"Riau","city":"Siak","district":"Siak","urban":"Buantan Besar","postal_code":28671},{"province":"Riau","city":"Siak","district":"Dayun","urban":"Berumbung Baru (Tilan)","postal_code":28671},{"province":"Riau","city":"Siak","district":"Dayun","urban":"Buana Makmur","postal_code":28671},{"province":"Riau","city":"Siak","district":"Sungai Mandau","urban":"Bencah Umbai","postal_code":28671},{"province":"Riau","city":"Siak","district":"Dayun","urban":"Banjar Seminai","postal_code":28671}]