[{"province":"Riau","city":"Siak","district":"Sabak Auh","urban":"Selat Guntung","postal_code":28685},{"province":"Riau","city":"Siak","district":"Sabak Auh","urban":"Sungai Tengah","postal_code":28685},{"province":"Riau","city":"Siak","district":"Sabak Auh","urban":"Rempak","postal_code":28685},{"province":"Riau","city":"Siak","district":"Sabak Auh","urban":"Sabak Permai","postal_code":28685},{"province":"Riau","city":"Siak","district":"Minas","urban":"Minas Timur","postal_code":28685},{"province":"Riau","city":"Siak","district":"Minas","urban":"Rantau Bertuah","postal_code":28685},{"province":"Riau","city":"Siak","district":"Minas","urban":"Minas Barat","postal_code":28685},{"province":"Riau","city":"Siak","district":"Minas","urban":"Minas Jaya","postal_code":28685},{"province":"Riau","city":"Siak","district":"Sabak Auh","urban":"Laksamana","postal_code":28685},{"province":"Riau","city":"Siak","district":"Minas","urban":"Mandi Angin","postal_code":28685},{"province":"Riau","city":"Siak","district":"Sabak Auh","urban":"Bandar Sungai","postal_code":28685},{"province":"Riau","city":"Siak","district":"Sabak Auh","urban":"Belading","postal_code":28685},{"province":"Riau","city":"Siak","district":"Sabak Auh","urban":"Bandar Pedada","postal_code":28685}]