[{"province":"Riau","city":"Siak","district":"Kandis","urban":"Sungai Gondang","postal_code":28686},{"province":"Riau","city":"Siak","district":"Kandis","urban":"Telaga Sam-Sam","postal_code":28686},{"province":"Riau","city":"Siak","district":"Kandis","urban":"Sam Sam","postal_code":28686},{"province":"Riau","city":"Siak","district":"Kandis","urban":"Simpang Belutu","postal_code":28686},{"province":"Riau","city":"Siak","district":"Kandis","urban":"Libo Jaya","postal_code":28686},{"province":"Riau","city":"Siak","district":"Kandis","urban":"Pencing Bekuto","postal_code":28686},{"province":"Riau","city":"Siak","district":"Kandis","urban":"Jambai Makmur","postal_code":28686},{"province":"Riau","city":"Siak","district":"Kandis","urban":"Kandis","postal_code":28686},{"province":"Riau","city":"Siak","district":"Kandis","urban":"Kandis Kota","postal_code":28686},{"province":"Riau","city":"Siak","district":"Kandis","urban":"Bekalar","postal_code":28686},{"province":"Riau","city":"Siak","district":"Kandis","urban":"Belutu","postal_code":28686}]