[{"province":"Riau","city":"Kepulauan Meranti","district":"Tebing Tinggi Barat","urban":"Tenan","postal_code":28753},{"province":"Riau","city":"Kepulauan Meranti","district":"Tebing Tinggi Timur","urban":"Teluk Buntal","postal_code":28753},{"province":"Riau","city":"Kepulauan Meranti","district":"Tebing Tinggi Timur","urban":"Tanjung Sari","postal_code":28753},{"province":"Riau","city":"Kepulauan Meranti","district":"Tebing Tinggi Barat","urban":"Tanjung Peranap","postal_code":28753},{"province":"Riau","city":"Kepulauan Meranti","district":"Tebing Tinggi Timur","urban":"Tanjung Gadai","postal_code":28753},{"province":"Riau","city":"Kepulauan Meranti","district":"Tebing Tinggi Barat","urban":"Tanjung Darul Takzim","postal_code":28753},{"province":"Riau","city":"Kepulauan Meranti","district":"Tebing Tinggi Barat","urban":"Tanjung","postal_code":28753},{"province":"Riau","city":"Kepulauan Meranti","district":"Tebing Tinggi","urban":"Sesap","postal_code":28753},{"province":"Riau","city":"Kepulauan Meranti","district":"Tebing Tinggi Timur","urban":"Sungai Tohor","postal_code":28753},{"province":"Riau","city":"Kepulauan Meranti","district":"Tebing Tinggi Timur","urban":"Sungai Tohor Barat","postal_code":28753},{"province":"Riau","city":"Kepulauan Meranti","district":"Tebing Tinggi","urban":"Selatpanjang Timur","postal_code":28753},{"province":"Riau","city":"Kepulauan Meranti","district":"Tebing Tinggi Timur","urban":"Sendanu Darul Ihsan","postal_code":28753},{"province":"Riau","city":"Kepulauan Meranti","district":"Tebing Tinggi","urban":"Selatpanjang Selatan","postal_code":28753},{"province":"Riau","city":"Kepulauan Meranti","district":"Tebing Tinggi","urban":"Selatpanjang Kota","postal_code":28753},{"province":"Riau","city":"Kepulauan Meranti","district":"Tebing Tinggi","urban":"Selatpanjang Barat","postal_code":28753},{"province":"Riau","city":"Kepulauan Meranti","district":"Tebing Tinggi Timur","urban":"Nipah Sendanu","postal_code":28753},{"province":"Riau","city":"Kepulauan Meranti","district":"Tebing Tinggi Barat","urban":"Mekong","postal_code":28753},{"province":"Riau","city":"Kepulauan Meranti","district":"Tebing Tinggi Barat","urban":"Mengkikip","postal_code":28753},{"province":"Riau","city":"Kepulauan Meranti","district":"Tebing Tinggi Timur","urban":"Lukun","postal_code":28753},{"province":"Riau","city":"Kepulauan Meranti","district":"Tebing Tinggi Barat","urban":"Maini Darul Aman","postal_code":28753},{"province":"Riau","city":"Kepulauan Meranti","district":"Tebing Tinggi Barat","urban":"Mantiasa","postal_code":28753},{"province":"Riau","city":"Kepulauan Meranti","district":"Tebing Tinggi Timur","urban":"Kepau Baru","postal_code":28753},{"province":"Riau","city":"Kepulauan Meranti","district":"Tebing Tinggi Barat","urban":"Insit","postal_code":28753},{"province":"Riau","city":"Kepulauan Meranti","district":"Tebing Tinggi Barat","urban":"Kundur","postal_code":28753},{"province":"Riau","city":"Kepulauan Meranti","district":"Tebing Tinggi Timur","urban":"Batin Suir","postal_code":28753},{"province":"Riau","city":"Kepulauan Meranti","district":"Tebing Tinggi Barat","urban":"Gogok Darussalam","postal_code":28753},{"province":"Riau","city":"Kepulauan Meranti","district":"Tebing Tinggi","urban":"Banglas Barat","postal_code":28753},{"province":"Riau","city":"Kepulauan Meranti","district":"Tebing Tinggi Barat","urban":"Batang Malas","postal_code":28753},{"province":"Riau","city":"Kepulauan Meranti","district":"Tebing Tinggi Barat","urban":"Alai","postal_code":28753},{"province":"Riau","city":"Kepulauan Meranti","district":"Tebing Tinggi Barat","urban":"Alai Selatan","postal_code":28753},{"province":"Riau","city":"Kepulauan Meranti","district":"Tebing Tinggi","urban":"Banglas","postal_code":28753},{"province":"Riau","city":"Kepulauan Meranti","district":"Tebing Tinggi","urban":"Alah Air Timur","postal_code":28753},{"province":"Riau","city":"Kepulauan Meranti","district":"Tebing Tinggi","urban":"Alah Air","postal_code":28753}]