[{"province":"Riau","city":"Kepulauan Meranti","district":"Merbau","urban":"Teluk Belitung","postal_code":28752},{"province":"Riau","city":"Kepulauan Meranti","district":"Pulaumerbau","urban":"Teluk Ketapang","postal_code":28752},{"province":"Riau","city":"Kepulauan Meranti","district":"Pulaumerbau","urban":"Tanjungbunga","postal_code":28752},{"province":"Riau","city":"Kepulauan Meranti","district":"Tasik Putri Puyu","urban":"Tanjung Pisang","postal_code":28752},{"province":"Riau","city":"Kepulauan Meranti","district":"Merbau","urban":"Sungai Tengah","postal_code":28752},{"province":"Riau","city":"Kepulauan Meranti","district":"Merbau","urban":"Tanjung Kulim","postal_code":28752},{"province":"Riau","city":"Kepulauan Meranti","district":"Tasik Putri Puyu","urban":"Tanjung Padang","postal_code":28752},{"province":"Riau","city":"Kepulauan Meranti","district":"Merbau","urban":"Sungai Anak Kamal","postal_code":28752},{"province":"Riau","city":"Kepulauan Meranti","district":"Pulaumerbau","urban":"Renak Dungun","postal_code":28752},{"province":"Riau","city":"Kepulauan Meranti","district":"Pulaumerbau","urban":"Semukut","postal_code":28752},{"province":"Riau","city":"Kepulauan Meranti","district":"Tasik Putri Puyu","urban":"Selat Akar","postal_code":28752},{"province":"Riau","city":"Kepulauan Meranti","district":"Merbau","urban":"Pelantai","postal_code":28752},{"province":"Riau","city":"Kepulauan Meranti","district":"Tasik Putri Puyu","urban":"Putri Puyu","postal_code":28752},{"province":"Riau","city":"Kepulauan Meranti","district":"Pulaumerbau","urban":"Padang Kamal","postal_code":28752},{"province":"Riau","city":"Kepulauan Meranti","district":"Pulaumerbau","urban":"Pangkalan Balai","postal_code":28752},{"province":"Riau","city":"Kepulauan Meranti","district":"Pulaumerbau","urban":"Pangkalan Balai","postal_code":28752},{"province":"Riau","city":"Kepulauan Meranti","district":"Tasik Putri Puyu","urban":"Mengkirau","postal_code":28752},{"province":"Riau","city":"Kepulauan Meranti","district":"Tasik Putri Puyu","urban":"Mengkopot","postal_code":28752},{"province":"Riau","city":"Kepulauan Meranti","district":"Merbau","urban":"Mayang Sari","postal_code":28752},{"province":"Riau","city":"Kepulauan Meranti","district":"Merbau","urban":"Mekar Sari","postal_code":28752},{"province":"Riau","city":"Kepulauan Meranti","district":"Tasik Putri Puyu","urban":"Mekar Delima","postal_code":28752},{"province":"Riau","city":"Kepulauan Meranti","district":"Merbau","urban":"Lukit","postal_code":28752},{"province":"Riau","city":"Kepulauan Meranti","district":"Tasik Putri Puyu","urban":"Kudap","postal_code":28752},{"province":"Riau","city":"Kepulauan Meranti","district":"Pulaumerbau","urban":"Ketapang Permai","postal_code":28752},{"province":"Riau","city":"Kepulauan Meranti","district":"Pulaumerbau","urban":"Kuala Merbau","postal_code":28752},{"province":"Riau","city":"Kepulauan Meranti","district":"Tasik Putri Puyu","urban":"Dedap","postal_code":28752},{"province":"Riau","city":"Kepulauan Meranti","district":"Pulaumerbau","urban":"Batang Meranti","postal_code":28752},{"province":"Riau","city":"Kepulauan Meranti","district":"Pulaumerbau","urban":"Centai","postal_code":28752},{"province":"Riau","city":"Kepulauan Meranti","district":"Pulaumerbau","urban":"Baran Melintang","postal_code":28752},{"province":"Riau","city":"Kepulauan Meranti","district":"Tasik Putri Puyu","urban":"Bandul","postal_code":28752},{"province":"Riau","city":"Kepulauan Meranti","district":"Merbau","urban":"Bagan Melibur","postal_code":28752}]