[{"province":"Riau","city":"Kepulauan Meranti","district":"Rangsang","urban":"Topang","postal_code":28755},{"province":"Riau","city":"Kepulauan Meranti","district":"Rangsang","urban":"Wonosari","postal_code":28755},{"province":"Riau","city":"Kepulauan Meranti","district":"Rangsang","urban":"Teluk Samak","postal_code":28755},{"province":"Riau","city":"Kepulauan Meranti","district":"Rangsang Pesisir","urban":"Tenggayun Raya","postal_code":28755},{"province":"Riau","city":"Kepulauan Meranti","district":"Rangsang Barat","urban":"Telaga Baru","postal_code":28755},{"province":"Riau","city":"Kepulauan Meranti","district":"Rangsang Pesisir","urban":"Telesung","postal_code":28755},{"province":"Riau","city":"Kepulauan Meranti","district":"Rangsang","urban":"Tanjung Medang","postal_code":28755},{"province":"Riau","city":"Kepulauan Meranti","district":"Rangsang","urban":"Tanjung Samak","postal_code":28755},{"province":"Riau","city":"Kepulauan Meranti","district":"Rangsang","urban":"Tebun","postal_code":28755},{"province":"Riau","city":"Kepulauan Meranti","district":"Rangsang","urban":"Tanjung Gemuk","postal_code":28755},{"province":"Riau","city":"Kepulauan Meranti","district":"Rangsang Pesisir","urban":"Tanjung Kedabu","postal_code":28755},{"province":"Riau","city":"Kepulauan Meranti","district":"Rangsang","urban":"Sungai Gayung Kiri","postal_code":28755},{"province":"Riau","city":"Kepulauan Meranti","district":"Rangsang","urban":"Tanjung Bakau","postal_code":28755},{"province":"Riau","city":"Kepulauan Meranti","district":"Rangsang Pesisir","urban":"Tanah Merah","postal_code":28755},{"province":"Riau","city":"Kepulauan Meranti","district":"Rangsang Barat","urban":"Sungai Cina","postal_code":28755},{"province":"Riau","city":"Kepulauan Meranti","district":"Rangsang Pesisir","urban":"Sokop","postal_code":28755},{"province":"Riau","city":"Kepulauan Meranti","district":"Rangsang Pesisir","urban":"Sonde","postal_code":28755},{"province":"Riau","city":"Kepulauan Meranti","district":"Rangsang Pesisir","urban":"Sendaur","postal_code":28755},{"province":"Riau","city":"Kepulauan Meranti","district":"Rangsang Barat","urban":"Segomeng","postal_code":28755},{"province":"Riau","city":"Kepulauan Meranti","district":"Rangsang Barat","urban":"Sialang Pasung","postal_code":28755},{"province":"Riau","city":"Kepulauan Meranti","district":"Rangsang","urban":"Repan","postal_code":28755},{"province":"Riau","city":"Kepulauan Meranti","district":"Rangsang Barat","urban":"Permai","postal_code":28755},{"province":"Riau","city":"Kepulauan Meranti","district":"Rangsang","urban":"Penyagun","postal_code":28755},{"province":"Riau","city":"Kepulauan Meranti","district":"Rangsang Barat","urban":"Melai","postal_code":28755},{"province":"Riau","city":"Kepulauan Meranti","district":"Rangsang Barat","urban":"Lemang","postal_code":28755},{"province":"Riau","city":"Kepulauan Meranti","district":"Rangsang Barat","urban":"Mekar Baru","postal_code":28755},{"province":"Riau","city":"Kepulauan Meranti","district":"Rangsang Pesisir","urban":"Kayu Ara","postal_code":28755},{"province":"Riau","city":"Kepulauan Meranti","district":"Rangsang Pesisir","urban":"Kedabu Rapat","postal_code":28755},{"province":"Riau","city":"Kepulauan Meranti","district":"Rangsang Pesisir","urban":"Kayu Ara","postal_code":28755},{"province":"Riau","city":"Kepulauan Meranti","district":"Rangsang Pesisir","urban":"Kedabu Rapat","postal_code":28755},{"province":"Riau","city":"Kepulauan Meranti","district":"Rangsang","urban":"Citra Damai","postal_code":28755},{"province":"Riau","city":"Kepulauan Meranti","district":"Rangsang Barat","urban":"Bokor","postal_code":28755},{"province":"Riau","city":"Kepulauan Meranti","district":"Rangsang Pesisir","urban":"Bungur","postal_code":28755},{"province":"Riau","city":"Kepulauan Meranti","district":"Rangsang Barat","urban":"Bina Maju","postal_code":28755},{"province":"Riau","city":"Kepulauan Meranti","district":"Rangsang Pesisir","urban":"Beting","postal_code":28755},{"province":"Riau","city":"Kepulauan Meranti","district":"Rangsang Barat","urban":"Bantar","postal_code":28755},{"province":"Riau","city":"Kepulauan Meranti","district":"Rangsang Barat","urban":"Anak Setatah","postal_code":28755}]