[{"province":"Riau","city":"Siak","district":"Bunga Raya","urban":"Temusai","postal_code":28763},{"province":"Riau","city":"Siak","district":"Bunga Raya","urban":"Tuah Indrapura","postal_code":28763},{"province":"Riau","city":"Siak","district":"Bunga Raya","urban":"Suak Merambai","postal_code":28763},{"province":"Riau","city":"Siak","district":"Pusako","urban":"Sungai Berbari","postal_code":28763},{"province":"Riau","city":"Siak","district":"Pusako","urban":"Sungai Limau","postal_code":28763},{"province":"Riau","city":"Siak","district":"Pusako","urban":"Pebadaran","postal_code":28763},{"province":"Riau","city":"Siak","district":"Pusako","urban":"Perincit","postal_code":28763},{"province":"Riau","city":"Siak","district":"Bunga Raya","urban":"Kemuning Muda","postal_code":28763},{"province":"Riau","city":"Siak","district":"Bunga Raya","urban":"Langsat Permai","postal_code":28763},{"province":"Riau","city":"Siak","district":"Bunga Raya","urban":"Jati Baru","postal_code":28763},{"province":"Riau","city":"Siak","district":"Bunga Raya","urban":"Jaya Pura","postal_code":28763},{"province":"Riau","city":"Siak","district":"Pusako","urban":"Dosan","postal_code":28763},{"province":"Riau","city":"Siak","district":"Pusako","urban":"Dusun Pusaka","postal_code":28763},{"province":"Riau","city":"Siak","district":"Bunga Raya","urban":"Dayangsuri","postal_code":28763},{"province":"Riau","city":"Siak","district":"Bunga Raya","urban":"Buatan/Buantan Lestari","postal_code":28763},{"province":"Riau","city":"Siak","district":"Bunga Raya","urban":"Bunga Raya","postal_code":28763},{"province":"Riau","city":"Siak","district":"Pusako","urban":"Benayah","postal_code":28763}]