[{"province":"Riau","city":"Bengkalis","district":"Pinggir","urban":"Titian Antui","postal_code":28784},{"province":"Riau","city":"Bengkalis","district":"Pinggir","urban":"Tasik Tebing Serai","postal_code":28784},{"province":"Riau","city":"Bengkalis","district":"Pinggir","urban":"Tengganau","postal_code":28784},{"province":"Riau","city":"Bengkalis","district":"Pinggir","urban":"Tasik Serai Timur","postal_code":28784},{"province":"Riau","city":"Bengkalis","district":"Pinggir","urban":"Tasik Serai","postal_code":28784},{"province":"Riau","city":"Bengkalis","district":"Pinggir","urban":"Tasik Serai Barat","postal_code":28784},{"province":"Riau","city":"Bengkalis","district":"Mandau","urban":"Tambusai Batang Dui","postal_code":28784},{"province":"Riau","city":"Bengkalis","district":"Mandau","urban":"Talang Mandi","postal_code":28784},{"province":"Riau","city":"Bengkalis","district":"Pinggir","urban":"Sungai Meranti","postal_code":28784},{"province":"Riau","city":"Bengkalis","district":"Mandau","urban":"Simpang Padang","postal_code":28784},{"province":"Riau","city":"Bengkalis","district":"Pinggir","urban":"Serai Wangi","postal_code":28784},{"province":"Riau","city":"Bengkalis","district":"Mandau","urban":"Sesumbo Ampai (Kesumo Ampai)","postal_code":28784},{"province":"Riau","city":"Bengkalis","district":"Pinggir","urban":"Semunai","postal_code":28784},{"province":"Riau","city":"Bengkalis","district":"Mandau","urban":"Sebangar","postal_code":28784},{"province":"Riau","city":"Bengkalis","district":"Mandau","urban":"Pematang Pudu","postal_code":28784},{"province":"Riau","city":"Bengkalis","district":"Pinggir","urban":"Pinggir","postal_code":28784},{"province":"Riau","city":"Bengkalis","district":"Mandau","urban":"Petani","postal_code":28784},{"province":"Riau","city":"Bengkalis","district":"Mandau","urban":"Pematang Obo","postal_code":28784},{"province":"Riau","city":"Bengkalis","district":"Pinggir","urban":"Pangkalan Libut","postal_code":28784},{"province":"Riau","city":"Bengkalis","district":"Mandau","urban":"Pamesi","postal_code":28784},{"province":"Riau","city":"Bengkalis","district":"Pinggir","urban":"Melibur","postal_code":28784},{"province":"Riau","city":"Bengkalis","district":"Pinggir","urban":"Muara Basung","postal_code":28784},{"province":"Riau","city":"Bengkalis","district":"Pinggir","urban":"Kuala Penaso","postal_code":28784},{"province":"Riau","city":"Bengkalis","district":"Pinggir","urban":"Kuala Penaso","postal_code":28784},{"province":"Riau","city":"Bengkalis","district":"Mandau","urban":"Harapan Baru","postal_code":28784},{"province":"Riau","city":"Bengkalis","district":"Mandau","urban":"Gajah Sakti","postal_code":28784},{"province":"Riau","city":"Bengkalis","district":"Mandau","urban":"Duri Barat","postal_code":28784},{"province":"Riau","city":"Bengkalis","district":"Mandau","urban":"Duri Timur","postal_code":28784},{"province":"Riau","city":"Bengkalis","district":"Mandau","urban":"Buluh Manis","postal_code":28784},{"province":"Riau","city":"Bengkalis","district":"Mandau","urban":"Bumbung","postal_code":28784},{"province":"Riau","city":"Bengkalis","district":"Pinggir","urban":"Buluh Apo","postal_code":28784},{"province":"Riau","city":"Bengkalis","district":"Pinggir","urban":"Beringin","postal_code":28784},{"province":"Riau","city":"Bengkalis","district":"Mandau","urban":"Boncah Mahang","postal_code":28784},{"province":"Riau","city":"Bengkalis","district":"Mandau","urban":"Batang Serosa","postal_code":28784},{"province":"Riau","city":"Bengkalis","district":"Mandau","urban":"Bathin Betuah","postal_code":28784},{"province":"Riau","city":"Bengkalis","district":"Mandau","urban":"Bathin Sobanga","postal_code":28784},{"province":"Riau","city":"Bengkalis","district":"Pinggir","urban":"Balai Raja","postal_code":28784},{"province":"Riau","city":"Bengkalis","district":"Mandau","urban":"Balik Alam","postal_code":28784},{"province":"Riau","city":"Bengkalis","district":"Mandau","urban":"Balai Makam","postal_code":28784},{"province":"Riau","city":"Bengkalis","district":"Pinggir","urban":"Balai Pungut","postal_code":28784},{"province":"Riau","city":"Bengkalis","district":"Mandau","urban":"Babussalam","postal_code":28784},{"province":"Riau","city":"Bengkalis","district":"Mandau","urban":"Air Jamban","postal_code":28784},{"province":"Riau","city":"Bengkalis","district":"Mandau","urban":"Air Kulim","postal_code":28784}]