[{"province":"Riau","city":"Rokan Hilir","district":"Pekaitan","urban":"Telukbano II","postal_code":28912},{"province":"Riau","city":"Rokan Hilir","district":"Sinaboi (Senaboi)","urban":"Sungai Nyamuk","postal_code":28912},{"province":"Riau","city":"Rokan Hilir","district":"Pekaitan","urban":"Suak Air Hitam","postal_code":28912},{"province":"Riau","city":"Rokan Hilir","district":"Pekaitan","urban":"Suak Temenggung","postal_code":28912},{"province":"Riau","city":"Rokan Hilir","district":"Sinaboi (Senaboi)","urban":"Sinaboi Kota","postal_code":28912},{"province":"Riau","city":"Rokan Hilir","district":"Bangko","urban":"Serusa","postal_code":28912},{"province":"Riau","city":"Rokan Hilir","district":"Sinaboi (Senaboi)","urban":"Senaboi/Sinaboi","postal_code":28912},{"province":"Riau","city":"Rokan Hilir","district":"Batu Hampar","urban":"Sei/Sungai Sialang","postal_code":28912},{"province":"Riau","city":"Rokan Hilir","district":"Batu Hampar","urban":"Sei/Sungai Sialang Hulu","postal_code":28912},{"province":"Riau","city":"Rokan Hilir","district":"Sinaboi (Senaboi)","urban":"Sei/Sungai Bakau","postal_code":28912},{"province":"Riau","city":"Rokan Hilir","district":"Pekaitan","urban":"Rokan Baru Pesisir","postal_code":28912},{"province":"Riau","city":"Rokan Hilir","district":"Pekaitan","urban":"Sei Besar","postal_code":28912},{"province":"Riau","city":"Rokan Hilir","district":"Sinaboi (Senaboi)","urban":"Raja Bejamu","postal_code":28912},{"province":"Riau","city":"Rokan Hilir","district":"Pekaitan","urban":"Pekaitan","postal_code":28912},{"province":"Riau","city":"Rokan Hilir","district":"Pekaitan","urban":"Rokan Baru","postal_code":28912},{"province":"Riau","city":"Rokan Hilir","district":"Bangko","urban":"Labuhan Tangga Kecil","postal_code":28912},{"province":"Riau","city":"Rokan Hilir","district":"Pekaitan","urban":"Pedamaran","postal_code":28912},{"province":"Riau","city":"Rokan Hilir","district":"Bangko","urban":"Labuhan Tangga Baru","postal_code":28912},{"province":"Riau","city":"Rokan Hilir","district":"Bangko","urban":"Labuhan Tangga Hilir","postal_code":28912},{"province":"Riau","city":"Rokan Hilir","district":"Pekaitan","urban":"Kubu I","postal_code":28912},{"province":"Riau","city":"Rokan Hilir","district":"Sinaboi (Senaboi)","urban":"Darussalam","postal_code":28912},{"province":"Riau","city":"Rokan Hilir","district":"Pekaitan","urban":"Karyo Mulyo Sari","postal_code":28912},{"province":"Riau","city":"Rokan Hilir","district":"Batu Hampar","urban":"Bantayan/Bantaian Hilir","postal_code":28912},{"province":"Riau","city":"Rokan Hilir","district":"Batu Hampar","urban":"Bantayan/Bantaian","postal_code":28912},{"province":"Riau","city":"Rokan Hilir","district":"Batu Hampar","urban":"Bantayan/Bantaian Baru","postal_code":28912},{"province":"Riau","city":"Rokan Hilir","district":"Bangko","urban":"Bagan Punak Pesisir","postal_code":28912},{"province":"Riau","city":"Rokan Hilir","district":"Bangko","urban":"Bagan Timur","postal_code":28912},{"province":"Riau","city":"Rokan Hilir","district":"Bangko","urban":"Bagan Punak","postal_code":28912},{"province":"Riau","city":"Rokan Hilir","district":"Bangko","urban":"Bagan Punak Meranti","postal_code":28912},{"province":"Riau","city":"Rokan Hilir","district":"Bangko","urban":"Bagan Hulu","postal_code":28912},{"province":"Riau","city":"Rokan Hilir","district":"Bangko","urban":"Bagan Jawa Pesisir","postal_code":28912},{"province":"Riau","city":"Rokan Hilir","district":"Bangko","urban":"Bagan Barat","postal_code":28912}]