[{"province":"Riau","city":"Rokan Hilir","district":"Rimba Melintang","urban":"Teluk Pulau Hilir","postal_code":28953},{"province":"Riau","city":"Rokan Hilir","district":"Rimba Melintang","urban":"Teluk Pulau Hulu","postal_code":28953},{"province":"Riau","city":"Rokan Hilir","district":"Rimba Melintang","urban":"Rimba Melintang","postal_code":28953},{"province":"Riau","city":"Rokan Hilir","district":"Rimba Melintang","urban":"Seremban Jaya","postal_code":28953},{"province":"Riau","city":"Rokan Hilir","district":"Rimba Melintang","urban":"Mukti Jaya","postal_code":28953},{"province":"Riau","city":"Rokan Hilir","district":"Rimba Melintang","urban":"Pematang Botam","postal_code":28953},{"province":"Riau","city":"Rokan Hilir","district":"Rimba Melintang","urban":"Pematang Sikek","postal_code":28953},{"province":"Riau","city":"Rokan Hilir","district":"Rimba Melintang","urban":"Lenggadai/Langgadai Hulu","postal_code":28953},{"province":"Riau","city":"Rokan Hilir","district":"Rimba Melintang","urban":"Lenggadai/Langgadai Hilir","postal_code":28953},{"province":"Riau","city":"Rokan Hilir","district":"Rimba Melintang","urban":"Jumrah","postal_code":28953},{"province":"Riau","city":"Rokan Hilir","district":"Rimba Melintang","urban":"Karya Mukti","postal_code":28953},{"province":"Riau","city":"Rokan Hilir","district":"Rimba Melintang","urban":"Harapan Jaya","postal_code":28953}]