[{"province":"Riau","city":"Rokan Hilir","district":"Pujud","urban":"Teluknayang","postal_code":28983},{"province":"Riau","city":"Rokan Hilir","district":"Tanah Putih","urban":"Ujung Tanjung","postal_code":28983},{"province":"Riau","city":"Rokan Hilir","district":"Pujud","urban":"Tanjungsari","postal_code":28983},{"province":"Riau","city":"Rokan Hilir","district":"Tanah Putih","urban":"Teluk Berembun","postal_code":28983},{"province":"Riau","city":"Rokan Hilir","district":"Tanah Putih","urban":"Teluk Mega","postal_code":28983},{"province":"Riau","city":"Rokan Hilir","district":"Pujud","urban":"Tanjungmedan","postal_code":28983},{"province":"Riau","city":"Rokan Hilir","district":"Pujud","urban":"Tanjungmedan Barat","postal_code":28983},{"province":"Riau","city":"Rokan Hilir","district":"Pujud","urban":"Tanjungmedan Utara","postal_code":28983},{"province":"Riau","city":"Rokan Hilir","district":"Pujud","urban":"Tangga Batu","postal_code":28983},{"province":"Riau","city":"Rokan Hilir","district":"Pujud","urban":"Sungaipinang","postal_code":28983},{"province":"Riau","city":"Rokan Hilir","district":"Pujud","urban":"Sungaitapah","postal_code":28983},{"province":"Riau","city":"Rokan Hilir","district":"Pujud","urban":"Sri Kayangan","postal_code":28983},{"province":"Riau","city":"Rokan Hilir","district":"Pujud","urban":"Suka Jadi","postal_code":28983},{"province":"Riau","city":"Rokan Hilir","district":"Tanah Putih","urban":"Sintong Pusaka","postal_code":28983},{"province":"Riau","city":"Rokan Hilir","district":"Tanah Putih","urban":"Sintong Bakti","postal_code":28983},{"province":"Riau","city":"Rokan Hilir","district":"Tanah Putih","urban":"Sintong Makmur","postal_code":28983},{"province":"Riau","city":"Rokan Hilir","district":"Tanah Putih","urban":"Sintong","postal_code":28983},{"province":"Riau","city":"Rokan Hilir","district":"Pujud","urban":"Siarang-arang","postal_code":28983},{"province":"Riau","city":"Rokan Hilir","district":"Tanah Putih","urban":"Sekeladi","postal_code":28983},{"province":"Riau","city":"Rokan Hilir","district":"Tanah Putih","urban":"Sekeladi Hilir","postal_code":28983},{"province":"Riau","city":"Rokan Hilir","district":"Rantau Kopar","urban":"Sekapas","postal_code":28983},{"province":"Riau","city":"Rokan Hilir","district":"Rantau Kopar","urban":"Sei/Sungai Rangau","postal_code":28983},{"province":"Riau","city":"Rokan Hilir","district":"Pujud","urban":"Sei Meranti Darussalam","postal_code":28983},{"province":"Riau","city":"Rokan Hilir","district":"Tanah Putih","urban":"Sedinginan","postal_code":28983},{"province":"Riau","city":"Rokan Hilir","district":"Rantau Kopar","urban":"Rantau Kopar","postal_code":28983},{"province":"Riau","city":"Rokan Hilir","district":"Pujud","urban":"Sei Meranti","postal_code":28983},{"province":"Riau","city":"Rokan Hilir","district":"Tanah Putih","urban":"Rantau Bais","postal_code":28983},{"province":"Riau","city":"Rokan Hilir","district":"Pujud","urban":"Pujud Utara","postal_code":28983},{"province":"Riau","city":"Rokan Hilir","district":"Tanah Putih","urban":"Putat","postal_code":28983},{"province":"Riau","city":"Rokan Hilir","district":"Pujud","urban":"Pujud","postal_code":28983},{"province":"Riau","city":"Rokan Hilir","district":"Pujud","urban":"Pujud Selatan","postal_code":28983},{"province":"Riau","city":"Rokan Hilir","district":"Pujud","urban":"Perkebunan Tanjung Medan","postal_code":28983},{"province":"Riau","city":"Rokan Hilir","district":"Pujud","urban":"Pondok Kresek","postal_code":28983},{"province":"Riau","city":"Rokan Hilir","district":"Pujud","urban":"Perkebunan Siarang-arang","postal_code":28983},{"province":"Riau","city":"Rokan Hilir","district":"Tanah Putih","urban":"Mumugo Pemekaran","postal_code":28983},{"province":"Riau","city":"Rokan Hilir","district":"Tanah Putih","urban":"Menggala Sempurna","postal_code":28983},{"province":"Riau","city":"Rokan Hilir","district":"Tanah Putih","urban":"Mumugo","postal_code":28983},{"province":"Riau","city":"Rokan Hilir","district":"Tanah Putih Tanjung Melawan","urban":"Mesah","postal_code":28983},{"province":"Riau","city":"Rokan Hilir","district":"Tanah Putih","urban":"Menggala Sakti","postal_code":28983},{"province":"Riau","city":"Rokan Hilir","district":"Tanah Putih Tanjung Melawan","urban":"Melayu Tengah","postal_code":28983},{"province":"Riau","city":"Rokan Hilir","district":"Tanah Putih Tanjung Melawan","urban":"Labuhan papan","postal_code":28983},{"province":"Riau","city":"Rokan Hilir","district":"Tanah Putih Tanjung Melawan","urban":"Melayu Besar","postal_code":28983},{"province":"Riau","city":"Rokan Hilir","district":"Tanah Putih Tanjung Melawan","urban":"Melayu Besar Kota","postal_code":28983},{"province":"Riau","city":"Rokan Hilir","district":"Tanah Putih Tanjung Melawan","urban":"Batu Hampar","postal_code":28983},{"province":"Riau","city":"Rokan Hilir","district":"Pujud","urban":"Kasang Bangsawan","postal_code":28983},{"province":"Riau","city":"Rokan Hilir","district":"Bangko Pusaka (Pusako)","urban":"Bangko Pusaka (Pusako)","postal_code":28983},{"province":"Riau","city":"Rokan Hilir","district":"Tanah Putih","urban":"Banjar XII","postal_code":28983},{"province":"Riau","city":"Rokan Hilir","district":"Pujud","urban":"Babussalam Rokan","postal_code":28983},{"province":"Riau","city":"Rokan Hilir","district":"Rantau Kopar","urban":"Bagan Cempedak","postal_code":28983},{"province":"Riau","city":"Rokan Hilir","district":"Pujud","urban":"Air Hitam","postal_code":28983},{"province":"Riau","city":"Rokan Hilir","district":"Pujud","urban":"Akar Belingkar","postal_code":28983}]