[{"province":"Riau","city":"Rokan Hilir","district":"Pasir Limau Kapas","urban":"Teluk Pulai","postal_code":28991},{"province":"Riau","city":"Rokan Hilir","district":"Kubu","urban":"Teluk Piyai","postal_code":28991},{"province":"Riau","city":"Rokan Hilir","district":"Kubu","urban":"Teluk Piyai Pesisir","postal_code":28991},{"province":"Riau","city":"Rokan Hilir","district":"Kubu Babussalam","urban":"Teluk Nilap","postal_code":28991},{"province":"Riau","city":"Rokan Hilir","district":"Kubu Babussalam","urban":"Teluk Nilap Jaya","postal_code":28991},{"province":"Riau","city":"Rokan Hilir","district":"Kubu Babussalam","urban":"Sungaimajo Pusako","postal_code":28991},{"province":"Riau","city":"Rokan Hilir","district":"Kubu","urban":"Tanjung Leban","postal_code":28991},{"province":"Riau","city":"Rokan Hilir","district":"Kubu","urban":"Teluk Merbau","postal_code":28991},{"province":"Riau","city":"Rokan Hilir","district":"Kubu","urban":"Sungai Kubu Hulu","postal_code":28991},{"province":"Riau","city":"Rokan Hilir","district":"Kubu","urban":"Sungai Segajah Jaya","postal_code":28991},{"province":"Riau","city":"Rokan Hilir","district":"Pasir Limau Kapas","urban":"Sungai Daun","postal_code":28991},{"province":"Riau","city":"Rokan Hilir","district":"Kubu","urban":"Sei/Sungai Sigajah/Segajah Makmur","postal_code":28991},{"province":"Riau","city":"Rokan Hilir","district":"Kubu Babussalam","urban":"Sei/Sungai Panji Panji","postal_code":28991},{"province":"Riau","city":"Rokan Hilir","district":"Kubu Babussalam","urban":"Sei/Sungai Pinang","postal_code":28991},{"province":"Riau","city":"Rokan Hilir","district":"Kubu Babussalam","urban":"Sei/Sungai Majo","postal_code":28991},{"province":"Riau","city":"Rokan Hilir","district":"Kubu","urban":"Sei/Sungai Kubu","postal_code":28991},{"province":"Riau","city":"Rokan Hilir","district":"Kubu Babussalam","urban":"Rantau Panjang Kiri","postal_code":28991},{"province":"Riau","city":"Rokan Hilir","district":"Kubu Babussalam","urban":"Rantau Panjang Kiri Hilir","postal_code":28991},{"province":"Riau","city":"Rokan Hilir","district":"Kubu","urban":"Sei Segajah Makmur","postal_code":28991},{"province":"Riau","city":"Rokan Hilir","district":"Kubu","urban":"Rantau Panjang Kanan","postal_code":28991},{"province":"Riau","city":"Rokan Hilir","district":"Pasir Limau Kapas","urban":"Pulaujemur","postal_code":28991},{"province":"Riau","city":"Rokan Hilir","district":"Kubu Babussalam","urban":"Pulau Halang Hulu","postal_code":28991},{"province":"Riau","city":"Rokan Hilir","district":"Kubu Babussalam","urban":"Pulau Halang Muka","postal_code":28991},{"province":"Riau","city":"Rokan Hilir","district":"Pasir Limau Kapas","urban":"Pasir Limau Kapas","postal_code":28991},{"province":"Riau","city":"Rokan Hilir","district":"Kubu Babussalam","urban":"Pulau Halang Belakang","postal_code":28991},{"province":"Riau","city":"Rokan Hilir","district":"Pasir Limau Kapas","urban":"Panipahan Darat","postal_code":28991},{"province":"Riau","city":"Rokan Hilir","district":"Pasir Limau Kapas","urban":"Panipahan II (Baru)","postal_code":28991},{"province":"Riau","city":"Rokan Hilir","district":"Pasir Limau Kapas","urban":"Panipahan Laut","postal_code":28991},{"province":"Riau","city":"Rokan Hilir","district":"Pasir Limau Kapas","urban":"Panipahan","postal_code":28991},{"province":"Riau","city":"Rokan Hilir","district":"Kubu Babussalam","urban":"Jojol","postal_code":28991}]