[{"province":"Riau","city":"Rokan Hilir","district":"Bangko Pusaka (Pusako)","urban":"Teluk Bano I","postal_code":28992},{"province":"Riau","city":"Rokan Hilir","district":"Simpang Kanan","urban":"Tanjung Selamat","postal_code":28992},{"province":"Riau","city":"Rokan Hilir","district":"Bangko Pusaka (Pusako)","urban":"Sungai Menasib (Sei Manasib)","postal_code":28992},{"province":"Riau","city":"Rokan Hilir","district":"Bagan Sinembah","urban":"Suka Maju","postal_code":28992},{"province":"Riau","city":"Rokan Hilir","district":"Simpang Kanan","urban":"Simpang Kanan","postal_code":28992},{"province":"Riau","city":"Rokan Hilir","district":"Bangko Pusaka (Pusako)","urban":"Pematang Ibul","postal_code":28992},{"province":"Riau","city":"Rokan Hilir","district":"Bagan Sinembah","urban":"Salak","postal_code":28992},{"province":"Riau","city":"Rokan Hilir","district":"Bangko Pusaka (Pusako)","urban":"Pematang Damar","postal_code":28992},{"province":"Riau","city":"Rokan Hilir","district":"Bagan Sinembah","urban":"Pasir Putih Utara","postal_code":28992},{"province":"Riau","city":"Rokan Hilir","district":"Bagan Sinembah","urban":"Pelita","postal_code":28992},{"province":"Riau","city":"Rokan Hilir","district":"Bagan Sinembah","urban":"Pasir Putih","postal_code":28992},{"province":"Riau","city":"Rokan Hilir","district":"Bagan Sinembah","urban":"Pasir Putih Barat","postal_code":28992},{"province":"Riau","city":"Rokan Hilir","district":"Bagan Sinembah","urban":"Meranti Makmur","postal_code":28992},{"province":"Riau","city":"Rokan Hilir","district":"Bagan Sinembah","urban":"Panca Mukti","postal_code":28992},{"province":"Riau","city":"Rokan Hilir","district":"Bagan Sinembah","urban":"Lubuk Jawi","postal_code":28992},{"province":"Riau","city":"Rokan Hilir","district":"Bagan Sinembah","urban":"Makmur Jaya","postal_code":28992},{"province":"Riau","city":"Rokan Hilir","district":"Bagan Sinembah","urban":"Kencana","postal_code":28992},{"province":"Riau","city":"Rokan Hilir","district":"Simpang Kanan","urban":"Kota Paret/Parit","postal_code":28992},{"province":"Riau","city":"Rokan Hilir","district":"Bagan Sinembah","urban":"Jaya Agung","postal_code":28992},{"province":"Riau","city":"Rokan Hilir","district":"Bagan Sinembah","urban":"Harapan Makmur","postal_code":28992},{"province":"Riau","city":"Rokan Hilir","district":"Bagan Sinembah","urban":"Harapan Makmur Selatan","postal_code":28992},{"province":"Riau","city":"Rokan Hilir","district":"Bagan Sinembah","urban":"Gelora","postal_code":28992},{"province":"Riau","city":"Rokan Hilir","district":"Bagan Sinembah","urban":"Bhayangkara Jaya","postal_code":28992},{"province":"Riau","city":"Rokan Hilir","district":"Simpang Kanan","urban":"Bukit Damar","postal_code":28992},{"province":"Riau","city":"Rokan Hilir","district":"Simpang Kanan","urban":"Bukit Mas","postal_code":28992},{"province":"Riau","city":"Rokan Hilir","district":"Bangko Pusaka (Pusako)","urban":"Bangko Sempurna","postal_code":28992},{"province":"Riau","city":"Rokan Hilir","district":"Bangko Pusaka (Pusako)","urban":"Bangko Mukti","postal_code":28992},{"province":"Riau","city":"Rokan Hilir","district":"Bangko Pusaka (Pusako)","urban":"Bangko Permata","postal_code":28992},{"province":"Riau","city":"Rokan Hilir","district":"Bangko Pusaka (Pusako)","urban":"Bangko Lestari","postal_code":28992},{"province":"Riau","city":"Rokan Hilir","district":"Bangko Pusaka (Pusako)","urban":"Bangko Makmur","postal_code":28992},{"province":"Riau","city":"Rokan Hilir","district":"Bangko Pusaka (Pusako)","urban":"Bangko Mas Raya","postal_code":28992},{"province":"Riau","city":"Rokan Hilir","district":"Bangko Pusaka (Pusako)","urban":"Bangko Kanan","postal_code":28992},{"province":"Riau","city":"Rokan Hilir","district":"Bangko Pusaka (Pusako)","urban":"Bangko Kiri","postal_code":28992},{"province":"Riau","city":"Rokan Hilir","district":"Bangko Pusaka (Pusako)","urban":"Bangko Bakti","postal_code":28992},{"province":"Riau","city":"Rokan Hilir","district":"Bangko Pusaka (Pusako)","urban":"Bangko Balam","postal_code":28992},{"province":"Riau","city":"Rokan Hilir","district":"Bangko Pusaka (Pusako)","urban":"Bangko Jaya","postal_code":28992},{"province":"Riau","city":"Rokan Hilir","district":"Bagan Sinembah","urban":"Balam Sempurna Kota","postal_code":28992},{"province":"Riau","city":"Rokan Hilir","district":"Bagan Sinembah","urban":"Balam Sempurna","postal_code":28992},{"province":"Riau","city":"Rokan Hilir","district":"Bagan Sinembah","urban":"Balai Jaya Kota","postal_code":28992},{"province":"Riau","city":"Rokan Hilir","district":"Bagan Sinembah","urban":"Balam Jaya","postal_code":28992},{"province":"Riau","city":"Rokan Hilir","district":"Bagan Sinembah","urban":"Bakti Makmur","postal_code":28992},{"province":"Riau","city":"Rokan Hilir","district":"Bagan Sinembah","urban":"Balai Jaya","postal_code":28992},{"province":"Riau","city":"Rokan Hilir","district":"Bagan Sinembah","urban":"Bagan Sinembah Utara","postal_code":28992},{"province":"Riau","city":"Rokan Hilir","district":"Bagan Sinembah","urban":"Bahtera Makmur","postal_code":28992},{"province":"Riau","city":"Rokan Hilir","district":"Bagan Sinembah","urban":"Bahtera Makmur Kota","postal_code":28992},{"province":"Riau","city":"Rokan Hilir","district":"Bagan Sinembah","urban":"Bagan Sinembah Timur","postal_code":28992},{"province":"Riau","city":"Rokan Hilir","district":"Bagan Sinembah","urban":"Bagan Sinembah","postal_code":28992},{"province":"Riau","city":"Rokan Hilir","district":"Bagan Sinembah","urban":"Bagan Sinembah Barat","postal_code":28992},{"province":"Riau","city":"Rokan Hilir","district":"Bagan Sinembah","urban":"Bagan Sinembah Kota","postal_code":28992},{"province":"Riau","city":"Rokan Hilir","district":"Simpang Kanan","urban":"Bagan Nibung","postal_code":28992},{"province":"Riau","city":"Rokan Hilir","district":"Bagan Sinembah","urban":"Bagan Sapta Permai","postal_code":28992},{"province":"Riau","city":"Rokan Hilir","district":"Bagan Sinembah","urban":"Bagan Batu","postal_code":28992},{"province":"Riau","city":"Rokan Hilir","district":"Bagan Sinembah","urban":"Bagan Batu Kota","postal_code":28992},{"province":"Riau","city":"Rokan Hilir","district":"Bagan Sinembah","urban":"Bagan Manunggal","postal_code":28992},{"province":"Riau","city":"Rokan Hilir","district":"Bagan Sinembah","urban":"Bagan Bakti","postal_code":28992}]