[{"province":"Kepulauan Riau","city":"Bintan","district":"Seri/Sri Kuala Lobam","urban":"Teluk Lobam","postal_code":29152},{"province":"Kepulauan Riau","city":"Bintan","district":"Seri/Sri Kuala Lobam","urban":"Teluk Sasah","postal_code":29152},{"province":"Kepulauan Riau","city":"Bintan","district":"Bintan Utara","urban":"Tanjung Uban Timur","postal_code":29152},{"province":"Kepulauan Riau","city":"Bintan","district":"Bintan Utara","urban":"Tanjung Uban Utara","postal_code":29152},{"province":"Kepulauan Riau","city":"Bintan","district":"Seri/Sri Kuala Lobam","urban":"Tanjung Permai","postal_code":29152},{"province":"Kepulauan Riau","city":"Bintan","district":"Bintan Utara","urban":"Tanjung Uban Kota","postal_code":29152},{"province":"Kepulauan Riau","city":"Bintan","district":"Bintan Utara","urban":"Tanjung Uban Selatan","postal_code":29152},{"province":"Kepulauan Riau","city":"Bintan","district":"Teluk Sebong","urban":"Sebung/Sebong Pereh","postal_code":29152},{"province":"Kepulauan Riau","city":"Bintan","district":"Teluk Sebong","urban":"Sri Bintan","postal_code":29152},{"province":"Kepulauan Riau","city":"Bintan","district":"Teluk Sebong","urban":"Pengudang","postal_code":29152},{"province":"Kepulauan Riau","city":"Bintan","district":"Teluk Sebong","urban":"Sebung/Sebong Lagoi","postal_code":29152},{"province":"Kepulauan Riau","city":"Bintan","district":"Seri/Sri Kuala Lobam","urban":"Kuala Sempang","postal_code":29152},{"province":"Kepulauan Riau","city":"Bintan","district":"Bintan Utara","urban":"Lancang Kuning","postal_code":29152},{"province":"Kepulauan Riau","city":"Bintan","district":"Teluk Sebong","urban":"Ekang Anculai","postal_code":29152},{"province":"Kepulauan Riau","city":"Bintan","district":"Teluk Sebong","urban":"Kota Baru","postal_code":29152},{"province":"Kepulauan Riau","city":"Bintan","district":"Seri/Sri Kuala Lobam","urban":"Busung","postal_code":29152},{"province":"Kepulauan Riau","city":"Bintan","district":"Teluk Sebong","urban":"Berakit","postal_code":29152}]