[{"province":"Kepulauan Riau","city":"Bintan","district":"Toapaya","urban":"Toapaya Utara","postal_code":29151},{"province":"Kepulauan Riau","city":"Bintan","district":"Toapaya","urban":"Toapaya Asri","postal_code":29151},{"province":"Kepulauan Riau","city":"Bintan","district":"Toapaya","urban":"Toapaya Selatan","postal_code":29151},{"province":"Kepulauan Riau","city":"Bintan","district":"Gunung Kijang","urban":"Teluk Bakau","postal_code":29151},{"province":"Kepulauan Riau","city":"Bintan","district":"Toapaya","urban":"Toapaya","postal_code":29151},{"province":"Kepulauan Riau","city":"Bintan","district":"Bintan Timur","urban":"Sungai Enam","postal_code":29151},{"province":"Kepulauan Riau","city":"Bintan","district":"Bintan Timur","urban":"Sungai Lekop","postal_code":29151},{"province":"Kepulauan Riau","city":"Bintan","district":"Bintan Pesisir","urban":"Mapur","postal_code":29151},{"province":"Kepulauan Riau","city":"Bintan","district":"Bintan Pesisir","urban":"Numbing","postal_code":29151},{"province":"Kepulauan Riau","city":"Bintan","district":"Mantang","urban":"Mantang Besar","postal_code":29151},{"province":"Kepulauan Riau","city":"Bintan","district":"Mantang","urban":"Mantang Lama","postal_code":29151},{"province":"Kepulauan Riau","city":"Bintan","district":"Mantang","urban":"Mantang Baru","postal_code":29151},{"province":"Kepulauan Riau","city":"Bintan","district":"Gunung Kijang","urban":"Malang Rapat","postal_code":29151},{"province":"Kepulauan Riau","city":"Bintan","district":"Gunung Kijang","urban":"Kawal","postal_code":29151},{"province":"Kepulauan Riau","city":"Bintan","district":"Bintan Timur","urban":"Kijang Kota","postal_code":29151},{"province":"Kepulauan Riau","city":"Bintan","district":"Bintan Pesisir","urban":"Kelong","postal_code":29151},{"province":"Kepulauan Riau","city":"Bintan","district":"Bintan Timur","urban":"Gunung Lengkuas","postal_code":29151},{"province":"Kepulauan Riau","city":"Bintan","district":"Gunung Kijang","urban":"Gunung Kijang","postal_code":29151},{"province":"Kepulauan Riau","city":"Bintan","district":"Mantang","urban":"Dendun","postal_code":29151},{"province":"Kepulauan Riau","city":"Bintan","district":"Bintan Pesisir","urban":"Air Glubi/Gelubi","postal_code":29151}]