[{"province":"Riau","city":"Indragiri Hilir","district":"Pelangiran","urban":"Wonosari","postal_code":29255},{"province":"Riau","city":"Indragiri Hilir","district":"Teluk Belengkong","urban":"Tunggal Rahayu Jaya","postal_code":29255},{"province":"Riau","city":"Indragiri Hilir","district":"Pelangiran","urban":"Terusan Beringin Jaya","postal_code":29255},{"province":"Riau","city":"Indragiri Hilir","district":"Pelangiran","urban":"Tegal Rejo","postal_code":29255},{"province":"Riau","city":"Indragiri Hilir","district":"Pelangiran","urban":"Teluk Bunian","postal_code":29255},{"province":"Riau","city":"Indragiri Hilir","district":"Pelangiran","urban":"Tanjung Simpang","postal_code":29255},{"province":"Riau","city":"Indragiri Hilir","district":"Kateman","urban":"Tagaraja (Tegaraja)","postal_code":29255},{"province":"Riau","city":"Indragiri Hilir","district":"Kateman","urban":"Tanjung Raja","postal_code":29255},{"province":"Riau","city":"Indragiri Hilir","district":"Pelangiran","urban":"Tagagiri Tama Jaya","postal_code":29255},{"province":"Riau","city":"Indragiri Hilir","district":"Kateman","urban":"Sungai Simbar","postal_code":29255},{"province":"Riau","city":"Indragiri Hilir","district":"Kateman","urban":"Sungai Teritip","postal_code":29255},{"province":"Riau","city":"Indragiri Hilir","district":"Teluk Belengkong","urban":"Sumber Makmur Jaya","postal_code":29255},{"province":"Riau","city":"Indragiri Hilir","district":"Teluk Belengkong","urban":"Sumber Sari Jaya","postal_code":29255},{"province":"Riau","city":"Indragiri Hilir","district":"Pelangiran","urban":"Simpang Kateman","postal_code":29255},{"province":"Riau","city":"Indragiri Hilir","district":"Teluk Belengkong","urban":"Sumber Jaya","postal_code":29255},{"province":"Riau","city":"Indragiri Hilir","district":"Kateman","urban":"Sari Mulia/Mulya","postal_code":29255},{"province":"Riau","city":"Indragiri Hilir","district":"Teluk Belengkong","urban":"Saka Rotan","postal_code":29255},{"province":"Riau","city":"Indragiri Hilir","district":"Teluk Belengkong","urban":"Sapta Mulya Jaya","postal_code":29255},{"province":"Riau","city":"Indragiri Hilir","district":"Pelangiran","urban":"Rotan Semelur","postal_code":29255},{"province":"Riau","city":"Indragiri Hilir","district":"Pelangiran","urban":"Saka Palas Jaya","postal_code":29255},{"province":"Riau","city":"Indragiri Hilir","district":"Pelangiran","urban":"Pinang Jaya","postal_code":29255},{"province":"Riau","city":"Indragiri Hilir","district":"Kateman","urban":"Penjuru","postal_code":29255},{"province":"Riau","city":"Indragiri Hilir","district":"Pelangiran","urban":"Pelangiran","postal_code":29255},{"province":"Riau","city":"Indragiri Hilir","district":"Kateman","urban":"Kuala Selat","postal_code":29255},{"province":"Riau","city":"Indragiri Hilir","district":"Kateman","urban":"Makmur Jaya","postal_code":29255},{"province":"Riau","city":"Indragiri Hilir","district":"Pelangiran","urban":"Intan Mulia/Mulya Jaya","postal_code":29255},{"province":"Riau","city":"Indragiri Hilir","district":"Teluk Belengkong","urban":"Kelapa Patih Jaya","postal_code":29255},{"province":"Riau","city":"Indragiri Hilir","district":"Pelangiran","urban":"Hidayah","postal_code":29255},{"province":"Riau","city":"Indragiri Hilir","district":"Teluk Belengkong","urban":"Indra Sari Jaya","postal_code":29255},{"province":"Riau","city":"Indragiri Hilir","district":"Teluk Belengkong","urban":"Griya Mukti Jaya","postal_code":29255},{"province":"Riau","city":"Indragiri Hilir","district":"Teluk Belengkong","urban":"Hibrida Jaya","postal_code":29255},{"province":"Riau","city":"Indragiri Hilir","district":"Teluk Belengkong","urban":"Hibrida Mulya","postal_code":29255},{"province":"Riau","city":"Indragiri Hilir","district":"Teluk Belengkong","urban":"Gembaran","postal_code":29255},{"province":"Riau","city":"Indragiri Hilir","district":"Pelangiran","urban":"Gaung/Baung Rejo Jaya","postal_code":29255},{"province":"Riau","city":"Indragiri Hilir","district":"Pelangiran","urban":"Catur Karya","postal_code":29255},{"province":"Riau","city":"Indragiri Hilir","district":"Kateman","urban":"Bandar Sri Gemilang","postal_code":29255},{"province":"Riau","city":"Indragiri Hilir","district":"Kateman","urban":"Bandar Sri Gemilang","postal_code":29255},{"province":"Riau","city":"Indragiri Hilir","district":"Pelangiran","urban":"Bagan Jaya","postal_code":29255},{"province":"Riau","city":"Indragiri Hilir","district":"Kateman","urban":"Amal Bakti","postal_code":29255},{"province":"Riau","city":"Indragiri Hilir","district":"Kateman","urban":"Air Tawar","postal_code":29255}]