[{"province":"Riau","city":"Indragiri Hilir","district":"Tempuling","urban":"Tempuling","postal_code":29261},{"province":"Riau","city":"Indragiri Hilir","district":"Tempuling","urban":"Teluk Kiambang","postal_code":29261},{"province":"Riau","city":"Indragiri Hilir","district":"Tempuling","urban":"Teluk Jira","postal_code":29261},{"province":"Riau","city":"Indragiri Hilir","district":"Tempuling","urban":"Tanjung Pidada","postal_code":29261},{"province":"Riau","city":"Indragiri Hilir","district":"Kempas","urban":"Sungai Rabit","postal_code":29261},{"province":"Riau","city":"Indragiri Hilir","district":"Tempuling","urban":"Sungai Salak","postal_code":29261},{"province":"Riau","city":"Indragiri Hilir","district":"Kempas","urban":"Sungai Gantang","postal_code":29261},{"province":"Riau","city":"Indragiri Hilir","district":"Kempas","urban":"Sungai Arah","postal_code":29261},{"province":"Riau","city":"Indragiri Hilir","district":"Kempas","urban":"Rumbai Jaya","postal_code":29261},{"province":"Riau","city":"Indragiri Hilir","district":"Kempas","urban":"Pekan Tua","postal_code":29261},{"province":"Riau","city":"Indragiri Hilir","district":"Tempuling","urban":"Pangkalan Tujuh","postal_code":29261},{"province":"Riau","city":"Indragiri Hilir","district":"Tempuling","urban":"Mumpa","postal_code":29261},{"province":"Riau","city":"Indragiri Hilir","district":"Kempas","urban":"Kerta Jaya","postal_code":29261},{"province":"Riau","city":"Indragiri Hilir","district":"Kempas","urban":"Kulim Jaya","postal_code":29261},{"province":"Riau","city":"Indragiri Hilir","district":"Kempas","urban":"Kempas Jaya","postal_code":29261},{"province":"Riau","city":"Indragiri Hilir","district":"Tempuling","urban":"Karya Tunas Jaya","postal_code":29261},{"province":"Riau","city":"Indragiri Hilir","district":"Kempas","urban":"Harapan Tani","postal_code":29261},{"province":"Riau","city":"Indragiri Hilir","district":"Kempas","urban":"Karya Tani","postal_code":29261},{"province":"Riau","city":"Indragiri Hilir","district":"Tempuling","urban":"Harapan Jaya","postal_code":29261},{"province":"Riau","city":"Indragiri Hilir","district":"Kempas","urban":"Danau Pulai Indah","postal_code":29261},{"province":"Riau","city":"Indragiri Hilir","district":"Kempas","urban":"Bayas Jaya","postal_code":29261}]