[{"province":"Riau","city":"Indragiri Hilir","district":"Kemuning","urban":"Talang Jangkang","postal_code":29274},{"province":"Riau","city":"Indragiri Hilir","district":"Keritang","urban":"Sencalang","postal_code":29274},{"province":"Riau","city":"Indragiri Hilir","district":"Keritang","urban":"Teluk Kelasa","postal_code":29274},{"province":"Riau","city":"Indragiri Hilir","district":"Kemuning","urban":"Sekara","postal_code":29274},{"province":"Riau","city":"Indragiri Hilir","district":"Kemuning","urban":"Sekayan","postal_code":29274},{"province":"Riau","city":"Indragiri Hilir","district":"Kemuning","urban":"Selensen","postal_code":29274},{"province":"Riau","city":"Indragiri Hilir","district":"Keritang","urban":"Petalongan","postal_code":29274},{"province":"Riau","city":"Indragiri Hilir","district":"Keritang","urban":"Petalongan","postal_code":29274},{"province":"Riau","city":"Indragiri Hilir","district":"Keritang","urban":"Pebenaan","postal_code":29274},{"province":"Riau","city":"Indragiri Hilir","district":"Keritang","urban":"Pengalihan/Pengalehan","postal_code":29274},{"province":"Riau","city":"Indragiri Hilir","district":"Keritang","urban":"Pasar Kembang","postal_code":29274},{"province":"Riau","city":"Indragiri Hilir","district":"Keritang","urban":"Nusantara Jaya","postal_code":29274},{"province":"Riau","city":"Indragiri Hilir","district":"Keritang","urban":"Nyiur Permai","postal_code":29274},{"province":"Riau","city":"Indragiri Hilir","district":"Keritang","urban":"Pancur","postal_code":29274},{"province":"Riau","city":"Indragiri Hilir","district":"Kemuning","urban":"Lubuk Besar","postal_code":29274},{"province":"Riau","city":"Indragiri Hilir","district":"Keritang","urban":"Kuala Lemang","postal_code":29274},{"province":"Riau","city":"Indragiri Hilir","district":"Keritang","urban":"Lintas Utara","postal_code":29274},{"province":"Riau","city":"Indragiri Hilir","district":"Kemuning","urban":"Limau Manis","postal_code":29274},{"province":"Riau","city":"Indragiri Hilir","district":"Keritang","urban":"Kota Baru Seberida","postal_code":29274},{"province":"Riau","city":"Indragiri Hilir","district":"Keritang","urban":"Kuala Keritang","postal_code":29274},{"province":"Riau","city":"Indragiri Hilir","district":"Keritang","urban":"Kota Baru Reteh","postal_code":29274},{"province":"Riau","city":"Indragiri Hilir","district":"Kemuning","urban":"Kemuning Tua","postal_code":29274},{"province":"Riau","city":"Indragiri Hilir","district":"Kemuning","urban":"Keritang","postal_code":29274},{"province":"Riau","city":"Indragiri Hilir","district":"Keritang","urban":"Kembang Mekar Sari","postal_code":29274},{"province":"Riau","city":"Indragiri Hilir","district":"Kemuning","urban":"Kemuning Muda","postal_code":29274},{"province":"Riau","city":"Indragiri Hilir","district":"Keritang","urban":"Kayu Raja","postal_code":29274},{"province":"Riau","city":"Indragiri Hilir","district":"Kemuning","urban":"Batu Ampar","postal_code":29274},{"province":"Riau","city":"Indragiri Hilir","district":"Kemuning","urban":"Dusun Tuk Jimun","postal_code":29274},{"province":"Riau","city":"Indragiri Hilir","district":"Kemuning","urban":"Air Balui","postal_code":29274}]