[{"province":"Riau","city":"Indragiri Hilir","district":"Tanah Merah","urban":"Tekulai Hulu","postal_code":29271},{"province":"Riau","city":"Indragiri Hilir","district":"Tanah Merah","urban":"Tekulai Hilir","postal_code":29271},{"province":"Riau","city":"Indragiri Hilir","district":"Tanah Merah","urban":"Tekulai Bugis","postal_code":29271},{"province":"Riau","city":"Indragiri Hilir","district":"Tanah Merah","urban":"Tanjung Baru","postal_code":29271},{"province":"Riau","city":"Indragiri Hilir","district":"Tanah Merah","urban":"Tanjung Pasir","postal_code":29271},{"province":"Riau","city":"Indragiri Hilir","district":"Tanah Merah","urban":"Tanah Merah","postal_code":29271},{"province":"Riau","city":"Indragiri Hilir","district":"Tanah Merah","urban":"Sungai Nyiur","postal_code":29271},{"province":"Riau","city":"Indragiri Hilir","district":"Tanah Merah","urban":"Sungai Laut","postal_code":29271},{"province":"Riau","city":"Indragiri Hilir","district":"Tanah Merah","urban":"Selat Nama","postal_code":29271},{"province":"Riau","city":"Indragiri Hilir","district":"Tanah Merah","urban":"Kuala Enok","postal_code":29271}]