[{"province":"Riau","city":"Indragiri Hilir","district":"Enok","urban":"Sungai Rukam","postal_code":29272},{"province":"Riau","city":"Indragiri Hilir","district":"Enok","urban":"Teluk Medan","postal_code":29272},{"province":"Riau","city":"Indragiri Hilir","district":"Enok","urban":"Sungai Ambat","postal_code":29272},{"province":"Riau","city":"Indragiri Hilir","district":"Enok","urban":"Sungai Lokan","postal_code":29272},{"province":"Riau","city":"Indragiri Hilir","district":"Enok","urban":"Simpang Tiga Daratan","postal_code":29272},{"province":"Riau","city":"Indragiri Hilir","district":"Enok","urban":"Suhada","postal_code":29272},{"province":"Riau","city":"Indragiri Hilir","district":"Enok","urban":"Rantau Panjang","postal_code":29272},{"province":"Riau","city":"Indragiri Hilir","district":"Enok","urban":"Simpang Tiga","postal_code":29272},{"province":"Riau","city":"Indragiri Hilir","district":"Enok","urban":"Pusaran","postal_code":29272},{"province":"Riau","city":"Indragiri Hilir","district":"Enok","urban":"Pengalihan","postal_code":29272},{"province":"Riau","city":"Indragiri Hilir","district":"Enok","urban":"Jaya Bhakti","postal_code":29272},{"province":"Riau","city":"Indragiri Hilir","district":"Enok","urban":"Pantai Seberang Makmur","postal_code":29272},{"province":"Riau","city":"Indragiri Hilir","district":"Enok","urban":"Enok","postal_code":29272},{"province":"Riau","city":"Indragiri Hilir","district":"Enok","urban":"Bagan Jaya","postal_code":29272}]