[{"province":"Riau","city":"Indragiri Hilir","district":"Reteh","urban":"Tanjung Labuh","postal_code":29273},{"province":"Riau","city":"Indragiri Hilir","district":"Reteh","urban":"Sungai Mahang","postal_code":29273},{"province":"Riau","city":"Indragiri Hilir","district":"Reteh","urban":"Sungai Terab/Terap","postal_code":29273},{"province":"Riau","city":"Indragiri Hilir","district":"Reteh","urban":"Sungai Undan","postal_code":29273},{"province":"Riau","city":"Indragiri Hilir","district":"Reteh","urban":"Seberang Sanglar","postal_code":29273},{"province":"Riau","city":"Indragiri Hilir","district":"Reteh","urban":"Sungai Asam","postal_code":29273},{"province":"Riau","city":"Indragiri Hilir","district":"Reteh","urban":"Sanglar","postal_code":29273},{"province":"Riau","city":"Indragiri Hilir","district":"Reteh","urban":"Seberang Pulau Kijang","postal_code":29273},{"province":"Riau","city":"Indragiri Hilir","district":"Reteh","urban":"Pulau Kecil","postal_code":29273},{"province":"Riau","city":"Indragiri Hilir","district":"Reteh","urban":"Pulau Kijang","postal_code":29273},{"province":"Riau","city":"Indragiri Hilir","district":"Reteh","urban":"Pulau Ruku","postal_code":29273},{"province":"Riau","city":"Indragiri Hilir","district":"Sungai Batang","urban":"Mugo Mulyo","postal_code":29273},{"province":"Riau","city":"Indragiri Hilir","district":"Sungai Batang","urban":"Pandan Sari","postal_code":29273},{"province":"Riau","city":"Indragiri Hilir","district":"Sungai Batang","urban":"Pesanggerahan (Pasenggarahan)","postal_code":29273},{"province":"Riau","city":"Indragiri Hilir","district":"Reteh","urban":"Mekar Sari","postal_code":29273},{"province":"Riau","city":"Indragiri Hilir","district":"Reteh","urban":"Metro","postal_code":29273},{"province":"Riau","city":"Indragiri Hilir","district":"Reteh","urban":"Madani","postal_code":29273},{"province":"Riau","city":"Indragiri Hilir","district":"Sungai Batang","urban":"Kuala Patah Parang","postal_code":29273},{"province":"Riau","city":"Indragiri Hilir","district":"Sungai Batang","urban":"Kuala Sungai Batang","postal_code":29273},{"province":"Riau","city":"Indragiri Hilir","district":"Sungai Batang","urban":"Benteng","postal_code":29273},{"province":"Riau","city":"Indragiri Hilir","district":"Sungai Batang","urban":"Benteng Barat","postal_code":29273},{"province":"Riau","city":"Indragiri Hilir","district":"Sungai Batang","urban":"Benteng Utara","postal_code":29273}]