[{"province":"Riau","city":"Indragiri Hilir","district":"Kuala Indragiri","urban":"Tanjung Melayu","postal_code":29281},{"province":"Riau","city":"Indragiri Hilir","district":"Kuala Indragiri","urban":"Teluk Dalam","postal_code":29281},{"province":"Riau","city":"Indragiri Hilir","district":"Kuala Indragiri","urban":"Sungai Buluh","postal_code":29281},{"province":"Riau","city":"Indragiri Hilir","district":"Kuala Indragiri","urban":"Sungai Piyai","postal_code":29281},{"province":"Riau","city":"Indragiri Hilir","district":"Kuala Indragiri","urban":"Tanjung Lajau","postal_code":29281},{"province":"Riau","city":"Indragiri Hilir","district":"Concong","urban":"Sungai Berapit","postal_code":29281},{"province":"Riau","city":"Indragiri Hilir","district":"Kuala Indragiri","urban":"Sungai Bela","postal_code":29281},{"province":"Riau","city":"Indragiri Hilir","district":"Kuala Indragiri","urban":"Perigi Raja","postal_code":29281},{"province":"Riau","city":"Indragiri Hilir","district":"Kuala Indragiri","urban":"Sapat","postal_code":29281},{"province":"Riau","city":"Indragiri Hilir","district":"Concong","urban":"Concong Tengah","postal_code":29281},{"province":"Riau","city":"Indragiri Hilir","district":"Concong","urban":"Kampung Baru","postal_code":29281},{"province":"Riau","city":"Indragiri Hilir","district":"Concong","urban":"Panglima Raja","postal_code":29281},{"province":"Riau","city":"Indragiri Hilir","district":"Concong","urban":"Concong Dalam","postal_code":29281},{"province":"Riau","city":"Indragiri Hilir","district":"Concong","urban":"Concong Luar","postal_code":29281}]