[{"province":"Riau","city":"Indragiri Hulu","district":"Kuala Cenaku","urban":"Tambak","postal_code":29335},{"province":"Riau","city":"Indragiri Hulu","district":"Kuala Cenaku","urban":"Tanjung Sari","postal_code":29335},{"province":"Riau","city":"Indragiri Hulu","district":"Kuala Cenaku","urban":"Teluk Sungkai","postal_code":29335},{"province":"Riau","city":"Indragiri Hulu","district":"Kuala Cenaku","urban":"Rawa Sekip","postal_code":29335},{"province":"Riau","city":"Indragiri Hulu","district":"Kuala Cenaku","urban":"Suka Jadi","postal_code":29335},{"province":"Riau","city":"Indragiri Hulu","district":"Kuala Cenaku","urban":"Pulau Gelang","postal_code":29335},{"province":"Riau","city":"Indragiri Hulu","district":"Kuala Cenaku","urban":"Pulau Jumat","postal_code":29335},{"province":"Riau","city":"Indragiri Hulu","district":"Kuala Cenaku","urban":"Rawa Asri","postal_code":29335},{"province":"Riau","city":"Indragiri Hulu","district":"Kuala Cenaku","urban":"Kuala Cenaku","postal_code":29335},{"province":"Riau","city":"Indragiri Hulu","district":"Kuala Cenaku","urban":"Kuala Mulia","postal_code":29335}]