[{"province":"Riau","city":"Indragiri Hulu","district":"Lubuk Batu Jaya","urban":"Tasik Juang","postal_code":29352},{"province":"Riau","city":"Indragiri Hulu","district":"Kelayang","urban":"Teluk Sejuah","postal_code":29352},{"province":"Riau","city":"Indragiri Hulu","district":"Kelayang","urban":"Tanjung Beludu","postal_code":29352},{"province":"Riau","city":"Indragiri Hulu","district":"Pasir Penyu","urban":"Tanah Merah","postal_code":29352},{"province":"Riau","city":"Indragiri Hulu","district":"Pasir Penyu","urban":"Tanjung Gading","postal_code":29352},{"province":"Riau","city":"Indragiri Hulu","district":"Rakit Kulim","urban":"Talang Selantai","postal_code":29352},{"province":"Riau","city":"Indragiri Hulu","district":"Rakit Kulim","urban":"Talang Tujuh Buah Tangga","postal_code":29352},{"province":"Riau","city":"Indragiri Hulu","district":"Rakit Kulim","urban":"Talang Sei/Sungai Maju","postal_code":29352},{"province":"Riau","city":"Indragiri Hulu","district":"Rakit Kulim","urban":"Talang Sei/Sungai Parit","postal_code":29352},{"province":"Riau","city":"Indragiri Hulu","district":"Rakit Kulim","urban":"Talang Pring Jaya","postal_code":29352},{"province":"Riau","city":"Indragiri Hulu","district":"Rakit Kulim","urban":"Talang Sei/Sungai Elok","postal_code":29352},{"province":"Riau","city":"Indragiri Hulu","district":"Rakit Kulim","urban":"Talang Sei/Sungai Limau","postal_code":29352},{"province":"Riau","city":"Indragiri Hulu","district":"Rakit Kulim","urban":"Talang Parigi","postal_code":29352},{"province":"Riau","city":"Indragiri Hulu","district":"Rakit Kulim","urban":"Talang Gedabu","postal_code":29352},{"province":"Riau","city":"Indragiri Hulu","district":"Rakit Kulim","urban":"Talang Durian Cacar","postal_code":29352},{"province":"Riau","city":"Indragiri Hulu","district":"Kelayang","urban":"Sungai Banyak Ikan","postal_code":29352},{"province":"Riau","city":"Indragiri Hulu","district":"Kelayang","urban":"Sungai Golang","postal_code":29352},{"province":"Riau","city":"Indragiri Hulu","district":"Kelayang","urban":"Sungai Kuning Benio","postal_code":29352},{"province":"Riau","city":"Indragiri Hulu","district":"Kelayang","urban":"Simpang Kelayang","postal_code":29352},{"province":"Riau","city":"Indragiri Hulu","district":"Kelayang","urban":"Simpang Kota Medan","postal_code":29352},{"province":"Riau","city":"Indragiri Hulu","district":"Kelayang","urban":"Sei/Sungai Pasir Putih","postal_code":29352},{"province":"Riau","city":"Indragiri Hulu","district":"Pasir Penyu","urban":"Sekar Mawar","postal_code":29352},{"province":"Riau","city":"Indragiri Hulu","district":"Pasir Penyu","urban":"Serumpun Jaya","postal_code":29352},{"province":"Riau","city":"Indragiri Hulu","district":"Lubuk Batu Jaya","urban":"Sei Beras Hilir","postal_code":29352},{"province":"Riau","city":"Indragiri Hulu","district":"Lubuk Batu Jaya","urban":"Sei Beras-Beras","postal_code":29352},{"province":"Riau","city":"Indragiri Hulu","district":"Rakit Kulim","urban":"Rimba Seminai","postal_code":29352},{"province":"Riau","city":"Indragiri Hulu","district":"Lubuk Batu Jaya","urban":"Rimpian","postal_code":29352},{"province":"Riau","city":"Indragiri Hulu","district":"Lubuk Batu Jaya","urban":"Pontian Mekar","postal_code":29352},{"province":"Riau","city":"Indragiri Hulu","district":"Kelayang","urban":"Pulau Sengkilo","postal_code":29352},{"province":"Riau","city":"Indragiri Hulu","district":"Lubuk Batu Jaya","urban":"Pondok Gelugur","postal_code":29352},{"province":"Riau","city":"Indragiri Hulu","district":"Kelayang","urban":"Polak Pisang","postal_code":29352},{"province":"Riau","city":"Indragiri Hulu","district":"Rakit Kulim","urban":"Petonggan","postal_code":29352},{"province":"Riau","city":"Indragiri Hulu","district":"Pasir Penyu","urban":"Petalongan","postal_code":29352},{"province":"Riau","city":"Indragiri Hulu","district":"Kelayang","urban":"Pelangko","postal_code":29352},{"province":"Riau","city":"Indragiri Hulu","district":"Pasir Penyu","urban":"Pasir Keranji","postal_code":29352},{"province":"Riau","city":"Indragiri Hulu","district":"Rakit Kulim","urban":"Lubuk Sitarak","postal_code":29352},{"province":"Riau","city":"Indragiri Hulu","district":"Kelayang","urban":"Pasir Beringin","postal_code":29352},{"province":"Riau","city":"Indragiri Hulu","district":"Lubuk Batu Jaya","urban":"Lubuk Batu Tinggal","postal_code":29352},{"province":"Riau","city":"Indragiri Hulu","district":"Lubuk Batu Jaya","urban":"Kulim Jaya","postal_code":29352},{"province":"Riau","city":"Indragiri Hulu","district":"Lubuk Batu Jaya","urban":"Kulim Jaya","postal_code":29352},{"province":"Riau","city":"Indragiri Hulu","district":"Rakit Kulim","urban":"Kota Baru","postal_code":29352},{"province":"Riau","city":"Indragiri Hulu","district":"Rakit Kulim","urban":"Kuantan Tenang","postal_code":29352},{"province":"Riau","city":"Indragiri Hulu","district":"Kelayang","urban":"Kota Medan","postal_code":29352},{"province":"Riau","city":"Indragiri Hulu","district":"Pasir Penyu","urban":"Kembang Harum","postal_code":29352},{"province":"Riau","city":"Indragiri Hulu","district":"Rakit Kulim","urban":"Kelayang","postal_code":29352},{"province":"Riau","city":"Indragiri Hulu","district":"Pasir Penyu","urban":"Jatirejo","postal_code":29352},{"province":"Riau","city":"Indragiri Hulu","district":"Rakit Kulim","urban":"Kampung Bungo","postal_code":29352},{"province":"Riau","city":"Indragiri Hulu","district":"Kelayang","urban":"Dusun Tua","postal_code":29352},{"province":"Riau","city":"Indragiri Hulu","district":"Kelayang","urban":"Dusun Tua Pelang","postal_code":29352},{"province":"Riau","city":"Indragiri Hulu","district":"Pasir Penyu","urban":"Candi Rejo","postal_code":29352},{"province":"Riau","city":"Indragiri Hulu","district":"Rakit Kulim","urban":"Bukit Indah","postal_code":29352},{"province":"Riau","city":"Indragiri Hulu","district":"Kelayang","urban":"Bukit Selanjut","postal_code":29352},{"province":"Riau","city":"Indragiri Hulu","district":"Rakit Kulim","urban":"Batu Sawar","postal_code":29352},{"province":"Riau","city":"Indragiri Hulu","district":"Kelayang","urban":"Bongkal Malang","postal_code":29352},{"province":"Riau","city":"Indragiri Hulu","district":"Lubuk Batu Jaya","urban":"Air Putih","postal_code":29352},{"province":"Riau","city":"Indragiri Hulu","district":"Pasir Penyu","urban":"Batu Gajah","postal_code":29352},{"province":"Riau","city":"Indragiri Hulu","district":"Pasir Penyu","urban":"Air Molek I","postal_code":29352},{"province":"Riau","city":"Indragiri Hulu","district":"Pasir Penyu","urban":"Air Molek II","postal_code":29352}]