[{"province":"Riau","city":"Indragiri Hulu","district":"Batang Gansal","urban":"Usul","postal_code":29355},{"province":"Riau","city":"Indragiri Hulu","district":"Batang Gansal","urban":"Talang Lakat","postal_code":29355},{"province":"Riau","city":"Indragiri Hulu","district":"Batang Cenaku","urban":"Talang Bersemi","postal_code":29355},{"province":"Riau","city":"Indragiri Hulu","district":"Batang Cenaku","urban":"Talang Mulia/Mulya","postal_code":29355},{"province":"Riau","city":"Indragiri Hulu","district":"Batang Gansal","urban":"Sungai Akar","postal_code":29355},{"province":"Riau","city":"Indragiri Hulu","district":"Batang Gansal","urban":"Siambul","postal_code":29355},{"province":"Riau","city":"Indragiri Hulu","district":"Batang Cenaku","urban":"Sipang","postal_code":29355},{"province":"Riau","city":"Indragiri Hulu","district":"Batang Gansal","urban":"Seberida","postal_code":29355},{"province":"Riau","city":"Indragiri Hulu","district":"Batang Cenaku","urban":"Sanglap","postal_code":29355},{"province":"Riau","city":"Indragiri Hulu","district":"Batang Gansal","urban":"Ringin","postal_code":29355},{"province":"Riau","city":"Indragiri Hulu","district":"Batang Cenaku","urban":"Punti Anai","postal_code":29355},{"province":"Riau","city":"Indragiri Hulu","district":"Batang Gansal","urban":"Rantau Langsat","postal_code":29355},{"province":"Riau","city":"Indragiri Hulu","district":"Batang Cenaku","urban":"Pematang Manggis","postal_code":29355},{"province":"Riau","city":"Indragiri Hulu","district":"Batang Gansal","urban":"Penyaguan","postal_code":29355},{"province":"Riau","city":"Indragiri Hulu","district":"Batang Cenaku","urban":"Pataling/Petaling Jaya","postal_code":29355},{"province":"Riau","city":"Indragiri Hulu","district":"Batang Cenaku","urban":"Pejangki","postal_code":29355},{"province":"Riau","city":"Indragiri Hulu","district":"Batang Cenaku","urban":"Lahai Kemuning","postal_code":29355},{"province":"Riau","city":"Indragiri Hulu","district":"Batang Cenaku","urban":"Kuala Gading","postal_code":29355},{"province":"Riau","city":"Indragiri Hulu","district":"Batang Cenaku","urban":"Kuala Kilan","postal_code":29355},{"province":"Riau","city":"Indragiri Hulu","district":"Batang Cenaku","urban":"Kerubung Jaya","postal_code":29355},{"province":"Riau","city":"Indragiri Hulu","district":"Batang Gansal","urban":"Danau Rambai","postal_code":29355},{"province":"Riau","city":"Indragiri Hulu","district":"Batang Cenaku","urban":"Kepayang Sari","postal_code":29355},{"province":"Riau","city":"Indragiri Hulu","district":"Batang Cenaku","urban":"Bukit Lingkar","postal_code":29355},{"province":"Riau","city":"Indragiri Hulu","district":"Batang Cenaku","urban":"Bukit Lipai","postal_code":29355},{"province":"Riau","city":"Indragiri Hulu","district":"Batang Cenaku","urban":"Cenaku Kecil","postal_code":29355},{"province":"Riau","city":"Indragiri Hulu","district":"Batang Gansal","urban":"Belimbing","postal_code":29355},{"province":"Riau","city":"Indragiri Hulu","district":"Batang Cenaku","urban":"Anak Talang","postal_code":29355},{"province":"Riau","city":"Indragiri Hulu","district":"Batang Cenaku","urban":"Aur Cina","postal_code":29355},{"province":"Riau","city":"Indragiri Hulu","district":"Batang Cenaku","urban":"Anak Talang","postal_code":29355},{"province":"Riau","city":"Indragiri Hulu","district":"Batang Cenaku","urban":"Alim","postal_code":29355}]