[{"province":"Riau","city":"Kuantan Singingi","district":"Logas Tanah Darat","urban":"Sungai Rambai","postal_code":29556},{"province":"Riau","city":"Kuantan Singingi","district":"Logas Tanah Darat","urban":"Teratak Rendah","postal_code":29556},{"province":"Riau","city":"Kuantan Singingi","district":"Logas Tanah Darat","urban":"Situgal","postal_code":29556},{"province":"Riau","city":"Kuantan Singingi","district":"Logas Tanah Darat","urban":"Sukaraja","postal_code":29556},{"province":"Riau","city":"Kuantan Singingi","district":"Logas Tanah Darat","urban":"Sidodadi","postal_code":29556},{"province":"Riau","city":"Kuantan Singingi","district":"Logas Tanah Darat","urban":"Sikijang","postal_code":29556},{"province":"Riau","city":"Kuantan Singingi","district":"Logas Tanah Darat","urban":"Lubuk Kebun","postal_code":29556},{"province":"Riau","city":"Kuantan Singingi","district":"Logas Tanah Darat","urban":"Rambahan","postal_code":29556},{"province":"Riau","city":"Kuantan Singingi","district":"Logas Tanah Darat","urban":"Sako Margosari","postal_code":29556},{"province":"Riau","city":"Kuantan Singingi","district":"Logas Tanah Darat","urban":"Hulu Teso","postal_code":29556},{"province":"Riau","city":"Kuantan Singingi","district":"Logas Tanah Darat","urban":"Kuantan Sako","postal_code":29556},{"province":"Riau","city":"Kuantan Singingi","district":"Logas Tanah Darat","urban":"Logas","postal_code":29556},{"province":"Riau","city":"Kuantan Singingi","district":"Logas Tanah Darat","urban":"Bumi Mulya","postal_code":29556},{"province":"Riau","city":"Kuantan Singingi","district":"Logas Tanah Darat","urban":"Giri Sako","postal_code":29556}]