[{"province":"Riau","city":"Kuantan Singingi","district":"Gunung Toar","urban":"Teluk Beringin","postal_code":29565},{"province":"Riau","city":"Kuantan Singingi","district":"Gunung Toar","urban":"Toar","postal_code":29565},{"province":"Riau","city":"Kuantan Singingi","district":"Gunung Toar","urban":"Teberau Panjang","postal_code":29565},{"province":"Riau","city":"Kuantan Singingi","district":"Hulu Kuantan","urban":"Tanjung Medang","postal_code":29565},{"province":"Riau","city":"Kuantan Singingi","district":"Hulu Kuantan","urban":"Sungai Kalilawar/Kelelawar","postal_code":29565},{"province":"Riau","city":"Kuantan Singingi","district":"Hulu Kuantan","urban":"Sungai Pinang","postal_code":29565},{"province":"Riau","city":"Kuantan Singingi","district":"Inuman","urban":"Sigaruntang","postal_code":29565},{"province":"Riau","city":"Kuantan Singingi","district":"Hulu Kuantan","urban":"Sumpu","postal_code":29565},{"province":"Riau","city":"Kuantan Singingi","district":"Hulu Kuantan","urban":"Sungai Alah","postal_code":29565},{"province":"Riau","city":"Kuantan Singingi","district":"Gunung Toar","urban":"Siberobah","postal_code":29565},{"province":"Riau","city":"Kuantan Singingi","district":"Inuman","urban":"Seberang Pulau Busuk","postal_code":29565},{"province":"Riau","city":"Kuantan Singingi","district":"Hulu Kuantan","urban":"Serosah/Serusa","postal_code":29565},{"province":"Riau","city":"Kuantan Singingi","district":"Gunung Toar","urban":"Seberang Sungai","postal_code":29565},{"province":"Riau","city":"Kuantan Singingi","district":"Hulu Kuantan","urban":"Sampurago","postal_code":29565},{"province":"Riau","city":"Kuantan Singingi","district":"Gunung Toar","urban":"Seberang Gunung","postal_code":29565},{"province":"Riau","city":"Kuantan Singingi","district":"Inuman","urban":"Pulau Panjang Hulu","postal_code":29565},{"province":"Riau","city":"Kuantan Singingi","district":"Inuman","urban":"Pulau Sipan","postal_code":29565},{"province":"Riau","city":"Kuantan Singingi","district":"Gunung Toar","urban":"Pulau Rumput","postal_code":29565},{"province":"Riau","city":"Kuantan Singingi","district":"Inuman","urban":"Pulau Panjang Hilir","postal_code":29565},{"province":"Riau","city":"Kuantan Singingi","district":"Gunung Toar","urban":"Pulau Mungkur","postal_code":29565},{"province":"Riau","city":"Kuantan Singingi","district":"Inuman","urban":"Pulau Busuk Jaya","postal_code":29565},{"province":"Riau","city":"Kuantan Singingi","district":"Gunung Toar","urban":"Pisang Berebus","postal_code":29565},{"province":"Riau","city":"Kuantan Singingi","district":"Inuman","urban":"Pulau Busuk","postal_code":29565},{"province":"Riau","city":"Kuantan Singingi","district":"Gunung Toar","urban":"Petapahan","postal_code":29565},{"province":"Riau","city":"Kuantan Singingi","district":"Inuman","urban":"Pasar Inuman","postal_code":29565},{"province":"Riau","city":"Kuantan Singingi","district":"Hulu Kuantan","urban":"Lubuk Ambacang","postal_code":29565},{"province":"Riau","city":"Kuantan Singingi","district":"Hulu Kuantan","urban":"Mudik Ulo","postal_code":29565},{"province":"Riau","city":"Kuantan Singingi","district":"Gunung Toar","urban":"Lubuk Terantang","postal_code":29565},{"province":"Riau","city":"Kuantan Singingi","district":"Hulu Kuantan","urban":"Koto Kombu","postal_code":29565},{"province":"Riau","city":"Kuantan Singingi","district":"Inuman","urban":"Lebuh Lurus","postal_code":29565},{"province":"Riau","city":"Kuantan Singingi","district":"Gunung Toar","urban":"Koto Gunung","postal_code":29565},{"province":"Riau","city":"Kuantan Singingi","district":"Inuman","urban":"Koto Inuman","postal_code":29565},{"province":"Riau","city":"Kuantan Singingi","district":"Inuman","urban":"Kampung Baru Koto","postal_code":29565},{"province":"Riau","city":"Kuantan Singingi","district":"Inuman","urban":"Ketaping Jaya","postal_code":29565},{"province":"Riau","city":"Kuantan Singingi","district":"Hulu Kuantan","urban":"Inuman","postal_code":29565},{"province":"Riau","city":"Kuantan Singingi","district":"Gunung Toar","urban":"Kampung Baru","postal_code":29565},{"province":"Riau","city":"Kuantan Singingi","district":"Gunung Toar","urban":"Gunung","postal_code":29565},{"province":"Riau","city":"Kuantan Singingi","district":"Inuman","urban":"Bedeng Sikuran","postal_code":29565},{"province":"Riau","city":"Kuantan Singingi","district":"Inuman","urban":"Banjar Nantigo","postal_code":29565}]