[{"province":"Riau","city":"Kuantan Singingi","district":"Kuantan Hilir Seberang","urban":"Teratak Jering","postal_code":29561},{"province":"Riau","city":"Kuantan Singingi","district":"Kuantan Hilir Seberang","urban":"Tanjung","postal_code":29561},{"province":"Riau","city":"Kuantan Singingi","district":"Kuantan Hilir Seberang","urban":"Tanjungpisang","postal_code":29561},{"province":"Riau","city":"Kuantan Singingi","district":"Kuantan Hilir","urban":"Teratak Baru","postal_code":29561},{"province":"Riau","city":"Kuantan Singingi","district":"Kuantan Hilir Seberang","urban":"Sungaisorik","postal_code":29561},{"province":"Riau","city":"Kuantan Singingi","district":"Kuantan Hilir","urban":"Simpang Tanah Lapang","postal_code":29561},{"province":"Riau","city":"Kuantan Singingi","district":"Kuantan Hilir Seberang","urban":"Rawang Oguang","postal_code":29561},{"province":"Riau","city":"Kuantan Singingi","district":"Kuantan Hilir","urban":"Simpang Pulauberalo","postal_code":29561},{"province":"Riau","city":"Kuantan Singingi","district":"Kuantan Hilir Seberang","urban":"Pulaukulur","postal_code":29561},{"province":"Riau","city":"Kuantan Singingi","district":"Kuantan Hilir","urban":"Pulaumadinah","postal_code":29561},{"province":"Riau","city":"Kuantan Singingi","district":"Kuantan Hilir","urban":"Rawang Bonto","postal_code":29561},{"province":"Riau","city":"Kuantan Singingi","district":"Kuantan Hilir Seberang","urban":"Pulaubaru","postal_code":29561},{"province":"Riau","city":"Kuantan Singingi","district":"Kuantan Hilir Seberang","urban":"Pulauberalo","postal_code":29561},{"province":"Riau","city":"Kuantan Singingi","district":"Kuantan Hilir","urban":"Pulaukijang","postal_code":29561},{"province":"Riau","city":"Kuantan Singingi","district":"Logas Tanah Darat","urban":"Perhentian Luas","postal_code":29561},{"province":"Riau","city":"Kuantan Singingi","district":"Kuantan Hilir Seberang","urban":"Pelukahan","postal_code":29561},{"province":"Riau","city":"Kuantan Singingi","district":"Kuantan Hilir Seberang","urban":"Pengalihan","postal_code":29561},{"province":"Riau","city":"Kuantan Singingi","district":"Kuantan Hilir","urban":"Pasar Baru","postal_code":29561},{"province":"Riau","city":"Kuantan Singingi","district":"Kuantan Hilir","urban":"Pasar Usang","postal_code":29561},{"province":"Riau","city":"Kuantan Singingi","district":"Kuantan Hilir","urban":"Koto Tuo","postal_code":29561},{"province":"Riau","city":"Kuantan Singingi","district":"Kuantan Hilir Seberang","urban":"Koto Rajo","postal_code":29561},{"province":"Riau","city":"Kuantan Singingi","district":"Kuantan Hilir Seberang","urban":"Lumbok","postal_code":29561},{"province":"Riau","city":"Kuantan Singingi","district":"Kuantan Hilir","urban":"Kepala Pulau","postal_code":29561},{"province":"Riau","city":"Kuantan Singingi","district":"Kuantan Hilir Seberang","urban":"Kasang Limau Sundai","postal_code":29561},{"province":"Riau","city":"Kuantan Singingi","district":"Kuantan Hilir","urban":"Kampung Medan","postal_code":29561},{"province":"Riau","city":"Kuantan Singingi","district":"Kuantan Hilir","urban":"Kampung Tengah","postal_code":29561},{"province":"Riau","city":"Kuantan Singingi","district":"Kuantan Hilir","urban":"Dusun Tuo","postal_code":29561},{"province":"Riau","city":"Kuantan Singingi","district":"Kuantan Hilir","urban":"Gunungmelintang","postal_code":29561},{"province":"Riau","city":"Kuantan Singingi","district":"Kuantan Hilir","urban":"Kampung Madura","postal_code":29561},{"province":"Riau","city":"Kuantan Singingi","district":"Kuantan Hilir","urban":"Banuaran","postal_code":29561},{"province":"Riau","city":"Kuantan Singingi","district":"Kuantan Hilir Seberang","urban":"Danau","postal_code":29561}]