[{"province":"Riau","city":"Kuantan Singingi","district":"Kuantan Mudik","urban":"Sungaimanau","postal_code":29564},{"province":"Riau","city":"Kuantan Singingi","district":"Pucuk Rantau","urban":"Sungaibesar","postal_code":29564},{"province":"Riau","city":"Kuantan Singingi","district":"Pucuk Rantau","urban":"Sungaibesar Hilir","postal_code":29564},{"province":"Riau","city":"Kuantan Singingi","district":"Pucuk Rantau","urban":"Setiang","postal_code":29564},{"province":"Riau","city":"Kuantan Singingi","district":"Kuantan Mudik","urban":"Seberang Cengar","postal_code":29564},{"province":"Riau","city":"Kuantan Singingi","district":"Kuantan Mudik","urban":"Seberang Pantai","postal_code":29564},{"province":"Riau","city":"Kuantan Singingi","district":"Kuantan Mudik","urban":"Saik","postal_code":29564},{"province":"Riau","city":"Kuantan Singingi","district":"Kuantan Mudik","urban":"Sangau","postal_code":29564},{"province":"Riau","city":"Kuantan Singingi","district":"Pucuk Rantau","urban":"Perhentian Sungkai","postal_code":29564},{"province":"Riau","city":"Kuantan Singingi","district":"Kuantan Mudik","urban":"Pulaubinjai","postal_code":29564},{"province":"Riau","city":"Kuantan Singingi","district":"Kuantan Mudik","urban":"Rantau Sialang","postal_code":29564},{"province":"Riau","city":"Kuantan Singingi","district":"Kuantan Mudik","urban":"Pebaun Hilir","postal_code":29564},{"province":"Riau","city":"Kuantan Singingi","district":"Kuantan Mudik","urban":"Pebaun Hulu","postal_code":29564},{"province":"Riau","city":"Kuantan Singingi","district":"Kuantan Mudik","urban":"Pantai","postal_code":29564},{"province":"Riau","city":"Kuantan Singingi","district":"Pucuk Rantau","urban":"Pangkalan","postal_code":29564},{"province":"Riau","city":"Kuantan Singingi","district":"Kuantan Mudik","urban":"Pasar Lubuk Jambi","postal_code":29564},{"province":"Riau","city":"Kuantan Singingi","district":"Kuantan Mudik","urban":"Muaro Tombang","postal_code":29564},{"province":"Riau","city":"Kuantan Singingi","district":"Pucuk Rantau","urban":"Muaro Tiu Makmur","postal_code":29564},{"province":"Riau","city":"Kuantan Singingi","district":"Pucuk Rantau","urban":"Muarapetai","postal_code":29564},{"province":"Riau","city":"Kuantan Singingi","district":"Pucuk Rantau","urban":"Muaratobek","postal_code":29564},{"province":"Riau","city":"Kuantan Singingi","district":"Kuantan Mudik","urban":"Luai","postal_code":29564},{"province":"Riau","city":"Kuantan Singingi","district":"Kuantan Mudik","urban":"Lubuk Ramo","postal_code":29564},{"province":"Riau","city":"Kuantan Singingi","district":"Kuantan Mudik","urban":"Kinali","postal_code":29564},{"province":"Riau","city":"Kuantan Singingi","district":"Kuantan Mudik","urban":"Koto Cengar","postal_code":29564},{"province":"Riau","city":"Kuantan Singingi","district":"Kuantan Mudik","urban":"Koto Lubuk Jambi","postal_code":29564},{"province":"Riau","city":"Kuantan Singingi","district":"Kuantan Mudik","urban":"Kasang","postal_code":29564},{"province":"Riau","city":"Kuantan Singingi","district":"Pucuk Rantau","urban":"Kampung Baru Ibul","postal_code":29564},{"province":"Riau","city":"Kuantan Singingi","district":"Kuantan Mudik","urban":"Bukitpedusunan","postal_code":29564},{"province":"Riau","city":"Kuantan Singingi","district":"Pucuk Rantau","urban":"Ibul","postal_code":29564},{"province":"Riau","city":"Kuantan Singingi","district":"Kuantan Mudik","urban":"Banjar Guntung","postal_code":29564},{"province":"Riau","city":"Kuantan Singingi","district":"Kuantan Mudik","urban":"Banjar Padang","postal_code":29564},{"province":"Riau","city":"Kuantan Singingi","district":"Kuantan Mudik","urban":"Bukit Kauman","postal_code":29564},{"province":"Riau","city":"Kuantan Singingi","district":"Kuantan Mudik","urban":"Aur Duri","postal_code":29564},{"province":"Riau","city":"Kuantan Singingi","district":"Kuantan Mudik","urban":"Air Buluh","postal_code":29564}]