[{"province":"Riau","city":"Kuantan Singingi","district":"Sentajo Raya","urban":"Teratak Air Hitam","postal_code":29566},{"province":"Riau","city":"Kuantan Singingi","district":"Benai","urban":"Ujung Tanjung","postal_code":29566},{"province":"Riau","city":"Kuantan Singingi","district":"Benai","urban":"Tanjungsimandolak","postal_code":29566},{"province":"Riau","city":"Kuantan Singingi","district":"Benai","urban":"Tebing Tinggi","postal_code":29566},{"province":"Riau","city":"Kuantan Singingi","district":"Benai","urban":"Talontom","postal_code":29566},{"province":"Riau","city":"Kuantan Singingi","district":"Hulu Kuantan","urban":"Tanjung","postal_code":29566},{"province":"Riau","city":"Kuantan Singingi","district":"Benai","urban":"Simandolak","postal_code":29566},{"province":"Riau","city":"Kuantan Singingi","district":"Benai","urban":"Pulautongah","postal_code":29566},{"province":"Riau","city":"Kuantan Singingi","district":"Benai","urban":"Siberakun","postal_code":29566},{"province":"Riau","city":"Kuantan Singingi","district":"Sentajo Raya","urban":"Seberang Teratak Air Hitam","postal_code":29566},{"province":"Riau","city":"Kuantan Singingi","district":"Benai","urban":"Pulaulancang","postal_code":29566},{"province":"Riau","city":"Kuantan Singingi","district":"Sentajo Raya","urban":"Pulaukopung Sentajo","postal_code":29566},{"province":"Riau","city":"Kuantan Singingi","district":"Benai","urban":"Pulaukalimanting","postal_code":29566},{"province":"Riau","city":"Kuantan Singingi","district":"Sentajo Raya","urban":"Pulaukomang Sentajo","postal_code":29566},{"province":"Riau","city":"Kuantan Singingi","district":"Sentajo Raya","urban":"Muaro Sentajo","postal_code":29566},{"province":"Riau","city":"Kuantan Singingi","district":"Sentajo Raya","urban":"Parit Teratak Air Hitam","postal_code":29566},{"province":"Riau","city":"Kuantan Singingi","district":"Benai","urban":"Pulauingu","postal_code":29566},{"province":"Riau","city":"Kuantan Singingi","district":"Sentajo Raya","urban":"Marsawa","postal_code":29566},{"province":"Riau","city":"Kuantan Singingi","district":"Sentajo Raya","urban":"Muara Langsat","postal_code":29566},{"province":"Riau","city":"Kuantan Singingi","district":"Sentajo Raya","urban":"Koto Sentajo","postal_code":29566},{"province":"Riau","city":"Kuantan Singingi","district":"Sentajo Raya","urban":"Langsat Hulu","postal_code":29566},{"province":"Riau","city":"Kuantan Singingi","district":"Sentajo Raya","urban":"Jalur Patah","postal_code":29566},{"province":"Riau","city":"Kuantan Singingi","district":"Sentajo Raya","urban":"Kampung Baru Sentajo","postal_code":29566},{"province":"Riau","city":"Kuantan Singingi","district":"Benai","urban":"Koto Benai","postal_code":29566},{"province":"Riau","city":"Kuantan Singingi","district":"Sentajo Raya","urban":"Geringing Baru","postal_code":29566},{"province":"Riau","city":"Kuantan Singingi","district":"Benai","urban":"Gunungkesiangan","postal_code":29566},{"province":"Riau","city":"Kuantan Singingi","district":"Sentajo Raya","urban":"Beringin Jaya","postal_code":29566},{"province":"Riau","city":"Kuantan Singingi","district":"Sentajo Raya","urban":"Geringging Jaya","postal_code":29566},{"province":"Riau","city":"Kuantan Singingi","district":"Benai","urban":"Benai","postal_code":29566},{"province":"Riau","city":"Kuantan Singingi","district":"Benai","urban":"Benai Kecil","postal_code":29566},{"province":"Riau","city":"Kuantan Singingi","district":"Benai","urban":"Banjar Benai","postal_code":29566},{"province":"Riau","city":"Kuantan Singingi","district":"Benai","urban":"Banjar Lopak","postal_code":29566}]