[{"province":"Riau","city":"Kuantan Singingi","district":"Singingi","urban":"Sungai Sirih","postal_code":29563},{"province":"Riau","city":"Kuantan Singingi","district":"Singingi Hilir","urban":"Tanjung Pauh","postal_code":29563},{"province":"Riau","city":"Kuantan Singingi","district":"Singingi","urban":"Sungai Kuning","postal_code":29563},{"province":"Riau","city":"Kuantan Singingi","district":"Singingi Hilir","urban":"Sungai Paku","postal_code":29563},{"province":"Riau","city":"Kuantan Singingi","district":"Singingi","urban":"Sungai Keranji","postal_code":29563},{"province":"Riau","city":"Kuantan Singingi","district":"Singingi Hilir","urban":"Sungai Buluh","postal_code":29563},{"province":"Riau","city":"Kuantan Singingi","district":"Singingi","urban":"Sungai Bawang","postal_code":29563},{"province":"Riau","city":"Kuantan Singingi","district":"Singingi Hilir","urban":"Sumber Jaya","postal_code":29563},{"province":"Riau","city":"Kuantan Singingi","district":"Singingi","urban":"Sumber Datar","postal_code":29563},{"province":"Riau","city":"Kuantan Singingi","district":"Singingi Hilir","urban":"Suka Damai","postal_code":29563},{"province":"Riau","city":"Kuantan Singingi","district":"Singingi Hilir","urban":"Sukamaju","postal_code":29563},{"province":"Riau","city":"Kuantan Singingi","district":"Singingi Hilir","urban":"Simpang Raya","postal_code":29563},{"province":"Riau","city":"Kuantan Singingi","district":"Singingi","urban":"Pulau Padang","postal_code":29563},{"province":"Riau","city":"Kuantan Singingi","district":"Singingi Hilir","urban":"Petai","postal_code":29563},{"province":"Riau","city":"Kuantan Singingi","district":"Singingi","urban":"Pasir Emas","postal_code":29563},{"province":"Riau","city":"Kuantan Singingi","district":"Singingi Hilir","urban":"Petai","postal_code":29563},{"province":"Riau","city":"Kuantan Singingi","district":"Singingi","urban":"Muara Lembu","postal_code":29563},{"province":"Riau","city":"Kuantan Singingi","district":"Singingi","urban":"Pangkalan Indarung","postal_code":29563},{"province":"Riau","city":"Kuantan Singingi","district":"Singingi Hilir","urban":"Muara Bahan","postal_code":29563},{"province":"Riau","city":"Kuantan Singingi","district":"Singingi","urban":"Logas Hilir","postal_code":29563},{"province":"Riau","city":"Kuantan Singingi","district":"Singingi Hilir","urban":"Koto Baru","postal_code":29563},{"province":"Riau","city":"Kuantan Singingi","district":"Singingi","urban":"Kebun Lado","postal_code":29563},{"province":"Riau","city":"Kuantan Singingi","district":"Singingi","urban":"Logas","postal_code":29563},{"province":"Riau","city":"Kuantan Singingi","district":"Singingi Hilir","urban":"Beringin Jaya","postal_code":29563},{"province":"Riau","city":"Kuantan Singingi","district":"Singingi Hilir","urban":"Bukit Raya","postal_code":29563},{"province":"Riau","city":"Kuantan Singingi","district":"Singingi","urban":"Air Mas/Emas","postal_code":29563}]