[{"province":"Kepulauan Riau","city":"Karimun","district":"Kundur Utara","urban":"Teluk Radang","postal_code":29662},{"province":"Kepulauan Riau","city":"Karimun","district":"Kundur Utara","urban":"Tanjung Berlian Kota (Urung)","postal_code":29662},{"province":"Kepulauan Riau","city":"Karimun","district":"Belat","urban":"Tebias","postal_code":29662},{"province":"Kepulauan Riau","city":"Karimun","district":"Kundur Utara","urban":"Tanjung Berlian Barat (Urung Barat)","postal_code":29662},{"province":"Kepulauan Riau","city":"Karimun","district":"Kundur","urban":"Tanjung Batu Barat","postal_code":29662},{"province":"Kepulauan Riau","city":"Karimun","district":"Kundur","urban":"Tanjung Batu Kota","postal_code":29662},{"province":"Kepulauan Riau","city":"Karimun","district":"Ungar","urban":"Sungai Buluh","postal_code":29662},{"province":"Kepulauan Riau","city":"Karimun","district":"Kundur Utara","urban":"Sei/Sungai Ungar Utara","postal_code":29662},{"province":"Kepulauan Riau","city":"Karimun","district":"Kundur","urban":"Sei/Sungai Ungar","postal_code":29662},{"province":"Kepulauan Riau","city":"Karimun","district":"Belat","urban":"Sei/Sungai Asam","postal_code":29662},{"province":"Kepulauan Riau","city":"Karimun","district":"Kundur","urban":"Sebesi (Sei Sebesi)","postal_code":29662},{"province":"Kepulauan Riau","city":"Karimun","district":"Kundur Barat","urban":"Sawang Selatan","postal_code":29662},{"province":"Kepulauan Riau","city":"Karimun","district":"Belat","urban":"Sebele","postal_code":29662},{"province":"Kepulauan Riau","city":"Karimun","district":"Kundur Barat","urban":"Sawang","postal_code":29662},{"province":"Kepulauan Riau","city":"Karimun","district":"Kundur Barat","urban":"Sawang Laut","postal_code":29662},{"province":"Kepulauan Riau","city":"Karimun","district":"Kundur Utara","urban":"Perayun","postal_code":29662},{"province":"Kepulauan Riau","city":"Karimun","district":"Belat","urban":"Penarah","postal_code":29662},{"province":"Kepulauan Riau","city":"Karimun","district":"Ungar","urban":"Ngal","postal_code":29662},{"province":"Kepulauan Riau","city":"Karimun","district":"Belat","urban":"Lebuh","postal_code":29662},{"province":"Kepulauan Riau","city":"Karimun","district":"Kundur","urban":"Lubuk","postal_code":29662},{"province":"Kepulauan Riau","city":"Karimun","district":"Kundur Barat","urban":"Kundur","postal_code":29662},{"province":"Kepulauan Riau","city":"Karimun","district":"Kundur","urban":"Gading Sari","postal_code":29662},{"province":"Kepulauan Riau","city":"Karimun","district":"Kundur Barat","urban":"Gemuruh","postal_code":29662},{"province":"Kepulauan Riau","city":"Karimun","district":"Belat","urban":"Degong","postal_code":29662},{"province":"Kepulauan Riau","city":"Karimun","district":"Ungar","urban":"Batu Limau","postal_code":29662},{"province":"Kepulauan Riau","city":"Karimun","district":"Ungar","urban":"Alai","postal_code":29662}]