[{"province":"Kepulauan Riau","city":"Karimun","district":"Tebing","urban":"Tebing","postal_code":29663},{"province":"Kepulauan Riau","city":"Karimun","district":"Tebing","urban":"Teluk Uma","postal_code":29663},{"province":"Kepulauan Riau","city":"Karimun","district":"Moro","urban":"Sugie","postal_code":29663},{"province":"Kepulauan Riau","city":"Karimun","district":"Moro","urban":"Tanjung Pelanduk","postal_code":29663},{"province":"Kepulauan Riau","city":"Karimun","district":"Moro","urban":"Selat Mie","postal_code":29663},{"province":"Kepulauan Riau","city":"Karimun","district":"Moro","urban":"Pulaumoro","postal_code":29663},{"province":"Kepulauan Riau","city":"Karimun","district":"Moro","urban":"Rawajaya","postal_code":29663},{"province":"Kepulauan Riau","city":"Karimun","district":"Tebing","urban":"Pongkar","postal_code":29663},{"province":"Kepulauan Riau","city":"Karimun","district":"Moro","urban":"Pauh","postal_code":29663},{"province":"Kepulauan Riau","city":"Karimun","district":"Tebing","urban":"Pamak","postal_code":29663},{"province":"Kepulauan Riau","city":"Karimun","district":"Moro","urban":"Moro Timur","postal_code":29663},{"province":"Kepulauan Riau","city":"Karimun","district":"Moro","urban":"Niur Permai","postal_code":29663},{"province":"Kepulauan Riau","city":"Karimun","district":"Moro","urban":"Keban","postal_code":29663},{"province":"Kepulauan Riau","city":"Karimun","district":"Moro","urban":"Moro","postal_code":29663},{"province":"Kepulauan Riau","city":"Karimun","district":"Tebing","urban":"Kapling","postal_code":29663},{"province":"Kepulauan Riau","city":"Karimun","district":"Tebing","urban":"Harjosari","postal_code":29663},{"province":"Kepulauan Riau","city":"Karimun","district":"Moro","urban":"Jang (Pulau Jang)","postal_code":29663},{"province":"Kepulauan Riau","city":"Karimun","district":"Moro","urban":"Buluh Patah","postal_code":29663}]