[{"province":"Kepulauan Riau","city":"Karimun","district":"Durai","urban":"Tanjung Kilang","postal_code":29664},{"province":"Kepulauan Riau","city":"Karimun","district":"Meral","urban":"Sungai Pasir","postal_code":29664},{"province":"Kepulauan Riau","city":"Karimun","district":"Buru","urban":"Tanjung Batu Kecil","postal_code":29664},{"province":"Kepulauan Riau","city":"Karimun","district":"Buru","urban":"Tanjung Hutan","postal_code":29664},{"province":"Kepulauan Riau","city":"Karimun","district":"Meral","urban":"Sei/Sungai Raya","postal_code":29664},{"province":"Kepulauan Riau","city":"Karimun","district":"Durai","urban":"Simembang (Semembang)","postal_code":29664},{"province":"Kepulauan Riau","city":"Karimun","district":"Meral","urban":"Pasir Benut","postal_code":29664},{"province":"Kepulauan Riau","city":"Karimun","district":"Meral Barat","urban":"Pasir Panjang","postal_code":29664},{"province":"Kepulauan Riau","city":"Karimun","district":"Durai","urban":"Sanglar","postal_code":29664},{"province":"Kepulauan Riau","city":"Karimun","district":"Meral Barat","urban":"Pangke","postal_code":29664},{"province":"Kepulauan Riau","city":"Karimun","district":"Meral Barat","urban":"Pangke Barat","postal_code":29664},{"province":"Kepulauan Riau","city":"Karimun","district":"Buru","urban":"Lubuk Puding","postal_code":29664},{"province":"Kepulauan Riau","city":"Karimun","district":"Meral","urban":"Meral Kota","postal_code":29664},{"province":"Kepulauan Riau","city":"Karimun","district":"Meral Barat","urban":"Darussalam","postal_code":29664},{"province":"Kepulauan Riau","city":"Karimun","district":"Durai","urban":"Durai","postal_code":29664},{"province":"Kepulauan Riau","city":"Karimun","district":"Buru","urban":"Buru","postal_code":29664},{"province":"Kepulauan Riau","city":"Karimun","district":"Meral","urban":"Baran Barat","postal_code":29664},{"province":"Kepulauan Riau","city":"Karimun","district":"Meral","urban":"Baran Timur","postal_code":29664}]