[{"province":"Kepulauan Riau","city":"Kepulauan Anambas","district":"Siantan Tengah","urban":"Teluk Sunting","postal_code":29783},{"province":"Kepulauan Riau","city":"Kepulauan Anambas","district":"Siantan Tengah","urban":"Teluk Siantan","postal_code":29783},{"province":"Kepulauan Riau","city":"Kepulauan Anambas","district":"Palmatak","urban":"Tebang","postal_code":29783},{"province":"Kepulauan Riau","city":"Kepulauan Anambas","district":"Palmatak","urban":"Teluk Bayur","postal_code":29783},{"province":"Kepulauan Riau","city":"Kepulauan Anambas","district":"Palmatak","urban":"Putik","postal_code":29783},{"province":"Kepulauan Riau","city":"Kepulauan Anambas","district":"Palmatak","urban":"Piasan","postal_code":29783},{"province":"Kepulauan Riau","city":"Kepulauan Anambas","district":"Palmatak","urban":"Piabung","postal_code":29783},{"province":"Kepulauan Riau","city":"Kepulauan Anambas","district":"Palmatak","urban":"Mubur","postal_code":29783},{"province":"Kepulauan Riau","city":"Kepulauan Anambas","district":"Palmatak","urban":"Payalaman","postal_code":29783},{"province":"Kepulauan Riau","city":"Kepulauan Anambas","district":"Palmatak","urban":"Payamaram","postal_code":29783},{"province":"Kepulauan Riau","city":"Kepulauan Anambas","district":"Siantan Tengah","urban":"Liuk","postal_code":29783},{"province":"Kepulauan Riau","city":"Kepulauan Anambas","district":"Palmatak","urban":"Matak","postal_code":29783},{"province":"Kepulauan Riau","city":"Kepulauan Anambas","district":"Siantan Tengah","urban":"Lidi","postal_code":29783},{"province":"Kepulauan Riau","city":"Kepulauan Anambas","district":"Palmatak","urban":"Ladan","postal_code":29783},{"province":"Kepulauan Riau","city":"Kepulauan Anambas","district":"Palmatak","urban":"Langir","postal_code":29783},{"province":"Kepulauan Riau","city":"Kepulauan Anambas","district":"Palmatak","urban":"Belibak","postal_code":29783},{"province":"Kepulauan Riau","city":"Kepulauan Anambas","district":"Palmatak","urban":"Candi","postal_code":29783},{"province":"Kepulauan Riau","city":"Kepulauan Anambas","district":"Palmatak","urban":"Bayat","postal_code":29783},{"province":"Kepulauan Riau","city":"Kepulauan Anambas","district":"Palmatak","urban":"Batu Ampar","postal_code":29783},{"province":"Kepulauan Riau","city":"Kepulauan Anambas","district":"Siantan Tengah","urban":"Air Sena","postal_code":29783},{"province":"Kepulauan Riau","city":"Kepulauan Anambas","district":"Siantan Tengah","urban":"Air Asuk","postal_code":29783},{"province":"Kepulauan Riau","city":"Natuna","district":"Bunguran Utara","urban":"Teluk Buton","postal_code":29783},{"province":"Kepulauan Riau","city":"Natuna","district":"Pulau Tiga","urban":"Teluk Labuh","postal_code":29783},{"province":"Kepulauan Riau","city":"Natuna","district":"Bunguran Tengah","urban":"Tapau","postal_code":29783},{"province":"Kepulauan Riau","city":"Natuna","district":"Pulau Laut","urban":"Tanjung Pala","postal_code":29783},{"province":"Kepulauan Riau","city":"Natuna","district":"Pulau Tiga","urban":"Tanjung Kumbik Utara","postal_code":29783},{"province":"Kepulauan Riau","city":"Natuna","district":"Pulau Tiga","urban":"Tanjung Batang","postal_code":29783},{"province":"Kepulauan Riau","city":"Natuna","district":"Bunguran Timur Laut","urban":"Tanjung","postal_code":29783},{"province":"Kepulauan Riau","city":"Natuna","district":"Pulau Tiga","urban":"Setumuk","postal_code":29783},{"province":"Kepulauan Riau","city":"Natuna","district":"Bunguran Timur","urban":"Sungai Ulu","postal_code":29783},{"province":"Kepulauan Riau","city":"Natuna","district":"Pulau Tiga","urban":"Serantas","postal_code":29783},{"province":"Kepulauan Riau","city":"Natuna","district":"Bunguran Timur","urban":"Sepempang","postal_code":29783},{"province":"Kepulauan Riau","city":"Natuna","district":"Bunguran Utara","urban":"Seluan Barat","postal_code":29783},{"province":"Kepulauan Riau","city":"Natuna","district":"Bunguran Timur Laut","urban":"Seleman","postal_code":29783},{"province":"Kepulauan Riau","city":"Natuna","district":"Pulau Tiga","urban":"Sededap","postal_code":29783},{"province":"Kepulauan Riau","city":"Natuna","district":"Pulau Tiga","urban":"Selading","postal_code":29783},{"province":"Kepulauan Riau","city":"Natuna","district":"Pulau Tiga","urban":"Sabang Mawang Barat","postal_code":29783},{"province":"Kepulauan Riau","city":"Natuna","district":"Pulau Tiga","urban":"Sabang Mawang Barat","postal_code":29783},{"province":"Kepulauan Riau","city":"Natuna","district":"Bunguran Timur","urban":"Ranai Kota","postal_code":29783},{"province":"Kepulauan Riau","city":"Natuna","district":"Pulau Tiga","urban":"Sabang Mawang","postal_code":29783},{"province":"Kepulauan Riau","city":"Natuna","district":"Bunguran Timur","urban":"Ranai Darat","postal_code":29783},{"province":"Kepulauan Riau","city":"Natuna","district":"Pulau Tiga","urban":"Pulau Tiga","postal_code":29783},{"province":"Kepulauan Riau","city":"Natuna","district":"Bunguran Timur Laut","urban":"Pengadah","postal_code":29783},{"province":"Kepulauan Riau","city":"Natuna","district":"Bunguran Timur Laut","urban":"Limau Manis","postal_code":29783},{"province":"Kepulauan Riau","city":"Natuna","district":"Bunguran Utara","urban":"Kelarik Barat","postal_code":29783},{"province":"Kepulauan Riau","city":"Natuna","district":"Bunguran Utara","urban":"Kelarik Utara","postal_code":29783},{"province":"Kepulauan Riau","city":"Natuna","district":"Bunguran Timur Laut","urban":"Kelanga","postal_code":29783},{"province":"Kepulauan Riau","city":"Natuna","district":"Bunguran Utara","urban":"Kelarik","postal_code":29783},{"province":"Kepulauan Riau","city":"Natuna","district":"Bunguran Utara","urban":"Kelarik Air Mali","postal_code":29783},{"province":"Kepulauan Riau","city":"Natuna","district":"Pulau Laut","urban":"Kadur","postal_code":29783},{"province":"Kepulauan Riau","city":"Natuna","district":"Bunguran Tengah","urban":"Harapan Jaya","postal_code":29783},{"province":"Kepulauan Riau","city":"Natuna","district":"Bunguran Timur Laut","urban":"Ceruk","postal_code":29783},{"province":"Kepulauan Riau","city":"Natuna","district":"Bunguran Utara","urban":"Gunung Durian","postal_code":29783},{"province":"Kepulauan Riau","city":"Natuna","district":"Bunguran Selatan","urban":"Cemaga Selatan (Setegar)","postal_code":29783},{"province":"Kepulauan Riau","city":"Natuna","district":"Bunguran Selatan","urban":"Cemaga Tengah","postal_code":29783},{"province":"Kepulauan Riau","city":"Natuna","district":"Bunguran Selatan","urban":"Cemaga Utara (Singgang Bbulan)","postal_code":29783},{"province":"Kepulauan Riau","city":"Natuna","district":"Bunguran Selatan","urban":"Cemaga","postal_code":29783},{"province":"Kepulauan Riau","city":"Natuna","district":"Bunguran Utara","urban":"Belakang Gunung","postal_code":29783},{"province":"Kepulauan Riau","city":"Natuna","district":"Bunguran Timur","urban":"Batu Gajah","postal_code":29783},{"province":"Kepulauan Riau","city":"Natuna","district":"Bunguran Timur","urban":"Bandarsyah","postal_code":29783},{"province":"Kepulauan Riau","city":"Natuna","district":"Pulau Laut","urban":"Air Payang","postal_code":29783},{"province":"Kepulauan Riau","city":"Natuna","district":"Pulau Laut","urban":"Air Payang","postal_code":29783}]