[{"province":"Kepulauan Riau","city":"Natuna","district":"Bunguran Barat","urban":"Selaut","postal_code":29782},{"province":"Kepulauan Riau","city":"Natuna","district":"Bunguran Barat","urban":"Semedang","postal_code":29782},{"province":"Kepulauan Riau","city":"Natuna","district":"Bunguran Barat","urban":"Sedanau Timur","postal_code":29782},{"province":"Kepulauan Riau","city":"Natuna","district":"Bunguran Barat","urban":"Sedarat Baru","postal_code":29782},{"province":"Kepulauan Riau","city":"Natuna","district":"Bunguran Barat","urban":"Pian Tengah","postal_code":29782},{"province":"Kepulauan Riau","city":"Natuna","district":"Bunguran Barat","urban":"Sedanau","postal_code":29782},{"province":"Kepulauan Riau","city":"Natuna","district":"Bunguran Barat","urban":"Gunung Putri","postal_code":29782},{"province":"Kepulauan Riau","city":"Natuna","district":"Bunguran Barat","urban":"Mekar Jaya","postal_code":29782},{"province":"Kepulauan Riau","city":"Natuna","district":"Bunguran Barat","urban":"Batubi Jaya","postal_code":29782},{"province":"Kepulauan Riau","city":"Natuna","district":"Bunguran Barat","urban":"Binjai","postal_code":29782}]