[{"province":"Kepulauan Riau","city":"Natuna","district":"Subi","urban":"Terayak","postal_code":29781},{"province":"Kepulauan Riau","city":"Natuna","district":"Serasan","urban":"Tanjung Setelung","postal_code":29781},{"province":"Kepulauan Riau","city":"Natuna","district":"Subi","urban":"Subi Besar Timur","postal_code":29781},{"province":"Kepulauan Riau","city":"Natuna","district":"Serasan","urban":"Tanjung Balau","postal_code":29781},{"province":"Kepulauan Riau","city":"Natuna","district":"Subi","urban":"Subi Besar","postal_code":29781},{"province":"Kepulauan Riau","city":"Natuna","district":"Subi","urban":"Subi","postal_code":29781},{"province":"Kepulauan Riau","city":"Natuna","district":"Serasan","urban":"Serasan","postal_code":29781},{"province":"Kepulauan Riau","city":"Natuna","district":"Subi","urban":"Pulau Panjang","postal_code":29781},{"province":"Kepulauan Riau","city":"Natuna","district":"Serasan Timur","urban":"Payak (Harapan Baru)","postal_code":29781},{"province":"Kepulauan Riau","city":"Natuna","district":"Subi","urban":"Pulau Kerdau","postal_code":29781},{"province":"Kepulauan Riau","city":"Natuna","district":"Serasan","urban":"Pangkalan","postal_code":29781},{"province":"Kepulauan Riau","city":"Natuna","district":"Subi","urban":"Meliah","postal_code":29781},{"province":"Kepulauan Riau","city":"Natuna","district":"Subi","urban":"Meliah Selatan","postal_code":29781},{"province":"Kepulauan Riau","city":"Natuna","district":"Serasan","urban":"Kampung Hilir","postal_code":29781},{"province":"Kepulauan Riau","city":"Natuna","district":"Serasan Timur","urban":"Arung Ayam","postal_code":29781},{"province":"Kepulauan Riau","city":"Natuna","district":"Serasan","urban":"Batu Berian","postal_code":29781},{"province":"Kepulauan Riau","city":"Natuna","district":"Serasan","urban":"Jernalik","postal_code":29781},{"province":"Kepulauan Riau","city":"Natuna","district":"Serasan Timur","urban":"Air Ringau","postal_code":29781},{"province":"Kepulauan Riau","city":"Natuna","district":"Serasan Timur","urban":"Air Nusa","postal_code":29781}]