[{"province":"Kepulauan Riau","city":"Kepulauan Anambas","district":"Siantan Selatan","urban":"Tiangau","postal_code":29791},{"province":"Kepulauan Riau","city":"Kepulauan Anambas","district":"Siantan","urban":"Tiangau","postal_code":29791},{"province":"Kepulauan Riau","city":"Kepulauan Anambas","district":"Siantan Selatan","urban":"Telaga Kecil","postal_code":29791},{"province":"Kepulauan Riau","city":"Kepulauan Anambas","district":"Siantan Timur","urban":"Temburun","postal_code":29791},{"province":"Kepulauan Riau","city":"Kepulauan Anambas","district":"Siantan Selatan","urban":"Telaga","postal_code":29791},{"province":"Kepulauan Riau","city":"Kepulauan Anambas","district":"Siantan","urban":"Tarempa Selatan","postal_code":29791},{"province":"Kepulauan Riau","city":"Kepulauan Anambas","district":"Siantan","urban":"Tarempa Barat Daya","postal_code":29791},{"province":"Kepulauan Riau","city":"Kepulauan Anambas","district":"Siantan","urban":"Tarempa","postal_code":29791},{"province":"Kepulauan Riau","city":"Kepulauan Anambas","district":"Siantan","urban":"Tarempa Barat","postal_code":29791},{"province":"Kepulauan Riau","city":"Kepulauan Anambas","district":"Siantan Timur","urban":"Nyamuk","postal_code":29791},{"province":"Kepulauan Riau","city":"Kepulauan Anambas","district":"Siantan Timur","urban":"Serat","postal_code":29791},{"province":"Kepulauan Riau","city":"Kepulauan Anambas","district":"Siantan","urban":"Sri Tanjung","postal_code":29791},{"province":"Kepulauan Riau","city":"Kepulauan Anambas","district":"Siantan Timur","urban":"Munjan","postal_code":29791},{"province":"Kepulauan Riau","city":"Kepulauan Anambas","district":"Siantan","urban":"Munjan","postal_code":29791},{"province":"Kepulauan Riau","city":"Kepulauan Anambas","district":"Siantan Selatan","urban":"Linga","postal_code":29791},{"province":"Kepulauan Riau","city":"Kepulauan Anambas","district":"Siantan Selatan","urban":"Mengkait","postal_code":29791},{"province":"Kepulauan Riau","city":"Kepulauan Anambas","district":"Siantan Selatan","urban":"Kiabu","postal_code":29791},{"province":"Kepulauan Riau","city":"Kepulauan Anambas","district":"Siantan Timur","urban":"Air Putih","postal_code":29791},{"province":"Kepulauan Riau","city":"Kepulauan Anambas","district":"Siantan Timur","urban":"Batu Belah","postal_code":29791},{"province":"Kepulauan Riau","city":"Kepulauan Anambas","district":"Siantan Selatan","urban":"Air Bini","postal_code":29791}]