[{"province":"Kepulauan Riau","city":"Kepulauan Anambas","district":"Jemaja Timur","urban":"Ulu Maras","postal_code":29792},{"province":"Kepulauan Riau","city":"Kepulauan Anambas","district":"Jemaja","urban":"Rewak","postal_code":29792},{"province":"Kepulauan Riau","city":"Kepulauan Anambas","district":"Jemaja","urban":"Sunggak","postal_code":29792},{"province":"Kepulauan Riau","city":"Kepulauan Anambas","district":"Jemaja","urban":"Mampok","postal_code":29792},{"province":"Kepulauan Riau","city":"Kepulauan Anambas","district":"Jemaja","urban":"Letung","postal_code":29792},{"province":"Kepulauan Riau","city":"Kepulauan Anambas","district":"Jemaja","urban":"Landak","postal_code":29792},{"province":"Kepulauan Riau","city":"Kepulauan Anambas","district":"Jemaja Timur","urban":"Kuala Maras","postal_code":29792},{"province":"Kepulauan Riau","city":"Kepulauan Anambas","district":"Jemaja","urban":"Keramut","postal_code":29792},{"province":"Kepulauan Riau","city":"Kepulauan Anambas","district":"Jemaja","urban":"Impol","postal_code":29792},{"province":"Kepulauan Riau","city":"Kepulauan Anambas","district":"Jemaja Timur","urban":"Genting Pulur","postal_code":29792},{"province":"Kepulauan Riau","city":"Kepulauan Anambas","district":"Jemaja Timur","urban":"Bukit Padi","postal_code":29792},{"province":"Kepulauan Riau","city":"Kepulauan Anambas","district":"Jemaja","urban":"Batu Berapit","postal_code":29792},{"province":"Kepulauan Riau","city":"Kepulauan Anambas","district":"Jemaja","urban":"Air Biru","postal_code":29792}]