[{"province":"Kepulauan Riau","city":"Lingga","district":"Selayar","urban":"Selayar","postal_code":29872},{"province":"Kepulauan Riau","city":"Lingga","district":"Lingga Timur","urban":"Sei/Sungai Pinang","postal_code":29872},{"province":"Kepulauan Riau","city":"Lingga","district":"Selayar","urban":"Penuba","postal_code":29872},{"province":"Kepulauan Riau","city":"Lingga","district":"Selayar","urban":"Penuba Timur","postal_code":29872},{"province":"Kepulauan Riau","city":"Lingga","district":"Lingga","urban":"Pekajang","postal_code":29872},{"province":"Kepulauan Riau","city":"Lingga","district":"Lingga Timur","urban":"Pekaka","postal_code":29872},{"province":"Kepulauan Riau","city":"Lingga","district":"Lingga","urban":"Panggak Laut","postal_code":29872},{"province":"Kepulauan Riau","city":"Lingga","district":"Selayar","urban":"Pantai Harapan","postal_code":29872},{"province":"Kepulauan Riau","city":"Lingga","district":"Lingga","urban":"Nerekeh","postal_code":29872},{"province":"Kepulauan Riau","city":"Lingga","district":"Lingga","urban":"Panggak Darat","postal_code":29872},{"province":"Kepulauan Riau","city":"Lingga","district":"Lingga","urban":"Mepar","postal_code":29872},{"province":"Kepulauan Riau","city":"Lingga","district":"Lingga","urban":"Merawang","postal_code":29872},{"province":"Kepulauan Riau","city":"Lingga","district":"Lingga","urban":"Musai","postal_code":29872},{"province":"Kepulauan Riau","city":"Lingga","district":"Lingga Timur","urban":"Kudung","postal_code":29872},{"province":"Kepulauan Riau","city":"Lingga","district":"Lingga Timur","urban":"Kudung","postal_code":29872},{"province":"Kepulauan Riau","city":"Lingga","district":"Lingga Timur","urban":"Keton","postal_code":29872},{"province":"Kepulauan Riau","city":"Lingga","district":"Lingga","urban":"Kelumu","postal_code":29872},{"province":"Kepulauan Riau","city":"Lingga","district":"Lingga Timur","urban":"Kerandin","postal_code":29872},{"province":"Kepulauan Riau","city":"Lingga","district":"Lingga","urban":"Kelombok","postal_code":29872},{"province":"Kepulauan Riau","city":"Lingga","district":"Lingga","urban":"Daik","postal_code":29872},{"province":"Kepulauan Riau","city":"Lingga","district":"Lingga Timur","urban":"Bukit Langkap","postal_code":29872}]