[{"province":"Kepulauan Riau","city":"Lingga","district":"Lingga Utara","urban":"Teluk","postal_code":29874},{"province":"Kepulauan Riau","city":"Lingga","district":"Lingga Utara","urban":"Sekanah","postal_code":29874},{"province":"Kepulauan Riau","city":"Lingga","district":"Lingga Utara","urban":"Sungai Besar","postal_code":29874},{"province":"Kepulauan Riau","city":"Lingga","district":"Lingga Utara","urban":"Resun","postal_code":29874},{"province":"Kepulauan Riau","city":"Lingga","district":"Lingga Utara","urban":"Resun Pesisir","postal_code":29874},{"province":"Kepulauan Riau","city":"Lingga","district":"Lingga Utara","urban":"Linau","postal_code":29874},{"province":"Kepulauan Riau","city":"Lingga","district":"Lingga Utara","urban":"Pancur","postal_code":29874},{"province":"Kepulauan Riau","city":"Lingga","district":"Lingga Utara","urban":"Rantau Panjang","postal_code":29874},{"province":"Kepulauan Riau","city":"Lingga","district":"Lingga Utara","urban":"Duara","postal_code":29874},{"province":"Kepulauan Riau","city":"Lingga","district":"Lingga Utara","urban":"Limbung","postal_code":29874},{"province":"Kepulauan Riau","city":"Lingga","district":"Lingga Utara","urban":"Belungkur","postal_code":29874},{"province":"Kepulauan Riau","city":"Lingga","district":"Lingga Utara","urban":"Bukit Harapan","postal_code":29874}]