[{"province":"Kepulauan Riau","city":"Lingga","district":"Singkep","urban":"Sungai Lumpur","postal_code":29871},{"province":"Kepulauan Riau","city":"Lingga","district":"Singkep","urban":"Tanjung Harapan","postal_code":29871},{"province":"Kepulauan Riau","city":"Lingga","district":"Singkep Pesisir","urban":"Sedamai","postal_code":29871},{"province":"Kepulauan Riau","city":"Lingga","district":"Singkep Pesisir","urban":"Pelakak","postal_code":29871},{"province":"Kepulauan Riau","city":"Lingga","district":"Singkep Pesisir","urban":"Persing","postal_code":29871},{"province":"Kepulauan Riau","city":"Lingga","district":"Singkep","urban":"Marok Kecil","postal_code":29871},{"province":"Kepulauan Riau","city":"Lingga","district":"Singkep Pesisir","urban":"Lanjut","postal_code":29871},{"province":"Kepulauan Riau","city":"Lingga","district":"Singkep Pesisir","urban":"Kota/Kote","postal_code":29871},{"province":"Kepulauan Riau","city":"Lingga","district":"Singkep","urban":"Dabo","postal_code":29871},{"province":"Kepulauan Riau","city":"Lingga","district":"Singkep","urban":"Dabo Lama","postal_code":29871},{"province":"Kepulauan Riau","city":"Lingga","district":"Singkep Pesisir","urban":"Berindat","postal_code":29871},{"province":"Kepulauan Riau","city":"Lingga","district":"Singkep","urban":"Berhala","postal_code":29871},{"province":"Kepulauan Riau","city":"Lingga","district":"Singkep","urban":"Batu Karang","postal_code":29871},{"province":"Kepulauan Riau","city":"Lingga","district":"Singkep","urban":"Batu Berdaun","postal_code":29871}]