[{"province":"Kepulauan Riau","city":"Lingga","district":"Singkep Barat","urban":"Tinjul","postal_code":29875},{"province":"Kepulauan Riau","city":"Lingga","district":"Singkep Barat","urban":"Sungai Harapan","postal_code":29875},{"province":"Kepulauan Riau","city":"Lingga","district":"Singkep Barat","urban":"Sungai Raya","postal_code":29875},{"province":"Kepulauan Riau","city":"Lingga","district":"Singkep Barat","urban":"Tanjung Irat","postal_code":29875},{"province":"Kepulauan Riau","city":"Lingga","district":"Singkep Barat","urban":"Suak Buaya","postal_code":29875},{"province":"Kepulauan Riau","city":"Lingga","district":"Singkep Barat","urban":"Sungai Buluh","postal_code":29875},{"province":"Kepulauan Riau","city":"Lingga","district":"Singkep Barat","urban":"Marok Tua","postal_code":29875},{"province":"Kepulauan Riau","city":"Lingga","district":"Singkep Barat","urban":"Posek","postal_code":29875},{"province":"Kepulauan Riau","city":"Lingga","district":"Singkep Barat","urban":"Raya","postal_code":29875},{"province":"Kepulauan Riau","city":"Lingga","district":"Singkep Barat","urban":"Kuala Raya","postal_code":29875},{"province":"Kepulauan Riau","city":"Lingga","district":"Singkep Barat","urban":"Langkap","postal_code":29875},{"province":"Kepulauan Riau","city":"Lingga","district":"Singkep Barat","urban":"Bukit Belah","postal_code":29875},{"province":"Kepulauan Riau","city":"Lingga","district":"Singkep Barat","urban":"Busung Panjang","postal_code":29875},{"province":"Kepulauan Riau","city":"Lingga","district":"Singkep Barat","urban":"Jaqoh","postal_code":29875},{"province":"Kepulauan Riau","city":"Lingga","district":"Singkep Barat","urban":"Bakong","postal_code":29875}]