[{"province":"Sumatera Selatan","city":"Ogan Komering Ilir","district":"Lempuing","urban":"Tugumulyo","postal_code":30657},{"province":"Sumatera Selatan","city":"Ogan Komering Ilir","district":"Lempuing","urban":"Tulung Harapan","postal_code":30657},{"province":"Sumatera Selatan","city":"Ogan Komering Ilir","district":"Lempuing","urban":"Tugu Jaya","postal_code":30657},{"province":"Sumatera Selatan","city":"Ogan Komering Ilir","district":"Lempuing","urban":"Tugu Agung","postal_code":30657},{"province":"Sumatera Selatan","city":"Ogan Komering Ilir","district":"Lempuing","urban":"Tebing Suluh","postal_code":30657},{"province":"Sumatera Selatan","city":"Ogan Komering Ilir","district":"Lempuing Jaya","urban":"Tanjung Sari II","postal_code":30657},{"province":"Sumatera Selatan","city":"Ogan Komering Ilir","district":"Lempuing Jaya","urban":"Tanjung Sari I","postal_code":30657},{"province":"Sumatera Selatan","city":"Ogan Komering Ilir","district":"Lempuing Jaya","urban":"Tania Makmur","postal_code":30657},{"province":"Sumatera Selatan","city":"Ogan Komering Ilir","district":"Lempuing","urban":"Sumber Agung","postal_code":30657},{"province":"Sumatera Selatan","city":"Ogan Komering Ilir","district":"Lempuing Jaya","urban":"Sungai Belida","postal_code":30657},{"province":"Sumatera Selatan","city":"Ogan Komering Ilir","district":"Lempuing","urban":"Sukamulya","postal_code":30657},{"province":"Sumatera Selatan","city":"Ogan Komering Ilir","district":"Lempuing Jaya","urban":"Suka Jaya","postal_code":30657},{"province":"Sumatera Selatan","city":"Ogan Komering Ilir","district":"Lempuing Jaya","urban":"Suka Maju","postal_code":30657},{"province":"Sumatera Selatan","city":"Ogan Komering Ilir","district":"Lempuing","urban":"Sindang Sari","postal_code":30657},{"province":"Sumatera Selatan","city":"Ogan Komering Ilir","district":"Lempuing Jaya","urban":"Rantau Durian II","postal_code":30657},{"province":"Sumatera Selatan","city":"Ogan Komering Ilir","district":"Lempuing Jaya","urban":"Purwo Asri","postal_code":30657},{"province":"Sumatera Selatan","city":"Ogan Komering Ilir","district":"Lempuing Jaya","urban":"Rantau Durian I","postal_code":30657},{"province":"Sumatera Selatan","city":"Ogan Komering Ilir","district":"Lempuing Jaya","urban":"Muara Burnai I","postal_code":30657},{"province":"Sumatera Selatan","city":"Ogan Komering Ilir","district":"Lempuing Jaya","urban":"Muara Burnai II","postal_code":30657},{"province":"Sumatera Selatan","city":"Ogan Komering Ilir","district":"Lempuing Jaya","urban":"Mukti Sari","postal_code":30657},{"province":"Sumatera Selatan","city":"Ogan Komering Ilir","district":"Lempuing Jaya","urban":"Lubuk Makmur","postal_code":30657},{"province":"Sumatera Selatan","city":"Ogan Komering Ilir","district":"Lempuing Jaya","urban":"Lubuk Seberuk","postal_code":30657},{"province":"Sumatera Selatan","city":"Ogan Komering Ilir","district":"Lempuing","urban":"Mekar Jaya","postal_code":30657},{"province":"Sumatera Selatan","city":"Ogan Komering Ilir","district":"Lempuing Jaya","urban":"Lempuing Indah","postal_code":30657},{"province":"Sumatera Selatan","city":"Ogan Komering Ilir","district":"Lempuing","urban":"Kepahyang","postal_code":30657},{"province":"Sumatera Selatan","city":"Ogan Komering Ilir","district":"Lempuing","urban":"Kuta Pandan","postal_code":30657},{"province":"Sumatera Selatan","city":"Ogan Komering Ilir","district":"Lempuing","urban":"Dabuk Rejo","postal_code":30657},{"province":"Sumatera Selatan","city":"Ogan Komering Ilir","district":"Lempuing","urban":"Cahya Bumi","postal_code":30657},{"province":"Sumatera Selatan","city":"Ogan Komering Ilir","district":"Lempuing","urban":"Cahya Maju","postal_code":30657},{"province":"Sumatera Selatan","city":"Ogan Komering Ilir","district":"Lempuing","urban":"Bumi Agung","postal_code":30657},{"province":"Sumatera Selatan","city":"Ogan Komering Ilir","district":"Lempuing","urban":"Bumi Arjo","postal_code":30657}]