[{"province":"Sumatera Selatan","city":"Ogan Komering Ilir","district":"Jejawi","urban":"Ulak Tembaga","postal_code":30652},{"province":"Sumatera Selatan","city":"Ogan Komering Ilir","district":"Sirah Pulau Padang","urban":"Terusan Menang","postal_code":30652},{"province":"Sumatera Selatan","city":"Ogan Komering Ilir","district":"Sirah Pulau Padang","urban":"Ulak Jermun","postal_code":30652},{"province":"Sumatera Selatan","city":"Ogan Komering Ilir","district":"Jejawi","urban":"Terusan Jawa","postal_code":30652},{"province":"Sumatera Selatan","city":"Ogan Komering Ilir","district":"Sirah Pulau Padang","urban":"Terate","postal_code":30652},{"province":"Sumatera Selatan","city":"Ogan Komering Ilir","district":"Jejawi","urban":"Tanjung Aur","postal_code":30652},{"province":"Sumatera Selatan","city":"Ogan Komering Ilir","district":"Sirah Pulau Padang","urban":"Tanjung Alai","postal_code":30652},{"province":"Sumatera Selatan","city":"Ogan Komering Ilir","district":"Jejawi","urban":"Tanjung Alai","postal_code":30652},{"province":"Sumatera Selatan","city":"Ogan Komering Ilir","district":"Jejawi","urban":"Talang Cempedak","postal_code":30652},{"province":"Sumatera Selatan","city":"Ogan Komering Ilir","district":"Sirah Pulau Padang","urban":"Sukaraja","postal_code":30652},{"province":"Sumatera Selatan","city":"Ogan Komering Ilir","district":"Jejawi","urban":"Sukadarma","postal_code":30652},{"province":"Sumatera Selatan","city":"Ogan Komering Ilir","district":"Sirah Pulau Padang","urban":"Sirah Pulau Padang","postal_code":30652},{"province":"Sumatera Selatan","city":"Ogan Komering Ilir","district":"Jejawi","urban":"Simpang Empat","postal_code":30652},{"province":"Sumatera Selatan","city":"Ogan Komering Ilir","district":"Sirah Pulau Padang","urban":"Serdang Menang","postal_code":30652},{"province":"Sumatera Selatan","city":"Ogan Komering Ilir","district":"Sirah Pulau Padang","urban":"Penyandingan","postal_code":30652},{"province":"Sumatera Selatan","city":"Ogan Komering Ilir","district":"Sirah Pulau Padang","urban":"Rawang Besar","postal_code":30652},{"province":"Sumatera Selatan","city":"Ogan Komering Ilir","district":"Sirah Pulau Padang","urban":"Rengas Pitu","postal_code":30652},{"province":"Sumatera Selatan","city":"Ogan Komering Ilir","district":"Jejawi","urban":"Pedu","postal_code":30652},{"province":"Sumatera Selatan","city":"Ogan Komering Ilir","district":"Sirah Pulau Padang","urban":"Pematang Buluran","postal_code":30652},{"province":"Sumatera Selatan","city":"Ogan Komering Ilir","district":"Jejawi","urban":"Pematang kijang","postal_code":30652},{"province":"Sumatera Selatan","city":"Ogan Komering Ilir","district":"Jejawi","urban":"Muara Batun","postal_code":30652},{"province":"Sumatera Selatan","city":"Ogan Komering Ilir","district":"Sirah Pulau Padang","urban":"Pantai","postal_code":30652},{"province":"Sumatera Selatan","city":"Ogan Komering Ilir","district":"Jejawi","urban":"Lubuk Ketepeng","postal_code":30652},{"province":"Sumatera Selatan","city":"Ogan Komering Ilir","district":"Sirah Pulau Padang","urban":"Mangun Jaya","postal_code":30652},{"province":"Sumatera Selatan","city":"Ogan Komering Ilir","district":"Jejawi","urban":"Jejawi","postal_code":30652},{"province":"Sumatera Selatan","city":"Ogan Komering Ilir","district":"Jejawi","urban":"Karang Agung","postal_code":30652},{"province":"Sumatera Selatan","city":"Ogan Komering Ilir","district":"Jejawi","urban":"Lingkis","postal_code":30652},{"province":"Sumatera Selatan","city":"Ogan Komering Ilir","district":"Jejawi","urban":"Bubusan","postal_code":30652},{"province":"Sumatera Selatan","city":"Ogan Komering Ilir","district":"Sirah Pulau Padang","urban":"Berkat","postal_code":30652},{"province":"Sumatera Selatan","city":"Ogan Komering Ilir","district":"Sirah Pulau Padang","urban":"Bungin Tinggi","postal_code":30652},{"province":"Sumatera Selatan","city":"Ogan Komering Ilir","district":"Sirah Pulau Padang","urban":"Batu Ampar","postal_code":30652},{"province":"Sumatera Selatan","city":"Ogan Komering Ilir","district":"Sirah Pulau Padang","urban":"Belanti","postal_code":30652},{"province":"Sumatera Selatan","city":"Ogan Komering Ilir","district":"Jejawi","urban":"Air Itam","postal_code":30652},{"province":"Sumatera Selatan","city":"Ogan Komering Ilir","district":"Sirah Pulau Padang","urban":"Awal Terusan","postal_code":30652}]