[{"province":"Sumatera Selatan","city":"Ogan Komering Ilir","district":"Cengal","urban":"Ulak Kedondong","postal_code":30658},{"province":"Sumatera Selatan","city":"Ogan Komering Ilir","district":"Cengal","urban":"Talang Rimba","postal_code":30658},{"province":"Sumatera Selatan","city":"Ogan Komering Ilir","district":"Cengal","urban":"Sungai Pasir","postal_code":30658},{"province":"Sumatera Selatan","city":"Ogan Komering Ilir","district":"Cengal","urban":"Sungai Somor","postal_code":30658},{"province":"Sumatera Selatan","city":"Ogan Komering Ilir","district":"Cengal","urban":"Sungai Lumpur","postal_code":30658},{"province":"Sumatera Selatan","city":"Ogan Komering Ilir","district":"Cengal","urban":"Sungai Jeruju","postal_code":30658},{"province":"Sumatera Selatan","city":"Ogan Komering Ilir","district":"Cengal","urban":"Sungai Ketupak","postal_code":30658},{"province":"Sumatera Selatan","city":"Ogan Komering Ilir","district":"Cengal","urban":"Pelimbangan","postal_code":30658},{"province":"Sumatera Selatan","city":"Ogan Komering Ilir","district":"Cengal","urban":"Kuala Sungai Pasir","postal_code":30658},{"province":"Sumatera Selatan","city":"Ogan Komering Ilir","district":"Cengal","urban":"Kuala Sungai Jeruju","postal_code":30658},{"province":"Sumatera Selatan","city":"Ogan Komering Ilir","district":"Cengal","urban":"Cengal","postal_code":30658}]