[{"province":"Sumatera Selatan","city":"Ogan Komering Ilir","district":"Air Sugihan","urban":"Sungai Batang","postal_code":30656},{"province":"Sumatera Selatan","city":"Ogan Komering Ilir","district":"Air Sugihan","urban":"Tirta Mulya","postal_code":30656},{"province":"Sumatera Selatan","city":"Ogan Komering Ilir","district":"Air Sugihan","urban":"Serijaya Baru","postal_code":30656},{"province":"Sumatera Selatan","city":"Ogan Komering Ilir","district":"Air Sugihan","urban":"Simpang Heran","postal_code":30656},{"province":"Sumatera Selatan","city":"Ogan Komering Ilir","district":"Air Sugihan","urban":"Suka Mulya","postal_code":30656},{"province":"Sumatera Selatan","city":"Ogan Komering Ilir","district":"Air Sugihan","urban":"Rantau Karya","postal_code":30656},{"province":"Sumatera Selatan","city":"Ogan Komering Ilir","district":"Air Sugihan","urban":"Rengas Abang","postal_code":30656},{"province":"Sumatera Selatan","city":"Ogan Komering Ilir","district":"Air Sugihan","urban":"Pangkalan Damai","postal_code":30656},{"province":"Sumatera Selatan","city":"Ogan Komering Ilir","district":"Air Sugihan","urban":"Pangkalan Sakti","postal_code":30656},{"province":"Sumatera Selatan","city":"Ogan Komering Ilir","district":"Air Sugihan","urban":"Negeri Sakti","postal_code":30656},{"province":"Sumatera Selatan","city":"Ogan Komering Ilir","district":"Air Sugihan","urban":"Nusakerta","postal_code":30656},{"province":"Sumatera Selatan","city":"Ogan Komering Ilir","district":"Air Sugihan","urban":"Nusantara","postal_code":30656},{"province":"Sumatera Selatan","city":"Ogan Komering Ilir","district":"Air Sugihan","urban":"Mukti Jaya","postal_code":30656},{"province":"Sumatera Selatan","city":"Ogan Komering Ilir","district":"Air Sugihan","urban":"Marga Tani","postal_code":30656},{"province":"Sumatera Selatan","city":"Ogan Komering Ilir","district":"Air Sugihan","urban":"Jadi Mulya","postal_code":30656},{"province":"Sumatera Selatan","city":"Ogan Komering Ilir","district":"Air Sugihan","urban":"Kerta Mukti","postal_code":30656},{"province":"Sumatera Selatan","city":"Ogan Komering Ilir","district":"Air Sugihan","urban":"Banyu Biru","postal_code":30656},{"province":"Sumatera Selatan","city":"Ogan Komering Ilir","district":"Air Sugihan","urban":"Bukit Batu","postal_code":30656},{"province":"Sumatera Selatan","city":"Ogan Komering Ilir","district":"Air Sugihan","urban":"Bandar Jaya","postal_code":30656}]