[{"province":"Sumatera Selatan","city":"Ogan Komering Ilir","district":"Tulung Selapan","urban":"Ujung Tanjung","postal_code":30655},{"province":"Sumatera Selatan","city":"Ogan Komering Ilir","district":"Tulung Selapan","urban":"Tulung Selapan Ulu","postal_code":30655},{"province":"Sumatera Selatan","city":"Ogan Komering Ilir","district":"Tulung Selapan","urban":"Tulung Seluang","postal_code":30655},{"province":"Sumatera Selatan","city":"Ogan Komering Ilir","district":"Tulung Selapan","urban":"Toman","postal_code":30655},{"province":"Sumatera Selatan","city":"Ogan Komering Ilir","district":"Tulung Selapan","urban":"Tulung Selapan Ilir","postal_code":30655},{"province":"Sumatera Selatan","city":"Ogan Komering Ilir","district":"Tulung Selapan","urban":"Simpang Tiga Jaya","postal_code":30655},{"province":"Sumatera Selatan","city":"Ogan Komering Ilir","district":"Tulung Selapan","urban":"Simpang Tiga Makmur","postal_code":30655},{"province":"Sumatera Selatan","city":"Ogan Komering Ilir","district":"Tulung Selapan","urban":"Simpang Tiga Sakti","postal_code":30655},{"province":"Sumatera Selatan","city":"Ogan Komering Ilir","district":"Tulung Selapan","urban":"Simpang Tiga","postal_code":30655},{"province":"Sumatera Selatan","city":"Ogan Komering Ilir","district":"Tulung Selapan","urban":"Rantau Lurus","postal_code":30655},{"province":"Sumatera Selatan","city":"Ogan Komering Ilir","district":"Tulung Selapan","urban":"Petaling","postal_code":30655},{"province":"Sumatera Selatan","city":"Ogan Komering Ilir","district":"Tulung Selapan","urban":"Pulau Beruang","postal_code":30655},{"province":"Sumatera Selatan","city":"Ogan Komering Ilir","district":"Tulung Selapan","urban":"Penanggoan Duren","postal_code":30655},{"province":"Sumatera Selatan","city":"Ogan Komering Ilir","district":"Tulung Selapan","urban":"Penyandingan","postal_code":30655},{"province":"Sumatera Selatan","city":"Ogan Komering Ilir","district":"Tulung Selapan","urban":"Kayu Ara","postal_code":30655},{"province":"Sumatera Selatan","city":"Ogan Komering Ilir","district":"Tulung Selapan","urban":"Lebung Gajah","postal_code":30655},{"province":"Sumatera Selatan","city":"Ogan Komering Ilir","district":"Tulung Selapan","urban":"Lebung Itam","postal_code":30655},{"province":"Sumatera Selatan","city":"Ogan Komering Ilir","district":"Tulung Selapan","urban":"Cambai","postal_code":30655},{"province":"Sumatera Selatan","city":"Ogan Komering Ilir","district":"Tulung Selapan","urban":"Jerambah Rengas","postal_code":30655}]