[{"province":"Sumatera Selatan","city":"Ogan Ilir","district":"Pemulutan Barat","urban":"Ulak Kembahang II","postal_code":30653},{"province":"Sumatera Selatan","city":"Ogan Ilir","district":"Pemulutan Barat","urban":"Ulak Petangisan","postal_code":30653},{"province":"Sumatera Selatan","city":"Ogan Ilir","district":"Pemulutan Barat","urban":"Ulak Kembahang I","postal_code":30653},{"province":"Sumatera Selatan","city":"Ogan Ilir","district":"Pemulutan Selatan","urban":"Ulak Aur Standing","postal_code":30653},{"province":"Sumatera Selatan","city":"Ogan Ilir","district":"Pemulutan","urban":"Tanjung Pasir","postal_code":30653},{"province":"Sumatera Selatan","city":"Ogan Ilir","district":"Pemulutan","urban":"Teluk Kecapi","postal_code":30653},{"province":"Sumatera Selatan","city":"Ogan Ilir","district":"Pemulutan Barat","urban":"Talang Pangeran Ilir","postal_code":30653},{"province":"Sumatera Selatan","city":"Ogan Ilir","district":"Pemulutan Barat","urban":"Talang Pangeran Ulu","postal_code":30653},{"province":"Sumatera Selatan","city":"Ogan Ilir","district":"Pemulutan","urban":"Sungai Rasau","postal_code":30653},{"province":"Sumatera Selatan","city":"Ogan Ilir","district":"Pemulutan Selatan","urban":"Sungai Ondok","postal_code":30653},{"province":"Sumatera Selatan","city":"Ogan Ilir","district":"Pemulutan Selatan","urban":"Sungai Lebung","postal_code":30653},{"province":"Sumatera Selatan","city":"Ogan Ilir","district":"Pemulutan Selatan","urban":"Sungai Lembung Ulu","postal_code":30653},{"province":"Sumatera Selatan","city":"Ogan Ilir","district":"Pemulutan Selatan","urban":"Sungai Keli","postal_code":30653},{"province":"Sumatera Selatan","city":"Ogan Ilir","district":"Pemulutan Selatan","urban":"Sungai Keli","postal_code":30653},{"province":"Sumatera Selatan","city":"Ogan Ilir","district":"Pemulutan","urban":"Sukarami","postal_code":30653},{"province":"Sumatera Selatan","city":"Ogan Ilir","district":"Pemulutan Barat","urban":"Suka Merindu","postal_code":30653},{"province":"Sumatera Selatan","city":"Ogan Ilir","district":"Pemulutan","urban":"Simpang Pelabuhan Dalam","postal_code":30653},{"province":"Sumatera Selatan","city":"Ogan Ilir","district":"Pemulutan Barat","urban":"Seribanding (Seri Bandung)","postal_code":30653},{"province":"Sumatera Selatan","city":"Ogan Ilir","district":"Pemulutan","urban":"Sembadak","postal_code":30653},{"province":"Sumatera Selatan","city":"Ogan Ilir","district":"Pemulutan Barat","urban":"Saranglang","postal_code":30653},{"province":"Sumatera Selatan","city":"Ogan Ilir","district":"Pemulutan Selatan","urban":"Segayam","postal_code":30653},{"province":"Sumatera Selatan","city":"Ogan Ilir","district":"Pemulutan Barat","urban":"Pulau Negara","postal_code":30653},{"province":"Sumatera Selatan","city":"Ogan Ilir","district":"Pemulutan","urban":"Rawajaya","postal_code":30653},{"province":"Sumatera Selatan","city":"Ogan Ilir","district":"Pemulutan","urban":"Pemulutan Ilir","postal_code":30653},{"province":"Sumatera Selatan","city":"Ogan Ilir","district":"Pemulutan","urban":"Pemulutan Ulu","postal_code":30653},{"province":"Sumatera Selatan","city":"Ogan Ilir","district":"Pemulutan","urban":"Pipa Putih","postal_code":30653},{"province":"Sumatera Selatan","city":"Ogan Ilir","district":"Pemulutan Selatan","urban":"Pematang Bungur","postal_code":30653},{"province":"Sumatera Selatan","city":"Ogan Ilir","district":"Pemulutan","urban":"Pegayut","postal_code":30653},{"province":"Sumatera Selatan","city":"Ogan Ilir","district":"Pemulutan","urban":"Pelabuhan Dalam","postal_code":30653},{"province":"Sumatera Selatan","city":"Ogan Ilir","district":"Pemulutan Selatan","urban":"Pematang Bangsal","postal_code":30653},{"province":"Sumatera Selatan","city":"Ogan Ilir","district":"Pemulutan","urban":"Palu","postal_code":30653},{"province":"Sumatera Selatan","city":"Ogan Ilir","district":"Pemulutan Selatan","urban":"Naikan Tembakang","postal_code":30653},{"province":"Sumatera Selatan","city":"Ogan Ilir","district":"Pemulutan","urban":"Muara Baru","postal_code":30653},{"province":"Sumatera Selatan","city":"Ogan Ilir","district":"Pemulutan","urban":"Muara Dua","postal_code":30653},{"province":"Sumatera Selatan","city":"Ogan Ilir","district":"Pemulutan Selatan","urban":"Maju Jaya","postal_code":30653},{"province":"Sumatera Selatan","city":"Ogan Ilir","district":"Pemulutan Selatan","urban":"Mayapati","postal_code":30653},{"province":"Sumatera Selatan","city":"Ogan Ilir","district":"Pemulutan","urban":"Mekarjaya","postal_code":30653},{"province":"Sumatera Selatan","city":"Ogan Ilir","district":"Pemulutan","urban":"Lebung Jangkar","postal_code":30653},{"province":"Sumatera Selatan","city":"Ogan Ilir","district":"Pemulutan Selatan","urban":"Lebak Pering","postal_code":30653},{"province":"Sumatera Selatan","city":"Ogan Ilir","district":"Pemulutan Barat","urban":"Kamal","postal_code":30653},{"province":"Sumatera Selatan","city":"Ogan Ilir","district":"Pemulutan","urban":"Kedukan Bujang","postal_code":30653},{"province":"Sumatera Selatan","city":"Ogan Ilir","district":"Pemulutan Selatan","urban":"Kapuk","postal_code":30653},{"province":"Sumatera Selatan","city":"Ogan Ilir","district":"Pemulutan","urban":"Ibul Besar II","postal_code":30653},{"province":"Sumatera Selatan","city":"Ogan Ilir","district":"Pemulutan","urban":"Ibul Besar III","postal_code":30653},{"province":"Sumatera Selatan","city":"Ogan Ilir","district":"Pemulutan","urban":"Ibul Besar I","postal_code":30653},{"province":"Sumatera Selatan","city":"Ogan Ilir","district":"Pemulutan Selatan","urban":"Harimau Tandang","postal_code":30653},{"province":"Sumatera Selatan","city":"Ogan Ilir","district":"Pemulutan","urban":"Harapan","postal_code":30653},{"province":"Sumatera Selatan","city":"Ogan Ilir","district":"Pemulutan Selatan","urban":"Cahaya Marga","postal_code":30653},{"province":"Sumatera Selatan","city":"Ogan Ilir","district":"Pemulutan","urban":"Babatan Saudagar","postal_code":30653},{"province":"Sumatera Selatan","city":"Ogan Ilir","district":"Pemulutan","urban":"Aurstanding","postal_code":30653},{"province":"Sumatera Selatan","city":"Ogan Ilir","district":"Pemulutan Barat","urban":"Arisan Jaya","postal_code":30653}]