[{"province":"Sumatera Selatan","city":"Ogan Ilir","district":"Payaraman","urban":"Tebedak II","postal_code":30664},{"province":"Sumatera Selatan","city":"Ogan Ilir","district":"Payaraman","urban":"Tebedak I","postal_code":30664},{"province":"Sumatera Selatan","city":"Ogan Ilir","district":"Tanjung Batu","urban":"Tanjung Tambak","postal_code":30664},{"province":"Sumatera Selatan","city":"Ogan Ilir","district":"Tanjung Batu","urban":"Tanjung Tambak Baru","postal_code":30664},{"province":"Sumatera Selatan","city":"Ogan Ilir","district":"Tanjung Batu","urban":"Tanjung Pinang I","postal_code":30664},{"province":"Sumatera Selatan","city":"Ogan Ilir","district":"Tanjung Batu","urban":"Tanjung Pinang II","postal_code":30664},{"province":"Sumatera Selatan","city":"Ogan Ilir","district":"Tanjung Batu","urban":"Tanjung Batu Timur","postal_code":30664},{"province":"Sumatera Selatan","city":"Ogan Ilir","district":"Payaraman","urban":"Tanjung Lalang","postal_code":30664},{"province":"Sumatera Selatan","city":"Ogan Ilir","district":"Tanjung Batu","urban":"Tanjung Laut","postal_code":30664},{"province":"Sumatera Selatan","city":"Ogan Ilir","district":"Tanjung Batu","urban":"Tanjung Batu Seberang","postal_code":30664},{"province":"Sumatera Selatan","city":"Ogan Ilir","district":"Tanjung Batu","urban":"Tanjung Atap Barat","postal_code":30664},{"province":"Sumatera Selatan","city":"Ogan Ilir","district":"Tanjung Batu","urban":"Tanjung Baru Petai","postal_code":30664},{"province":"Sumatera Selatan","city":"Ogan Ilir","district":"Tanjung Batu","urban":"Tanjung Batu","postal_code":30664},{"province":"Sumatera Selatan","city":"Ogan Ilir","district":"Tanjung Batu","urban":"Tanjung Atap","postal_code":30664},{"province":"Sumatera Selatan","city":"Ogan Ilir","district":"Payaraman","urban":"Talang Seleman","postal_code":30664},{"province":"Sumatera Selatan","city":"Ogan Ilir","district":"Tanjung Batu","urban":"Seri Tanjung","postal_code":30664},{"province":"Sumatera Selatan","city":"Ogan Ilir","district":"Payaraman","urban":"Seri Kembang III","postal_code":30664},{"province":"Sumatera Selatan","city":"Ogan Ilir","district":"Payaraman","urban":"Seri Kembang I","postal_code":30664},{"province":"Sumatera Selatan","city":"Ogan Ilir","district":"Payaraman","urban":"Seri Kembang II","postal_code":30664},{"province":"Sumatera Selatan","city":"Ogan Ilir","district":"Tanjung Batu","urban":"Senuro Timur","postal_code":30664},{"province":"Sumatera Selatan","city":"Ogan Ilir","district":"Tanjung Batu","urban":"Seri Bandung","postal_code":30664},{"province":"Sumatera Selatan","city":"Ogan Ilir","district":"Tanjung Batu","urban":"Sentul","postal_code":30664},{"province":"Sumatera Selatan","city":"Ogan Ilir","district":"Tanjung Batu","urban":"Senuro Barat","postal_code":30664},{"province":"Sumatera Selatan","city":"Ogan Ilir","district":"Payaraman","urban":"Rengas I","postal_code":30664},{"province":"Sumatera Selatan","city":"Ogan Ilir","district":"Payaraman","urban":"Rengas II","postal_code":30664},{"province":"Sumatera Selatan","city":"Ogan Ilir","district":"Payaraman","urban":"Payaraman Barat","postal_code":30664},{"province":"Sumatera Selatan","city":"Ogan Ilir","district":"Payaraman","urban":"Payaraman Timur","postal_code":30664},{"province":"Sumatera Selatan","city":"Ogan Ilir","district":"Payaraman","urban":"Paya Besar","postal_code":30664},{"province":"Sumatera Selatan","city":"Ogan Ilir","district":"Tanjung Batu","urban":"Pajar/Fajar Bulan","postal_code":30664},{"province":"Sumatera Selatan","city":"Ogan Ilir","district":"Payaraman","urban":"Lubuk Bandung","postal_code":30664},{"province":"Sumatera Selatan","city":"Ogan Ilir","district":"Tanjung Batu","urban":"Limbang Jaya II","postal_code":30664},{"province":"Sumatera Selatan","city":"Ogan Ilir","district":"Tanjung Batu","urban":"Limbang Jaya I","postal_code":30664},{"province":"Sumatera Selatan","city":"Ogan Ilir","district":"Tanjung Batu","urban":"Bangun Jaya","postal_code":30664},{"province":"Sumatera Selatan","city":"Ogan Ilir","district":"Tanjung Batu","urban":"Burai","postal_code":30664},{"province":"Sumatera Selatan","city":"Ogan Komering Ilir","district":"Tulung Selapan","urban":"Tanjung Batu","postal_code":30664}]