[{"province":"Sumatera Selatan","city":"Ogan Ilir","district":"Tanjung Raja","urban":"Ulak Kerbau Baru","postal_code":30661},{"province":"Sumatera Selatan","city":"Ogan Ilir","district":"Tanjung Raja","urban":"Ulak Kerbau Lama","postal_code":30661},{"province":"Sumatera Selatan","city":"Ogan Ilir","district":"Tanjung Raja","urban":"Tanjung Raja Utara","postal_code":30661},{"province":"Sumatera Selatan","city":"Ogan Ilir","district":"Tanjung Raja","urban":"Tanjung Temiang","postal_code":30661},{"province":"Sumatera Selatan","city":"Ogan Ilir","district":"Tanjung Raja","urban":"Tanjung Raja Selatan","postal_code":30661},{"province":"Sumatera Selatan","city":"Ogan Ilir","district":"Tanjung Raja","urban":"Tanjung Raja Timur","postal_code":30661},{"province":"Sumatera Selatan","city":"Ogan Ilir","district":"Tanjung Raja","urban":"Tanjung Raja Barat","postal_code":30661},{"province":"Sumatera Selatan","city":"Ogan Ilir","district":"Tanjung Raja","urban":"Tanjung Raja","postal_code":30661},{"province":"Sumatera Selatan","city":"Ogan Ilir","district":"Tanjung Raja","urban":"Tanjung Agas","postal_code":30661},{"province":"Sumatera Selatan","city":"Ogan Ilir","district":"Tanjung Raja","urban":"Tanjung Harapan","postal_code":30661},{"province":"Sumatera Selatan","city":"Ogan Ilir","district":"Tanjung Raja","urban":"Talang Balai Lama","postal_code":30661},{"province":"Sumatera Selatan","city":"Ogan Ilir","district":"Sungai Pinang","urban":"Talang Dukun","postal_code":30661},{"province":"Sumatera Selatan","city":"Ogan Ilir","district":"Tanjung Raja","urban":"Talang Balai Baru II","postal_code":30661},{"province":"Sumatera Selatan","city":"Ogan Ilir","district":"Tanjung Raja","urban":"Talang Balai Baru I","postal_code":30661},{"province":"Sumatera Selatan","city":"Ogan Ilir","district":"Sungai Pinang","urban":"Tajung Serian","postal_code":30661},{"province":"Sumatera Selatan","city":"Ogan Ilir","district":"Sungai Pinang","urban":"Sungai Pinang Nibung","postal_code":30661},{"province":"Sumatera Selatan","city":"Ogan Ilir","district":"Rantau Panjang","urban":"Sungai Rotan","postal_code":30661},{"province":"Sumatera Selatan","city":"Ogan Ilir","district":"Sungai Pinang","urban":"Sungai Pinang II","postal_code":30661},{"province":"Sumatera Selatan","city":"Ogan Ilir","district":"Sungai Pinang","urban":"Sungai Pinang III","postal_code":30661},{"province":"Sumatera Selatan","city":"Ogan Ilir","district":"Sungai Pinang","urban":"Sungai Pinang Lagati","postal_code":30661},{"province":"Sumatera Selatan","city":"Ogan Ilir","district":"Tanjung Raja","urban":"Suka Pindah","postal_code":30661},{"province":"Sumatera Selatan","city":"Ogan Ilir","district":"Sungai Pinang","urban":"Sungai Pinang","postal_code":30661},{"province":"Sumatera Selatan","city":"Ogan Ilir","district":"Sungai Pinang","urban":"Sungai Pinang I","postal_code":30661},{"province":"Sumatera Selatan","city":"Ogan Ilir","district":"Tanjung Raja","urban":"Skonjing","postal_code":30661},{"province":"Sumatera Selatan","city":"Ogan Ilir","district":"Tanjung Raja","urban":"Sridalam/Seri Dalam","postal_code":30661},{"province":"Sumatera Selatan","city":"Ogan Ilir","district":"Tanjung Raja","urban":"Siring Alam","postal_code":30661},{"province":"Sumatera Selatan","city":"Ogan Ilir","district":"Sungai Pinang","urban":"Serijabo Baru","postal_code":30661},{"province":"Sumatera Selatan","city":"Ogan Ilir","district":"Sungai Pinang","urban":"Serijabo","postal_code":30661},{"province":"Sumatera Selatan","city":"Ogan Ilir","district":"Rantau Panjang","urban":"Sejangko II","postal_code":30661},{"province":"Sumatera Selatan","city":"Ogan Ilir","district":"Rantau Panjang","urban":"Rantau Panjang Ulu","postal_code":30661},{"province":"Sumatera Selatan","city":"Ogan Ilir","district":"Rantau Panjang","urban":"Sejangko I","postal_code":30661},{"province":"Sumatera Selatan","city":"Ogan Ilir","district":"Rantau Panjang","urban":"Rantau Panjang Ilir","postal_code":30661},{"province":"Sumatera Selatan","city":"Ogan Ilir","district":"Sungai Pinang","urban":"Pinang Mas","postal_code":30661},{"province":"Sumatera Selatan","city":"Ogan Ilir","district":"Sungai Pinang","urban":"Penyandingan","postal_code":30661},{"province":"Sumatera Selatan","city":"Ogan Ilir","district":"Sungai Pinang","urban":"Pinang Jaya","postal_code":30661},{"province":"Sumatera Selatan","city":"Ogan Ilir","district":"Rantau Panjang","urban":"Kota Daro I","postal_code":30661},{"province":"Sumatera Selatan","city":"Ogan Ilir","district":"Rantau Panjang","urban":"Kota Daro II","postal_code":30661},{"province":"Sumatera Selatan","city":"Ogan Ilir","district":"Rantau Panjang","urban":"Ketapang II","postal_code":30661},{"province":"Sumatera Selatan","city":"Ogan Ilir","district":"Tanjung Raja","urban":"Kerinjing","postal_code":30661},{"province":"Sumatera Selatan","city":"Ogan Ilir","district":"Rantau Panjang","urban":"Ketapang I","postal_code":30661},{"province":"Sumatera Selatan","city":"Ogan Ilir","district":"Rantau Panjang","urban":"Jagarajo (Jaga Raya)","postal_code":30661},{"province":"Sumatera Selatan","city":"Ogan Ilir","district":"Tanjung Raja","urban":"Belanti","postal_code":30661},{"province":"Sumatera Selatan","city":"Ogan Ilir","district":"Rantau Panjang","urban":"Jagalano (Jagalana)","postal_code":30661},{"province":"Sumatera Selatan","city":"Ogan Ilir","district":"Rantau Panjang","urban":"Arisan Deras","postal_code":30661}]