[{"province":"Sumatera Selatan","city":"Ogan Komering Ilir","district":"Pedamaran Timur","urban":"Tanjung Makmur","postal_code":30672},{"province":"Sumatera Selatan","city":"Ogan Komering Ilir","district":"Pedamaran","urban":"Sukadamai","postal_code":30672},{"province":"Sumatera Selatan","city":"Ogan Komering Ilir","district":"Pedamaran","urban":"Sukaraja","postal_code":30672},{"province":"Sumatera Selatan","city":"Ogan Komering Ilir","district":"Pedamaran Timur","urban":"Sumber Hidup","postal_code":30672},{"province":"Sumatera Selatan","city":"Ogan Komering Ilir","district":"Pedamaran","urban":"Serinanti","postal_code":30672},{"province":"Sumatera Selatan","city":"Ogan Komering Ilir","district":"Pedamaran","urban":"Suka Pulih","postal_code":30672},{"province":"Sumatera Selatan","city":"Ogan Komering Ilir","district":"Pedamaran Timur","urban":"Pulau Geronggang","postal_code":30672},{"province":"Sumatera Selatan","city":"Ogan Komering Ilir","district":"Pedamaran","urban":"Pedamaran VI","postal_code":30672},{"province":"Sumatera Selatan","city":"Ogan Komering Ilir","district":"Pedamaran","urban":"Pedamaran IV","postal_code":30672},{"province":"Sumatera Selatan","city":"Ogan Komering Ilir","district":"Pedamaran","urban":"Pedamaran V","postal_code":30672},{"province":"Sumatera Selatan","city":"Ogan Komering Ilir","district":"Pedamaran","urban":"Pedamaran II","postal_code":30672},{"province":"Sumatera Selatan","city":"Ogan Komering Ilir","district":"Pedamaran","urban":"Pedamaran III","postal_code":30672},{"province":"Sumatera Selatan","city":"Ogan Komering Ilir","district":"Pedamaran Timur","urban":"Pancawarna","postal_code":30672},{"province":"Sumatera Selatan","city":"Ogan Komering Ilir","district":"Pedamaran","urban":"Pedamaran I","postal_code":30672},{"province":"Sumatera Selatan","city":"Ogan Komering Ilir","district":"Pedamaran Timur","urban":"Mari Baya","postal_code":30672},{"province":"Sumatera Selatan","city":"Ogan Komering Ilir","district":"Pedamaran","urban":"Menang Raya","postal_code":30672},{"province":"Sumatera Selatan","city":"Ogan Komering Ilir","district":"Pedamaran Timur","urban":"Kayu Labu","postal_code":30672},{"province":"Sumatera Selatan","city":"Ogan Komering Ilir","district":"Pedamaran Timur","urban":"Gading Rejo","postal_code":30672},{"province":"Sumatera Selatan","city":"Ogan Komering Ilir","district":"Pedamaran","urban":"Cinta Jaya","postal_code":30672},{"province":"Sumatera Selatan","city":"Ogan Komering Ilir","district":"Pedamaran","urban":"Burnai Timur","postal_code":30672}]