[{"province":"Sumatera Selatan","city":"Ogan Komering Ilir","district":"Teluk Gelam","urban":"Sugih Waras","postal_code":30673},{"province":"Sumatera Selatan","city":"Ogan Komering Ilir","district":"Teluk Gelam","urban":"Talang Pangeran","postal_code":30673},{"province":"Sumatera Selatan","city":"Ogan Komering Ilir","district":"Teluk Gelam","urban":"Ulak Ketapang","postal_code":30673},{"province":"Sumatera Selatan","city":"Ogan Komering Ilir","district":"Teluk Gelam","urban":"Serapek","postal_code":30673},{"province":"Sumatera Selatan","city":"Ogan Komering Ilir","district":"Teluk Gelam","urban":"Seriguna","postal_code":30673},{"province":"Sumatera Selatan","city":"Ogan Komering Ilir","district":"Teluk Gelam","urban":"Sinar Harapan Mulya","postal_code":30673},{"province":"Sumatera Selatan","city":"Ogan Komering Ilir","district":"Teluk Gelam","urban":"Panca Tunggal Benawa","postal_code":30673},{"province":"Sumatera Selatan","city":"Ogan Komering Ilir","district":"Teluk Gelam","urban":"Penyandingan","postal_code":30673},{"province":"Sumatera Selatan","city":"Ogan Komering Ilir","district":"Teluk Gelam","urban":"Mulya Guna","postal_code":30673},{"province":"Sumatera Selatan","city":"Ogan Komering Ilir","district":"Teluk Gelam","urban":"Kuripan","postal_code":30673},{"province":"Sumatera Selatan","city":"Ogan Komering Ilir","district":"Teluk Gelam","urban":"Muara Telang","postal_code":30673},{"province":"Sumatera Selatan","city":"Ogan Komering Ilir","district":"Teluk Gelam","urban":"Cintamarga","postal_code":30673},{"province":"Sumatera Selatan","city":"Ogan Komering Ilir","district":"Teluk Gelam","urban":"Bumi Harapan","postal_code":30673},{"province":"Sumatera Selatan","city":"Ogan Komering Ilir","district":"Teluk Gelam","urban":"Benawa","postal_code":30673}]