[{"province":"Sumatera Selatan","city":"Ogan Komering Ilir","district":"Tanjung Lubuk","urban":"Ulak Kapal","postal_code":30671},{"province":"Sumatera Selatan","city":"Ogan Komering Ilir","district":"Tanjung Lubuk","urban":"Tanjung Merindu","postal_code":30671},{"province":"Sumatera Selatan","city":"Ogan Komering Ilir","district":"Tanjung Lubuk","urban":"Ulak Balam","postal_code":30671},{"province":"Sumatera Selatan","city":"Ogan Komering Ilir","district":"Tanjung Lubuk","urban":"Tanjung Laga","postal_code":30671},{"province":"Sumatera Selatan","city":"Ogan Komering Ilir","district":"Tanjung Lubuk","urban":"Tanjung Laut","postal_code":30671},{"province":"Sumatera Selatan","city":"Ogan Komering Ilir","district":"Tanjung Lubuk","urban":"Tanjung Lubuk PMD","postal_code":30671},{"province":"Sumatera Selatan","city":"Ogan Komering Ilir","district":"Tanjung Lubuk","urban":"Tanjung Baru","postal_code":30671},{"province":"Sumatera Selatan","city":"Ogan Komering Ilir","district":"Tanjung Lubuk","urban":"Tanjung Beringin","postal_code":30671},{"province":"Sumatera Selatan","city":"Ogan Komering Ilir","district":"Tanjung Lubuk","urban":"Sukamulya","postal_code":30671},{"province":"Sumatera Selatan","city":"Ogan Komering Ilir","district":"Tanjung Lubuk","urban":"Sukarami","postal_code":30671},{"province":"Sumatera Selatan","city":"Ogan Komering Ilir","district":"Tanjung Lubuk","urban":"Seritanjung","postal_code":30671},{"province":"Sumatera Selatan","city":"Ogan Komering Ilir","district":"Tanjung Lubuk","urban":"Pengaraian","postal_code":30671},{"province":"Sumatera Selatan","city":"Ogan Komering Ilir","district":"Tanjung Lubuk","urban":"Pulau Gemantung","postal_code":30671},{"province":"Sumatera Selatan","city":"Ogan Komering Ilir","district":"Tanjung Lubuk","urban":"Kotabumi","postal_code":30671},{"province":"Sumatera Selatan","city":"Ogan Komering Ilir","district":"Tanjung Lubuk","urban":"Jambu Ilir","postal_code":30671},{"province":"Sumatera Selatan","city":"Ogan Komering Ilir","district":"Tanjung Lubuk","urban":"Jukdadak","postal_code":30671},{"province":"Sumatera Selatan","city":"Ogan Komering Ilir","district":"Tanjung Lubuk","urban":"Bumiagung","postal_code":30671}]