[{"province":"Sumatera Selatan","city":"Ogan Komering Ilir","district":"Mesuji Makmur","urban":"Tegal Sari","postal_code":30681},{"province":"Sumatera Selatan","city":"Ogan Komering Ilir","district":"Mesuji Makmur","urban":"Surya Karta","postal_code":30681},{"province":"Sumatera Selatan","city":"Ogan Komering Ilir","district":"Sungai Menang","urban":"Talang Jaya","postal_code":30681},{"province":"Sumatera Selatan","city":"Ogan Komering Ilir","district":"Mesuji","urban":"Sungai Sodong","postal_code":30681},{"province":"Sumatera Selatan","city":"Ogan Komering Ilir","district":"Sungai Menang","urban":"Talang Makmur","postal_code":30681},{"province":"Sumatera Selatan","city":"Ogan Komering Ilir","district":"Sungai Menang","urban":"Sungai Tepuk","postal_code":30681},{"province":"Sumatera Selatan","city":"Ogan Komering Ilir","district":"Mesuji","urban":"Surya Adi","postal_code":30681},{"province":"Sumatera Selatan","city":"Ogan Komering Ilir","district":"Sungai Menang","urban":"Sungai Sibur","postal_code":30681},{"province":"Sumatera Selatan","city":"Ogan Komering Ilir","district":"Sungai Menang","urban":"Sungai Menang","postal_code":30681},{"province":"Sumatera Selatan","city":"Ogan Komering Ilir","district":"Mesuji Raya","urban":"Sumbu Sari","postal_code":30681},{"province":"Sumatera Selatan","city":"Ogan Komering Ilir","district":"Mesuji Makmur","urban":"Sumber Mulya","postal_code":30681},{"province":"Sumatera Selatan","city":"Ogan Komering Ilir","district":"Sungai Menang","urban":"Sungai Ceper","postal_code":30681},{"province":"Sumatera Selatan","city":"Ogan Komering Ilir","district":"Mesuji Raya","urban":"Sumber Baru","postal_code":30681},{"province":"Sumatera Selatan","city":"Ogan Komering Ilir","district":"Mesuji","urban":"Sumber Deras","postal_code":30681},{"province":"Sumatera Selatan","city":"Ogan Komering Ilir","district":"Mesuji Makmur","urban":"Pematang Sari","postal_code":30681},{"province":"Sumatera Selatan","city":"Ogan Komering Ilir","district":"Sungai Menang","urban":"Sidomulyo","postal_code":30681},{"province":"Sumatera Selatan","city":"Ogan Komering Ilir","district":"Mesuji","urban":"Pagar Dewa","postal_code":30681},{"province":"Sumatera Selatan","city":"Ogan Komering Ilir","district":"Mesuji","urban":"Suka Mukti","postal_code":30681},{"province":"Sumatera Selatan","city":"Ogan Komering Ilir","district":"Mesuji Makmur","urban":"Pematang Bina Tani","postal_code":30681},{"province":"Sumatera Selatan","city":"Ogan Komering Ilir","district":"Mesuji Raya","urban":"Suka Sari","postal_code":30681},{"province":"Sumatera Selatan","city":"Ogan Komering Ilir","district":"Mesuji Raya","urban":"Mulya Jaya","postal_code":30681},{"province":"Sumatera Selatan","city":"Ogan Komering Ilir","district":"Mesuji Raya","urban":"Rotan Mulya","postal_code":30681},{"province":"Sumatera Selatan","city":"Ogan Komering Ilir","district":"Mesuji Makmur","urban":"Mukti Karya","postal_code":30681},{"province":"Sumatera Selatan","city":"Ogan Komering Ilir","district":"Mesuji Raya","urban":"Sedyo Mulyo","postal_code":30681},{"province":"Sumatera Selatan","city":"Ogan Komering Ilir","district":"Mesuji Makmur","urban":"Mesuji Jaya","postal_code":30681},{"province":"Sumatera Selatan","city":"Ogan Komering Ilir","district":"Mesuji Makmur","urban":"Pematang Sukaramah","postal_code":30681},{"province":"Sumatera Selatan","city":"Ogan Komering Ilir","district":"Mesuji","urban":"Marga Bakti (Margo Bhakti)","postal_code":30681},{"province":"Sumatera Selatan","city":"Ogan Komering Ilir","district":"Mesuji Makmur","urban":"Pematang Sukatani","postal_code":30681},{"province":"Sumatera Selatan","city":"Ogan Komering Ilir","district":"Mesuji Raya","urban":"Mataram Jaya","postal_code":30681},{"province":"Sumatera Selatan","city":"Ogan Komering Ilir","district":"Sungai Menang","urban":"Pinang Indah","postal_code":30681},{"province":"Sumatera Selatan","city":"Ogan Komering Ilir","district":"Mesuji","urban":"Jaya Bhakti","postal_code":30681},{"province":"Sumatera Selatan","city":"Ogan Komering Ilir","district":"Mesuji","urban":"Mekar Wangi","postal_code":30681},{"province":"Sumatera Selatan","city":"Ogan Komering Ilir","district":"Mesuji Makmur","urban":"Pematang Sari","postal_code":30681},{"province":"Sumatera Selatan","city":"Ogan Komering Ilir","district":"Mesuji","urban":"Kali Deras","postal_code":30681},{"province":"Sumatera Selatan","city":"Ogan Komering Ilir","district":"Mesuji","urban":"Kota Baru","postal_code":30681},{"province":"Sumatera Selatan","city":"Ogan Komering Ilir","district":"Mesuji","urban":"Pematang Panggang","postal_code":30681},{"province":"Sumatera Selatan","city":"Ogan Komering Ilir","district":"Mesuji Raya","urban":"Gedung Rejo","postal_code":30681},{"province":"Sumatera Selatan","city":"Ogan Komering Ilir","district":"Mesuji","urban":"Makarti Mulya","postal_code":30681},{"province":"Sumatera Selatan","city":"Ogan Komering Ilir","district":"Sungai Menang","urban":"Harapan Jaya","postal_code":30681},{"province":"Sumatera Selatan","city":"Ogan Komering Ilir","district":"Mesuji Makmur","urban":"Labuhan Jaya","postal_code":30681},{"province":"Sumatera Selatan","city":"Ogan Komering Ilir","district":"Sungai Menang","urban":"Gajah Makmur","postal_code":30681},{"province":"Sumatera Selatan","city":"Ogan Komering Ilir","district":"Mesuji Raya","urban":"Kerta Mukti","postal_code":30681},{"province":"Sumatera Selatan","city":"Ogan Komering Ilir","district":"Sungai Menang","urban":"Gajah Mati","postal_code":30681},{"province":"Sumatera Selatan","city":"Ogan Komering Ilir","district":"Mesuji","urban":"Kembang Jajar","postal_code":30681},{"province":"Sumatera Selatan","city":"Ogan Komering Ilir","district":"Mesuji Makmur","urban":"Gading Sari","postal_code":30681},{"province":"Sumatera Selatan","city":"Ogan Komering Ilir","district":"Mesuji Raya","urban":"Kemang Indah","postal_code":30681},{"province":"Sumatera Selatan","city":"Ogan Komering Ilir","district":"Sungai Menang","urban":"Gading Jaya","postal_code":30681},{"province":"Sumatera Selatan","city":"Ogan Komering Ilir","district":"Mesuji Makmur","urban":"Karya Usaha","postal_code":30681},{"province":"Sumatera Selatan","city":"Ogan Komering Ilir","district":"Mesuji Raya","urban":"Embacang","postal_code":30681},{"province":"Sumatera Selatan","city":"Ogan Komering Ilir","district":"Mesuji","urban":"Karya Mukti","postal_code":30681},{"province":"Sumatera Selatan","city":"Ogan Komering Ilir","district":"Mesuji Raya","urban":"Embacang Permai","postal_code":30681},{"province":"Sumatera Selatan","city":"Ogan Komering Ilir","district":"Mesuji Makmur","urban":"Karya Jaya","postal_code":30681},{"province":"Sumatera Selatan","city":"Ogan Komering Ilir","district":"Mesuji Raya","urban":"Cipta Sari","postal_code":30681},{"province":"Sumatera Selatan","city":"Ogan Komering Ilir","district":"Sungai Menang","urban":"Karangsia","postal_code":30681},{"province":"Sumatera Selatan","city":"Ogan Komering Ilir","district":"Mesuji Raya","urban":"Dabuk Makmur","postal_code":30681},{"province":"Sumatera Selatan","city":"Ogan Komering Ilir","district":"Mesuji Makmur","urban":"Kampung Baru","postal_code":30681},{"province":"Sumatera Selatan","city":"Ogan Komering Ilir","district":"Mesuji Makmur","urban":"Catur Tunggal","postal_code":30681},{"province":"Sumatera Selatan","city":"Ogan Komering Ilir","district":"Mesuji Raya","urban":"Balian Makmur","postal_code":30681},{"province":"Sumatera Selatan","city":"Ogan Komering Ilir","district":"Mesuji Makmur","urban":"Cahaya Mas","postal_code":30681},{"province":"Sumatera Selatan","city":"Ogan Komering Ilir","district":"Mesuji Makmur","urban":"Cahaya Mulya","postal_code":30681},{"province":"Sumatera Selatan","city":"Ogan Komering Ilir","district":"Mesuji Raya","urban":"Bumi Makmur","postal_code":30681},{"province":"Sumatera Selatan","city":"Ogan Komering Ilir","district":"Sungai Menang","urban":"Bumi Pratama Mandira","postal_code":30681},{"province":"Sumatera Selatan","city":"Ogan Komering Ilir","district":"Mesuji Makmur","urban":"Beringin Jaya","postal_code":30681},{"province":"Sumatera Selatan","city":"Ogan Komering Ilir","district":"Mesuji Makmur","urban":"Binakarsa (Bhina Karsa)","postal_code":30681},{"province":"Sumatera Selatan","city":"Ogan Komering Ilir","district":"Mesuji Raya","urban":"Balian Makmur","postal_code":30681}]