[{"province":"Sumatera Selatan","city":"Musi Banyuasin","district":"Plakat Tinggi (Pelakat Tinggi)","urban":"Warga Mulya","postal_code":30758},{"province":"Sumatera Selatan","city":"Musi Banyuasin","district":"Lalan (Sungai Lalan)","urban":"Tri Mulya Agung","postal_code":30758},{"province":"Sumatera Selatan","city":"Musi Banyuasin","district":"Plakat Tinggi (Pelakat Tinggi)","urban":"Tanjung Kaputran","postal_code":30758},{"province":"Sumatera Selatan","city":"Musi Banyuasin","district":"Plakat Tinggi (Pelakat Tinggi)","urban":"Sumber Rejeki","postal_code":30758},{"province":"Sumatera Selatan","city":"Musi Banyuasin","district":"Plakat Tinggi (Pelakat Tinggi)","urban":"Sukamaju","postal_code":30758},{"province":"Sumatera Selatan","city":"Musi Banyuasin","district":"Plakat Tinggi (Pelakat Tinggi)","urban":"Sukajaya","postal_code":30758},{"province":"Sumatera Selatan","city":"Musi Banyuasin","district":"Lalan (Sungai Lalan)","urban":"Sukajadi","postal_code":30758},{"province":"Sumatera Selatan","city":"Musi Banyuasin","district":"Lalan (Sungai Lalan)","urban":"Suka Makmur","postal_code":30758},{"province":"Sumatera Selatan","city":"Musi Banyuasin","district":"Plakat Tinggi (Pelakat Tinggi)","urban":"Suka Makmur","postal_code":30758},{"province":"Sumatera Selatan","city":"Musi Banyuasin","district":"Plakat Tinggi (Pelakat Tinggi)","urban":"Suka Damai","postal_code":30758},{"province":"Sumatera Selatan","city":"Musi Banyuasin","district":"Lalan (Sungai Lalan)","urban":"Sri Karang Rejo","postal_code":30758},{"province":"Sumatera Selatan","city":"Musi Banyuasin","district":"Lalan (Sungai Lalan)","urban":"Sri Gading","postal_code":30758},{"province":"Sumatera Selatan","city":"Musi Banyuasin","district":"Plakat Tinggi (Pelakat Tinggi)","urban":"Sidorahayu","postal_code":30758},{"province":"Sumatera Selatan","city":"Musi Banyuasin","district":"Plakat Tinggi (Pelakat Tinggi)","urban":"Sido Mukti","postal_code":30758},{"province":"Sumatera Selatan","city":"Musi Banyuasin","district":"Plakat Tinggi (Pelakat Tinggi)","urban":"Sialang Agung","postal_code":30758},{"province":"Sumatera Selatan","city":"Musi Banyuasin","district":"Lalan (Sungai Lalan)","urban":"Sari Agung","postal_code":30758},{"province":"Sumatera Selatan","city":"Musi Banyuasin","district":"Lalan (Sungai Lalan)","urban":"Ringin Agung","postal_code":30758},{"province":"Sumatera Selatan","city":"Musi Banyuasin","district":"Lalan (Sungai Lalan)","urban":"Perumpung Raya","postal_code":30758},{"province":"Sumatera Selatan","city":"Musi Banyuasin","district":"Lalan (Sungai Lalan)","urban":"Purwo Agung (Purwa Agung)","postal_code":30758},{"province":"Sumatera Selatan","city":"Musi Banyuasin","district":"Lalan (Sungai Lalan)","urban":"Mulya Jaya","postal_code":30758},{"province":"Sumatera Selatan","city":"Musi Banyuasin","district":"Lalan (Sungai Lalan)","urban":"Mulya Agung","postal_code":30758},{"province":"Sumatera Selatan","city":"Musi Banyuasin","district":"Lalan (Sungai Lalan)","urban":"Mekar Sari","postal_code":30758},{"province":"Sumatera Selatan","city":"Musi Banyuasin","district":"Lalan (Sungai Lalan)","urban":"Mandala Sari","postal_code":30758},{"province":"Sumatera Selatan","city":"Musi Banyuasin","district":"Lalan (Sungai Lalan)","urban":"Karya Mukti","postal_code":30758},{"province":"Sumatera Selatan","city":"Musi Banyuasin","district":"Lalan (Sungai Lalan)","urban":"Madya Mulya","postal_code":30758},{"province":"Sumatera Selatan","city":"Musi Banyuasin","district":"Lalan (Sungai Lalan)","urban":"Karang Tirta","postal_code":30758},{"province":"Sumatera Selatan","city":"Musi Banyuasin","district":"Lalan (Sungai Lalan)","urban":"Karang Sari","postal_code":30758},{"province":"Sumatera Selatan","city":"Musi Banyuasin","district":"Lalan (Sungai Lalan)","urban":"Karang Rejo","postal_code":30758},{"province":"Sumatera Selatan","city":"Musi Banyuasin","district":"Lalan (Sungai Lalan)","urban":"Karang Mukti","postal_code":30758},{"province":"Sumatera Selatan","city":"Musi Banyuasin","district":"Lalan (Sungai Lalan)","urban":"Karang Makmur","postal_code":30758},{"province":"Sumatera Selatan","city":"Musi Banyuasin","district":"Lalan (Sungai Lalan)","urban":"Karang Agung","postal_code":30758},{"province":"Sumatera Selatan","city":"Musi Banyuasin","district":"Lalan (Sungai Lalan)","urban":"Jaya Agung","postal_code":30758},{"province":"Sumatera Selatan","city":"Musi Banyuasin","district":"Lalan (Sungai Lalan)","urban":"Gali Sari","postal_code":30758},{"province":"Sumatera Selatan","city":"Musi Banyuasin","district":"Plakat Tinggi (Pelakat Tinggi)","urban":"Cinta Karya","postal_code":30758},{"province":"Sumatera Selatan","city":"Musi Banyuasin","district":"Lalan (Sungai Lalan)","urban":"Bumi Agung","postal_code":30758},{"province":"Sumatera Selatan","city":"Musi Banyuasin","district":"Plakat Tinggi (Pelakat Tinggi)","urban":"Bukit Indah","postal_code":30758},{"province":"Sumatera Selatan","city":"Musi Banyuasin","district":"Plakat Tinggi (Pelakat Tinggi)","urban":"Bangun Harjo/Harja","postal_code":30758},{"province":"Sumatera Selatan","city":"Musi Banyuasin","district":"Plakat Tinggi (Pelakat Tinggi)","urban":"Air Putih Ulu","postal_code":30758},{"province":"Sumatera Selatan","city":"Musi Banyuasin","district":"Lalan (Sungai Lalan)","urban":"Bandar Agung","postal_code":30758},{"province":"Sumatera Selatan","city":"Musi Banyuasin","district":"Plakat Tinggi (Pelakat Tinggi)","urban":"Air Putih Ilir","postal_code":30758},{"province":"Sumatera Selatan","city":"Musi Banyuasin","district":"Lalan (Sungai Lalan)","urban":"Agung Jaya","postal_code":30758}]