[{"province":"Sumatera Selatan","city":"Musi Banyuasin","district":"Bayung Lencir","urban":"Telang","postal_code":30756},{"province":"Sumatera Selatan","city":"Musi Banyuasin","district":"Bayung Lencir","urban":"Wono Rejo","postal_code":30756},{"province":"Sumatera Selatan","city":"Musi Banyuasin","district":"Tungkal Jaya","urban":"Sumber Sari","postal_code":30756},{"province":"Sumatera Selatan","city":"Musi Banyuasin","district":"Bayung Lencir","urban":"Tampang Baru","postal_code":30756},{"province":"Sumatera Selatan","city":"Musi Banyuasin","district":"Tungkal Jaya","urban":"Sumber Harum","postal_code":30756},{"province":"Sumatera Selatan","city":"Musi Banyuasin","district":"Bayung Lencir","urban":"Sukajaya","postal_code":30756},{"province":"Sumatera Selatan","city":"Musi Banyuasin","district":"Tungkal Jaya","urban":"Suka Damai","postal_code":30756},{"province":"Sumatera Selatan","city":"Musi Banyuasin","district":"Tungkal Jaya","urban":"Srimulyo","postal_code":30756},{"province":"Sumatera Selatan","city":"Musi Banyuasin","district":"Bayung Lencir","urban":"Sindang Marga","postal_code":30756},{"province":"Sumatera Selatan","city":"Musi Banyuasin","district":"Tungkal Jaya","urban":"Sinar Harapan","postal_code":30756},{"province":"Sumatera Selatan","city":"Musi Banyuasin","district":"Tungkal Jaya","urban":"Sinar Tungkal","postal_code":30756},{"province":"Sumatera Selatan","city":"Musi Banyuasin","district":"Tungkal Jaya","urban":"Sido Mulyo","postal_code":30756},{"province":"Sumatera Selatan","city":"Musi Banyuasin","district":"Tungkal Jaya","urban":"Simpang Tungkal","postal_code":30756},{"province":"Sumatera Selatan","city":"Musi Banyuasin","district":"Bayung Lencir","urban":"Simpang Bayat","postal_code":30756},{"province":"Sumatera Selatan","city":"Musi Banyuasin","district":"Bayung Lencir","urban":"Pulai Gading","postal_code":30756},{"province":"Sumatera Selatan","city":"Musi Banyuasin","district":"Bayung Lencir","urban":"Senawar Jaya","postal_code":30756},{"province":"Sumatera Selatan","city":"Musi Banyuasin","district":"Tungkal Jaya","urban":"Pangkalan Tungkal","postal_code":30756},{"province":"Sumatera Selatan","city":"Musi Banyuasin","district":"Tungkal Jaya","urban":"Peninggalan","postal_code":30756},{"province":"Sumatera Selatan","city":"Musi Banyuasin","district":"Bayung Lencir","urban":"Pangkalan Bayat","postal_code":30756},{"province":"Sumatera Selatan","city":"Musi Banyuasin","district":"Tungkal Jaya","urban":"Pandan Sari","postal_code":30756},{"province":"Sumatera Selatan","city":"Musi Banyuasin","district":"Bayung Lencir","urban":"Pagar Desa","postal_code":30756},{"province":"Sumatera Selatan","city":"Musi Banyuasin","district":"Bayung Lencir","urban":"Muara Medak","postal_code":30756},{"province":"Sumatera Selatan","city":"Musi Banyuasin","district":"Bayung Lencir","urban":"Muara Merang","postal_code":30756},{"province":"Sumatera Selatan","city":"Musi Banyuasin","district":"Bayung Lencir","urban":"Mendis Jaya","postal_code":30756},{"province":"Sumatera Selatan","city":"Musi Banyuasin","district":"Bayung Lencir","urban":"Muara Bahar","postal_code":30756},{"province":"Sumatera Selatan","city":"Musi Banyuasin","district":"Bayung Lencir","urban":"Mekar Jaya","postal_code":30756},{"province":"Sumatera Selatan","city":"Musi Banyuasin","district":"Bayung Lencir","urban":"Mendis","postal_code":30756},{"province":"Sumatera Selatan","city":"Musi Banyuasin","district":"Tungkal Jaya","urban":"Margo Mulyo","postal_code":30756},{"province":"Sumatera Selatan","city":"Musi Banyuasin","district":"Bayung Lencir","urban":"Kepayang","postal_code":30756},{"province":"Sumatera Selatan","city":"Musi Banyuasin","district":"Bayung Lencir","urban":"Lubuk Harjo","postal_code":30756},{"province":"Sumatera Selatan","city":"Musi Banyuasin","district":"Bayung Lencir","urban":"Mangsang","postal_code":30756},{"province":"Sumatera Selatan","city":"Musi Banyuasin","district":"Tungkal Jaya","urban":"Berojaya Timur","postal_code":30756},{"province":"Sumatera Selatan","city":"Musi Banyuasin","district":"Bayung Lencir","urban":"Kali Berau","postal_code":30756},{"province":"Sumatera Selatan","city":"Musi Banyuasin","district":"Tungkal Jaya","urban":"Beji Mulyo","postal_code":30756},{"province":"Sumatera Selatan","city":"Musi Banyuasin","district":"Tungkal Jaya","urban":"Berlian Jaya","postal_code":30756},{"province":"Sumatera Selatan","city":"Musi Banyuasin","district":"Bayung Lencir","urban":"Bayung Lencir","postal_code":30756},{"province":"Sumatera Selatan","city":"Musi Banyuasin","district":"Bayung Lencir","urban":"Bayung Lencir Indah","postal_code":30756},{"province":"Sumatera Selatan","city":"Musi Banyuasin","district":"Tungkal Jaya","urban":"Banjar Jaya","postal_code":30756},{"province":"Sumatera Selatan","city":"Musi Banyuasin","district":"Bayung Lencir","urban":"Bayat Ilir","postal_code":30756}]