[{"province":"Sumatera Selatan","city":"Musi Rawas","district":"Sumber Harta","urban":"Sumber Sari","postal_code":30771},{"province":"Sumatera Selatan","city":"Musi Rawas","district":"STL Ulu Terawas","urban":"Terawas","postal_code":30771},{"province":"Sumatera Selatan","city":"Musi Rawas","district":"Sumber Harta","urban":"Sumber Harta","postal_code":30771},{"province":"Sumatera Selatan","city":"Musi Rawas","district":"Sumber Harta","urban":"Sumber Jaya","postal_code":30771},{"province":"Sumatera Selatan","city":"Musi Rawas","district":"STL Ulu Terawas","urban":"Sumber Karya","postal_code":30771},{"province":"Sumatera Selatan","city":"Musi Rawas","district":"STL Ulu Terawas","urban":"Sukaraya Baru","postal_code":30771},{"province":"Sumatera Selatan","city":"Musi Rawas","district":"STL Ulu Terawas","urban":"Sukarejo","postal_code":30771},{"province":"Sumatera Selatan","city":"Musi Rawas","district":"Sumber Harta","urban":"Sukamulya","postal_code":30771},{"province":"Sumatera Selatan","city":"Musi Rawas","district":"Sumber Harta","urban":"Sukarami Jaya","postal_code":30771},{"province":"Sumatera Selatan","city":"Musi Rawas","district":"STL Ulu Terawas","urban":"Sukaraya","postal_code":30771},{"province":"Sumatera Selatan","city":"Musi Rawas","district":"STL Ulu Terawas","urban":"Sukamana","postal_code":30771},{"province":"Sumatera Selatan","city":"Musi Rawas","district":"STL Ulu Terawas","urban":"Sukamerindu","postal_code":30771},{"province":"Sumatera Selatan","city":"Musi Rawas","district":"Sumber Harta","urban":"Sukajaya","postal_code":30771},{"province":"Sumatera Selatan","city":"Musi Rawas","district":"Sumber Harta","urban":"Sukamaju","postal_code":30771},{"province":"Sumatera Selatan","city":"Musi Rawas","district":"STL Ulu Terawas","urban":"Sukakarya","postal_code":30771},{"province":"Sumatera Selatan","city":"Musi Rawas","district":"STL Ulu Terawas","urban":"Paduraksa","postal_code":30771},{"province":"Sumatera Selatan","city":"Musi Rawas","district":"STL Ulu Terawas","urban":"Pasenan","postal_code":30771},{"province":"Sumatera Selatan","city":"Musi Rawas","district":"STL Ulu Terawas","urban":"Sri Mulyo","postal_code":30771},{"province":"Sumatera Selatan","city":"Musi Rawas","district":"Sumber Harta","urban":"Madang/Medang","postal_code":30771},{"province":"Sumatera Selatan","city":"Musi Rawas","district":"STL Ulu Terawas","urban":"Kosgoro","postal_code":30771},{"province":"Sumatera Selatan","city":"Musi Rawas","district":"Sumber Harta","urban":"Jamburejo","postal_code":30771},{"province":"Sumatera Selatan","city":"Musi Rawas","district":"STL Ulu Terawas","urban":"Babat","postal_code":30771}]