[{"province":"Sumatera Selatan","city":"Ogan Ilir","district":"Muara Kuang","urban":"Seri Menanti","postal_code":30865},{"province":"Sumatera Selatan","city":"Ogan Ilir","district":"Muara Kuang","urban":"Suka Cinta","postal_code":30865},{"province":"Sumatera Selatan","city":"Ogan Ilir","district":"Muara Kuang","urban":"Tanabang Ulu","postal_code":30865},{"province":"Sumatera Selatan","city":"Ogan Ilir","district":"Muara Kuang","urban":"Rantau Sialang","postal_code":30865},{"province":"Sumatera Selatan","city":"Ogan Ilir","district":"Muara Kuang","urban":"Seri Kembang","postal_code":30865},{"province":"Sumatera Selatan","city":"Ogan Ilir","district":"Muara Kuang","urban":"Muara Kuang","postal_code":30865},{"province":"Sumatera Selatan","city":"Ogan Ilir","district":"Muara Kuang","urban":"Munggu","postal_code":30865},{"province":"Sumatera Selatan","city":"Ogan Ilir","district":"Muara Kuang","urban":"Nagasari","postal_code":30865},{"province":"Sumatera Selatan","city":"Ogan Ilir","district":"Muara Kuang","urban":"Kuang Anyar","postal_code":30865},{"province":"Sumatera Selatan","city":"Ogan Ilir","district":"Muara Kuang","urban":"Kalampadu (Kelampadu)","postal_code":30865},{"province":"Sumatera Selatan","city":"Ogan Ilir","district":"Muara Kuang","urban":"Kasah","postal_code":30865}]