[{"province":"Sumatera Selatan","city":"Ogan Ilir","district":"Kandis","urban":"Santapan Barat","postal_code":30867},{"province":"Sumatera Selatan","city":"Ogan Ilir","district":"Kandis","urban":"Santapan Timur","postal_code":30867},{"province":"Sumatera Selatan","city":"Ogan Ilir","district":"Kandis","urban":"Tanjung Alai","postal_code":30867},{"province":"Sumatera Selatan","city":"Ogan Ilir","district":"Kandis","urban":"Muara Kumbang","postal_code":30867},{"province":"Sumatera Selatan","city":"Ogan Ilir","district":"Kandis","urban":"Pandan Arang","postal_code":30867},{"province":"Sumatera Selatan","city":"Ogan Ilir","district":"Kandis","urban":"Lubuk Rukam","postal_code":30867},{"province":"Sumatera Selatan","city":"Ogan Ilir","district":"Kandis","urban":"Lubuk Segonang","postal_code":30867},{"province":"Sumatera Selatan","city":"Ogan Ilir","district":"Kandis","urban":"Miji","postal_code":30867},{"province":"Sumatera Selatan","city":"Ogan Ilir","district":"Kandis","urban":"Kumbang Ulu","postal_code":30867},{"province":"Sumatera Selatan","city":"Ogan Ilir","district":"Kandis","urban":"Kandis II","postal_code":30867},{"province":"Sumatera Selatan","city":"Ogan Ilir","district":"Kandis","urban":"Kumbang Ilir","postal_code":30867},{"province":"Sumatera Selatan","city":"Ogan Ilir","district":"Kandis","urban":"Kandis I","postal_code":30867}]