[{"province":"Sumatera Selatan","city":"Ogan Ilir","district":"Indralaya","urban":"Ulak Banding","postal_code":30862},{"province":"Sumatera Selatan","city":"Ogan Ilir","district":"Indralaya","urban":"Ulak Bedil","postal_code":30862},{"province":"Sumatera Selatan","city":"Ogan Ilir","district":"Indralaya","urban":"Ulak Segelung","postal_code":30862},{"province":"Sumatera Selatan","city":"Ogan Ilir","district":"Indralaya Utara","urban":"Timbangan","postal_code":30862},{"province":"Sumatera Selatan","city":"Ogan Ilir","district":"Indralaya","urban":"Tunas Aur","postal_code":30862},{"province":"Sumatera Selatan","city":"Ogan Ilir","district":"Indralaya Utara","urban":"Tanjung Pule","postal_code":30862},{"province":"Sumatera Selatan","city":"Ogan Ilir","district":"Indralaya Selatan","urban":"Tebing Gerinting Selatan","postal_code":30862},{"province":"Sumatera Selatan","city":"Ogan Ilir","district":"Indralaya Selatan","urban":"Tebing Gerinting Utara","postal_code":30862},{"province":"Sumatera Selatan","city":"Ogan Ilir","district":"Indralaya Selatan","urban":"Tanjung Dayang Utara","postal_code":30862},{"province":"Sumatera Selatan","city":"Ogan Ilir","district":"Indralaya","urban":"Tanjung Gelam","postal_code":30862},{"province":"Sumatera Selatan","city":"Ogan Ilir","district":"Indralaya Selatan","urban":"Tanjung Lubuk","postal_code":30862},{"province":"Sumatera Selatan","city":"Ogan Ilir","district":"Indralaya Utara","urban":"Tanjung Baru","postal_code":30862},{"province":"Sumatera Selatan","city":"Ogan Ilir","district":"Indralaya Selatan","urban":"Tanjung Dayang Selatan","postal_code":30862},{"province":"Sumatera Selatan","city":"Ogan Ilir","district":"Indralaya","urban":"Tanjung Agung","postal_code":30862},{"province":"Sumatera Selatan","city":"Ogan Ilir","district":"Indralaya Utara","urban":"Sungai Rambutan","postal_code":30862},{"province":"Sumatera Selatan","city":"Ogan Ilir","district":"Indralaya","urban":"Talang Aur","postal_code":30862},{"province":"Sumatera Selatan","city":"Ogan Ilir","district":"Indralaya Selatan","urban":"Sukaraja Baru","postal_code":30862},{"province":"Sumatera Selatan","city":"Ogan Ilir","district":"Indralaya Selatan","urban":"Sukaraja Lama","postal_code":30862},{"province":"Sumatera Selatan","city":"Ogan Ilir","district":"Indralaya Utara","urban":"Suka Mulia","postal_code":30862},{"province":"Sumatera Selatan","city":"Ogan Ilir","district":"Indralaya Utara","urban":"Suak/Soak Batok","postal_code":30862},{"province":"Sumatera Selatan","city":"Ogan Ilir","district":"Indralaya","urban":"Sudimampir","postal_code":30862},{"province":"Sumatera Selatan","city":"Ogan Ilir","district":"Indralaya Utara","urban":"Purnajaya","postal_code":30862},{"province":"Sumatera Selatan","city":"Ogan Ilir","district":"Indralaya","urban":"Sejaro Sakti","postal_code":30862},{"province":"Sumatera Selatan","city":"Ogan Ilir","district":"Indralaya Utara","urban":"Permata Baru","postal_code":30862},{"province":"Sumatera Selatan","city":"Ogan Ilir","district":"Indralaya Utara","urban":"Pulau Kabai","postal_code":30862},{"province":"Sumatera Selatan","city":"Ogan Ilir","district":"Indralaya Utara","urban":"Pulau Semambu","postal_code":30862},{"province":"Sumatera Selatan","city":"Ogan Ilir","district":"Indralaya Utara","urban":"Parit","postal_code":30862},{"province":"Sumatera Selatan","city":"Ogan Ilir","district":"Indralaya","urban":"Penyandingan","postal_code":30862},{"province":"Sumatera Selatan","city":"Ogan Ilir","district":"Indralaya Utara","urban":"Palem Raya","postal_code":30862},{"province":"Sumatera Selatan","city":"Ogan Ilir","district":"Indralaya","urban":"Muara Penimbung Ulu","postal_code":30862},{"province":"Sumatera Selatan","city":"Ogan Ilir","district":"Indralaya","urban":"Muara Penimbung Ilir","postal_code":30862},{"province":"Sumatera Selatan","city":"Ogan Ilir","district":"Indralaya Selatan","urban":"Meranjat Ilir","postal_code":30862},{"province":"Sumatera Selatan","city":"Ogan Ilir","district":"Indralaya Selatan","urban":"Meranjat II","postal_code":30862},{"province":"Sumatera Selatan","city":"Ogan Ilir","district":"Indralaya Selatan","urban":"Meranjat III","postal_code":30862},{"province":"Sumatera Selatan","city":"Ogan Ilir","district":"Indralaya Selatan","urban":"Mandiangin","postal_code":30862},{"province":"Sumatera Selatan","city":"Ogan Ilir","district":"Indralaya","urban":"Lubuk Sakti","postal_code":30862},{"province":"Sumatera Selatan","city":"Ogan Ilir","district":"Indralaya Selatan","urban":"Meranjat I","postal_code":30862},{"province":"Sumatera Selatan","city":"Ogan Ilir","district":"Indralaya Utara","urban":"Lorok","postal_code":30862},{"province":"Sumatera Selatan","city":"Ogan Ilir","district":"Indralaya","urban":"Indralaya Mulia","postal_code":30862},{"province":"Sumatera Selatan","city":"Ogan Ilir","district":"Indralaya","urban":"Indralaya Raya","postal_code":30862},{"province":"Sumatera Selatan","city":"Ogan Ilir","district":"Indralaya Utara","urban":"Bakung","postal_code":30862},{"province":"Sumatera Selatan","city":"Ogan Ilir","district":"Indralaya","urban":"Indralaya Indah","postal_code":30862},{"province":"Sumatera Selatan","city":"Ogan Ilir","district":"Indralaya Selatan","urban":"Beti","postal_code":30862},{"province":"Sumatera Selatan","city":"Ogan Ilir","district":"Indralaya Selatan","urban":"Arisan Gading","postal_code":30862}]