[{"province":"Sumatera Selatan","city":"Banyuasin","district":"Banyuasin III","urban":"Terlangu","postal_code":30953},{"province":"Sumatera Selatan","city":"Banyuasin","district":"Banyuasin III","urban":"Ujung Tanjung","postal_code":30953},{"province":"Sumatera Selatan","city":"Banyuasin","district":"Banyuasin III","urban":"Tanjung Menang","postal_code":30953},{"province":"Sumatera Selatan","city":"Banyuasin","district":"Banyuasin III","urban":"Terentang","postal_code":30953},{"province":"Sumatera Selatan","city":"Banyuasin","district":"Banyuasin III","urban":"Tanjung Beringin","postal_code":30953},{"province":"Sumatera Selatan","city":"Banyuasin","district":"Banyuasin III","urban":"Tanjung Kepayang","postal_code":30953},{"province":"Sumatera Selatan","city":"Banyuasin","district":"Banyuasin III","urban":"Sri Bandung","postal_code":30953},{"province":"Sumatera Selatan","city":"Banyuasin","district":"Banyuasin III","urban":"Tanjung Agung","postal_code":30953},{"province":"Sumatera Selatan","city":"Banyuasin","district":"Sembawa","urban":"Suka Makmur","postal_code":30953},{"province":"Sumatera Selatan","city":"Banyuasin","district":"Banyuasin III","urban":"Sidang Mas","postal_code":30953},{"province":"Sumatera Selatan","city":"Banyuasin","district":"Sembawa","urban":"Santansari","postal_code":30953},{"province":"Sumatera Selatan","city":"Banyuasin","district":"Banyuasin III","urban":"Rimba Alai","postal_code":30953},{"province":"Sumatera Selatan","city":"Banyuasin","district":"Banyuasin III","urban":"Rimba Balai","postal_code":30953},{"province":"Sumatera Selatan","city":"Banyuasin","district":"Sembawa","urban":"Rejodadi","postal_code":30953},{"province":"Sumatera Selatan","city":"Banyuasin","district":"Banyuasin III","urban":"Regan Agung","postal_code":30953},{"province":"Sumatera Selatan","city":"Banyuasin","district":"Sembawa","urban":"Purwosari","postal_code":30953},{"province":"Sumatera Selatan","city":"Banyuasin","district":"Sembawa","urban":"Pulau Harapan","postal_code":30953},{"province":"Sumatera Selatan","city":"Banyuasin","district":"Sembawa","urban":"Pulau Muning","postal_code":30953},{"province":"Sumatera Selatan","city":"Banyuasin","district":"Banyuasin III","urban":"Pelajau Ilir","postal_code":30953},{"province":"Sumatera Selatan","city":"Banyuasin","district":"Banyuasin III","urban":"Petaling","postal_code":30953},{"province":"Sumatera Selatan","city":"Banyuasin","district":"Banyuasin III","urban":"Pangkalan Panji","postal_code":30953},{"province":"Sumatera Selatan","city":"Banyuasin","district":"Banyuasin III","urban":"Pelajau","postal_code":30953},{"province":"Sumatera Selatan","city":"Banyuasin","district":"Sembawa","urban":"Muara Damai","postal_code":30953},{"province":"Sumatera Selatan","city":"Banyuasin","district":"Banyuasin III","urban":"Lubuk Saung","postal_code":30953},{"province":"Sumatera Selatan","city":"Banyuasin","district":"Sembawa","urban":"Mainan","postal_code":30953},{"province":"Sumatera Selatan","city":"Banyuasin","district":"Sembawa","urban":"Limau","postal_code":30953},{"province":"Sumatera Selatan","city":"Banyuasin","district":"Sembawa","urban":"Limbang Mulya","postal_code":30953},{"province":"Sumatera Selatan","city":"Banyuasin","district":"Banyuasin III","urban":"Langkan","postal_code":30953},{"province":"Sumatera Selatan","city":"Banyuasin","district":"Sembawa","urban":"Lalang Sembawa","postal_code":30953},{"province":"Sumatera Selatan","city":"Banyuasin","district":"Banyuasin III","urban":"Galang Tinggi","postal_code":30953},{"province":"Sumatera Selatan","city":"Banyuasin","district":"Banyuasin III","urban":"Kedondong Raye","postal_code":30953}]