[{"province":"Sumatera Selatan","city":"Banyuasin","district":"Suak Tapeh","urban":"Tanjung Laut","postal_code":30958},{"province":"Sumatera Selatan","city":"Banyuasin","district":"Betung","urban":"Taja / Talang Jaya Raya II","postal_code":30958},{"province":"Sumatera Selatan","city":"Banyuasin","district":"Suak Tapeh","urban":"Talang Ipuh","postal_code":30958},{"province":"Sumatera Selatan","city":"Banyuasin","district":"Betung","urban":"Taja / Talang Jaya Indah","postal_code":30958},{"province":"Sumatera Selatan","city":"Banyuasin","district":"Betung","urban":"Taja / Talang Jaya Mulya","postal_code":30958},{"province":"Sumatera Selatan","city":"Banyuasin","district":"Betung","urban":"Taja / Talang Jaya Raya 1","postal_code":30958},{"province":"Sumatera Selatan","city":"Banyuasin","district":"Suak Tapeh","urban":"Sukaraja","postal_code":30958},{"province":"Sumatera Selatan","city":"Banyuasin","district":"Betung","urban":"Suka Mulya","postal_code":30958},{"province":"Sumatera Selatan","city":"Banyuasin","district":"Suak Tapeh","urban":"Sedang","postal_code":30958},{"province":"Sumatera Selatan","city":"Banyuasin","district":"Betung","urban":"Sri / Seri Kembang","postal_code":30958},{"province":"Sumatera Selatan","city":"Banyuasin","district":"Betung","urban":"Rimba Asam","postal_code":30958},{"province":"Sumatera Selatan","city":"Banyuasin","district":"Suak Tapeh","urban":"Rimba Terab","postal_code":30958},{"province":"Sumatera Selatan","city":"Banyuasin","district":"Betung","urban":"Pulau Rajak","postal_code":30958},{"province":"Sumatera Selatan","city":"Banyuasin","district":"Suak Tapeh","urban":"Lubuk Lancang","postal_code":30958},{"province":"Sumatera Selatan","city":"Banyuasin","district":"Suak Tapeh","urban":"Meranti","postal_code":30958},{"province":"Sumatera Selatan","city":"Banyuasin","district":"Betung","urban":"Lubuk Karet","postal_code":30958},{"province":"Sumatera Selatan","city":"Banyuasin","district":"Suak Tapeh","urban":"Durian Daun","postal_code":30958},{"province":"Sumatera Selatan","city":"Banyuasin","district":"Betung","urban":"Bukit","postal_code":30958},{"province":"Sumatera Selatan","city":"Banyuasin","district":"Suak Tapeh","urban":"Biyuku","postal_code":30958},{"province":"Sumatera Selatan","city":"Banyuasin","district":"Betung","urban":"Betung","postal_code":30958},{"province":"Sumatera Selatan","city":"Banyuasin","district":"Suak Tapeh","urban":"Bengkuang","postal_code":30958},{"province":"Sumatera Selatan","city":"Banyuasin","district":"Suak Tapeh","urban":"Air Senggeris","postal_code":30958}]