[{"province":"Sumatera Selatan","city":"Banyuasin","district":"Pulau Rimau","urban":"Wana Mukti","postal_code":30959},{"province":"Sumatera Selatan","city":"Banyuasin","district":"Pulau Rimau","urban":"Wonodadi","postal_code":30959},{"province":"Sumatera Selatan","city":"Banyuasin","district":"Pulau Rimau","urban":"Wonosari","postal_code":30959},{"province":"Sumatera Selatan","city":"Banyuasin","district":"Pulau Rimau","urban":"Tirta Mulya (Tirto Mulyo)","postal_code":30959},{"province":"Sumatera Selatan","city":"Banyuasin","district":"Tungkal Ilir","urban":"Teluk Tenggulang","postal_code":30959},{"province":"Sumatera Selatan","city":"Banyuasin","district":"Pulau Rimau","urban":"Sumber Rejo","postal_code":30959},{"province":"Sumatera Selatan","city":"Banyuasin","district":"Pulau Rimau","urban":"Tabuan Asri","postal_code":30959},{"province":"Sumatera Selatan","city":"Banyuasin","district":"Pulau Rimau","urban":"Teluk Betung","postal_code":30959},{"province":"Sumatera Selatan","city":"Banyuasin","district":"Pulau Rimau","urban":"Sumber Mukti","postal_code":30959},{"province":"Sumatera Selatan","city":"Banyuasin","district":"Pulau Rimau","urban":"Sumber Mulya/Mulyo","postal_code":30959},{"province":"Sumatera Selatan","city":"Banyuasin","district":"Pulau Rimau","urban":"Sumber Rejeki","postal_code":30959},{"province":"Sumatera Selatan","city":"Banyuasin","district":"Pulau Rimau","urban":"Sumber Agung","postal_code":30959},{"province":"Sumatera Selatan","city":"Banyuasin","district":"Tungkal Ilir","urban":"Sukamulya","postal_code":30959},{"province":"Sumatera Selatan","city":"Banyuasin","district":"Tungkal Ilir","urban":"Suka Karya","postal_code":30959},{"province":"Sumatera Selatan","city":"Banyuasin","district":"Tungkal Ilir","urban":"Suka Raja","postal_code":30959},{"province":"Sumatera Selatan","city":"Banyuasin","district":"Tungkal Ilir","urban":"Sukajaya","postal_code":30959},{"province":"Sumatera Selatan","city":"Banyuasin","district":"Pulau Rimau","urban":"Senda Mukti (Air Senda II)","postal_code":30959},{"province":"Sumatera Selatan","city":"Banyuasin","district":"Pulau Rimau","urban":"Songo Makmur","postal_code":30959},{"province":"Sumatera Selatan","city":"Banyuasin","district":"Tungkal Ilir","urban":"Sidomulyo","postal_code":30959},{"province":"Sumatera Selatan","city":"Banyuasin","district":"Pulau Rimau","urban":"Ringin Harjo","postal_code":30959},{"province":"Sumatera Selatan","city":"Banyuasin","district":"Pulau Rimau","urban":"Rukun Makmur","postal_code":30959},{"province":"Sumatera Selatan","city":"Banyuasin","district":"Pulau Rimau","urban":"Purwodadi","postal_code":30959},{"province":"Sumatera Selatan","city":"Banyuasin","district":"Pulau Rimau","urban":"Rawa Banda","postal_code":30959},{"province":"Sumatera Selatan","city":"Banyuasin","district":"Pulau Rimau","urban":"Penuguan","postal_code":30959},{"province":"Sumatera Selatan","city":"Banyuasin","district":"Tungkal Ilir","urban":"Pancamulya","postal_code":30959},{"province":"Sumatera Selatan","city":"Banyuasin","district":"Pulau Rimau","urban":"Nunggal Sari","postal_code":30959},{"province":"Sumatera Selatan","city":"Banyuasin","district":"Pulau Rimau","urban":"Mekar Sari","postal_code":30959},{"province":"Sumatera Selatan","city":"Banyuasin","district":"Pulau Rimau","urban":"Mukut","postal_code":30959},{"province":"Sumatera Selatan","city":"Banyuasin","district":"Tungkal Ilir","urban":"Keluang","postal_code":30959},{"province":"Sumatera Selatan","city":"Banyuasin","district":"Tungkal Ilir","urban":"Marga Rahayu","postal_code":30959},{"province":"Sumatera Selatan","city":"Banyuasin","district":"Pulau Rimau","urban":"Majatra","postal_code":30959},{"province":"Sumatera Selatan","city":"Banyuasin","district":"Tungkal Ilir","urban":"Karang Mulya","postal_code":30959},{"province":"Sumatera Selatan","city":"Banyuasin","district":"Pulau Rimau","urban":"Karang Manunggal","postal_code":30959},{"province":"Sumatera Selatan","city":"Banyuasin","district":"Pulau Rimau","urban":"Kelapa Dua","postal_code":30959},{"province":"Sumatera Selatan","city":"Banyuasin","district":"Tungkal Ilir","urban":"Karang Anyar","postal_code":30959},{"province":"Sumatera Selatan","city":"Banyuasin","district":"Tungkal Ilir","urban":"Karang Asem","postal_code":30959},{"province":"Sumatera Selatan","city":"Banyuasin","district":"Tungkal Ilir","urban":"Bumi Serdang","postal_code":30959},{"province":"Sumatera Selatan","city":"Banyuasin","district":"Pulau Rimau","urban":"Bumi Rejo","postal_code":30959},{"province":"Sumatera Selatan","city":"Banyuasin","district":"Pulau Rimau","urban":"Dana Mulya","postal_code":30959},{"province":"Sumatera Selatan","city":"Banyuasin","district":"Pulau Rimau","urban":"Buana Murti (Air Senda III)","postal_code":30959},{"province":"Sumatera Selatan","city":"Banyuasin","district":"Pulau Rimau","urban":"Budi Asih","postal_code":30959},{"province":"Sumatera Selatan","city":"Banyuasin","district":"Tungkal Ilir","urban":"Bentayan","postal_code":30959},{"province":"Sumatera Selatan","city":"Banyuasin","district":"Pulau Rimau","urban":"Banjarsari (Air Senda IV)","postal_code":30959}]