[{"province":"Sumatera Selatan","city":"Banyuasin","district":"Banyuasin I","urban":"Tirto Sari","postal_code":30962},{"province":"Sumatera Selatan","city":"Banyuasin","district":"Air Kumbang","urban":"Teluk Tenggirik","postal_code":30962},{"province":"Sumatera Selatan","city":"Banyuasin","district":"Air Kumbang","urban":"Tirta Makmur","postal_code":30962},{"province":"Sumatera Selatan","city":"Banyuasin","district":"Banyuasin I","urban":"Sungai Gerong","postal_code":30962},{"province":"Sumatera Selatan","city":"Banyuasin","district":"Banyuasin I","urban":"Sungai Rebo","postal_code":30962},{"province":"Sumatera Selatan","city":"Banyuasin","district":"Air Kumbang","urban":"Sido Makmur","postal_code":30962},{"province":"Sumatera Selatan","city":"Banyuasin","district":"Air Kumbang","urban":"Sidomulyo","postal_code":30962},{"province":"Sumatera Selatan","city":"Banyuasin","district":"Air Kumbang","urban":"Rimba Jaya","postal_code":30962},{"province":"Sumatera Selatan","city":"Banyuasin","district":"Air Kumbang","urban":"Sebokor","postal_code":30962},{"province":"Sumatera Selatan","city":"Banyuasin","district":"Air Kumbang","urban":"Sebubus","postal_code":30962},{"province":"Sumatera Selatan","city":"Banyuasin","district":"Banyuasin I","urban":"Pulau Borang","postal_code":30962},{"province":"Sumatera Selatan","city":"Banyuasin","district":"Banyuasin I","urban":"Perambahan","postal_code":30962},{"province":"Sumatera Selatan","city":"Banyuasin","district":"Banyuasin I","urban":"Perambahan Baru","postal_code":30962},{"province":"Sumatera Selatan","city":"Banyuasin","district":"Banyuasin I","urban":"Pematang Palas","postal_code":30962},{"province":"Sumatera Selatan","city":"Banyuasin","district":"Banyuasin I","urban":"Perajen","postal_code":30962},{"province":"Sumatera Selatan","city":"Banyuasin","district":"Air Kumbang","urban":"Panca Mulya","postal_code":30962},{"province":"Sumatera Selatan","city":"Banyuasin","district":"Air Kumbang","urban":"Panca Desa","postal_code":30962},{"province":"Sumatera Selatan","city":"Banyuasin","district":"Air Kumbang","urban":"Nusa Makmur","postal_code":30962},{"province":"Sumatera Selatan","city":"Banyuasin","district":"Air Kumbang","urban":"Padang Rejo","postal_code":30962},{"province":"Sumatera Selatan","city":"Banyuasin","district":"Banyuasin I","urban":"Mariana Ilir","postal_code":30962},{"province":"Sumatera Selatan","city":"Banyuasin","district":"Air Kumbang","urban":"Muarabaru","postal_code":30962},{"province":"Sumatera Selatan","city":"Banyuasin","district":"Banyuasin I","urban":"Merah Mata","postal_code":30962},{"province":"Sumatera Selatan","city":"Banyuasin","district":"Air Kumbang","urban":"Kumbang Padang Permata","postal_code":30962},{"province":"Sumatera Selatan","city":"Banyuasin","district":"Banyuasin I","urban":"Mariana","postal_code":30962},{"province":"Sumatera Selatan","city":"Banyuasin","district":"Banyuasin I","urban":"Cinta Manis Lama","postal_code":30962},{"province":"Sumatera Selatan","city":"Banyuasin","district":"Banyuasin I","urban":"Duren Ijo","postal_code":30962},{"province":"Sumatera Selatan","city":"Banyuasin","district":"Air Kumbang","urban":"Budi Mulyo","postal_code":30962},{"province":"Sumatera Selatan","city":"Banyuasin","district":"Air Kumbang","urban":"Cinta Manis Baru","postal_code":30962},{"province":"Sumatera Selatan","city":"Banyuasin","district":"Air Kumbang","urban":"Air Kumbang Bakti","postal_code":30962}]