[{"province":"Sumatera Selatan","city":"Banyuasin","district":"Tanjung Lago","urban":"Tanjung Lago","postal_code":30961},{"province":"Sumatera Selatan","city":"Banyuasin","district":"Talang Kelapa","urban":"Talang Keramat","postal_code":30961},{"province":"Sumatera Selatan","city":"Banyuasin","district":"Talang Kelapa","urban":"Tanah Mas","postal_code":30961},{"province":"Sumatera Selatan","city":"Banyuasin","district":"Talang Kelapa","urban":"Talang Buluh","postal_code":30961},{"province":"Sumatera Selatan","city":"Banyuasin","district":"Tanjung Lago","urban":"Sumber Mekar Mukti","postal_code":30961},{"province":"Sumatera Selatan","city":"Banyuasin","district":"Talang Kelapa","urban":"Sungai Rengit","postal_code":30961},{"province":"Sumatera Selatan","city":"Banyuasin","district":"Talang Kelapa","urban":"Sungairengit Murni","postal_code":30961},{"province":"Sumatera Selatan","city":"Banyuasin","district":"Talang Kelapa","urban":"Sukajadi","postal_code":30961},{"province":"Sumatera Selatan","city":"Banyuasin","district":"Talang Kelapa","urban":"Sukamoro","postal_code":30961},{"province":"Sumatera Selatan","city":"Banyuasin","district":"Tanjung Lago","urban":"Suka Damai","postal_code":30961},{"province":"Sumatera Selatan","city":"Banyuasin","district":"Tanjung Lago","urban":"Suka Tani","postal_code":30961},{"province":"Sumatera Selatan","city":"Banyuasin","district":"Tanjung Lago","urban":"Sebalik","postal_code":30961},{"province":"Sumatera Selatan","city":"Banyuasin","district":"Tanjung Lago","urban":"Seri/Sri Menanti","postal_code":30961},{"province":"Sumatera Selatan","city":"Banyuasin","district":"Talang Kelapa","urban":"Pangkalan Benteng","postal_code":30961},{"province":"Sumatera Selatan","city":"Banyuasin","district":"Tanjung Lago","urban":"Manggar Raya","postal_code":30961},{"province":"Sumatera Selatan","city":"Banyuasin","district":"Tanjung Lago","urban":"Muara Sugih","postal_code":30961},{"province":"Sumatera Selatan","city":"Banyuasin","district":"Tanjung Lago","urban":"Kuala Puntian","postal_code":30961},{"province":"Sumatera Selatan","city":"Banyuasin","district":"Talang Kelapa","urban":"Kenten","postal_code":30961},{"province":"Sumatera Selatan","city":"Banyuasin","district":"Talang Kelapa","urban":"Kenten Laut","postal_code":30961},{"province":"Sumatera Selatan","city":"Banyuasin","district":"Talang Kelapa","urban":"Gasing","postal_code":30961},{"province":"Sumatera Selatan","city":"Banyuasin","district":"Tanjung Lago","urban":"Bangun Sari","postal_code":30961},{"province":"Sumatera Selatan","city":"Banyuasin","district":"Tanjung Lago","urban":"Banyu Urip","postal_code":30961},{"province":"Sumatera Selatan","city":"Banyuasin","district":"Tanjung Lago","urban":"Bunga Karang","postal_code":30961},{"province":"Sumatera Selatan","city":"Banyuasin","district":"Talang Kelapa","urban":"Air Batu","postal_code":30961}]