[{"province":"Sumatera Selatan","city":"Banyuasin","district":"Muara Telang","urban":"Upang Karya","postal_code":30974},{"province":"Sumatera Selatan","city":"Banyuasin","district":"Muara Telang","urban":"Upang Ceria","postal_code":30974},{"province":"Sumatera Selatan","city":"Banyuasin","district":"Muara Telang","urban":"Upang Jaya","postal_code":30974},{"province":"Sumatera Selatan","city":"Banyuasin","district":"Muara Telang","urban":"Upang Cemara","postal_code":30974},{"province":"Sumatera Selatan","city":"Banyuasin","district":"Sumber Marga Telang","urban":"Terusan Tengah","postal_code":30974},{"province":"Sumatera Selatan","city":"Banyuasin","district":"Sumber Marga Telang","urban":"Terusan Dalam","postal_code":30974},{"province":"Sumatera Selatan","city":"Banyuasin","district":"Sumber Marga Telang","urban":"Terusan Muara","postal_code":30974},{"province":"Sumatera Selatan","city":"Banyuasin","district":"Tanjung Lago","urban":"Telang Sari","postal_code":30974},{"province":"Sumatera Selatan","city":"Banyuasin","district":"Muara Telang","urban":"Telang Makmur","postal_code":30974},{"province":"Sumatera Selatan","city":"Banyuasin","district":"Muara Telang","urban":"Telang Rejo","postal_code":30974},{"province":"Sumatera Selatan","city":"Banyuasin","district":"Muara Telang","urban":"Telang Karya","postal_code":30974},{"province":"Sumatera Selatan","city":"Banyuasin","district":"Muara Telang","urban":"Telang Jaya","postal_code":30974},{"province":"Sumatera Selatan","city":"Banyuasin","district":"Sumber Marga Telang","urban":"Talang Lubuk","postal_code":30974},{"province":"Sumatera Selatan","city":"Banyuasin","district":"Muara Telang","urban":"Talang Indah","postal_code":30974},{"province":"Sumatera Selatan","city":"Banyuasin","district":"Muara Telang","urban":"Sumber Mulya","postal_code":30974},{"province":"Sumatera Selatan","city":"Banyuasin","district":"Sumber Marga Telang","urban":"Sumber Jaya","postal_code":30974},{"province":"Sumatera Selatan","city":"Banyuasin","district":"Muara Telang","urban":"Sumber Hidup","postal_code":30974},{"province":"Sumatera Selatan","city":"Banyuasin","district":"Sumber Marga Telang","urban":"Sri Tiga","postal_code":30974},{"province":"Sumatera Selatan","city":"Banyuasin","district":"Tanjung Lago","urban":"Purwosari","postal_code":30974},{"province":"Sumatera Selatan","city":"Banyuasin","district":"Muara Telang","urban":"Panca Mukti","postal_code":30974},{"province":"Sumatera Selatan","city":"Banyuasin","district":"Tanjung Lago","urban":"Mulya Sari","postal_code":30974},{"province":"Sumatera Selatan","city":"Banyuasin","district":"Muara Telang","urban":"Mukti Jaya","postal_code":30974},{"province":"Sumatera Selatan","city":"Banyuasin","district":"Sumber Marga Telang","urban":"Muara Telang Marga/Margo","postal_code":30974},{"province":"Sumatera Selatan","city":"Banyuasin","district":"Sumber Marga Telang","urban":"Muara Telang","postal_code":30974},{"province":"Sumatera Selatan","city":"Banyuasin","district":"Muara Telang","urban":"Mekar Sari","postal_code":30974},{"province":"Sumatera Selatan","city":"Banyuasin","district":"Muara Telang","urban":"Mekar Mukti","postal_code":30974},{"province":"Sumatera Selatan","city":"Banyuasin","district":"Muara Telang","urban":"Marga Rahayu","postal_code":30974},{"province":"Sumatera Selatan","city":"Banyuasin","district":"Sumber Marga Telang","urban":"Karang Baru","postal_code":30974},{"province":"Sumatera Selatan","city":"Banyuasin","district":"Sumber Marga Telang","urban":"Karang Anyar","postal_code":30974}]