[{"province":"Sumatera Selatan","city":"Banyuasin","district":"Air Salek","urban":"Upang Marga","postal_code":30975},{"province":"Sumatera Selatan","city":"Banyuasin","district":"Air Salek","urban":"Upang","postal_code":30975},{"province":"Sumatera Selatan","city":"Banyuasin","district":"Muara Padang","urban":"Tirto Raharjo","postal_code":30975},{"province":"Sumatera Selatan","city":"Banyuasin","district":"Muara Sugihan","urban":"Tirto Harjo","postal_code":30975},{"province":"Sumatera Selatan","city":"Banyuasin","district":"Muara Padang","urban":"Tirta Jaya","postal_code":30975},{"province":"Sumatera Selatan","city":"Banyuasin","district":"Muara Sugihan","urban":"Tirta/Tirto Mulyo","postal_code":30975},{"province":"Sumatera Selatan","city":"Banyuasin","district":"Muara Padang","urban":"Tanjung Baru","postal_code":30975},{"province":"Sumatera Selatan","city":"Banyuasin","district":"Muara Sugihan","urban":"Timbul Jaya","postal_code":30975},{"province":"Sumatera Selatan","city":"Banyuasin","district":"Muara Padang","urban":"Sumber Makmur","postal_code":30975},{"province":"Sumatera Selatan","city":"Banyuasin","district":"Muara Sugihan","urban":"Sumber Mulyo","postal_code":30975},{"province":"Sumatera Selatan","city":"Banyuasin","district":"Muara Sugihan","urban":"Sugih Waras","postal_code":30975},{"province":"Sumatera Selatan","city":"Banyuasin","district":"Air Salek","urban":"Srimulyo","postal_code":30975},{"province":"Sumatera Selatan","city":"Banyuasin","district":"Muara Padang","urban":"Sidomulyo 18","postal_code":30975},{"province":"Sumatera Selatan","city":"Banyuasin","district":"Muara Padang","urban":"Sidomulyo 20","postal_code":30975},{"province":"Sumatera Selatan","city":"Banyuasin","district":"Air Salek","urban":"Sidoharjo","postal_code":30975},{"province":"Sumatera Selatan","city":"Banyuasin","district":"Muara Padang","urban":"Sidorejo","postal_code":30975},{"province":"Sumatera Selatan","city":"Banyuasin","district":"Muara Sugihan","urban":"Rejosari","postal_code":30975},{"province":"Sumatera Selatan","city":"Banyuasin","district":"Air Salek","urban":"Srikaton","postal_code":30975},{"province":"Sumatera Selatan","city":"Banyuasin","district":"Muara Sugihan","urban":"Sido Makmur","postal_code":30975},{"province":"Sumatera Selatan","city":"Banyuasin","district":"Air Salek","urban":"Saleh Makmur","postal_code":30975},{"province":"Sumatera Selatan","city":"Banyuasin","district":"Muara Padang","urban":"Muara Padang","postal_code":30975},{"province":"Sumatera Selatan","city":"Banyuasin","district":"Muara Padang","urban":"Purwodadi","postal_code":30975},{"province":"Sumatera Selatan","city":"Banyuasin","district":"Muara Padang","urban":"Margomulyo 20","postal_code":30975},{"province":"Sumatera Selatan","city":"Banyuasin","district":"Muara Sugihan","urban":"Margo Mulyo 16","postal_code":30975},{"province":"Sumatera Selatan","city":"Banyuasin","district":"Muara Sugihan","urban":"Mekar Jaya","postal_code":30975},{"province":"Sumatera Selatan","city":"Banyuasin","district":"Muara Padang","urban":"Marga Sugihan","postal_code":30975},{"province":"Sumatera Selatan","city":"Banyuasin","district":"Muara Sugihan","urban":"Marega Rukun (Margo/Marga Rukun)","postal_code":30975},{"province":"Sumatera Selatan","city":"Banyuasin","district":"Muara Sugihan","urban":"Juru Taro (Taroh)","postal_code":30975},{"province":"Sumatera Selatan","city":"Banyuasin","district":"Muara Sugihan","urban":"Kuala/Kualo Sugihan","postal_code":30975},{"province":"Sumatera Selatan","city":"Banyuasin","district":"Muara Padang","urban":"Karang Anyar","postal_code":30975},{"province":"Sumatera Selatan","city":"Banyuasin","district":"Muara Sugihan","urban":"Gilirang","postal_code":30975},{"province":"Sumatera Selatan","city":"Banyuasin","district":"Muara Sugihan","urban":"Indrapura","postal_code":30975},{"province":"Sumatera Selatan","city":"Banyuasin","district":"Muara Sugihan","urban":"Jalur Mulya","postal_code":30975},{"province":"Sumatera Selatan","city":"Banyuasin","district":"Muara Sugihan","urban":"Ganesha Mukti","postal_code":30975},{"province":"Sumatera Selatan","city":"Banyuasin","district":"Air Salek","urban":"Enggalrejo","postal_code":30975},{"province":"Sumatera Selatan","city":"Banyuasin","district":"Muara Sugihan","urban":"Ganesha Mukti","postal_code":30975},{"province":"Sumatera Selatan","city":"Banyuasin","district":"Muara Padang","urban":"Daya Makmur","postal_code":30975},{"province":"Sumatera Selatan","city":"Banyuasin","district":"Muara Sugihan","urban":"Daya Kusuma/Kesuma","postal_code":30975},{"province":"Sumatera Selatan","city":"Banyuasin","district":"Muara Sugihan","urban":"Daya Murni","postal_code":30975},{"province":"Sumatera Selatan","city":"Banyuasin","district":"Air Salek","urban":"Damarwulan","postal_code":30975},{"province":"Sumatera Selatan","city":"Banyuasin","district":"Muara Sugihan","urban":"Cendana","postal_code":30975},{"province":"Sumatera Selatan","city":"Banyuasin","district":"Muara Sugihan","urban":"Daya Bangun Harjo","postal_code":30975},{"province":"Sumatera Selatan","city":"Banyuasin","district":"Air Salek","urban":"Bintaran","postal_code":30975},{"province":"Sumatera Selatan","city":"Banyuasin","district":"Muara Sugihan","urban":"Beringin Agung","postal_code":30975},{"province":"Sumatera Selatan","city":"Banyuasin","district":"Air Salek","urban":"Air Solok Batu","postal_code":30975},{"province":"Sumatera Selatan","city":"Banyuasin","district":"Muara Sugihan","urban":"Argo Mulyo","postal_code":30975},{"province":"Sumatera Selatan","city":"Banyuasin","district":"Muara Padang","urban":"Air Gading","postal_code":30975}]