[{"province":"Sumatera Selatan","city":"Muara Enim","district":"Lembak","urban":"Tapus","postal_code":31171},{"province":"Sumatera Selatan","city":"Muara Enim","district":"Kelekar","urban":"Tanjung Medang","postal_code":31171},{"province":"Sumatera Selatan","city":"Muara Enim","district":"Gelumbang","urban":"Teluk Limau","postal_code":31171},{"province":"Sumatera Selatan","city":"Muara Enim","district":"Kelekar","urban":"Teluk Jaya","postal_code":31171},{"province":"Sumatera Selatan","city":"Muara Enim","district":"Muara Belida","urban":"Tanjung Baru","postal_code":31171},{"province":"Sumatera Selatan","city":"Muara Enim","district":"Lembak","urban":"Tanjung Bunut","postal_code":31171},{"province":"Sumatera Selatan","city":"Muara Enim","district":"Gelumbang","urban":"Tambangan Kelekar","postal_code":31171},{"province":"Sumatera Selatan","city":"Muara Enim","district":"Lembak","urban":"Talang Nangka","postal_code":31171},{"province":"Sumatera Selatan","city":"Muara Enim","district":"Gelumbang","urban":"Talang Taling","postal_code":31171},{"province":"Sumatera Selatan","city":"Muara Enim","district":"Gelumbang","urban":"Suka Menang","postal_code":31171},{"province":"Sumatera Selatan","city":"Muara Enim","district":"Lembak","urban":"Sungai Duren","postal_code":31171},{"province":"Sumatera Selatan","city":"Muara Enim","district":"Lembak","urban":"Talang Balai","postal_code":31171},{"province":"Sumatera Selatan","city":"Muara Enim","district":"Kelekar","urban":"Suban Baru","postal_code":31171},{"province":"Sumatera Selatan","city":"Muara Enim","district":"Gelumbang","urban":"Suka Jaya","postal_code":31171},{"province":"Sumatera Selatan","city":"Muara Enim","district":"Gelumbang","urban":"Sigam","postal_code":31171},{"province":"Sumatera Selatan","city":"Muara Enim","district":"Lembak","urban":"Sialingan","postal_code":31171},{"province":"Sumatera Selatan","city":"Muara Enim","district":"Gelumbang","urban":"Putak","postal_code":31171},{"province":"Sumatera Selatan","city":"Muara Enim","district":"Gelumbang","urban":"Sebau","postal_code":31171},{"province":"Sumatera Selatan","city":"Muara Enim","district":"Gelumbang","urban":"Segayam","postal_code":31171},{"province":"Sumatera Selatan","city":"Muara Enim","district":"Gelumbang","urban":"Pinang Banjar","postal_code":31171},{"province":"Sumatera Selatan","city":"Muara Enim","district":"Lembak","urban":"Petanang","postal_code":31171},{"province":"Sumatera Selatan","city":"Muara Enim","district":"Kelekar","urban":"Pelempang","postal_code":31171},{"province":"Sumatera Selatan","city":"Muara Enim","district":"Gelumbang","urban":"Payabakal","postal_code":31171},{"province":"Sumatera Selatan","city":"Muara Enim","district":"Gelumbang","urban":"Pedataran","postal_code":31171},{"province":"Sumatera Selatan","city":"Muara Enim","district":"Gelumbang","urban":"Midar","postal_code":31171},{"province":"Sumatera Selatan","city":"Muara Enim","district":"Muara Belida","urban":"Mulia Abadi","postal_code":31171},{"province":"Sumatera Selatan","city":"Muara Enim","district":"Muara Belida","urban":"Patra Tani","postal_code":31171},{"province":"Sumatera Selatan","city":"Muara Enim","district":"Kelekar","urban":"Menanti","postal_code":31171},{"province":"Sumatera Selatan","city":"Muara Enim","district":"Kelekar","urban":"Menanti Selatan","postal_code":31171},{"province":"Sumatera Selatan","city":"Muara Enim","district":"Gelumbang","urban":"Melilian/Mililian","postal_code":31171},{"province":"Sumatera Selatan","city":"Muara Enim","district":"Lembak","urban":"Lembak","postal_code":31171},{"province":"Sumatera Selatan","city":"Muara Enim","district":"Gelumbang","urban":"Kartamulia/Kerta Mulia","postal_code":31171},{"province":"Sumatera Selatan","city":"Muara Enim","district":"Muara Belida","urban":"Kayu Ara Batu","postal_code":31171},{"province":"Sumatera Selatan","city":"Muara Enim","district":"Lembak","urban":"Kemang","postal_code":31171},{"province":"Sumatera Selatan","city":"Muara Enim","district":"Gelumbang","urban":"Karang Endah Selatan","postal_code":31171},{"province":"Sumatera Selatan","city":"Muara Enim","district":"Gelumbang","urban":"Jambu","postal_code":31171},{"province":"Sumatera Selatan","city":"Muara Enim","district":"Gelumbang","urban":"Karang Endah","postal_code":31171},{"province":"Sumatera Selatan","city":"Muara Enim","district":"Muara Belida","urban":"Harapan Mulya/Mulia","postal_code":31171},{"province":"Sumatera Selatan","city":"Muara Enim","district":"Lembak","urban":"Ibul","postal_code":31171},{"province":"Sumatera Selatan","city":"Muara Enim","district":"Muara Belida","urban":"Gedung Buruk","postal_code":31171},{"province":"Sumatera Selatan","city":"Muara Enim","district":"Gelumbang","urban":"Gelumbang","postal_code":31171},{"province":"Sumatera Selatan","city":"Muara Enim","district":"Gelumbang","urban":"Gumai","postal_code":31171},{"province":"Sumatera Selatan","city":"Muara Enim","district":"Gelumbang","urban":"Gaung Telang","postal_code":31171},{"province":"Sumatera Selatan","city":"Muara Enim","district":"Kelekar","urban":"Embacang Kelekar","postal_code":31171},{"province":"Sumatera Selatan","city":"Muara Enim","district":"Lembak","urban":"Gaung Asam","postal_code":31171},{"province":"Sumatera Selatan","city":"Muara Enim","district":"Gelumbang","urban":"Bitis","postal_code":31171},{"province":"Sumatera Selatan","city":"Muara Enim","district":"Lembak","urban":"Babat","postal_code":31171},{"province":"Sumatera Selatan","city":"Muara Enim","district":"Muara Belida","urban":"Arisan Musi","postal_code":31171},{"province":"Sumatera Selatan","city":"Muara Enim","district":"Muara Belida","urban":"Arisan Musi Timur","postal_code":31171},{"province":"Sumatera Selatan","city":"Muara Enim","district":"Lembak","urban":"Alai","postal_code":31171}]