[{"province":"Sumatera Selatan","city":"Muara Enim","district":"Talang Ubi","urban":"Talang Bulang","postal_code":31214},{"province":"Sumatera Selatan","city":"Muara Enim","district":"Talang Ubi","urban":"Talang Ubi Utara","postal_code":31214},{"province":"Sumatera Selatan","city":"Muara Enim","district":"Talang Ubi","urban":"Sungai Baung","postal_code":31214},{"province":"Sumatera Selatan","city":"Muara Enim","district":"Talang Ubi","urban":"Sungai Ibul","postal_code":31214},{"province":"Sumatera Selatan","city":"Muara Enim","district":"Talang Ubi","urban":"Talang Akar","postal_code":31214},{"province":"Sumatera Selatan","city":"Muara Enim","district":"Talang Ubi","urban":"Suka Damai","postal_code":31214},{"province":"Sumatera Selatan","city":"Muara Enim","district":"Talang Ubi","urban":"Sukamaju","postal_code":31214},{"province":"Sumatera Selatan","city":"Muara Enim","district":"Talang Ubi","urban":"Semangus","postal_code":31214},{"province":"Sumatera Selatan","city":"Muara Enim","district":"Talang Ubi","urban":"Sinar Dewa","postal_code":31214},{"province":"Sumatera Selatan","city":"Muara Enim","district":"Talang Ubi","urban":"Kertadewa","postal_code":31214},{"province":"Sumatera Selatan","city":"Muara Enim","district":"Talang Ubi","urban":"Panta Dewa","postal_code":31214},{"province":"Sumatera Selatan","city":"Muara Enim","district":"Talang Ubi","urban":"Psr.Bayangkara","postal_code":31214},{"province":"Sumatera Selatan","city":"Muara Enim","district":"Talang Ubi","urban":"Handayani Mulya","postal_code":31214},{"province":"Sumatera Selatan","city":"Muara Enim","district":"Talang Ubi","urban":"Benakat Minyak","postal_code":31214},{"province":"Sumatera Selatan","city":"Muara Enim","district":"Talang Ubi","urban":"Benuang","postal_code":31214}]