[{"province":"Sumatera Selatan","city":"Muara Enim","district":"Tanah Abang","urban":"Tanah Abang Selatan","postal_code":31314},{"province":"Sumatera Selatan","city":"Muara Enim","district":"Tanah Abang","urban":"Tanah Abang Utara","postal_code":31314},{"province":"Sumatera Selatan","city":"Muara Enim","district":"Tanah Abang","urban":"Tanjung Dalam","postal_code":31314},{"province":"Sumatera Selatan","city":"Muara Enim","district":"Tanah Abang","urban":"Sedupi","postal_code":31314},{"province":"Sumatera Selatan","city":"Muara Enim","district":"Tanah Abang","urban":"Sukaraja","postal_code":31314},{"province":"Sumatera Selatan","city":"Muara Enim","district":"Tanah Abang","urban":"Raja","postal_code":31314},{"province":"Sumatera Selatan","city":"Muara Enim","district":"Tanah Abang","urban":"Raja","postal_code":31314},{"province":"Sumatera Selatan","city":"Muara Enim","district":"Tanah Abang","urban":"Raja Barat","postal_code":31314},{"province":"Sumatera Selatan","city":"Muara Enim","district":"Tanah Abang","urban":"Muara Sungai","postal_code":31314},{"province":"Sumatera Selatan","city":"Muara Enim","district":"Tanah Abang","urban":"Pandan","postal_code":31314},{"province":"Sumatera Selatan","city":"Muara Enim","district":"Tanah Abang","urban":"Harapan Jaya","postal_code":31314},{"province":"Sumatera Selatan","city":"Muara Enim","district":"Tanah Abang","urban":"Lunas Jaya","postal_code":31314},{"province":"Sumatera Selatan","city":"Muara Enim","district":"Tanah Abang","urban":"Modong","postal_code":31314},{"province":"Sumatera Selatan","city":"Muara Enim","district":"Tanah Abang","urban":"Bumiayu","postal_code":31314},{"province":"Sumatera Selatan","city":"Muara Enim","district":"Tanah Abang","urban":"Curup","postal_code":31314}]