[{"province":"Sumatera Selatan","city":"Muara Enim","district":"Muara Enim","urban":"Tanjung Serian","postal_code":31311},{"province":"Sumatera Selatan","city":"Muara Enim","district":"Muara Enim","urban":"Tanjung Jati","postal_code":31311},{"province":"Sumatera Selatan","city":"Muara Enim","district":"Muara Enim","urban":"Tanjung Raja","postal_code":31311},{"province":"Sumatera Selatan","city":"Muara Enim","district":"Muara Enim","urban":"Muara Lawai","postal_code":31311},{"province":"Sumatera Selatan","city":"Muara Enim","district":"Muara Enim","urban":"Pasar I","postal_code":31311},{"province":"Sumatera Selatan","city":"Muara Enim","district":"Muara Enim","urban":"Saka Jaya","postal_code":31311},{"province":"Sumatera Selatan","city":"Muara Enim","district":"Muara Enim","urban":"Kepur","postal_code":31311},{"province":"Sumatera Selatan","city":"Muara Enim","district":"Muara Enim","urban":"Lubuk Empelas","postal_code":31311},{"province":"Sumatera Selatan","city":"Muara Enim","district":"Muara Enim","urban":"Muara Harapan","postal_code":31311},{"province":"Sumatera Selatan","city":"Muara Enim","district":"Muara Enim","urban":"Harapan Jaya","postal_code":31311},{"province":"Sumatera Selatan","city":"Muara Enim","district":"Muara Enim","urban":"Karang Raja","postal_code":31311},{"province":"Sumatera Selatan","city":"Muara Enim","district":"Muara Enim","urban":"Air Lintang","postal_code":31311}]