[{"province":"Sumatera Selatan","city":"Lahat","district":"Pajar Bulan","urban":"Ulak Bandung","postal_code":31356},{"province":"Sumatera Selatan","city":"Lahat","district":"Pajar Bulan","urban":"Tongkok","postal_code":31356},{"province":"Sumatera Selatan","city":"Lahat","district":"Sukamerindu","urban":"Tanjung Raya","postal_code":31356},{"province":"Sumatera Selatan","city":"Lahat","district":"Sukamerindu","urban":"Tanjung Agung","postal_code":31356},{"province":"Sumatera Selatan","city":"Lahat","district":"Pajar Bulan","urban":"Talang Tangsi","postal_code":31356},{"province":"Sumatera Selatan","city":"Lahat","district":"Pajar Bulan","urban":"Talang Pagar Agung","postal_code":31356},{"province":"Sumatera Selatan","city":"Lahat","district":"Pajar Bulan","urban":"Talang Mengkenang","postal_code":31356},{"province":"Sumatera Selatan","city":"Lahat","district":"Pajar Bulan","urban":"Talang Padang Tinggi","postal_code":31356},{"province":"Sumatera Selatan","city":"Lahat","district":"Pajar Bulan","urban":"Talang Baru","postal_code":31356},{"province":"Sumatera Selatan","city":"Lahat","district":"Pajar Bulan","urban":"Sumur","postal_code":31356},{"province":"Sumatera Selatan","city":"Lahat","district":"Sukamerindu","urban":"Sukaraja","postal_code":31356},{"province":"Sumatera Selatan","city":"Lahat","district":"Sukamerindu","urban":"Sukamerindu","postal_code":31356},{"province":"Sumatera Selatan","city":"Lahat","district":"Pajar Bulan","urban":"Sukabumi","postal_code":31356},{"province":"Sumatera Selatan","city":"Lahat","district":"Sukamerindu","urban":"Rambai Kaca","postal_code":31356},{"province":"Sumatera Selatan","city":"Lahat","district":"Pajar Bulan","urban":"Pulau Panggung","postal_code":31356},{"province":"Sumatera Selatan","city":"Lahat","district":"Pajar Bulan","urban":"Pulau","postal_code":31356},{"province":"Sumatera Selatan","city":"Lahat","district":"Pajar Bulan","urban":"Pajar Tinggi","postal_code":31356},{"province":"Sumatera Selatan","city":"Lahat","district":"Pajar Bulan","urban":"Pajar Bulan","postal_code":31356},{"province":"Sumatera Selatan","city":"Lahat","district":"Sukamerindu","urban":"Pagar Kaya","postal_code":31356},{"province":"Sumatera Selatan","city":"Lahat","district":"Pajar Bulan","urban":"Kota Raya Lembak","postal_code":31356},{"province":"Sumatera Selatan","city":"Lahat","district":"Pajar Bulan","urban":"Kota Raya Darat","postal_code":31356},{"province":"Sumatera Selatan","city":"Lahat","district":"Sukamerindu","urban":"Karang Caya","postal_code":31356},{"province":"Sumatera Selatan","city":"Lahat","district":"Sukamerindu","urban":"Kapitan","postal_code":31356},{"province":"Sumatera Selatan","city":"Lahat","district":"Pajar Bulan","urban":"Jentian","postal_code":31356},{"province":"Sumatera Selatan","city":"Lahat","district":"Sukamerindu","urban":"Gunung Liwat","postal_code":31356},{"province":"Sumatera Selatan","city":"Lahat","district":"Sukamerindu","urban":"Guru Agung","postal_code":31356},{"province":"Sumatera Selatan","city":"Lahat","district":"Pajar Bulan","urban":"Gelung Sakti","postal_code":31356},{"province":"Sumatera Selatan","city":"Lahat","district":"Pajar Bulan","urban":"Benua Raja","postal_code":31356},{"province":"Sumatera Selatan","city":"Lahat","district":"Pajar Bulan","urban":"Bantunan","postal_code":31356},{"province":"Sumatera Selatan","city":"Lahat","district":"Pajar Bulan","urban":"Aceh","postal_code":31356},{"province":"Sumatera Selatan","city":"Muara Enim","district":"Semendo Darat Tengah","urban":"Tenam Bungkuk","postal_code":31356},{"province":"Sumatera Selatan","city":"Muara Enim","district":"Semendo Darat Tengah","urban":"Tebing Abang","postal_code":31356},{"province":"Sumatera Selatan","city":"Muara Enim","district":"Semendo Darat Tengah","urban":"Tanjung Raya","postal_code":31356},{"province":"Sumatera Selatan","city":"Muara Enim","district":"Semendo Darat Laut","urban":"Tanah Abang","postal_code":31356},{"province":"Sumatera Selatan","city":"Muara Enim","district":"Semendo Darat Tengah","urban":"Seri Tanjung","postal_code":31356},{"province":"Sumatera Selatan","city":"Muara Enim","district":"Semendo Darat Tengah","urban":"Rekimai Jaya","postal_code":31356},{"province":"Sumatera Selatan","city":"Muara Enim","district":"Semendo Darat Laut","urban":"Pulau Panggung","postal_code":31356},{"province":"Sumatera Selatan","city":"Muara Enim","district":"Semendo Darat Laut","urban":"Perapau","postal_code":31356},{"province":"Sumatera Selatan","city":"Muara Enim","district":"Semendo Darat Laut","urban":"Penyandingan","postal_code":31356},{"province":"Sumatera Selatan","city":"Muara Enim","district":"Semendo Darat Laut","urban":"Penindaian","postal_code":31356},{"province":"Sumatera Selatan","city":"Muara Enim","district":"Semendo Darat Tengah","urban":"Palak Tanah","postal_code":31356},{"province":"Sumatera Selatan","city":"Muara Enim","district":"Semendo Darat Laut","urban":"Pagar Agung","postal_code":31356},{"province":"Sumatera Selatan","city":"Muara Enim","district":"Semendo Darat Tengah","urban":"Muara Tenang","postal_code":31356},{"province":"Sumatera Selatan","city":"Muara Enim","district":"Semendo Darat Laut","urban":"Muara Dua","postal_code":31356},{"province":"Sumatera Selatan","city":"Muara Enim","district":"Semendo Darat Laut","urban":"Muara Danau","postal_code":31356},{"province":"Sumatera Selatan","city":"Muara Enim","district":"Semendo Darat Tengah","urban":"Kota Padang","postal_code":31356},{"province":"Sumatera Selatan","city":"Muara Enim","district":"Semendo Darat Laut","urban":"Karya Nyata","postal_code":31356},{"province":"Sumatera Selatan","city":"Muara Enim","district":"Semendo Darat Tengah","urban":"Kota Agung","postal_code":31356},{"province":"Sumatera Selatan","city":"Muara Enim","district":"Semendo Darat Tengah","urban":"Gunung Agung","postal_code":31356},{"province":"Sumatera Selatan","city":"Muara Enim","district":"Semendo Darat Tengah","urban":"Batu Surau","postal_code":31356},{"province":"Sumatera Selatan","city":"Muara Enim","district":"Semendo Darat Laut","urban":"Babatan","postal_code":31356}]