[{"province":"Sumatera Selatan","city":"Lahat","district":"Lahat","urban":"Ulak Lebar","postal_code":31419},{"province":"Sumatera Selatan","city":"Lahat","district":"Gumay Talang","urban":"Tanah Pilih","postal_code":31419},{"province":"Sumatera Selatan","city":"Lahat","district":"Lahat","urban":"Ulak Mas","postal_code":31419},{"province":"Sumatera Selatan","city":"Lahat","district":"Pseksu","urban":"Talang Tinggi","postal_code":31419},{"province":"Sumatera Selatan","city":"Lahat","district":"Lahat","urban":"Tanjung Tebat","postal_code":31419},{"province":"Sumatera Selatan","city":"Lahat","district":"Lahat","urban":"Sukanegara","postal_code":31419},{"province":"Sumatera Selatan","city":"Lahat","district":"Lahat","urban":"Tanjung Payang","postal_code":31419},{"province":"Sumatera Selatan","city":"Lahat","district":"Gumay Talang","urban":"Sukarami","postal_code":31419},{"province":"Sumatera Selatan","city":"Lahat","district":"Gumay Talang","urban":"Tanjung Periuk","postal_code":31419},{"province":"Sumatera Selatan","city":"Lahat","district":"Pseksu","urban":"Sukajadi","postal_code":31419},{"province":"Sumatera Selatan","city":"Lahat","district":"Pseksu","urban":"Tanjung Raya","postal_code":31419},{"province":"Sumatera Selatan","city":"Lahat","district":"Gumay Talang","urban":"Suka Makmur","postal_code":31419},{"province":"Sumatera Selatan","city":"Lahat","district":"Gumay Talang","urban":"Tanjung Dalam","postal_code":31419},{"province":"Sumatera Selatan","city":"Lahat","district":"Lahat","urban":"Selawi","postal_code":31419},{"province":"Sumatera Selatan","city":"Lahat","district":"Gumay Talang","urban":"Tanjung Karangan","postal_code":31419},{"province":"Sumatera Selatan","city":"Lahat","district":"Lahat","urban":"Senabing","postal_code":31419},{"province":"Sumatera Selatan","city":"Lahat","district":"Gumay Talang","urban":"Tanjung Baru","postal_code":31419},{"province":"Sumatera Selatan","city":"Lahat","district":"Gumay Talang","urban":"Sugih Waras","postal_code":31419},{"province":"Sumatera Selatan","city":"Lahat","district":"Gumay Talang","urban":"Tanjung Beringin","postal_code":31419},{"province":"Sumatera Selatan","city":"Lahat","district":"Lahat","urban":"Rd PJKA Bandar Agung","postal_code":31419},{"province":"Sumatera Selatan","city":"Lahat","district":"Pseksu","urban":"Tanjung Agung","postal_code":31419},{"province":"Sumatera Selatan","city":"Lahat","district":"Lahat","urban":"Sari Bunga Mas","postal_code":31419},{"province":"Sumatera Selatan","city":"Lahat","district":"Lahat","urban":"Pagar Sari","postal_code":31419},{"province":"Sumatera Selatan","city":"Lahat","district":"Pseksu","urban":"Penandingan","postal_code":31419},{"province":"Sumatera Selatan","city":"Lahat","district":"Lahat","urban":"Padang Lengkuas","postal_code":31419},{"province":"Sumatera Selatan","city":"Lahat","district":"Lahat","urban":"Pagar Negara","postal_code":31419},{"province":"Sumatera Selatan","city":"Lahat","district":"Gumay Talang","urban":"Ngalam Baru","postal_code":31419},{"province":"Sumatera Selatan","city":"Lahat","district":"Gumay Talang","urban":"Muara Tandi","postal_code":31419},{"province":"Sumatera Selatan","city":"Lahat","district":"Lahat","urban":"Nantal","postal_code":31419},{"province":"Sumatera Selatan","city":"Lahat","district":"Pseksu","urban":"Muara Cawang","postal_code":31419},{"province":"Sumatera Selatan","city":"Lahat","district":"Lahat","urban":"Manggul","postal_code":31419},{"province":"Sumatera Selatan","city":"Lahat","district":"Lahat","urban":"Makartitama","postal_code":31419},{"province":"Sumatera Selatan","city":"Lahat","district":"Pseksu","urban":"Lubuk Tuba","postal_code":31419},{"province":"Sumatera Selatan","city":"Lahat","district":"Gumay Talang","urban":"Mandi Angin","postal_code":31419},{"province":"Sumatera Selatan","city":"Lahat","district":"Lahat","urban":"Lahat Tengah","postal_code":31419},{"province":"Sumatera Selatan","city":"Lahat","district":"Pseksu","urban":"Lubuk Atung","postal_code":31419},{"province":"Sumatera Selatan","city":"Lahat","district":"Pseksu","urban":"Lubuk Mabar","postal_code":31419},{"province":"Sumatera Selatan","city":"Lahat","district":"Lahat","urban":"Keban","postal_code":31419},{"province":"Sumatera Selatan","city":"Lahat","district":"Lahat","urban":"Kota Raya","postal_code":31419},{"province":"Sumatera Selatan","city":"Lahat","district":"Lahat","urban":"Girimuliya","postal_code":31419},{"province":"Sumatera Selatan","city":"Lahat","district":"Lahat","urban":"Karang Anyar","postal_code":31419},{"province":"Sumatera Selatan","city":"Lahat","district":"Lahat","urban":"Karang Baru","postal_code":31419},{"province":"Sumatera Selatan","city":"Lahat","district":"Gumay Talang","urban":"Darmo","postal_code":31419},{"province":"Sumatera Selatan","city":"Lahat","district":"Gumay Talang","urban":"Endikat Ilir","postal_code":31419},{"province":"Sumatera Selatan","city":"Lahat","district":"Pseksu","urban":"Batuniding","postal_code":31419},{"province":"Sumatera Selatan","city":"Lahat","district":"Lahat","urban":"Bd PJKA Lahat","postal_code":31419},{"province":"Sumatera Selatan","city":"Lahat","district":"Gumay Talang","urban":"Batay","postal_code":31419},{"province":"Sumatera Selatan","city":"Lahat","district":"Lahat","urban":"Bandar Jaya","postal_code":31419},{"province":"Sumatera Selatan","city":"Lahat","district":"Lahat","urban":"Banjar Negara","postal_code":31419}]