[{"province":"Sumatera Selatan","city":"Lahat","district":"Kikim Barat","urban":"Wonorejo","postal_code":31452},{"province":"Sumatera Selatan","city":"Lahat","district":"Kikim Barat","urban":"Ulak Bandung","postal_code":31452},{"province":"Sumatera Selatan","city":"Lahat","district":"Kikim Barat","urban":"Wanaraya","postal_code":31452},{"province":"Sumatera Selatan","city":"Lahat","district":"Kikim Timur","urban":"Tanjung Bindu","postal_code":31452},{"province":"Sumatera Selatan","city":"Lahat","district":"Kikim Selatan","urban":"Tanjung Kurung","postal_code":31452},{"province":"Sumatera Selatan","city":"Lahat","district":"Kikim Tengah","urban":"Tanjung Baru","postal_code":31452},{"province":"Sumatera Selatan","city":"Lahat","district":"Kikim Selatan","urban":"Tanjung Beringin","postal_code":31452},{"province":"Sumatera Selatan","city":"Lahat","district":"Kikim Tengah","urban":"Tanjung Aur","postal_code":31452},{"province":"Sumatera Selatan","city":"Lahat","district":"Kikim Selatan","urban":"Tanjung Alam","postal_code":31452},{"province":"Sumatera Selatan","city":"Lahat","district":"Kikim Tengah","urban":"Sungai Laru","postal_code":31452},{"province":"Sumatera Selatan","city":"Lahat","district":"Kikim Timur","urban":"Tanda Raja","postal_code":31452},{"province":"Sumatera Selatan","city":"Lahat","district":"Kikim Barat","urban":"Sukarami","postal_code":31452},{"province":"Sumatera Selatan","city":"Lahat","district":"Kikim Timur","urban":"Sukoharjo","postal_code":31452},{"province":"Sumatera Selatan","city":"Lahat","district":"Kikim Tengah","urban":"Sukaraja","postal_code":31452},{"province":"Sumatera Selatan","city":"Lahat","district":"Kikim Barat","urban":"Suka Merindu","postal_code":31452},{"province":"Sumatera Selatan","city":"Lahat","district":"Kikim Barat","urban":"Singapura","postal_code":31452},{"province":"Sumatera Selatan","city":"Lahat","district":"Kikim Barat","urban":"Suka Bakti","postal_code":31452},{"province":"Sumatera Selatan","city":"Lahat","district":"Kikim Selatan","urban":"Sirah Pulau","postal_code":31452},{"province":"Sumatera Selatan","city":"Lahat","district":"Kikim Barat","urban":"Sidomakmur","postal_code":31452},{"province":"Sumatera Selatan","city":"Lahat","district":"Kikim Timur","urban":"Seronggo","postal_code":31452},{"province":"Sumatera Selatan","city":"Lahat","district":"Kikim Barat","urban":"Saung Naga","postal_code":31452},{"province":"Sumatera Selatan","city":"Lahat","district":"Kikim Timur","urban":"Sendawar","postal_code":31452},{"province":"Sumatera Selatan","city":"Lahat","district":"Kikim Barat","urban":"Purnamasari","postal_code":31452},{"province":"Sumatera Selatan","city":"Lahat","district":"Kikim Barat","urban":"Purwo Rejo","postal_code":31452},{"province":"Sumatera Selatan","city":"Lahat","district":"Kikim Timur","urban":"Purwa Raja","postal_code":31452},{"province":"Sumatera Selatan","city":"Lahat","district":"Kikim Tengah","urban":"Purbamas","postal_code":31452},{"province":"Sumatera Selatan","city":"Lahat","district":"Kikim Selatan","urban":"Pulau Beringin","postal_code":31452},{"province":"Sumatera Selatan","city":"Lahat","district":"Kikim Barat","urban":"Penantian","postal_code":31452},{"province":"Sumatera Selatan","city":"Lahat","district":"Kikim Timur","urban":"Petikal Baru","postal_code":31452},{"province":"Sumatera Selatan","city":"Lahat","district":"Kikim Barat","urban":"Penantian","postal_code":31452},{"province":"Sumatera Selatan","city":"Lahat","district":"Kikim Selatan","urban":"Pagar Jati","postal_code":31452},{"province":"Sumatera Selatan","city":"Lahat","district":"Kikim Selatan","urban":"Pagardin","postal_code":31452},{"province":"Sumatera Selatan","city":"Lahat","district":"Kikim Selatan","urban":"Pandan Arang","postal_code":31452},{"province":"Sumatera Selatan","city":"Lahat","district":"Kikim Timur","urban":"Paduraksa","postal_code":31452},{"province":"Sumatera Selatan","city":"Lahat","district":"Kikim Selatan","urban":"Nanjungan","postal_code":31452},{"province":"Sumatera Selatan","city":"Lahat","district":"Kikim Selatan","urban":"Padang Bindu","postal_code":31452},{"province":"Sumatera Selatan","city":"Lahat","district":"Kikim Timur","urban":"Muara Danau","postal_code":31452},{"province":"Sumatera Selatan","city":"Lahat","district":"Kikim Tengah","urban":"Muara Lingsing","postal_code":31452},{"province":"Sumatera Selatan","city":"Lahat","district":"Kikim Timur","urban":"Muara Empayang","postal_code":31452},{"province":"Sumatera Selatan","city":"Lahat","district":"Kikim Barat","urban":"Mekar Jaya","postal_code":31452},{"province":"Sumatera Selatan","city":"Lahat","district":"Kikim Timur","urban":"Marga Mulia","postal_code":31452},{"province":"Sumatera Selatan","city":"Lahat","district":"Kikim Tengah","urban":"Maspura","postal_code":31452},{"province":"Sumatera Selatan","city":"Lahat","district":"Kikim Barat","urban":"Lubuk Seketi","postal_code":31452},{"province":"Sumatera Selatan","city":"Lahat","district":"Kikim Timur","urban":"Lubuk Tampang","postal_code":31452},{"province":"Sumatera Selatan","city":"Lahat","district":"Kikim Timur","urban":"Linggar Jaya","postal_code":31452},{"province":"Sumatera Selatan","city":"Lahat","district":"Kikim Selatan","urban":"Lubuk Lungkang","postal_code":31452},{"province":"Sumatera Selatan","city":"Lahat","district":"Kikim Tengah","urban":"Kepala Siring","postal_code":31452},{"province":"Sumatera Selatan","city":"Lahat","district":"Kikim Timur","urban":"Lubuk Nambulan","postal_code":31452},{"province":"Sumatera Selatan","city":"Lahat","district":"Kikim Selatan","urban":"Keban Raya","postal_code":31452},{"province":"Sumatera Selatan","city":"Lahat","district":"Kikim Timur","urban":"Lubuk Kuta","postal_code":31452},{"province":"Sumatera Selatan","city":"Lahat","district":"Kikim Timur","urban":"Kencana Sari","postal_code":31452},{"province":"Sumatera Selatan","city":"Lahat","district":"Kikim Timur","urban":"Lubuk Layang Ilir","postal_code":31452},{"province":"Sumatera Selatan","city":"Lahat","district":"Kikim Selatan","urban":"Keban Agung","postal_code":31452},{"province":"Sumatera Selatan","city":"Lahat","district":"Kikim Timur","urban":"Lubuk Layang Ulu","postal_code":31452},{"province":"Sumatera Selatan","city":"Lahat","district":"Kikim Selatan","urban":"Keban Agung Sp I","postal_code":31452},{"province":"Sumatera Selatan","city":"Lahat","district":"Kikim Timur","urban":"Karang Endah","postal_code":31452},{"province":"Sumatera Selatan","city":"Lahat","district":"Kikim Barat","urban":"Jajaran Lama","postal_code":31452},{"province":"Sumatera Selatan","city":"Lahat","district":"Kikim Selatan","urban":"Karang Cahaya","postal_code":31452},{"province":"Sumatera Selatan","city":"Lahat","district":"Kikim Barat","urban":"Jajaran Baru","postal_code":31452},{"province":"Sumatera Selatan","city":"Lahat","district":"Kikim Timur","urban":"Gunung Kembang","postal_code":31452},{"province":"Sumatera Selatan","city":"Lahat","district":"Kikim Selatan","urban":"Jagabaya","postal_code":31452},{"province":"Sumatera Selatan","city":"Lahat","district":"Kikim Timur","urban":"Gelumbang","postal_code":31452},{"province":"Sumatera Selatan","city":"Lahat","district":"Kikim Timur","urban":"Gunung Aji","postal_code":31452},{"province":"Sumatera Selatan","city":"Lahat","district":"Kikim Timur","urban":"Gunung Karto","postal_code":31452},{"province":"Sumatera Selatan","city":"Lahat","district":"Kikim Timur","urban":"Datar Serdang","postal_code":31452},{"province":"Sumatera Selatan","city":"Lahat","district":"Kikim Timur","urban":"Gedung Agung","postal_code":31452},{"province":"Sumatera Selatan","city":"Lahat","district":"Kikim Timur","urban":"Bunga Mas","postal_code":31452},{"province":"Sumatera Selatan","city":"Lahat","district":"Kikim Timur","urban":"Cempaka Sakti","postal_code":31452},{"province":"Sumatera Selatan","city":"Lahat","district":"Kikim Timur","urban":"Cecar","postal_code":31452},{"province":"Sumatera Selatan","city":"Lahat","district":"Kikim Barat","urban":"Darma Raharja","postal_code":31452},{"province":"Sumatera Selatan","city":"Lahat","district":"Kikim Timur","urban":"Batu Urip","postal_code":31452},{"province":"Sumatera Selatan","city":"Lahat","district":"Kikim Timur","urban":"Cecar","postal_code":31452},{"province":"Sumatera Selatan","city":"Lahat","district":"Kikim Selatan","urban":"Beringin Jaya","postal_code":31452},{"province":"Sumatera Selatan","city":"Lahat","district":"Kikim Tengah","urban":"Banyumas","postal_code":31452},{"province":"Sumatera Selatan","city":"Lahat","district":"Kikim Barat","urban":"Bandarjaya","postal_code":31452},{"province":"Sumatera Selatan","city":"Lahat","district":"Kikim Selatan","urban":"Banuayu","postal_code":31452},{"province":"Sumatera Selatan","city":"Lahat","district":"Kikim Timur","urban":"Babat Lama","postal_code":31452},{"province":"Sumatera Selatan","city":"Lahat","district":"Kikim Barat","urban":"Babat Baru","postal_code":31452}]