[{"province":"Sumatera Selatan","city":"Empat Lawang","district":"Tebing Tinggi","urban":"Ulak Mengkudu","postal_code":31453},{"province":"Sumatera Selatan","city":"Empat Lawang","district":"Tebing Tinggi","urban":"Terusan Lama","postal_code":31453},{"province":"Sumatera Selatan","city":"Empat Lawang","district":"Tebing Tinggi","urban":"Ujung Alih","postal_code":31453},{"province":"Sumatera Selatan","city":"Empat Lawang","district":"Tebing Tinggi","urban":"Terusan Baru","postal_code":31453},{"province":"Sumatera Selatan","city":"Empat Lawang","district":"Saling","urban":"Tanjung Ning Tengah","postal_code":31453},{"province":"Sumatera Selatan","city":"Empat Lawang","district":"Saling","urban":"Tanjung Ning Jaya","postal_code":31453},{"province":"Sumatera Selatan","city":"Empat Lawang","district":"Saling","urban":"Tanjung Ning Lama","postal_code":31453},{"province":"Sumatera Selatan","city":"Empat Lawang","district":"Saling","urban":"Tanjung Ning Simpang","postal_code":31453},{"province":"Sumatera Selatan","city":"Empat Lawang","district":"Tebing Tinggi","urban":"Tanjung Makmur","postal_code":31453},{"province":"Sumatera Selatan","city":"Empat Lawang","district":"Tebing Tinggi","urban":"Tanjung Kupang Baru","postal_code":31453},{"province":"Sumatera Selatan","city":"Empat Lawang","district":"Tebing Tinggi","urban":"Tanjung Kupang","postal_code":31453},{"province":"Sumatera Selatan","city":"Empat Lawang","district":"Tebing Tinggi","urban":"Tanjung Kupang","postal_code":31453},{"province":"Sumatera Selatan","city":"Empat Lawang","district":"Saling","urban":"Suka Kaya","postal_code":31453},{"province":"Sumatera Selatan","city":"Empat Lawang","district":"Saling","urban":"Taba","postal_code":31453},{"province":"Sumatera Selatan","city":"Empat Lawang","district":"Tebing Tinggi","urban":"Sugi Waras","postal_code":31453},{"province":"Sumatera Selatan","city":"Empat Lawang","district":"Saling","urban":"Sawah","postal_code":31453},{"province":"Sumatera Selatan","city":"Empat Lawang","district":"Tebing Tinggi","urban":"Seguring Kecil","postal_code":31453},{"province":"Sumatera Selatan","city":"Empat Lawang","district":"Tebing Tinggi","urban":"Rantau Tenang","postal_code":31453},{"province":"Sumatera Selatan","city":"Empat Lawang","district":"Tebing Tinggi","urban":"Pancurmas (Unit Jaya)","postal_code":31453},{"province":"Sumatera Selatan","city":"Empat Lawang","district":"Tebing Tinggi","urban":"Pasar Tebing Tinggi","postal_code":31453},{"province":"Sumatera Selatan","city":"Empat Lawang","district":"Saling","urban":"Muara Saling","postal_code":31453},{"province":"Sumatera Selatan","city":"Empat Lawang","district":"Tebing Tinggi","urban":"Mekar Jaya","postal_code":31453},{"province":"Sumatera Selatan","city":"Empat Lawang","district":"Tebing Tinggi","urban":"Mekarti Jaya","postal_code":31453},{"province":"Sumatera Selatan","city":"Empat Lawang","district":"Tebing Tinggi","urban":"Lubuk Gelanggang","postal_code":31453},{"province":"Sumatera Selatan","city":"Empat Lawang","district":"Saling","urban":"Lubuk Kelumpang","postal_code":31453},{"province":"Sumatera Selatan","city":"Empat Lawang","district":"Tebing Tinggi","urban":"Lampar Baru","postal_code":31453},{"province":"Sumatera Selatan","city":"Empat Lawang","district":"Tebing Tinggi","urban":"Kupang","postal_code":31453},{"province":"Sumatera Selatan","city":"Empat Lawang","district":"Tebing Tinggi","urban":"Kemang Manis","postal_code":31453},{"province":"Sumatera Selatan","city":"Empat Lawang","district":"Tebing Tinggi","urban":"Kota Gading","postal_code":31453},{"province":"Sumatera Selatan","city":"Empat Lawang","district":"Saling","urban":"Kebon","postal_code":31453},{"province":"Sumatera Selatan","city":"Empat Lawang","district":"Tebing Tinggi","urban":"Jaya Loka","postal_code":31453},{"province":"Sumatera Selatan","city":"Empat Lawang","district":"Tebing Tinggi","urban":"Fajar/Pajar Bakti","postal_code":31453},{"province":"Sumatera Selatan","city":"Empat Lawang","district":"Tebing Tinggi","urban":"Batu Raja Baru","postal_code":31453},{"province":"Sumatera Selatan","city":"Empat Lawang","district":"Tebing Tinggi","urban":"Batu Raja Lama","postal_code":31453},{"province":"Sumatera Selatan","city":"Empat Lawang","district":"Tebing Tinggi","urban":"Batu Panceh","postal_code":31453},{"province":"Sumatera Selatan","city":"Empat Lawang","district":"Tebing Tinggi","urban":"Aur Gading","postal_code":31453},{"province":"Sumatera Selatan","city":"Lahat","district":"Mulak Ulu","urban":"Tebing Tinggi","postal_code":31453},{"province":"Sumatera Selatan","city":"Lahat","district":"Tanjung Tebat","urban":"Tanjung Raya","postal_code":31453},{"province":"Sumatera Selatan","city":"Lahat","district":"Tanjung Tebat","urban":"Tanjung Menang","postal_code":31453},{"province":"Sumatera Selatan","city":"Lahat","district":"Mulak Ulu","urban":"Talang Berangin","postal_code":31453},{"province":"Sumatera Selatan","city":"Lahat","district":"Tanjung Tebat","urban":"Talang Jawa","postal_code":31453},{"province":"Sumatera Selatan","city":"Lahat","district":"Mulak Ulu","urban":"Sukananti","postal_code":31453},{"province":"Sumatera Selatan","city":"Lahat","district":"Mulak Ulu","urban":"Sengkuang","postal_code":31453},{"province":"Sumatera Selatan","city":"Lahat","district":"Mulak Ulu","urban":"Penindaian","postal_code":31453},{"province":"Sumatera Selatan","city":"Lahat","district":"Mulak Ulu","urban":"Penandingan","postal_code":31453},{"province":"Sumatera Selatan","city":"Lahat","district":"Mulak Ulu","urban":"Pengentaan","postal_code":31453},{"province":"Sumatera Selatan","city":"Lahat","district":"Mulak Ulu","urban":"Pajar Bulan","postal_code":31453},{"province":"Sumatera Selatan","city":"Lahat","district":"Mulak Ulu","urban":"Padang Masad/Masat","postal_code":31453},{"province":"Sumatera Selatan","city":"Lahat","district":"Mulak Ulu","urban":"Muara Tiga","postal_code":31453},{"province":"Sumatera Selatan","city":"Lahat","district":"Mulak Ulu","urban":"Padang Bindu","postal_code":31453},{"province":"Sumatera Selatan","city":"Lahat","district":"Mulak Ulu","urban":"Mengkenang","postal_code":31453},{"province":"Sumatera Selatan","city":"Lahat","district":"Tanjung Tebat","urban":"Muara Danau","postal_code":31453},{"province":"Sumatera Selatan","city":"Lahat","district":"Mulak Ulu","urban":"Lubuk Dendan","postal_code":31453},{"province":"Sumatera Selatan","city":"Lahat","district":"Mulak Ulu","urban":"Lesung Batu","postal_code":31453},{"province":"Sumatera Selatan","city":"Lahat","district":"Mulak Ulu","urban":"Lawang Agung Mulak","postal_code":31453},{"province":"Sumatera Selatan","city":"Lahat","district":"Mulak Ulu","urban":"Keban Agung","postal_code":31453},{"province":"Sumatera Selatan","city":"Lahat","district":"Mulak Ulu","urban":"Karang Lebak","postal_code":31453},{"province":"Sumatera Selatan","city":"Lahat","district":"Mulak Ulu","urban":"Jadian Lama","postal_code":31453},{"province":"Sumatera Selatan","city":"Lahat","district":"Mulak Ulu","urban":"Jadian Baru","postal_code":31453},{"province":"Sumatera Selatan","city":"Lahat","district":"Mulak Ulu","urban":"Geramat","postal_code":31453},{"province":"Sumatera Selatan","city":"Lahat","district":"Mulak Ulu","urban":"Durian Dangkal","postal_code":31453},{"province":"Sumatera Selatan","city":"Lahat","district":"Mulak Ulu","urban":"Datar Balam","postal_code":31453},{"province":"Sumatera Selatan","city":"Lahat","district":"Mulak Ulu","urban":"Danau Belidang","postal_code":31453},{"province":"Sumatera Selatan","city":"Lahat","district":"Mulak Ulu","urban":"Babatan","postal_code":31453},{"province":"Sumatera Selatan","city":"Lahat","district":"Mulak Ulu","urban":"Air Puar","postal_code":31453}]