[{"province":"Sumatera Selatan","city":"Lahat","district":"Kota Agung","urban":"Tunggul Bute","postal_code":31462},{"province":"Sumatera Selatan","city":"Lahat","district":"Tanjung Tebat","urban":"Tanjung Tebat","postal_code":31462},{"province":"Sumatera Selatan","city":"Lahat","district":"Kota Agung","urban":"Tebat Langsat","postal_code":31462},{"province":"Sumatera Selatan","city":"Lahat","district":"Tanjung Tebat","urban":"Tanjung Nibung","postal_code":31462},{"province":"Sumatera Selatan","city":"Lahat","district":"Kota Agung","urban":"Tanjung Raman","postal_code":31462},{"province":"Sumatera Selatan","city":"Lahat","district":"Tanjung Tebat","urban":"Tanjung Kurung Ilir","postal_code":31462},{"province":"Sumatera Selatan","city":"Lahat","district":"Tanjung Tebat","urban":"Tanjung Kurung Ulu","postal_code":31462},{"province":"Sumatera Selatan","city":"Lahat","district":"Kota Agung","urban":"Tanjung Beringin","postal_code":31462},{"province":"Sumatera Selatan","city":"Lahat","district":"Kota Agung","urban":"Tanjung Bulan","postal_code":31462},{"province":"Sumatera Selatan","city":"Lahat","district":"Tanjung Tebat","urban":"Tanjung Baru","postal_code":31462},{"province":"Sumatera Selatan","city":"Lahat","district":"Tanjung Tebat","urban":"Tanjung Bay/Bai","postal_code":31462},{"province":"Sumatera Selatan","city":"Lahat","district":"Kota Agung","urban":"Sukarame","postal_code":31462},{"province":"Sumatera Selatan","city":"Lahat","district":"Kota Agung","urban":"Singapura","postal_code":31462},{"province":"Sumatera Selatan","city":"Lahat","district":"Kota Agung","urban":"Sukaraja","postal_code":31462},{"province":"Sumatera Selatan","city":"Lahat","district":"Tanjung Tebat","urban":"Pandan Arang Ilir","postal_code":31462},{"province":"Sumatera Selatan","city":"Lahat","district":"Kota Agung","urban":"Pandan Arang Ulu","postal_code":31462},{"province":"Sumatera Selatan","city":"Lahat","district":"Tanjung Tebat","urban":"Padang Perigi","postal_code":31462},{"province":"Sumatera Selatan","city":"Lahat","district":"Kota Agung","urban":"Pagar Ruyung","postal_code":31462},{"province":"Sumatera Selatan","city":"Lahat","district":"Kota Agung","urban":"Muntar Alam Baru","postal_code":31462},{"province":"Sumatera Selatan","city":"Lahat","district":"Kota Agung","urban":"Muntar Alam Lama","postal_code":31462},{"province":"Sumatera Selatan","city":"Lahat","district":"Kota Agung","urban":"Lawang Agung","postal_code":31462},{"province":"Sumatera Selatan","city":"Lahat","district":"Kota Agung","urban":"Muara Gula","postal_code":31462},{"province":"Sumatera Selatan","city":"Lahat","district":"Kota Agung","urban":"Kebon Jati","postal_code":31462},{"province":"Sumatera Selatan","city":"Lahat","district":"Kota Agung","urban":"Kota Agung","postal_code":31462},{"province":"Sumatera Selatan","city":"Lahat","district":"Kota Agung","urban":"Karang Agung","postal_code":31462},{"province":"Sumatera Selatan","city":"Lahat","district":"Kota Agung","urban":"Karang Endah","postal_code":31462},{"province":"Sumatera Selatan","city":"Lahat","district":"Kota Agung","urban":"Bintuhan","postal_code":31462},{"province":"Sumatera Selatan","city":"Lahat","district":"Kota Agung","urban":"Gedung Agung","postal_code":31462},{"province":"Sumatera Selatan","city":"Lahat","district":"Kota Agung","urban":"Gunung Lewat","postal_code":31462},{"province":"Sumatera Selatan","city":"Lahat","district":"Kota Agung","urban":"Bangke","postal_code":31462},{"province":"Sumatera Selatan","city":"Lahat","district":"Tanjung Tebat","urban":"Air Dingin Baru","postal_code":31462},{"province":"Sumatera Selatan","city":"Lahat","district":"Tanjung Tebat","urban":"Air Dingin Lama","postal_code":31462}]