[{"province":"Sumatera Selatan","city":"Lahat","district":"Gumay Ulu","urban":"Tinggi Hari","postal_code":31461},{"province":"Sumatera Selatan","city":"Lahat","district":"Gumay Ulu","urban":"Trans SP II Padang Muaradua","postal_code":31461},{"province":"Sumatera Selatan","city":"Lahat","district":"Pulau Pinang","urban":"Tanjung Mulak","postal_code":31461},{"province":"Sumatera Selatan","city":"Lahat","district":"Pulau Pinang","urban":"Tanjung Sirih","postal_code":31461},{"province":"Sumatera Selatan","city":"Lahat","district":"Gumay Ulu","urban":"Tanjung Raja","postal_code":31461},{"province":"Sumatera Selatan","city":"Lahat","district":"Pagar Gunung","urban":"Tanjung Agung","postal_code":31461},{"province":"Sumatera Selatan","city":"Lahat","district":"Gumay Ulu","urban":"Tanjung Aur","postal_code":31461},{"province":"Sumatera Selatan","city":"Lahat","district":"Pulau Pinang","urban":"Talang Sawah","postal_code":31461},{"province":"Sumatera Selatan","city":"Lahat","district":"Pulau Pinang","urban":"Talang Sejemput","postal_code":31461},{"province":"Sumatera Selatan","city":"Lahat","district":"Pagar Gunung","urban":"Siring Agung","postal_code":31461},{"province":"Sumatera Selatan","city":"Lahat","district":"Gumay Ulu","urban":"Sumber Karya","postal_code":31461},{"province":"Sumatera Selatan","city":"Lahat","district":"Pagar Gunung","urban":"Sawah Darat","postal_code":31461},{"province":"Sumatera Selatan","city":"Lahat","district":"Gumay Ulu","urban":"Simpur","postal_code":31461},{"province":"Sumatera Selatan","city":"Lahat","district":"Gumay Ulu","urban":"Sinjar Bulan","postal_code":31461},{"province":"Sumatera Selatan","city":"Lahat","district":"Pagar Gunung","urban":"Rimba Sujud","postal_code":31461},{"province":"Sumatera Selatan","city":"Lahat","district":"Gumay Ulu","urban":"Rindu Hati","postal_code":31461},{"province":"Sumatera Selatan","city":"Lahat","district":"Pulau Pinang","urban":"Pulau Pinang","postal_code":31461},{"province":"Sumatera Selatan","city":"Lahat","district":"Pagar Gunung","urban":"Penantian","postal_code":31461},{"province":"Sumatera Selatan","city":"Lahat","district":"Pulau Pinang","urban":"Pulau Pinang","postal_code":31461},{"province":"Sumatera Selatan","city":"Lahat","district":"Pagar Gunung","urban":"Pagar Gunung (Pagar Agung)","postal_code":31461},{"province":"Sumatera Selatan","city":"Lahat","district":"Pulau Pinang","urban":"Pagar Batu","postal_code":31461},{"province":"Sumatera Selatan","city":"Lahat","district":"Gumay Ulu","urban":"Padang Gumay","postal_code":31461},{"province":"Sumatera Selatan","city":"Lahat","district":"Pagar Gunung","urban":"Padang Pagun","postal_code":31461},{"province":"Sumatera Selatan","city":"Lahat","district":"Pagar Gunung","urban":"Pagar Alam","postal_code":31461},{"province":"Sumatera Selatan","city":"Lahat","district":"Pulau Pinang","urban":"Muara Cawang","postal_code":31461},{"province":"Sumatera Selatan","city":"Lahat","district":"Pulau Pinang","urban":"Muara Siban","postal_code":31461},{"province":"Sumatera Selatan","city":"Lahat","district":"Pagar Gunung","urban":"Muara Dua","postal_code":31461},{"province":"Sumatera Selatan","city":"Lahat","district":"Pulau Pinang","urban":"Lubuk Sepang","postal_code":31461},{"province":"Sumatera Selatan","city":"Lahat","district":"Pagar Gunung","urban":"Merindu","postal_code":31461},{"province":"Sumatera Selatan","city":"Lahat","district":"Gumay Ulu","urban":"Lubuk Selo","postal_code":31461},{"province":"Sumatera Selatan","city":"Lahat","district":"Pagar Gunung","urban":"Lesung Batu","postal_code":31461},{"province":"Sumatera Selatan","city":"Lahat","district":"Pulau Pinang","urban":"Kuba","postal_code":31461},{"province":"Sumatera Selatan","city":"Lahat","district":"Pagar Gunung","urban":"Kupang","postal_code":31461},{"province":"Sumatera Selatan","city":"Lahat","district":"Pulau Pinang","urban":"Kerung","postal_code":31461},{"province":"Sumatera Selatan","city":"Lahat","district":"Pagar Gunung","urban":"Kedaton","postal_code":31461},{"province":"Sumatera Selatan","city":"Lahat","district":"Pulau Pinang","urban":"Karang Dalam","postal_code":31461},{"province":"Sumatera Selatan","city":"Lahat","district":"Pagar Gunung","urban":"Karang Agung","postal_code":31461},{"province":"Sumatera Selatan","city":"Lahat","district":"Pulau Pinang","urban":"Jati","postal_code":31461},{"province":"Sumatera Selatan","city":"Lahat","district":"Pagar Gunung","urban":"Garmidar Ulu","postal_code":31461},{"province":"Sumatera Selatan","city":"Lahat","district":"Pagar Gunung","urban":"Danau","postal_code":31461},{"province":"Sumatera Selatan","city":"Lahat","district":"Pagar Gunung","urban":"Garmidar Ilir","postal_code":31461},{"province":"Sumatera Selatan","city":"Lahat","district":"Pagar Gunung","urban":"Bandung Agung","postal_code":31461},{"province":"Sumatera Selatan","city":"Lahat","district":"Pagar Gunung","urban":"Batu Rusa","postal_code":31461},{"province":"Sumatera Selatan","city":"Lahat","district":"Pagar Gunung","urban":"Air Lingkar","postal_code":31461}]