[{"province":"Sumatera Selatan","city":"Lahat","district":"Merapi Barat","urban":"Ulak Pandan","postal_code":31471},{"province":"Sumatera Selatan","city":"Lahat","district":"Merapi Barat","urban":"Tanjung Telang","postal_code":31471},{"province":"Sumatera Selatan","city":"Lahat","district":"Merapi Barat","urban":"Telatang","postal_code":31471},{"province":"Sumatera Selatan","city":"Lahat","district":"Merapi Selatan","urban":"Tanjung Menang","postal_code":31471},{"province":"Sumatera Selatan","city":"Lahat","district":"Merapi Barat","urban":"Tanjung Pinang","postal_code":31471},{"province":"Sumatera Selatan","city":"Lahat","district":"Merapi Timur","urban":"Tanjung Jambu","postal_code":31471},{"province":"Sumatera Selatan","city":"Lahat","district":"Merapi Timur","urban":"Tanjung Lontar","postal_code":31471},{"province":"Sumatera Selatan","city":"Lahat","district":"Merapi Selatan","urban":"Tanjung Beringin","postal_code":31471},{"province":"Sumatera Selatan","city":"Lahat","district":"Merapi Barat","urban":"Tanjung Baru","postal_code":31471},{"province":"Sumatera Selatan","city":"Lahat","district":"Merapi Selatan","urban":"Suka Merindu","postal_code":31471},{"province":"Sumatera Selatan","city":"Lahat","district":"Merapi Selatan","urban":"Talang Akar","postal_code":31471},{"province":"Sumatera Selatan","city":"Lahat","district":"Merapi Barat","urban":"Suka Marga","postal_code":31471},{"province":"Sumatera Selatan","city":"Lahat","district":"Merapi Barat","urban":"Suka Cinta","postal_code":31471},{"province":"Sumatera Selatan","city":"Lahat","district":"Merapi Timur","urban":"Sirah Pulau","postal_code":31471},{"province":"Sumatera Selatan","city":"Lahat","district":"Merapi Barat","urban":"Purwosari (Purwa Sari)","postal_code":31471},{"province":"Sumatera Selatan","city":"Lahat","district":"Merapi Timur","urban":"Prabu Menang","postal_code":31471},{"province":"Sumatera Selatan","city":"Lahat","district":"Merapi Timur","urban":"Sengkuang","postal_code":31471},{"province":"Sumatera Selatan","city":"Lahat","district":"Merapi Selatan","urban":"Perangai","postal_code":31471},{"province":"Sumatera Selatan","city":"Lahat","district":"Merapi Selatan","urban":"Padang","postal_code":31471},{"province":"Sumatera Selatan","city":"Lahat","district":"Merapi Barat","urban":"Payo","postal_code":31471},{"province":"Sumatera Selatan","city":"Lahat","district":"Merapi Timur","urban":"Nanjungan","postal_code":31471},{"province":"Sumatera Selatan","city":"Lahat","district":"Merapi Barat","urban":"Negeri Agung","postal_code":31471},{"province":"Sumatera Selatan","city":"Lahat","district":"Merapi Timur","urban":"Muara Lawai","postal_code":31471},{"province":"Sumatera Selatan","city":"Lahat","district":"Merapi Barat","urban":"Muara Maung","postal_code":31471},{"province":"Sumatera Selatan","city":"Lahat","district":"Merapi Barat","urban":"Muara Temiang","postal_code":31471},{"province":"Sumatera Selatan","city":"Lahat","district":"Merapi Barat","urban":"Merapi","postal_code":31471},{"province":"Sumatera Selatan","city":"Lahat","district":"Merapi Selatan","urban":"Lubuk Pedaro/Pedaru","postal_code":31471},{"province":"Sumatera Selatan","city":"Lahat","district":"Merapi Timur","urban":"Lematang Jaya","postal_code":31471},{"province":"Sumatera Selatan","city":"Lahat","district":"Merapi Barat","urban":"Lubuk Kepayang","postal_code":31471},{"province":"Sumatera Selatan","city":"Lahat","district":"Merapi Selatan","urban":"Lubuk Betung","postal_code":31471},{"province":"Sumatera Selatan","city":"Lahat","district":"Merapi Timur","urban":"Lebuay Bandung","postal_code":31471},{"province":"Sumatera Selatan","city":"Lahat","district":"Merapi Barat","urban":"Lebak Budi","postal_code":31471},{"province":"Sumatera Selatan","city":"Lahat","district":"Merapi Barat","urban":"Karang Rejo","postal_code":31471},{"province":"Sumatera Selatan","city":"Lahat","district":"Merapi Barat","urban":"Kebur","postal_code":31471},{"province":"Sumatera Selatan","city":"Lahat","district":"Merapi Barat","urban":"Karang Endah","postal_code":31471},{"province":"Sumatera Selatan","city":"Lahat","district":"Merapi Timur","urban":"Gunung Kembang","postal_code":31471},{"province":"Sumatera Selatan","city":"Lahat","district":"Merapi Barat","urban":"Gunung Agung","postal_code":31471},{"province":"Sumatera Selatan","city":"Lahat","district":"Merapi Selatan","urban":"Geramat","postal_code":31471},{"province":"Sumatera Selatan","city":"Lahat","district":"Merapi Timur","urban":"Cempaka Wangi","postal_code":31471},{"province":"Sumatera Selatan","city":"Lahat","district":"Merapi Timur","urban":"Gedung Agung","postal_code":31471},{"province":"Sumatera Selatan","city":"Lahat","district":"Merapi Timur","urban":"Banjar Sari","postal_code":31471},{"province":"Sumatera Selatan","city":"Lahat","district":"Merapi Timur","urban":"Arahan","postal_code":31471}]