[{"province":"Sumatera Selatan","city":"Pagar Alam","district":"Dempo Utara","urban":"Reba Tinggi","postal_code":31521},{"province":"Sumatera Selatan","city":"Pagar Alam","district":"Dempo Selatan","urban":"Prahu Dipo","postal_code":31521},{"province":"Sumatera Selatan","city":"Pagar Alam","district":"Dempo Selatan","urban":"Penjalang","postal_code":31521},{"province":"Sumatera Selatan","city":"Pagar Alam","district":"Dempo Tengah","urban":"Padang Temu","postal_code":31521},{"province":"Sumatera Selatan","city":"Pagar Alam","district":"Dempo Tengah","urban":"Pelang Kenidai","postal_code":31521},{"province":"Sumatera Selatan","city":"Pagar Alam","district":"Dempo Utara","urban":"Muara Siban","postal_code":31521},{"province":"Sumatera Selatan","city":"Pagar Alam","district":"Dempo Selatan","urban":"Lubuk Buntak","postal_code":31521},{"province":"Sumatera Selatan","city":"Pagar Alam","district":"Dempo Tengah","urban":"Karang Dalo","postal_code":31521},{"province":"Sumatera Selatan","city":"Pagar Alam","district":"Dempo Selatan","urban":"Kance Diwe","postal_code":31521},{"province":"Sumatera Selatan","city":"Pagar Alam","district":"Dempo Tengah","urban":"Jokoh","postal_code":31521},{"province":"Sumatera Selatan","city":"Pagar Alam","district":"Dempo Utara","urban":"Jangkar Mas","postal_code":31521},{"province":"Sumatera Selatan","city":"Pagar Alam","district":"Dempo Tengah","urban":"Candi Jaya","postal_code":31521},{"province":"Sumatera Selatan","city":"Pagar Alam","district":"Dempo Utara","urban":"Bumi Agung","postal_code":31521},{"province":"Sumatera Selatan","city":"Pagar Alam","district":"Dempo Utara","urban":"Burung Dinang","postal_code":31521},{"province":"Sumatera Selatan","city":"Pagar Alam","district":"Dempo Selatan","urban":"Atung Bungsu","postal_code":31521},{"province":"Sumatera Selatan","city":"Pagar Alam","district":"Dempo Utara","urban":"Agung Lawangan","postal_code":31521}]