[{"province":"Sumatera Selatan","city":"Lahat","district":"Tanjung Sakti Pumi","urban":"Ulak Lebar","postal_code":31581},{"province":"Sumatera Selatan","city":"Lahat","district":"Tanjung Sakti Pumu","urban":"Ujung Pulau","postal_code":31581},{"province":"Sumatera Selatan","city":"Lahat","district":"Tanjung Sakti Pumi","urban":"Tanjung Sakti","postal_code":31581},{"province":"Sumatera Selatan","city":"Lahat","district":"Tanjung Sakti Pumi","urban":"Tanjung Bulan","postal_code":31581},{"province":"Sumatera Selatan","city":"Lahat","district":"Tanjung Sakti Pumu","urban":"Talang Tinggi","postal_code":31581},{"province":"Sumatera Selatan","city":"Lahat","district":"Tanjung Sakti Pumu","urban":"Tanjung Alam","postal_code":31581},{"province":"Sumatera Selatan","city":"Lahat","district":"Tanjung Sakti Pumu","urban":"Suban","postal_code":31581},{"province":"Sumatera Selatan","city":"Lahat","district":"Tanjung Sakti Pumi","urban":"Sindang Panjang","postal_code":31581},{"province":"Sumatera Selatan","city":"Lahat","district":"Tanjung Sakti Pumu","urban":"Simpang Tiga Pomo/Pumu","postal_code":31581},{"province":"Sumatera Selatan","city":"Lahat","district":"Tanjung Sakti Pumi","urban":"Pulau Panggung","postal_code":31581},{"province":"Sumatera Selatan","city":"Lahat","district":"Tanjung Sakti Pumi","urban":"Pulau Panas","postal_code":31581},{"province":"Sumatera Selatan","city":"Lahat","district":"Tanjung Sakti Pumi","urban":"Lubuk Dalam","postal_code":31581},{"province":"Sumatera Selatan","city":"Lahat","district":"Tanjung Sakti Pumi","urban":"Pajar Bulan","postal_code":31581},{"province":"Sumatera Selatan","city":"Lahat","district":"Tanjung Sakti Pumu","urban":"Kepala Siring","postal_code":31581},{"province":"Sumatera Selatan","city":"Lahat","district":"Tanjung Sakti Pumi","urban":"Penandingan","postal_code":31581},{"province":"Sumatera Selatan","city":"Lahat","district":"Tanjung Sakti Pumu","urban":"Kembang Ayun","postal_code":31581},{"province":"Sumatera Selatan","city":"Lahat","district":"Tanjung Sakti Pumi","urban":"Pagar Jati","postal_code":31581},{"province":"Sumatera Selatan","city":"Lahat","district":"Tanjung Sakti Pumu","urban":"Karang Agung","postal_code":31581},{"province":"Sumatera Selatan","city":"Lahat","district":"Tanjung Sakti Pumi","urban":"Negeri Kaya","postal_code":31581},{"province":"Sumatera Selatan","city":"Lahat","district":"Tanjung Sakti Pumu","urban":"Gunung Raya","postal_code":31581},{"province":"Sumatera Selatan","city":"Lahat","district":"Tanjung Sakti Pumi","urban":"Pagar Agung","postal_code":31581},{"province":"Sumatera Selatan","city":"Lahat","district":"Tanjung Sakti Pumu","urban":"Gunung Meraksa","postal_code":31581},{"province":"Sumatera Selatan","city":"Lahat","district":"Tanjung Sakti Pumu","urban":"Muara Cawang","postal_code":31581},{"province":"Sumatera Selatan","city":"Lahat","district":"Tanjung Sakti Pumi","urban":"Gunung Kembang","postal_code":31581},{"province":"Sumatera Selatan","city":"Lahat","district":"Tanjung Sakti Pumi","urban":"Lubuk Tabun","postal_code":31581},{"province":"Sumatera Selatan","city":"Lahat","district":"Tanjung Sakti Pumi","urban":"Gunung Kerto","postal_code":31581},{"province":"Sumatera Selatan","city":"Lahat","district":"Tanjung Sakti Pumi","urban":"Masam Bulan","postal_code":31581},{"province":"Sumatera Selatan","city":"Lahat","district":"Tanjung Sakti Pumu","urban":"Gunung Ayu","postal_code":31581},{"province":"Sumatera Selatan","city":"Lahat","district":"Tanjung Sakti Pumi","urban":"Gunung Agung","postal_code":31581},{"province":"Sumatera Selatan","city":"Lahat","district":"Tanjung Sakti Pumu","urban":"Genting/Genteng","postal_code":31581},{"province":"Sumatera Selatan","city":"Lahat","district":"Tanjung Sakti Pumi","urban":"Benteng","postal_code":31581},{"province":"Sumatera Selatan","city":"Lahat","district":"Tanjung Sakti Pumu","urban":"Batu Rancing","postal_code":31581}]