[{"province":"Sumatera Selatan","city":"Empat Lawang","district":"Sikap Dalam","urban":"Tapa Lama","postal_code":31594},{"province":"Sumatera Selatan","city":"Empat Lawang","district":"Ulu Musi","urban":"Teluk Bengkulu","postal_code":31594},{"province":"Sumatera Selatan","city":"Empat Lawang","district":"Sikap Dalam","urban":"Tapa Baru","postal_code":31594},{"province":"Sumatera Selatan","city":"Empat Lawang","district":"Ulu Musi","urban":"Tanjung Agung","postal_code":31594},{"province":"Sumatera Selatan","city":"Empat Lawang","district":"Sikap Dalam","urban":"Puntang","postal_code":31594},{"province":"Sumatera Selatan","city":"Empat Lawang","district":"Sikap Dalam","urban":"Tangga Rasa","postal_code":31594},{"province":"Sumatera Selatan","city":"Empat Lawang","district":"Ulu Musi","urban":"Simpang Perigi","postal_code":31594},{"province":"Sumatera Selatan","city":"Empat Lawang","district":"Sikap Dalam","urban":"Paduraksa","postal_code":31594},{"province":"Sumatera Selatan","city":"Empat Lawang","district":"Ulu Musi","urban":"Pulau Kemang","postal_code":31594},{"province":"Sumatera Selatan","city":"Empat Lawang","district":"Ulu Musi","urban":"Padang Tepong","postal_code":31594},{"province":"Sumatera Selatan","city":"Empat Lawang","district":"Ulu Musi","urban":"Muara Betung","postal_code":31594},{"province":"Sumatera Selatan","city":"Empat Lawang","district":"Ulu Musi","urban":"Muara Kalangan","postal_code":31594},{"province":"Sumatera Selatan","city":"Empat Lawang","district":"Sikap Dalam","urban":"Marta Pura","postal_code":31594},{"province":"Sumatera Selatan","city":"Empat Lawang","district":"Ulu Musi","urban":"Lubuk Puding Baru","postal_code":31594},{"province":"Sumatera Selatan","city":"Empat Lawang","district":"Ulu Musi","urban":"Lubuk Puding Lama","postal_code":31594},{"province":"Sumatera Selatan","city":"Empat Lawang","district":"Sikap Dalam","urban":"Karang Gede","postal_code":31594},{"province":"Sumatera Selatan","city":"Empat Lawang","district":"Ulu Musi","urban":"Kunduran","postal_code":31594},{"province":"Sumatera Selatan","city":"Empat Lawang","district":"Sikap Dalam","urban":"Karang Anyar","postal_code":31594},{"province":"Sumatera Selatan","city":"Empat Lawang","district":"Sikap Dalam","urban":"Karang Dapo Baru","postal_code":31594},{"province":"Sumatera Selatan","city":"Empat Lawang","district":"Sikap Dalam","urban":"Karang Dapo Lama","postal_code":31594},{"province":"Sumatera Selatan","city":"Empat Lawang","district":"Ulu Musi","urban":"Batu Lintang","postal_code":31594},{"province":"Sumatera Selatan","city":"Empat Lawang","district":"Ulu Musi","urban":"Galang","postal_code":31594},{"province":"Sumatera Selatan","city":"Empat Lawang","district":"Sikap Dalam","urban":"Bandar Aji","postal_code":31594},{"province":"Sumatera Selatan","city":"Empat Lawang","district":"Ulu Musi","urban":"Batu Bidung","postal_code":31594},{"province":"Sumatera Selatan","city":"Empat Lawang","district":"Ulu Musi","urban":"Air Kelinsar","postal_code":31594}]