[{"province":"Sumatera Selatan","city":"Lahat","district":"Jarai","urban":"Tertap","postal_code":31591},{"province":"Sumatera Selatan","city":"Lahat","district":"Jarai","urban":"Sukananti","postal_code":31591},{"province":"Sumatera Selatan","city":"Lahat","district":"Jarai","urban":"Tanjung Menang","postal_code":31591},{"province":"Sumatera Selatan","city":"Lahat","district":"Muarapayang","urban":"Talang Tinggi","postal_code":31591},{"province":"Sumatera Selatan","city":"Lahat","district":"Jarai","urban":"Penantian","postal_code":31591},{"province":"Sumatera Selatan","city":"Lahat","district":"Jarai","urban":"Sadan","postal_code":31591},{"province":"Sumatera Selatan","city":"Lahat","district":"Jarai","urban":"Nantigiri","postal_code":31591},{"province":"Sumatera Selatan","city":"Lahat","district":"Jarai","urban":"Serambi","postal_code":31591},{"province":"Sumatera Selatan","city":"Lahat","district":"Jarai","urban":"Pagar Dewa","postal_code":31591},{"province":"Sumatera Selatan","city":"Lahat","district":"Jarai","urban":"Pelajaran","postal_code":31591},{"province":"Sumatera Selatan","city":"Lahat","district":"Jarai","urban":"Pamah Salak","postal_code":31591},{"province":"Sumatera Selatan","city":"Lahat","district":"Jarai","urban":"Muaratawi","postal_code":31591},{"province":"Sumatera Selatan","city":"Lahat","district":"Muarapayang","urban":"Muara Payang","postal_code":31591},{"province":"Sumatera Selatan","city":"Lahat","district":"Muarapayang","urban":"Muara Gelumpai","postal_code":31591},{"province":"Sumatera Selatan","city":"Lahat","district":"Jarai","urban":"Mangun Sari","postal_code":31591},{"province":"Sumatera Selatan","city":"Lahat","district":"Muarapayang","urban":"Muara Jauh","postal_code":31591},{"province":"Sumatera Selatan","city":"Lahat","district":"Muarapayang","urban":"Lawang Agung Baru","postal_code":31591},{"province":"Sumatera Selatan","city":"Lahat","district":"Muarapayang","urban":"Lawang Agung Lama","postal_code":31591},{"province":"Sumatera Selatan","city":"Lahat","district":"Jarai","urban":"Lubuk Saung/Sawung","postal_code":31591},{"province":"Sumatera Selatan","city":"Lahat","district":"Jarai","urban":"Karang Tanding","postal_code":31591},{"province":"Sumatera Selatan","city":"Lahat","district":"Jarai","urban":"Kedaton","postal_code":31591},{"province":"Sumatera Selatan","city":"Lahat","district":"Jarai","urban":"Jemaring","postal_code":31591},{"province":"Sumatera Selatan","city":"Lahat","district":"Jarai","urban":"Gunung Megang","postal_code":31591},{"province":"Sumatera Selatan","city":"Lahat","district":"Jarai","urban":"Bandaraji","postal_code":31591},{"province":"Sumatera Selatan","city":"Lahat","district":"Jarai","urban":"Jarai","postal_code":31591},{"province":"Sumatera Selatan","city":"Lahat","district":"Muarapayang","urban":"Bandu Agung","postal_code":31591},{"province":"Sumatera Selatan","city":"Lahat","district":"Jarai","urban":"Gunung Kaya","postal_code":31591},{"province":"Sumatera Selatan","city":"Lahat","district":"Jarai","urban":"Aromantai","postal_code":31591}]