[{"province":"Sumatera Selatan","city":"Empat Lawang","district":"Pasemah Air Keruh","urban":"Tanjung Beringin","postal_code":31595},{"province":"Sumatera Selatan","city":"Empat Lawang","district":"Pasemah Air Keruh","urban":"Talang Padang","postal_code":31595},{"province":"Sumatera Selatan","city":"Empat Lawang","district":"Pasemah Air Keruh","urban":"Talang Randai","postal_code":31595},{"province":"Sumatera Selatan","city":"Empat Lawang","district":"Pasemah Air Keruh","urban":"Padang Gelai","postal_code":31595},{"province":"Sumatera Selatan","city":"Empat Lawang","district":"Pasemah Air Keruh","urban":"Pagar Jati","postal_code":31595},{"province":"Sumatera Selatan","city":"Empat Lawang","district":"Pasemah Air Keruh","urban":"Penantian","postal_code":31595},{"province":"Sumatera Selatan","city":"Empat Lawang","district":"Pasemah Air Keruh","urban":"Nanjungan","postal_code":31595},{"province":"Sumatera Selatan","city":"Empat Lawang","district":"Pasemah Air Keruh","urban":"Padang Bindu","postal_code":31595},{"province":"Sumatera Selatan","city":"Empat Lawang","district":"Pasemah Air Keruh","urban":"Muara Aman","postal_code":31595},{"province":"Sumatera Selatan","city":"Empat Lawang","district":"Pasemah Air Keruh","urban":"Muara Rungga","postal_code":31595},{"province":"Sumatera Selatan","city":"Empat Lawang","district":"Pasemah Air Keruh","urban":"Muara Sindang","postal_code":31595},{"province":"Sumatera Selatan","city":"Empat Lawang","district":"Pasemah Air Keruh","urban":"Kebon Jati (Keban Jati)","postal_code":31595},{"province":"Sumatera Selatan","city":"Empat Lawang","district":"Pasemah Air Keruh","urban":"Lawang Agung","postal_code":31595},{"province":"Sumatera Selatan","city":"Empat Lawang","district":"Pasemah Air Keruh","urban":"Air Mayan","postal_code":31595},{"province":"Sumatera Selatan","city":"Empat Lawang","district":"Pasemah Air Keruh","urban":"Bandar Agung","postal_code":31595}]