[{"province":"Sumatera Selatan","city":"Empat Lawang","district":"Lintang Kanan","urban":"Umojati","postal_code":31593},{"province":"Sumatera Selatan","city":"Empat Lawang","district":"Pendopo Barat","urban":"Tanjung Raya","postal_code":31593},{"province":"Sumatera Selatan","city":"Empat Lawang","district":"Pendopo Barat","urban":"Tebat Payang","postal_code":31593},{"province":"Sumatera Selatan","city":"Empat Lawang","district":"Pendopo","urban":"Tanjung Raman","postal_code":31593},{"province":"Sumatera Selatan","city":"Empat Lawang","district":"Lintang Kanan","urban":"Tanjung Jati","postal_code":31593},{"province":"Sumatera Selatan","city":"Empat Lawang","district":"Pendopo","urban":"Tanjung Eran","postal_code":31593},{"province":"Sumatera Selatan","city":"Empat Lawang","district":"Lintang Kanan","urban":"Tanjung Alam","postal_code":31593},{"province":"Sumatera Selatan","city":"Empat Lawang","district":"Pendopo","urban":"Tanjung Baru","postal_code":31593},{"province":"Sumatera Selatan","city":"Empat Lawang","district":"Lintang Kanan","urban":"Sukarami","postal_code":31593},{"province":"Sumatera Selatan","city":"Empat Lawang","district":"Pendopo","urban":"Sarang Bulan","postal_code":31593},{"province":"Sumatera Selatan","city":"Empat Lawang","district":"Lintang Kanan","urban":"Rantau Kasai","postal_code":31593},{"province":"Sumatera Selatan","city":"Empat Lawang","district":"Pendopo Barat","urban":"Rantau Dodor","postal_code":31593},{"province":"Sumatera Selatan","city":"Empat Lawang","district":"Lintang Kanan","urban":"Rantau Aleh (Rantaualih)","postal_code":31593},{"province":"Sumatera Selatan","city":"Empat Lawang","district":"Pendopo","urban":"Pendopo","postal_code":31593},{"province":"Sumatera Selatan","city":"Empat Lawang","district":"Lintang Kanan","urban":"Pagar Jati","postal_code":31593},{"province":"Sumatera Selatan","city":"Empat Lawang","district":"Pendopo","urban":"Pagar Alam","postal_code":31593},{"province":"Sumatera Selatan","city":"Empat Lawang","district":"Lintang Kanan","urban":"Nibong (Nibung)","postal_code":31593},{"province":"Sumatera Selatan","city":"Empat Lawang","district":"Pendopo Barat","urban":"Padang Bindu","postal_code":31593},{"province":"Sumatera Selatan","city":"Empat Lawang","district":"Pendopo","urban":"Nanjungan","postal_code":31593},{"province":"Sumatera Selatan","city":"Empat Lawang","district":"Pendopo Barat","urban":"Muara Lintang Baru","postal_code":31593},{"province":"Sumatera Selatan","city":"Empat Lawang","district":"Pendopo Barat","urban":"Muara Lintang Lama","postal_code":31593},{"province":"Sumatera Selatan","city":"Empat Lawang","district":"Lintang Kanan","urban":"Muara Danau","postal_code":31593},{"province":"Sumatera Selatan","city":"Empat Lawang","district":"Pendopo","urban":"Manggilang","postal_code":31593},{"province":"Sumatera Selatan","city":"Empat Lawang","district":"Pendopo","urban":"Muara Karang","postal_code":31593},{"province":"Sumatera Selatan","city":"Empat Lawang","district":"Lintang Kanan","urban":"Lubuk Tapang","postal_code":31593},{"province":"Sumatera Selatan","city":"Empat Lawang","district":"Pendopo","urban":"Lubuk Sepang","postal_code":31593},{"province":"Sumatera Selatan","city":"Empat Lawang","district":"Pendopo","urban":"Lubuk Layang","postal_code":31593},{"province":"Sumatera Selatan","city":"Empat Lawang","district":"Lintang Kanan","urban":"Lubuk Cik","postal_code":31593},{"province":"Sumatera Selatan","city":"Empat Lawang","district":"Pendopo Barat","urban":"Lingge","postal_code":31593},{"province":"Sumatera Selatan","city":"Empat Lawang","district":"Lintang Kanan","urban":"Lesung Batu","postal_code":31593},{"province":"Sumatera Selatan","city":"Empat Lawang","district":"Pendopo","urban":"Landur","postal_code":31593},{"province":"Sumatera Selatan","city":"Empat Lawang","district":"Lintang Kanan","urban":"Karang Tanding","postal_code":31593},{"province":"Sumatera Selatan","city":"Empat Lawang","district":"Pendopo Barat","urban":"Kungkilan (Nungkilan)","postal_code":31593},{"province":"Sumatera Selatan","city":"Empat Lawang","district":"Pendopo Barat","urban":"Karang Caya","postal_code":31593},{"province":"Sumatera Selatan","city":"Empat Lawang","district":"Pendopo","urban":"Jarakan","postal_code":31593},{"province":"Sumatera Selatan","city":"Empat Lawang","district":"Pendopo","urban":"Gunung Meraksa Lama","postal_code":31593},{"province":"Sumatera Selatan","city":"Empat Lawang","district":"Lintang Kanan","urban":"Endalo","postal_code":31593},{"province":"Sumatera Selatan","city":"Empat Lawang","district":"Pendopo","urban":"Beruge Ilir","postal_code":31593},{"province":"Sumatera Selatan","city":"Empat Lawang","district":"Pendopo","urban":"Gunung Meraksa Baru","postal_code":31593},{"province":"Sumatera Selatan","city":"Empat Lawang","district":"Lintang Kanan","urban":"Batu Ampar","postal_code":31593},{"province":"Sumatera Selatan","city":"Empat Lawang","district":"Pendopo","urban":"Batu Cawang","postal_code":31593},{"province":"Sumatera Selatan","city":"Empat Lawang","district":"Pendopo","urban":"Bayau","postal_code":31593},{"province":"Sumatera Selatan","city":"Empat Lawang","district":"Pendopo","urban":"Bandar Agung","postal_code":31593},{"province":"Sumatera Selatan","city":"Empat Lawang","district":"Pendopo","urban":"Baruge/Beruge Tengah","postal_code":31593},{"province":"Sumatera Selatan","city":"Empat Lawang","district":"Pendopo Barat","urban":"Air Kandis","postal_code":31593},{"province":"Sumatera Selatan","city":"Empat Lawang","district":"Lintang Kanan","urban":"Babatan","postal_code":31593}]