[{"province":"Sumatera Selatan","city":"Lubuk Linggau","district":"Lubuk Linggau Utara Satu (I)","urban":"Taba Baru","postal_code":31619},{"province":"Sumatera Selatan","city":"Lubuk Linggau","district":"Lubuk Linggau Utara Satu (I)","urban":"Tanjung Raya","postal_code":31619},{"province":"Sumatera Selatan","city":"Lubuk Linggau","district":"Lubuk Linggau Utara Satu (I)","urban":"Sumber Agung","postal_code":31619},{"province":"Sumatera Selatan","city":"Lubuk Linggau","district":"Lubuk Linggau Utara Dua (II)","urban":"Senalang","postal_code":31619},{"province":"Sumatera Selatan","city":"Lubuk Linggau","district":"Lubuk Linggau Utara Dua (II)","urban":"Puncak Kemuning","postal_code":31619},{"province":"Sumatera Selatan","city":"Lubuk Linggau","district":"Lubuk Linggau Utara Dua (II)","urban":"Ponorogo","postal_code":31619},{"province":"Sumatera Selatan","city":"Lubuk Linggau","district":"Lubuk Linggau Utara Satu (I)","urban":"Marga Rejo (Margorejo)","postal_code":31619},{"province":"Sumatera Selatan","city":"Lubuk Linggau","district":"Lubuk Linggau Utara Dua (II)","urban":"Pasar Satlit","postal_code":31619},{"province":"Sumatera Selatan","city":"Lubuk Linggau","district":"Lubuk Linggau Utara Satu (I)","urban":"Marga Bakti","postal_code":31619},{"province":"Sumatera Selatan","city":"Lubuk Linggau","district":"Lubuk Linggau Utara Dua (II)","urban":"Kenanga","postal_code":31619},{"province":"Sumatera Selatan","city":"Lubuk Linggau","district":"Lubuk Linggau Utara Dua (II)","urban":"Jogoboyo (Joyoboyo)","postal_code":31619},{"province":"Sumatera Selatan","city":"Lubuk Linggau","district":"Lubuk Linggau Utara Dua (II)","urban":"Kali Serayu","postal_code":31619},{"province":"Sumatera Selatan","city":"Lubuk Linggau","district":"Lubuk Linggau Utara Satu (I)","urban":"Belalau II","postal_code":31619},{"province":"Sumatera Selatan","city":"Lubuk Linggau","district":"Lubuk Linggau Utara Satu (I)","urban":"Durian Rampak","postal_code":31619},{"province":"Sumatera Selatan","city":"Lubuk Linggau","district":"Lubuk Linggau Utara Satu (I)","urban":"Belalau I","postal_code":31619}]