[{"province":"Sumatera Selatan","city":"Lubuk Linggau","district":"Lubuk Linggau Barat Dua (II)","urban":"Tapak Lebar","postal_code":31611},{"province":"Sumatera Selatan","city":"Lubuk Linggau","district":"Lubuk Linggau Barat Dua (II)","urban":"Ulak Lebar","postal_code":31611},{"province":"Sumatera Selatan","city":"Lubuk Linggau","district":"Lubuk Linggau Barat Satu (I)","urban":"Tanjung Aman","postal_code":31611},{"province":"Sumatera Selatan","city":"Lubuk Linggau","district":"Lubuk Linggau Barat Satu (I)","urban":"Tanjung Indah","postal_code":31611},{"province":"Sumatera Selatan","city":"Lubuk Linggau","district":"Lubuk Linggau Barat Satu (I)","urban":"Pelita Jaya","postal_code":31611},{"province":"Sumatera Selatan","city":"Lubuk Linggau","district":"Lubuk Linggau Barat Satu (I)","urban":"Muara Enim","postal_code":31611},{"province":"Sumatera Selatan","city":"Lubuk Linggau","district":"Lubuk Linggau Barat Dua (II)","urban":"Pasar Permiri","postal_code":31611},{"province":"Sumatera Selatan","city":"Lubuk Linggau","district":"Lubuk Linggau Barat Dua (II)","urban":"Lubuk Linggau Ilir","postal_code":31611},{"province":"Sumatera Selatan","city":"Lubuk Linggau","district":"Lubuk Linggau Barat Dua (II)","urban":"Lubuk Linggau Ulu","postal_code":31611},{"province":"Sumatera Selatan","city":"Lubuk Linggau","district":"Lubuk Linggau Barat Satu (I)","urban":"Lubuk Durian","postal_code":31611},{"province":"Sumatera Selatan","city":"Lubuk Linggau","district":"Lubuk Linggau Barat Dua (II)","urban":"Keputraan","postal_code":31611},{"province":"Sumatera Selatan","city":"Lubuk Linggau","district":"Lubuk Linggau Barat Satu (I)","urban":"Bandung Ujung","postal_code":31611},{"province":"Sumatera Selatan","city":"Lubuk Linggau","district":"Lubuk Linggau Barat Dua (II)","urban":"Bandung Kanan","postal_code":31611},{"province":"Sumatera Selatan","city":"Lubuk Linggau","district":"Lubuk Linggau Barat Satu (I)","urban":"Bandung Kiri","postal_code":31611}]