[{"province":"Sumatera Selatan","city":"Lubuk Linggau","district":"Lubuk Linggau Timur Satu (I)","urban":"Watervang","postal_code":31628},{"province":"Sumatera Selatan","city":"Lubuk Linggau","district":"Lubuk Linggau Timur Dua (II)","urban":"Wira Karya","postal_code":31628},{"province":"Sumatera Selatan","city":"Lubuk Linggau","district":"Lubuk Linggau Timur Satu (I)","urban":"Taba Lestari","postal_code":31628},{"province":"Sumatera Selatan","city":"Lubuk Linggau","district":"Lubuk Linggau Timur Satu (I)","urban":"Taba Koji","postal_code":31628},{"province":"Sumatera Selatan","city":"Lubuk Linggau","district":"Lubuk Linggau Timur Dua (II)","urban":"Mesat Seni","postal_code":31628},{"province":"Sumatera Selatan","city":"Lubuk Linggau","district":"Lubuk Linggau Timur Satu (I)","urban":"Nikan Jaya","postal_code":31628},{"province":"Sumatera Selatan","city":"Lubuk Linggau","district":"Lubuk Linggau Utara Dua (II)","urban":"Megang","postal_code":31628},{"province":"Sumatera Selatan","city":"Lubuk Linggau","district":"Lubuk Linggau Timur Satu (I)","urban":"Majapahit","postal_code":31628},{"province":"Sumatera Selatan","city":"Lubuk Linggau","district":"Lubuk Linggau Timur Dua (II)","urban":"Karya Bakti","postal_code":31628},{"province":"Sumatera Selatan","city":"Lubuk Linggau","district":"Lubuk Linggau Timur Dua (II)","urban":"Cereme Taba","postal_code":31628},{"province":"Sumatera Selatan","city":"Lubuk Linggau","district":"Lubuk Linggau Timur Dua (II)","urban":"Dempo","postal_code":31628},{"province":"Sumatera Selatan","city":"Lubuk Linggau","district":"Lubuk Linggau Timur Satu (I)","urban":"Air Kuti","postal_code":31628},{"province":"Sumatera Selatan","city":"Lubuk Linggau","district":"Lubuk Linggau Timur Satu (I)","urban":"Batu Urip Taba","postal_code":31628}]