[{"province":"Sumatera Selatan","city":"Lubuk Linggau","district":"Lubuk Linggau Selatan Dua (II)","urban":"Tanah Priuk","postal_code":31626},{"province":"Sumatera Selatan","city":"Lubuk Linggau","district":"Lubuk Linggau Selatan Dua (II)","urban":"Siring Agung","postal_code":31626},{"province":"Sumatera Selatan","city":"Lubuk Linggau","district":"Lubuk Linggau Selatan Dua (II)","urban":"Taba Pingin","postal_code":31626},{"province":"Sumatera Selatan","city":"Lubuk Linggau","district":"Lubuk Linggau Selatan Dua (II)","urban":"Simpang Priuk","postal_code":31626},{"province":"Sumatera Selatan","city":"Lubuk Linggau","district":"Lubuk Linggau Selatan Satu (I)","urban":"Perumnas Rahmah","postal_code":31626},{"province":"Sumatera Selatan","city":"Lubuk Linggau","district":"Lubuk Linggau Selatan Satu (I)","urban":"Rahmah","postal_code":31626},{"province":"Sumatera Selatan","city":"Lubuk Linggau","district":"Lubuk Linggau Selatan Dua (II)","urban":"Moneng Sepati","postal_code":31626},{"province":"Sumatera Selatan","city":"Lubuk Linggau","district":"Lubuk Linggau Selatan Dua (II)","urban":"Marga Rahayu","postal_code":31626},{"province":"Sumatera Selatan","city":"Lubuk Linggau","district":"Lubuk Linggau Selatan Dua (II)","urban":"Marga Mulya","postal_code":31626},{"province":"Sumatera Selatan","city":"Lubuk Linggau","district":"Lubuk Linggau Selatan Satu (I)","urban":"Lubuk Binjai","postal_code":31626},{"province":"Sumatera Selatan","city":"Lubuk Linggau","district":"Lubuk Linggau Selatan Satu (I)","urban":"Lubuk Kupang","postal_code":31626},{"province":"Sumatera Selatan","city":"Lubuk Linggau","district":"Lubuk Linggau Selatan Satu (I)","urban":"Jukung","postal_code":31626},{"province":"Sumatera Selatan","city":"Lubuk Linggau","district":"Lubuk Linggau Selatan Dua (II)","urban":"Karang Ketuan","postal_code":31626},{"province":"Sumatera Selatan","city":"Lubuk Linggau","district":"Lubuk Linggau Selatan Dua (II)","urban":"Eka Marga","postal_code":31626},{"province":"Sumatera Selatan","city":"Lubuk Linggau","district":"Lubuk Linggau Selatan Satu (I)","urban":"Air Temam","postal_code":31626},{"province":"Sumatera Selatan","city":"Lubuk Linggau","district":"Lubuk Linggau Selatan Satu (I)","urban":"Air Kati","postal_code":31626},{"province":"Sumatera Selatan","city":"Muara Enim","district":"Benakat","urban":"Rami Pasai","postal_code":31626},{"province":"Sumatera Selatan","city":"Muara Enim","district":"Benakat","urban":"Pagar Dewa","postal_code":31626},{"province":"Sumatera Selatan","city":"Muara Enim","district":"Benakat","urban":"Pagar Jati","postal_code":31626},{"province":"Sumatera Selatan","city":"Muara Enim","district":"Benakat","urban":"Padang Bindu","postal_code":31626},{"province":"Sumatera Selatan","city":"Muara Enim","district":"Benakat","urban":"Hidup Baru","postal_code":31626},{"province":"Sumatera Selatan","city":"Muara Enim","district":"Benakat","urban":"Betung","postal_code":31626}]