[{"province":"Sumatera Selatan","city":"Musi Rawas","district":"Karang Jaya","urban":"Terusan","postal_code":31654},{"province":"Sumatera Selatan","city":"Musi Rawas","district":"Karang Jaya","urban":"Tanjung Agung","postal_code":31654},{"province":"Sumatera Selatan","city":"Musi Rawas","district":"Rupit","urban":"Sungai Jernih","postal_code":31654},{"province":"Sumatera Selatan","city":"Musi Rawas","district":"Rupit","urban":"Tanjung Beringin","postal_code":31654},{"province":"Sumatera Selatan","city":"Musi Rawas","district":"Karang Jaya","urban":"Sukamenang","postal_code":31654},{"province":"Sumatera Selatan","city":"Musi Rawas","district":"Karang Jaya","urban":"Sukaraja","postal_code":31654},{"province":"Sumatera Selatan","city":"Musi Rawas","district":"Karang Jaya","urban":"Rantau Jaya","postal_code":31654},{"province":"Sumatera Selatan","city":"Musi Rawas","district":"Karang Jaya","urban":"Rantau Telang","postal_code":31654},{"province":"Sumatera Selatan","city":"Musi Rawas","district":"Rupit","urban":"Noman Baru","postal_code":31654},{"province":"Sumatera Selatan","city":"Musi Rawas","district":"Rupit","urban":"Pantai","postal_code":31654},{"province":"Sumatera Selatan","city":"Musi Rawas","district":"Rupit","urban":"Noman","postal_code":31654},{"province":"Sumatera Selatan","city":"Musi Rawas","district":"Karang Jaya","urban":"Muara Tiku","postal_code":31654},{"province":"Sumatera Selatan","city":"Musi Rawas","district":"Karang Jaya","urban":"Muara Batang Empu","postal_code":31654},{"province":"Sumatera Selatan","city":"Musi Rawas","district":"Rupit","urban":"Muara Rupit","postal_code":31654},{"province":"Sumatera Selatan","city":"Musi Rawas","district":"Rupit","urban":"Maur Baru","postal_code":31654},{"province":"Sumatera Selatan","city":"Musi Rawas","district":"Rupit","urban":"Maur Lama","postal_code":31654},{"province":"Sumatera Selatan","city":"Musi Rawas","district":"Karang Jaya","urban":"Lubuk Kumbang/Kumbung","postal_code":31654},{"province":"Sumatera Selatan","city":"Musi Rawas","district":"Rupit","urban":"Lubuk Rumbai","postal_code":31654},{"province":"Sumatera Selatan","city":"Musi Rawas","district":"Rupit","urban":"Lubuk Rumbai Baru","postal_code":31654},{"province":"Sumatera Selatan","city":"Musi Rawas","district":"Rupit","urban":"Lawang Agung","postal_code":31654},{"province":"Sumatera Selatan","city":"Musi Rawas","district":"Rupit","urban":"Karang Waru","postal_code":31654},{"province":"Sumatera Selatan","city":"Musi Rawas","district":"Karang Jaya","urban":"Karang Jaya","postal_code":31654},{"province":"Sumatera Selatan","city":"Musi Rawas","district":"Rupit","urban":"Karang Anyar","postal_code":31654},{"province":"Sumatera Selatan","city":"Musi Rawas","district":"Karang Jaya","urban":"Embacang Lama","postal_code":31654},{"province":"Sumatera Selatan","city":"Musi Rawas","district":"Karang Jaya","urban":"Bukit Ulu","postal_code":31654},{"province":"Sumatera Selatan","city":"Musi Rawas","district":"Karang Jaya","urban":"Embacang Baru","postal_code":31654},{"province":"Sumatera Selatan","city":"Musi Rawas","district":"Karang Jaya","urban":"Bukit Langkap","postal_code":31654},{"province":"Sumatera Selatan","city":"Musi Rawas","district":"Rupit","urban":"Bingin Rupit Ulu","postal_code":31654},{"province":"Sumatera Selatan","city":"Musi Rawas","district":"Rupit","urban":"Batu Gajah Baru","postal_code":31654},{"province":"Sumatera Selatan","city":"Musi Rawas","district":"Rupit","urban":"Beringin Jaya","postal_code":31654},{"province":"Sumatera Selatan","city":"Musi Rawas","district":"Rupit","urban":"Batu Gajah","postal_code":31654}]