[{"province":"Sumatera Selatan","city":"Musi Rawas","district":"Tugumulyo","urban":"Wukir Sari","postal_code":31662},{"province":"Sumatera Selatan","city":"Musi Rawas","district":"Tugumulyo","urban":"Wonorejo","postal_code":31662},{"province":"Sumatera Selatan","city":"Musi Rawas","district":"Tugumulyo","urban":"Wonokerto","postal_code":31662},{"province":"Sumatera Selatan","city":"Musi Rawas","district":"Tugumulyo","urban":"Widodo","postal_code":31662},{"province":"Sumatera Selatan","city":"Musi Rawas","district":"Tugumulyo","urban":"Trikoyo","postal_code":31662},{"province":"Sumatera Selatan","city":"Musi Rawas","district":"Tugumulyo","urban":"Tegal Rejo","postal_code":31662},{"province":"Sumatera Selatan","city":"Musi Rawas","district":"Tugumulyo","urban":"Surodadi","postal_code":31662},{"province":"Sumatera Selatan","city":"Musi Rawas","district":"Tugumulyo","urban":"Tambah Asri","postal_code":31662},{"province":"Sumatera Selatan","city":"Musi Rawas","district":"Tugumulyo","urban":"Sukomulio","postal_code":31662},{"province":"Sumatera Selatan","city":"Musi Rawas","district":"Tugumulyo","urban":"Srikaton","postal_code":31662},{"province":"Sumatera Selatan","city":"Musi Rawas","district":"Tugumulyo","urban":"Siti Harjo","postal_code":31662},{"province":"Sumatera Selatan","city":"Musi Rawas","district":"Tugumulyo","urban":"Ngadirejo","postal_code":31662},{"province":"Sumatera Selatan","city":"Musi Rawas","district":"Tugumulyo","urban":"Sidoharjo","postal_code":31662},{"province":"Sumatera Selatan","city":"Musi Rawas","district":"Tugumulyo","urban":"Nawangsari","postal_code":31662},{"province":"Sumatera Selatan","city":"Musi Rawas","district":"Tugumulyo","urban":"Mataram","postal_code":31662},{"province":"Sumatera Selatan","city":"Musi Rawas","district":"Tugumulyo","urban":"Kali Bening","postal_code":31662},{"province":"Sumatera Selatan","city":"Musi Rawas","district":"Tugumulyo","urban":"Dwijaya","postal_code":31662}]