[{"province":"Sumatera Selatan","city":"Musi Rawas","district":"Muara Lakitan","urban":"Sungai Pinang","postal_code":31666},{"province":"Sumatera Selatan","city":"Musi Rawas","district":"Muara Lakitan","urban":"Tri Anggunjaya","postal_code":31666},{"province":"Sumatera Selatan","city":"Musi Rawas","district":"Muara Lakitan","urban":"Semeteh","postal_code":31666},{"province":"Sumatera Selatan","city":"Musi Rawas","district":"Muara Lakitan","urban":"Sido Mulyo","postal_code":31666},{"province":"Sumatera Selatan","city":"Musi Rawas","district":"Muara Lakitan","urban":"Sindang Jaya","postal_code":31666},{"province":"Sumatera Selatan","city":"Musi Rawas","district":"Muara Lakitan","urban":"Semangus","postal_code":31666},{"province":"Sumatera Selatan","city":"Musi Rawas","district":"Muara Lakitan","urban":"Semangus Baru","postal_code":31666},{"province":"Sumatera Selatan","city":"Musi Rawas","district":"Muara Lakitan","urban":"Prabumulih I","postal_code":31666},{"province":"Sumatera Selatan","city":"Musi Rawas","district":"Muara Lakitan","urban":"Prabumulih II","postal_code":31666},{"province":"Sumatera Selatan","city":"Musi Rawas","district":"Muara Lakitan","urban":"Pendingan","postal_code":31666},{"province":"Sumatera Selatan","city":"Musi Rawas","district":"Muara Lakitan","urban":"Pian Jaya","postal_code":31666},{"province":"Sumatera Selatan","city":"Musi Rawas","district":"Muara Lakitan","urban":"Mukti Karya","postal_code":31666},{"province":"Sumatera Selatan","city":"Musi Rawas","district":"Muara Lakitan","urban":"Pelita Jaya","postal_code":31666},{"province":"Sumatera Selatan","city":"Musi Rawas","district":"Muara Lakitan","urban":"Muara Rengas","postal_code":31666},{"province":"Sumatera Selatan","city":"Musi Rawas","district":"Muara Lakitan","urban":"Muara Lakitan","postal_code":31666},{"province":"Sumatera Selatan","city":"Musi Rawas","district":"Muara Lakitan","urban":"Lubuk Pandan","postal_code":31666},{"province":"Sumatera Selatan","city":"Musi Rawas","district":"Muara Lakitan","urban":"Marga Baru","postal_code":31666},{"province":"Sumatera Selatan","city":"Musi Rawas","district":"Muara Lakitan","urban":"Bumi Makmur Jaya","postal_code":31666},{"province":"Sumatera Selatan","city":"Musi Rawas","district":"Muara Lakitan","urban":"Harapan Makmur","postal_code":31666},{"province":"Sumatera Selatan","city":"Musi Rawas","district":"Muara Lakitan","urban":"Anyar","postal_code":31666}]