[{"province":"Sumatera Selatan","city":"Musi Rawas","district":"Sukakarya","urban":"Yudha Karya Bhakti","postal_code":31665},{"province":"Sumatera Selatan","city":"Musi Rawas","district":"Jaya Loka","urban":"Sukowono","postal_code":31665},{"province":"Sumatera Selatan","city":"Musi Rawas","district":"Sukakarya","urban":"Sukarena","postal_code":31665},{"province":"Sumatera Selatan","city":"Musi Rawas","district":"Sukakarya","urban":"Sukowarno","postal_code":31665},{"province":"Sumatera Selatan","city":"Musi Rawas","district":"Jaya Loka","urban":"Sidodadi","postal_code":31665},{"province":"Sumatera Selatan","city":"Musi Rawas","district":"Sukakarya","urban":"Sugih Waras","postal_code":31665},{"province":"Sumatera Selatan","city":"Musi Rawas","district":"Jaya Loka","urban":"Ngestiboga II","postal_code":31665},{"province":"Sumatera Selatan","city":"Musi Rawas","district":"Jaya Loka","urban":"Purwodadi","postal_code":31665},{"province":"Sumatera Selatan","city":"Musi Rawas","district":"Sukakarya","urban":"Rantau Alih","postal_code":31665},{"province":"Sumatera Selatan","city":"Musi Rawas","district":"Jaya Loka","urban":"Margoyoso","postal_code":31665},{"province":"Sumatera Selatan","city":"Musi Rawas","district":"Jaya Loka","urban":"Ngestiboga I","postal_code":31665},{"province":"Sumatera Selatan","city":"Musi Rawas","district":"Jaya Loka","urban":"Margatani","postal_code":31665},{"province":"Sumatera Selatan","city":"Musi Rawas","district":"Jaya Loka","urban":"Margatunggal","postal_code":31665},{"province":"Sumatera Selatan","city":"Musi Rawas","district":"Jaya Loka","urban":"Donorejo (Donorojo)","postal_code":31665},{"province":"Sumatera Selatan","city":"Musi Rawas","district":"Jaya Loka","urban":"Giriyoso","postal_code":31665},{"province":"Sumatera Selatan","city":"Musi Rawas","district":"Jaya Loka","urban":"Kertosono","postal_code":31665},{"province":"Sumatera Selatan","city":"Musi Rawas","district":"Sukakarya","urban":"Ciptodadi","postal_code":31665},{"province":"Sumatera Selatan","city":"Musi Rawas","district":"Jaya Loka","urban":"Bumi Rejo","postal_code":31665},{"province":"Sumatera Selatan","city":"Musi Rawas","district":"Sukakarya","urban":"Bangun Rejo","postal_code":31665}]