[{"province":"Sumatera Selatan","city":"Musi Rawas","district":"Muara Beliti","urban":"Tanah Periuk I","postal_code":31661},{"province":"Sumatera Selatan","city":"Musi Rawas","district":"Muara Beliti","urban":"Suro (Dusun Suro)","postal_code":31661},{"province":"Sumatera Selatan","city":"Musi Rawas","district":"Tiang Pumpung Kepungut","urban":"Simpang Gegas Temuan","postal_code":31661},{"province":"Sumatera Selatan","city":"Musi Rawas","district":"Muara Beliti","urban":"Satan Indah Jaya","postal_code":31661},{"province":"Sumatera Selatan","city":"Musi Rawas","district":"Tiang Pumpung Kepungut","urban":"Rantau Serik/Resik","postal_code":31661},{"province":"Sumatera Selatan","city":"Musi Rawas","district":"Muara Beliti","urban":"Pedang (Dusun Pedang)","postal_code":31661},{"province":"Sumatera Selatan","city":"Musi Rawas","district":"Tiang Pumpung Kepungut","urban":"Rantau Bingin","postal_code":31661},{"province":"Sumatera Selatan","city":"Musi Rawas","district":"Muara Beliti","urban":"Pasar Muara Beliti","postal_code":31661},{"province":"Sumatera Selatan","city":"Musi Rawas","district":"Tiang Pumpung Kepungut","urban":"Muara Kati Lama","postal_code":31661},{"province":"Sumatera Selatan","city":"Musi Rawas","district":"Tiang Pumpung Kepungut","urban":"Muara Kati Baru II","postal_code":31661},{"province":"Sumatera Selatan","city":"Musi Rawas","district":"Muara Beliti","urban":"Muara Beliti Baru","postal_code":31661},{"province":"Sumatera Selatan","city":"Musi Rawas","district":"Tiang Pumpung Kepungut","urban":"Muara Kati Baru I","postal_code":31661},{"province":"Sumatera Selatan","city":"Musi Rawas","district":"Muara Beliti","urban":"Mana Resmi","postal_code":31661},{"province":"Sumatera Selatan","city":"Musi Rawas","district":"Tiang Pumpung Kepungut","urban":"Lubuk Besar","postal_code":31661},{"province":"Sumatera Selatan","city":"Musi Rawas","district":"Muara Beliti","urban":"Ketuan Jaya","postal_code":31661},{"province":"Sumatera Selatan","city":"Musi Rawas","district":"Tiang Pumpung Kepungut","urban":"Kebur","postal_code":31661},{"province":"Sumatera Selatan","city":"Musi Rawas","district":"Muara Beliti","urban":"Durian Remuk","postal_code":31661},{"province":"Sumatera Selatan","city":"Musi Rawas","district":"Tiang Pumpung Kepungut","urban":"Batu Bandung","postal_code":31661},{"province":"Sumatera Selatan","city":"Musi Rawas","district":"Muara Beliti","urban":"Bumi Agung","postal_code":31661},{"province":"Sumatera Selatan","city":"Musi Rawas","district":"Muara Beliti","urban":"Air Lesing","postal_code":31661},{"province":"Sumatera Selatan","city":"Musi Rawas","district":"Muara Beliti","urban":"Air Satan","postal_code":31661}]