[{"province":"Sumatera Selatan","city":"Ogan Komering Ulu","district":"Pengandonan","urban":"Ujan Mas","postal_code":32155},{"province":"Sumatera Selatan","city":"Ogan Komering Ulu","district":"Pengandonan","urban":"Tanjung Pura","postal_code":32155},{"province":"Sumatera Selatan","city":"Ogan Komering Ulu","district":"Pengandonan","urban":"Tanjung Sari","postal_code":32155},{"province":"Sumatera Selatan","city":"Ogan Komering Ulu","district":"Pengandonan","urban":"Tanjungan","postal_code":32155},{"province":"Sumatera Selatan","city":"Ogan Komering Ulu","district":"Muara Jaya","urban":"Surau","postal_code":32155},{"province":"Sumatera Selatan","city":"Ogan Komering Ulu","district":"Pengandonan","urban":"Semanding","postal_code":32155},{"province":"Sumatera Selatan","city":"Ogan Komering Ulu","district":"Pengandonan","urban":"Tangsi Lontar","postal_code":32155},{"province":"Sumatera Selatan","city":"Ogan Komering Ulu","district":"Muara Jaya","urban":"Muara Saeh","postal_code":32155},{"province":"Sumatera Selatan","city":"Ogan Komering Ulu","district":"Pengandonan","urban":"Pengandonan","postal_code":32155},{"province":"Sumatera Selatan","city":"Ogan Komering Ulu","district":"Muara Jaya","urban":"Lontar","postal_code":32155},{"province":"Sumatera Selatan","city":"Ogan Komering Ulu","district":"Muara Jaya","urban":"Lontar","postal_code":32155},{"province":"Sumatera Selatan","city":"Ogan Komering Ulu","district":"Muara Jaya","urban":"Lubuk Tupak","postal_code":32155},{"province":"Sumatera Selatan","city":"Ogan Komering Ulu","district":"Muara Jaya","urban":"Karang Lantang","postal_code":32155},{"province":"Sumatera Selatan","city":"Ogan Komering Ulu","district":"Muara Jaya","urban":"Kemala Jaya","postal_code":32155},{"province":"Sumatera Selatan","city":"Ogan Komering Ulu","district":"Pengandonan","urban":"Gunung Meraksa","postal_code":32155},{"province":"Sumatera Selatan","city":"Ogan Komering Ulu","district":"Pengandonan","urban":"Gunung Kuripan","postal_code":32155},{"province":"Sumatera Selatan","city":"Ogan Komering Ulu","district":"Pengandonan","urban":"Gunung Liwat","postal_code":32155},{"province":"Sumatera Selatan","city":"Ogan Komering Ulu","district":"Muara Jaya","urban":"Beringin","postal_code":32155},{"province":"Sumatera Selatan","city":"Ogan Komering Ulu","district":"Pengandonan","urban":"Belambangan","postal_code":32155}]