[{"province":"Sumatera Selatan","city":"Ogan Komering Ulu","district":"Sosoh Buay Rayap","urban":"Rantau Kumpai","postal_code":32151},{"province":"Sumatera Selatan","city":"Ogan Komering Ulu","district":"Sosoh Buay Rayap","urban":"Tungku Jaya","postal_code":32151},{"province":"Sumatera Selatan","city":"Ogan Komering Ulu","district":"Sosoh Buay Rayap","urban":"Negeri Sindang","postal_code":32151},{"province":"Sumatera Selatan","city":"Ogan Komering Ulu","district":"Sosoh Buay Rayap","urban":"Penantian","postal_code":32151},{"province":"Sumatera Selatan","city":"Ogan Komering Ulu","district":"Sosoh Buay Rayap","urban":"Penyandingan","postal_code":32151},{"province":"Sumatera Selatan","city":"Ogan Komering Ulu","district":"Sosoh Buay Rayap","urban":"Lubuk Leban","postal_code":32151},{"province":"Sumatera Selatan","city":"Ogan Komering Ulu","district":"Sosoh Buay Rayap","urban":"Mekar Jaya","postal_code":32151},{"province":"Sumatera Selatan","city":"Ogan Komering Ulu","district":"Sosoh Buay Rayap","urban":"Mekar Sari","postal_code":32151},{"province":"Sumatera Selatan","city":"Ogan Komering Ulu","district":"Sosoh Buay Rayap","urban":"Kungkilan","postal_code":32151},{"province":"Sumatera Selatan","city":"Ogan Komering Ulu","district":"Sosoh Buay Rayap","urban":"Lubuk Baru","postal_code":32151},{"province":"Sumatera Selatan","city":"Ogan Komering Ulu","district":"Sosoh Buay Rayap","urban":"Bandar","postal_code":32151}]