[{"province":"Sumatera Selatan","city":"Ogan Komering Ulu","district":"Semidang Aji","urban":"Tubohan","postal_code":32156},{"province":"Sumatera Selatan","city":"Ogan Komering Ulu","district":"Semidang Aji","urban":"Ulak Pandan","postal_code":32156},{"province":"Sumatera Selatan","city":"Ogan Komering Ulu","district":"Semidang Aji","urban":"Tanjung Kurung","postal_code":32156},{"province":"Sumatera Selatan","city":"Ogan Komering Ulu","district":"Semidang Aji","urban":"Tebing Kampung","postal_code":32156},{"province":"Sumatera Selatan","city":"Ogan Komering Ulu","district":"Semidang Aji","urban":"Singapura","postal_code":32156},{"province":"Sumatera Selatan","city":"Ogan Komering Ulu","district":"Semidang Aji","urban":"Suka Merindu","postal_code":32156},{"province":"Sumatera Selatan","city":"Ogan Komering Ulu","district":"Semidang Aji","urban":"Sukarami","postal_code":32156},{"province":"Sumatera Selatan","city":"Ogan Komering Ulu","district":"Semidang Aji","urban":"Raksa Jiwa","postal_code":32156},{"province":"Sumatera Selatan","city":"Ogan Komering Ulu","district":"Semidang Aji","urban":"Seleman","postal_code":32156},{"province":"Sumatera Selatan","city":"Ogan Komering Ulu","district":"Semidang Aji","urban":"Panggal Panggal","postal_code":32156},{"province":"Sumatera Selatan","city":"Ogan Komering Ulu","district":"Semidang Aji","urban":"Pengaringan","postal_code":32156},{"province":"Sumatera Selatan","city":"Ogan Komering Ulu","district":"Semidang Aji","urban":"Pandan Dulang","postal_code":32156},{"province":"Sumatera Selatan","city":"Ogan Komering Ulu","district":"Semidang Aji","urban":"Panai Makmur","postal_code":32156},{"province":"Sumatera Selatan","city":"Ogan Komering Ulu","district":"Semidang Aji","urban":"Padang Bindu","postal_code":32156},{"province":"Sumatera Selatan","city":"Ogan Komering Ulu","district":"Semidang Aji","urban":"Nyiur Sayak","postal_code":32156},{"province":"Sumatera Selatan","city":"Ogan Komering Ulu","district":"Semidang Aji","urban":"Kebun Jati","postal_code":32156},{"province":"Sumatera Selatan","city":"Ogan Komering Ulu","district":"Semidang Aji","urban":"Kebon Agung","postal_code":32156},{"province":"Sumatera Selatan","city":"Ogan Komering Ulu","district":"Semidang Aji","urban":"Batang Hari","postal_code":32156},{"province":"Sumatera Selatan","city":"Ogan Komering Ulu","district":"Semidang Aji","urban":"Bedegung","postal_code":32156},{"province":"Sumatera Selatan","city":"Ogan Komering Ulu","district":"Semidang Aji","urban":"Guna Makmur","postal_code":32156},{"province":"Sumatera Selatan","city":"Ogan Komering Ulu","district":"Semidang Aji","urban":"Banjar Sari","postal_code":32156}]