[{"province":"Sumatera Selatan","city":"Ogan Komering Ulu Selatan","district":"Buana Pemaca","urban":"Tunas Jaya","postal_code":32264},{"province":"Sumatera Selatan","city":"Ogan Komering Ulu Selatan","district":"Buana Pemaca","urban":"Tekana","postal_code":32264},{"province":"Sumatera Selatan","city":"Ogan Komering Ulu Selatan","district":"Simpang","urban":"Tanjung Sari","postal_code":32264},{"province":"Sumatera Selatan","city":"Ogan Komering Ulu Selatan","district":"Buana Pemaca","urban":"Tanjung Beringin","postal_code":32264},{"province":"Sumatera Selatan","city":"Ogan Komering Ulu Selatan","district":"Simpang","urban":"Sinar Mulyo","postal_code":32264},{"province":"Sumatera Selatan","city":"Ogan Komering Ulu Selatan","district":"Buana Pemaca","urban":"Sinar Danau","postal_code":32264},{"province":"Sumatera Selatan","city":"Ogan Komering Ulu Selatan","district":"Simpang","urban":"Simpang Agung","postal_code":32264},{"province":"Sumatera Selatan","city":"Ogan Komering Ulu Selatan","district":"Simpang","urban":"Simpangan","postal_code":32264},{"province":"Sumatera Selatan","city":"Ogan Komering Ulu Selatan","district":"Simpang","urban":"Karang Agung","postal_code":32264},{"province":"Sumatera Selatan","city":"Ogan Komering Ulu Selatan","district":"Simpang","urban":"Lubar","postal_code":32264},{"province":"Sumatera Selatan","city":"Ogan Komering Ulu Selatan","district":"Buana Pemaca","urban":"Gemiung","postal_code":32264},{"province":"Sumatera Selatan","city":"Ogan Komering Ulu Selatan","district":"Buana Pemaca","urban":"Jagaraga","postal_code":32264},{"province":"Sumatera Selatan","city":"Ogan Komering Ulu Selatan","district":"Simpang","urban":"Bungin Campang","postal_code":32264},{"province":"Sumatera Selatan","city":"Ogan Komering Ulu Selatan","district":"Buana Pemaca","urban":"Damarpura","postal_code":32264},{"province":"Sumatera Selatan","city":"Ogan Komering Ulu Selatan","district":"Buana Pemaca","urban":"Bandar","postal_code":32264}]