[{"province":"Sumatera Selatan","city":"Ogan Komering Ulu Selatan","district":"Mekakau Ilir","urban":"Teluk Agung","postal_code":32276},{"province":"Sumatera Selatan","city":"Ogan Komering Ulu Selatan","district":"Mekakau Ilir","urban":"Tanjung Besar","postal_code":32276},{"province":"Sumatera Selatan","city":"Ogan Komering Ulu Selatan","district":"Mekakau Ilir","urban":"Sri Menanti","postal_code":32276},{"province":"Sumatera Selatan","city":"Ogan Komering Ulu Selatan","district":"Mekakau Ilir","urban":"Sukaraja","postal_code":32276},{"province":"Sumatera Selatan","city":"Ogan Komering Ulu Selatan","district":"Mekakau Ilir","urban":"Pulau Duku","postal_code":32276},{"province":"Sumatera Selatan","city":"Ogan Komering Ulu Selatan","district":"Mekakau Ilir","urban":"Selabung Belimbing Jaya","postal_code":32276},{"province":"Sumatera Selatan","city":"Ogan Komering Ulu Selatan","district":"Mekakau Ilir","urban":"Sinar Marga","postal_code":32276},{"province":"Sumatera Selatan","city":"Ogan Komering Ulu Selatan","district":"Mekakau Ilir","urban":"Pere&#8217;an","postal_code":32276},{"province":"Sumatera Selatan","city":"Ogan Komering Ulu Selatan","district":"Mekakau Ilir","urban":"Kepayang","postal_code":32276},{"province":"Sumatera Selatan","city":"Ogan Komering Ulu Selatan","district":"Mekakau Ilir","urban":"Kota Baru","postal_code":32276},{"province":"Sumatera Selatan","city":"Ogan Komering Ulu Selatan","district":"Mekakau Ilir","urban":"Kota Dalam","postal_code":32276},{"province":"Sumatera Selatan","city":"Ogan Komering Ulu Selatan","district":"Mekakau Ilir","urban":"Kemang Bandung","postal_code":32276},{"province":"Sumatera Selatan","city":"Ogan Komering Ulu Selatan","district":"Mekakau Ilir","urban":"Bunut","postal_code":32276},{"province":"Sumatera Selatan","city":"Ogan Komering Ulu Selatan","district":"Mekakau Ilir","urban":"Galang Tinggi","postal_code":32276},{"province":"Sumatera Selatan","city":"Ogan Komering Ulu Selatan","district":"Mekakau Ilir","urban":"Air Baru","postal_code":32276}]