[{"province":"Sumatera Selatan","city":"Ogan Komering Ulu Selatan","district":"Buay Sandang Aji","urban":"Tanjung Raya","postal_code":32277},{"province":"Sumatera Selatan","city":"Ogan Komering Ulu Selatan","district":"Buay Sandang Aji","urban":"Tanjung Menang Ilir","postal_code":32277},{"province":"Sumatera Selatan","city":"Ogan Komering Ulu Selatan","district":"Buay Sandang Aji","urban":"Tanjung Menang Ulu","postal_code":32277},{"province":"Sumatera Selatan","city":"Ogan Komering Ulu Selatan","district":"Buay Sandang Aji","urban":"Talang Baru","postal_code":32277},{"province":"Sumatera Selatan","city":"Ogan Komering Ulu Selatan","district":"Buay Sandang Aji","urban":"Tanjung Iman","postal_code":32277},{"province":"Sumatera Selatan","city":"Ogan Komering Ulu Selatan","district":"Tiga Dihaji","urban":"Sukarena","postal_code":32277},{"province":"Sumatera Selatan","city":"Ogan Komering Ulu Selatan","district":"Tiga Dihaji","urban":"Surabaya","postal_code":32277},{"province":"Sumatera Selatan","city":"Ogan Komering Ulu Selatan","district":"Tiga Dihaji","urban":"Sukabumi","postal_code":32277},{"province":"Sumatera Selatan","city":"Ogan Komering Ulu Selatan","district":"Buay Sandang Aji","urban":"Sukaraja I","postal_code":32277},{"province":"Sumatera Selatan","city":"Ogan Komering Ulu Selatan","district":"Buay Sandang Aji","urban":"Sukarami","postal_code":32277},{"province":"Sumatera Selatan","city":"Ogan Komering Ulu Selatan","district":"Tiga Dihaji","urban":"Peninggiran","postal_code":32277},{"province":"Sumatera Selatan","city":"Ogan Komering Ulu Selatan","district":"Buay Sandang Aji","urban":"Negeri Cahya","postal_code":32277},{"province":"Sumatera Selatan","city":"Ogan Komering Ulu Selatan","district":"Buay Sandang Aji","urban":"Negeri Agung","postal_code":32277},{"province":"Sumatera Selatan","city":"Ogan Komering Ulu Selatan","district":"Buay Sandang Aji","urban":"Negeri Batin","postal_code":32277},{"province":"Sumatera Selatan","city":"Ogan Komering Ulu Selatan","district":"Buay Sandang Aji","urban":"Lubuk Liku","postal_code":32277},{"province":"Sumatera Selatan","city":"Ogan Komering Ulu Selatan","district":"Buay Sandang Aji","urban":"Madura","postal_code":32277},{"province":"Sumatera Selatan","city":"Ogan Komering Ulu Selatan","district":"Tiga Dihaji","urban":"Kuripan II / Dua","postal_code":32277},{"province":"Sumatera Selatan","city":"Ogan Komering Ulu Selatan","district":"Tiga Dihaji","urban":"Kota Agung","postal_code":32277},{"province":"Sumatera Selatan","city":"Ogan Komering Ulu Selatan","district":"Tiga Dihaji","urban":"Kuripan","postal_code":32277},{"province":"Sumatera Selatan","city":"Ogan Komering Ulu Selatan","district":"Buay Sandang Aji","urban":"Kota Karang","postal_code":32277},{"province":"Sumatera Selatan","city":"Ogan Komering Ulu Selatan","district":"Tiga Dihaji","urban":"Karang Pendeta","postal_code":32277},{"province":"Sumatera Selatan","city":"Ogan Komering Ulu Selatan","district":"Buay Sandang Aji","urban":"Kenali","postal_code":32277},{"province":"Sumatera Selatan","city":"Ogan Komering Ulu Selatan","district":"Buay Sandang Aji","urban":"Bunga Mas","postal_code":32277},{"province":"Sumatera Selatan","city":"Ogan Komering Ulu Selatan","district":"Buay Sandang Aji","urban":"Gunung Terang","postal_code":32277}]