[{"province":"Sumatera Selatan","city":"Ogan Komering Ulu Selatan","district":"Sindang Danau","urban":"Ulu Danau","postal_code":32273},{"province":"Sumatera Selatan","city":"Ogan Komering Ulu Selatan","district":"Sindang Danau","urban":"Wates","postal_code":32273},{"province":"Sumatera Selatan","city":"Ogan Komering Ulu Selatan","district":"Sungai Are","urban":"Ujan Mas","postal_code":32273},{"province":"Sumatera Selatan","city":"Ogan Komering Ulu Selatan","district":"Sindang Danau","urban":"Tebat Layang","postal_code":32273},{"province":"Sumatera Selatan","city":"Ogan Komering Ulu Selatan","district":"Pulau Beringin","urban":"Tanjung Kari","postal_code":32273},{"province":"Sumatera Selatan","city":"Ogan Komering Ulu Selatan","district":"Sindang Danau","urban":"Tanjung Harapan","postal_code":32273},{"province":"Sumatera Selatan","city":"Ogan Komering Ulu Selatan","district":"Pulau Beringin","urban":"Tanjung Bulan","postal_code":32273},{"province":"Sumatera Selatan","city":"Ogan Komering Ulu Selatan","district":"Pulau Beringin","urban":"Tanjung Bulan Ulu","postal_code":32273},{"province":"Sumatera Selatan","city":"Ogan Komering Ulu Selatan","district":"Sungai Are","urban":"Tanah Pilih","postal_code":32273},{"province":"Sumatera Selatan","city":"Ogan Komering Ulu Selatan","district":"Pulau Beringin","urban":"Simpang Pancur","postal_code":32273},{"province":"Sumatera Selatan","city":"Ogan Komering Ulu Selatan","district":"Sungai Are","urban":"Simpang Luas","postal_code":32273},{"province":"Sumatera Selatan","city":"Ogan Komering Ulu Selatan","district":"Sungai Are","urban":"Sadau Jaya","postal_code":32273},{"province":"Sumatera Selatan","city":"Ogan Komering Ulu Selatan","district":"Sungai Are","urban":"Simpang Luas","postal_code":32273},{"province":"Sumatera Selatan","city":"Ogan Komering Ulu Selatan","district":"Sungai Are","urban":"Pulau Kemuning","postal_code":32273},{"province":"Sumatera Selatan","city":"Ogan Komering Ulu Selatan","district":"Pulau Beringin","urban":"Pulau Beringin Utara","postal_code":32273},{"province":"Sumatera Selatan","city":"Ogan Komering Ulu Selatan","district":"Pulau Beringin","urban":"Pematang Obar","postal_code":32273},{"province":"Sumatera Selatan","city":"Ogan Komering Ulu Selatan","district":"Pulau Beringin","urban":"Pulau Beringin","postal_code":32273},{"province":"Sumatera Selatan","city":"Ogan Komering Ulu Selatan","district":"Sungai Are","urban":"Pecah Pinggan","postal_code":32273},{"province":"Sumatera Selatan","city":"Ogan Komering Ulu Selatan","district":"Sindang Danau","urban":"Pematang Danau","postal_code":32273},{"province":"Sumatera Selatan","city":"Ogan Komering Ulu Selatan","district":"Pulau Beringin","urban":"Pagar Agung","postal_code":32273},{"province":"Sumatera Selatan","city":"Ogan Komering Ulu Selatan","district":"Sindang Danau","urban":"Muara Sindang Tengah","postal_code":32273},{"province":"Sumatera Selatan","city":"Ogan Komering Ulu Selatan","district":"Sindang Danau","urban":"Muara Sindang Ilir","postal_code":32273},{"province":"Sumatera Selatan","city":"Ogan Komering Ulu Selatan","district":"Pulau Beringin","urban":"Kemu","postal_code":32273},{"province":"Sumatera Selatan","city":"Ogan Komering Ulu Selatan","district":"Pulau Beringin","urban":"Kemu Ulu","postal_code":32273},{"province":"Sumatera Selatan","city":"Ogan Komering Ulu Selatan","district":"Sungai Are","urban":"Guntung Jaya","postal_code":32273},{"province":"Sumatera Selatan","city":"Ogan Komering Ulu Selatan","district":"Pulau Beringin","urban":"Gunung Batu","postal_code":32273},{"province":"Sumatera Selatan","city":"Ogan Komering Ulu Selatan","district":"Sungai Are","urban":"Cukoh Nau (Cukuh/Cuko Nau)","postal_code":32273},{"province":"Sumatera Selatan","city":"Ogan Komering Ulu Selatan","district":"Pulau Beringin","urban":"Anugerah Kemu","postal_code":32273},{"province":"Sumatera Selatan","city":"Ogan Komering Ulu Selatan","district":"Pulau Beringin","urban":"Aromantai","postal_code":32273}]