[{"province":"Sumatera Selatan","city":"Ogan Komering Ulu Selatan","district":"Warkuk Ranau Selatan","urban":"Way Wangi Seminung","postal_code":32274},{"province":"Sumatera Selatan","city":"Ogan Komering Ulu Selatan","district":"Banding Agung","urban":"Way Timah","postal_code":32274},{"province":"Sumatera Selatan","city":"Ogan Komering Ulu Selatan","district":"Buay Pematang Ribu Ranau Tengah","urban":"Way Relai","postal_code":32274},{"province":"Sumatera Selatan","city":"Ogan Komering Ulu Selatan","district":"Banding Agung","urban":"Telanai","postal_code":32274},{"province":"Sumatera Selatan","city":"Ogan Komering Ulu Selatan","district":"Banding Agung","urban":"Terap Mulia","postal_code":32274},{"province":"Sumatera Selatan","city":"Ogan Komering Ulu Selatan","district":"Buay Pematang Ribu Ranau Tengah","urban":"Tanjung Sari","postal_code":32274},{"province":"Sumatera Selatan","city":"Ogan Komering Ulu Selatan","district":"Buay Pematang Ribu Ranau Tengah","urban":"Tanjung Setia","postal_code":32274},{"province":"Sumatera Selatan","city":"Ogan Komering Ulu Selatan","district":"Banding Agung","urban":"Tanjung Harapan","postal_code":32274},{"province":"Sumatera Selatan","city":"Ogan Komering Ulu Selatan","district":"Warkuk Ranau Selatan","urban":"Tanjung Jati","postal_code":32274},{"province":"Sumatera Selatan","city":"Ogan Komering Ulu Selatan","district":"Buay Pematang Ribu Ranau Tengah","urban":"Tanjung Kemala","postal_code":32274},{"province":"Sumatera Selatan","city":"Ogan Komering Ulu Selatan","district":"Banding Agung","urban":"Tanjung Agung","postal_code":32274},{"province":"Sumatera Selatan","city":"Ogan Komering Ulu Selatan","district":"Warkuk Ranau Selatan","urban":"Tanjung Baru","postal_code":32274},{"province":"Sumatera Selatan","city":"Ogan Komering Ulu Selatan","district":"Warkuk Ranau Selatan","urban":"Tanjung Baru","postal_code":32274},{"province":"Sumatera Selatan","city":"Ogan Komering Ulu Selatan","district":"Banding Agung","urban":"Talang Merbau","postal_code":32274},{"province":"Sumatera Selatan","city":"Ogan Komering Ulu Selatan","district":"Banding Agung","urban":"Tangsi Agung","postal_code":32274},{"province":"Sumatera Selatan","city":"Ogan Komering Ulu Selatan","district":"Banding Agung","urban":"Surabaya","postal_code":32274},{"province":"Sumatera Selatan","city":"Ogan Komering Ulu Selatan","district":"Banding Agung","urban":"Surabaya Timur","postal_code":32274},{"province":"Sumatera Selatan","city":"Ogan Komering Ulu Selatan","district":"Buay Pematang Ribu Ranau Tengah","urban":"Sumber Mulia","postal_code":32274},{"province":"Sumatera Selatan","city":"Ogan Komering Ulu Selatan","district":"Banding Agung","urban":"Sumber Makmur","postal_code":32274},{"province":"Sumatera Selatan","city":"Ogan Komering Ulu Selatan","district":"Buay Pematang Ribu Ranau Tengah","urban":"Sumber Jaya","postal_code":32274},{"province":"Sumatera Selatan","city":"Ogan Komering Ulu Selatan","district":"Buay Pematang Ribu Ranau Tengah","urban":"Sukarami","postal_code":32274},{"province":"Sumatera Selatan","city":"Ogan Komering Ulu Selatan","district":"Banding Agung","urban":"Sukamaju","postal_code":32274},{"province":"Sumatera Selatan","city":"Ogan Komering Ulu Selatan","district":"Buay Pematang Ribu Ranau Tengah","urban":"Sukamarga","postal_code":32274},{"province":"Sumatera Selatan","city":"Ogan Komering Ulu Selatan","district":"Warkuk Ranau Selatan","urban":"Sukajaya","postal_code":32274},{"province":"Sumatera Selatan","city":"Ogan Komering Ulu Selatan","district":"Buay Pematang Ribu Ranau Tengah","urban":"Sukabumi","postal_code":32274},{"province":"Sumatera Selatan","city":"Ogan Komering Ulu Selatan","district":"Banding Agung","urban":"Sugih Waras","postal_code":32274},{"province":"Sumatera Selatan","city":"Ogan Komering Ulu Selatan","district":"Banding Agung","urban":"Suka Negeri","postal_code":32274},{"province":"Sumatera Selatan","city":"Ogan Komering Ulu Selatan","district":"Banding Agung","urban":"Sipatuhu","postal_code":32274},{"province":"Sumatera Selatan","city":"Ogan Komering Ulu Selatan","district":"Banding Agung","urban":"Sipatuhu II","postal_code":32274},{"province":"Sumatera Selatan","city":"Ogan Komering Ulu Selatan","district":"Buay Pematang Ribu Ranau Tengah","urban":"Subik","postal_code":32274},{"province":"Sumatera Selatan","city":"Ogan Komering Ulu Selatan","district":"Buay Pematang Ribu Ranau Tengah","urban":"Simpang Sender Utara","postal_code":32274},{"province":"Sumatera Selatan","city":"Ogan Komering Ulu Selatan","district":"Buay Pematang Ribu Ranau Tengah","urban":"Simpang Sender Tengah","postal_code":32274},{"province":"Sumatera Selatan","city":"Ogan Komering Ulu Selatan","district":"Buay Pematang Ribu Ranau Tengah","urban":"Simpang Sender Timur","postal_code":32274},{"province":"Sumatera Selatan","city":"Ogan Komering Ulu Selatan","district":"Buay Pematang Ribu Ranau Tengah","urban":"Simpang Sender","postal_code":32274},{"province":"Sumatera Selatan","city":"Ogan Komering Ulu Selatan","district":"Buay Pematang Ribu Ranau Tengah","urban":"Simpang Sender Selatan","postal_code":32274},{"province":"Sumatera Selatan","city":"Ogan Komering Ulu Selatan","district":"Banding Agung","urban":"Sidodadi","postal_code":32274},{"province":"Sumatera Selatan","city":"Ogan Komering Ulu Selatan","district":"Buay Pematang Ribu Ranau Tengah","urban":"Serumpun Jaya","postal_code":32274},{"province":"Sumatera Selatan","city":"Ogan Komering Ulu Selatan","district":"Warkuk Ranau Selatan","urban":"Segigok Raya","postal_code":32274},{"province":"Sumatera Selatan","city":"Ogan Komering Ulu Selatan","district":"Warkuk Ranau Selatan","urban":"Remanam Jaya","postal_code":32274},{"province":"Sumatera Selatan","city":"Ogan Komering Ulu Selatan","district":"Banding Agung","urban":"Rantau Nipis","postal_code":32274},{"province":"Sumatera Selatan","city":"Ogan Komering Ulu Selatan","district":"Buay Pematang Ribu Ranau Tengah","urban":"Pakhda Suka","postal_code":32274},{"province":"Sumatera Selatan","city":"Ogan Komering Ulu Selatan","district":"Warkuk Ranau Selatan","urban":"Pilla","postal_code":32274},{"province":"Sumatera Selatan","city":"Ogan Komering Ulu Selatan","district":"Banding Agung","urban":"Penantian","postal_code":32274},{"province":"Sumatera Selatan","city":"Ogan Komering Ulu Selatan","district":"Warkuk Ranau Selatan","urban":"Pagar Dewa","postal_code":32274},{"province":"Sumatera Selatan","city":"Ogan Komering Ulu Selatan","district":"Buay Pematang Ribu Ranau Tengah","urban":"Padang Ratu","postal_code":32274},{"province":"Sumatera Selatan","city":"Ogan Komering Ulu Selatan","district":"Warkuk Ranau Selatan","urban":"Kota Batu","postal_code":32274},{"province":"Sumatera Selatan","city":"Ogan Komering Ulu Selatan","district":"Warkuk Ranau Selatan","urban":"Mekarsari","postal_code":32274},{"province":"Sumatera Selatan","city":"Ogan Komering Ulu Selatan","district":"Warkuk Ranau Selatan","urban":"Kiwis Raya","postal_code":32274},{"province":"Sumatera Selatan","city":"Ogan Komering Ulu Selatan","district":"Banding Agung","urban":"Karang Indah","postal_code":32274},{"province":"Sumatera Selatan","city":"Ogan Komering Ulu Selatan","district":"Warkuk Ranau Selatan","urban":"Gunung Raya","postal_code":32274},{"province":"Sumatera Selatan","city":"Ogan Komering Ulu Selatan","district":"Buay Pematang Ribu Ranau Tengah","urban":"Hangkusa/Lingkusa","postal_code":32274},{"province":"Sumatera Selatan","city":"Ogan Komering Ulu Selatan","district":"Buay Pematang Ribu Ranau Tengah","urban":"Jepara","postal_code":32274},{"province":"Sumatera Selatan","city":"Ogan Komering Ulu Selatan","district":"Warkuk Ranau Selatan","urban":"Gedung Ranau","postal_code":32274},{"province":"Sumatera Selatan","city":"Ogan Komering Ulu Selatan","district":"Warkuk Ranau Selatan","urban":"Gunung Aji","postal_code":32274},{"province":"Sumatera Selatan","city":"Ogan Komering Ulu Selatan","district":"Buay Pematang Ribu Ranau Tengah","urban":"Gedong/Gedung Baru","postal_code":32274},{"province":"Sumatera Selatan","city":"Ogan Komering Ulu Selatan","district":"Warkuk Ranau Selatan","urban":"Bumi Agung","postal_code":32274},{"province":"Sumatera Selatan","city":"Ogan Komering Ulu Selatan","district":"Warkuk Ranau Selatan","urban":"Bedeng Tiga","postal_code":32274},{"province":"Sumatera Selatan","city":"Ogan Komering Ulu Selatan","district":"Banding Agung","urban":"Bandar Agung Ranau","postal_code":32274},{"province":"Sumatera Selatan","city":"Ogan Komering Ulu Selatan","district":"Banding Agung","urban":"Banding Agung","postal_code":32274},{"province":"Sumatera Selatan","city":"Ogan Komering Ulu Selatan","district":"Banding Agung","urban":"Air Rupik","postal_code":32274}]