[{"province":"Sumatera Selatan","city":"Ogan Komering Ulu Selatan","district":"Runjung Agung","urban":"Tanjung Kurung","postal_code":32278},{"province":"Sumatera Selatan","city":"Ogan Komering Ulu Selatan","district":"Runjung Agung","urban":"Sura","postal_code":32278},{"province":"Sumatera Selatan","city":"Ogan Komering Ulu Selatan","district":"Buay Runjung","urban":"Sugih Waras","postal_code":32278},{"province":"Sumatera Selatan","city":"Ogan Komering Ulu Selatan","district":"Buay Runjung","urban":"Sukajadi Blambangan","postal_code":32278},{"province":"Sumatera Selatan","city":"Ogan Komering Ulu Selatan","district":"Buay Runjung","urban":"Perupus Blambangan","postal_code":32278},{"province":"Sumatera Selatan","city":"Ogan Komering Ulu Selatan","district":"Buay Runjung","urban":"Saung Naga","postal_code":32278},{"province":"Sumatera Selatan","city":"Ogan Komering Ulu Selatan","district":"Buay Runjung","urban":"Simpang Saga","postal_code":32278},{"province":"Sumatera Selatan","city":"Ogan Komering Ulu Selatan","district":"Buay Runjung","urban":"Peninjauan","postal_code":32278},{"province":"Sumatera Selatan","city":"Ogan Komering Ulu Selatan","district":"Runjung Agung","urban":"Penanggungan","postal_code":32278},{"province":"Sumatera Selatan","city":"Ogan Komering Ulu Selatan","district":"Buay Runjung","urban":"Negeri Batin Baru","postal_code":32278},{"province":"Sumatera Selatan","city":"Ogan Komering Ulu Selatan","district":"Buay Runjung","urban":"Padang Bindu","postal_code":32278},{"province":"Sumatera Selatan","city":"Ogan Komering Ulu Selatan","district":"Buay Runjung","urban":"Padang Sari","postal_code":32278},{"province":"Sumatera Selatan","city":"Ogan Komering Ulu Selatan","district":"Buay Runjung","urban":"Nagar Agung","postal_code":32278},{"province":"Sumatera Selatan","city":"Ogan Komering Ulu Selatan","district":"Buay Runjung","urban":"Kota Aman","postal_code":32278},{"province":"Sumatera Selatan","city":"Ogan Komering Ulu Selatan","district":"Buay Runjung","urban":"Kota Aman","postal_code":32278},{"province":"Sumatera Selatan","city":"Ogan Komering Ulu Selatan","district":"Runjung Agung","urban":"Karang Endah","postal_code":32278},{"province":"Sumatera Selatan","city":"Ogan Komering Ulu Selatan","district":"Buay Runjung","urban":"Kagelang Blambangan","postal_code":32278},{"province":"Sumatera Selatan","city":"Ogan Komering Ulu Selatan","district":"Runjung Agung","urban":"Gedung Wani","postal_code":32278},{"province":"Sumatera Selatan","city":"Ogan Komering Ulu Selatan","district":"Runjung Agung","urban":"Bumi Genap","postal_code":32278},{"province":"Sumatera Selatan","city":"Ogan Komering Ulu Selatan","district":"Runjung Agung","urban":"Gedung Nyawa","postal_code":32278},{"province":"Sumatera Selatan","city":"Ogan Komering Ulu Selatan","district":"Buay Runjung","urban":"Bedeng Blambangan","postal_code":32278},{"province":"Sumatera Selatan","city":"Ogan Komering Ulu Selatan","district":"Buay Runjung","urban":"Belambangan","postal_code":32278},{"province":"Sumatera Selatan","city":"Ogan Komering Ulu Selatan","district":"Runjung Agung","urban":"Air Baru","postal_code":32278}]