[{"province":"Sumatera Selatan","city":"Ogan Komering Ulu Timur","district":"Belitang Madang Raya","urban":"Yosowinangun","postal_code":32362},{"province":"Sumatera Selatan","city":"Ogan Komering Ulu Timur","district":"Belitang Madang Raya","urban":"Tulus Ayu","postal_code":32362},{"province":"Sumatera Selatan","city":"Ogan Komering Ulu Timur","district":"Belitang Madang Raya","urban":"Tugu Harum","postal_code":32362},{"province":"Sumatera Selatan","city":"Ogan Komering Ulu Timur","district":"Belitang Madang Raya","urban":"Tugu Mulyo","postal_code":32362},{"province":"Sumatera Selatan","city":"Ogan Komering Ulu Timur","district":"Madang Suku I","urban":"Tridadi","postal_code":32362},{"province":"Sumatera Selatan","city":"Ogan Komering Ulu Timur","district":"Belitang Madang Raya","urban":"Tanah Merah","postal_code":32362},{"province":"Sumatera Selatan","city":"Ogan Komering Ulu Timur","district":"Belitang Madang Raya","urban":"Tebing Sari Mulya","postal_code":32362},{"province":"Sumatera Selatan","city":"Ogan Komering Ulu Timur","district":"Madang Suku I","urban":"Rasuan Darat","postal_code":32362},{"province":"Sumatera Selatan","city":"Ogan Komering Ulu Timur","district":"Madang Suku I","urban":"Simpang Karta Mulya","postal_code":32362},{"province":"Sumatera Selatan","city":"Ogan Komering Ulu Timur","district":"Belitang Madang Raya","urban":"Rantau Jaya","postal_code":32362},{"province":"Sumatera Selatan","city":"Ogan Komering Ulu Timur","district":"Madang Suku I","urban":"Rasuan","postal_code":32362},{"province":"Sumatera Selatan","city":"Ogan Komering Ulu Timur","district":"Belitang Madang Raya","urban":"Pandan Sari I","postal_code":32362},{"province":"Sumatera Selatan","city":"Ogan Komering Ulu Timur","district":"Belitang Madang Raya","urban":"Pelita Jaya","postal_code":32362},{"province":"Sumatera Selatan","city":"Ogan Komering Ulu Timur","district":"Madang Suku I","urban":"Mengulak","postal_code":32362},{"province":"Sumatera Selatan","city":"Ogan Komering Ulu Timur","district":"Belitang Madang Raya","urban":"Mekar Jaya","postal_code":32362},{"province":"Sumatera Selatan","city":"Ogan Komering Ulu Timur","district":"Madang Suku I","urban":"Mendayun","postal_code":32362},{"province":"Sumatera Selatan","city":"Ogan Komering Ulu Timur","district":"Belitang Madang Raya","urban":"Karang Binangun","postal_code":32362},{"province":"Sumatera Selatan","city":"Ogan Komering Ulu Timur","district":"Belitang Madang Raya","urban":"Marga Cinta","postal_code":32362},{"province":"Sumatera Selatan","city":"Ogan Komering Ulu Timur","district":"Madang Suku I","urban":"Karta Mulya","postal_code":32362},{"province":"Sumatera Selatan","city":"Ogan Komering Ulu Timur","district":"Madang Suku I","urban":"Jatisari","postal_code":32362},{"province":"Sumatera Selatan","city":"Ogan Komering Ulu Timur","district":"Madang Suku I","urban":"Jaya Bakti","postal_code":32362},{"province":"Sumatera Selatan","city":"Ogan Komering Ulu Timur","district":"Madang Suku I","urban":"Harjo Mulyo","postal_code":32362},{"province":"Sumatera Selatan","city":"Ogan Komering Ulu Timur","district":"Belitang Madang Raya","urban":"Jati Mulyo I","postal_code":32362},{"province":"Sumatera Selatan","city":"Ogan Komering Ulu Timur","district":"Madang Suku I","urban":"Gunung Terang","postal_code":32362},{"province":"Sumatera Selatan","city":"Ogan Komering Ulu Timur","district":"Belitang Madang Raya","urban":"Bangsa Negara","postal_code":32362},{"province":"Sumatera Selatan","city":"Ogan Komering Ulu Timur","district":"Madang Suku I","urban":"Agung Jati","postal_code":32362}]