[{"province":"Sumatera Selatan","city":"Ogan Komering Ulu Timur","district":"Buay Madang","urban":"Way Halom","postal_code":32361},{"province":"Sumatera Selatan","city":"Ogan Komering Ulu Timur","district":"Buay Madang Timur","urban":"Tekorejo (Tokorejo)","postal_code":32361},{"province":"Sumatera Selatan","city":"Ogan Komering Ulu Timur","district":"Buay Madang","urban":"Tebat Jaya","postal_code":32361},{"province":"Sumatera Selatan","city":"Ogan Komering Ulu Timur","district":"Buay Madang Timur","urban":"Tanjungsari","postal_code":32361},{"province":"Sumatera Selatan","city":"Ogan Komering Ulu Timur","district":"Buay Madang Timur","urban":"Tanjungmas","postal_code":32361},{"province":"Sumatera Selatan","city":"Ogan Komering Ulu Timur","district":"Buay Madang","urban":"Tanjung Bulan","postal_code":32361},{"province":"Sumatera Selatan","city":"Ogan Komering Ulu Timur","district":"Buay Madang Timur","urban":"Tambak Boyo","postal_code":32361},{"province":"Sumatera Selatan","city":"Ogan Komering Ulu Timur","district":"Buay Pemuka Bangsa Raja","urban":"Surya Menang","postal_code":32361},{"province":"Sumatera Selatan","city":"Ogan Komering Ulu Timur","district":"Buay Madang Timur","urban":"Sumedang Sari","postal_code":32361},{"province":"Sumatera Selatan","city":"Ogan Komering Ulu Timur","district":"Buay Madang Timur","urban":"Sumber Mulyo","postal_code":32361},{"province":"Sumatera Selatan","city":"Ogan Komering Ulu Timur","district":"Buay Madang","urban":"Sumber Agung","postal_code":32361},{"province":"Sumatera Selatan","city":"Ogan Komering Ulu Timur","district":"Buay Madang Timur","urban":"Sumber Asri","postal_code":32361},{"province":"Sumatera Selatan","city":"Ogan Komering Ulu Timur","district":"Buay Madang Timur","urban":"Sumber Asri","postal_code":32361},{"province":"Sumatera Selatan","city":"Ogan Komering Ulu Timur","district":"Buay Madang Timur","urban":"Sukoharjo","postal_code":32361},{"province":"Sumatera Selatan","city":"Ogan Komering Ulu Timur","district":"Buay Madang Timur","urban":"Sukodadi","postal_code":32361},{"province":"Sumatera Selatan","city":"Ogan Komering Ulu Timur","district":"Buay Madang","urban":"Sukaraja","postal_code":32361},{"province":"Sumatera Selatan","city":"Ogan Komering Ulu Timur","district":"Buay Madang","urban":"Sukaraja Tuha","postal_code":32361},{"province":"Sumatera Selatan","city":"Ogan Komering Ulu Timur","district":"Buay Madang Timur","urban":"Suka Maju","postal_code":32361},{"province":"Sumatera Selatan","city":"Ogan Komering Ulu Timur","district":"Buay Madang Timur","urban":"Sri Katon","postal_code":32361},{"province":"Sumatera Selatan","city":"Ogan Komering Ulu Timur","district":"Buay Madang","urban":"Sri Dadi (Saridati)","postal_code":32361},{"province":"Sumatera Selatan","city":"Ogan Komering Ulu Timur","district":"Buay Pemuka Bangsa Raja","urban":"Sri Bunga","postal_code":32361},{"province":"Sumatera Selatan","city":"Ogan Komering Ulu Timur","district":"Buay Pemuka Bangsa Raja","urban":"Sri Bulan","postal_code":32361},{"province":"Sumatera Selatan","city":"Ogan Komering Ulu Timur","district":"Buay Madang Timur","urban":"Rejodadi","postal_code":32361},{"province":"Sumatera Selatan","city":"Ogan Komering Ulu Timur","district":"Buay Madang Timur","urban":"Rowodadi","postal_code":32361},{"province":"Sumatera Selatan","city":"Ogan Komering Ulu Timur","district":"Buay Pemuka Bangsa Raja","urban":"Rawasari","postal_code":32361},{"province":"Sumatera Selatan","city":"Ogan Komering Ulu Timur","district":"Buay Madang","urban":"Pisang Jaya","postal_code":32361},{"province":"Sumatera Selatan","city":"Ogan Komering Ulu Timur","district":"Buay Madang Timur","urban":"Pengandonan","postal_code":32361},{"province":"Sumatera Selatan","city":"Ogan Komering Ulu Timur","district":"Buay Pemuka Bangsa Raja","urban":"Pandan Sari III","postal_code":32361},{"province":"Sumatera Selatan","city":"Ogan Komering Ulu Timur","district":"Buay Madang","urban":"Mulyo Agung","postal_code":32361},{"province":"Sumatera Selatan","city":"Ogan Komering Ulu Timur","district":"Buay Pemuka Bangsa Raja","urban":"Muncak Kabau","postal_code":32361},{"province":"Sumatera Selatan","city":"Ogan Komering Ulu Timur","district":"Buay Madang","urban":"Muda Sentosa","postal_code":32361},{"province":"Sumatera Selatan","city":"Ogan Komering Ulu Timur","district":"Buay Madang Timur","urban":"Metro Rejo","postal_code":32361},{"province":"Sumatera Selatan","city":"Ogan Komering Ulu Timur","district":"Buay Madang Timur","urban":"Limansari","postal_code":32361},{"province":"Sumatera Selatan","city":"Ogan Komering Ulu Timur","district":"Buay Madang","urban":"Kurungan Nyawa III","postal_code":32361},{"province":"Sumatera Selatan","city":"Ogan Komering Ulu Timur","district":"Buay Madang","urban":"Kurungan Nyawa II","postal_code":32361},{"province":"Sumatera Selatan","city":"Ogan Komering Ulu Timur","district":"Buay Madang","urban":"Kurungan Nyawa I","postal_code":32361},{"province":"Sumatera Selatan","city":"Ogan Komering Ulu Timur","district":"Buay Madang","urban":"Kurungan Nyawa","postal_code":32361},{"province":"Sumatera Selatan","city":"Ogan Komering Ulu Timur","district":"Buay Madang Timur","urban":"Kumpul Rejo","postal_code":32361},{"province":"Sumatera Selatan","city":"Ogan Komering Ulu Timur","district":"Buay Madang Timur","urban":"Kedu","postal_code":32361},{"province":"Sumatera Selatan","city":"Ogan Komering Ulu Timur","district":"Buay Madang Timur","urban":"Kedung Rejo","postal_code":32361},{"province":"Sumatera Selatan","city":"Ogan Komering Ulu Timur","district":"Buay Madang Timur","urban":"Karang Tengah","postal_code":32361},{"province":"Sumatera Selatan","city":"Ogan Komering Ulu Timur","district":"Buay Madang","urban":"Cipta Muda","postal_code":32361},{"province":"Sumatera Selatan","city":"Ogan Komering Ulu Timur","district":"Buay Madang","urban":"Ganjar Agung","postal_code":32361},{"province":"Sumatera Selatan","city":"Ogan Komering Ulu Timur","district":"Buay Madang Timur","urban":"Bangun Harjo","postal_code":32361},{"province":"Sumatera Selatan","city":"Ogan Komering Ulu Timur","district":"Buay Madang Timur","urban":"Banyumas Asri","postal_code":32361},{"province":"Sumatera Selatan","city":"Ogan Komering Ulu Timur","district":"Buay Madang","urban":"Aman Jaya","postal_code":32361},{"province":"Sumatera Selatan","city":"Ogan Komering Ulu Timur","district":"Buay Pemuka Bangsa Raja","urban":"Anyar","postal_code":32361}]