[{"province":"Sumatera Selatan","city":"Ogan Komering Ulu Timur","district":"Madang Suku III","urban":"Wana Bhakti","postal_code":32366},{"province":"Sumatera Selatan","city":"Ogan Komering Ulu Timur","district":"Madang Suku II","urban":"Sukanegara","postal_code":32366},{"province":"Sumatera Selatan","city":"Ogan Komering Ulu Timur","district":"Madang Suku III","urban":"Surabaya","postal_code":32366},{"province":"Sumatera Selatan","city":"Ogan Komering Ulu Timur","district":"Madang Suku III","urban":"Suka Damai","postal_code":32366},{"province":"Sumatera Selatan","city":"Ogan Komering Ulu Timur","district":"Madang Suku II","urban":"Sri Kencana","postal_code":32366},{"province":"Sumatera Selatan","city":"Ogan Komering Ulu Timur","district":"Madang Suku II","urban":"Sri Mulyo","postal_code":32366},{"province":"Sumatera Selatan","city":"Ogan Komering Ulu Timur","district":"Madang Suku II","urban":"Riang Bandung","postal_code":32366},{"province":"Sumatera Selatan","city":"Ogan Komering Ulu Timur","district":"Madang Suku II","urban":"Riang Bandung Ilir","postal_code":32366},{"province":"Sumatera Selatan","city":"Ogan Komering Ulu Timur","district":"Madang Suku II","urban":"Rasuan Baru","postal_code":32366},{"province":"Sumatera Selatan","city":"Ogan Komering Ulu Timur","district":"Madang Suku II","urban":"Pandan Agung","postal_code":32366},{"province":"Sumatera Selatan","city":"Ogan Komering Ulu Timur","district":"Madang Suku II","urban":"Pandan Jaya","postal_code":32366},{"province":"Sumatera Selatan","city":"Ogan Komering Ulu Timur","district":"Madang Suku III","urban":"Nikan","postal_code":32366},{"province":"Sumatera Selatan","city":"Ogan Komering Ulu Timur","district":"Madang Suku II","urban":"Margotani II","postal_code":32366},{"province":"Sumatera Selatan","city":"Ogan Komering Ulu Timur","district":"Madang Suku II","urban":"Kertanegara","postal_code":32366},{"province":"Sumatera Selatan","city":"Ogan Komering Ulu Timur","district":"Madang Suku II","urban":"Kota Negara","postal_code":32366},{"province":"Sumatera Selatan","city":"Ogan Komering Ulu Timur","district":"Madang Suku II","urban":"Margo Tani","postal_code":32366},{"province":"Sumatera Selatan","city":"Ogan Komering Ulu Timur","district":"Madang Suku II","urban":"Karang Negara","postal_code":32366},{"province":"Sumatera Selatan","city":"Ogan Komering Ulu Timur","district":"Madang Suku III","urban":"Karya Makmur","postal_code":32366},{"province":"Sumatera Selatan","city":"Ogan Komering Ulu Timur","district":"Madang Suku II","urban":"Dadi Mulyo","postal_code":32366},{"province":"Sumatera Selatan","city":"Ogan Komering Ulu Timur","district":"Madang Suku II","urban":"Jati Mulyo II (Mulya II)","postal_code":32366},{"province":"Sumatera Selatan","city":"Ogan Komering Ulu Timur","district":"Madang Suku III","urban":"Batumarta VI","postal_code":32366},{"province":"Sumatera Selatan","city":"Ogan Komering Ulu Timur","district":"Madang Suku III","urban":"Batumarta X","postal_code":32366},{"province":"Sumatera Selatan","city":"Ogan Komering Ulu Timur","district":"Madang Suku III","urban":"Bina Amarta","postal_code":32366},{"province":"Sumatera Selatan","city":"Ogan Komering Ulu Timur","district":"Madang Suku II","urban":"Banban Rejo","postal_code":32366},{"province":"Sumatera Selatan","city":"Ogan Komering Ulu Timur","district":"Madang Suku III","urban":"Banding Agung","postal_code":32366}]