[{"province":"Sumatera Selatan","city":"Ogan Komering Ulu Timur","district":"Jayapura","urban":"Way Salak","postal_code":32381},{"province":"Sumatera Selatan","city":"Ogan Komering Ulu Timur","district":"Jayapura","urban":"Tumijaya","postal_code":32381},{"province":"Sumatera Selatan","city":"Ogan Komering Ulu Timur","district":"Martapura","urban":"Sukomulyo","postal_code":32381},{"province":"Sumatera Selatan","city":"Ogan Komering Ulu Timur","district":"Jayapura","urban":"Peracak Jaya","postal_code":32381},{"province":"Sumatera Selatan","city":"Ogan Komering Ulu Timur","district":"Martapura","urban":"Perjaya","postal_code":32381},{"province":"Sumatera Selatan","city":"Ogan Komering Ulu Timur","district":"Bunga Mayang","urban":"Peracak","postal_code":32381},{"province":"Sumatera Selatan","city":"Ogan Komering Ulu Timur","district":"Martapura","urban":"Kurungan Nyawa I","postal_code":32381},{"province":"Sumatera Selatan","city":"Ogan Komering Ulu Timur","district":"Jayapura","urban":"Mendah","postal_code":32381},{"province":"Sumatera Selatan","city":"Ogan Komering Ulu Timur","district":"Jayapura","urban":"Jayapura","postal_code":32381},{"province":"Sumatera Selatan","city":"Ogan Komering Ulu Timur","district":"Jayapura","urban":"Kambang","postal_code":32381},{"province":"Sumatera Selatan","city":"Ogan Komering Ulu Timur","district":"Martapura","urban":"Keromongan","postal_code":32381},{"province":"Sumatera Selatan","city":"Ogan Komering Ulu Timur","district":"Jayapura","urban":"Bunga Mayang","postal_code":32381},{"province":"Sumatera Selatan","city":"Ogan Komering Ulu Timur","district":"Jayapura","urban":"Condong","postal_code":32381},{"province":"Sumatera Selatan","city":"Ogan Komering Ulu Timur","district":"Bunga Mayang","urban":"Baturaja Bungin","postal_code":32381}]