[{"province":"Sumatera Selatan","city":"Ogan Komering Ulu Timur","district":"Belitang Jaya","urban":"Windusari","postal_code":32385},{"province":"Sumatera Selatan","city":"Ogan Komering Ulu Timur","district":"Belitang III","urban":"Sukanegara","postal_code":32385},{"province":"Sumatera Selatan","city":"Ogan Komering Ulu Timur","district":"Belitang III","urban":"Sumber Rejo","postal_code":32385},{"province":"Sumatera Selatan","city":"Ogan Komering Ulu Timur","district":"Belitang III","urban":"Tri Karya","postal_code":32385},{"province":"Sumatera Selatan","city":"Ogan Komering Ulu Timur","district":"Belitang III","urban":"Ringin Sari","postal_code":32385},{"province":"Sumatera Selatan","city":"Ogan Komering Ulu Timur","district":"Belitang III","urban":"Senu Marga","postal_code":32385},{"province":"Sumatera Selatan","city":"Ogan Komering Ulu Timur","district":"Belitang III","urban":"Sinar Bali","postal_code":32385},{"province":"Sumatera Selatan","city":"Ogan Komering Ulu Timur","district":"Belitang Jaya","urban":"Rejosari Jaya","postal_code":32385},{"province":"Sumatera Selatan","city":"Ogan Komering Ulu Timur","district":"Belitang Jaya","urban":"Rejosari Jaya","postal_code":32385},{"province":"Sumatera Selatan","city":"Ogan Komering Ulu Timur","district":"Belitang III","urban":"Nusa Tenggara","postal_code":32385},{"province":"Sumatera Selatan","city":"Ogan Komering Ulu Timur","district":"Belitang III","urban":"Nusa Tunggal","postal_code":32385},{"province":"Sumatera Selatan","city":"Ogan Komering Ulu Timur","district":"Belitang III","urban":"Nusa Maju","postal_code":32385},{"province":"Sumatera Selatan","city":"Ogan Komering Ulu Timur","district":"Belitang III","urban":"Nusa Jaya","postal_code":32385},{"province":"Sumatera Selatan","city":"Ogan Komering Ulu Timur","district":"Belitang III","urban":"Nusa Bali","postal_code":32385},{"province":"Sumatera Selatan","city":"Ogan Komering Ulu Timur","district":"Belitang III","urban":"Nusa Agung","postal_code":32385},{"province":"Sumatera Selatan","city":"Ogan Komering Ulu Timur","district":"Belitang III","urban":"Nusa Bakti","postal_code":32385},{"province":"Sumatera Selatan","city":"Ogan Komering Ulu Timur","district":"Belitang Jaya","urban":"Karya Makmur","postal_code":32385},{"province":"Sumatera Selatan","city":"Ogan Komering Ulu Timur","district":"Belitang III","urban":"Kutosari","postal_code":32385},{"province":"Sumatera Selatan","city":"Ogan Komering Ulu Timur","district":"Belitang Jaya","urban":"Madu Gondo","postal_code":32385},{"province":"Sumatera Selatan","city":"Ogan Komering Ulu Timur","district":"Belitang III","urban":"Karang Sari","postal_code":32385},{"province":"Sumatera Selatan","city":"Ogan Komering Ulu Timur","district":"Belitang Jaya","urban":"Karsa Jaya","postal_code":32385},{"province":"Sumatera Selatan","city":"Ogan Komering Ulu Timur","district":"Belitang III","urban":"Karya Maju","postal_code":32385},{"province":"Sumatera Selatan","city":"Ogan Komering Ulu Timur","district":"Belitang III","urban":"Karang Jadi","postal_code":32385},{"province":"Sumatera Selatan","city":"Ogan Komering Ulu Timur","district":"Belitang Jaya","urban":"Giri Mulyo","postal_code":32385},{"province":"Sumatera Selatan","city":"Ogan Komering Ulu Timur","district":"Belitang III","urban":"Dadi Rejo","postal_code":32385},{"province":"Sumatera Selatan","city":"Ogan Komering Ulu Timur","district":"Belitang III","urban":"Ganti Warno","postal_code":32385},{"province":"Sumatera Selatan","city":"Ogan Komering Ulu Timur","district":"Belitang Jaya","urban":"Argo Mulyo","postal_code":32385}]