[{"province":"Bangka Belitung","city":"Bangka Barat","district":"Kelapa","urban":"Tuik","postal_code":33364},{"province":"Bangka Belitung","city":"Bangka Barat","district":"Kelapa","urban":"Terentang","postal_code":33364},{"province":"Bangka Belitung","city":"Bangka Barat","district":"Kelapa","urban":"Tugang","postal_code":33364},{"province":"Bangka Belitung","city":"Bangka Barat","district":"Kelapa","urban":"Tebing","postal_code":33364},{"province":"Bangka Belitung","city":"Bangka Barat","district":"Kelapa","urban":"Sinar Sari","postal_code":33364},{"province":"Bangka Belitung","city":"Bangka Barat","district":"Kelapa","urban":"Pangkal Beras","postal_code":33364},{"province":"Bangka Belitung","city":"Bangka Barat","district":"Kelapa","urban":"Pusuk","postal_code":33364},{"province":"Bangka Belitung","city":"Bangka Barat","district":"Kelapa","urban":"Mancung","postal_code":33364},{"province":"Bangka Belitung","city":"Bangka Barat","district":"Kelapa","urban":"Kayuarang","postal_code":33364},{"province":"Bangka Belitung","city":"Bangka Barat","district":"Kelapa","urban":"Kelapa","postal_code":33364},{"province":"Bangka Belitung","city":"Bangka Barat","district":"Kelapa","urban":"Beruas","postal_code":33364},{"province":"Bangka Belitung","city":"Bangka Barat","district":"Kelapa","urban":"Dendang","postal_code":33364},{"province":"Bangka Belitung","city":"Bangka Barat","district":"Kelapa","urban":"Kacung","postal_code":33364},{"province":"Bangka Belitung","city":"Bangka Barat","district":"Kelapa","urban":"Air Bulin","postal_code":33364}]