[{"province":"Bangka Belitung","city":"Bangka Barat","district":"Tempilang","urban":"Tempilang","postal_code":33365},{"province":"Bangka Belitung","city":"Bangka Barat","district":"Tempilang","urban":"Tanjungniur","postal_code":33365},{"province":"Bangka Belitung","city":"Bangka Barat","district":"Tempilang","urban":"Sinar Surya","postal_code":33365},{"province":"Bangka Belitung","city":"Bangka Barat","district":"Tempilang","urban":"Simpang Yul","postal_code":33365},{"province":"Bangka Belitung","city":"Bangka Barat","district":"Tempilang","urban":"Sangku","postal_code":33365},{"province":"Bangka Belitung","city":"Bangka Barat","district":"Tempilang","urban":"Penyampak","postal_code":33365},{"province":"Bangka Belitung","city":"Bangka Barat","district":"Tempilang","urban":"Buyan Kelumbi","postal_code":33365},{"province":"Bangka Belitung","city":"Bangka Barat","district":"Tempilang","urban":"Benteng Kota/Kuta","postal_code":33365},{"province":"Bangka Belitung","city":"Bangka Barat","district":"Tempilang","urban":"Air Lintang","postal_code":33365}]