[{"province":"Bangka Belitung","city":"Bangka Barat","district":"Jebus","urban":"Tumbak Petar","postal_code":33362},{"province":"Bangka Belitung","city":"Bangka Barat","district":"Parittiga","urban":"Telak","postal_code":33362},{"province":"Bangka Belitung","city":"Bangka Barat","district":"Parittiga","urban":"Teluk Limau","postal_code":33362},{"province":"Bangka Belitung","city":"Bangka Barat","district":"Jebus","urban":"Sinar Manik","postal_code":33362},{"province":"Bangka Belitung","city":"Bangka Barat","district":"Jebus","urban":"Sungai Buluh","postal_code":33362},{"province":"Bangka Belitung","city":"Bangka Barat","district":"Parittiga","urban":"Sekar Biru","postal_code":33362},{"province":"Bangka Belitung","city":"Bangka Barat","district":"Parittiga","urban":"Semulut","postal_code":33362},{"province":"Bangka Belitung","city":"Bangka Barat","district":"Jebus","urban":"Ranggi Asam","postal_code":33362},{"province":"Bangka Belitung","city":"Bangka Barat","district":"Jebus","urban":"Rukam","postal_code":33362},{"province":"Bangka Belitung","city":"Bangka Barat","district":"Jebus","urban":"Pebuar","postal_code":33362},{"province":"Bangka Belitung","city":"Bangka Barat","district":"Parittiga","urban":"Puput","postal_code":33362},{"province":"Bangka Belitung","city":"Bangka Barat","district":"Jebus","urban":"Mislak","postal_code":33362},{"province":"Bangka Belitung","city":"Bangka Barat","district":"Parittiga","urban":"Kelabat","postal_code":33362},{"province":"Bangka Belitung","city":"Bangka Barat","district":"Jebus","urban":"Ketap","postal_code":33362},{"province":"Bangka Belitung","city":"Bangka Barat","district":"Jebus","urban":"Limbung","postal_code":33362},{"province":"Bangka Belitung","city":"Bangka Barat","district":"Parittiga","urban":"Kapit","postal_code":33362},{"province":"Bangka Belitung","city":"Bangka Barat","district":"Parittiga","urban":"Cupat","postal_code":33362},{"province":"Bangka Belitung","city":"Bangka Barat","district":"Jebus","urban":"Jebus","postal_code":33362},{"province":"Bangka Belitung","city":"Bangka Barat","district":"Parittiga","urban":"Bakit","postal_code":33362},{"province":"Bangka Belitung","city":"Bangka Barat","district":"Jebus","urban":"Air Kuang","postal_code":33362},{"province":"Bangka Belitung","city":"Bangka Barat","district":"Parittiga","urban":"Air Gantang","postal_code":33362}]