[{"province":"Bangka Belitung","city":"Belitung","district":"Sijuk","urban":"Terong","postal_code":33414},{"province":"Bangka Belitung","city":"Belitung","district":"Sijuk","urban":"Tanjung Binga","postal_code":33414},{"province":"Bangka Belitung","city":"Belitung","district":"Sijuk","urban":"Tanjong Tinggi","postal_code":33414},{"province":"Bangka Belitung","city":"Belitung","district":"Sijuk","urban":"Sungai Padang","postal_code":33414},{"province":"Bangka Belitung","city":"Belitung","district":"Sijuk","urban":"Sijuk","postal_code":33414},{"province":"Bangka Belitung","city":"Belitung","district":"Tanjung Pandan","urban":"Paal Satu","postal_code":33414},{"province":"Bangka Belitung","city":"Belitung","district":"Sijuk","urban":"Pelepak Pute","postal_code":33414},{"province":"Bangka Belitung","city":"Belitung","district":"Sijuk","urban":"Keciput","postal_code":33414},{"province":"Bangka Belitung","city":"Belitung","district":"Sijuk","urban":"Batu Itam","postal_code":33414},{"province":"Bangka Belitung","city":"Belitung","district":"Sijuk","urban":"Air Seru","postal_code":33414},{"province":"Bangka Belitung","city":"Belitung","district":"Sijuk","urban":"Air Selumar","postal_code":33414},{"province":"Bangka Belitung","city":"Belitung","district":"Tanjung Pandan","urban":"Aik Palempang Jaya","postal_code":33414}]