[{"province":"Bangka Belitung","city":"Belitung Timur","district":"Simpang Renggiang","urban":"Simpang Tiga","postal_code":33562},{"province":"Bangka Belitung","city":"Belitung Timur","district":"Gantung","urban":"Selingsing","postal_code":33562},{"province":"Bangka Belitung","city":"Belitung Timur","district":"Simpang Renggiang","urban":"Renggiang","postal_code":33562},{"province":"Bangka Belitung","city":"Belitung Timur","district":"Simpang Renggiang","urban":"Lintang","postal_code":33562},{"province":"Bangka Belitung","city":"Belitung Timur","district":"Gantung","urban":"Limbongan","postal_code":33562},{"province":"Bangka Belitung","city":"Belitung Timur","district":"Gantung","urban":"Lenggang","postal_code":33562},{"province":"Bangka Belitung","city":"Belitung Timur","district":"Gantung","urban":"Lilangan","postal_code":33562},{"province":"Bangka Belitung","city":"Belitung Timur","district":"Gantung","urban":"Jangkar Asam","postal_code":33562},{"province":"Bangka Belitung","city":"Belitung Timur","district":"Gantung","urban":"Gantung","postal_code":33562},{"province":"Bangka Belitung","city":"Belitung Timur","district":"Gantung","urban":"Batu Penyu","postal_code":33562},{"province":"Bangka Belitung","city":"Belitung Timur","district":"Simpang Renggiang","urban":"Aik Madu","postal_code":33562}]