[{"province":"Bangka Belitung","city":"Bangka Tengah","district":"Simpang Katis","urban":"Terak","postal_code":33674},{"province":"Bangka Belitung","city":"Bangka Tengah","district":"Simpang Katis","urban":"Teru","postal_code":33674},{"province":"Bangka Belitung","city":"Bangka Tengah","district":"Simpang Katis","urban":"Simpang Katis","postal_code":33674},{"province":"Bangka Belitung","city":"Bangka Tengah","district":"Simpang Katis","urban":"Sungkap","postal_code":33674},{"province":"Bangka Belitung","city":"Bangka Tengah","district":"Simpang Katis","urban":"Pinang Sebatang","postal_code":33674},{"province":"Bangka Belitung","city":"Bangka Tengah","district":"Simpang Katis","urban":"Puput","postal_code":33674},{"province":"Bangka Belitung","city":"Bangka Tengah","district":"Simpang Katis","urban":"Pasir Garam","postal_code":33674},{"province":"Bangka Belitung","city":"Bangka Tengah","district":"Simpang Katis","urban":"Celuak","postal_code":33674},{"province":"Bangka Belitung","city":"Bangka Tengah","district":"Simpang Katis","urban":"Katis","postal_code":33674},{"province":"Bangka Belitung","city":"Bangka Tengah","district":"Simpang Katis","urban":"Beruas","postal_code":33674}]