[{"province":"Bangka Belitung","city":"Bangka Tengah","district":"Sungai Selan","urban":"Tanjung Pura","postal_code":33675},{"province":"Bangka Belitung","city":"Bangka Tengah","district":"Sungai Selan","urban":"Sungai Selan Atas","postal_code":33675},{"province":"Bangka Belitung","city":"Bangka Tengah","district":"Sungai Selan","urban":"Sarangmandi","postal_code":33675},{"province":"Bangka Belitung","city":"Bangka Tengah","district":"Sungai Selan","urban":"Sungai Selan","postal_code":33675},{"province":"Bangka Belitung","city":"Bangka Tengah","district":"Sungai Selan","urban":"Ramadhon (Romadhoni)","postal_code":33675},{"province":"Bangka Belitung","city":"Bangka Tengah","district":"Sungai Selan","urban":"Melabun","postal_code":33675},{"province":"Bangka Belitung","city":"Bangka Tengah","district":"Sungai Selan","urban":"Munggu","postal_code":33675},{"province":"Bangka Belitung","city":"Bangka Tengah","district":"Sungai Selan","urban":"Lampur","postal_code":33675},{"province":"Bangka Belitung","city":"Bangka Tengah","district":"Sungai Selan","urban":"Keretak Atas","postal_code":33675},{"province":"Bangka Belitung","city":"Bangka Tengah","district":"Sungai Selan","urban":"Kerantai","postal_code":33675},{"province":"Bangka Belitung","city":"Bangka Tengah","district":"Sungai Selan","urban":"Keretak","postal_code":33675},{"province":"Bangka Belitung","city":"Bangka Tengah","district":"Sungai Selan","urban":"Kerakas","postal_code":33675},{"province":"Bangka Belitung","city":"Bangka Tengah","district":"Sungai Selan","urban":"Kemingking","postal_code":33675}]