[{"province":"Bangka Belitung","city":"Bangka Tengah","district":"Pangkalan Baru","urban":"Tanjung Gunung","postal_code":33684},{"province":"Bangka Belitung","city":"Bangka Tengah","district":"Pangkalan Baru","urban":"Padang Baru","postal_code":33684},{"province":"Bangka Belitung","city":"Bangka Tengah","district":"Pangkalan Baru","urban":"Pelindang (Selindung)","postal_code":33684},{"province":"Bangka Belitung","city":"Bangka Tengah","district":"Namang","urban":"Namang","postal_code":33684},{"province":"Bangka Belitung","city":"Bangka Tengah","district":"Pangkalan Baru","urban":"Mangkol","postal_code":33684},{"province":"Bangka Belitung","city":"Bangka Tengah","district":"Namang","urban":"Kayu Besi","postal_code":33684},{"province":"Bangka Belitung","city":"Bangka Tengah","district":"Pangkalan Baru","urban":"Kebintik","postal_code":33684},{"province":"Bangka Belitung","city":"Bangka Tengah","district":"Pangkalan Baru","urban":"Jeruk","postal_code":33684},{"province":"Bangka Belitung","city":"Bangka Tengah","district":"Namang","urban":"Jelutung","postal_code":33684},{"province":"Bangka Belitung","city":"Bangka Tengah","district":"Pangkalan Baru","urban":"Dul","postal_code":33684},{"province":"Bangka Belitung","city":"Bangka Tengah","district":"Namang","urban":"Cambai Selatan","postal_code":33684},{"province":"Bangka Belitung","city":"Bangka Tengah","district":"Namang","urban":"Cambai","postal_code":33684},{"province":"Bangka Belitung","city":"Bangka Tengah","district":"Pangkalan Baru","urban":"Benteng","postal_code":33684},{"province":"Bangka Belitung","city":"Bangka Tengah","district":"Namang","urban":"Belilik","postal_code":33684},{"province":"Bangka Belitung","city":"Bangka Tengah","district":"Pangkalan Baru","urban":"Beluluk","postal_code":33684},{"province":"Bangka Belitung","city":"Bangka Tengah","district":"Pangkalan Baru","urban":"Airmesu","postal_code":33684},{"province":"Bangka Belitung","city":"Bangka Tengah","district":"Pangkalan Baru","urban":"Batu Belubang","postal_code":33684},{"province":"Bangka Belitung","city":"Bangka Tengah","district":"Pangkalan Baru","urban":"Air Mesu Timur","postal_code":33684}]