[{"province":"Bangka Belitung","city":"Bangka Tengah","district":"Lubuk Besar","urban":"Trubus","postal_code":33681},{"province":"Bangka Belitung","city":"Bangka Tengah","district":"Koba","urban":"Terentang III","postal_code":33681},{"province":"Bangka Belitung","city":"Bangka Tengah","district":"Koba","urban":"Simpang Perlang","postal_code":33681},{"province":"Bangka Belitung","city":"Bangka Tengah","district":"Lubuk Besar","urban":"Perlang","postal_code":33681},{"province":"Bangka Belitung","city":"Bangka Tengah","district":"Koba","urban":"Penyak","postal_code":33681},{"province":"Bangka Belitung","city":"Bangka Tengah","district":"Koba","urban":"Nibung","postal_code":33681},{"province":"Bangka Belitung","city":"Bangka Tengah","district":"Koba","urban":"Padang Mulya","postal_code":33681},{"province":"Bangka Belitung","city":"Bangka Tengah","district":"Lubuk Besar","urban":"Lubuk Pabrik","postal_code":33681},{"province":"Bangka Belitung","city":"Bangka Tengah","district":"Lubuk Besar","urban":"Lubuk Besar","postal_code":33681},{"province":"Bangka Belitung","city":"Bangka Tengah","district":"Lubuk Besar","urban":"Lubuk Lingkuk","postal_code":33681},{"province":"Bangka Belitung","city":"Bangka Tengah","district":"Koba","urban":"Kurau Barat","postal_code":33681},{"province":"Bangka Belitung","city":"Bangka Tengah","district":"Koba","urban":"Kurau (Timur)","postal_code":33681},{"province":"Bangka Belitung","city":"Bangka Tengah","district":"Lubuk Besar","urban":"Kulur Hilir","postal_code":33681},{"province":"Bangka Belitung","city":"Bangka Tengah","district":"Koba","urban":"Koba","postal_code":33681},{"province":"Bangka Belitung","city":"Bangka Tengah","district":"Lubuk Besar","urban":"Kulur","postal_code":33681},{"province":"Bangka Belitung","city":"Bangka Tengah","district":"Koba","urban":"Guntung","postal_code":33681},{"province":"Bangka Belitung","city":"Bangka Tengah","district":"Namang","urban":"Bukit Kijang","postal_code":33681},{"province":"Bangka Belitung","city":"Bangka Tengah","district":"Koba","urban":"Berok","postal_code":33681},{"province":"Bangka Belitung","city":"Bangka Tengah","district":"Lubuk Besar","urban":"Belimbing","postal_code":33681},{"province":"Bangka Belitung","city":"Bangka Tengah","district":"Lubuk Besar","urban":"Batu Beriga","postal_code":33681},{"province":"Bangka Belitung","city":"Bangka Tengah","district":"Koba","urban":"Arung Dalam","postal_code":33681},{"province":"Bangka Belitung","city":"Bangka Tengah","district":"Namang","urban":"Baskara Bakti/Bhakti","postal_code":33681}]