[{"province":"Bangka Belitung","city":"Bangka Selatan","district":"Pulau Besar","urban":"Sumber Jaya Permai (Trans 4)","postal_code":33778},{"province":"Bangka Belitung","city":"Bangka Selatan","district":"Pulau Besar","urban":"Sukajaya","postal_code":33778},{"province":"Bangka Belitung","city":"Bangka Selatan","district":"Payung","urban":"Sengir","postal_code":33778},{"province":"Bangka Belitung","city":"Bangka Selatan","district":"Payung","urban":"Ranggung","postal_code":33778},{"province":"Bangka Belitung","city":"Bangka Selatan","district":"Payung","urban":"Payung","postal_code":33778},{"province":"Bangka Belitung","city":"Bangka Selatan","district":"Payung","urban":"Pangkalbuluh","postal_code":33778},{"province":"Bangka Belitung","city":"Bangka Selatan","district":"Pulau Besar","urban":"Panca Tunggal (Trans 3)","postal_code":33778},{"province":"Bangka Belitung","city":"Bangka Selatan","district":"Payung","urban":"Paku","postal_code":33778},{"province":"Bangka Belitung","city":"Bangka Selatan","district":"Payung","urban":"Nadung","postal_code":33778},{"province":"Bangka Belitung","city":"Bangka Selatan","district":"Payung","urban":"Malik","postal_code":33778},{"province":"Bangka Belitung","city":"Bangka Selatan","district":"Payung","urban":"Irat","postal_code":33778},{"province":"Bangka Belitung","city":"Bangka Selatan","district":"Pulau Besar","urban":"Fajar Indah (Trans 1)","postal_code":33778},{"province":"Bangka Belitung","city":"Bangka Selatan","district":"Payung","urban":"Bedengung","postal_code":33778},{"province":"Bangka Belitung","city":"Bangka Selatan","district":"Pulau Besar","urban":"Batu Betumpang","postal_code":33778}]