[{"province":"Bangka Belitung","city":"Bangka Selatan","district":"Tukak Sadai","urban":"Tukak","postal_code":33783},{"province":"Bangka Belitung","city":"Bangka Selatan","district":"Toboali","urban":"Toboali","postal_code":33783},{"province":"Bangka Belitung","city":"Bangka Selatan","district":"Tukak Sadai","urban":"Tiram","postal_code":33783},{"province":"Bangka Belitung","city":"Bangka Selatan","district":"Toboali","urban":"Teladan","postal_code":33783},{"province":"Bangka Belitung","city":"Bangka Selatan","district":"Toboali","urban":"Tanjung Ketapang","postal_code":33783},{"province":"Bangka Belitung","city":"Bangka Selatan","district":"Toboali","urban":"Serdang","postal_code":33783},{"province":"Bangka Belitung","city":"Bangka Selatan","district":"Tukak Sadai","urban":"Sadai","postal_code":33783},{"province":"Bangka Belitung","city":"Bangka Selatan","district":"Toboali","urban":"Rindik","postal_code":33783},{"province":"Bangka Belitung","city":"Bangka Selatan","district":"Toboali","urban":"Rias","postal_code":33783},{"province":"Bangka Belitung","city":"Bangka Selatan","district":"Tukak Sadai","urban":"Pasir Putih","postal_code":33783},{"province":"Bangka Belitung","city":"Bangka Selatan","district":"Toboali","urban":"Kepoh","postal_code":33783},{"province":"Bangka Belitung","city":"Bangka Selatan","district":"Toboali","urban":"Kaposang/Keposang","postal_code":33783},{"province":"Bangka Belitung","city":"Bangka Selatan","district":"Toboali","urban":"Jeriji","postal_code":33783},{"province":"Bangka Belitung","city":"Bangka Selatan","district":"Toboali","urban":"Gadung","postal_code":33783},{"province":"Bangka Belitung","city":"Bangka Selatan","district":"Tukak Sadai","urban":"Bukit Terap","postal_code":33783},{"province":"Bangka Belitung","city":"Bangka Selatan","district":"Toboali","urban":"Bikang","postal_code":33783}]