[{"province":"Lampung","city":"Lampung Tengah","district":"Bandar Mataram","urban":"Uman Agung Mataram","postal_code":34169},{"province":"Lampung","city":"Lampung Tengah","district":"Bandar Mataram","urban":"Terbanggi Mulya","postal_code":34169},{"province":"Lampung","city":"Lampung Tengah","district":"Bandar Mataram","urban":"Terbanggi Besar","postal_code":34169},{"province":"Lampung","city":"Lampung Tengah","district":"Bandar Mataram","urban":"Sriwijaya Mataram","postal_code":34169},{"province":"Lampung","city":"Lampung Tengah","district":"Bandar Mataram","urban":"Sumber Rejeki Mataram","postal_code":34169},{"province":"Lampung","city":"Lampung Tengah","district":"Bandar Mataram","urban":"Sendang Agung Mataram","postal_code":34169},{"province":"Lampung","city":"Lampung Tengah","district":"Bandar Mataram","urban":"Mataram Udik","postal_code":34169},{"province":"Lampung","city":"Lampung Tengah","district":"Bandar Mataram","urban":"Mataram Jaya","postal_code":34169},{"province":"Lampung","city":"Lampung Tengah","district":"Bandar Mataram","urban":"Jati Datar Mataram","postal_code":34169}]