[{"province":"Lampung","city":"Lampung Tengah","district":"Seputih Mataram","urban":"Wirata Agung Mataram","postal_code":34164},{"province":"Lampung","city":"Lampung Tengah","district":"Seputih Mataram","urban":"Utama Jaya Mataram","postal_code":34164},{"province":"Lampung","city":"Lampung Tengah","district":"Seputih Mataram","urban":"Varia Agung","postal_code":34164},{"province":"Lampung","city":"Lampung Tengah","district":"Seputih Mataram","urban":"Sumber Agung Mataram","postal_code":34164},{"province":"Lampung","city":"Lampung Tengah","district":"Seputih Mataram","urban":"Trimulyo Mataram","postal_code":34164},{"province":"Lampung","city":"Lampung Tengah","district":"Seputih Mataram","urban":"Rejosari Mataram","postal_code":34164},{"province":"Lampung","city":"Lampung Tengah","district":"Seputih Mataram","urban":"Subing Karya","postal_code":34164},{"province":"Lampung","city":"Lampung Tengah","district":"Seputih Mataram","urban":"Fajar Mataram","postal_code":34164},{"province":"Lampung","city":"Lampung Tengah","district":"Seputih Mataram","urban":"Qurnia Mataram","postal_code":34164},{"province":"Lampung","city":"Lampung Tengah","district":"Seputih Mataram","urban":"Bumi Setia Mataram","postal_code":34164},{"province":"Lampung","city":"Lampung Tengah","district":"Seputih Mataram","urban":"Dharma Agung Mataram","postal_code":34164},{"province":"Lampung","city":"Lampung Tengah","district":"Seputih Mataram","urban":"Banjar Agung Mataram","postal_code":34164}]