[{"province":"Lampung","city":"Lampung Tengah","district":"Gunung Sugih","urban":"Wono Sari","postal_code":34161},{"province":"Lampung","city":"Lampung Tengah","district":"Bumi Ratu Nuban","urban":"Tulung Kanan","postal_code":34161},{"province":"Lampung","city":"Lampung Tengah","district":"Bumi Ratu Nuban","urban":"Wates","postal_code":34161},{"province":"Lampung","city":"Lampung Tengah","district":"Gunung Sugih","urban":"Terbanggi Subing","postal_code":34161},{"province":"Lampung","city":"Lampung Tengah","district":"Gunung Sugih","urban":"Terbanggi Agung","postal_code":34161},{"province":"Lampung","city":"Lampung Tengah","district":"Anak Tuha","urban":"Tanjung Harapan","postal_code":34161},{"province":"Lampung","city":"Lampung Tengah","district":"Bumi Ratu Nuban","urban":"Sukajadi","postal_code":34161},{"province":"Lampung","city":"Lampung Tengah","district":"Bumi Ratu Nuban","urban":"Sukajawa","postal_code":34161},{"province":"Lampung","city":"Lampung Tengah","district":"Bumi Ratu Nuban","urban":"Sidokerto","postal_code":34161},{"province":"Lampung","city":"Lampung Tengah","district":"Anak Tuha","urban":"Sri Katon","postal_code":34161},{"province":"Lampung","city":"Lampung Tengah","district":"Bumi Ratu Nuban","urban":"Sidowaras","postal_code":34161},{"province":"Lampung","city":"Lampung Tengah","district":"Gunung Sugih","urban":"Seputih Jaya","postal_code":34161},{"province":"Lampung","city":"Lampung Tengah","district":"Gunung Sugih","urban":"Putra Buyut","postal_code":34161},{"province":"Lampung","city":"Lampung Tengah","district":"Anak Tuha","urban":"Negara Aji Tua","postal_code":34161},{"province":"Lampung","city":"Lampung Tengah","district":"Anak Tuha","urban":"Negara Bumi Ilir","postal_code":34161},{"province":"Lampung","city":"Lampung Tengah","district":"Anak Tuha","urban":"Negara Bumi Udik","postal_code":34161},{"province":"Lampung","city":"Lampung Tengah","district":"Anak Tuha","urban":"Negara Aji Baru","postal_code":34161},{"province":"Lampung","city":"Lampung Tengah","district":"Anak Tuha","urban":"Mulyo Haji","postal_code":34161},{"province":"Lampung","city":"Lampung Tengah","district":"Gunung Sugih","urban":"Komering Agung","postal_code":34161},{"province":"Lampung","city":"Lampung Tengah","district":"Gunung Sugih","urban":"Komering Putih","postal_code":34161},{"province":"Lampung","city":"Lampung Tengah","district":"Anak Tuha","urban":"Haji Pemanggilan","postal_code":34161},{"province":"Lampung","city":"Lampung Tengah","district":"Anak Tuha","urban":"Jaya Sakti","postal_code":34161},{"province":"Lampung","city":"Lampung Tengah","district":"Gunung Sugih","urban":"Gunung Sugih Raya","postal_code":34161},{"province":"Lampung","city":"Lampung Tengah","district":"Gunung Sugih","urban":"Gunung Sugih","postal_code":34161},{"province":"Lampung","city":"Lampung Tengah","district":"Gunung Sugih","urban":"Gunung Sari","postal_code":34161},{"province":"Lampung","city":"Lampung Tengah","district":"Anak Tuha","urban":"Gunung Agung","postal_code":34161},{"province":"Lampung","city":"Lampung Tengah","district":"Gunung Sugih","urban":"Fajar Bulan (Pajar Bulan)","postal_code":34161},{"province":"Lampung","city":"Lampung Tengah","district":"Gunung Sugih","urban":"Buyut Udik","postal_code":34161},{"province":"Lampung","city":"Lampung Tengah","district":"Gunung Sugih","urban":"Buyut Utara","postal_code":34161},{"province":"Lampung","city":"Lampung Tengah","district":"Gunung Sugih","urban":"Buyut Ilir","postal_code":34161},{"province":"Lampung","city":"Lampung Tengah","district":"Bumi Ratu Nuban","urban":"Bumiratu","postal_code":34161},{"province":"Lampung","city":"Lampung Tengah","district":"Bumi Ratu Nuban","urban":"Bumirahayu","postal_code":34161},{"province":"Lampung","city":"Lampung Tengah","district":"Bumi Ratu Nuban","urban":"Bumiraharjo","postal_code":34161},{"province":"Lampung","city":"Lampung Tengah","district":"Anak Tuha","urban":"Bumi Jaya","postal_code":34161},{"province":"Lampung","city":"Lampung Tengah","district":"Anak Tuha","urban":"Bumi Aji","postal_code":34161},{"province":"Lampung","city":"Lampung Tengah","district":"Bumi Ratu Nuban","urban":"Bulusari","postal_code":34161},{"province":"Lampung","city":"Lampung Tengah","district":"Gunung Sugih","urban":"Bangun Rejo","postal_code":34161}]