[{"province":"Lampung","city":"Lampung Tengah","district":"Kalirejo","urban":"Sukosari","postal_code":34174},{"province":"Lampung","city":"Lampung Tengah","district":"Kalirejo","urban":"Watu Agung","postal_code":34174},{"province":"Lampung","city":"Lampung Tengah","district":"Kalirejo","urban":"Wayakroy","postal_code":34174},{"province":"Lampung","city":"Lampung Tengah","district":"Kalirejo","urban":"Sri Way Langsep","postal_code":34174},{"province":"Lampung","city":"Lampung Tengah","district":"Kalirejo","urban":"Sri Purnomo","postal_code":34174},{"province":"Lampung","city":"Lampung Tengah","district":"Kalirejo","urban":"Sri Mulyo","postal_code":34174},{"province":"Lampung","city":"Lampung Tengah","district":"Kalirejo","urban":"Sri Dadi","postal_code":34174},{"province":"Lampung","city":"Lampung Tengah","district":"Kalirejo","urban":"Sri Basuki","postal_code":34174},{"province":"Lampung","city":"Lampung Tengah","district":"Kalirejo","urban":"Sinar Rejo","postal_code":34174},{"province":"Lampung","city":"Lampung Tengah","district":"Kalirejo","urban":"Sinar Sari","postal_code":34174},{"province":"Lampung","city":"Lampung Tengah","district":"Sendang Agung","urban":"Sendang Retno","postal_code":34174},{"province":"Lampung","city":"Lampung Tengah","district":"Sendang Agung","urban":"Sendang Sari (Asri)","postal_code":34174},{"province":"Lampung","city":"Lampung Tengah","district":"Sendang Agung","urban":"Sendang Mulyo","postal_code":34174},{"province":"Lampung","city":"Lampung Tengah","district":"Sendang Agung","urban":"Sendang Rejo","postal_code":34174},{"province":"Lampung","city":"Lampung Tengah","district":"Sendang Agung","urban":"Sendang Asih","postal_code":34174},{"province":"Lampung","city":"Lampung Tengah","district":"Sendang Agung","urban":"Sendang Baru","postal_code":34174},{"province":"Lampung","city":"Lampung Tengah","district":"Sendang Agung","urban":"Sendang Mukti","postal_code":34174},{"province":"Lampung","city":"Lampung Tengah","district":"Sendang Agung","urban":"Sendang Agung","postal_code":34174},{"province":"Lampung","city":"Lampung Tengah","district":"Kalirejo","urban":"Ponco Warno","postal_code":34174},{"province":"Lampung","city":"Lampung Tengah","district":"Sendang Agung","urban":"Kutowinangun","postal_code":34174},{"province":"Lampung","city":"Lampung Tengah","district":"Kalirejo","urban":"Kali Wungu","postal_code":34174},{"province":"Lampung","city":"Lampung Tengah","district":"Kalirejo","urban":"Kali Rejo","postal_code":34174},{"province":"Lampung","city":"Lampung Tengah","district":"Kalirejo","urban":"Balai Rejo","postal_code":34174},{"province":"Lampung","city":"Lampung Tengah","district":"Kalirejo","urban":"Kali Dadi","postal_code":34174},{"province":"Lampung","city":"Lampung Tengah","district":"Kalirejo","urban":"Agung Timur","postal_code":34174}]