[{"province":"Lampung","city":"Lampung Tengah","district":"Pubian","urban":"Tias Bangun","postal_code":34176},{"province":"Lampung","city":"Lampung Tengah","district":"Pubian","urban":"Tanjung Rejo","postal_code":34176},{"province":"Lampung","city":"Lampung Tengah","district":"Pubian","urban":"Tawang Negeri","postal_code":34176},{"province":"Lampung","city":"Lampung Tengah","district":"Selagai Lingga","urban":"Tanjung Ratu","postal_code":34176},{"province":"Lampung","city":"Lampung Tengah","district":"Selagai Lingga","urban":"Taman Sari","postal_code":34176},{"province":"Lampung","city":"Lampung Tengah","district":"Pubian","urban":"Sinar Negeri","postal_code":34176},{"province":"Lampung","city":"Lampung Tengah","district":"Pubian","urban":"Tanjung Kemala","postal_code":34176},{"province":"Lampung","city":"Lampung Tengah","district":"Selagai Lingga","urban":"Sidoharjo","postal_code":34176},{"province":"Lampung","city":"Lampung Tengah","district":"Pubian","urban":"Sangun Ratu","postal_code":34176},{"province":"Lampung","city":"Lampung Tengah","district":"Pubian","urban":"Segala Mider","postal_code":34176},{"province":"Lampung","city":"Lampung Tengah","district":"Pubian","urban":"Pekandangan","postal_code":34176},{"province":"Lampung","city":"Lampung Tengah","district":"Pubian","urban":"Riau Periangan","postal_code":34176},{"province":"Lampung","city":"Lampung Tengah","district":"Pubian","urban":"Payung Mulya","postal_code":34176},{"province":"Lampung","city":"Lampung Tengah","district":"Pubian","urban":"Payung Rejo","postal_code":34176},{"province":"Lampung","city":"Lampung Tengah","district":"Pubian","urban":"Payung Batu","postal_code":34176},{"province":"Lampung","city":"Lampung Tengah","district":"Pubian","urban":"Payung Dadi","postal_code":34176},{"province":"Lampung","city":"Lampung Tengah","district":"Pubian","urban":"Payung Makmur","postal_code":34176},{"province":"Lampung","city":"Lampung Tengah","district":"Pubian","urban":"Padang Rejo","postal_code":34176},{"province":"Lampung","city":"Lampung Tengah","district":"Selagai Lingga","urban":"Nyukang Harjo","postal_code":34176},{"province":"Lampung","city":"Lampung Tengah","district":"Pubian","urban":"Negeri Kepayung (Kepayungan)","postal_code":34176},{"province":"Lampung","city":"Lampung Tengah","district":"Pubian","urban":"Negeri Ratu","postal_code":34176},{"province":"Lampung","city":"Lampung Tengah","district":"Selagai Lingga","urban":"Negeri Katon","postal_code":34176},{"province":"Lampung","city":"Lampung Tengah","district":"Selagai Lingga","urban":"Negeri Agung","postal_code":34176},{"province":"Lampung","city":"Lampung Tengah","district":"Selagai Lingga","urban":"Negeri Jaya","postal_code":34176},{"province":"Lampung","city":"Lampung Tengah","district":"Selagai Lingga","urban":"Lingga Pura","postal_code":34176},{"province":"Lampung","city":"Lampung Tengah","district":"Selagai Lingga","urban":"Marga Jaya","postal_code":34176},{"province":"Lampung","city":"Lampung Tengah","district":"Pubian","urban":"Kota Batu","postal_code":34176},{"province":"Lampung","city":"Lampung Tengah","district":"Pubian","urban":"Gunung Raya","postal_code":34176},{"province":"Lampung","city":"Lampung Tengah","district":"Selagai Lingga","urban":"Karang Anyar","postal_code":34176},{"province":"Lampung","city":"Lampung Tengah","district":"Pubian","urban":"Gunung Haji","postal_code":34176},{"province":"Lampung","city":"Lampung Tengah","district":"Selagai Lingga","urban":"Gedung Haji","postal_code":34176},{"province":"Lampung","city":"Lampung Tengah","district":"Selagai Lingga","urban":"Gedung Harta","postal_code":34176},{"province":"Lampung","city":"Lampung Tengah","district":"Selagai Lingga","urban":"Galih/Gilih Karangjati","postal_code":34176}]