[{"province":"Lampung","city":"Lampung Timur","district":"Raman Utara","urban":"Rejo Katon","postal_code":34371},{"province":"Lampung","city":"Lampung Timur","district":"Raman Utara","urban":"Restu Rahayu","postal_code":34371},{"province":"Lampung","city":"Lampung Timur","district":"Raman Utara","urban":"Rukti Sudiyo","postal_code":34371},{"province":"Lampung","city":"Lampung Timur","district":"Raman Utara","urban":"Ratna Daya","postal_code":34371},{"province":"Lampung","city":"Lampung Timur","district":"Raman Utara","urban":"Rejo Binangun","postal_code":34371},{"province":"Lampung","city":"Lampung Timur","district":"Raman Utara","urban":"Rantau Fajar","postal_code":34371},{"province":"Lampung","city":"Lampung Timur","district":"Raman Utara","urban":"Raman Fajar","postal_code":34371},{"province":"Lampung","city":"Lampung Timur","district":"Raman Utara","urban":"Raman Aji","postal_code":34371},{"province":"Lampung","city":"Lampung Timur","district":"Raman Utara","urban":"Raman Endra","postal_code":34371},{"province":"Lampung","city":"Lampung Timur","district":"Raman Utara","urban":"Kota Raman","postal_code":34371},{"province":"Lampung","city":"Lampung Timur","district":"Raman Utara","urban":"Rama Puja","postal_code":34371}]