[{"province":"Lampung","city":"Lampung Timur","district":"Way Bungur (Purbolinggo Utara)","urban":"Tegal Ombo","postal_code":34373},{"province":"Lampung","city":"Lampung Timur","district":"Way Bungur (Purbolinggo Utara)","urban":"Toto Mulyo","postal_code":34373},{"province":"Lampung","city":"Lampung Timur","district":"Way Bungur (Purbolinggo Utara)","urban":"Toto Projo","postal_code":34373},{"province":"Lampung","city":"Lampung Timur","district":"Way Bungur (Purbolinggo Utara)","urban":"Tanjung Kencono","postal_code":34373},{"province":"Lampung","city":"Lampung Timur","district":"Way Bungur (Purbolinggo Utara)","urban":"Tanjung Tirto","postal_code":34373},{"province":"Lampung","city":"Lampung Timur","district":"Way Bungur (Purbolinggo Utara)","urban":"Tambah Subur","postal_code":34373},{"province":"Lampung","city":"Lampung Timur","district":"Way Bungur (Purbolinggo Utara)","urban":"Kali Pasir","postal_code":34373},{"province":"Lampung","city":"Lampung Timur","district":"Way Bungur (Purbolinggo Utara)","urban":"Taman Negeri","postal_code":34373}]