[{"province":"Lampung","city":"Lampung Timur","district":"Jabung","urban":"Sambi Rejo","postal_code":34384},{"province":"Lampung","city":"Lampung Timur","district":"Jabung","urban":"Tanjung Sari","postal_code":34384},{"province":"Lampung","city":"Lampung Timur","district":"Marga Sekampung","urban":"Peniangan","postal_code":34384},{"province":"Lampung","city":"Lampung Timur","district":"Marga Sekampung","urban":"Purwosari","postal_code":34384},{"province":"Lampung","city":"Lampung Timur","district":"Jabung","urban":"Pematang Tahalo","postal_code":34384},{"province":"Lampung","city":"Lampung Timur","district":"Jabung","urban":"Negara Batin","postal_code":34384},{"province":"Lampung","city":"Lampung Timur","district":"Jabung","urban":"Negara Saka","postal_code":34384},{"province":"Lampung","city":"Lampung Timur","district":"Jabung","urban":"Mekar Jaya","postal_code":34384},{"province":"Lampung","city":"Lampung Timur","district":"Jabung","urban":"Mumbang Jaya","postal_code":34384},{"province":"Lampung","city":"Lampung Timur","district":"Jabung","urban":"Jabung","postal_code":34384},{"province":"Lampung","city":"Lampung Timur","district":"Jabung","urban":"Gunung Sugih Kecil","postal_code":34384},{"province":"Lampung","city":"Lampung Timur","district":"Marga Sekampung","urban":"Gunung Raya","postal_code":34384},{"province":"Lampung","city":"Lampung Timur","district":"Jabung","urban":"Gunung Mekar","postal_code":34384},{"province":"Lampung","city":"Lampung Timur","district":"Marga Sekampung","urban":"Giri Mulyo","postal_code":34384},{"province":"Lampung","city":"Lampung Timur","district":"Marga Sekampung","urban":"Gunung Mas","postal_code":34384},{"province":"Lampung","city":"Lampung Timur","district":"Marga Sekampung","urban":"Bungkuk","postal_code":34384},{"province":"Lampung","city":"Lampung Timur","district":"Marga Sekampung","urban":"Bukit Raya","postal_code":34384},{"province":"Lampung","city":"Lampung Timur","district":"Jabung","urban":"Benteng Sari","postal_code":34384},{"province":"Lampung","city":"Lampung Timur","district":"Jabung","urban":"Belimbing Sari","postal_code":34384},{"province":"Lampung","city":"Lampung Timur","district":"Marga Sekampung","urban":"Batu Badak","postal_code":34384},{"province":"Lampung","city":"Lampung Timur","district":"Jabung","urban":"Adirejo","postal_code":34384},{"province":"Lampung","city":"Lampung Timur","district":"Jabung","urban":"Asahan","postal_code":34384},{"province":"Lampung","city":"Lampung Timur","district":"Jabung","urban":"Adiluhur","postal_code":34384}]