[{"province":"Lampung","city":"Lampung Utara","district":"Kotabumi Utara","urban":"Wonomarto","postal_code":34511},{"province":"Lampung","city":"Lampung Utara","district":"Kotabumi Selatan","urban":"Way Melan","postal_code":34511},{"province":"Lampung","city":"Lampung Utara","district":"Kotabumi Selatan","urban":"Tanjung Senang","postal_code":34511},{"province":"Lampung","city":"Lampung Utara","district":"Kotabumi Selatan","urban":"Tanjung Harapan","postal_code":34511},{"province":"Lampung","city":"Lampung Utara","district":"Kotabumi Selatan","urban":"Tanjung Aman","postal_code":34511},{"province":"Lampung","city":"Lampung Utara","district":"Kotabumi Selatan","urban":"Taman Jaya","postal_code":34511},{"province":"Lampung","city":"Lampung Utara","district":"Kotabumi Utara","urban":"Talang Jali","postal_code":34511},{"province":"Lampung","city":"Lampung Utara","district":"Kotabumi","urban":"Talang Bojong","postal_code":34511},{"province":"Lampung","city":"Lampung Utara","district":"Kotabumi Selatan","urban":"Sinar Mas Alam","postal_code":34511},{"province":"Lampung","city":"Lampung Utara","district":"Kotabumi","urban":"Sumber Arum","postal_code":34511},{"province":"Lampung","city":"Lampung Utara","district":"Kotabumi Utara","urban":"Sawo Jajar","postal_code":34511},{"province":"Lampung","city":"Lampung Utara","district":"Kotabumi Utara","urban":"Margorejo","postal_code":34511},{"province":"Lampung","city":"Lampung Utara","district":"Kotabumi Selatan","urban":"Mulang Maya","postal_code":34511},{"province":"Lampung","city":"Lampung Utara","district":"Kotabumi Utara","urban":"Madukoro Baru","postal_code":34511},{"province":"Lampung","city":"Lampung Utara","district":"Kotabumi Utara","urban":"Madukoro","postal_code":34511},{"province":"Lampung","city":"Lampung Utara","district":"Kotabumi","urban":"Kota Gapura","postal_code":34511},{"province":"Lampung","city":"Lampung Utara","district":"Kotabumi Selatan","urban":"Karang Agung","postal_code":34511},{"province":"Lampung","city":"Lampung Utara","district":"Kotabumi Utara","urban":"Kali Cinta","postal_code":34511},{"province":"Lampung","city":"Lampung Utara","district":"Kotabumi Selatan","urban":"Jerangkang","postal_code":34511},{"province":"Lampung","city":"Lampung Utara","district":"Kotabumi Selatan","urban":"Curup Guruh Kagungan","postal_code":34511},{"province":"Lampung","city":"Lampung Utara","district":"Kotabumi","urban":"Bojong Barat","postal_code":34511},{"province":"Lampung","city":"Lampung Utara","district":"Kotabumi Utara","urban":"Banjar Wangi","postal_code":34511},{"province":"Lampung","city":"Lampung Utara","district":"Kotabumi Selatan","urban":"Bandar Putih","postal_code":34511},{"province":"Lampung","city":"Lampung Utara","district":"Kotabumi Selatan","urban":"Alam Jaya","postal_code":34511}]