[{"province":"Lampung","city":"Lampung Utara","district":"Sungkai Barat","urban":"Tanjung Jaya","postal_code":34554},{"province":"Lampung","city":"Lampung Utara","district":"Sungkai Jaya","urban":"Sri Jaya","postal_code":34554},{"province":"Lampung","city":"Lampung Utara","district":"Sungkai Jaya","urban":"Sukajaya","postal_code":34554},{"province":"Lampung","city":"Lampung Utara","district":"Sungkai Jaya","urban":"Sri Agung","postal_code":34554},{"province":"Lampung","city":"Lampung Utara","district":"Sungkai Selatan","urban":"Sirna Galih","postal_code":34554},{"province":"Lampung","city":"Lampung Utara","district":"Sungkai Barat","urban":"Sinar Harapan","postal_code":34554},{"province":"Lampung","city":"Lampung Utara","district":"Sungkai Selatan","urban":"Sidodadi","postal_code":34554},{"province":"Lampung","city":"Lampung Utara","district":"Sungkai Barat","urban":"Negeri Sakti","postal_code":34554},{"province":"Lampung","city":"Lampung Utara","district":"Sungkai Jaya","urban":"Negara Agung","postal_code":34554},{"province":"Lampung","city":"Lampung Utara","district":"Sungkai Selatan","urban":"Labuhan Ratu Pasar","postal_code":34554},{"province":"Lampung","city":"Lampung Utara","district":"Sungkai Jaya","urban":"Lepang/Lempang Tengah","postal_code":34554},{"province":"Lampung","city":"Lampung Utara","district":"Sungkai Selatan","urban":"Labuhan Ratu Kp","postal_code":34554},{"province":"Lampung","city":"Lampung Utara","district":"Sungkai Barat","urban":"Kubuhitu","postal_code":34554},{"province":"Lampung","city":"Lampung Utara","district":"Sungkai Selatan","urban":"Kota Agung","postal_code":34554},{"province":"Lampung","city":"Lampung Utara","district":"Sungkai Selatan","urban":"Karang Rejo","postal_code":34554},{"province":"Lampung","city":"Lampung Utara","district":"Sungkai Barat","urban":"Gunung Raja","postal_code":34554},{"province":"Lampung","city":"Lampung Utara","district":"Sungkai Selatan","urban":"Ketapang","postal_code":34554},{"province":"Lampung","city":"Lampung Utara","district":"Sungkai Selatan","urban":"Gedung Ketapang","postal_code":34554},{"province":"Lampung","city":"Lampung Utara","district":"Sungkai Selatan","urban":"Gunung Labuan","postal_code":34554},{"province":"Lampung","city":"Lampung Utara","district":"Sungkai Jaya","urban":"Cempaka Barat","postal_code":34554},{"province":"Lampung","city":"Lampung Utara","district":"Sungkai Jaya","urban":"Cempaka Timur","postal_code":34554},{"province":"Lampung","city":"Lampung Utara","district":"Sungkai Jaya","urban":"Cempaka","postal_code":34554},{"province":"Lampung","city":"Lampung Utara","district":"Sungkai Jaya","urban":"Cahaya Makmur","postal_code":34554},{"province":"Lampung","city":"Lampung Utara","district":"Sungkai Selatan","urban":"Bumi Ratu","postal_code":34554},{"province":"Lampung","city":"Lampung Utara","district":"Sungkai Selatan","urban":"Banjar Ketapang","postal_code":34554}]