[{"province":"Lampung","city":"Lampung Utara","district":"Hulu Sungkai","urban":"Tanjung Harapan","postal_code":34555},{"province":"Lampung","city":"Lampung Utara","district":"Hulu Sungkai","urban":"Tulung Buyut","postal_code":34555},{"province":"Lampung","city":"Lampung Utara","district":"Bunga Mayang","urban":"Sukadana Udik","postal_code":34555},{"province":"Lampung","city":"Lampung Utara","district":"Bunga Mayang","urban":"Tanah Abang","postal_code":34555},{"province":"Lampung","city":"Lampung Utara","district":"Bunga Mayang","urban":"Sukadana Ilir","postal_code":34555},{"province":"Lampung","city":"Lampung Utara","district":"Sungkai Tengah","urban":"Ratu Jaya","postal_code":34555},{"province":"Lampung","city":"Lampung Utara","district":"Sungkai Utara","urban":"Padang Ratu","postal_code":34555},{"province":"Lampung","city":"Lampung Utara","district":"Sungkai Tengah","urban":"Pampang Tanggub/Tangguk Jaya","postal_code":34555},{"province":"Lampung","city":"Lampung Utara","district":"Sungkai Utara","urban":"Negeri Sakti","postal_code":34555},{"province":"Lampung","city":"Lampung Utara","district":"Sungkai Utara","urban":"Ogan Jaya","postal_code":34555},{"province":"Lampung","city":"Lampung Utara","district":"Sungkai Utara","urban":"Negeri Ratu","postal_code":34555},{"province":"Lampung","city":"Lampung Utara","district":"Sungkai Tengah","urban":"Negeri Campang Jaya","postal_code":34555},{"province":"Lampung","city":"Lampung Utara","district":"Sungkai Tengah","urban":"Negeri Galih/Galik Rejo","postal_code":34555},{"province":"Lampung","city":"Lampung Utara","district":"Bunga Mayang","urban":"Negara Tulang Bawang Baru","postal_code":34555},{"province":"Lampung","city":"Lampung Utara","district":"Bunga Mayang","urban":"Negara Tulang Bawang","postal_code":34555},{"province":"Lampung","city":"Lampung Utara","district":"Sungkai Utara","urban":"Negara Ratu","postal_code":34555},{"province":"Lampung","city":"Lampung Utara","district":"Sungkai Utara","urban":"Negara Batin II","postal_code":34555},{"province":"Lampung","city":"Lampung Utara","district":"Hulu Sungkai","urban":"Negara Kemakmuran","postal_code":34555},{"province":"Lampung","city":"Lampung Utara","district":"Sungkai Utara","urban":"Negara Batin II","postal_code":34555},{"province":"Lampung","city":"Lampung Utara","district":"Bunga Mayang","urban":"Mulyo Rejo II","postal_code":34555},{"province":"Lampung","city":"Lampung Utara","district":"Sungkai Utara","urban":"Negara Batin","postal_code":34555},{"province":"Lampung","city":"Lampung Utara","district":"Sungkai Tengah","urban":"Melungun Ratu","postal_code":34555},{"province":"Lampung","city":"Lampung Utara","district":"Bunga Mayang","urban":"Mulyo Rejo I","postal_code":34555},{"province":"Lampung","city":"Lampung Utara","district":"Hulu Sungkai","urban":"Lubuk Rukam","postal_code":34555},{"province":"Lampung","city":"Lampung Utara","district":"Sungkai Tengah","urban":"Mekar Asri","postal_code":34555},{"province":"Lampung","city":"Lampung Utara","district":"Sungkai Utara","urban":"Kota Negara","postal_code":34555},{"province":"Lampung","city":"Lampung Utara","district":"Sungkai Utara","urban":"Kota Negara Ilir","postal_code":34555},{"province":"Lampung","city":"Lampung Utara","district":"Bunga Mayang","urban":"Kota Napal","postal_code":34555},{"province":"Lampung","city":"Lampung Utara","district":"Bunga Mayang","urban":"Isorejo","postal_code":34555},{"province":"Lampung","city":"Lampung Utara","district":"Hulu Sungkai","urban":"Hibul/Ibul Jaya","postal_code":34555},{"province":"Lampung","city":"Lampung Utara","district":"Sungkai Utara","urban":"Hanakau Jaya","postal_code":34555},{"province":"Lampung","city":"Lampung Utara","district":"Bunga Mayang","urban":"Haduyang Ratu","postal_code":34555},{"province":"Lampung","city":"Lampung Utara","district":"Hulu Sungkai","urban":"Gedung Raja","postal_code":34555},{"province":"Lampung","city":"Lampung Utara","district":"Hulu Sungkai","urban":"Gedung Makrifat","postal_code":34555},{"province":"Lampung","city":"Lampung Utara","district":"Hulu Sungkai","urban":"Gedung Negara","postal_code":34555},{"province":"Lampung","city":"Lampung Utara","district":"Sungkai Utara","urban":"Ciamis","postal_code":34555},{"province":"Lampung","city":"Lampung Utara","district":"Bunga Mayang","urban":"Bunga Maju","postal_code":34555},{"province":"Lampung","city":"Lampung Utara","district":"Sungkai Utara","urban":"Gedung Batin","postal_code":34555},{"province":"Lampung","city":"Lampung Utara","district":"Hulu Sungkai","urban":"Beringin Jaya","postal_code":34555},{"province":"Lampung","city":"Lampung Utara","district":"Hulu Sungkai","urban":"Bunglay Tengah (Bunglao/Bonglai)","postal_code":34555},{"province":"Lampung","city":"Lampung Utara","district":"Sungkai Utara","urban":"Bumi Raharya","postal_code":34555},{"province":"Lampung","city":"Lampung Utara","district":"Sungkai Utara","urban":"Batu Raja","postal_code":34555},{"province":"Lampung","city":"Lampung Utara","district":"Sungkai Tengah","urban":"Batu Nangkop","postal_code":34555},{"province":"Lampung","city":"Lampung Utara","district":"Sungkai Utara","urban":"Bangun Jaya","postal_code":34555}]