[{"province":"Lampung","city":"Lampung Utara","district":"Bukit Kemuning","urban":"Tanjung Waras","postal_code":34556},{"province":"Lampung","city":"Lampung Utara","district":"Abung Tinggi","urban":"Ulak Rengas","postal_code":34556},{"province":"Lampung","city":"Lampung Utara","district":"Bukit Kemuning","urban":"Tanjung Baru Timur","postal_code":34556},{"province":"Lampung","city":"Lampung Utara","district":"Bukit Kemuning","urban":"Suka Menanti","postal_code":34556},{"province":"Lampung","city":"Lampung Utara","district":"Bukit Kemuning","urban":"Tanjung Baru","postal_code":34556},{"province":"Lampung","city":"Lampung Utara","district":"Abung Tinggi","urban":"Suka Marga","postal_code":34556},{"province":"Lampung","city":"Lampung Utara","district":"Bukit Kemuning","urban":"Sidomulyo","postal_code":34556},{"province":"Lampung","city":"Lampung Utara","district":"Abung Tinggi","urban":"Suka Maju","postal_code":34556},{"province":"Lampung","city":"Lampung Utara","district":"Abung Tinggi","urban":"Sekipi","postal_code":34556},{"province":"Lampung","city":"Lampung Utara","district":"Abung Tinggi","urban":"Sido Kayo","postal_code":34556},{"province":"Lampung","city":"Lampung Utara","district":"Abung Tinggi","urban":"Pulau Panggung","postal_code":34556},{"province":"Lampung","city":"Lampung Utara","district":"Abung Tinggi","urban":"Muara Dua","postal_code":34556},{"province":"Lampung","city":"Lampung Utara","district":"Bukit Kemuning","urban":"Muara Aman","postal_code":34556},{"province":"Lampung","city":"Lampung Utara","district":"Abung Tinggi","urban":"Kebun Dalam","postal_code":34556},{"province":"Lampung","city":"Lampung Utara","district":"Bukit Kemuning","urban":"Bukit Kemuning","postal_code":34556},{"province":"Lampung","city":"Lampung Utara","district":"Bukit Kemuning","urban":"Dwikora","postal_code":34556}]