[{"province":"Lampung","city":"Lampung Utara","district":"Abung Selatan","urban":"Way Lunik","postal_code":34581},{"province":"Lampung","city":"Lampung Utara","district":"Blambangan Pagar","urban":"Tulung Singkip","postal_code":34581},{"province":"Lampung","city":"Lampung Utara","district":"Abung Selatan","urban":"Trimodadi","postal_code":34581},{"province":"Lampung","city":"Lampung Utara","district":"Abung Surakarta","urban":"Tata Karya","postal_code":34581},{"province":"Lampung","city":"Lampung Utara","district":"Abung Surakarta","urban":"Sukoharjo","postal_code":34581},{"province":"Lampung","city":"Lampung Utara","district":"Blambangan Pagar","urban":"Tanjungiman","postal_code":34581},{"province":"Lampung","city":"Lampung Utara","district":"Abung Semuli","urban":"Sukamaju","postal_code":34581},{"province":"Lampung","city":"Lampung Utara","district":"Abung Semuli","urban":"Sido Rahayu","postal_code":34581},{"province":"Lampung","city":"Lampung Utara","district":"Abung Selatan","urban":"Sinar Ogan","postal_code":34581},{"province":"Lampung","city":"Lampung Utara","district":"Abung Semuli","urban":"Semuli Jaya","postal_code":34581},{"province":"Lampung","city":"Lampung Utara","district":"Abung Semuli","urban":"Semuli Raya","postal_code":34581},{"province":"Lampung","city":"Lampung Utara","district":"Abung Selatan","urban":"Ratu Abung","postal_code":34581},{"province":"Lampung","city":"Lampung Utara","district":"Abung Semuli","urban":"Papan Asri","postal_code":34581},{"province":"Lampung","city":"Lampung Utara","district":"Abung Surakarta","urban":"Purba Sakti","postal_code":34581},{"province":"Lampung","city":"Lampung Utara","district":"Blambangan Pagar","urban":"Pagar","postal_code":34581},{"province":"Lampung","city":"Lampung Utara","district":"Blambangan Pagar","urban":"Pagar Gading","postal_code":34581},{"province":"Lampung","city":"Lampung Utara","district":"Abung Selatan","urban":"Kembang Tanjung","postal_code":34581},{"province":"Lampung","city":"Lampung Utara","district":"Abung Selatan","urban":"Kemalo Abung","postal_code":34581},{"province":"Lampung","city":"Lampung Utara","district":"Abung Selatan","urban":"Kembang Gading","postal_code":34581},{"province":"Lampung","city":"Lampung Utara","district":"Abung Surakarta","urban":"Karya Sakti","postal_code":34581},{"province":"Lampung","city":"Lampung Utara","district":"Abung Selatan","urban":"Kalibening Raya","postal_code":34581},{"province":"Lampung","city":"Lampung Utara","district":"Abung Selatan","urban":"Kalibalangan","postal_code":34581},{"province":"Lampung","city":"Lampung Utara","district":"Blambangan Pagar","urban":"Jagang","postal_code":34581},{"province":"Lampung","city":"Lampung Utara","district":"Abung Semuli","urban":"Gunung Sari","postal_code":34581},{"province":"Lampung","city":"Lampung Utara","district":"Abung Semuli","urban":"Gunung Kramat","postal_code":34581},{"province":"Lampung","city":"Lampung Utara","district":"Abung Selatan","urban":"Cabang Empat","postal_code":34581},{"province":"Lampung","city":"Lampung Utara","district":"Abung Selatan","urban":"Candi Mas","postal_code":34581},{"province":"Lampung","city":"Lampung Utara","district":"Abung Selatan","urban":"Gilih Sukanegeri","postal_code":34581},{"province":"Lampung","city":"Lampung Utara","district":"Abung Selatan","urban":"Cabang Abung Raya","postal_code":34581},{"province":"Lampung","city":"Lampung Utara","district":"Blambangan Pagar","urban":"Buring Kencana","postal_code":34581},{"province":"Lampung","city":"Lampung Utara","district":"Abung Surakarta","urban":"Bumi Restu","postal_code":34581},{"province":"Lampung","city":"Lampung Utara","district":"Abung Selatan","urban":"Bumi Raya Pemekaran","postal_code":34581},{"province":"Lampung","city":"Lampung Utara","district":"Abung Surakarta","urban":"Bumi Raharja","postal_code":34581},{"province":"Lampung","city":"Lampung Utara","district":"Abung Surakarta","urban":"Bangun Sari","postal_code":34581},{"province":"Lampung","city":"Lampung Utara","district":"Blambangan Pagar","urban":"Blambangan","postal_code":34581},{"province":"Lampung","city":"Lampung Utara","district":"Abung Surakarta","urban":"Bandar Sakti","postal_code":34581},{"province":"Lampung","city":"Lampung Utara","district":"Abung Surakarta","urban":"Bandar Agung","postal_code":34581},{"province":"Lampung","city":"Lampung Utara","district":"Abung Selatan","urban":"Bandar Kagungan Raya","postal_code":34581},{"province":"Lampung","city":"Lampung Utara","district":"Abung Selatan","urban":"Abung Jayo","postal_code":34581}]