[{"province":"Lampung","city":"Lampung Utara","district":"Abung Pekurun","urban":"Sumber Tani","postal_code":34582},{"province":"Lampung","city":"Lampung Utara","district":"Abung Tengah","urban":"Subik","postal_code":34582},{"province":"Lampung","city":"Lampung Utara","district":"Abung Pekurun","urban":"Sinar Gunung","postal_code":34582},{"province":"Lampung","city":"Lampung Utara","district":"Abung Tengah","urban":"Sri Bandung","postal_code":34582},{"province":"Lampung","city":"Lampung Utara","district":"Abung Tengah","urban":"Pekurun Utara","postal_code":34582},{"province":"Lampung","city":"Lampung Utara","district":"Abung Pekurun","urban":"Pekurun Udik","postal_code":34582},{"province":"Lampung","city":"Lampung Utara","district":"Abung Pekurun","urban":"Pekurun Tengah","postal_code":34582},{"province":"Lampung","city":"Lampung Utara","district":"Abung Tengah","urban":"Pekurun Selatan","postal_code":34582},{"province":"Lampung","city":"Lampung Utara","district":"Abung Tengah","urban":"Pekurun Barat","postal_code":34582},{"province":"Lampung","city":"Lampung Utara","district":"Abung Pekurun","urban":"Pekurun","postal_code":34582},{"province":"Lampung","city":"Lampung Utara","district":"Abung Pekurun","urban":"Ogan Campang","postal_code":34582},{"province":"Lampung","city":"Lampung Utara","district":"Abung Pekurun","urban":"Ogan Jaya","postal_code":34582},{"province":"Lampung","city":"Lampung Utara","district":"Abung Tengah","urban":"Negla Sari","postal_code":34582},{"province":"Lampung","city":"Lampung Utara","district":"Abung Pekurun","urban":"Nyapah Banyu","postal_code":34582},{"province":"Lampung","city":"Lampung Utara","district":"Abung Tengah","urban":"Kedaton","postal_code":34582},{"province":"Lampung","city":"Lampung Utara","district":"Abung Tengah","urban":"Kinciran","postal_code":34582},{"province":"Lampung","city":"Lampung Utara","district":"Abung Tengah","urban":"Gunung Gijul","postal_code":34582},{"province":"Lampung","city":"Lampung Utara","district":"Abung Tengah","urban":"Gunung Sadar","postal_code":34582},{"province":"Lampung","city":"Lampung Utara","district":"Abung Tengah","urban":"Gunung Besar","postal_code":34582},{"province":"Lampung","city":"Lampung Utara","district":"Abung Pekurun","urban":"Campang Gijul","postal_code":34582}]