[{"province":"Lampung","city":"Tulang Bawang","district":"Rawa Pitu","urban":"Yoso Mulyo (Duto Yoso Mulyo)","postal_code":34595},{"province":"Lampung","city":"Tulang Bawang","district":"Penawar Tama","urban":"Wiratama","postal_code":34595},{"province":"Lampung","city":"Tulang Bawang","district":"Penawar Aji","urban":"Wono Rejo","postal_code":34595},{"province":"Lampung","city":"Tulang Bawang","district":"Penawar Tama","urban":"Tri Tunggal Jaya","postal_code":34595},{"province":"Lampung","city":"Tulang Bawang","district":"Penawar Tama","urban":"Wiraagung Sari","postal_code":34595},{"province":"Lampung","city":"Tulang Bawang","district":"Penawar Tama","urban":"Tri Karya","postal_code":34595},{"province":"Lampung","city":"Tulang Bawang","district":"Penawar Tama","urban":"Tri Rejo Mulyo","postal_code":34595},{"province":"Lampung","city":"Tulang Bawang","district":"Penawar Aji","urban":"Sumber Sari","postal_code":34595},{"province":"Lampung","city":"Tulang Bawang","district":"Penawar Tama","urban":"Tri Jaya","postal_code":34595},{"province":"Lampung","city":"Tulang Bawang","district":"Gedung Aji Baru","urban":"Sumber Jaya","postal_code":34595},{"province":"Lampung","city":"Tulang Bawang","district":"Rawa Pitu","urban":"Sumber Agung","postal_code":34595},{"province":"Lampung","city":"Tulang Bawang","district":"Penawar Aji","urban":"Suka Makmur","postal_code":34595},{"province":"Lampung","city":"Tulang Bawang","district":"Gedung Aji Baru","urban":"Suka Bhakti","postal_code":34595},{"province":"Lampung","city":"Tulang Bawang","district":"Penawar Tama","urban":"Sidomakmur","postal_code":34595},{"province":"Lampung","city":"Tulang Bawang","district":"Penawar Tama","urban":"Sidomulyo","postal_code":34595},{"province":"Lampung","city":"Tulang Bawang","district":"Penawar Tama","urban":"Sidoharjo","postal_code":34595},{"province":"Lampung","city":"Tulang Bawang","district":"Penawar Tama","urban":"Sidodadi","postal_code":34595},{"province":"Lampung","city":"Tulang Bawang","district":"Gedung Aji Baru","urban":"Setia Tama","postal_code":34595},{"province":"Lampung","city":"Tulang Bawang","district":"Gedung Aji Baru","urban":"Sido Mekar","postal_code":34595},{"province":"Lampung","city":"Tulang Bawang","district":"Gedung Aji Baru","urban":"Sido Mukti","postal_code":34595},{"province":"Lampung","city":"Tulang Bawang","district":"Penawar Tama","urban":"Rejosari","postal_code":34595},{"province":"Lampung","city":"Tulang Bawang","district":"Penawar Tama","urban":"Pulo Gadung","postal_code":34595},{"province":"Lampung","city":"Tulang Bawang","district":"Rawa Pitu","urban":"Rawa Ragil","postal_code":34595},{"province":"Lampung","city":"Tulang Bawang","district":"Penawar Aji","urban":"Pasar Batang","postal_code":34595},{"province":"Lampung","city":"Tulang Bawang","district":"Rawa Pitu","urban":"Panggung Mulya (Panggung Mulyo)","postal_code":34595},{"province":"Lampung","city":"Tulang Bawang","district":"Rawa Pitu","urban":"Mulyo Dadi","postal_code":34595},{"province":"Lampung","city":"Tulang Bawang","district":"Penawar Aji","urban":"Panca Tunggal Jaya","postal_code":34595},{"province":"Lampung","city":"Tulang Bawang","district":"Gedung Aji Baru","urban":"Mekar Asri","postal_code":34595},{"province":"Lampung","city":"Tulang Bawang","district":"Gedung Aji Baru","urban":"Mesir Dwi Jaya","postal_code":34595},{"province":"Lampung","city":"Tulang Bawang","district":"Gedung Aji Baru","urban":"Makarti Tama","postal_code":34595},{"province":"Lampung","city":"Tulang Bawang","district":"Penawar Aji","urban":"Karya Makmur","postal_code":34595},{"province":"Lampung","city":"Tulang Bawang","district":"Penawar Aji","urban":"Gedung Rejo Sakti","postal_code":34595},{"province":"Lampung","city":"Tulang Bawang","district":"Rawa Pitu","urban":"Gedung Jaya","postal_code":34595},{"province":"Lampung","city":"Tulang Bawang","district":"Penawar Aji","urban":"Gedung Harapan","postal_code":34595},{"province":"Lampung","city":"Tulang Bawang","district":"Penawar Aji","urban":"Gedung Asri","postal_code":34595},{"province":"Lampung","city":"Tulang Bawang","district":"Penawar Tama","urban":"Dwi Mulyo","postal_code":34595},{"province":"Lampung","city":"Tulang Bawang","district":"Rawa Pitu","urban":"Bumi Sari","postal_code":34595},{"province":"Lampung","city":"Tulang Bawang","district":"Penawar Tama","urban":"Boga Tama","postal_code":34595},{"province":"Lampung","city":"Tulang Bawang","district":"Gedung Aji Baru","urban":"Batu Ampar","postal_code":34595},{"province":"Lampung","city":"Tulang Bawang","district":"Rawa Pitu","urban":"Batang Hari","postal_code":34595},{"province":"Lampung","city":"Tulang Bawang","district":"Rawa Pitu","urban":"Andalas Cermin","postal_code":34595}]