[{"province":"Lampung","city":"Tulang Bawang","district":"Rawajitu Selatan","urban":"Yudha Karya Jitu","postal_code":34596},{"province":"Lampung","city":"Tulang Bawang","district":"Dente Teladas","urban":"Way Dente","postal_code":34596},{"province":"Lampung","city":"Tulang Bawang","district":"Rawajitu Selatan","urban":"Wono Agung","postal_code":34596},{"province":"Lampung","city":"Tulang Bawang","district":"Dente Teladas","urban":"Teladas","postal_code":34596},{"province":"Lampung","city":"Tulang Bawang","district":"Dente Teladas","urban":"Pendowo Asri","postal_code":34596},{"province":"Lampung","city":"Tulang Bawang","district":"Dente Teladas","urban":"Sungai Burung","postal_code":34596},{"province":"Lampung","city":"Tulang Bawang","district":"Dente Teladas","urban":"Sungai Nibung","postal_code":34596},{"province":"Lampung","city":"Tulang Bawang","district":"Dente Teladas","urban":"Pasiran Jaya","postal_code":34596},{"province":"Lampung","city":"Tulang Bawang","district":"Dente Teladas","urban":"Mahabang","postal_code":34596},{"province":"Lampung","city":"Tulang Bawang","district":"Rawajitu Selatan","urban":"Meda Sari","postal_code":34596},{"province":"Lampung","city":"Tulang Bawang","district":"Dente Teladas","urban":"Kekatung","postal_code":34596},{"province":"Lampung","city":"Tulang Bawang","district":"Dente Teladas","urban":"Kuala Teladas","postal_code":34596},{"province":"Lampung","city":"Tulang Bawang","district":"Rawajitu Selatan","urban":"Karya Jitu Mukti","postal_code":34596},{"province":"Lampung","city":"Tulang Bawang","district":"Rawajitu Selatan","urban":"Karya Cipta Abadi","postal_code":34596},{"province":"Lampung","city":"Tulang Bawang","district":"Gedung Meneng","urban":"Gunung Tapa Udik","postal_code":34596},{"province":"Lampung","city":"Tulang Bawang","district":"Rawajitu Selatan","urban":"Hargo Mulyo","postal_code":34596},{"province":"Lampung","city":"Tulang Bawang","district":"Rawajitu Selatan","urban":"Hargo Rejo","postal_code":34596},{"province":"Lampung","city":"Tulang Bawang","district":"Gedung Meneng","urban":"Gunung Tapa Ilir","postal_code":34596},{"province":"Lampung","city":"Tulang Bawang","district":"Gedung Meneng","urban":"Gunung Tapa Tengah","postal_code":34596},{"province":"Lampung","city":"Tulang Bawang","district":"Gedung Meneng","urban":"Gedung Meneng Baru","postal_code":34596},{"province":"Lampung","city":"Tulang Bawang","district":"Gedung Meneng","urban":"Gunung Tapa","postal_code":34596},{"province":"Lampung","city":"Tulang Bawang","district":"Rawajitu Selatan","urban":"Gedung Karya Jitu","postal_code":34596},{"province":"Lampung","city":"Tulang Bawang","district":"Gedung Meneng","urban":"Gedung Meneng","postal_code":34596},{"province":"Lampung","city":"Tulang Bawang","district":"Gedung Meneng","urban":"Gedung Bandar Rejo","postal_code":34596},{"province":"Lampung","city":"Tulang Bawang","district":"Gedung Meneng","urban":"Gedung Bandar Rahayu","postal_code":34596},{"province":"Lampung","city":"Tulang Bawang","district":"Dente Teladas","urban":"Dente Makmur","postal_code":34596},{"province":"Lampung","city":"Tulang Bawang","district":"Rawajitu Selatan","urban":"Bumi Ratu","postal_code":34596},{"province":"Lampung","city":"Tulang Bawang","district":"Rawajitu Timur","urban":"Bumi Dipasena Sentosa","postal_code":34596},{"province":"Lampung","city":"Tulang Bawang","district":"Rawajitu Timur","urban":"Bumi Dipasena Utama","postal_code":34596},{"province":"Lampung","city":"Tulang Bawang","district":"Rawajitu Timur","urban":"Bumi Dipasena Mulya","postal_code":34596},{"province":"Lampung","city":"Tulang Bawang","district":"Rawajitu Timur","urban":"Bumi Dipasena Sejahtera","postal_code":34596},{"province":"Lampung","city":"Tulang Bawang","district":"Rawajitu Timur","urban":"Bumi Dipasena Jaya","postal_code":34596},{"province":"Lampung","city":"Tulang Bawang","district":"Rawajitu Timur","urban":"Bumi Dipasena Makmur","postal_code":34596},{"province":"Lampung","city":"Tulang Bawang","district":"Rawajitu Timur","urban":"Bumi Dipasena Abadi","postal_code":34596},{"province":"Lampung","city":"Tulang Bawang","district":"Rawajitu Timur","urban":"Bumi Dipasena Agung","postal_code":34596},{"province":"Lampung","city":"Tulang Bawang","district":"Dente Teladas","urban":"Bratasena Adiwarna","postal_code":34596},{"province":"Lampung","city":"Tulang Bawang","district":"Dente Teladas","urban":"Bratasena Mandiri","postal_code":34596},{"province":"Lampung","city":"Tulang Bawang","district":"Gedung Meneng","urban":"Bakung Rahayu","postal_code":34596},{"province":"Lampung","city":"Tulang Bawang","district":"Gedung Meneng","urban":"Bakung Udik","postal_code":34596},{"province":"Lampung","city":"Tulang Bawang","district":"Gedung Meneng","urban":"Bakung Ilir","postal_code":34596}]