[{"province":"Lampung","city":"Tulang Bawang","district":"Banjar Agung","urban":"Warga Makmur Jaya","postal_code":34682},{"province":"Lampung","city":"Tulang Bawang","district":"Banjar Agung","urban":"Tunggal Warga","postal_code":34682},{"province":"Lampung","city":"Tulang Bawang","district":"Banjar Agung","urban":"Warga Indah Jaya","postal_code":34682},{"province":"Lampung","city":"Tulang Bawang","district":"Banjar Margo","urban":"Tri Tunggal Jaya","postal_code":34682},{"province":"Lampung","city":"Tulang Bawang","district":"Banjar Agung","urban":"Tri Tunggal Jaya","postal_code":34682},{"province":"Lampung","city":"Tulang Bawang","district":"Banjar Agung","urban":"Tri Mulya Jaya","postal_code":34682},{"province":"Lampung","city":"Tulang Bawang","district":"Banjar Agung","urban":"Tri Mukti Jaya","postal_code":34682},{"province":"Lampung","city":"Tulang Bawang","district":"Banjar Agung","urban":"Tri Dharma Wira Jaya","postal_code":34682},{"province":"Lampung","city":"Tulang Bawang","district":"Banjar Margo","urban":"Sumber Makmur","postal_code":34682},{"province":"Lampung","city":"Tulang Bawang","district":"Banjar Margo","urban":"Sukamaju","postal_code":34682},{"province":"Lampung","city":"Tulang Bawang","district":"Banjar Margo","urban":"Ringin Sari","postal_code":34682},{"province":"Lampung","city":"Tulang Bawang","district":"Banjar Margo","urban":"Purwajaya","postal_code":34682},{"province":"Lampung","city":"Tulang Bawang","district":"Banjar Margo","urban":"Penawar Rejo","postal_code":34682},{"province":"Lampung","city":"Tulang Bawang","district":"Banjar Margo","urban":"Penawar Jaya","postal_code":34682},{"province":"Lampung","city":"Tulang Bawang","district":"Banjar Baru","urban":"Panca Karsa Purna Jaya","postal_code":34682},{"province":"Lampung","city":"Tulang Bawang","district":"Banjar Baru","urban":"Panca Mulya","postal_code":34682},{"province":"Lampung","city":"Tulang Bawang","district":"Banjar Agung","urban":"Moris Jaya","postal_code":34682},{"province":"Lampung","city":"Tulang Bawang","district":"Banjar Margo","urban":"Mekar Jaya","postal_code":34682},{"province":"Lampung","city":"Tulang Bawang","district":"Banjar Baru","urban":"Mekar Indah Jaya","postal_code":34682},{"province":"Lampung","city":"Tulang Bawang","district":"Banjar Baru","urban":"Mekar Ayu","postal_code":34682},{"province":"Lampung","city":"Tulang Bawang","district":"Banjar Baru","urban":"Karya Murni Jaya","postal_code":34682},{"province":"Lampung","city":"Tulang Bawang","district":"Banjar Baru","urban":"Kahuripan Jaya","postal_code":34682},{"province":"Lampung","city":"Tulang Bawang","district":"Banjar Baru","urban":"Jaya Makmur","postal_code":34682},{"province":"Lampung","city":"Tulang Bawang","district":"Banjar Agung","urban":"Dwi Warga Tunggal Jaya","postal_code":34682},{"province":"Lampung","city":"Tulang Bawang","district":"Banjar Margo","urban":"Catur Karya Buana Jaya","postal_code":34682},{"province":"Lampung","city":"Tulang Bawang","district":"Banjar Margo","urban":"Bujuk Agung","postal_code":34682},{"province":"Lampung","city":"Tulang Bawang","district":"Banjar Baru","urban":"Bawang Tirto Mulyo","postal_code":34682},{"province":"Lampung","city":"Tulang Bawang","district":"Banjar Baru","urban":"Banjar Jaya","postal_code":34682},{"province":"Lampung","city":"Tulang Bawang","district":"Banjar Agung","urban":"Banjar Dewa","postal_code":34682},{"province":"Lampung","city":"Tulang Bawang","district":"Banjar Agung","urban":"Banjar Agung","postal_code":34682},{"province":"Lampung","city":"Tulang Bawang","district":"Banjar Baru","urban":"Balai Murni Jaya","postal_code":34682},{"province":"Lampung","city":"Tulang Bawang","district":"Banjar Margo","urban":"Agung Jaya","postal_code":34682},{"province":"Lampung","city":"Tulang Bawang","district":"Banjar Margo","urban":"Agung Dalem (Agung Dalam)","postal_code":34682}]