[{"province":"Lampung","city":"Tulang Bawang Barat","district":"Gunung Agung","urban":"Tunas Jaya","postal_code":34683},{"province":"Lampung","city":"Tulang Bawang Barat","district":"Gunung Agung","urban":"Wonorejo","postal_code":34683},{"province":"Lampung","city":"Tulang Bawang Barat","district":"Gunung Agung","urban":"Tri Tunggal Jaya","postal_code":34683},{"province":"Lampung","city":"Tulang Bawang Barat","district":"Gunung Terang","urban":"Toto Katon","postal_code":34683},{"province":"Lampung","city":"Tulang Bawang Barat","district":"Gunung Terang","urban":"Toto Mulyo","postal_code":34683},{"province":"Lampung","city":"Tulang Bawang Barat","district":"Gunung Terang","urban":"Toto Wonodadi","postal_code":34683},{"province":"Lampung","city":"Tulang Bawang Barat","district":"Gunung Terang","urban":"Terang Mulya","postal_code":34683},{"province":"Lampung","city":"Tulang Bawang Barat","district":"Gunung Terang","urban":"Terang Bumi Agung","postal_code":34683},{"province":"Lampung","city":"Tulang Bawang Barat","district":"Gunung Agung","urban":"Sumber Jaya","postal_code":34683},{"province":"Lampung","city":"Tulang Bawang Barat","district":"Gunung Agung","urban":"Suka Jaya","postal_code":34683},{"province":"Lampung","city":"Tulang Bawang Barat","district":"Gunung Terang","urban":"Setia Bumi","postal_code":34683},{"province":"Lampung","city":"Tulang Bawang Barat","district":"Gunung Terang","urban":"Sido Makmur","postal_code":34683},{"province":"Lampung","city":"Tulang Bawang Barat","district":"Gunung Terang","urban":"Sakti Jaya","postal_code":34683},{"province":"Lampung","city":"Tulang Bawang Barat","district":"Gunung Terang","urban":"Panca Marga","postal_code":34683},{"province":"Lampung","city":"Tulang Bawang Barat","district":"Gunung Agung","urban":"Mulya Sari","postal_code":34683},{"province":"Lampung","city":"Tulang Bawang Barat","district":"Gunung Agung","urban":"Mulya Jaya","postal_code":34683},{"province":"Lampung","city":"Tulang Bawang Barat","district":"Gunung Terang","urban":"Marga Sari","postal_code":34683},{"province":"Lampung","city":"Tulang Bawang Barat","district":"Gunung Agung","urban":"Mekar Jaya","postal_code":34683},{"province":"Lampung","city":"Tulang Bawang Barat","district":"Gunung Terang","urban":"Marga Mulya (Margo Mulyo)","postal_code":34683},{"province":"Lampung","city":"Tulang Bawang Barat","district":"Gunung Agung","urban":"Marga Jaya","postal_code":34683},{"province":"Lampung","city":"Tulang Bawang Barat","district":"Gunung Agung","urban":"Jaya Murni","postal_code":34683},{"province":"Lampung","city":"Tulang Bawang Barat","district":"Gunung Terang","urban":"Gunung Agung I","postal_code":34683},{"province":"Lampung","city":"Tulang Bawang Barat","district":"Gunung Terang","urban":"Gunung Terang","postal_code":34683},{"province":"Lampung","city":"Tulang Bawang Barat","district":"Gunung Terang","urban":"Gunung Agung","postal_code":34683},{"province":"Lampung","city":"Tulang Bawang Barat","district":"Gunung Agung","urban":"Bangun Jaya","postal_code":34683}]