[{"province":"Lampung","city":"Tulang Bawang","district":"Meraksa Aji","urban":"Sukarame","postal_code":34681},{"province":"Lampung","city":"Tulang Bawang","district":"Gedung Aji","urban":"Penawar Baru","postal_code":34681},{"province":"Lampung","city":"Tulang Bawang","district":"Meraksa Aji","urban":"Panduan Rajawali","postal_code":34681},{"province":"Lampung","city":"Tulang Bawang","district":"Meraksa Aji","urban":"Mulya Aji","postal_code":34681},{"province":"Lampung","city":"Tulang Bawang","district":"Meraksa Aji","urban":"Marga Jaya","postal_code":34681},{"province":"Lampung","city":"Tulang Bawang","district":"Meraksa Aji","urban":"Kecubung Raya","postal_code":34681},{"province":"Lampung","city":"Tulang Bawang","district":"Gedung Aji","urban":"Kecubung Mulya","postal_code":34681},{"province":"Lampung","city":"Tulang Bawang","district":"Gedung Aji","urban":"Kecubung Raya","postal_code":34681},{"province":"Lampung","city":"Tulang Bawang","district":"Gedung Aji","urban":"Kecubung Jaya","postal_code":34681},{"province":"Lampung","city":"Tulang Bawang","district":"Meraksa Aji","urban":"Karya Bakti","postal_code":34681},{"province":"Lampung","city":"Tulang Bawang","district":"Gedung Aji","urban":"Gedung Aji","postal_code":34681},{"province":"Lampung","city":"Tulang Bawang","district":"Meraksa Aji","urban":"Bina Bumi","postal_code":34681},{"province":"Lampung","city":"Tulang Bawang","district":"Meraksa Aji","urban":"Bangun Rejo","postal_code":34681},{"province":"Lampung","city":"Tulang Bawang","district":"Gedung Aji","urban":"Aji Permai Talang Buah","postal_code":34681},{"province":"Lampung","city":"Tulang Bawang","district":"Gedung Aji","urban":"Bandar Aji Jaya","postal_code":34681},{"province":"Lampung","city":"Tulang Bawang","district":"Gedung Aji","urban":"Aji Murni Jaya","postal_code":34681},{"province":"Lampung","city":"Tulang Bawang","district":"Gedung Aji","urban":"Aji Jaya KNPI","postal_code":34681},{"province":"Lampung","city":"Tulang Bawang","district":"Gedung Aji","urban":"Aji Mesir","postal_code":34681}]