[{"province":"Lampung","city":"Mesuji","district":"Mesuji Timur","urban":"Wonosari","postal_code":34697},{"province":"Lampung","city":"Mesuji","district":"Mesuji","urban":"Wiralaga II","postal_code":34697},{"province":"Lampung","city":"Mesuji","district":"Mesuji","urban":"Tirtalaga","postal_code":34697},{"province":"Lampung","city":"Mesuji","district":"Mesuji","urban":"Wiralaga I","postal_code":34697},{"province":"Lampung","city":"Mesuji","district":"Mesuji","urban":"Tanjung Serayan","postal_code":34697},{"province":"Lampung","city":"Mesuji","district":"Mesuji Timur","urban":"Tanjung Menang","postal_code":34697},{"province":"Lampung","city":"Mesuji","district":"Mesuji Timur","urban":"Tanjung Mas Mulya","postal_code":34697},{"province":"Lampung","city":"Mesuji","district":"Mesuji Timur","urban":"Tanjung Mas Jaya","postal_code":34697},{"province":"Lampung","city":"Mesuji","district":"Mesuji Timur","urban":"Tanjung Mas Makmur","postal_code":34697},{"province":"Lampung","city":"Mesuji","district":"Mesuji Timur","urban":"Talang Batu/T Gunung","postal_code":34697},{"province":"Lampung","city":"Mesuji","district":"Mesuji","urban":"Sungai Badak","postal_code":34697},{"province":"Lampung","city":"Mesuji","district":"Mesuji Timur","urban":"Sungai Cambai","postal_code":34697},{"province":"Lampung","city":"Mesuji","district":"Mesuji","urban":"Sumber Makmur","postal_code":34697},{"province":"Lampung","city":"Mesuji","district":"Mesuji","urban":"Sidomulyo","postal_code":34697},{"province":"Lampung","city":"Mesuji","district":"Mesuji Timur","urban":"Pangkal Mas Jaya","postal_code":34697},{"province":"Lampung","city":"Mesuji","district":"Mesuji Timur","urban":"Pangkal Mas Mulya","postal_code":34697},{"province":"Lampung","city":"Mesuji","district":"Mesuji","urban":"Mulya Sari (Mulyosari)","postal_code":34697},{"province":"Lampung","city":"Mesuji","district":"Mesuji","urban":"Nipahkuning","postal_code":34697},{"province":"Lampung","city":"Mesuji","district":"Mesuji Timur","urban":"Muara Mas","postal_code":34697},{"province":"Lampung","city":"Mesuji","district":"Mesuji Timur","urban":"Eka Mulya","postal_code":34697},{"province":"Lampung","city":"Mesuji","district":"Mesuji Timur","urban":"Marga/Margo Jadi","postal_code":34697},{"province":"Lampung","city":"Mesuji","district":"Mesuji Timur","urban":"Dwi Karya Mustika","postal_code":34697}]