[{"province":"Lampung","city":"Tulang Bawang Barat","district":"Tulang Bawang Tengah","urban":"Wonokerto","postal_code":34693},{"province":"Lampung","city":"Tulang Bawang Barat","district":"Tulang Bawang Tengah","urban":"Wonokerto I","postal_code":34693},{"province":"Lampung","city":"Tulang Bawang Barat","district":"Tulang Bawang Tengah","urban":"Tunas Asri I","postal_code":34693},{"province":"Lampung","city":"Tulang Bawang Barat","district":"Tulang Bawang Tengah","urban":"Tirta Kencana","postal_code":34693},{"province":"Lampung","city":"Tulang Bawang Barat","district":"Tulang Bawang Tengah","urban":"Tunas Asri","postal_code":34693},{"province":"Lampung","city":"Tulang Bawang Barat","district":"Tulang Bawang Tengah","urban":"Pulung Kencana","postal_code":34693},{"province":"Lampung","city":"Tulang Bawang Barat","district":"Tulang Bawang Tengah","urban":"Penumangan Baru","postal_code":34693},{"province":"Lampung","city":"Tulang Bawang Barat","district":"Tulang Bawang Tengah","urban":"Penumangan","postal_code":34693},{"province":"Lampung","city":"Tulang Bawang Barat","district":"Pagar Dewa","urban":"Pagar Dewa Suka Mulya","postal_code":34693},{"province":"Lampung","city":"Tulang Bawang Barat","district":"Tulang Bawang Tengah","urban":"Panaragan","postal_code":34693},{"province":"Lampung","city":"Tulang Bawang Barat","district":"Tulang Bawang Tengah","urban":"Panaragan Jaya","postal_code":34693},{"province":"Lampung","city":"Tulang Bawang Barat","district":"Pagar Dewa","urban":"Pagar Dewa","postal_code":34693},{"province":"Lampung","city":"Tulang Bawang Barat","district":"Tulang Bawang Tengah","urban":"Mulya Kencana","postal_code":34693},{"province":"Lampung","city":"Tulang Bawang Barat","district":"Tulang Bawang Tengah","urban":"Mulya Asri (Mulyo Asri)","postal_code":34693},{"province":"Lampung","city":"Tulang Bawang Barat","district":"Tulang Bawang Tengah","urban":"Mulya Jaya","postal_code":34693},{"province":"Lampung","city":"Tulang Bawang Barat","district":"Tulang Bawang Tengah","urban":"Menggala Mas","postal_code":34693},{"province":"Lampung","city":"Tulang Bawang Barat","district":"Tulang Bawang Tengah","urban":"Candra Kencana","postal_code":34693},{"province":"Lampung","city":"Tulang Bawang Barat","district":"Pagar Dewa","urban":"Cahyou/Cahyow Randu","postal_code":34693},{"province":"Lampung","city":"Tulang Bawang Barat","district":"Pagar Dewa","urban":"Marga Jaya Indah","postal_code":34693},{"province":"Lampung","city":"Tulang Bawang Barat","district":"Pagar Dewa","urban":"Bujung Sari Marga","postal_code":34693},{"province":"Lampung","city":"Tulang Bawang Barat","district":"Pagar Dewa","urban":"Bujung Dewa","postal_code":34693},{"province":"Lampung","city":"Tulang Bawang Barat","district":"Tulang Bawang Tengah","urban":"Bandar Dewa","postal_code":34693}]