[{"province":"Lampung","city":"Mesuji","district":"Simpang Pematang","urban":"Wira Bangun","postal_code":34698},{"province":"Lampung","city":"Mesuji","district":"Simpang Pematang","urban":"Rejo Binangun","postal_code":34698},{"province":"Lampung","city":"Mesuji","district":"Simpang Pematang","urban":"Simpang Pematang","postal_code":34698},{"province":"Lampung","city":"Mesuji","district":"Panca Jaya","urban":"Mukti Karya","postal_code":34698},{"province":"Lampung","city":"Mesuji","district":"Simpang Pematang","urban":"Marga Rahayu","postal_code":34698},{"province":"Lampung","city":"Mesuji","district":"Simpang Pematang","urban":"Harapan Jaya","postal_code":34698},{"province":"Lampung","city":"Mesuji","district":"Simpang Pematang","urban":"Jaya Sakti","postal_code":34698},{"province":"Lampung","city":"Mesuji","district":"Panca Jaya","urban":"Fajar Indah","postal_code":34698},{"province":"Lampung","city":"Mesuji","district":"Panca Jaya","urban":"Fajar Asri","postal_code":34698},{"province":"Lampung","city":"Mesuji","district":"Panca Jaya","urban":"Fajar Baru","postal_code":34698},{"province":"Lampung","city":"Mesuji","district":"Simpang Pematang","urban":"Bangun Mulyo","postal_code":34698},{"province":"Lampung","city":"Mesuji","district":"Simpang Pematang","urban":"Budi Aji","postal_code":34698},{"province":"Lampung","city":"Mesuji","district":"Panca Jaya","urban":"Adi Mulya / Mulyo","postal_code":34698},{"province":"Lampung","city":"Mesuji","district":"Panca Jaya","urban":"Adi Mulya / Mulyo","postal_code":34698},{"province":"Lampung","city":"Mesuji","district":"Panca Jaya","urban":"Adi Luhur","postal_code":34698},{"province":"Lampung","city":"Mesuji","district":"Panca Jaya","urban":"Adi Karya Mulya","postal_code":34698}]