[{"province":"Lampung","city":"Way Kanan","district":"Pakuan Ratu","urban":"Tanjung Serupa","postal_code":34762},{"province":"Lampung","city":"Way Kanan","district":"Pakuan Ratu","urban":"Way Tawar","postal_code":34762},{"province":"Lampung","city":"Way Kanan","district":"Pakuan Ratu","urban":"Tanjung Ratu","postal_code":34762},{"province":"Lampung","city":"Way Kanan","district":"Pakuan Ratu","urban":"Tanjung Agung","postal_code":34762},{"province":"Lampung","city":"Way Kanan","district":"Pakuan Ratu","urban":"Serupa Indah","postal_code":34762},{"province":"Lampung","city":"Way Kanan","district":"Pakuan Ratu","urban":"Sukabumi","postal_code":34762},{"province":"Lampung","city":"Way Kanan","district":"Pakuan Ratu","urban":"Pakuan Sakti","postal_code":34762},{"province":"Lampung","city":"Way Kanan","district":"Pakuan Ratu","urban":"Rumbih","postal_code":34762},{"province":"Lampung","city":"Way Kanan","district":"Pakuan Ratu","urban":"Pakuan Baru","postal_code":34762},{"province":"Lampung","city":"Way Kanan","district":"Pakuan Ratu","urban":"Pakuan Ratu","postal_code":34762},{"province":"Lampung","city":"Way Kanan","district":"Pakuan Ratu","urban":"Negara Tama","postal_code":34762},{"province":"Lampung","city":"Way Kanan","district":"Pakuan Ratu","urban":"Negara Ratu","postal_code":34762},{"province":"Lampung","city":"Way Kanan","district":"Pakuan Ratu","urban":"Negara Sakti","postal_code":34762},{"province":"Lampung","city":"Way Kanan","district":"Pakuan Ratu","urban":"Karang Agung","postal_code":34762},{"province":"Lampung","city":"Way Kanan","district":"Pakuan Ratu","urban":"Negara Harja","postal_code":34762},{"province":"Lampung","city":"Way Kanan","district":"Pakuan Ratu","urban":"Gunung Cahya","postal_code":34762},{"province":"Lampung","city":"Way Kanan","district":"Pakuan Ratu","urban":"Gunung Waras","postal_code":34762},{"province":"Lampung","city":"Way Kanan","district":"Pakuan Ratu","urban":"Bumi Mulya","postal_code":34762},{"province":"Lampung","city":"Way Kanan","district":"Pakuan Ratu","urban":"Bhakti Negara","postal_code":34762}]