[{"province":"Lampung","city":"Way Kanan","district":"Negeri Besar","urban":"Tiuh Baru","postal_code":34769},{"province":"Lampung","city":"Way Kanan","district":"Negeri Agung","urban":"Way Limau","postal_code":34769},{"province":"Lampung","city":"Way Kanan","district":"Negeri Besar","urban":"Tanjungmas","postal_code":34769},{"province":"Lampung","city":"Way Kanan","district":"Negeri Besar","urban":"Tegal Mukti","postal_code":34769},{"province":"Lampung","city":"Way Kanan","district":"Negeri Agung","urban":"Sungsang","postal_code":34769},{"province":"Lampung","city":"Way Kanan","district":"Negeri Agung","urban":"Tanjung Rejo","postal_code":34769},{"province":"Lampung","city":"Way Kanan","district":"Negeri Agung","urban":"Sumber Rejeki","postal_code":34769},{"province":"Lampung","city":"Way Kanan","district":"Negara Batin","urban":"Sri Menanti","postal_code":34769},{"province":"Lampung","city":"Way Kanan","district":"Negara Batin","urban":"Sri Mulyo","postal_code":34769},{"province":"Lampung","city":"Way Kanan","district":"Negeri Besar","urban":"Sri Basuki","postal_code":34769},{"province":"Lampung","city":"Way Kanan","district":"Negara Batin","urban":"Sari Jaya","postal_code":34769},{"province":"Lampung","city":"Way Kanan","district":"Negara Batin","urban":"Setia Negara","postal_code":34769},{"province":"Lampung","city":"Way Kanan","district":"Negara Batin","urban":"Purwa Negara","postal_code":34769},{"province":"Lampung","city":"Way Kanan","district":"Negeri Agung","urban":"Rejosasi","postal_code":34769},{"province":"Lampung","city":"Way Kanan","district":"Negara Batin","urban":"Purwa Agung","postal_code":34769},{"province":"Lampung","city":"Way Kanan","district":"Negara Batin","urban":"Purwa Agung","postal_code":34769},{"province":"Lampung","city":"Way Kanan","district":"Negeri Agung","urban":"Penengahan","postal_code":34769},{"province":"Lampung","city":"Way Kanan","district":"Negeri Besar","urban":"Pagar Iman","postal_code":34769},{"province":"Lampung","city":"Way Kanan","district":"Negeri Besar","urban":"Negeri Kasih","postal_code":34769},{"province":"Lampung","city":"Way Kanan","district":"Negeri Besar","urban":"Negeri Jaya","postal_code":34769},{"province":"Lampung","city":"Way Kanan","district":"Negeri Besar","urban":"Negeri Besar","postal_code":34769},{"province":"Lampung","city":"Way Kanan","district":"Negeri Agung","urban":"Negeri Agung","postal_code":34769},{"province":"Lampung","city":"Way Kanan","district":"Negeri Besar","urban":"Negara Jaya","postal_code":34769},{"province":"Lampung","city":"Way Kanan","district":"Negara Batin","urban":"Negara Mulya","postal_code":34769},{"province":"Lampung","city":"Way Kanan","district":"Negara Batin","urban":"Negara Batin","postal_code":34769},{"province":"Lampung","city":"Way Kanan","district":"Negara Batin","urban":"Marga Jaya","postal_code":34769},{"province":"Lampung","city":"Way Kanan","district":"Negeri Agung","urban":"Mulyo/Mulya Sari","postal_code":34769},{"province":"Lampung","city":"Way Kanan","district":"Negeri Agung","urban":"Kotabumi Way Kanan","postal_code":34769},{"province":"Lampung","city":"Way Kanan","district":"Negara Batin","urban":"Kota Jawa","postal_code":34769},{"province":"Lampung","city":"Way Kanan","district":"Negeri Agung","urban":"Kota Baru","postal_code":34769},{"province":"Lampung","city":"Way Kanan","district":"Negeri Besar","urban":"Kiling Kiling","postal_code":34769},{"province":"Lampung","city":"Way Kanan","district":"Negeri Agung","urban":"Karya Agung","postal_code":34769},{"province":"Lampung","city":"Way Kanan","district":"Negeri Besar","urban":"Kaliawi Indah","postal_code":34769},{"province":"Lampung","city":"Way Kanan","district":"Negara Batin","urban":"Karta Jaya","postal_code":34769},{"province":"Lampung","city":"Way Kanan","district":"Negeri Besar","urban":"Kaliawi","postal_code":34769},{"province":"Lampung","city":"Way Kanan","district":"Negeri Besar","urban":"Kaliawi","postal_code":34769},{"province":"Lampung","city":"Way Kanan","district":"Negara Batin","urban":"Gisting Jaya","postal_code":34769},{"province":"Lampung","city":"Way Kanan","district":"Negeri Agung","urban":"Gedung Menong","postal_code":34769},{"province":"Lampung","city":"Way Kanan","district":"Negeri Agung","urban":"Gedung Harapan","postal_code":34769},{"province":"Lampung","city":"Way Kanan","district":"Negeri Agung","urban":"Gedong/Gedung Jaya","postal_code":34769},{"province":"Lampung","city":"Way Kanan","district":"Negara Batin","urban":"Gedong/Gedung Jaya","postal_code":34769},{"province":"Lampung","city":"Way Kanan","district":"Negara Batin","urban":"Bumi Jaya","postal_code":34769},{"province":"Lampung","city":"Way Kanan","district":"Negeri Besar","urban":"Bima Sakti","postal_code":34769},{"province":"Lampung","city":"Way Kanan","district":"Negeri Agung","urban":"Bandar Kasih","postal_code":34769},{"province":"Lampung","city":"Way Kanan","district":"Negeri Agung","urban":"Bandar Dalam","postal_code":34769},{"province":"Lampung","city":"Way Kanan","district":"Negara Batin","urban":"Adi Jaya","postal_code":34769}]