[{"province":"Lampung","city":"Way Kanan","district":"Gunung Labuhan","urban":"Way Tuba","postal_code":34768},{"province":"Lampung","city":"Way Kanan","district":"Gunung Labuhan","urban":"Sukarame","postal_code":34768},{"province":"Lampung","city":"Way Kanan","district":"Gunung Labuhan","urban":"Tiuh Balak II","postal_code":34768},{"province":"Lampung","city":"Way Kanan","district":"Gunung Labuhan","urban":"Suka Negeri","postal_code":34768},{"province":"Lampung","city":"Way Kanan","district":"Gunung Labuhan","urban":"Negeri Sungkai","postal_code":34768},{"province":"Lampung","city":"Way Kanan","district":"Gunung Labuhan","urban":"Negeri Ujan Mas","postal_code":34768},{"province":"Lampung","city":"Way Kanan","district":"Gunung Labuhan","urban":"Labuhan Jaya","postal_code":34768},{"province":"Lampung","city":"Way Kanan","district":"Gunung Labuhan","urban":"Negeri Mulya","postal_code":34768},{"province":"Lampung","city":"Way Kanan","district":"Gunung Labuhan","urban":"Gunung Sari","postal_code":34768},{"province":"Lampung","city":"Way Kanan","district":"Gunung Labuhan","urban":"Gunung Sari","postal_code":34768},{"province":"Lampung","city":"Way Kanan","district":"Gunung Labuhan","urban":"Gunung Labuhan","postal_code":34768},{"province":"Lampung","city":"Way Kanan","district":"Gunung Labuhan","urban":"Gunung Pekuwon","postal_code":34768},{"province":"Lampung","city":"Way Kanan","district":"Gunung Labuhan","urban":"Curup Patah","postal_code":34768},{"province":"Lampung","city":"Way Kanan","district":"Gunung Labuhan","urban":"Gunung Baru","postal_code":34768},{"province":"Lampung","city":"Way Kanan","district":"Gunung Labuhan","urban":"Bengkulu Tengah","postal_code":34768},{"province":"Lampung","city":"Way Kanan","district":"Gunung Labuhan","urban":"Bengkulu Rejo","postal_code":34768},{"province":"Lampung","city":"Way Kanan","district":"Gunung Labuhan","urban":"Bengkulu Raman","postal_code":34768},{"province":"Lampung","city":"Way Kanan","district":"Gunung Labuhan","urban":"Banjar Sakti","postal_code":34768},{"province":"Lampung","city":"Way Kanan","district":"Gunung Labuhan","urban":"Bengkulu","postal_code":34768},{"province":"Lampung","city":"Way Kanan","district":"Gunung Labuhan","urban":"Bengkulu Jaya","postal_code":34768},{"province":"Lampung","city":"Way Kanan","district":"Gunung Labuhan","urban":"Banjar Ratu","postal_code":34768}]