[{"province":"Lampung","city":"Way Kanan","district":"Way Tuba","urban":"Way Tuba","postal_code":34767},{"province":"Lampung","city":"Way Kanan","district":"Way Tuba","urban":"Way Tuba Asri","postal_code":34767},{"province":"Lampung","city":"Way Kanan","district":"Way Tuba","urban":"Way Pisang","postal_code":34767},{"province":"Lampung","city":"Way Kanan","district":"Buay Bahuga","urban":"Way Agung","postal_code":34767},{"province":"Lampung","city":"Way Kanan","district":"Way Tuba","urban":"Way Mencar","postal_code":34767},{"province":"Lampung","city":"Way Kanan","district":"Rebang Tangkas","urban":"Tanjung Tiga","postal_code":34767},{"province":"Lampung","city":"Way Kanan","district":"Bumi Agung","urban":"Tanjung Dalam","postal_code":34767},{"province":"Lampung","city":"Way Kanan","district":"Rebang Tangkas","urban":"Tanjung Raya","postal_code":34767},{"province":"Lampung","city":"Way Kanan","district":"Way Tuba","urban":"Suma Mukti","postal_code":34767},{"province":"Lampung","city":"Way Kanan","district":"Buay Bahuga","urban":"Sukadana","postal_code":34767},{"province":"Lampung","city":"Way Kanan","district":"Buay Bahuga","urban":"Sukabumi","postal_code":34767},{"province":"Lampung","city":"Way Kanan","district":"Buay Bahuga","urban":"Sri Tunggal","postal_code":34767},{"province":"Lampung","city":"Way Kanan","district":"Buay Bahuga","urban":"Suka Agung","postal_code":34767},{"province":"Lampung","city":"Way Kanan","district":"Way Tuba","urban":"Say Umpu","postal_code":34767},{"province":"Lampung","city":"Way Kanan","district":"Rebang Tangkas","urban":"Simpang Tiga","postal_code":34767},{"province":"Lampung","city":"Way Kanan","district":"Way Tuba","urban":"Ramsai/Ramsay","postal_code":34767},{"province":"Lampung","city":"Way Kanan","district":"Buay Bahuga","urban":"Punjul Agung","postal_code":34767},{"province":"Lampung","city":"Way Kanan","district":"Rebang Tangkas","urban":"Mulya Jaya","postal_code":34767},{"province":"Lampung","city":"Way Kanan","district":"Buay Bahuga","urban":"Nuar Maju","postal_code":34767},{"province":"Lampung","city":"Way Kanan","district":"Rebang Tangkas","urban":"Madang Jaya","postal_code":34767},{"province":"Lampung","city":"Way Kanan","district":"Rebang Tangkas","urban":"Karya Maju","postal_code":34767},{"province":"Lampung","city":"Way Kanan","district":"Rebang Tangkas","urban":"Lebak Peniangan","postal_code":34767},{"province":"Lampung","city":"Way Kanan","district":"Buay Bahuga","urban":"Lebung Lawe","postal_code":34767},{"province":"Lampung","city":"Way Kanan","district":"Way Tuba","urban":"Karya Jaya","postal_code":34767},{"province":"Lampung","city":"Way Kanan","district":"Rebang Tangkas","urban":"Gunung Sari","postal_code":34767},{"province":"Lampung","city":"Way Kanan","district":"Buay Bahuga","urban":"Bumiharjo","postal_code":34767},{"province":"Lampung","city":"Way Kanan","district":"Way Tuba","urban":"Bumi Dana","postal_code":34767},{"province":"Lampung","city":"Way Kanan","district":"Way Tuba","urban":"Bukit Harapan","postal_code":34767},{"province":"Lampung","city":"Way Kanan","district":"Way Tuba","urban":"Bukit Gemuruh","postal_code":34767},{"province":"Lampung","city":"Way Kanan","district":"Way Tuba","urban":"Beringin Jaya","postal_code":34767},{"province":"Lampung","city":"Way Kanan","district":"Rebang Tangkas","urban":"Beringin Jaya","postal_code":34767},{"province":"Lampung","city":"Way Kanan","district":"Way Tuba","urban":"Bandar Sari","postal_code":34767},{"province":"Lampung","city":"Way Kanan","district":"Rebang Tangkas","urban":"Air Ringkih","postal_code":34767}]