[{"province":"Lampung","city":"Lampung Barat","district":"Sumber Jaya","urban":"Way Petay/Petai","postal_code":34871},{"province":"Lampung","city":"Lampung Barat","district":"Sumber Jaya","urban":"Tugu Sari","postal_code":34871},{"province":"Lampung","city":"Lampung Barat","district":"Sumber Jaya","urban":"Tugu Mulya","postal_code":34871},{"province":"Lampung","city":"Lampung Barat","district":"Gedung Surian","urban":"Trimulyo","postal_code":34871},{"province":"Lampung","city":"Lampung Barat","district":"Kebun Tebu","urban":"Tribudi Makmur","postal_code":34871},{"province":"Lampung","city":"Lampung Barat","district":"Kebun Tebu","urban":"Tri Budisukur (Tribudi Syukur)","postal_code":34871},{"province":"Lampung","city":"Lampung Barat","district":"Sumber Jaya","urban":"Sukapura","postal_code":34871},{"province":"Lampung","city":"Lampung Barat","district":"Sumber Jaya","urban":"Sukajaya","postal_code":34871},{"province":"Lampung","city":"Lampung Barat","district":"Sumber Jaya","urban":"Sindang Pagar","postal_code":34871},{"province":"Lampung","city":"Lampung Barat","district":"Kebun Tebu","urban":"Sinar Luas","postal_code":34871},{"province":"Lampung","city":"Lampung Barat","district":"Sumber Jaya","urban":"Simpangsari","postal_code":34871},{"province":"Lampung","city":"Lampung Barat","district":"Kebun Tebu","urban":"Purawiwitan","postal_code":34871},{"province":"Lampung","city":"Lampung Barat","district":"Gedung Surian","urban":"Puramekar","postal_code":34871},{"province":"Lampung","city":"Lampung Barat","district":"Kebun Tebu","urban":"Muara Jaya Satu (I)","postal_code":34871},{"province":"Lampung","city":"Lampung Barat","district":"Kebun Tebu","urban":"Purajaya","postal_code":34871},{"province":"Lampung","city":"Lampung Barat","district":"Kebun Tebu","urban":"Muara Baru","postal_code":34871},{"province":"Lampung","city":"Lampung Barat","district":"Kebun Tebu","urban":"Muara Jaya Dua (II)","postal_code":34871},{"province":"Lampung","city":"Lampung Barat","district":"Gedung Surian","urban":"Gedung Surian","postal_code":34871},{"province":"Lampung","city":"Lampung Barat","district":"Gedung Surian","urban":"Mekarjaya","postal_code":34871},{"province":"Lampung","city":"Lampung Barat","district":"Gedung Surian","urban":"Cipta Waras","postal_code":34871},{"province":"Lampung","city":"Lampung Barat","district":"Kebun Tebu","urban":"Cipta Mulya","postal_code":34871},{"province":"Lampung","city":"Pesisir Barat","district":"Pesisir Selatan","urban":"Sumur Jaya","postal_code":34871}]