[{"province":"Lampung","city":"Lampung Barat","district":"Lumbok Seminung","urban":"Ujung","postal_code":34879},{"province":"Lampung","city":"Lampung Barat","district":"Lumbok Seminung","urban":"Tawan Suka Mulya","postal_code":34879},{"province":"Lampung","city":"Lampung Barat","district":"Sukau","urban":"Tapak Siring","postal_code":34879},{"province":"Lampung","city":"Lampung Barat","district":"Lumbok Seminung","urban":"Tawan Suka Mulya","postal_code":34879},{"province":"Lampung","city":"Lampung Barat","district":"Lumbok Seminung","urban":"Suka Maju","postal_code":34879},{"province":"Lampung","city":"Lampung Barat","district":"Sukau","urban":"Suka Mulya","postal_code":34879},{"province":"Lampung","city":"Lampung Barat","district":"Sukau","urban":"Tanjung Raya","postal_code":34879},{"province":"Lampung","city":"Lampung Barat","district":"Lumbok Seminung","urban":"Suka Banjar","postal_code":34879},{"province":"Lampung","city":"Lampung Barat","district":"Lumbok Seminung","urban":"Suka Banjar II Ujung Rembun","postal_code":34879},{"province":"Lampung","city":"Lampung Barat","district":"Lumbok Seminung","urban":"Lombok Timur","postal_code":34879},{"province":"Lampung","city":"Lampung Barat","district":"Lumbok Seminung","urban":"Pancur Mas","postal_code":34879},{"province":"Lampung","city":"Lampung Barat","district":"Sukau","urban":"Pagar Dewa","postal_code":34879},{"province":"Lampung","city":"Lampung Barat","district":"Lumbok Seminung","urban":"Keagungan","postal_code":34879},{"province":"Lampung","city":"Lampung Barat","district":"Lumbok Seminung","urban":"Lombok","postal_code":34879},{"province":"Lampung","city":"Lampung Barat","district":"Lumbok Seminung","urban":"Lombok Selatan","postal_code":34879},{"province":"Lampung","city":"Lampung Barat","district":"Sukau","urban":"Jaga Raga","postal_code":34879},{"province":"Lampung","city":"Lampung Barat","district":"Lumbok Seminung","urban":"Heni Harong","postal_code":34879},{"province":"Lampung","city":"Lampung Barat","district":"Sukau","urban":"Bumi Jaya","postal_code":34879},{"province":"Lampung","city":"Lampung Barat","district":"Sukau","urban":"Hanakau","postal_code":34879},{"province":"Lampung","city":"Lampung Barat","district":"Sukau","urban":"Bandar Baru","postal_code":34879},{"province":"Lampung","city":"Lampung Barat","district":"Sukau","urban":"Buay Nyerupa","postal_code":34879}]