[{"province":"Lampung","city":"Pesisir Barat","district":"Lemong","urban":"Way Batang","postal_code":34877},{"province":"Lampung","city":"Pesisir Barat","district":"Lemong","urban":"Tanjung Sakti","postal_code":34877},{"province":"Lampung","city":"Pesisir Barat","district":"Lemong","urban":"Rata Agung","postal_code":34877},{"province":"Lampung","city":"Pesisir Barat","district":"Lemong","urban":"Tanjung Jati","postal_code":34877},{"province":"Lampung","city":"Pesisir Barat","district":"Lemong","urban":"Pagar Dalam","postal_code":34877},{"province":"Lampung","city":"Pesisir Barat","district":"Lemong","urban":"Pengehan","postal_code":34877},{"province":"Lampung","city":"Pesisir Barat","district":"Lemong","urban":"Lemong","postal_code":34877},{"province":"Lampung","city":"Pesisir Barat","district":"Lemong","urban":"Malaya","postal_code":34877},{"province":"Lampung","city":"Pesisir Barat","district":"Lemong","urban":"Bandar Pugung","postal_code":34877},{"province":"Lampung","city":"Pesisir Barat","district":"Lemong","urban":"Cahaya Negeri","postal_code":34877},{"province":"Lampung","city":"Pesisir Barat","district":"Lemong","urban":"Bambang","postal_code":34877}]