[{"province":"Lampung","city":"Pesisir Barat","district":"Karya Penggawa","urban":"Way Sindi Utara","postal_code":34878},{"province":"Lampung","city":"Pesisir Barat","district":"Karya Penggawa","urban":"Way Sindi","postal_code":34878},{"province":"Lampung","city":"Pesisir Barat","district":"Karya Penggawa","urban":"Way Sindi Hanuan","postal_code":34878},{"province":"Lampung","city":"Pesisir Barat","district":"Karya Penggawa","urban":"Tebakak Way Sidi","postal_code":34878},{"province":"Lampung","city":"Pesisir Barat","district":"Karya Penggawa","urban":"Way Nukak","postal_code":34878},{"province":"Lampung","city":"Pesisir Barat","district":"Karya Penggawa","urban":"Penggawa V Tengah","postal_code":34878},{"province":"Lampung","city":"Pesisir Barat","district":"Karya Penggawa","urban":"Penggawa V Ulu","postal_code":34878},{"province":"Lampung","city":"Pesisir Barat","district":"Karya Penggawa","urban":"Menyancang","postal_code":34878},{"province":"Lampung","city":"Pesisir Barat","district":"Karya Penggawa","urban":"Penengahan","postal_code":34878},{"province":"Lampung","city":"Pesisir Barat","district":"Karya Penggawa","urban":"Kebuayan","postal_code":34878},{"province":"Lampung","city":"Pesisir Barat","district":"Karya Penggawa","urban":"Laay","postal_code":34878},{"province":"Lampung","city":"Pesisir Barat","district":"Karya Penggawa","urban":"Asahan Way Sindi","postal_code":34878}]