[{"province":"Lampung","city":"Pesisir Barat","district":"Krui Selatan","urban":"Way Suluh","postal_code":34874},{"province":"Lampung","city":"Pesisir Barat","district":"Pesisir Tengah","urban":"Way Redak","postal_code":34874},{"province":"Lampung","city":"Pesisir Barat","district":"Krui Selatan","urban":"Way Napal","postal_code":34874},{"province":"Lampung","city":"Pesisir Barat","district":"Way Krui","urban":"Ulu Krui","postal_code":34874},{"province":"Lampung","city":"Pesisir Barat","district":"Krui Selatan","urban":"Walur","postal_code":34874},{"province":"Lampung","city":"Pesisir Barat","district":"Pesisir Tengah","urban":"Sukanegara","postal_code":34874},{"province":"Lampung","city":"Pesisir Barat","district":"Way Krui","urban":"Sukabaru","postal_code":34874},{"province":"Lampung","city":"Pesisir Barat","district":"Krui Selatan","urban":"Suka Jadi","postal_code":34874},{"province":"Lampung","city":"Pesisir Barat","district":"Pesisir Tengah","urban":"Serai / Seray","postal_code":34874},{"province":"Lampung","city":"Pesisir Barat","district":"Pesisir Tengah","urban":"Rawas","postal_code":34874},{"province":"Lampung","city":"Pesisir Barat","district":"Way Krui","urban":"Penggawa V","postal_code":34874},{"province":"Lampung","city":"Pesisir Barat","district":"Way Krui","urban":"Penggawa V Ilir","postal_code":34874},{"province":"Lampung","city":"Pesisir Barat","district":"Krui Selatan","urban":"Pemerihan","postal_code":34874},{"province":"Lampung","city":"Pesisir Barat","district":"Pesisir Tengah","urban":"Pasar Krui","postal_code":34874},{"province":"Lampung","city":"Pesisir Barat","district":"Way Krui","urban":"Pajar Bulan","postal_code":34874},{"province":"Lampung","city":"Pesisir Barat","district":"Pesisir Tengah","urban":"Pahmungan","postal_code":34874},{"province":"Lampung","city":"Pesisir Barat","district":"Krui Selatan","urban":"Padang Raya","postal_code":34874},{"province":"Lampung","city":"Pesisir Barat","district":"Krui Selatan","urban":"Padang Haluan","postal_code":34874},{"province":"Lampung","city":"Pesisir Barat","district":"Krui Selatan","urban":"Lintik","postal_code":34874},{"province":"Lampung","city":"Pesisir Barat","district":"Krui Selatan","urban":"Mandiri Sejati","postal_code":34874},{"province":"Lampung","city":"Pesisir Barat","district":"Way Krui","urban":"Labuan","postal_code":34874},{"province":"Lampung","city":"Pesisir Barat","district":"Pesisir Tengah","urban":"Kota Pasar Krui","postal_code":34874},{"province":"Lampung","city":"Pesisir Barat","district":"Pesisir Tengah","urban":"Kampung Jawa","postal_code":34874},{"province":"Lampung","city":"Pesisir Barat","district":"Way Krui","urban":"Gunung Kemala","postal_code":34874},{"province":"Lampung","city":"Pesisir Barat","district":"Way Krui","urban":"Gunung Kemala Timur","postal_code":34874},{"province":"Lampung","city":"Pesisir Barat","district":"Way Krui","urban":"Banjar Agung","postal_code":34874},{"province":"Lampung","city":"Pesisir Barat","district":"Way Krui","urban":"Bumi Waras","postal_code":34874},{"province":"Lampung","city":"Pesisir Barat","district":"Krui Selatan","urban":"Balai Kencana","postal_code":34874}]