[{"province":"Lampung","city":"Lampung Barat","district":"Air Hitam","urban":"Sumber Alam","postal_code":34876},{"province":"Lampung","city":"Lampung Barat","district":"Air Hitam","urban":"Sukajadi","postal_code":34876},{"province":"Lampung","city":"Lampung Barat","district":"Air Hitam","urban":"Sri Menanti","postal_code":34876},{"province":"Lampung","city":"Lampung Barat","district":"Air Hitam","urban":"Sukadamai","postal_code":34876},{"province":"Lampung","city":"Lampung Barat","district":"Air Hitam","urban":"Sidodadi","postal_code":34876},{"province":"Lampung","city":"Lampung Barat","district":"Air Hitam","urban":"Sinar Jaya","postal_code":34876},{"province":"Lampung","city":"Lampung Barat","district":"Air Hitam","urban":"Rigis Jaya","postal_code":34876},{"province":"Lampung","city":"Lampung Barat","district":"Air Hitam","urban":"Semarang Jaya","postal_code":34876},{"province":"Lampung","city":"Lampung Barat","district":"Air Hitam","urban":"Mangarai","postal_code":34876},{"province":"Lampung","city":"Lampung Barat","district":"Air Hitam","urban":"Gunung Terang","postal_code":34876},{"province":"Lampung","city":"Pesisir Barat","district":"Pesisir Utara","urban":"Walur","postal_code":34876},{"province":"Lampung","city":"Pesisir Barat","district":"Pesisir Utara","urban":"Way Narta","postal_code":34876},{"province":"Lampung","city":"Pesisir Barat","district":"Pulau Pisang","urban":"Sukamarga","postal_code":34876},{"province":"Lampung","city":"Pesisir Barat","district":"Pulau Pisang","urban":"Sukadana","postal_code":34876},{"province":"Lampung","city":"Pesisir Barat","district":"Pesisir Utara","urban":"Pemancar","postal_code":34876},{"province":"Lampung","city":"Pesisir Barat","district":"Pulau Pisang","urban":"Pekon Lok","postal_code":34876},{"province":"Lampung","city":"Pesisir Barat","district":"Pesisir Utara","urban":"Padang Rindu","postal_code":34876},{"province":"Lampung","city":"Pesisir Barat","district":"Pulau Pisang","urban":"Pasar Pulau Pisang","postal_code":34876},{"province":"Lampung","city":"Pesisir Barat","district":"Pesisir Utara","urban":"Negeri Ratu","postal_code":34876},{"province":"Lampung","city":"Pesisir Barat","district":"Pulau Pisang","urban":"Labuhan","postal_code":34876},{"province":"Lampung","city":"Pesisir Barat","district":"Pesisir Utara","urban":"Kota Karang","postal_code":34876},{"province":"Lampung","city":"Pesisir Barat","district":"Pesisir Utara","urban":"Kuripan","postal_code":34876},{"province":"Lampung","city":"Pesisir Barat","district":"Pesisir Utara","urban":"Kerbang Langgar","postal_code":34876},{"province":"Lampung","city":"Pesisir Barat","district":"Pesisir Utara","urban":"Kerbang Dalam","postal_code":34876},{"province":"Lampung","city":"Pesisir Barat","district":"Pesisir Utara","urban":"Gedau","postal_code":34876},{"province":"Lampung","city":"Pesisir Barat","district":"Pulau Pisang","urban":"Bandar Dalam","postal_code":34876},{"province":"Lampung","city":"Pesisir Barat","district":"Pesisir Utara","urban":"Batu Raja","postal_code":34876},{"province":"Lampung","city":"Pesisir Barat","district":"Pesisir Utara","urban":"Balam","postal_code":34876}]