[{"province":"Lampung","city":"Lampung Barat","district":"Way Tenong","urban":"Tambak Jaya","postal_code":34884},{"province":"Lampung","city":"Lampung Barat","district":"Way Tenong","urban":"Tanjung Raya","postal_code":34884},{"province":"Lampung","city":"Lampung Barat","district":"Way Tenong","urban":"Sukaraja","postal_code":34884},{"province":"Lampung","city":"Lampung Barat","district":"Way Tenong","urban":"Sukananti","postal_code":34884},{"province":"Lampung","city":"Lampung Barat","district":"Way Tenong","urban":"Pura Laksana","postal_code":34884},{"province":"Lampung","city":"Lampung Barat","district":"Way Tenong","urban":"Mutar Alam","postal_code":34884},{"province":"Lampung","city":"Lampung Barat","district":"Way Tenong","urban":"Padang Tambak","postal_code":34884},{"province":"Lampung","city":"Lampung Barat","district":"Way Tenong","urban":"Karang Agung","postal_code":34884},{"province":"Lampung","city":"Lampung Barat","district":"Way Tenong","urban":"Fajar Bulan (Pajar Bulan)","postal_code":34884}]