[{"province":"Lampung","city":"Pesisir Barat","district":"Bengkunat Belimbing","urban":"Way Haru","postal_code":34883},{"province":"Lampung","city":"Pesisir Barat","district":"Bengkunat Belimbing","urban":"Way Tias","postal_code":34883},{"province":"Lampung","city":"Pesisir Barat","district":"Ngambur","urban":"Ulok Mukti","postal_code":34883},{"province":"Lampung","city":"Pesisir Barat","district":"Bengkunat Belimbing","urban":"Tanjung Rejo","postal_code":34883},{"province":"Lampung","city":"Pesisir Barat","district":"Bengkunat Belimbing","urban":"Sumberejo","postal_code":34883},{"province":"Lampung","city":"Pesisir Barat","district":"Bengkunat Belimbing","urban":"Tanjung Kemala","postal_code":34883},{"province":"Lampung","city":"Pesisir Barat","district":"Ngambur","urban":"Sumber Agung","postal_code":34883},{"province":"Lampung","city":"Pesisir Barat","district":"Bengkunat Belimbing","urban":"Suka Negeri","postal_code":34883},{"province":"Lampung","city":"Pesisir Barat","district":"Bengkunat","urban":"Sukarame","postal_code":34883},{"province":"Lampung","city":"Pesisir Barat","district":"Bengkunat Belimbing","urban":"Suka Marga","postal_code":34883},{"province":"Lampung","city":"Pesisir Barat","district":"Lemong","urban":"Suka Mulya","postal_code":34883},{"province":"Lampung","city":"Pesisir Barat","district":"Bengkunat","urban":"Suka Maju","postal_code":34883},{"province":"Lampung","city":"Pesisir Barat","district":"Ngambur","urban":"Suka Banjar","postal_code":34883},{"province":"Lampung","city":"Pesisir Barat","district":"Bengkunat","urban":"Raja Basa","postal_code":34883},{"province":"Lampung","city":"Pesisir Barat","district":"Bengkunat Belimbing","urban":"Penyandingan","postal_code":34883},{"province":"Lampung","city":"Pesisir Barat","district":"Bengkunat Belimbing","urban":"Siring Gading","postal_code":34883},{"province":"Lampung","city":"Pesisir Barat","district":"Bengkunat Belimbing","urban":"Pemerihan","postal_code":34883},{"province":"Lampung","city":"Pesisir Barat","district":"Ngambur","urban":"Pekon Mon","postal_code":34883},{"province":"Lampung","city":"Pesisir Barat","district":"Bengkunat","urban":"Parda Suka","postal_code":34883},{"province":"Lampung","city":"Pesisir Barat","district":"Lemong","urban":"Parda Haga","postal_code":34883},{"province":"Lampung","city":"Pesisir Barat","district":"Bengkunat Belimbing","urban":"Pagar Bukit Induk","postal_code":34883},{"province":"Lampung","city":"Pesisir Barat","district":"Bengkunat Belimbing","urban":"Pagar Bukit","postal_code":34883},{"province":"Lampung","city":"Pesisir Barat","district":"Bengkunat","urban":"Padang Dalam","postal_code":34883},{"province":"Lampung","city":"Pesisir Barat","district":"Ngambur","urban":"Negeri Ratu Ngambur","postal_code":34883},{"province":"Lampung","city":"Pesisir Barat","district":"Bengkunat","urban":"Negeri Ratu Ngaras","postal_code":34883},{"province":"Lampung","city":"Pesisir Barat","district":"Ngambur","urban":"Negara","postal_code":34883},{"province":"Lampung","city":"Pesisir Barat","district":"Bengkunat","urban":"Mulang Maya","postal_code":34883},{"province":"Lampung","city":"Pesisir Barat","district":"Ngambur","urban":"Mauara Tembulih","postal_code":34883},{"province":"Lampung","city":"Pesisir Barat","district":"Bengkunat","urban":"Kota Batu","postal_code":34883},{"province":"Lampung","city":"Pesisir Barat","district":"Bengkunat Belimbing","urban":"Kota Jawa","postal_code":34883},{"province":"Lampung","city":"Pesisir Barat","district":"Ngambur","urban":"Gedung Cahya Kuningan","postal_code":34883},{"province":"Lampung","city":"Pesisir Barat","district":"Ngambur","urban":"Bumi Ratu","postal_code":34883},{"province":"Lampung","city":"Pesisir Barat","district":"Bengkunat","urban":"Bandar Jaya","postal_code":34883},{"province":"Lampung","city":"Pesisir Barat","district":"Bengkunat Belimbing","urban":"Bandar Dalam","postal_code":34883}]