[{"province":"Lampung","city":"Lampung Barat","district":"Sekincau","urban":"Waspada","postal_code":34885},{"province":"Lampung","city":"Lampung Barat","district":"Pagar Dewa","urban":"Suka Mulya","postal_code":34885},{"province":"Lampung","city":"Lampung Barat","district":"Sekincau","urban":"Tiga Jaya","postal_code":34885},{"province":"Lampung","city":"Lampung Barat","district":"Pagar Dewa","urban":"Sidomulyo","postal_code":34885},{"province":"Lampung","city":"Lampung Barat","district":"Pagar Dewa","urban":"Suka Jaya","postal_code":34885},{"province":"Lampung","city":"Lampung Barat","district":"Sekincau","urban":"Sidodadi","postal_code":34885},{"province":"Lampung","city":"Lampung Barat","district":"Sekincau","urban":"Sekincau","postal_code":34885},{"province":"Lampung","city":"Lampung Barat","district":"Sekincau","urban":"Pampangan","postal_code":34885},{"province":"Lampung","city":"Lampung Barat","district":"Pagar Dewa","urban":"Pahayu Jaya","postal_code":34885},{"province":"Lampung","city":"Lampung Barat","district":"Pagar Dewa","urban":"Pahayu Jaya","postal_code":34885},{"province":"Lampung","city":"Lampung Barat","district":"Pagar Dewa","urban":"Marga Jaya","postal_code":34885},{"province":"Lampung","city":"Lampung Barat","district":"Pagar Dewa","urban":"Mekar Sari","postal_code":34885},{"province":"Lampung","city":"Lampung Barat","district":"Pagar Dewa","urban":"Batu Api","postal_code":34885},{"province":"Lampung","city":"Lampung Barat","district":"Sekincau","urban":"Giham Sukamaju","postal_code":34885},{"province":"Lampung","city":"Lampung Barat","district":"Pagar Dewa","urban":"Basungan","postal_code":34885}]