[{"province":"Lampung","city":"Lampung Barat","district":"Suoh","urban":"Tugu Ratu","postal_code":34882},{"province":"Lampung","city":"Lampung Barat","district":"Bandar Negeri Suoh","urban":"Tri Mekar Jaya","postal_code":34882},{"province":"Lampung","city":"Lampung Barat","district":"Bandar Negeri Suoh","urban":"Tembelang","postal_code":34882},{"province":"Lampung","city":"Lampung Barat","district":"Suoh","urban":"Sumber Agung","postal_code":34882},{"province":"Lampung","city":"Lampung Barat","district":"Bandar Negeri Suoh","urban":"Suoh","postal_code":34882},{"province":"Lampung","city":"Lampung Barat","district":"Bandar Negeri Suoh","urban":"Tanjungsari","postal_code":34882},{"province":"Lampung","city":"Lampung Barat","district":"Suoh","urban":"Suka Marga","postal_code":34882},{"province":"Lampung","city":"Lampung Barat","district":"Bandar Negeri Suoh","urban":"Srimulyo","postal_code":34882},{"province":"Lampung","city":"Lampung Barat","district":"Suoh","urban":"Roworejo","postal_code":34882},{"province":"Lampung","city":"Lampung Barat","district":"Suoh","urban":"Sidorejo","postal_code":34882},{"province":"Lampung","city":"Lampung Barat","district":"Suoh","urban":"Ringin Sari","postal_code":34882},{"province":"Lampung","city":"Lampung Barat","district":"Suoh","urban":"Ringin Sari","postal_code":34882},{"province":"Lampung","city":"Lampung Barat","district":"Bandar Negeri Suoh","urban":"Negeri Jaya","postal_code":34882},{"province":"Lampung","city":"Lampung Barat","district":"Bandar Negeri Suoh","urban":"Gunung Ratu","postal_code":34882},{"province":"Lampung","city":"Lampung Barat","district":"Suoh","urban":"Banding Agung","postal_code":34882},{"province":"Lampung","city":"Lampung Barat","district":"Bandar Negeri Suoh","urban":"Bumi Hantatai","postal_code":34882},{"province":"Lampung","city":"Lampung Barat","district":"Bandar Negeri Suoh","urban":"Bandar Agung","postal_code":34882}]