[{"province":"Lampung","city":"Lampung Barat","district":"Batu Brak","urban":"Teba Liyokh","postal_code":34881},{"province":"Lampung","city":"Lampung Barat","district":"Batu Brak","urban":"Negeri Ratu","postal_code":34881},{"province":"Lampung","city":"Lampung Barat","district":"Batu Brak","urban":"Pekon Balak","postal_code":34881},{"province":"Lampung","city":"Lampung Barat","district":"Batu Brak","urban":"Sukabumi","postal_code":34881},{"province":"Lampung","city":"Lampung Barat","district":"Batu Brak","urban":"Sukaraja","postal_code":34881},{"province":"Lampung","city":"Lampung Barat","district":"Batu Brak","urban":"Kerang","postal_code":34881},{"province":"Lampung","city":"Lampung Barat","district":"Batu Brak","urban":"Kota Besi","postal_code":34881},{"province":"Lampung","city":"Lampung Barat","district":"Batu Brak","urban":"Kegeringan","postal_code":34881},{"province":"Lampung","city":"Lampung Barat","district":"Batu Brak","urban":"Kembahang","postal_code":34881},{"province":"Lampung","city":"Lampung Barat","district":"Batu Brak","urban":"Canggu","postal_code":34881},{"province":"Lampung","city":"Lampung Barat","district":"Batu Brak","urban":"Gunung Sugih","postal_code":34881}]