[{"province":"Lampung","city":"Pesawaran","district":"Way Lima","urban":"Sukamandi","postal_code":35367},{"province":"Lampung","city":"Pesawaran","district":"Way Lima","urban":"Tanjung Agung","postal_code":35367},{"province":"Lampung","city":"Pesawaran","district":"Way Lima","urban":"Way Harong","postal_code":35367},{"province":"Lampung","city":"Pesawaran","district":"Way Lima","urban":"Sidodadi","postal_code":35367},{"province":"Lampung","city":"Pesawaran","district":"Way Lima","urban":"Sindang Garut","postal_code":35367},{"province":"Lampung","city":"Pesawaran","district":"Way Lima","urban":"Pekondoh","postal_code":35367},{"province":"Lampung","city":"Pesawaran","district":"Way Lima","urban":"Pekondoh Gedung","postal_code":35367},{"province":"Lampung","city":"Pesawaran","district":"Way Lima","urban":"Margodadi","postal_code":35367},{"province":"Lampung","city":"Pesawaran","district":"Way Lima","urban":"Padang Manis","postal_code":35367},{"province":"Lampung","city":"Pesawaran","district":"Way Lima","urban":"Gedung Dalam/Dalom","postal_code":35367},{"province":"Lampung","city":"Pesawaran","district":"Way Lima","urban":"Kotadalam","postal_code":35367},{"province":"Lampung","city":"Pesawaran","district":"Way Lima","urban":"Gedung Dalam/Dalom","postal_code":35367},{"province":"Lampung","city":"Pesawaran","district":"Way Lima","urban":"Baturaja","postal_code":35367},{"province":"Lampung","city":"Pesawaran","district":"Way Lima","urban":"Cimanuk","postal_code":35367},{"province":"Lampung","city":"Pesawaran","district":"Way Lima","urban":"Banjar Negeri","postal_code":35367}]