[{"province":"Lampung","city":"Pesawaran","district":"Kedondong","urban":"Tebajawa","postal_code":35368},{"province":"Lampung","city":"Pesawaran","district":"Kedondong","urban":"Tempel Rejo","postal_code":35368},{"province":"Lampung","city":"Pesawaran","district":"Kedondong","urban":"Way Kepayang","postal_code":35368},{"province":"Lampung","city":"Pesawaran","district":"Way Khilau","urban":"Tanjung Kerta","postal_code":35368},{"province":"Lampung","city":"Pesawaran","district":"Kedondong","urban":"Sukamaju","postal_code":35368},{"province":"Lampung","city":"Pesawaran","district":"Way Khilau","urban":"Sukajaya","postal_code":35368},{"province":"Lampung","city":"Pesawaran","district":"Kedondong","urban":"Sinar Harapan","postal_code":35368},{"province":"Lampung","city":"Pesawaran","district":"Way Khilau","urban":"Penengahan","postal_code":35368},{"province":"Lampung","city":"Pesawaran","district":"Kedondong","urban":"Pesawaran","postal_code":35368},{"province":"Lampung","city":"Pesawaran","district":"Way Khilau","urban":"Mada Jaya","postal_code":35368},{"province":"Lampung","city":"Pesawaran","district":"Way Khilau","urban":"Padang Cermin","postal_code":35368},{"province":"Lampung","city":"Pesawaran","district":"Kedondong","urban":"Pasar Baru","postal_code":35368},{"province":"Lampung","city":"Pesawaran","district":"Way Khilau","urban":"Kota Jawa","postal_code":35368},{"province":"Lampung","city":"Pesawaran","district":"Way Khilau","urban":"Kubu Batu","postal_code":35368},{"province":"Lampung","city":"Pesawaran","district":"Kedondong","urban":"Harapan Jaya","postal_code":35368},{"province":"Lampung","city":"Pesawaran","district":"Kedondong","urban":"Kedondong","postal_code":35368},{"province":"Lampung","city":"Pesawaran","district":"Kedondong","urban":"Kerta Sana","postal_code":35368},{"province":"Lampung","city":"Pesawaran","district":"Way Khilau","urban":"Gunungsari","postal_code":35368},{"province":"Lampung","city":"Pesawaran","district":"Kedondong","urban":"Gunung Sugih","postal_code":35368},{"province":"Lampung","city":"Pesawaran","district":"Way Khilau","urban":"Bayas Jaya","postal_code":35368},{"province":"Lampung","city":"Pesawaran","district":"Kedondong","urban":"Babakan Loa","postal_code":35368}]