[{"province":"Lampung","city":"Lampung Selatan","district":"Natar","urban":"Tanjungsari","postal_code":35362},{"province":"Lampung","city":"Lampung Selatan","district":"Natar","urban":"Wai Sari","postal_code":35362},{"province":"Lampung","city":"Lampung Selatan","district":"Natar","urban":"Sukadamai","postal_code":35362},{"province":"Lampung","city":"Lampung Selatan","district":"Natar","urban":"Sidosari","postal_code":35362},{"province":"Lampung","city":"Lampung Selatan","district":"Natar","urban":"Rulung Raya","postal_code":35362},{"province":"Lampung","city":"Lampung Selatan","district":"Natar","urban":"Rulung Sari","postal_code":35362},{"province":"Lampung","city":"Lampung Selatan","district":"Natar","urban":"Rulung Herok/Helok","postal_code":35362},{"province":"Lampung","city":"Lampung Selatan","district":"Natar","urban":"Rulung Mulya","postal_code":35362},{"province":"Lampung","city":"Lampung Selatan","district":"Natar","urban":"Rejosari","postal_code":35362},{"province":"Lampung","city":"Lampung Selatan","district":"Natar","urban":"Pancasila","postal_code":35362},{"province":"Lampung","city":"Lampung Selatan","district":"Natar","urban":"Pemanggilan","postal_code":35362},{"province":"Lampung","city":"Lampung Selatan","district":"Natar","urban":"Purwosari","postal_code":35362},{"province":"Lampung","city":"Lampung Selatan","district":"Natar","urban":"Negara Ratu","postal_code":35362},{"province":"Lampung","city":"Lampung Selatan","district":"Natar","urban":"Muara Putih","postal_code":35362},{"province":"Lampung","city":"Lampung Selatan","district":"Natar","urban":"Natar","postal_code":35362},{"province":"Lampung","city":"Lampung Selatan","district":"Natar","urban":"Merak Batin","postal_code":35362},{"province":"Lampung","city":"Lampung Selatan","district":"Natar","urban":"Krawang Sari","postal_code":35362},{"province":"Lampung","city":"Lampung Selatan","district":"Natar","urban":"Mandah","postal_code":35362},{"province":"Lampung","city":"Lampung Selatan","district":"Natar","urban":"Kali Sari","postal_code":35362},{"province":"Lampung","city":"Lampung Selatan","district":"Natar","urban":"Kali Sari","postal_code":35362},{"province":"Lampung","city":"Lampung Selatan","district":"Natar","urban":"Haduyang","postal_code":35362},{"province":"Lampung","city":"Lampung Selatan","district":"Natar","urban":"Bumisari","postal_code":35362},{"province":"Lampung","city":"Lampung Selatan","district":"Natar","urban":"Candi Mas","postal_code":35362},{"province":"Lampung","city":"Lampung Selatan","district":"Natar","urban":"Banjarnegeri","postal_code":35362},{"province":"Lampung","city":"Lampung Selatan","district":"Natar","urban":"Beranti/Branti Raya","postal_code":35362},{"province":"Lampung","city":"Lampung Selatan","district":"Natar","urban":"Bandar Rejo","postal_code":35362}]