[{"province":"Lampung","city":"Lampung Selatan","district":"Tanjung Sari","urban":"Wonodadi","postal_code":35361},{"province":"Lampung","city":"Lampung Selatan","district":"Tanjung Bintang","urban":"Way Galih","postal_code":35361},{"province":"Lampung","city":"Lampung Selatan","district":"Tanjung Sari","urban":"Wawasan","postal_code":35361},{"province":"Lampung","city":"Lampung Selatan","district":"Tanjung Bintang","urban":"Trimulyo","postal_code":35361},{"province":"Lampung","city":"Lampung Selatan","district":"Tanjung Bintang","urban":"Sri Katon","postal_code":35361},{"province":"Lampung","city":"Lampung Selatan","district":"Tanjung Bintang","urban":"Sukanegara","postal_code":35361},{"province":"Lampung","city":"Lampung Selatan","district":"Tanjung Bintang","urban":"Sinar Ogan","postal_code":35361},{"province":"Lampung","city":"Lampung Selatan","district":"Tanjung Bintang","urban":"Sindang Sari","postal_code":35361},{"province":"Lampung","city":"Lampung Selatan","district":"Tanjung Bintang","urban":"Serdang","postal_code":35361},{"province":"Lampung","city":"Lampung Selatan","district":"Tanjung Sari","urban":"Sidomukti","postal_code":35361},{"province":"Lampung","city":"Lampung Selatan","district":"Tanjung Bintang","urban":"Sabah Balau","postal_code":35361},{"province":"Lampung","city":"Lampung Selatan","district":"Tanjung Bintang","urban":"Rejomulyo","postal_code":35361},{"province":"Lampung","city":"Lampung Selatan","district":"Tanjung Bintang","urban":"Purwodadi Simpang","postal_code":35361},{"province":"Lampung","city":"Lampung Selatan","district":"Tanjung Sari","urban":"Purwodadi Dalam","postal_code":35361},{"province":"Lampung","city":"Lampung Selatan","district":"Tanjung Sari","urban":"Mulyo Sari","postal_code":35361},{"province":"Lampung","city":"Lampung Selatan","district":"Tanjung Sari","urban":"Malang Sari","postal_code":35361},{"province":"Lampung","city":"Lampung Selatan","district":"Tanjung Bintang","urban":"Lematang","postal_code":35361},{"province":"Lampung","city":"Lampung Selatan","district":"Tanjung Sari","urban":"Kertosari","postal_code":35361},{"province":"Lampung","city":"Lampung Selatan","district":"Tanjung Bintang","urban":"Kali Asin","postal_code":35361},{"province":"Lampung","city":"Lampung Selatan","district":"Tanjung Bintang","urban":"Jatibaru","postal_code":35361},{"province":"Lampung","city":"Lampung Selatan","district":"Tanjung Bintang","urban":"Jati Indah","postal_code":35361},{"province":"Lampung","city":"Lampung Selatan","district":"Tanjung Bintang","urban":"Budi Lestari","postal_code":35361},{"province":"Lampung","city":"Lampung Selatan","district":"Tanjung Bintang","urban":"Galih Lunik","postal_code":35361},{"province":"Lampung","city":"Lampung Selatan","district":"Tanjung Sari","urban":"Bangunsari","postal_code":35361}]