[{"province":"Lampung","city":"Tanggamus","district":"Gunung Alip","urban":"Way Halom","postal_code":35379},{"province":"Lampung","city":"Tanggamus","district":"Kelumbayan","urban":"Umbar","postal_code":35379},{"province":"Lampung","city":"Tanggamus","district":"Gunung Alip","urban":"Sukaraja","postal_code":35379},{"province":"Lampung","city":"Tanggamus","district":"Gunung Alip","urban":"Sukadamai","postal_code":35379},{"province":"Lampung","city":"Tanggamus","district":"Gunung Alip","urban":"Sukamernah (Sukamarnah)","postal_code":35379},{"province":"Lampung","city":"Tanggamus","district":"Gunung Alip","urban":"Sukabanjar","postal_code":35379},{"province":"Lampung","city":"Tanggamus","district":"Kelumbayan Barat","urban":"Purwosari","postal_code":35379},{"province":"Lampung","city":"Tanggamus","district":"Kelumbayan Barat","urban":"Sidoharjo","postal_code":35379},{"province":"Lampung","city":"Tanggamus","district":"Gunung Alip","urban":"Penanggungan","postal_code":35379},{"province":"Lampung","city":"Tanggamus","district":"Kelumbayan","urban":"Penyandingan","postal_code":35379},{"province":"Lampung","city":"Tanggamus","district":"Kelumbayan","urban":"Pekon Susuk","postal_code":35379},{"province":"Lampung","city":"Tanggamus","district":"Kelumbayan","urban":"Pekon Unggak","postal_code":35379},{"province":"Lampung","city":"Tanggamus","district":"Gunung Alip","urban":"Pariaman","postal_code":35379},{"province":"Lampung","city":"Tanggamus","district":"Kelumbayan","urban":"Paku","postal_code":35379},{"province":"Lampung","city":"Tanggamus","district":"Kelumbayan","urban":"Negeri Kelumbayan","postal_code":35379},{"province":"Lampung","city":"Tanggamus","district":"Kelumbayan","urban":"Napal","postal_code":35379},{"province":"Lampung","city":"Tanggamus","district":"Kelumbayan Barat","urban":"Marga Mulya","postal_code":35379},{"province":"Lampung","city":"Tanggamus","district":"Kelumbayan Barat","urban":"Merbau","postal_code":35379},{"province":"Lampung","city":"Tanggamus","district":"Kelumbayan Barat","urban":"Lengkukai","postal_code":35379},{"province":"Lampung","city":"Tanggamus","district":"Kelumbayan","urban":"Kilauan Negeri","postal_code":35379},{"province":"Lampung","city":"Tanggamus","district":"Gunung Alip","urban":"Darussalam","postal_code":35379},{"province":"Lampung","city":"Tanggamus","district":"Gunung Alip","urban":"Kedaloman","postal_code":35379},{"province":"Lampung","city":"Tanggamus","district":"Gunung Alip","urban":"Ciherang","postal_code":35379},{"province":"Lampung","city":"Tanggamus","district":"Kelumbayan Barat","urban":"Batu Patah","postal_code":35379},{"province":"Lampung","city":"Tanggamus","district":"Gunung Alip","urban":"Banjar Agung","postal_code":35379},{"province":"Lampung","city":"Tanggamus","district":"Gunung Alip","urban":"Banjar Negeri","postal_code":35379}]