[{"province":"Lampung","city":"Pringsewu","district":"Pagelaran","urban":"Way Ngisom","postal_code":35376},{"province":"Lampung","city":"Pringsewu","district":"Pagelaran Utara","urban":"Way Kunir","postal_code":35376},{"province":"Lampung","city":"Pringsewu","district":"Ambarawa","urban":"Tanjung Anom","postal_code":35376},{"province":"Lampung","city":"Pringsewu","district":"Pagelaran","urban":"Tanjung Dalam/Dalom","postal_code":35376},{"province":"Lampung","city":"Pringsewu","district":"Pagelaran","urban":"Sumber Rejo","postal_code":35376},{"province":"Lampung","city":"Pringsewu","district":"Pagelaran Utara","urban":"Sumber Bandung","postal_code":35376},{"province":"Lampung","city":"Pringsewu","district":"Ambarawa","urban":"Sumber Agung","postal_code":35376},{"province":"Lampung","city":"Pringsewu","district":"Pagelaran","urban":"Sukaratu","postal_code":35376},{"province":"Lampung","city":"Pringsewu","district":"Pagelaran","urban":"Sukawangi","postal_code":35376},{"province":"Lampung","city":"Pringsewu","district":"Pagelaran","urban":"Puji Harjo","postal_code":35376},{"province":"Lampung","city":"Pringsewu","district":"Pagelaran","urban":"Sidodadi","postal_code":35376},{"province":"Lampung","city":"Pringsewu","district":"Pagelaran","urban":"Pasir Ukir","postal_code":35376},{"province":"Lampung","city":"Pringsewu","district":"Pagelaran","urban":"Patoman","postal_code":35376},{"province":"Lampung","city":"Pringsewu","district":"Pagelaran","urban":"Pamenang","postal_code":35376},{"province":"Lampung","city":"Pringsewu","district":"Pagelaran","urban":"Panutan","postal_code":35376},{"province":"Lampung","city":"Pringsewu","district":"Pagelaran","urban":"Padang Rejo","postal_code":35376},{"province":"Lampung","city":"Pringsewu","district":"Pagelaran","urban":"Pagelaran","postal_code":35376},{"province":"Lampung","city":"Pringsewu","district":"Pagelaran Utara","urban":"Margosari","postal_code":35376},{"province":"Lampung","city":"Pringsewu","district":"Pagelaran Utara","urban":"Neglasari","postal_code":35376},{"province":"Lampung","city":"Pringsewu","district":"Ambarawa","urban":"Kresnomulyo","postal_code":35376},{"province":"Lampung","city":"Pringsewu","district":"Ambarawa","urban":"Margodadi","postal_code":35376},{"province":"Lampung","city":"Pringsewu","district":"Pagelaran Utara","urban":"Madaraya","postal_code":35376},{"province":"Lampung","city":"Pringsewu","district":"Pagelaran Utara","urban":"Kemilin","postal_code":35376},{"province":"Lampung","city":"Pringsewu","district":"Ambarawa","urban":"Jati Agung","postal_code":35376},{"province":"Lampung","city":"Pringsewu","district":"Pagelaran","urban":"Karangsari","postal_code":35376},{"province":"Lampung","city":"Pringsewu","district":"Pagelaran Utara","urban":"Gunung Raya","postal_code":35376},{"province":"Lampung","city":"Pringsewu","district":"Pagelaran","urban":"Gumuk Rejo","postal_code":35376},{"province":"Lampung","city":"Pringsewu","district":"Pagelaran Utara","urban":"Giri Tunggal","postal_code":35376},{"province":"Lampung","city":"Pringsewu","district":"Pagelaran","urban":"Gumuk Mas","postal_code":35376},{"province":"Lampung","city":"Pringsewu","district":"Pagelaran","urban":"Ganjaran","postal_code":35376},{"province":"Lampung","city":"Pringsewu","district":"Pagelaran","urban":"Gemah Ripah","postal_code":35376},{"province":"Lampung","city":"Pringsewu","district":"Pagelaran Utara","urban":"Fajar Baru","postal_code":35376},{"province":"Lampung","city":"Pringsewu","district":"Pagelaran Utara","urban":"Fajar Mulya / Mulia","postal_code":35376},{"province":"Lampung","city":"Pringsewu","district":"Pagelaran","urban":"Bumi Rejo","postal_code":35376},{"province":"Lampung","city":"Pringsewu","district":"Pagelaran","urban":"Candi Retno","postal_code":35376},{"province":"Lampung","city":"Pringsewu","district":"Ambarawa","urban":"Ambarawa Timur","postal_code":35376},{"province":"Lampung","city":"Pringsewu","district":"Pagelaran","urban":"Bumi Ratu","postal_code":35376},{"province":"Lampung","city":"Pringsewu","district":"Ambarawa","urban":"Ambarawa","postal_code":35376},{"province":"Lampung","city":"Pringsewu","district":"Ambarawa","urban":"Ambarawa Barat","postal_code":35376}]