[{"province":"Lampung","city":"Pesawaran","district":"Marga Punduh","urban":"Umbul Limus","postal_code":35453},{"province":"Lampung","city":"Pesawaran","district":"Marga Punduh","urban":"Tajur","postal_code":35453},{"province":"Lampung","city":"Pesawaran","district":"Punduh Pidada (Pedada)","urban":"Sukarame","postal_code":35453},{"province":"Lampung","city":"Pesawaran","district":"Punduh Pidada (Pedada)","urban":"Sukamaju","postal_code":35453},{"province":"Lampung","city":"Pesawaran","district":"Marga Punduh","urban":"Suka Jaya Punduh","postal_code":35453},{"province":"Lampung","city":"Pesawaran","district":"Punduh Pidada (Pedada)","urban":"Suka Jaya Pidada","postal_code":35453},{"province":"Lampung","city":"Pesawaran","district":"Punduh Pidada (Pedada)","urban":"Rusaba","postal_code":35453},{"province":"Lampung","city":"Pesawaran","district":"Marga Punduh","urban":"Pulau Pahawang","postal_code":35453},{"province":"Lampung","city":"Pesawaran","district":"Punduh Pidada (Pedada)","urban":"Pulau Legundi","postal_code":35453},{"province":"Lampung","city":"Pesawaran","district":"Marga Punduh","urban":"Penyandingan","postal_code":35453},{"province":"Lampung","city":"Pesawaran","district":"Marga Punduh","urban":"Pekon Ampai","postal_code":35453},{"province":"Lampung","city":"Pesawaran","district":"Marga Punduh","urban":"Pekon Ampai","postal_code":35453},{"province":"Lampung","city":"Pesawaran","district":"Marga Punduh","urban":"Maja","postal_code":35453},{"province":"Lampung","city":"Pesawaran","district":"Marga Punduh","urban":"Kunyaian","postal_code":35453},{"province":"Lampung","city":"Pesawaran","district":"Punduh Pidada (Pedada)","urban":"Kota Jawa","postal_code":35453},{"province":"Lampung","city":"Pesawaran","district":"Marga Punduh","urban":"Kekatang","postal_code":35453},{"province":"Lampung","city":"Pesawaran","district":"Marga Punduh","urban":"Kampung Baru","postal_code":35453},{"province":"Lampung","city":"Pesawaran","district":"Punduh Pidada (Pedada)","urban":"Bawang","postal_code":35453},{"province":"Lampung","city":"Pesawaran","district":"Punduh Pidada (Pedada)","urban":"Batu Raja","postal_code":35453},{"province":"Lampung","city":"Pesawaran","district":"Punduh Pidada (Pedada)","urban":"Banding Agung","postal_code":35453}]