[{"province":"Lampung","city":"Pesawaran","district":"Padang Cermin","urban":"Way Urang","postal_code":35451},{"province":"Lampung","city":"Pesawaran","district":"Padang Cermin","urban":"Wates Way Ratai","postal_code":35451},{"province":"Lampung","city":"Pesawaran","district":"Padang Cermin","urban":"Trimulyo","postal_code":35451},{"province":"Lampung","city":"Pesawaran","district":"Padang Cermin","urban":"Tanjung Agung","postal_code":35451},{"province":"Lampung","city":"Pesawaran","district":"Padang Cermin","urban":"Tambangan","postal_code":35451},{"province":"Lampung","city":"Pesawaran","district":"Padang Cermin","urban":"Sumber Jaya","postal_code":35451},{"province":"Lampung","city":"Pesawaran","district":"Padang Cermin","urban":"Talang Mulyo","postal_code":35451},{"province":"Lampung","city":"Pesawaran","district":"Padang Cermin","urban":"Sidodadi","postal_code":35451},{"province":"Lampung","city":"Pesawaran","district":"Padang Cermin","urban":"Sukajaya Lempasing","postal_code":35451},{"province":"Lampung","city":"Pesawaran","district":"Padang Cermin","urban":"Poncorejo","postal_code":35451},{"province":"Lampung","city":"Pesawaran","district":"Padang Cermin","urban":"Sanggi","postal_code":35451},{"province":"Lampung","city":"Pesawaran","district":"Padang Cermin","urban":"Pesawaran Indah","postal_code":35451},{"province":"Lampung","city":"Pesawaran","district":"Padang Cermin","urban":"Paya","postal_code":35451},{"province":"Lampung","city":"Pesawaran","district":"Padang Cermin","urban":"Padang Cermin","postal_code":35451},{"province":"Lampung","city":"Pesawaran","district":"Padang Cermin","urban":"Munca","postal_code":35451},{"province":"Lampung","city":"Pesawaran","district":"Padang Cermin","urban":"Mulyosari","postal_code":35451},{"province":"Lampung","city":"Pesawaran","district":"Padang Cermin","urban":"Khepong Jaya","postal_code":35451},{"province":"Lampung","city":"Pesawaran","district":"Padang Cermin","urban":"Hurun","postal_code":35451},{"province":"Lampung","city":"Pesawaran","district":"Padang Cermin","urban":"Harapan Jaya","postal_code":35451},{"province":"Lampung","city":"Pesawaran","district":"Padang Cermin","urban":"Hanura","postal_code":35451},{"province":"Lampung","city":"Pesawaran","district":"Padang Cermin","urban":"Hanau Berak","postal_code":35451},{"province":"Lampung","city":"Pesawaran","district":"Padang Cermin","urban":"Gunung Rejo","postal_code":35451},{"province":"Lampung","city":"Pesawaran","district":"Padang Cermin","urban":"Gebang","postal_code":35451},{"province":"Lampung","city":"Pesawaran","district":"Padang Cermin","urban":"Durian","postal_code":35451},{"province":"Lampung","city":"Pesawaran","district":"Padang Cermin","urban":"Cilimus","postal_code":35451},{"province":"Lampung","city":"Pesawaran","district":"Padang Cermin","urban":"Ceringin Sari","postal_code":35451},{"province":"Lampung","city":"Pesawaran","district":"Padang Cermin","urban":"Bunut","postal_code":35451},{"province":"Lampung","city":"Pesawaran","district":"Padang Cermin","urban":"Bunut Seberang","postal_code":35451},{"province":"Lampung","city":"Pesawaran","district":"Padang Cermin","urban":"Batu Menyan","postal_code":35451},{"province":"Lampung","city":"Pesawaran","district":"Padang Cermin","urban":"Banjaran","postal_code":35451}]