[{"province":"Lampung","city":"Lampung Selatan","district":"Sragi","urban":"Sumber Sari","postal_code":35597},{"province":"Lampung","city":"Lampung Selatan","district":"Sragi","urban":"Sumber Agung","postal_code":35597},{"province":"Lampung","city":"Lampung Selatan","district":"Sragi","urban":"Margasari","postal_code":35597},{"province":"Lampung","city":"Lampung Selatan","district":"Sragi","urban":"Sukapura","postal_code":35597},{"province":"Lampung","city":"Lampung Selatan","district":"Sragi","urban":"Mandalasari","postal_code":35597},{"province":"Lampung","city":"Lampung Selatan","district":"Sragi","urban":"Margajasa","postal_code":35597},{"province":"Lampung","city":"Lampung Selatan","district":"Sragi","urban":"Bandar Agung","postal_code":35597},{"province":"Lampung","city":"Lampung Selatan","district":"Sragi","urban":"Kedaung","postal_code":35597},{"province":"Lampung","city":"Lampung Selatan","district":"Sragi","urban":"Kuala Sekampung","postal_code":35597},{"province":"Lampung","city":"Lampung Selatan","district":"Sragi","urban":"Bakti Rasa","postal_code":35597}]