[{"province":"Lampung","city":"Pringsewu","district":"Adi Luwih","urban":"Waringinsari Timur","postal_code":35674},{"province":"Lampung","city":"Pringsewu","district":"Sukoharjo","urban":"Waringin Sari Barat","postal_code":35674},{"province":"Lampung","city":"Pringsewu","district":"Adi Luwih","urban":"Totokarto","postal_code":35674},{"province":"Lampung","city":"Pringsewu","district":"Adi Luwih","urban":"Tritunggal Mulya","postal_code":35674},{"province":"Lampung","city":"Pringsewu","district":"Adi Luwih","urban":"Tunggul Pawenang","postal_code":35674},{"province":"Lampung","city":"Pringsewu","district":"Adi Luwih","urban":"Sukoharum","postal_code":35674},{"province":"Lampung","city":"Pringsewu","district":"Sukoharjo","urban":"Sukoyoso","postal_code":35674},{"province":"Lampung","city":"Pringsewu","district":"Sukoharjo","urban":"Sukoharjo III Barat","postal_code":35674},{"province":"Lampung","city":"Pringsewu","district":"Sukoharjo","urban":"Sukoharjo IV","postal_code":35674},{"province":"Lampung","city":"Pringsewu","district":"Sukoharjo","urban":"Sukoharjo I","postal_code":35674},{"province":"Lampung","city":"Pringsewu","district":"Sukoharjo","urban":"Sukoharjo II","postal_code":35674},{"province":"Lampung","city":"Pringsewu","district":"Sukoharjo","urban":"Sukoharjo III","postal_code":35674},{"province":"Lampung","city":"Pringsewu","district":"Adi Luwih","urban":"Sinar Waya","postal_code":35674},{"province":"Lampung","city":"Pringsewu","district":"Adi Luwih","urban":"Srikaton","postal_code":35674},{"province":"Lampung","city":"Pringsewu","district":"Sukoharjo","urban":"Sinar Baru","postal_code":35674},{"province":"Lampung","city":"Pringsewu","district":"Sukoharjo","urban":"Sinar Baru Timur","postal_code":35674},{"province":"Lampung","city":"Pringsewu","district":"Adi Luwih","urban":"Purwodadi","postal_code":35674},{"province":"Lampung","city":"Pringsewu","district":"Sukoharjo","urban":"Panggung Rejo Utara","postal_code":35674},{"province":"Lampung","city":"Pringsewu","district":"Sukoharjo","urban":"Siliwangi","postal_code":35674},{"province":"Lampung","city":"Pringsewu","district":"Sukoharjo","urban":"Pandan Surat","postal_code":35674},{"province":"Lampung","city":"Pringsewu","district":"Sukoharjo","urban":"Panggung Rejo","postal_code":35674},{"province":"Lampung","city":"Pringsewu","district":"Sukoharjo","urban":"Pandan Sari","postal_code":35674},{"province":"Lampung","city":"Pringsewu","district":"Sukoharjo","urban":"Pandan Sari Selatan","postal_code":35674},{"province":"Lampung","city":"Pringsewu","district":"Sukoharjo","urban":"Keputran","postal_code":35674},{"province":"Lampung","city":"Pringsewu","district":"Adi Luwih","urban":"Kuta Waringin","postal_code":35674},{"province":"Lampung","city":"Pringsewu","district":"Adi Luwih","urban":"Enggal Rejo","postal_code":35674},{"province":"Lampung","city":"Pringsewu","district":"Adi Luwih","urban":"Bandung Baru","postal_code":35674},{"province":"Lampung","city":"Pringsewu","district":"Adi Luwih","urban":"Bandung Baru Barat","postal_code":35674},{"province":"Lampung","city":"Pringsewu","district":"Adi Luwih","urban":"Adi Luwih","postal_code":35674}]