[{"province":"Lampung","city":"Pringsewu","district":"Pardasuka","urban":"Wargo/Warga Mulyo","postal_code":35682},{"province":"Lampung","city":"Pringsewu","district":"Pardasuka","urban":"Tanjung Rusia Timur","postal_code":35682},{"province":"Lampung","city":"Pringsewu","district":"Pardasuka","urban":"Sukorejo","postal_code":35682},{"province":"Lampung","city":"Pringsewu","district":"Pardasuka","urban":"Tanjung Rusia","postal_code":35682},{"province":"Lampung","city":"Pringsewu","district":"Pardasuka","urban":"Sukanegeri (Sukanegara)","postal_code":35682},{"province":"Lampung","city":"Pringsewu","district":"Pardasuka","urban":"Selapan","postal_code":35682},{"province":"Lampung","city":"Pringsewu","district":"Pardasuka","urban":"Sidodadi","postal_code":35682},{"province":"Lampung","city":"Pringsewu","district":"Pardasuka","urban":"Pujodadi","postal_code":35682},{"province":"Lampung","city":"Pringsewu","district":"Pardasuka","urban":"Rantau Tijang","postal_code":35682},{"province":"Lampung","city":"Pringsewu","district":"Pardasuka","urban":"Pardasuka Selatan","postal_code":35682},{"province":"Lampung","city":"Pringsewu","district":"Pardasuka","urban":"Pardasuka Timur","postal_code":35682},{"province":"Lampung","city":"Pringsewu","district":"Pardasuka","urban":"Pardasuka","postal_code":35682},{"province":"Lampung","city":"Pringsewu","district":"Pardasuka","urban":"Kedaung","postal_code":35682},{"province":"Lampung","city":"Tanggamus","district":"Bulok","urban":"Tanjungsari","postal_code":35682},{"province":"Lampung","city":"Tanggamus","district":"Bulok","urban":"Sukarama (Sukamara)","postal_code":35682},{"province":"Lampung","city":"Tanggamus","district":"Bulok","urban":"Suka Agung Timur","postal_code":35682},{"province":"Lampung","city":"Tanggamus","district":"Bulok","urban":"Sukanegara (Suka Negeri)","postal_code":35682},{"province":"Lampung","city":"Tanggamus","district":"Bulok","urban":"Sinarpetir","postal_code":35682},{"province":"Lampung","city":"Tanggamus","district":"Bulok","urban":"Suka Agung Barat","postal_code":35682},{"province":"Lampung","city":"Tanggamus","district":"Bulok","urban":"Pematang Nebak","postal_code":35682},{"province":"Lampung","city":"Tanggamus","district":"Bulok","urban":"Napal","postal_code":35682},{"province":"Lampung","city":"Tanggamus","district":"Bulok","urban":"Banjar Masin","postal_code":35682},{"province":"Lampung","city":"Tanggamus","district":"Bulok","urban":"Gunung Terang","postal_code":35682}]