[{"province":"Jambi","city":"Muaro Jambi","district":"Jambi Luar Kota","urban":"Sungai Duren","postal_code":36361},{"province":"Jambi","city":"Muaro Jambi","district":"Jambi Luar Kota","urban":"Simpang Sungai/Sei Duren","postal_code":36361},{"province":"Jambi","city":"Muaro Jambi","district":"Jambi Luar Kota","urban":"Sungai Bertam","postal_code":36361},{"province":"Jambi","city":"Muaro Jambi","district":"Jambi Luar Kota","urban":"Senaung","postal_code":36361},{"province":"Jambi","city":"Muaro Jambi","district":"Jambi Luar Kota","urban":"Simpang Limo","postal_code":36361},{"province":"Jambi","city":"Muaro Jambi","district":"Jambi Luar Kota","urban":"Sembubuk","postal_code":36361},{"province":"Jambi","city":"Muaro Jambi","district":"Jambi Luar Kota","urban":"Rengas Bandung","postal_code":36361},{"province":"Jambi","city":"Muaro Jambi","district":"Jambi Luar Kota","urban":"Sarang Burung","postal_code":36361},{"province":"Jambi","city":"Muaro Jambi","district":"Jambi Luar Kota","urban":"Penyengat Olak","postal_code":36361},{"province":"Jambi","city":"Muaro Jambi","district":"Jambi Luar Kota","urban":"Pijoan","postal_code":36361},{"province":"Jambi","city":"Muaro Jambi","district":"Jambi Luar Kota","urban":"Pematang Jering","postal_code":36361},{"province":"Jambi","city":"Muaro Jambi","district":"Jambi Luar Kota","urban":"Muhajirin","postal_code":36361},{"province":"Jambi","city":"Muaro Jambi","district":"Jambi Luar Kota","urban":"Pematang Gajah","postal_code":36361},{"province":"Jambi","city":"Muaro Jambi","district":"Jambi Luar Kota","urban":"Mendalo Laut","postal_code":36361},{"province":"Jambi","city":"Muaro Jambi","district":"Jambi Luar Kota","urban":"Muara Pijoan (Muaro Pijoan)","postal_code":36361},{"province":"Jambi","city":"Muaro Jambi","district":"Jambi Luar Kota","urban":"Kademangan","postal_code":36361},{"province":"Jambi","city":"Muaro Jambi","district":"Jambi Luar Kota","urban":"Mendalo Darat","postal_code":36361},{"province":"Jambi","city":"Muaro Jambi","district":"Jambi Luar Kota","urban":"Mendalo Indah","postal_code":36361},{"province":"Jambi","city":"Muaro Jambi","district":"Jambi Luar Kota","urban":"Danau Sarang Elang","postal_code":36361}]