[{"province":"Jambi","city":"Muaro Jambi","district":"Sungai Gelam","urban":"Trimulya Jaya","postal_code":36373},{"province":"Jambi","city":"Muaro Jambi","district":"Kumpeh Ulu","urban":"Teluk Raya","postal_code":36373},{"province":"Jambi","city":"Muaro Jambi","district":"Kumpeh Ulu","urban":"Tarikan","postal_code":36373},{"province":"Jambi","city":"Muaro Jambi","district":"Sungai Gelam","urban":"Tangkit","postal_code":36373},{"province":"Jambi","city":"Muaro Jambi","district":"Sungai Gelam","urban":"Tangkit Baru","postal_code":36373},{"province":"Jambi","city":"Muaro Jambi","district":"Kumpeh Ulu","urban":"Sungai Terap","postal_code":36373},{"province":"Jambi","city":"Muaro Jambi","district":"Sungai Gelam","urban":"Sungai Gelam","postal_code":36373},{"province":"Jambi","city":"Muaro Jambi","district":"Kumpeh Ulu","urban":"Solok","postal_code":36373},{"province":"Jambi","city":"Muaro Jambi","district":"Sungai Gelam","urban":"Sumber Agung","postal_code":36373},{"province":"Jambi","city":"Muaro Jambi","district":"Bahar Utara","urban":"Sumber Jaya","postal_code":36373},{"province":"Jambi","city":"Muaro Jambi","district":"Kumpeh Ulu","urban":"Sakean","postal_code":36373},{"province":"Jambi","city":"Muaro Jambi","district":"Kumpeh Ulu","urban":"Sipin Teluk Duren","postal_code":36373},{"province":"Jambi","city":"Muaro Jambi","district":"Sungai Gelam","urban":"Sido Mukti","postal_code":36373},{"province":"Jambi","city":"Muaro Jambi","district":"Kumpeh Ulu","urban":"Pudak","postal_code":36373},{"province":"Jambi","city":"Muaro Jambi","district":"Kumpeh Ulu","urban":"Ramin","postal_code":36373},{"province":"Jambi","city":"Muaro Jambi","district":"Sungai Gelam","urban":"Parit","postal_code":36373},{"province":"Jambi","city":"Muaro Jambi","district":"Sungai Gelam","urban":"Petaling Jaya","postal_code":36373},{"province":"Jambi","city":"Muaro Jambi","district":"Kumpeh Ulu","urban":"Pemunduran","postal_code":36373},{"province":"Jambi","city":"Muaro Jambi","district":"Sungai Gelam","urban":"Mekar Jaya","postal_code":36373},{"province":"Jambi","city":"Muaro Jambi","district":"Sungai Gelam","urban":"Mingkung Jay","postal_code":36373},{"province":"Jambi","city":"Muaro Jambi","district":"Kumpeh Ulu","urban":"Muara Kumpeh","postal_code":36373},{"province":"Jambi","city":"Muaro Jambi","district":"Kumpeh Ulu","urban":"Kota/Koto Karang","postal_code":36373},{"province":"Jambi","city":"Muaro Jambi","district":"Kumpeh Ulu","urban":"Lopak Alai","postal_code":36373},{"province":"Jambi","city":"Muaro Jambi","district":"Kumpeh Ulu","urban":"Kasang Kumpeh","postal_code":36373},{"province":"Jambi","city":"Muaro Jambi","district":"Kumpeh Ulu","urban":"Kasang Pudak","postal_code":36373},{"province":"Jambi","city":"Muaro Jambi","district":"Kumpeh Ulu","urban":"Kasang Lopak Alai","postal_code":36373},{"province":"Jambi","city":"Muaro Jambi","district":"Kumpeh Ulu","urban":"Arang Arang","postal_code":36373},{"province":"Jambi","city":"Muaro Jambi","district":"Kumpeh Ulu","urban":"Kasang Kota Karang","postal_code":36373}]