[{"province":"Jambi","city":"Muaro Jambi","district":"Taman Rajo / Rejo","urban":"Teluk Jambu","postal_code":36382},{"province":"Jambi","city":"Muaro Jambi","district":"Maro Sebo","urban":"Tanjung Katung","postal_code":36382},{"province":"Jambi","city":"Muaro Jambi","district":"Taman Rajo / Rejo","urban":"Tebat Patah","postal_code":36382},{"province":"Jambi","city":"Muaro Jambi","district":"Maro Sebo","urban":"Setiris","postal_code":36382},{"province":"Jambi","city":"Muaro Jambi","district":"Taman Rajo / Rejo","urban":"Sekumbung","postal_code":36382},{"province":"Jambi","city":"Muaro Jambi","district":"Taman Rajo / Rejo","urban":"Talang Duku","postal_code":36382},{"province":"Jambi","city":"Muaro Jambi","district":"Maro Sebo","urban":"Mudung Darat","postal_code":36382},{"province":"Jambi","city":"Muaro Jambi","district":"Maro Sebo","urban":"Niaso","postal_code":36382},{"province":"Jambi","city":"Muaro Jambi","district":"Taman Rajo / Rejo","urban":"Mudo","postal_code":36382},{"province":"Jambi","city":"Muaro Jambi","district":"Jambi Luar Kota","urban":"Maro Sebo","postal_code":36382},{"province":"Jambi","city":"Muaro Jambi","district":"Maro Sebo","urban":"Lubuk Raman","postal_code":36382},{"province":"Jambi","city":"Muaro Jambi","district":"Maro Sebo","urban":"Muara/Muaro Jambi","postal_code":36382},{"province":"Jambi","city":"Muaro Jambi","district":"Taman Rajo / Rejo","urban":"Kemingking Luar","postal_code":36382},{"province":"Jambi","city":"Muaro Jambi","district":"Taman Rajo / Rejo","urban":"Kunangan","postal_code":36382},{"province":"Jambi","city":"Muaro Jambi","district":"Taman Rajo / Rejo","urban":"Kemingking Dalam","postal_code":36382},{"province":"Jambi","city":"Muaro Jambi","district":"Maro Sebo","urban":"Jambi Kecil","postal_code":36382},{"province":"Jambi","city":"Muaro Jambi","district":"Maro Sebo","urban":"Jambi Kulo/Tulo","postal_code":36382},{"province":"Jambi","city":"Muaro Jambi","district":"Maro Sebo","urban":"Danau Lamo","postal_code":36382},{"province":"Jambi","city":"Muaro Jambi","district":"Maro Sebo","urban":"Baru","postal_code":36382},{"province":"Jambi","city":"Muaro Jambi","district":"Maro Sebo","urban":"Danau Kedap","postal_code":36382},{"province":"Jambi","city":"Muaro Jambi","district":"Maro Sebo","urban":"Bakung","postal_code":36382}]