[{"province":"Jambi","city":"Tanjung Jabung Barat","district":"Seberang Kota","urban":"Tungkal Empat (IV) Desa","postal_code":36514},{"province":"Jambi","city":"Tanjung Jabung Barat","district":"Seberang Kota","urban":"Tungkal Lima (V)","postal_code":36514},{"province":"Jambi","city":"Tanjung Jabung Barat","district":"Seberang Kota","urban":"Teluk Pulai Raya","postal_code":36514},{"province":"Jambi","city":"Tanjung Jabung Barat","district":"Bram Itam","urban":"Tanjung Senjulang","postal_code":36514},{"province":"Jambi","city":"Tanjung Jabung Barat","district":"Bram Itam","urban":"Pembengis","postal_code":36514},{"province":"Jambi","city":"Tanjung Jabung Barat","district":"Bram Itam","urban":"Semau","postal_code":36514},{"province":"Jambi","city":"Tanjung Jabung Barat","district":"Bram Itam","urban":"Mekar Tanjung","postal_code":36514},{"province":"Jambi","city":"Tanjung Jabung Barat","district":"Bram Itam","urban":"Pantai Gading","postal_code":36514},{"province":"Jambi","city":"Tanjung Jabung Barat","district":"Seberang Kota","urban":"Kuala Baru","postal_code":36514},{"province":"Jambi","city":"Tanjung Jabung Barat","district":"Bram Itam","urban":"Jati Emas","postal_code":36514},{"province":"Jambi","city":"Tanjung Jabung Barat","district":"Bram Itam","urban":"Kemuning","postal_code":36514},{"province":"Jambi","city":"Tanjung Jabung Barat","district":"Bram Itam","urban":"Bram Itan Kanan (Beram Itam)","postal_code":36514},{"province":"Jambi","city":"Tanjung Jabung Barat","district":"Bram Itam","urban":"Bram Itan Kiri (Beram Itam)","postal_code":36514},{"province":"Jambi","city":"Tanjung Jabung Barat","district":"Bram Itam","urban":"Bram Itam Raya","postal_code":36514}]