[{"province":"Jambi","city":"Tanjung Jabung Barat","district":"Merlung","urban":"Tanjung Makmur","postal_code":36554},{"province":"Jambi","city":"Tanjung Jabung Barat","district":"Merlung","urban":"Tanjung Paku","postal_code":36554},{"province":"Jambi","city":"Tanjung Jabung Barat","district":"Renah Mendaluh","urban":"Tanah Tumbuh","postal_code":36554},{"province":"Jambi","city":"Tanjung Jabung Barat","district":"Merlung","urban":"Tanjung Benanak","postal_code":36554},{"province":"Jambi","city":"Tanjung Jabung Barat","district":"Muara Papalik","urban":"Sungai Papauh","postal_code":36554},{"province":"Jambi","city":"Tanjung Jabung Barat","district":"Renah Mendaluh","urban":"Sungai Pau","postal_code":36554},{"province":"Jambi","city":"Tanjung Jabung Barat","district":"Muara Papalik","urban":"Sungai Muluk","postal_code":36554},{"province":"Jambi","city":"Tanjung Jabung Barat","district":"Renah Mendaluh","urban":"Rantau Benar","postal_code":36554},{"province":"Jambi","city":"Tanjung Jabung Barat","district":"Renah Mendaluh","urban":"Sei/Sungai Rotan","postal_code":36554},{"province":"Jambi","city":"Tanjung Jabung Barat","district":"Muara Papalik","urban":"Rantau Badak Lamo","postal_code":36554},{"province":"Jambi","city":"Tanjung Jabung Barat","district":"Renah Mendaluh","urban":"Pulau Pauh","postal_code":36554},{"province":"Jambi","city":"Tanjung Jabung Barat","district":"Muara Papalik","urban":"Rantau Badak","postal_code":36554},{"province":"Jambi","city":"Tanjung Jabung Barat","district":"Merlung","urban":"Penyabungan","postal_code":36554},{"province":"Jambi","city":"Tanjung Jabung Barat","district":"Merlung","urban":"Pinang Gading","postal_code":36554},{"province":"Jambi","city":"Tanjung Jabung Barat","district":"Muara Papalik","urban":"Pematang Balam","postal_code":36554},{"province":"Jambi","city":"Tanjung Jabung Barat","district":"Renah Mendaluh","urban":"Muara Danau","postal_code":36554},{"province":"Jambi","city":"Tanjung Jabung Barat","district":"Merlung","urban":"Lubuk Terap","postal_code":36554},{"province":"Jambi","city":"Tanjung Jabung Barat","district":"Merlung","urban":"Merlung (Desa)","postal_code":36554},{"province":"Jambi","city":"Tanjung Jabung Barat","district":"Merlung","urban":"Merlung (Kelurahan)","postal_code":36554},{"province":"Jambi","city":"Tanjung Jabung Barat","district":"Renah Mendaluh","urban":"Lubuk Kambing","postal_code":36554},{"province":"Jambi","city":"Tanjung Jabung Barat","district":"Muara Papalik","urban":"Lubuk Sebontan","postal_code":36554},{"province":"Jambi","city":"Tanjung Jabung Barat","district":"Muara Papalik","urban":"Kemang Manis","postal_code":36554},{"province":"Jambi","city":"Tanjung Jabung Barat","district":"Renah Mendaluh","urban":"Lampisi","postal_code":36554},{"province":"Jambi","city":"Tanjung Jabung Barat","district":"Muara Papalik","urban":"Dusun Mudo","postal_code":36554},{"province":"Jambi","city":"Tanjung Jabung Barat","district":"Muara Papalik","urban":"Intan Jaya","postal_code":36554},{"province":"Jambi","city":"Tanjung Jabung Barat","district":"Muara Papalik","urban":"Bukit Indah","postal_code":36554},{"province":"Jambi","city":"Tanjung Jabung Barat","district":"Renah Mendaluh","urban":"Cinta Damai","postal_code":36554},{"province":"Jambi","city":"Tanjung Jabung Barat","district":"Merlung","urban":"Bukit Harapan","postal_code":36554},{"province":"Jambi","city":"Tanjung Jabung Barat","district":"Renah Mendaluh","urban":"Bukit Bakar","postal_code":36554},{"province":"Jambi","city":"Tanjung Jabung Barat","district":"Merlung","urban":"Adi Purwa","postal_code":36554}]