[{"province":"Jambi","city":"Tanjung Jabung Barat","district":"Pengabuan","urban":"Teluk Nilau","postal_code":36553},{"province":"Jambi","city":"Tanjung Jabung Barat","district":"Senyerang","urban":"Teluk Ketapang","postal_code":36553},{"province":"Jambi","city":"Tanjung Jabung Barat","district":"Pengabuan","urban":"Sungai Raya","postal_code":36553},{"province":"Jambi","city":"Tanjung Jabung Barat","district":"Senyerang","urban":"Sungsang","postal_code":36553},{"province":"Jambi","city":"Tanjung Jabung Barat","district":"Pengabuan","urban":"Sungai Pampang","postal_code":36553},{"province":"Jambi","city":"Tanjung Jabung Barat","district":"Senyerang","urban":"Sungai Rambai","postal_code":36553},{"province":"Jambi","city":"Tanjung Jabung Barat","district":"Senyerang","urban":"Sungai Kepayang","postal_code":36553},{"province":"Jambi","city":"Tanjung Jabung Barat","district":"Senyerang","urban":"Sungai Landak","postal_code":36553},{"province":"Jambi","city":"Tanjung Jabung Barat","district":"Pengabuan","urban":"Sungai Jering","postal_code":36553},{"province":"Jambi","city":"Tanjung Jabung Barat","district":"Senyerang","urban":"Sungai Kayu Aro","postal_code":36553},{"province":"Jambi","city":"Tanjung Jabung Barat","district":"Pengabuan","urban":"Suak Samin","postal_code":36553},{"province":"Jambi","city":"Tanjung Jabung Barat","district":"Pengabuan","urban":"Sungai Baung","postal_code":36553},{"province":"Jambi","city":"Tanjung Jabung Barat","district":"Pengabuan","urban":"Sei/Sungai Serindit","postal_code":36553},{"province":"Jambi","city":"Tanjung Jabung Barat","district":"Senyerang","urban":"Senyerang","postal_code":36553},{"province":"Jambi","city":"Tanjung Jabung Barat","district":"Pengabuan","urban":"Pasar Senin","postal_code":36553},{"province":"Jambi","city":"Tanjung Jabung Barat","district":"Pengabuan","urban":"Parit Sidang","postal_code":36553},{"province":"Jambi","city":"Tanjung Jabung Barat","district":"Pengabuan","urban":"Parit Bilal","postal_code":36553},{"province":"Jambi","city":"Tanjung Jabung Barat","district":"Pengabuan","urban":"Parit Pudin","postal_code":36553},{"province":"Jambi","city":"Tanjung Jabung Barat","district":"Senyerang","urban":"Margo Rukun","postal_code":36553},{"province":"Jambi","city":"Tanjung Jabung Barat","district":"Pengabuan","urban":"Mekar Jati","postal_code":36553},{"province":"Jambi","city":"Tanjung Jabung Barat","district":"Senyerang","urban":"Lumahan","postal_code":36553},{"province":"Jambi","city":"Tanjung Jabung Barat","district":"Senyerang","urban":"Kempas Jaya","postal_code":36553},{"province":"Jambi","city":"Tanjung Jabung Barat","district":"Pengabuan","urban":"Karya Maju","postal_code":36553}]