[{"province":"Jambi","city":"Tanjung Jabung Barat","district":"Tungkal Ilir","urban":"Tungkal I","postal_code":36555},{"province":"Jambi","city":"Tanjung Jabung Barat","district":"Tungkal Ilir","urban":"Tungkal II","postal_code":36555},{"province":"Jambi","city":"Tanjung Jabung Barat","district":"Tungkal Ilir","urban":"Tungkal III","postal_code":36555},{"province":"Jambi","city":"Tanjung Jabung Barat","district":"Tungkal Ilir","urban":"Tungkal Empat Kota","postal_code":36555},{"province":"Jambi","city":"Tanjung Jabung Barat","district":"Tungkal Ilir","urban":"Tungkal Harapan","postal_code":36555},{"province":"Jambi","city":"Tanjung Jabung Barat","district":"Tungkal Ilir","urban":"Teluk Sialang","postal_code":36555},{"province":"Jambi","city":"Tanjung Jabung Barat","district":"Betara","urban":"Telukkulbi","postal_code":36555},{"province":"Jambi","city":"Tanjung Jabung Barat","district":"Betara","urban":"Terjun Gajah","postal_code":36555},{"province":"Jambi","city":"Tanjung Jabung Barat","district":"Kuala Betara","urban":"Tanjung Pasir","postal_code":36555},{"province":"Jambi","city":"Tanjung Jabung Barat","district":"Tungkal Ilir","urban":"Sungainibung","postal_code":36555},{"province":"Jambi","city":"Tanjung Jabung Barat","district":"Betara","urban":"Sungai Tera","postal_code":36555},{"province":"Jambi","city":"Tanjung Jabung Barat","district":"Kuala Betara","urban":"Sungai Gebar","postal_code":36555},{"province":"Jambi","city":"Tanjung Jabung Barat","district":"Kuala Betara","urban":"Sungai Gebar Barat","postal_code":36555},{"province":"Jambi","city":"Tanjung Jabung Barat","district":"Kuala Betara","urban":"Sungai Dualap","postal_code":36555},{"province":"Jambi","city":"Tanjung Jabung Barat","district":"Kuala Betara","urban":"Sungai Dungun","postal_code":36555},{"province":"Jambi","city":"Tanjung Jabung Barat","district":"Betara","urban":"Serdang Jaya","postal_code":36555},{"province":"Jambi","city":"Tanjung Jabung Barat","district":"Kuala Betara","urban":"Suak Labu","postal_code":36555},{"province":"Jambi","city":"Tanjung Jabung Barat","district":"Tungkal Ilir","urban":"Sriwijaya","postal_code":36555},{"province":"Jambi","city":"Tanjung Jabung Barat","district":"Betara","urban":"Pematang Buluh","postal_code":36555},{"province":"Jambi","city":"Tanjung Jabung Barat","district":"Betara","urban":"Pematang Lumut","postal_code":36555},{"province":"Jambi","city":"Tanjung Jabung Barat","district":"Betara","urban":"Muntialo","postal_code":36555},{"province":"Jambi","city":"Tanjung Jabung Barat","district":"Tungkal Ilir","urban":"Patunas","postal_code":36555},{"province":"Jambi","city":"Tanjung Jabung Barat","district":"Betara","urban":"Mandala Jaya","postal_code":36555},{"province":"Jambi","city":"Tanjung Jabung Barat","district":"Betara","urban":"Mekar Jaya","postal_code":36555},{"province":"Jambi","city":"Tanjung Jabung Barat","district":"Betara","urban":"Lubuk Terentang","postal_code":36555},{"province":"Jambi","city":"Tanjung Jabung Barat","district":"Betara","urban":"Makmur Jaya","postal_code":36555},{"province":"Jambi","city":"Tanjung Jabung Barat","district":"Kuala Betara","urban":"Kuala Indah","postal_code":36555},{"province":"Jambi","city":"Tanjung Jabung Barat","district":"Tungkal Ilir","urban":"Kampung Nelayan","postal_code":36555},{"province":"Jambi","city":"Tanjung Jabung Barat","district":"Kuala Betara","urban":"Dataran Pinang","postal_code":36555},{"province":"Jambi","city":"Tanjung Jabung Barat","district":"Betara","urban":"Bunga Tanjung","postal_code":36555},{"province":"Jambi","city":"Tanjung Jabung Barat","district":"Kuala Betara","urban":"Betara Kanan","postal_code":36555},{"province":"Jambi","city":"Tanjung Jabung Barat","district":"Kuala Betara","urban":"Betara Kiri","postal_code":36555}]