[{"province":"Jambi","city":"Tanjung Jabung Barat","district":"Tebing Tinggi","urban":"Tebing Tinggi","postal_code":36552},{"province":"Jambi","city":"Tanjung Jabung Barat","district":"Tebing Tinggi","urban":"Telukpengkah","postal_code":36552},{"province":"Jambi","city":"Tanjung Jabung Barat","district":"Tungkal Ulu","urban":"Tanjung Tayas","postal_code":36552},{"province":"Jambi","city":"Tanjung Jabung Barat","district":"Batang Asam","urban":"Tanjung Bojo","postal_code":36552},{"province":"Jambi","city":"Tanjung Jabung Barat","district":"Tebing Tinggi","urban":"Talang Makmur","postal_code":36552},{"province":"Jambi","city":"Tanjung Jabung Barat","district":"Tungkal Ulu","urban":"Taman Raja","postal_code":36552},{"province":"Jambi","city":"Tanjung Jabung Barat","district":"Tebing Tinggi","urban":"Sungaikeruh","postal_code":36552},{"province":"Jambi","city":"Tanjung Jabung Barat","district":"Batang Asam","urban":"Sungai Badar","postal_code":36552},{"province":"Jambi","city":"Tanjung Jabung Barat","district":"Batang Asam","urban":"Sungai Penoban","postal_code":36552},{"province":"Jambi","city":"Tanjung Jabung Barat","district":"Tebing Tinggi","urban":"Sukadamai","postal_code":36552},{"province":"Jambi","city":"Tanjung Jabung Barat","district":"Batang Asam","urban":"Suban","postal_code":36552},{"province":"Jambi","city":"Tanjung Jabung Barat","district":"Batang Asam","urban":"Rawang Kempas","postal_code":36552},{"province":"Jambi","city":"Tanjung Jabung Barat","district":"Batang Asam","urban":"Sri Agung","postal_code":36552},{"province":"Jambi","city":"Tanjung Jabung Barat","district":"Tungkal Ulu","urban":"Pematang Tembesu","postal_code":36552},{"province":"Jambi","city":"Tanjung Jabung Barat","district":"Tebing Tinggi","urban":"Purwodadi","postal_code":36552},{"province":"Jambi","city":"Tanjung Jabung Barat","district":"Batang Asam","urban":"Rawa Medang","postal_code":36552},{"province":"Jambi","city":"Tanjung Jabung Barat","district":"Tungkal Ulu","urban":"Pelabuhan Dagang","postal_code":36552},{"province":"Jambi","city":"Tanjung Jabung Barat","district":"Tungkal Ulu","urban":"Pematang Pauh","postal_code":36552},{"province":"Jambi","city":"Tanjung Jabung Barat","district":"Batang Asam","urban":"Lubuk Bernai","postal_code":36552},{"province":"Jambi","city":"Tanjung Jabung Barat","district":"Batang Asam","urban":"Lubuk Lawas","postal_code":36552},{"province":"Jambi","city":"Tanjung Jabung Barat","district":"Tungkal Ulu","urban":"Kuala Dasal","postal_code":36552},{"province":"Jambi","city":"Tanjung Jabung Barat","district":"Tebing Tinggi","urban":"Kelagian","postal_code":36552},{"province":"Jambi","city":"Tanjung Jabung Barat","district":"Batang Asam","urban":"Kampung Baru","postal_code":36552},{"province":"Jambi","city":"Tanjung Jabung Barat","district":"Tungkal Ulu","urban":"Gemuruh","postal_code":36552},{"province":"Jambi","city":"Tanjung Jabung Barat","district":"Batang Asam","urban":"Dusun Kebon/Kebun","postal_code":36552},{"province":"Jambi","city":"Tanjung Jabung Barat","district":"Tungkal Ulu","urban":"Brasau","postal_code":36552},{"province":"Jambi","city":"Tanjung Jabung Barat","district":"Tebing Tinggi","urban":"Dataran Kempas","postal_code":36552},{"province":"Jambi","city":"Tanjung Jabung Barat","district":"Tebing Tinggi","urban":"Delima","postal_code":36552},{"province":"Jambi","city":"Tanjung Jabung Barat","district":"Tungkal Ulu","urban":"Badang","postal_code":36552},{"province":"Jambi","city":"Tanjung Jabung Barat","district":"Tungkal Ulu","urban":"Badang Sepakat","postal_code":36552},{"province":"Jambi","city":"Tanjung Jabung Barat","district":"Tebing Tinggi","urban":"Adi Jaya","postal_code":36552}]