[{"province":"Jambi","city":"Batang Hari","district":"Bajubang","urban":"Sungkai","postal_code":36611},{"province":"Jambi","city":"Batang Hari","district":"Muara Bulian","urban":"Sungai Buluh","postal_code":36611},{"province":"Jambi","city":"Batang Hari","district":"Muara Bulian","urban":"Tenam","postal_code":36611},{"province":"Jambi","city":"Batang Hari","district":"Muara Bulian","urban":"Singkawang","postal_code":36611},{"province":"Jambi","city":"Batang Hari","district":"Muara Bulian","urban":"Sungai Baung","postal_code":36611},{"province":"Jambi","city":"Batang Hari","district":"Muara Bulian","urban":"Simpang Terusan","postal_code":36611},{"province":"Jambi","city":"Batang Hari","district":"Muara Bulian","urban":"Rengas Condong","postal_code":36611},{"province":"Jambi","city":"Batang Hari","district":"Muara Bulian","urban":"Rambahan (Pelayangan Rambahan)","postal_code":36611},{"province":"Jambi","city":"Batang Hari","district":"Muara Bulian","urban":"Rantau Puri","postal_code":36611},{"province":"Jambi","city":"Batang Hari","district":"Bajubang","urban":"Pompa Air","postal_code":36611},{"province":"Jambi","city":"Batang Hari","district":"Bajubang","urban":"Penerokan","postal_code":36611},{"province":"Jambi","city":"Batang Hari","district":"Bajubang","urban":"Petajen (Petajin)","postal_code":36611},{"province":"Jambi","city":"Batang Hari","district":"Muara Bulian","urban":"Pasar Baru","postal_code":36611},{"province":"Jambi","city":"Batang Hari","district":"Muara Bulian","urban":"Pasar Terusan","postal_code":36611},{"province":"Jambi","city":"Batang Hari","district":"Muara Bulian","urban":"Napal Sisik","postal_code":36611},{"province":"Jambi","city":"Batang Hari","district":"Muara Bulian","urban":"Olak","postal_code":36611},{"province":"Jambi","city":"Batang Hari","district":"Muara Bulian","urban":"Muara Singoan","postal_code":36611},{"province":"Jambi","city":"Batang Hari","district":"Bajubang","urban":"Mekar Jaya","postal_code":36611},{"province":"Jambi","city":"Batang Hari","district":"Muara Bulian","urban":"Malapari","postal_code":36611},{"province":"Jambi","city":"Batang Hari","district":"Bajubang","urban":"Ladang Peris","postal_code":36611},{"province":"Jambi","city":"Batang Hari","district":"Muara Bulian","urban":"Kilangan","postal_code":36611},{"province":"Jambi","city":"Batang Hari","district":"Bajubang","urban":"Bungku","postal_code":36611},{"province":"Jambi","city":"Batang Hari","district":"Muara Bulian","urban":"Bajubang Laut","postal_code":36611},{"province":"Jambi","city":"Batang Hari","district":"Bajubang","urban":"Bajubang","postal_code":36611},{"province":"Jambi","city":"Batang Hari","district":"Bajubang","urban":"Batin","postal_code":36611},{"province":"Jambi","city":"Batang Hari","district":"Muara Bulian","urban":"Aro","postal_code":36611}]