[{"province":"Jambi","city":"Batang Hari","district":"Maro Sebo Ilir","urban":"Tidar Kuranji","postal_code":36655},{"province":"Jambi","city":"Batang Hari","district":"Maro Sebo Ilir","urban":"Terusan","postal_code":36655},{"province":"Jambi","city":"Batang Hari","district":"Maro Sebo Ulu","urban":"Teluk Leban","postal_code":36655},{"province":"Jambi","city":"Batang Hari","district":"Maro Sebo Ulu","urban":"Tebing Tinggi","postal_code":36655},{"province":"Jambi","city":"Batang Hari","district":"Maro Sebo Ulu","urban":"Sungai Ruan Ulu","postal_code":36655},{"province":"Jambi","city":"Batang Hari","district":"Maro Sebo Ulu","urban":"Sungai Lingkar","postal_code":36655},{"province":"Jambi","city":"Batang Hari","district":"Maro Sebo Ulu","urban":"Sungai Ruan Ilir","postal_code":36655},{"province":"Jambi","city":"Batang Hari","district":"Maro Sebo Ulu","urban":"Simpang Sungai Rengas","postal_code":36655},{"province":"Jambi","city":"Batang Hari","district":"Maro Sebo Ulu","urban":"Rengas Sembilan","postal_code":36655},{"province":"Jambi","city":"Batang Hari","district":"Maro Sebo Ulu","urban":"Peninjauan","postal_code":36655},{"province":"Jambi","city":"Batang Hari","district":"Maro Sebo Ulu","urban":"Padang Kelapo","postal_code":36655},{"province":"Jambi","city":"Batang Hari","district":"Maro Sebo Ulu","urban":"Olak Kemang","postal_code":36655},{"province":"Jambi","city":"Batang Hari","district":"Maro Sebo Ulu","urban":"Kembang Seri","postal_code":36655},{"province":"Jambi","city":"Batang Hari","district":"Maro Sebo Ilir","urban":"Kehidupan Baru","postal_code":36655},{"province":"Jambi","city":"Batang Hari","district":"Maro Sebo Ulu","urban":"Kampung Baru","postal_code":36655},{"province":"Jambi","city":"Batang Hari","district":"Maro Sebo Ilir","urban":"Karyamukti","postal_code":36655},{"province":"Jambi","city":"Batang Hari","district":"Maro Sebo Ilir","urban":"Danau Embat","postal_code":36655},{"province":"Jambi","city":"Batang Hari","district":"Maro Sebo Ulu","urban":"Buluh Kasab","postal_code":36655},{"province":"Jambi","city":"Batang Hari","district":"Maro Sebo Ilir","urban":"Bulian Jaya","postal_code":36655},{"province":"Jambi","city":"Batang Hari","district":"Maro Sebo Ilir","urban":"Bukit Sari","postal_code":36655},{"province":"Jambi","city":"Batang Hari","district":"Maro Sebo Ulu","urban":"Batu Sawar","postal_code":36655}]