[{"province":"Jambi","city":"Batang Hari","district":"Muara Tembesi","urban":"Tanjung Marwo","postal_code":36653},{"province":"Jambi","city":"Batang Hari","district":"Muara Tembesi","urban":"Sungai Pulau/Pulai","postal_code":36653},{"province":"Jambi","city":"Batang Hari","district":"Muara Tembesi","urban":"Rantau Kapas Tuo","postal_code":36653},{"province":"Jambi","city":"Batang Hari","district":"Muara Tembesi","urban":"Sukaramai","postal_code":36653},{"province":"Jambi","city":"Batang Hari","district":"Muara Tembesi","urban":"Rambutan Masam","postal_code":36653},{"province":"Jambi","city":"Batang Hari","district":"Muara Tembesi","urban":"Rantau Kapas Mudo","postal_code":36653},{"province":"Jambi","city":"Batang Hari","district":"Muara Tembesi","urban":"Pelayangan","postal_code":36653},{"province":"Jambi","city":"Batang Hari","district":"Muara Tembesi","urban":"Pulau","postal_code":36653},{"province":"Jambi","city":"Batang Hari","district":"Muara Tembesi","urban":"Kampung Baru","postal_code":36653},{"province":"Jambi","city":"Batang Hari","district":"Muara Tembesi","urban":"Pasar Muara Tembesi","postal_code":36653},{"province":"Jambi","city":"Batang Hari","district":"Muara Tembesi","urban":"Ampelu Mudo (Empelu)","postal_code":36653},{"province":"Jambi","city":"Batang Hari","district":"Muara Tembesi","urban":"Jebak","postal_code":36653},{"province":"Jambi","city":"Batang Hari","district":"Muara Tembesi","urban":"Ampelu (Empelu)","postal_code":36653}]