[{"province":"Jambi","city":"Tanjung Jabung Timur","district":"Kuala Jambi","urban":"Teluk Majelis","postal_code":36761},{"province":"Jambi","city":"Tanjung Jabung Timur","district":"Muara Sabak Barat","urban":"Teluk Dawan","postal_code":36761},{"province":"Jambi","city":"Tanjung Jabung Timur","district":"Muara Sabak Barat","urban":"Talang Babat","postal_code":36761},{"province":"Jambi","city":"Tanjung Jabung Timur","district":"Kuala Jambi","urban":"Tanjung Solok","postal_code":36761},{"province":"Jambi","city":"Tanjung Jabung Timur","district":"Muara Sabak Timur","urban":"Siau Dalam","postal_code":36761},{"province":"Jambi","city":"Tanjung Jabung Timur","district":"Muara Sabak Timur","urban":"Simbur Naik","postal_code":36761},{"province":"Jambi","city":"Tanjung Jabung Timur","district":"Muara Sabak Timur","urban":"Sungai Ular","postal_code":36761},{"province":"Jambi","city":"Tanjung Jabung Timur","district":"Muara Sabak Barat","urban":"Parit Culum II","postal_code":36761},{"province":"Jambi","city":"Tanjung Jabung Timur","district":"Muara Sabak Barat","urban":"Rano","postal_code":36761},{"province":"Jambi","city":"Tanjung Jabung Timur","district":"Muara Sabak Barat","urban":"Nibung Putih","postal_code":36761},{"province":"Jambi","city":"Tanjung Jabung Timur","district":"Muara Sabak Barat","urban":"Parit Culum I","postal_code":36761},{"province":"Jambi","city":"Tanjung Jabung Timur","district":"Muara Sabak Timur","urban":"Muara Sabak Ilir","postal_code":36761},{"province":"Jambi","city":"Tanjung Jabung Timur","district":"Muara Sabak Timur","urban":"Muara Sabak Ulu","postal_code":36761},{"province":"Jambi","city":"Tanjung Jabung Timur","district":"Kuala Jambi","urban":"Manunggal Makmur","postal_code":36761},{"province":"Jambi","city":"Tanjung Jabung Timur","district":"Kuala Jambi","urban":"Majelis Hidayah","postal_code":36761},{"province":"Jambi","city":"Tanjung Jabung Timur","district":"Muara Sabak Timur","urban":"Lambur","postal_code":36761},{"province":"Jambi","city":"Tanjung Jabung Timur","district":"Muara Sabak Timur","urban":"Lambur I","postal_code":36761},{"province":"Jambi","city":"Tanjung Jabung Timur","district":"Muara Sabak Timur","urban":"Lambur II","postal_code":36761},{"province":"Jambi","city":"Tanjung Jabung Timur","district":"Kuala Jambi","urban":"Kuala Lagan","postal_code":36761},{"province":"Jambi","city":"Tanjung Jabung Timur","district":"Muara Sabak Timur","urban":"Kota Raja","postal_code":36761},{"province":"Jambi","city":"Tanjung Jabung Timur","district":"Muara Sabak Timur","urban":"Kuala Simbur","postal_code":36761},{"province":"Jambi","city":"Tanjung Jabung Timur","district":"Muara Sabak Timur","urban":"Kota Harapan","postal_code":36761},{"province":"Jambi","city":"Tanjung Jabung Timur","district":"Muara Sabak Barat","urban":"Kampung Singkep","postal_code":36761},{"province":"Jambi","city":"Tanjung Jabung Timur","district":"Kuala Jambi","urban":"Kampung Laut","postal_code":36761},{"province":"Jambi","city":"Tanjung Jabung Timur","district":"Muara Sabak Timur","urban":"Alang-Alang","postal_code":36761}]