[{"province":"Jambi","city":"Tanjung Jabung Timur","district":"Mendahara Ulu","urban":"Sungai Toman","postal_code":36764},{"province":"Jambi","city":"Tanjung Jabung Timur","district":"Mendahara","urban":"Sungai Tawar","postal_code":36764},{"province":"Jambi","city":"Tanjung Jabung Timur","district":"Mendahara Ulu","urban":"Sungai Beras","postal_code":36764},{"province":"Jambi","city":"Tanjung Jabung Timur","district":"Geragai","urban":"Suka Maju","postal_code":36764},{"province":"Jambi","city":"Tanjung Jabung Timur","district":"Mendahara Ulu","urban":"Sinar Wajo","postal_code":36764},{"province":"Jambi","city":"Tanjung Jabung Timur","district":"Mendahara","urban":"Sinar Kalimantan","postal_code":36764},{"province":"Jambi","city":"Tanjung Jabung Timur","district":"Mendahara Ulu","urban":"Simpang Tuan","postal_code":36764},{"province":"Jambi","city":"Tanjung Jabung Timur","district":"Geragai","urban":"Rantau Karya","postal_code":36764},{"province":"Jambi","city":"Tanjung Jabung Timur","district":"Mendahara","urban":"Pangkal Duri Ilir","postal_code":36764},{"province":"Jambi","city":"Tanjung Jabung Timur","district":"Mendahara","urban":"Pangkalan/Pangkal Duri","postal_code":36764},{"province":"Jambi","city":"Tanjung Jabung Timur","district":"Mendahara Ulu","urban":"Pematang Rahim","postal_code":36764},{"province":"Jambi","city":"Tanjung Jabung Timur","district":"Geragai","urban":"Pandan Makmur","postal_code":36764},{"province":"Jambi","city":"Tanjung Jabung Timur","district":"Geragai","urban":"Pandan Sejahtera","postal_code":36764},{"province":"Jambi","city":"Tanjung Jabung Timur","district":"Geragai","urban":"Pandan Lagan/Logan","postal_code":36764},{"province":"Jambi","city":"Tanjung Jabung Timur","district":"Geragai","urban":"Pandan Jaya","postal_code":36764},{"province":"Jambi","city":"Tanjung Jabung Timur","district":"Mendahara","urban":"Merbau","postal_code":36764},{"province":"Jambi","city":"Tanjung Jabung Timur","district":"Mendahara","urban":"Mendahara Tengah","postal_code":36764},{"province":"Jambi","city":"Tanjung Jabung Timur","district":"Mendahara Ulu","urban":"Mencolok","postal_code":36764},{"province":"Jambi","city":"Tanjung Jabung Timur","district":"Mendahara","urban":"Mendahara Ilir","postal_code":36764},{"province":"Jambi","city":"Tanjung Jabung Timur","district":"Geragai","urban":"Lagan Tengah","postal_code":36764},{"province":"Jambi","city":"Tanjung Jabung Timur","district":"Geragai","urban":"Lagan Ulu","postal_code":36764},{"province":"Jambi","city":"Tanjung Jabung Timur","district":"Geragai","urban":"Kota Baru","postal_code":36764},{"province":"Jambi","city":"Tanjung Jabung Timur","district":"Mendahara","urban":"Lagan Ilir","postal_code":36764},{"province":"Jambi","city":"Tanjung Jabung Timur","district":"Mendahara","urban":"Bhakti/Bakti Idaman","postal_code":36764},{"province":"Jambi","city":"Tanjung Jabung Timur","district":"Mendahara Ulu","urban":"Bukit Tempurung","postal_code":36764}]