[{"province":"Jambi","city":"Tanjung Jabung Timur","district":"Rantau Rasau","urban":"Rantau Rasau II","postal_code":36772},{"province":"Jambi","city":"Tanjung Jabung Timur","district":"Rantau Rasau","urban":"Sungai Dusun","postal_code":36772},{"province":"Jambi","city":"Tanjung Jabung Timur","district":"Rantau Rasau","urban":"Tri Mulya/Mulyo","postal_code":36772},{"province":"Jambi","city":"Tanjung Jabung Timur","district":"Rantau Rasau","urban":"Rantau Jaya","postal_code":36772},{"province":"Jambi","city":"Tanjung Jabung Timur","district":"Rantau Rasau","urban":"Rantau Rasau I","postal_code":36772},{"province":"Jambi","city":"Tanjung Jabung Timur","district":"Rantau Rasau","urban":"Marga Mulya","postal_code":36772},{"province":"Jambi","city":"Tanjung Jabung Timur","district":"Rantau Rasau","urban":"Pematang Mayan","postal_code":36772},{"province":"Jambi","city":"Tanjung Jabung Timur","district":"Rantau Rasau","urban":"Harapan Makmur","postal_code":36772},{"province":"Jambi","city":"Tanjung Jabung Timur","district":"Rantau Rasau","urban":"Karya Bakti","postal_code":36772},{"province":"Jambi","city":"Tanjung Jabung Timur","district":"Rantau Rasau","urban":"Bandar Jaya","postal_code":36772},{"province":"Jambi","city":"Tanjung Jabung Timur","district":"Rantau Rasau","urban":"Bangun Karya","postal_code":36772}]