[{"province":"Jambi","city":"Tanjung Jabung Timur","district":"Sadu","urban":"Sungai Lokan","postal_code":36773},{"province":"Jambi","city":"Tanjung Jabung Timur","district":"Sadu","urban":"Sungai Sayang","postal_code":36773},{"province":"Jambi","city":"Tanjung Jabung Timur","district":"Sadu","urban":"Sungai Itik","postal_code":36773},{"province":"Jambi","city":"Tanjung Jabung Timur","district":"Sadu","urban":"Sungai Jambat","postal_code":36773},{"province":"Jambi","city":"Tanjung Jabung Timur","district":"Sadu","urban":"Sungai Cemara","postal_code":36773},{"province":"Jambi","city":"Tanjung Jabung Timur","district":"Sadu","urban":"Remau Baku Tuo","postal_code":36773},{"province":"Jambi","city":"Tanjung Jabung Timur","district":"Sadu","urban":"Sungai Benuh","postal_code":36773},{"province":"Jambi","city":"Tanjung Jabung Timur","district":"Sadu","urban":"Air Hitam (Laut)","postal_code":36773},{"province":"Jambi","city":"Tanjung Jabung Timur","district":"Sadu","urban":"Labuhan Pering","postal_code":36773}]