[{"province":"Jambi","city":"Sungaipenuh","district":"Kumun Debai","urban":"Ulu Air","postal_code":37111},{"province":"Jambi","city":"Sungaipenuh","district":"Sungai Bungkal","urban":"Talang Lindung","postal_code":37111},{"province":"Jambi","city":"Sungaipenuh","district":"Sungai Penuh","urban":"Sungai Penuh","postal_code":37111},{"province":"Jambi","city":"Sungaipenuh","district":"Sungai Bungkal","urban":"Sungai Ning","postal_code":37111},{"province":"Jambi","city":"Sungaipenuh","district":"Sungai Bungkal","urban":"Sumur Anyir","postal_code":37111},{"province":"Jambi","city":"Sungaipenuh","district":"Pondok Tinggi","urban":"Sungai Jernih","postal_code":37111},{"province":"Jambi","city":"Sungaipenuh","district":"Kumun Debai","urban":"Sandaran Galeh","postal_code":37111},{"province":"Jambi","city":"Sungaipenuh","district":"Pondok Tinggi","urban":"Pondok Agung","postal_code":37111},{"province":"Jambi","city":"Sungaipenuh","district":"Kumun Debai","urban":"Renah Kayu Embun","postal_code":37111},{"province":"Jambi","city":"Sungaipenuh","district":"Pondok Tinggi","urban":"Permanti","postal_code":37111},{"province":"Jambi","city":"Sungaipenuh","district":"Kumun Debai","urban":"Pinggir Air","postal_code":37111},{"province":"Jambi","city":"Sungaipenuh","district":"Sungai Penuh","urban":"Pasar Baru","postal_code":37111},{"province":"Jambi","city":"Sungaipenuh","district":"Sungai Bungkal","urban":"Pelayang Raya","postal_code":37111},{"province":"Jambi","city":"Sungaipenuh","district":"Pondok Tinggi","urban":"Lawang Agung","postal_code":37111},{"province":"Jambi","city":"Sungaipenuh","district":"Kumun Debai","urban":"Muara Jaya","postal_code":37111},{"province":"Jambi","city":"Sungaipenuh","district":"Kumun Debai","urban":"Kumun Hilir","postal_code":37111},{"province":"Jambi","city":"Sungaipenuh","district":"Kumun Debai","urban":"Kumun Mudik","postal_code":37111},{"province":"Jambi","city":"Sungaipenuh","district":"Pesisir Bukit","urban":"Koto Tengah","postal_code":37111},{"province":"Jambi","city":"Sungaipenuh","district":"Sungai Bungkal","urban":"Koto Tinggi","postal_code":37111},{"province":"Jambi","city":"Sungaipenuh","district":"Pesisir Bukit","urban":"Koto Renah","postal_code":37111},{"province":"Jambi","city":"Sungaipenuh","district":"Pondok Tinggi","urban":"Koto Lembu/Lebu","postal_code":37111},{"province":"Jambi","city":"Sungaipenuh","district":"Pesisir Bukit","urban":"Koto Lolo","postal_code":37111},{"province":"Jambi","city":"Sungaipenuh","district":"Pesisir Bukit","urban":"Koto Bento","postal_code":37111},{"province":"Jambi","city":"Sungaipenuh","district":"Pesisir Bukit","urban":"Koto Keras","postal_code":37111},{"province":"Jambi","city":"Sungaipenuh","district":"Sungai Penuh","urban":"Gedang","postal_code":37111},{"province":"Jambi","city":"Sungaipenuh","district":"Pondok Tinggi","urban":"Karya Bakti","postal_code":37111},{"province":"Jambi","city":"Sungaipenuh","district":"Pondok Tinggi","urban":"Aur Duri","postal_code":37111},{"province":"Jambi","city":"Sungaipenuh","district":"Kumun Debai","urban":"Debai","postal_code":37111},{"province":"Jambi","city":"Sungaipenuh","district":"Kumun Debai","urban":"Air Teluk","postal_code":37111},{"province":"Jambi","city":"Sungaipenuh","district":"Sungai Penuh","urban":"Amar Sakti","postal_code":37111}]