[{"province":"Jambi","city":"Kerinci","district":"Air Hangat Timur","urban":"Sungai Deras","postal_code":37152},{"province":"Jambi","city":"Sungaipenuh","district":"Hamparan Rawang","urban":"Tanjung","postal_code":37152},{"province":"Jambi","city":"Sungaipenuh","district":"Hamparan Rawang","urban":"Tanjung Muda/Mudo","postal_code":37152},{"province":"Jambi","city":"Sungaipenuh","district":"Pesisir Bukit","urban":"Sungai Liuk","postal_code":37152},{"province":"Jambi","city":"Sungaipenuh","district":"Pesisir Bukit","urban":"Sumur Gedang","postal_code":37152},{"province":"Jambi","city":"Sungaipenuh","district":"Hamparan Rawang","urban":"Simpang Tiga Rawang","postal_code":37152},{"province":"Jambi","city":"Sungaipenuh","district":"Pesisir Bukit","urban":"Seberang","postal_code":37152},{"province":"Jambi","city":"Sungaipenuh","district":"Koto Baru","urban":"Permai Indah","postal_code":37152},{"province":"Jambi","city":"Sungaipenuh","district":"Hamparan Rawang","urban":"Paling Serumpun","postal_code":37152},{"province":"Jambi","city":"Sungaipenuh","district":"Hamparan Rawang","urban":"Maliki Air","postal_code":37152},{"province":"Jambi","city":"Sungaipenuh","district":"Hamparan Rawang","urban":"Koto Teluk","postal_code":37152},{"province":"Jambi","city":"Sungaipenuh","district":"Hamparan Rawang","urban":"Larik Kemahan","postal_code":37152},{"province":"Jambi","city":"Sungaipenuh","district":"Koto Baru","urban":"Koto Limau Manis","postal_code":37152},{"province":"Jambi","city":"Sungaipenuh","district":"Pesisir Bukit","urban":"Koto Dua / Duo","postal_code":37152},{"province":"Jambi","city":"Sungaipenuh","district":"Hamparan Rawang","urban":"Koto Beringin","postal_code":37152},{"province":"Jambi","city":"Sungaipenuh","district":"Hamparan Rawang","urban":"Koto Dian","postal_code":37152},{"province":"Jambi","city":"Sungaipenuh","district":"Koto Baru","urban":"Kampung Tengah","postal_code":37152},{"province":"Jambi","city":"Sungaipenuh","district":"Koto Baru","urban":"Koto Baru (Kota Baru)","postal_code":37152},{"province":"Jambi","city":"Sungaipenuh","district":"Hamparan Rawang","urban":"Dusun Diilir","postal_code":37152},{"province":"Jambi","city":"Sungaipenuh","district":"Hamparan Rawang","urban":"Kampung Dalam","postal_code":37152},{"province":"Jambi","city":"Sungaipenuh","district":"Hamparan Rawang","urban":"Kampung Diilir","postal_code":37152},{"province":"Jambi","city":"Sungaipenuh","district":"Hamparan Rawang","urban":"Cempaka","postal_code":37152},{"province":"Jambi","city":"Sungaipenuh","district":"Koto Baru","urban":"Dujung Sakti","postal_code":37152},{"province":"Jambi","city":"Sungaipenuh","district":"Koto Baru","urban":"Baru Sri Menanti","postal_code":37152}]