[{"province":"Jambi","city":"Kerinci","district":"Gunung Tujuh","urban":"Telun Berasap","postal_code":37163},{"province":"Jambi","city":"Kerinci","district":"Kayu Aro","urban":"Tanjung Bungo","postal_code":37163},{"province":"Jambi","city":"Kerinci","district":"Gunung Tujuh","urban":"Tangkil","postal_code":37163},{"province":"Jambi","city":"Kerinci","district":"Kayu Aro","urban":"Sungai Tanduk","postal_code":37163},{"province":"Jambi","city":"Kerinci","district":"Gunung Tujuh","urban":"Sungai Sikai","postal_code":37163},{"province":"Jambi","city":"Kerinci","district":"Gunung Tujuh","urban":"Sungai Rumpun","postal_code":37163},{"province":"Jambi","city":"Kerinci","district":"Kayu Aro","urban":"Sungai Sampun","postal_code":37163},{"province":"Jambi","city":"Kerinci","district":"Kayu Aro Barat","urban":"Sungai Renah","postal_code":37163},{"province":"Jambi","city":"Kerinci","district":"Kayu Aro Barat","urban":"Sungai Kering","postal_code":37163},{"province":"Jambi","city":"Kerinci","district":"Kayu Aro Barat","urban":"Sungai Lintang","postal_code":37163},{"province":"Jambi","city":"Kerinci","district":"Gunung Tujuh","urban":"Sungai Jernih","postal_code":37163},{"province":"Jambi","city":"Kerinci","district":"Kayu Aro Barat","urban":"Sungai Jambu","postal_code":37163},{"province":"Jambi","city":"Kerinci","district":"Kayu Aro","urban":"Sungai Bendung Air","postal_code":37163},{"province":"Jambi","city":"Kerinci","district":"Kayu Aro","urban":"Sungai Dalam","postal_code":37163},{"province":"Jambi","city":"Kerinci","district":"Kayu Aro","urban":"Sangir Tengah","postal_code":37163},{"province":"Jambi","city":"Kerinci","district":"Kayu Aro Barat","urban":"Sungai Asam","postal_code":37163},{"province":"Jambi","city":"Kerinci","district":"Kayu Aro","urban":"Sangir","postal_code":37163},{"province":"Jambi","city":"Kerinci","district":"Kayu Aro Barat","urban":"Sako Duo/Dua","postal_code":37163},{"province":"Jambi","city":"Kerinci","district":"Kayu Aro","urban":"Renah Kasak","postal_code":37163},{"province":"Jambi","city":"Kerinci","district":"Gunung Tujuh","urban":"Pelompek Pasar Baru","postal_code":37163},{"province":"Jambi","city":"Kerinci","district":"Gunung Tujuh","urban":"Pesisir Bukit","postal_code":37163},{"province":"Jambi","city":"Kerinci","district":"Gunung Tujuh","urban":"Pauh Tinggi","postal_code":37163},{"province":"Jambi","city":"Kerinci","district":"Gunung Tujuh","urban":"Pelompek","postal_code":37163},{"province":"Jambi","city":"Kerinci","district":"Kayu Aro","urban":"Pasar Sungai Tanduk","postal_code":37163},{"province":"Jambi","city":"Kerinci","district":"Kayu Aro Barat","urban":"Patok Empat","postal_code":37163},{"province":"Jambi","city":"Kerinci","district":"Kayu Aro","urban":"Mekar Sari","postal_code":37163},{"province":"Jambi","city":"Kerinci","district":"Kayu Aro Barat","urban":"Pasar Minggu","postal_code":37163},{"province":"Jambi","city":"Kerinci","district":"Gunung Tujuh","urban":"Lubuk Pauh","postal_code":37163},{"province":"Jambi","city":"Kerinci","district":"Kayu Aro","urban":"Mekar Jaya","postal_code":37163},{"province":"Jambi","city":"Kerinci","district":"Kayu Aro","urban":"Lindung Jaya","postal_code":37163},{"province":"Jambi","city":"Kerinci","district":"Kayu Aro","urban":"Koto Tuo","postal_code":37163},{"province":"Jambi","city":"Kerinci","district":"Kayu Aro","urban":"Koto Periang","postal_code":37163},{"province":"Jambi","city":"Kerinci","district":"Kayu Aro","urban":"Koto Tengah","postal_code":37163},{"province":"Jambi","city":"Kerinci","district":"Kayu Aro","urban":"Koto Baru","postal_code":37163},{"province":"Jambi","city":"Kerinci","district":"Kayu Aro","urban":"Koto Panjang","postal_code":37163},{"province":"Jambi","city":"Kerinci","district":"Kayu Aro","urban":"Kersik Tuo","postal_code":37163},{"province":"Jambi","city":"Kerinci","district":"Kayu Aro Barat","urban":"Kebun Baru","postal_code":37163},{"province":"Jambi","city":"Kerinci","district":"Sitinjau Laut","urban":"Kayuaro Ambai","postal_code":37163},{"province":"Jambi","city":"Kerinci","district":"Kayu Aro Barat","urban":"Kampung Baru","postal_code":37163},{"province":"Jambi","city":"Kerinci","district":"Gunung Tujuh","urban":"Jernih Jaya","postal_code":37163},{"province":"Jambi","city":"Kerinci","district":"Kayu Aro Barat","urban":"Giri Mulyo","postal_code":37163},{"province":"Jambi","city":"Kerinci","district":"Kayu Aro Barat","urban":"Gunung Labu","postal_code":37163},{"province":"Jambi","city":"Kerinci","district":"Gunung Tujuh","urban":"Bumbun Duri","postal_code":37163},{"province":"Jambi","city":"Kerinci","district":"Kayu Aro Barat","urban":"Ensatu","postal_code":37163},{"province":"Jambi","city":"Kerinci","district":"Kayu Aro Barat","urban":"Bento","postal_code":37163},{"province":"Jambi","city":"Kerinci","district":"Gunung Tujuh","urban":"Bengkolan Dua","postal_code":37163},{"province":"Jambi","city":"Kerinci","district":"Kayu Aro Barat","urban":"Bedeng Dua","postal_code":37163},{"province":"Jambi","city":"Kerinci","district":"Kayu Aro","urban":"Bendung Air Timur","postal_code":37163},{"province":"Jambi","city":"Kerinci","district":"Kayu Aro","urban":"Bedeng Baru","postal_code":37163},{"province":"Jambi","city":"Kerinci","district":"Kayu Aro Barat","urban":"Bedeng Delapan","postal_code":37163},{"province":"Jambi","city":"Kerinci","district":"Kayu Aro Barat","urban":"Batu Hampar","postal_code":37163},{"province":"Jambi","city":"Kerinci","district":"Kayu Aro","urban":"Batang Sangir","postal_code":37163}]