[{"province":"Jambi","city":"Kerinci","district":"Bukitkerman","urban":"Talang Kemuning","postal_code":37174},{"province":"Jambi","city":"Kerinci","district":"Bukitkerman","urban":"Tanjung Syam","postal_code":37174},{"province":"Jambi","city":"Kerinci","district":"Gunung Raya","urban":"Selampaung","postal_code":37174},{"province":"Jambi","city":"Kerinci","district":"Gunung Raya","urban":"Sungai Hangat","postal_code":37174},{"province":"Jambi","city":"Kerinci","district":"Bukitkerman","urban":"Muaro Lulo","postal_code":37174},{"province":"Jambi","city":"Kerinci","district":"Bukitkerman","urban":"Pasar Kerman","postal_code":37174},{"province":"Jambi","city":"Kerinci","district":"Gunung Raya","urban":"Perikan Tengah","postal_code":37174},{"province":"Jambi","city":"Kerinci","district":"Gunung Raya","urban":"Masgo","postal_code":37174},{"province":"Jambi","city":"Kerinci","district":"Gunung Raya","urban":"Manjunto Lempur","postal_code":37174},{"province":"Jambi","city":"Kerinci","district":"Bukitkerman","urban":"Lolo Hilir","postal_code":37174},{"province":"Jambi","city":"Kerinci","district":"Bukitkerman","urban":"Lolo Kecil","postal_code":37174},{"province":"Jambi","city":"Kerinci","district":"Bukitkerman","urban":"Lolo Gedang","postal_code":37174},{"province":"Jambi","city":"Kerinci","district":"Gunung Raya","urban":"Lempur Mudik","postal_code":37174},{"province":"Jambi","city":"Kerinci","district":"Gunung Raya","urban":"Lempur Tengah","postal_code":37174},{"province":"Jambi","city":"Kerinci","district":"Gunung Raya","urban":"Kebun Lima","postal_code":37174},{"province":"Jambi","city":"Kerinci","district":"Gunung Raya","urban":"Lempur Hilir","postal_code":37174},{"province":"Jambi","city":"Kerinci","district":"Gunung Raya","urban":"Kebun Baru","postal_code":37174},{"province":"Jambi","city":"Kerinci","district":"Gunung Raya","urban":"Dusun Baru Lempur","postal_code":37174},{"province":"Jambi","city":"Kerinci","district":"Bukitkerman","urban":"Bintang Marak","postal_code":37174},{"province":"Jambi","city":"Kerinci","district":"Gunung Raya","urban":"Air Mumu","postal_code":37174}]