[{"province":"Jambi","city":"Kerinci","district":"Batang Merangin","urban":"Tamiai","postal_code":37175},{"province":"Jambi","city":"Kerinci","district":"Batang Merangin","urban":"Tarutung","postal_code":37175},{"province":"Jambi","city":"Kerinci","district":"Bukitkerman","urban":"Pulausangkar","postal_code":37175},{"province":"Jambi","city":"Kerinci","district":"Batang Merangin","urban":"Seberang Merangin","postal_code":37175},{"province":"Jambi","city":"Kerinci","district":"Bukitkerman","urban":"Pondok","postal_code":37175},{"province":"Jambi","city":"Kerinci","district":"Bukitkerman","urban":"Pulaupandan","postal_code":37175},{"province":"Jambi","city":"Kerinci","district":"Bukitkerman","urban":"Pengasi Baru","postal_code":37175},{"province":"Jambi","city":"Kerinci","district":"Bukitkerman","urban":"Pengasi Lama","postal_code":37175},{"province":"Jambi","city":"Kerinci","district":"Batang Merangin","urban":"Pematang Lingkung","postal_code":37175},{"province":"Jambi","city":"Kerinci","district":"Batang Merangin","urban":"Pasar Tamiai","postal_code":37175},{"province":"Jambi","city":"Kerinci","district":"Bukitkerman","urban":"Muak","postal_code":37175},{"province":"Jambi","city":"Kerinci","district":"Batang Merangin","urban":"Lubuk Paku","postal_code":37175},{"province":"Jambi","city":"Kerinci","district":"Batang Merangin","urban":"Muara Hemat","postal_code":37175},{"province":"Jambi","city":"Kerinci","district":"Bukitkerman","urban":"Karang Pandan","postal_code":37175},{"province":"Jambi","city":"Kerinci","district":"Batang Merangin","urban":"Batang Merangin","postal_code":37175},{"province":"Jambi","city":"Kerinci","district":"Batang Merangin","urban":"Baru Pulau Sangkar","postal_code":37175}]