[{"province":"Jambi","city":"Bungo","district":"Bathin II Babeko","urban":"Tuo Sepunggur","postal_code":37211},{"province":"Jambi","city":"Bungo","district":"Limbur Lubuk Mengkuang","urban":"Tuo Lubuk Mengkuang","postal_code":37211},{"province":"Jambi","city":"Bungo","district":"Bathin III","urban":"Teluk Panjang","postal_code":37211},{"province":"Jambi","city":"Bungo","district":"Limbur Lubuk Mengkuang","urban":"Tebo Jaya","postal_code":37211},{"province":"Jambi","city":"Bungo","district":"Limbur Lubuk Mengkuang","urban":"Tuo Limbur","postal_code":37211},{"province":"Jambi","city":"Bungo","district":"Bathin II Babeko","urban":"Tanjung Menanti","postal_code":37211},{"province":"Jambi","city":"Bungo","district":"Pasar Muara Bungo","urban":"Tanjung Gedang","postal_code":37211},{"province":"Jambi","city":"Bungo","district":"Limbur Lubuk Mengkuang","urban":"Tanjung Bungo","postal_code":37211},{"province":"Jambi","city":"Bungo","district":"Rimbo Tengah","urban":"Sungai Mengkuang","postal_code":37211},{"province":"Jambi","city":"Bungo","district":"Bungo Dani","urban":"Sungai Pinang","postal_code":37211},{"province":"Jambi","city":"Bungo","district":"Bungo Dani","urban":"Talang Pantai","postal_code":37211},{"province":"Jambi","city":"Bungo","district":"Bungo Dani","urban":"Sungai Kerjan","postal_code":37211},{"province":"Jambi","city":"Bungo","district":"Rimbo Tengah","urban":"Sungai Buluh","postal_code":37211},{"province":"Jambi","city":"Bungo","district":"Bathin III","urban":"Sungai Binjai","postal_code":37211},{"province":"Jambi","city":"Bungo","district":"Bungo Dani","urban":"Sungai Arang","postal_code":37211},{"province":"Jambi","city":"Bungo","district":"Bathin II Babeko","urban":"Suka Makmur","postal_code":37211},{"province":"Jambi","city":"Bungo","district":"Bathin II Babeko","urban":"Sepunggur","postal_code":37211},{"province":"Jambi","city":"Bungo","district":"Bathin II Babeko","urban":"Simpang Babeko","postal_code":37211},{"province":"Jambi","city":"Bungo","district":"Bathin III","urban":"Sarana Jaya","postal_code":37211},{"province":"Jambi","city":"Bungo","district":"Limbur Lubuk Mengkuang","urban":"Renah Sungai Ipuh","postal_code":37211},{"province":"Jambi","city":"Bungo","district":"Limbur Lubuk Mengkuang","urban":"Sekar Mengkuang","postal_code":37211},{"province":"Jambi","city":"Bungo","district":"Limbur Lubuk Mengkuang","urban":"Renah Sungai Besar","postal_code":37211},{"province":"Jambi","city":"Bungo","district":"Bungo Dani","urban":"Pulau Pekan","postal_code":37211},{"province":"Jambi","city":"Bungo","district":"Bathin III","urban":"Purwo Bakti","postal_code":37211},{"province":"Jambi","city":"Bungo","district":"Limbur Lubuk Mengkuang","urban":"Rantau Tipu","postal_code":37211},{"province":"Jambi","city":"Bungo","district":"Limbur Lubuk Mengkuang","urban":"Pemunyian","postal_code":37211},{"province":"Jambi","city":"Bungo","district":"Limbur Lubuk Mengkuang","urban":"Pauh Agung","postal_code":37211},{"province":"Jambi","city":"Bungo","district":"Limbur Lubuk Mengkuang","urban":"Muara/Muaro Tebo Pandak","postal_code":37211},{"province":"Jambi","city":"Bungo","district":"Rimbo Tengah","urban":"Pasir Putih","postal_code":37211},{"province":"Jambi","city":"Bungo","district":"Limbur Lubuk Mengkuang","urban":"Lubuk Tanah Terban","postal_code":37211},{"province":"Jambi","city":"Bungo","district":"Bathin III","urban":"Manggis","postal_code":37211},{"province":"Jambi","city":"Bungo","district":"Limbur Lubuk Mengkuang","urban":"Limbur Baru","postal_code":37211},{"province":"Jambi","city":"Bungo","district":"Bathin III","urban":"Lubuk Benteng","postal_code":37211},{"province":"Jambi","city":"Bungo","district":"Pasar Muara Bungo","urban":"Jaya Setia","postal_code":37211},{"province":"Jambi","city":"Bungo","district":"Rimbo Tengah","urban":"Candika","postal_code":37211},{"province":"Jambi","city":"Bungo","district":"Pasar Muara Bungo","urban":"Bungo Timur","postal_code":37211},{"province":"Jambi","city":"Bungo","district":"Bathin III","urban":"Bungo Taman Agung","postal_code":37211},{"province":"Jambi","city":"Bungo","district":"Pasar Muara Bungo","urban":"Batang Bungo","postal_code":37211},{"province":"Jambi","city":"Bungo","district":"Pasar Muara Bungo","urban":"Bungo Barat","postal_code":37211},{"province":"Jambi","city":"Bungo","district":"Pasar Muara Bungo","urban":"Baru Teluk Panjang","postal_code":37211},{"province":"Jambi","city":"Bungo","district":"Limbur Lubuk Mengkuang","urban":"Baru Lubuk Mengkuang","postal_code":37211},{"province":"Jambi","city":"Bungo","district":"Bathin II Babeko","urban":"Babeko","postal_code":37211},{"province":"Jambi","city":"Bungo","district":"Bathin II Babeko","urban":"Babeko","postal_code":37211}]