[{"province":"Jambi","city":"Bungo","district":"Jujuhan","urban":"Ujung Tanjung","postal_code":37257},{"province":"Jambi","city":"Bungo","district":"Jujuhan Ilir","urban":"Tepian Danto","postal_code":37257},{"province":"Jambi","city":"Bungo","district":"Jujuhan","urban":"Talang Pemesun (Pamesun)","postal_code":37257},{"province":"Jambi","city":"Bungo","district":"Jujuhan","urban":"Tanjung Belit","postal_code":37257},{"province":"Jambi","city":"Bungo","district":"Jujuhan","urban":"Sirih Sekapur Perkembangan","postal_code":37257},{"province":"Jambi","city":"Bungo","district":"Jujuhan","urban":"Sirih Sekapur","postal_code":37257},{"province":"Jambi","city":"Bungo","district":"Jujuhan Ilir","urban":"Sari Mulya","postal_code":37257},{"province":"Jambi","city":"Bungo","district":"Jujuhan","urban":"Pulau Jelmu","postal_code":37257},{"province":"Jambi","city":"Bungo","district":"Jujuhan","urban":"Rantau Ikil","postal_code":37257},{"province":"Jambi","city":"Bungo","district":"Jujuhan","urban":"Rantau Panjang","postal_code":37257},{"province":"Jambi","city":"Bungo","district":"Jujuhan Ilir","urban":"Pulau Batu","postal_code":37257},{"province":"Jambi","city":"Bungo","district":"Jujuhan Ilir","urban":"Lubuk Tenam","postal_code":37257},{"province":"Jambi","city":"Bungo","district":"Jujuhan","urban":"Jumbak","postal_code":37257},{"province":"Jambi","city":"Bungo","district":"Jujuhan Ilir","urban":"Kuamang","postal_code":37257},{"province":"Jambi","city":"Bungo","district":"Jujuhan","urban":"Baru Balai Panjang","postal_code":37257},{"province":"Jambi","city":"Bungo","district":"Jujuhan Ilir","urban":"Bukit Sari","postal_code":37257},{"province":"Jambi","city":"Bungo","district":"Jujuhan Ilir","urban":"Aur Gading","postal_code":37257}]