[{"province":"Jambi","city":"Tebo","district":"VII Koto","urban":"Teluk Lancang","postal_code":37259},{"province":"Jambi","city":"Tebo","district":"VII Koto","urban":"Teluk Kayu Putih","postal_code":37259},{"province":"Jambi","city":"Tebo","district":"VII Koto Ilir","urban":"Teluk Kepayang Pulau Indah","postal_code":37259},{"province":"Jambi","city":"Tebo","district":"VII Koto","urban":"Tabun","postal_code":37259},{"province":"Jambi","city":"Tebo","district":"VII Koto Ilir","urban":"Sungai Karang","postal_code":37259},{"province":"Jambi","city":"Tebo","district":"VII Koto","urban":"Pucuk Jambi","postal_code":37259},{"province":"Jambi","city":"Tebo","district":"VII Koto","urban":"Sungai Abang","postal_code":37259},{"province":"Jambi","city":"Tebo","district":"VII Koto Ilir","urban":"Pasir Mayang","postal_code":37259},{"province":"Jambi","city":"Tebo","district":"VII Koto","urban":"Muara Tabun","postal_code":37259},{"province":"Jambi","city":"Tebo","district":"VII Koto Ilir","urban":"Paseban","postal_code":37259},{"province":"Jambi","city":"Tebo","district":"VII Koto","urban":"Kuamang","postal_code":37259},{"province":"Jambi","city":"Tebo","district":"VII Koto","urban":"Muara Niro","postal_code":37259},{"province":"Jambi","city":"Tebo","district":"VII Koto","urban":"Dusun Baru","postal_code":37259},{"province":"Jambi","city":"Tebo","district":"VII Koto Ilir","urban":"Cermin Alam","postal_code":37259},{"province":"Jambi","city":"Tebo","district":"VII Koto Ilir","urban":"Balai Rajo","postal_code":37259},{"province":"Jambi","city":"Tebo","district":"VII Koto","urban":"Aur Cino","postal_code":37259}]