[{"province":"Jambi","city":"Bungo","district":"Tanah Tumbuh","urban":"Teluk Kecimbung","postal_code":37255},{"province":"Jambi","city":"Bungo","district":"Tanah Tumbuh","urban":"Tebing Tinggi Uleh","postal_code":37255},{"province":"Jambi","city":"Bungo","district":"Tanah Tumbuh","urban":"Tanah Tumbuh","postal_code":37255},{"province":"Jambi","city":"Bungo","district":"Bathin II Pelayang","urban":"Seberang Jaya","postal_code":37255},{"province":"Jambi","city":"Bungo","district":"Bathin II Pelayang","urban":"Talang Silungko","postal_code":37255},{"province":"Jambi","city":"Bungo","district":"Tanah Tumbuh","urban":"Rambah","postal_code":37255},{"province":"Jambi","city":"Bungo","district":"Tanah Tumbuh","urban":"Renah Jelmu","postal_code":37255},{"province":"Jambi","city":"Bungo","district":"Bathin II Pelayang","urban":"Pulau Kerakap","postal_code":37255},{"province":"Jambi","city":"Bungo","district":"Tanah Tumbuh","urban":"Perenti Lueh/Luweh","postal_code":37255},{"province":"Jambi","city":"Bungo","district":"Bathin II Pelayang","urban":"Pelayang","postal_code":37255},{"province":"Jambi","city":"Bungo","district":"Bathin II Pelayang","urban":"Peninjau","postal_code":37255},{"province":"Jambi","city":"Bungo","district":"Tanah Tumbuh","urban":"Pedukun","postal_code":37255},{"province":"Jambi","city":"Bungo","district":"Tanah Tumbuh","urban":"Lubuk Niur","postal_code":37255},{"province":"Jambi","city":"Bungo","district":"Tanah Tumbuh","urban":"Panjang","postal_code":37255},{"province":"Jambi","city":"Bungo","district":"Tanah Tumbuh","urban":"Bukit Kemang Baru","postal_code":37255},{"province":"Jambi","city":"Bungo","district":"Tanah Tumbuh","urban":"Koto Jayo","postal_code":37255}]