[{"province":"Jambi","city":"Bungo","district":"Bathin III Ulu","urban":"Timbolasi","postal_code":37261},{"province":"Jambi","city":"Bungo","district":"Rantau Pandan","urban":"Talang Sungai Bungo","postal_code":37261},{"province":"Jambi","city":"Bungo","district":"Bathin III Ulu","urban":"Senamat Ulu","postal_code":37261},{"province":"Jambi","city":"Bungo","district":"Bathin III Ulu","urban":"Sungai Telang","postal_code":37261},{"province":"Jambi","city":"Bungo","district":"Rantau Pandan","urban":"Rantau Duku","postal_code":37261},{"province":"Jambi","city":"Bungo","district":"Rantau Pandan","urban":"Rantau Pandan","postal_code":37261},{"province":"Jambi","city":"Bungo","district":"Rantau Pandan","urban":"Lubuk Mayan","postal_code":37261},{"province":"Jambi","city":"Bungo","district":"Bathin III Ulu","urban":"Muara Buat","postal_code":37261},{"province":"Jambi","city":"Bungo","district":"Rantau Pandan","urban":"Leban","postal_code":37261},{"province":"Jambi","city":"Bungo","district":"Rantau Pandan","urban":"Lubuk Kayu Aro","postal_code":37261},{"province":"Jambi","city":"Bungo","district":"Bathin III Ulu","urban":"Lubuk Beringin","postal_code":37261},{"province":"Jambi","city":"Bungo","district":"Bathin III Ulu","urban":"Laman Panjang","postal_code":37261},{"province":"Jambi","city":"Bungo","district":"Bathin III Ulu","urban":"Buat","postal_code":37261},{"province":"Jambi","city":"Bungo","district":"Bathin III Ulu","urban":"Karak Apung","postal_code":37261},{"province":"Jambi","city":"Bungo","district":"Bathin III Ulu","urban":"Aur Cino","postal_code":37261}]