[{"province":"Jambi","city":"Bungo","district":"Tanah Sepenggal","urban":"Tenam","postal_code":37263},{"province":"Jambi","city":"Bungo","district":"Tanah Sepenggal","urban":"Telentam","postal_code":37263},{"province":"Jambi","city":"Bungo","district":"Tanah Sepenggal","urban":"Teluk Pandak","postal_code":37263},{"province":"Jambi","city":"Bungo","district":"Tanah Sepenggal Lintas","urban":"Tebing Tinggi","postal_code":37263},{"province":"Jambi","city":"Bungo","district":"Tanah Sepenggal","urban":"Tanjung","postal_code":37263},{"province":"Jambi","city":"Bungo","district":"Tanah Sepenggal Lintas","urban":"Tanah Periuk","postal_code":37263},{"province":"Jambi","city":"Bungo","district":"Tanah Sepenggal Lintas","urban":"Sungai Tembang","postal_code":37263},{"province":"Jambi","city":"Bungo","district":"Tanah Sepenggal","urban":"Tanah Bekali","postal_code":37263},{"province":"Jambi","city":"Bungo","district":"Tanah Sepenggal Lintas","urban":"Sungai Puri","postal_code":37263},{"province":"Jambi","city":"Bungo","district":"Tanah Sepenggal Lintas","urban":"Sungai Puri","postal_code":37263},{"province":"Jambi","city":"Bungo","district":"Tanah Sepenggal Lintas","urban":"Sungai Lilin","postal_code":37263},{"province":"Jambi","city":"Bungo","district":"Tanah Sepenggal","urban":"Sungai Gambir","postal_code":37263},{"province":"Jambi","city":"Bungo","district":"Tanah Sepenggal Lintas","urban":"Rantau Embacang","postal_code":37263},{"province":"Jambi","city":"Bungo","district":"Tanah Sepenggal Lintas","urban":"Rantau Makmur","postal_code":37263},{"province":"Jambi","city":"Bungo","district":"Tanah Sepenggal Lintas","urban":"Pematang Panjang","postal_code":37263},{"province":"Jambi","city":"Bungo","district":"Tanah Sepenggal","urban":"Pasar Lubuk Landai","postal_code":37263},{"province":"Jambi","city":"Bungo","district":"Tanah Sepenggal","urban":"Pasar Rantau Embacang","postal_code":37263},{"province":"Jambi","city":"Bungo","district":"Tanah Sepenggal Lintas","urban":"Paku Aji","postal_code":37263},{"province":"Jambi","city":"Bungo","district":"Tanah Sepenggal Lintas","urban":"Lubuk Landai","postal_code":37263},{"province":"Jambi","city":"Bungo","district":"Tanah Sepenggal Lintas","urban":"Embacang Gedang","postal_code":37263},{"province":"Jambi","city":"Bungo","district":"Tanah Sepenggal","urban":"Empelu","postal_code":37263},{"province":"Jambi","city":"Bungo","district":"Tanah Sepenggal","urban":"Candi","postal_code":37263}]