[{"province":"Jambi","city":"Merangin","district":"Batang Masumai","urban":"Titian Teras","postal_code":37311},{"province":"Jambi","city":"Merangin","district":"Batang Masumai","urban":"Tambang Nibung","postal_code":37311},{"province":"Jambi","city":"Merangin","district":"Nalo Tantan","urban":"Telun","postal_code":37311},{"province":"Jambi","city":"Merangin","district":"Batang Masumai","urban":"Tambang Besi","postal_code":37311},{"province":"Jambi","city":"Merangin","district":"Bangko Barat","urban":"Sungai Putih","postal_code":37311},{"province":"Jambi","city":"Merangin","district":"Nalo Tantan","urban":"Sungai Ulak","postal_code":37311},{"province":"Jambi","city":"Merangin","district":"Bangko","urban":"Sungai Kapas","postal_code":37311},{"province":"Jambi","city":"Merangin","district":"Batang Masumai","urban":"Salam Buku","postal_code":37311},{"province":"Jambi","city":"Merangin","district":"Batang Masumai","urban":"Rantau Alai","postal_code":37311},{"province":"Jambi","city":"Merangin","district":"Bangko Barat","urban":"Pulau Rengas","postal_code":37311},{"province":"Jambi","city":"Merangin","district":"Bangko Barat","urban":"Pulau Rengas Ulu","postal_code":37311},{"province":"Jambi","city":"Merangin","district":"Batang Masumai","urban":"Pulau Layang","postal_code":37311},{"province":"Jambi","city":"Merangin","district":"Batang Masumai","urban":"Pulau Baru","postal_code":37311},{"province":"Jambi","city":"Merangin","district":"Batang Masumai","urban":"Pelangki","postal_code":37311},{"province":"Jambi","city":"Merangin","district":"Bangko","urban":"Pasar Bangko","postal_code":37311},{"province":"Jambi","city":"Merangin","district":"Nalo Tantan","urban":"Nalo Gedang","postal_code":37311},{"province":"Jambi","city":"Merangin","district":"Bangko","urban":"Mudo (Dusun Mudo)","postal_code":37311},{"province":"Jambi","city":"Merangin","district":"Bangko","urban":"Mudo (Dusun Mudo)","postal_code":37311},{"province":"Jambi","city":"Merangin","district":"Nalo Tantan","urban":"Mentawak","postal_code":37311},{"province":"Jambi","city":"Merangin","district":"Batang Masumai","urban":"Lubuk Gaung","postal_code":37311},{"province":"Jambi","city":"Merangin","district":"Bangko","urban":"Langling","postal_code":37311},{"province":"Jambi","city":"Merangin","district":"Bangko","urban":"Kungkai","postal_code":37311},{"province":"Jambi","city":"Merangin","district":"Batang Masumai","urban":"Kederasan Panjang","postal_code":37311},{"province":"Jambi","city":"Merangin","district":"Nalo Tantan","urban":"Danau","postal_code":37311},{"province":"Jambi","city":"Merangin","district":"Bangko Barat","urban":"Bukit Beringin","postal_code":37311},{"province":"Jambi","city":"Merangin","district":"Bangko Barat","urban":"Bedeng Rejo","postal_code":37311},{"province":"Jambi","city":"Merangin","district":"Bangko Barat","urban":"Biuku Tanjung","postal_code":37311},{"province":"Jambi","city":"Merangin","district":"Nalo Tantan","urban":"Aur Berduri","postal_code":37311}]