[{"province":"Jambi","city":"Merangin","district":"Tabir Ilir","urban":"Ulak Makam","postal_code":37353},{"province":"Jambi","city":"Merangin","district":"Tabir Ilir","urban":"Tunggul Bulin","postal_code":37353},{"province":"Jambi","city":"Merangin","district":"Margo Tabir","urban":"Tanjung Rejo","postal_code":37353},{"province":"Jambi","city":"Merangin","district":"Margo Tabir","urban":"Tegal Rejo","postal_code":37353},{"province":"Jambi","city":"Merangin","district":"Tabir","urban":"Tanjung Ilir","postal_code":37353},{"province":"Jambi","city":"Merangin","district":"Tabir Lintas","urban":"Tambang Baru","postal_code":37353},{"province":"Jambi","city":"Merangin","district":"Tabir Timur","urban":"Sungai Limau","postal_code":37353},{"province":"Jambi","city":"Merangin","district":"Margo Tabir","urban":"Suko Rejo","postal_code":37353},{"province":"Jambi","city":"Merangin","district":"Margo Tabir","urban":"Sumber Agung","postal_code":37353},{"province":"Jambi","city":"Merangin","district":"Tabir Timur","urban":"Sungai Bulian","postal_code":37353},{"province":"Jambi","city":"Merangin","district":"Margo Tabir","urban":"Sido Rukun","postal_code":37353},{"province":"Jambi","city":"Merangin","district":"Tabir Timur","urban":"Sri Sembilan","postal_code":37353},{"province":"Jambi","city":"Merangin","district":"Tabir Lintas","urban":"Sido Harjo","postal_code":37353},{"province":"Jambi","city":"Merangin","district":"Tabir Lintas","urban":"Sido Lego","postal_code":37353},{"province":"Jambi","city":"Merangin","district":"Tabir Lintas","urban":"Sido Makmur","postal_code":37353},{"province":"Jambi","city":"Merangin","district":"Tabir","urban":"Seling","postal_code":37353},{"province":"Jambi","city":"Merangin","district":"Tabir Ilir","urban":"Rejo Sari","postal_code":37353},{"province":"Jambi","city":"Merangin","district":"Tabir","urban":"Pasar Rantau Panjang","postal_code":37353},{"province":"Jambi","city":"Merangin","district":"Tiang Pumpung","urban":"Rantau Limau Kapas","postal_code":37353},{"province":"Jambi","city":"Merangin","district":"Tabir Ilir","urban":"Rantau Limau Manis","postal_code":37353},{"province":"Jambi","city":"Merangin","district":"Tabir","urban":"Pasar Baru Rantau","postal_code":37353},{"province":"Jambi","city":"Merangin","district":"Tabir Ilir","urban":"Mekar Limau Manis","postal_code":37353},{"province":"Jambi","city":"Merangin","district":"Margo Tabir","urban":"Lubuk Bumbun","postal_code":37353},{"province":"Jambi","city":"Merangin","district":"Tabir","urban":"Lubuk Napal","postal_code":37353},{"province":"Jambi","city":"Merangin","district":"Tabir","urban":"Mampun","postal_code":37353},{"province":"Jambi","city":"Merangin","district":"Tabir","urban":"Koto Rayo","postal_code":37353},{"province":"Jambi","city":"Merangin","district":"Tabir Lintas","urban":"Koto Baru","postal_code":37353},{"province":"Jambi","city":"Merangin","district":"Tabir Ilir","urban":"Kota Raja","postal_code":37353},{"province":"Jambi","city":"Merangin","district":"Tabir","urban":"Kampung Baruh","postal_code":37353},{"province":"Jambi","city":"Merangin","district":"Tabir","urban":"Kandang","postal_code":37353},{"province":"Jambi","city":"Merangin","district":"Tabir","urban":"Dusun Baru","postal_code":37353},{"province":"Jambi","city":"Merangin","district":"Tabir Timur","urban":"Bukit Subur","postal_code":37353},{"province":"Jambi","city":"Merangin","district":"Tabir","urban":"Beluran Panjang (Buluran)","postal_code":37353},{"province":"Jambi","city":"Merangin","district":"Tabir Ilir","urban":"Air Batu","postal_code":37353}]