[{"province":"Jambi","city":"Merangin","district":"Pangkalan Jambu","urban":"Tiga/Tigo Alur Pangkalan Jambu","postal_code":37361},{"province":"Jambi","city":"Merangin","district":"Sungai Manau","urban":"Tiangko","postal_code":37361},{"province":"Jambi","city":"Merangin","district":"Sungai Manau","urban":"Tiangko","postal_code":37361},{"province":"Jambi","city":"Merangin","district":"Renah Pembarap","urban":"Talang Segegah","postal_code":37361},{"province":"Jambi","city":"Merangin","district":"Sungai Manau","urban":"Sungai/Sei Pinang","postal_code":37361},{"province":"Jambi","city":"Merangin","district":"Sungai Manau","urban":"Sungai Nilau","postal_code":37361},{"province":"Jambi","city":"Merangin","district":"Sungai Manau","urban":"Sungai Manau","postal_code":37361},{"province":"Jambi","city":"Merangin","district":"Pangkalan Jambu","urban":"Sungai Jering","postal_code":37361},{"province":"Jambi","city":"Merangin","district":"Renah Pembarap","urban":"Simpang Tiga Muara Panco","postal_code":37361},{"province":"Jambi","city":"Merangin","district":"Renah Pembarap","urban":"Simpang Parit","postal_code":37361},{"province":"Jambi","city":"Merangin","district":"Renah Pembarap","urban":"Simpang Muaro Panco Timur","postal_code":37361},{"province":"Jambi","city":"Merangin","district":"Sungai Manau","urban":"Saringat/Seringat","postal_code":37361},{"province":"Jambi","city":"Merangin","district":"Renah Pembarap","urban":"Renah Medan","postal_code":37361},{"province":"Jambi","city":"Merangin","district":"Renah Pembarap","urban":"Parit Ujung Tanjung","postal_code":37361},{"province":"Jambi","city":"Merangin","district":"Sungai Manau","urban":"Palipan","postal_code":37361},{"province":"Jambi","city":"Merangin","district":"Renah Pembarap","urban":"Muara Bantan","postal_code":37361},{"province":"Jambi","city":"Merangin","district":"Renah Pembarap","urban":"Markeh","postal_code":37361},{"province":"Jambi","city":"Merangin","district":"Renah Pembarap","urban":"Marus Jaya","postal_code":37361},{"province":"Jambi","city":"Merangin","district":"Pangkalan Jambu","urban":"Kampung Limo","postal_code":37361},{"province":"Jambi","city":"Merangin","district":"Renah Pembarap","urban":"Guguk","postal_code":37361},{"province":"Jambi","city":"Merangin","district":"Sungai Manau","urban":"Gelanggang","postal_code":37361},{"province":"Jambi","city":"Merangin","district":"Sungai Manau","urban":"Durian Lecah","postal_code":37361},{"province":"Jambi","city":"Merangin","district":"Renah Pembarap","urban":"Durian Batakuk","postal_code":37361},{"province":"Jambi","city":"Merangin","district":"Pangkalan Jambu","urban":"Bukit Perentak","postal_code":37361},{"province":"Jambi","city":"Merangin","district":"Pangkalan Jambu","urban":"Bungo Tanjung","postal_code":37361},{"province":"Jambi","city":"Merangin","district":"Sungai Manau","urban":"Bukit Batu","postal_code":37361},{"province":"Jambi","city":"Merangin","district":"Pangkalan Jambu","urban":"Birun","postal_code":37361},{"province":"Jambi","city":"Merangin","district":"Sungai Manau","urban":"Benteng","postal_code":37361},{"province":"Jambi","city":"Merangin","district":"Pangkalan Jambu","urban":"Baru Pangkalan Jambu","postal_code":37361},{"province":"Jambi","city":"Merangin","district":"Renah Pembarap","urban":"Air Batu","postal_code":37361}]