[{"province":"Jambi","city":"Merangin","district":"Lembah Masurai","urban":"Tuo (Dusun Tuo)","postal_code":37372},{"province":"Jambi","city":"Merangin","district":"Sungai Tenang","urban":"Tanjung Mudo","postal_code":37372},{"province":"Jambi","city":"Merangin","district":"Jangkat","urban":"Tanjung Kasri","postal_code":37372},{"province":"Jambi","city":"Merangin","district":"Lembah Masurai","urban":"Tanjung Dalam","postal_code":37372},{"province":"Jambi","city":"Merangin","district":"Lembah Masurai","urban":"Tanjung Berugo","postal_code":37372},{"province":"Jambi","city":"Merangin","district":"Sungai Tenang","urban":"Tanjung Alam","postal_code":37372},{"province":"Jambi","city":"Merangin","district":"Sungai Tenang","urban":"Tanjung Beruang","postal_code":37372},{"province":"Jambi","city":"Merangin","district":"Lembah Masurai","urban":"Talang Paruh","postal_code":37372},{"province":"Jambi","city":"Merangin","district":"Sungai Tenang","urban":"Talang Tembago","postal_code":37372},{"province":"Jambi","city":"Merangin","district":"Lembah Masurai","urban":"Sungai Lalang","postal_code":37372},{"province":"Jambi","city":"Merangin","district":"Jangkat","urban":"Sungai Lisai","postal_code":37372},{"province":"Jambi","city":"Merangin","district":"Lembah Masurai","urban":"Talang Asal","postal_code":37372},{"province":"Jambi","city":"Merangin","district":"Jangkat","urban":"Sungai Hitam","postal_code":37372},{"province":"Jambi","city":"Merangin","district":"Sungai Tenang","urban":"Simpang Talang Tembago","postal_code":37372},{"province":"Jambi","city":"Merangin","district":"Jangkat","urban":"Renah Alai","postal_code":37372},{"province":"Jambi","city":"Merangin","district":"Jangkat","urban":"Renah Kemumu","postal_code":37372},{"province":"Jambi","city":"Merangin","district":"Jangkat","urban":"Renah Pelaan","postal_code":37372},{"province":"Jambi","city":"Merangin","district":"Sungai Tenang","urban":"Rantau Suli","postal_code":37372},{"province":"Jambi","city":"Merangin","district":"Jangkat","urban":"Rantau Kermas","postal_code":37372},{"province":"Jambi","city":"Merangin","district":"Lembah Masurai","urban":"Rancan","postal_code":37372},{"province":"Jambi","city":"Merangin","district":"Lembah Masurai","urban":"Rantau Jering","postal_code":37372},{"province":"Jambi","city":"Merangin","district":"Sungai Tenang","urban":"Pematang Pauh","postal_code":37372},{"province":"Jambi","city":"Merangin","district":"Jangkat","urban":"Pulau Tengah","postal_code":37372},{"province":"Jambi","city":"Merangin","district":"Lembah Masurai","urban":"Nilo Dingin","postal_code":37372},{"province":"Jambi","city":"Merangin","district":"Lembah Masurai","urban":"Pasar Masurai","postal_code":37372},{"province":"Jambi","city":"Merangin","district":"Jangkat","urban":"Muara Madras (Manderas/Mandras)","postal_code":37372},{"province":"Jambi","city":"Merangin","district":"Lembah Masurai","urban":"Muara Lengayo","postal_code":37372},{"province":"Jambi","city":"Merangin","district":"Lembah Masurai","urban":"Muara Pangi","postal_code":37372},{"province":"Jambi","city":"Merangin","district":"Jangkat","urban":"Lubuk Pungguk","postal_code":37372},{"province":"Jambi","city":"Merangin","district":"Lembah Masurai","urban":"Muara Kelukup","postal_code":37372},{"province":"Jambi","city":"Merangin","district":"Jangkat","urban":"Lubuk Mentilin","postal_code":37372},{"province":"Jambi","city":"Merangin","district":"Sungai Tenang","urban":"Koto Tapus","postal_code":37372},{"province":"Jambi","city":"Merangin","district":"Sungai Tenang","urban":"Koto Teguh","postal_code":37372},{"province":"Jambi","city":"Merangin","district":"Jangkat","urban":"Koto Rawang","postal_code":37372},{"province":"Jambi","city":"Merangin","district":"Lembah Masurai","urban":"Koto Rami","postal_code":37372},{"province":"Jambi","city":"Merangin","district":"Sungai Tenang","urban":"Kabu","postal_code":37372},{"province":"Jambi","city":"Merangin","district":"Sungai Tenang","urban":"Koto Baru","postal_code":37372},{"province":"Jambi","city":"Merangin","district":"Sungai Tenang","urban":"Gedang","postal_code":37372},{"province":"Jambi","city":"Merangin","district":"Sungai Tenang","urban":"Jangkar","postal_code":37372},{"province":"Jambi","city":"Merangin","district":"Lembah Masurai","urban":"Durian Mukut","postal_code":37372},{"province":"Jambi","city":"Merangin","district":"Sungai Tenang","urban":"Baru","postal_code":37372},{"province":"Jambi","city":"Merangin","district":"Sungai Tenang","urban":"Beringin Tinggi","postal_code":37372}]