[{"province":"Jambi","city":"Merangin","district":"Muara Siau","urban":"Tiaro","postal_code":37371},{"province":"Jambi","city":"Merangin","district":"Muara Siau","urban":"Teluk Sikumbang","postal_code":37371},{"province":"Jambi","city":"Merangin","district":"Tiang Pumpung","urban":"Tiang Pumpung","postal_code":37371},{"province":"Jambi","city":"Merangin","district":"Muara Siau","urban":"Sepantai Renah","postal_code":37371},{"province":"Jambi","city":"Merangin","district":"Muara Siau","urban":"Sepantai Renah","postal_code":37371},{"province":"Jambi","city":"Merangin","district":"Tiang Pumpung","urban":"Sei Kancing (Sekancing)","postal_code":37371},{"province":"Jambi","city":"Merangin","district":"Tiang Pumpung","urban":"Sekancing Ilir","postal_code":37371},{"province":"Jambi","city":"Merangin","district":"Muara Siau","urban":"Rantau Macang","postal_code":37371},{"province":"Jambi","city":"Merangin","district":"Muara Siau","urban":"Rantau Panjang","postal_code":37371},{"province":"Jambi","city":"Merangin","district":"Muara Siau","urban":"Pulau Raman","postal_code":37371},{"province":"Jambi","city":"Merangin","district":"Muara Siau","urban":"Rantau Bayur","postal_code":37371},{"province":"Jambi","city":"Merangin","district":"Muara Siau","urban":"Rantau Bidaro (Rantai Bedaro)","postal_code":37371},{"province":"Jambi","city":"Merangin","district":"Muara Siau","urban":"Peradun Temeras","postal_code":37371},{"province":"Jambi","city":"Merangin","district":"Muara Siau","urban":"Muara Siau","postal_code":37371},{"province":"Jambi","city":"Merangin","district":"Muara Siau","urban":"Pasar Muara Siau","postal_code":37371},{"province":"Jambi","city":"Merangin","district":"Muara Siau","urban":"Lubuk Beringin","postal_code":37371},{"province":"Jambi","city":"Merangin","district":"Muara Siau","urban":"Lubuk Birah","postal_code":37371},{"province":"Jambi","city":"Merangin","district":"Muara Siau","urban":"Durian Rambun","postal_code":37371},{"province":"Jambi","city":"Merangin","district":"Tiang Pumpung","urban":"Beringin Sanggul","postal_code":37371},{"province":"Jambi","city":"Merangin","district":"Tiang Pumpung","urban":"Baru Tiang Pumpung","postal_code":37371},{"province":"Jambi","city":"Merangin","district":"Muara Siau","urban":"Badak Tekurung","postal_code":37371},{"province":"Jambi","city":"Merangin","district":"Muara Siau","urban":"Air Lago","postal_code":37371}]