[{"province":"Jambi","city":"Sarolangun","district":"Cermin Nan Gadang","urban":"Tendah","postal_code":37382},{"province":"Jambi","city":"Sarolangun","district":"Limun","urban":"Temalang","postal_code":37382},{"province":"Jambi","city":"Sarolangun","district":"Limun","urban":"Temenggung","postal_code":37382},{"province":"Jambi","city":"Sarolangun","district":"Cermin Nan Gadang","urban":"Teluk Rendah","postal_code":37382},{"province":"Jambi","city":"Sarolangun","district":"Cermin Nan Gadang","urban":"Teluk Tigo","postal_code":37382},{"province":"Jambi","city":"Sarolangun","district":"Cermin Nan Gadang","urban":"Sungaikeramat","postal_code":37382},{"province":"Jambi","city":"Sarolangun","district":"Cermin Nan Gadang","urban":"Tambang Tinggi","postal_code":37382},{"province":"Jambi","city":"Sarolangun","district":"Limun","urban":"Tanjung Raden","postal_code":37382},{"province":"Jambi","city":"Sarolangun","district":"Cermin Nan Gadang","urban":"Sekamis","postal_code":37382},{"province":"Jambi","city":"Sarolangun","district":"Limun","urban":"Suka Damai","postal_code":37382},{"province":"Jambi","city":"Sarolangun","district":"Cermin Nan Gadang","urban":"Pemuncak (Pemancak)","postal_code":37382},{"province":"Jambi","city":"Sarolangun","district":"Limun","urban":"Pulau Pandan","postal_code":37382},{"province":"Jambi","city":"Sarolangun","district":"Cermin Nan Gadang","urban":"Pemuncak (Pemancak)","postal_code":37382},{"province":"Jambi","city":"Sarolangun","district":"Limun","urban":"Panca Karya","postal_code":37382},{"province":"Jambi","city":"Sarolangun","district":"Limun","urban":"Napal Melintang","postal_code":37382},{"province":"Jambi","city":"Sarolangun","district":"Limun","urban":"Muara Limun","postal_code":37382},{"province":"Jambi","city":"Sarolangun","district":"Limun","urban":"Muara Mansao","postal_code":37382},{"province":"Jambi","city":"Sarolangun","district":"Limun","urban":"Meribung/Maribung","postal_code":37382},{"province":"Jambi","city":"Sarolangun","district":"Limun","urban":"Mersip","postal_code":37382},{"province":"Jambi","city":"Sarolangun","district":"Limun","urban":"Moenti","postal_code":37382},{"province":"Jambi","city":"Sarolangun","district":"Cermin Nan Gadang","urban":"Lubuk Resam","postal_code":37382},{"province":"Jambi","city":"Sarolangun","district":"Limun","urban":"Lubuk Bedorong","postal_code":37382},{"province":"Jambi","city":"Sarolangun","district":"Cermin Nan Gadang","urban":"Lubuk Resam Hilir","postal_code":37382},{"province":"Jambi","city":"Sarolangun","district":"Cermin Nan Gadang","urban":"Kampung Tujuh","postal_code":37382},{"province":"Jambi","city":"Sarolangun","district":"Limun","urban":"Demang","postal_code":37382},{"province":"Jambi","city":"Sarolangun","district":"Limun","urban":"Berkun","postal_code":37382}]