[{"province":"Jambi","city":"Sarolangun","district":"Pelawan","urban":"Sungai Merah","postal_code":37482},{"province":"Jambi","city":"Sarolangun","district":"Singkut","urban":"Sungai Gedang","postal_code":37482},{"province":"Jambi","city":"Sarolangun","district":"Singkut","urban":"Simpang Nibung","postal_code":37482},{"province":"Jambi","city":"Sarolangun","district":"Singkut","urban":"Sungai Benteng","postal_code":37482},{"province":"Jambi","city":"Sarolangun","district":"Singkut","urban":"Sendang Sari","postal_code":37482},{"province":"Jambi","city":"Sarolangun","district":"Singkut","urban":"Siliwangi","postal_code":37482},{"province":"Jambi","city":"Sarolangun","district":"Pelawan","urban":"Rantau Tenang (Rantanu Tenang)","postal_code":37482},{"province":"Jambi","city":"Sarolangun","district":"Pelawan","urban":"Pulau Aro","postal_code":37482},{"province":"Jambi","city":"Sarolangun","district":"Singkut","urban":"Perdamaian","postal_code":37482},{"province":"Jambi","city":"Sarolangun","district":"Pelawan","urban":"Pelawan Jaya","postal_code":37482},{"province":"Jambi","city":"Sarolangun","district":"Pelawan","urban":"Pematang Kolim/Kulim","postal_code":37482},{"province":"Jambi","city":"Sarolangun","district":"Pelawan","urban":"Penegah","postal_code":37482},{"province":"Jambi","city":"Sarolangun","district":"Pelawan","urban":"Pelawan","postal_code":37482},{"province":"Jambi","city":"Sarolangun","district":"Singkut","urban":"Pasar Singkut","postal_code":37482},{"province":"Jambi","city":"Sarolangun","district":"Singkut","urban":"Payo Lebar","postal_code":37482},{"province":"Jambi","city":"Sarolangun","district":"Pelawan","urban":"Mekarsari","postal_code":37482},{"province":"Jambi","city":"Sarolangun","district":"Pelawan","urban":"Muara Danau","postal_code":37482},{"province":"Jambi","city":"Sarolangun","district":"Pelawan","urban":"Pasar Pelawan","postal_code":37482},{"province":"Jambi","city":"Sarolangun","district":"Pelawan","urban":"Lubuk Sepuh","postal_code":37482},{"province":"Jambi","city":"Sarolangun","district":"Pelawan","urban":"Lubuk Sayak","postal_code":37482},{"province":"Jambi","city":"Sarolangun","district":"Singkut","urban":"Bukitbumi Raya","postal_code":37482},{"province":"Jambi","city":"Sarolangun","district":"Singkut","urban":"Bukittalang Mas","postal_code":37482},{"province":"Jambi","city":"Sarolangun","district":"Singkut","urban":"Bukit Murau","postal_code":37482},{"province":"Jambi","city":"Sarolangun","district":"Singkut","urban":"Bukit Tigo","postal_code":37482},{"province":"Jambi","city":"Sarolangun","district":"Pelawan","urban":"Bukit","postal_code":37482},{"province":"Jambi","city":"Sarolangun","district":"Pelawan","urban":"Batu Putih","postal_code":37482},{"province":"Jambi","city":"Sarolangun","district":"Singkut","urban":"Argo Sari","postal_code":37482}]