[{"province":"Jambi","city":"Sarolangun","district":"Sarolangun","urban":"Ujung Tanjung","postal_code":37481},{"province":"Jambi","city":"Sarolangun","district":"Sarolangun","urban":"Tingting","postal_code":37481},{"province":"Jambi","city":"Sarolangun","district":"Bathin VIII (Batin VIII)","urban":"Teluk Mancur","postal_code":37481},{"province":"Jambi","city":"Sarolangun","district":"Bathin VIII (Batin VIII)","urban":"Tanjung","postal_code":37481},{"province":"Jambi","city":"Sarolangun","district":"Bathin VIII (Batin VIII)","urban":"Tanjung Gagak","postal_code":37481},{"province":"Jambi","city":"Sarolangun","district":"Bathin VIII (Batin VIII)","urban":"Teluk Kecimbung (Sikumbang)","postal_code":37481},{"province":"Jambi","city":"Sarolangun","district":"Sarolangun","urban":"Sukasari","postal_code":37481},{"province":"Jambi","city":"Sarolangun","district":"Sarolangun","urban":"Sungai Abang","postal_code":37481},{"province":"Jambi","city":"Sarolangun","district":"Bathin VIII (Batin VIII)","urban":"Sukajadi","postal_code":37481},{"province":"Jambi","city":"Sarolangun","district":"Sarolangun","urban":"Sei/Sungai Baung","postal_code":37481},{"province":"Jambi","city":"Sarolangun","district":"Bathin VIII (Batin VIII)","urban":"Rantau Gedang","postal_code":37481},{"province":"Jambi","city":"Sarolangun","district":"Sarolangun","urban":"Sarolangun Kembang","postal_code":37481},{"province":"Jambi","city":"Sarolangun","district":"Bathin VIII (Batin VIII)","urban":"Pulau Lintang","postal_code":37481},{"province":"Jambi","city":"Sarolangun","district":"Bathin VIII (Batin VIII)","urban":"Pulau Melako/Malako","postal_code":37481},{"province":"Jambi","city":"Sarolangun","district":"Sarolangun","urban":"Pasar Sarolangun","postal_code":37481},{"province":"Jambi","city":"Sarolangun","district":"Bathin VIII (Batin VIII)","urban":"Penarun","postal_code":37481},{"province":"Jambi","city":"Sarolangun","district":"Bathin VIII (Batin VIII)","urban":"Pulau Buayo","postal_code":37481},{"province":"Jambi","city":"Sarolangun","district":"Bathin VIII (Batin VIII)","urban":"Muaralati","postal_code":37481},{"province":"Jambi","city":"Sarolangun","district":"Sarolangun","urban":"Panti","postal_code":37481},{"province":"Jambi","city":"Sarolangun","district":"Bathin VIII (Batin VIII)","urban":"Limbur Tembesi","postal_code":37481},{"province":"Jambi","city":"Sarolangun","district":"Sarolangun","urban":"Ladang Panjang","postal_code":37481},{"province":"Jambi","city":"Sarolangun","district":"Sarolangun","urban":"Lidung","postal_code":37481},{"province":"Jambi","city":"Sarolangun","district":"Sarolangun","urban":"Dusun Sarolangun","postal_code":37481},{"province":"Jambi","city":"Sarolangun","district":"Sarolangun","urban":"Gunung Kembang","postal_code":37481},{"province":"Jambi","city":"Sarolangun","district":"Bathin VIII (Batin VIII)","urban":"Dusun Dalam","postal_code":37481},{"province":"Jambi","city":"Sarolangun","district":"Sarolangun","urban":"Bernai Dalam","postal_code":37481},{"province":"Jambi","city":"Sarolangun","district":"Bathin VIII (Batin VIII)","urban":"Batu Penyabung","postal_code":37481},{"province":"Jambi","city":"Sarolangun","district":"Sarolangun","urban":"Bernai","postal_code":37481},{"province":"Jambi","city":"Sarolangun","district":"Bathin VIII (Batin VIII)","urban":"Bangun Jayo","postal_code":37481},{"province":"Jambi","city":"Sarolangun","district":"Sarolangun","urban":"Baru","postal_code":37481},{"province":"Jambi","city":"Sarolangun","district":"Sarolangun","urban":"Aur Gading","postal_code":37481}]