[{"province":"Jambi","city":"Tebo","district":"Rimbo Bujang","urban":"Wirtho/Wirotho Agung","postal_code":37553},{"province":"Jambi","city":"Tebo","district":"Rimbo Ulu","urban":"Wanareja","postal_code":37553},{"province":"Jambi","city":"Tebo","district":"Rimbo Bujang","urban":"Tirtakencana","postal_code":37553},{"province":"Jambi","city":"Tebo","district":"Rimbo Bujang","urban":"Tegal Arum","postal_code":37553},{"province":"Jambi","city":"Tebo","district":"Rimbo Ulu","urban":"Sungai Pandan","postal_code":37553},{"province":"Jambi","city":"Tebo","district":"Rimbo Ulu","urban":"Sumber Sari","postal_code":37553},{"province":"Jambi","city":"Tebo","district":"Rimbo Ulu","urban":"Suka Damai","postal_code":37553},{"province":"Jambi","city":"Tebo","district":"Rimbo Ulu","urban":"Suka Maju","postal_code":37553},{"province":"Jambi","city":"Tebo","district":"Rimbo Ilir","urban":"Sumber Agung","postal_code":37553},{"province":"Jambi","city":"Tebo","district":"Rimbo Ulu","urban":"Sido Rukun","postal_code":37553},{"province":"Jambi","city":"Tebo","district":"Rimbo Ilir","urban":"Sido Rejo","postal_code":37553},{"province":"Jambi","city":"Tebo","district":"Rimbo Ilir","urban":"Sari Mulyo/Mulya","postal_code":37553},{"province":"Jambi","city":"Tebo","district":"Rimbo Ilir","urban":"Sepakat Bersatu","postal_code":37553},{"province":"Jambi","city":"Tebo","district":"Rimbo Bujang","urban":"Rimbo Mulyo","postal_code":37553},{"province":"Jambi","city":"Tebo","district":"Rimbo Bujang","urban":"Sapta Mulyo/Mulia","postal_code":37553},{"province":"Jambi","city":"Tebo","district":"Rimbo Bujang","urban":"Purwo Harjo","postal_code":37553},{"province":"Jambi","city":"Tebo","district":"Rimbo Ilir","urban":"Pulung Rejo","postal_code":37553},{"province":"Jambi","city":"Tebo","district":"Rimbo Ilir","urban":"Rantau Kembang","postal_code":37553},{"province":"Jambi","city":"Tebo","district":"Rimbo Bujang","urban":"Pematang Sapat","postal_code":37553},{"province":"Jambi","city":"Tebo","district":"Rimbo Bujang","urban":"Perintis","postal_code":37553},{"province":"Jambi","city":"Tebo","district":"Rimbo Ilir","urban":"Giri Purno","postal_code":37553},{"province":"Jambi","city":"Tebo","district":"Rimbo Ilir","urban":"Giriwinangun","postal_code":37553},{"province":"Jambi","city":"Tebo","district":"Rimbo Ilir","urban":"Karang Dadi","postal_code":37553}]