[{"province":"Jambi","city":"Tebo","district":"Sumay","urban":"Tuo Sumay","postal_code":37573},{"province":"Jambi","city":"Tebo","district":"Sumay","urban":"Teluk Singkawang","postal_code":37573},{"province":"Jambi","city":"Tebo","district":"Sumay","urban":"Teriti","postal_code":37573},{"province":"Jambi","city":"Tebo","district":"Sumay","urban":"Teluk Langkap","postal_code":37573},{"province":"Jambi","city":"Tebo","district":"Sumay","urban":"Tambun Arang","postal_code":37573},{"province":"Jambi","city":"Tebo","district":"Sumay","urban":"Suo Suo","postal_code":37573},{"province":"Jambi","city":"Tebo","district":"Sumay","urban":"Pemayungan (Pemayongan)","postal_code":37573},{"province":"Jambi","city":"Tebo","district":"Sumay","urban":"Puntikalo","postal_code":37573},{"province":"Jambi","city":"Tebo","district":"Sumay","urban":"Lembak Bungur","postal_code":37573},{"province":"Jambi","city":"Tebo","district":"Sumay","urban":"Muara Sekalo","postal_code":37573},{"province":"Jambi","city":"Tebo","district":"Sumay","urban":"Desa Semambu","postal_code":37573},{"province":"Jambi","city":"Tebo","district":"Sumay","urban":"Jati Belarik","postal_code":37573}]