[{"province":"Bengkulu","city":"Bengkulu","district":"Sungai Serut","urban":"Tanjung Jaya","postal_code":38119},{"province":"Bengkulu","city":"Bengkulu","district":"Sungai Serut","urban":"Tanjung Agung","postal_code":38119},{"province":"Bengkulu","city":"Bengkulu","district":"Sungai Serut","urban":"Semarang","postal_code":38119},{"province":"Bengkulu","city":"Bengkulu","district":"Sungai Serut","urban":"Suka Merindu","postal_code":38119},{"province":"Bengkulu","city":"Bengkulu","district":"Sungai Serut","urban":"Surabaya","postal_code":38119},{"province":"Bengkulu","city":"Bengkulu","district":"Teluk Segara","urban":"Malabero/Malabro","postal_code":38119},{"province":"Bengkulu","city":"Bengkulu","district":"Sungai Serut","urban":"Pasar Bengkulu","postal_code":38119},{"province":"Bengkulu","city":"Bengkulu","district":"Teluk Segara","urban":"Kampung Bali","postal_code":38119},{"province":"Bengkulu","city":"Bengkulu","district":"Sungai Serut","urban":"Kampung Kelawi/Klawi","postal_code":38119},{"province":"Bengkulu","city":"Bengkulu","district":"Teluk Segara","urban":"Jitra (Pasar Jitra)","postal_code":38119}]