[{"province":"Bengkulu","city":"Bengkulu Utara","district":"Ketahun","urban":"Urai","postal_code":38361},{"province":"Bengkulu","city":"Bengkulu Utara","district":"Ketahun","urban":"Tanjung Muara","postal_code":38361},{"province":"Bengkulu","city":"Bengkulu Utara","district":"Ketahun","urban":"Tanjung Muara 1","postal_code":38361},{"province":"Bengkulu","city":"Bengkulu Utara","district":"Ketahun","urban":"Sumber Mulya","postal_code":38361},{"province":"Bengkulu","city":"Bengkulu Utara","district":"Ketahun","urban":"Talang Baru","postal_code":38361},{"province":"Bengkulu","city":"Bengkulu Utara","district":"Ketahun","urban":"Pasar Ketahun","postal_code":38361},{"province":"Bengkulu","city":"Bengkulu Utara","district":"Ketahun","urban":"Lubuk Mindai","postal_code":38361},{"province":"Bengkulu","city":"Bengkulu Utara","district":"Ketahun","urban":"Marga Bakti","postal_code":38361},{"province":"Bengkulu","city":"Bengkulu Utara","district":"Ketahun","urban":"Gunung Payung","postal_code":38361},{"province":"Bengkulu","city":"Bengkulu Utara","district":"Ketahun","urban":"Kuala Langi/Lelangi","postal_code":38361},{"province":"Bengkulu","city":"Bengkulu Utara","district":"Ketahun","urban":"Dusun Raja","postal_code":38361},{"province":"Bengkulu","city":"Bengkulu Utara","district":"Ketahun","urban":"Fajar Baru","postal_code":38361},{"province":"Bengkulu","city":"Bengkulu Utara","district":"Ketahun","urban":"Giri Kencana","postal_code":38361},{"province":"Bengkulu","city":"Bengkulu Utara","district":"Ketahun","urban":"Bumi Harjo","postal_code":38361},{"province":"Bengkulu","city":"Bengkulu Utara","district":"Ketahun","urban":"Bukit Makmur","postal_code":38361},{"province":"Bengkulu","city":"Bengkulu Utara","district":"Ketahun","urban":"Bukit Tinggi","postal_code":38361},{"province":"Bengkulu","city":"Bengkulu Utara","district":"Ketahun","urban":"Bukit Harapan","postal_code":38361},{"province":"Bengkulu","city":"Bengkulu Utara","district":"Ketahun","urban":"Bukit Indah","postal_code":38361},{"province":"Bengkulu","city":"Bengkulu Utara","district":"Ketahun","urban":"Air Sekamanak","postal_code":38361},{"province":"Bengkulu","city":"Bengkulu Utara","district":"Ketahun","urban":"Air Simpang","postal_code":38361},{"province":"Bengkulu","city":"Bengkulu Utara","district":"Ketahun","urban":"Air Sebayur","postal_code":38361}]