[{"province":"Bengkulu","city":"Bengkulu Utara","district":"Napal Putih","urban":"Teluk Anggung","postal_code":38363},{"province":"Bengkulu","city":"Bengkulu Utara","district":"Ulok Kupai","urban":"Tanjung Sari","postal_code":38363},{"province":"Bengkulu","city":"Bengkulu Utara","district":"Napal Putih","urban":"Tanjung Kemayan (Kemenyan)","postal_code":38363},{"province":"Bengkulu","city":"Bengkulu Utara","district":"Ulok Kupai","urban":"Tanjung Dalam","postal_code":38363},{"province":"Bengkulu","city":"Bengkulu Utara","district":"Ulok Kupai","urban":"Tanjung Harapan","postal_code":38363},{"province":"Bengkulu","city":"Bengkulu Utara","district":"Napal Putih","urban":"Tanjung Alai","postal_code":38363},{"province":"Bengkulu","city":"Bengkulu Utara","district":"Ulok Kupai","urban":"Talang Berantai","postal_code":38363},{"province":"Bengkulu","city":"Bengkulu Utara","district":"Ulok Kupai","urban":"Pondok Bakil","postal_code":38363},{"province":"Bengkulu","city":"Bengkulu Utara","district":"Napal Putih","urban":"Muara Santan","postal_code":38363},{"province":"Bengkulu","city":"Bengkulu Utara","district":"Napal Putih","urban":"Napal Putih","postal_code":38363},{"province":"Bengkulu","city":"Bengkulu Utara","district":"Ulok Kupai","urban":"Pagar Din","postal_code":38363},{"province":"Bengkulu","city":"Bengkulu Utara","district":"Napal Putih","urban":"Kinal Jaya","postal_code":38363},{"province":"Bengkulu","city":"Bengkulu Utara","district":"Napal Putih","urban":"Lebong Tandai","postal_code":38363},{"province":"Bengkulu","city":"Bengkulu Utara","district":"Napal Putih","urban":"Gembung Raya","postal_code":38363},{"province":"Bengkulu","city":"Bengkulu Utara","district":"Napal Putih","urban":"Jabi (Dusun Jabi)","postal_code":38363},{"province":"Bengkulu","city":"Bengkulu Utara","district":"Ulok Kupai","urban":"Bukit Berlian","postal_code":38363},{"province":"Bengkulu","city":"Bengkulu Utara","district":"Ulok Kupai","urban":"Bukit Sari","postal_code":38363},{"province":"Bengkulu","city":"Bengkulu Utara","district":"Napal Putih","urban":"Air Tenang","postal_code":38363},{"province":"Bengkulu","city":"Bengkulu Utara","district":"Ulok Kupai","urban":"Bangun Karya","postal_code":38363},{"province":"Bengkulu","city":"Bengkulu Utara","district":"Ulok Kupai","urban":"Air Lelangi","postal_code":38363}]