[{"province":"Bengkulu","city":"Bengkulu Utara","district":"Air Napal","urban":"Tebing Kandang","postal_code":38373},{"province":"Bengkulu","city":"Bengkulu Utara","district":"Air Napal","urban":"Tepi Laut (Tepian Laut)","postal_code":38373},{"province":"Bengkulu","city":"Bengkulu Utara","district":"Air Napal","urban":"Selubuk","postal_code":38373},{"province":"Bengkulu","city":"Bengkulu Utara","district":"Air Napal","urban":"Talang Jarang","postal_code":38373},{"province":"Bengkulu","city":"Bengkulu Utara","district":"Tanjung Agung Palik","urban":"Sawang Lebar","postal_code":38373},{"province":"Bengkulu","city":"Bengkulu Utara","district":"Air Napal","urban":"Pasar Palik","postal_code":38373},{"province":"Bengkulu","city":"Bengkulu Utara","district":"Air Napal","urban":"Pasar Tebat","postal_code":38373},{"province":"Bengkulu","city":"Bengkulu Utara","district":"Air Napal","urban":"Pasar Bemba","postal_code":38373},{"province":"Bengkulu","city":"Bengkulu Utara","district":"Air Napal","urban":"Pasar Kerkap","postal_code":38373},{"province":"Bengkulu","city":"Bengkulu Utara","district":"Air Napal","urban":"Talang Kering","postal_code":38373},{"province":"Bengkulu","city":"Bengkulu Utara","district":"Tanjung Agung Palik","urban":"Lubuk Sematung","postal_code":38373},{"province":"Bengkulu","city":"Bengkulu Utara","district":"Air Napal","urban":"Lubuk Tanjung","postal_code":38373},{"province":"Bengkulu","city":"Bengkulu Utara","district":"Tanjung Agung Palik","urban":"Lubuk Gading","postal_code":38373},{"province":"Bengkulu","city":"Bengkulu Utara","district":"Air Napal","urban":"Dusun Pukur","postal_code":38373},{"province":"Bengkulu","city":"Bengkulu Utara","district":"Tanjung Agung Palik","urban":"Ketapi","postal_code":38373},{"province":"Bengkulu","city":"Bengkulu Utara","district":"Air Napal","urban":"Air Napal","postal_code":38373}]