[{"province":"Bengkulu","city":"Bengkulu Tengah","district":"Pondok Kelapa","urban":"Sunda Kelapa","postal_code":38371},{"province":"Bengkulu","city":"Bengkulu Tengah","district":"Pondok Kelapa","urban":"Talang Buseng / Boseng","postal_code":38371},{"province":"Bengkulu","city":"Bengkulu Tengah","district":"Pondok Kelapa","urban":"Talang Pauh","postal_code":38371},{"province":"Bengkulu","city":"Bengkulu Tengah","district":"Pondok Kelapa","urban":"Sri Kuncoro","postal_code":38371},{"province":"Bengkulu","city":"Bengkulu Tengah","district":"Pondok Kelapa","urban":"Srikaton","postal_code":38371},{"province":"Bengkulu","city":"Bengkulu Tengah","district":"Pondok Kelapa","urban":"Pondok Kelapa","postal_code":38371},{"province":"Bengkulu","city":"Bengkulu Tengah","district":"Pondok Kelapa","urban":"Sidodadi","postal_code":38371},{"province":"Bengkulu","city":"Bengkulu Tengah","district":"Pondok Kelapa","urban":"Sidoreja (Sidorejo/Siderejo)","postal_code":38371},{"province":"Bengkulu","city":"Bengkulu Tengah","district":"Pondok Kelapa","urban":"Panca Mukti","postal_code":38371},{"province":"Bengkulu","city":"Bengkulu Tengah","district":"Pondok Kelapa","urban":"Pasar Pedati","postal_code":38371},{"province":"Bengkulu","city":"Bengkulu Tengah","district":"Pondok Kelapa","urban":"Pekik Nyaring","postal_code":38371},{"province":"Bengkulu","city":"Bengkulu Tengah","district":"Pondok Kelapa","urban":"Pagar Dewa","postal_code":38371},{"province":"Bengkulu","city":"Bengkulu Tengah","district":"Pondok Kelapa","urban":"Kembang Ayun","postal_code":38371},{"province":"Bengkulu","city":"Bengkulu Tengah","district":"Pondok Kelapa","urban":"Padang Betuah","postal_code":38371},{"province":"Bengkulu","city":"Bengkulu Tengah","district":"Pondok Kelapa","urban":"Bintang Selatan","postal_code":38371},{"province":"Bengkulu","city":"Bengkulu Tengah","district":"Pondok Kelapa","urban":"Desa Harapan","postal_code":38371},{"province":"Bengkulu","city":"Bengkulu Tengah","district":"Pondok Kelapa","urban":"Abu Sakim","postal_code":38371}]