[{"province":"Bengkulu","city":"Bengkulu Tengah","district":"Merigi Kelindang","urban":"Ulak Lebar","postal_code":38386},{"province":"Bengkulu","city":"Bengkulu Tengah","district":"Taba Penanjung","urban":"Tanjung Heran","postal_code":38386},{"province":"Bengkulu","city":"Bengkulu Tengah","district":"Taba Penanjung","urban":"Tanjung Raman","postal_code":38386},{"province":"Bengkulu","city":"Bengkulu Tengah","district":"Taba Penanjung","urban":"Taba Teret","postal_code":38386},{"province":"Bengkulu","city":"Bengkulu Tengah","district":"Merigi Kelindang","urban":"Talang Ambung / Lambung","postal_code":38386},{"province":"Bengkulu","city":"Bengkulu Tengah","district":"Taba Penanjung","urban":"Taba Penanjung","postal_code":38386},{"province":"Bengkulu","city":"Bengkulu Tengah","district":"Merigi Kelindang","urban":"Lubuk Unen","postal_code":38386},{"province":"Bengkulu","city":"Bengkulu Tengah","district":"Merigi Kelindang","urban":"Taba Durian Sebakul","postal_code":38386},{"province":"Bengkulu","city":"Bengkulu Tengah","district":"Taba Penanjung","urban":"Kota Niur","postal_code":38386},{"province":"Bengkulu","city":"Bengkulu Tengah","district":"Taba Penanjung","urban":"Surau","postal_code":38386},{"province":"Bengkulu","city":"Bengkulu Tengah","district":"Merigi Kelindang","urban":"Kelindang Atas","postal_code":38386},{"province":"Bengkulu","city":"Bengkulu Tengah","district":"Taba Penanjung","urban":"Taba Baru","postal_code":38386},{"province":"Bengkulu","city":"Bengkulu Tengah","district":"Taba Penanjung","urban":"Karang Tengah","postal_code":38386},{"province":"Bengkulu","city":"Bengkulu Tengah","district":"Taba Penanjung","urban":"Rindu Hati","postal_code":38386},{"province":"Bengkulu","city":"Bengkulu Tengah","district":"Merigi Kelindang","urban":"Jambu","postal_code":38386},{"province":"Bengkulu","city":"Bengkulu Tengah","district":"Taba Penanjung","urban":"Suka Rami","postal_code":38386},{"province":"Bengkulu","city":"Bengkulu Tengah","district":"Merigi Kelindang","urban":"Kelindang","postal_code":38386},{"province":"Bengkulu","city":"Bengkulu Tengah","district":"Merigi Kelindang","urban":"Pungguk Beringin","postal_code":38386},{"province":"Bengkulu","city":"Bengkulu Tengah","district":"Taba Penanjung","urban":"Datar Lebar","postal_code":38386},{"province":"Bengkulu","city":"Bengkulu Tengah","district":"Merigi Kelindang","urban":"Pungguk Ketupat","postal_code":38386},{"province":"Bengkulu","city":"Bengkulu Tengah","district":"Taba Penanjung","urban":"Bajak I","postal_code":38386},{"province":"Bengkulu","city":"Bengkulu Tengah","district":"Taba Penanjung","urban":"Penum","postal_code":38386},{"province":"Bengkulu","city":"Bengkulu Tengah","district":"Merigi Kelindang","urban":"Bajak I","postal_code":38386},{"province":"Bengkulu","city":"Bengkulu Tengah","district":"Merigi Kelindang","urban":"Penembang","postal_code":38386},{"province":"Bengkulu","city":"Bengkulu Tengah","district":"Merigi Kelindang","urban":"Lubuk Unen Baru","postal_code":38386},{"province":"Bengkulu","city":"Bengkulu Tengah","district":"Merigi Kelindang","urban":"Padang Kedeper","postal_code":38386},{"province":"Bengkulu","city":"Bengkulu Tengah","district":"Merigi Kelindang","urban":"Lubuk Unen","postal_code":38386}]