[{"province":"Bengkulu","city":"Bengkulu Tengah","district":"Talang Empat","urban":"Tengah Padang","postal_code":38385},{"province":"Bengkulu","city":"Bengkulu Tengah","district":"Karang Tinggi","urban":"Talang Empat","postal_code":38385},{"province":"Bengkulu","city":"Bengkulu Tengah","district":"Talang Empat","urban":"Taba Lagan","postal_code":38385},{"province":"Bengkulu","city":"Bengkulu Tengah","district":"Talang Empat","urban":"Jumat","postal_code":38385},{"province":"Bengkulu","city":"Bengkulu Tengah","district":"Talang Empat","urban":"Taba Pasema (Pasmah)","postal_code":38385},{"province":"Bengkulu","city":"Bengkulu Tengah","district":"Talang Empat","urban":"Jaya Karta","postal_code":38385},{"province":"Bengkulu","city":"Bengkulu Tengah","district":"Talang Empat","urban":"Pagar Jati","postal_code":38385},{"province":"Bengkulu","city":"Bengkulu Tengah","district":"Talang Empat","urban":"Air Sebakul","postal_code":38385},{"province":"Bengkulu","city":"Bengkulu Tengah","district":"Talang Empat","urban":"Pulau Panggung","postal_code":38385},{"province":"Bengkulu","city":"Bengkulu Tengah","district":"Talang Empat","urban":"Bukit","postal_code":38385},{"province":"Bengkulu","city":"Bengkulu Tengah","district":"Talang Empat","urban":"Lagan Bungin","postal_code":38385},{"province":"Bengkulu","city":"Bengkulu Tengah","district":"Talang Empat","urban":"Air Putih","postal_code":38385},{"province":"Bengkulu","city":"Bengkulu Tengah","district":"Talang Empat","urban":"Nakau","postal_code":38385},{"province":"Bengkulu","city":"Bengkulu Tengah","district":"Talang Empat","urban":"Padang UlakTanjung","postal_code":38385},{"province":"Bengkulu","city":"Bengkulu Tengah","district":"Talang Empat","urban":"Kembang Seri","postal_code":38385},{"province":"Bengkulu","city":"Bengkulu Tengah","district":"Talang Empat","urban":"Lagan","postal_code":38385}]