[{"province":"Bengkulu","city":"Bengkulu Tengah","district":"Pagar Jati","urban":"Tumbuk","postal_code":38383},{"province":"Bengkulu","city":"Bengkulu Tengah","district":"Pagar Jati","urban":"Taba Renah / Rena","postal_code":38383},{"province":"Bengkulu","city":"Bengkulu Tengah","district":"Pagar Jati","urban":"Talang Curup","postal_code":38383},{"province":"Bengkulu","city":"Bengkulu Tengah","district":"Pagar Jati","urban":"Temiang","postal_code":38383},{"province":"Bengkulu","city":"Bengkulu Tengah","district":"Merigi Sakti","urban":"Susup","postal_code":38383},{"province":"Bengkulu","city":"Bengkulu Tengah","district":"Merigi Sakti","urban":"Taba Gematung","postal_code":38383},{"province":"Bengkulu","city":"Bengkulu Tengah","district":"Pagar Jati","urban":"Rena Jaya","postal_code":38383},{"province":"Bengkulu","city":"Bengkulu Tengah","district":"Pagar Jati","urban":"Rena Kandis","postal_code":38383},{"province":"Bengkulu","city":"Bengkulu Tengah","district":"Merigi Sakti","urban":"Punjung","postal_code":38383},{"province":"Bengkulu","city":"Bengkulu Tengah","district":"Merigi Sakti","urban":"Rajab Besi / Rajak Besi","postal_code":38383},{"province":"Bengkulu","city":"Bengkulu Tengah","district":"Pagar Jati","urban":"Pagar Jati","postal_code":38383},{"province":"Bengkulu","city":"Bengkulu Tengah","district":"Merigi Sakti","urban":"Pungguk Jaya","postal_code":38383},{"province":"Bengkulu","city":"Bengkulu Tengah","district":"Merigi Sakti","urban":"Pagar Agung","postal_code":38383},{"province":"Bengkulu","city":"Bengkulu Tengah","district":"Merigi Sakti","urban":"Pagar Besi","postal_code":38383},{"province":"Bengkulu","city":"Bengkulu Tengah","district":"Merigi Sakti","urban":"Lubuk Pendam","postal_code":38383},{"province":"Bengkulu","city":"Bengkulu Tengah","district":"Merigi Sakti","urban":"Lubuk Puar","postal_code":38383},{"province":"Bengkulu","city":"Bengkulu Tengah","district":"Merigi Sakti","urban":"Komering","postal_code":38383},{"province":"Bengkulu","city":"Bengkulu Tengah","district":"Pagar Jati","urban":"Layang Lekat","postal_code":38383},{"province":"Bengkulu","city":"Bengkulu Tengah","district":"Pagar Jati","urban":"Kerta Pati","postal_code":38383},{"province":"Bengkulu","city":"Bengkulu Tengah","district":"Pagar Jati","urban":"Kerta Pati Mudik","postal_code":38383},{"province":"Bengkulu","city":"Bengkulu Tengah","district":"Pagar Jati","urban":"Karang Are","postal_code":38383},{"province":"Bengkulu","city":"Bengkulu Tengah","district":"Merigi Sakti","urban":"Karang Panggung","postal_code":38383},{"province":"Bengkulu","city":"Bengkulu Tengah","district":"Pagar Jati","urban":"Keroya","postal_code":38383},{"province":"Bengkulu","city":"Bengkulu Tengah","district":"Pagar Jati","urban":"Datar Penokot / Penokat","postal_code":38383},{"province":"Bengkulu","city":"Bengkulu Tengah","district":"Merigi Sakti","urban":"Durian Lebar","postal_code":38383},{"province":"Bengkulu","city":"Bengkulu Tengah","district":"Merigi Sakti","urban":"Bajak III","postal_code":38383},{"province":"Bengkulu","city":"Bengkulu Tengah","district":"Merigi Sakti","urban":"Curup","postal_code":38383},{"province":"Bengkulu","city":"Bengkulu Tengah","district":"Merigi Sakti","urban":"Arga Indah II","postal_code":38383},{"province":"Bengkulu","city":"Bengkulu Tengah","district":"Pagar Jati","urban":"Arga Indah I","postal_code":38383}]