[{"province":"Bengkulu","city":"Bengkulu Selatan","district":"Bunga Mas","urban":"Tumbuk Tebing","postal_code":38511},{"province":"Bengkulu","city":"Bengkulu Selatan","district":"Kota Manna","urban":"Tebat Kubu","postal_code":38511},{"province":"Bengkulu","city":"Bengkulu Selatan","district":"Manna","urban":"Terulung","postal_code":38511},{"province":"Bengkulu","city":"Bengkulu Selatan","district":"Bunga Mas","urban":"Tanjung Tebat","postal_code":38511},{"province":"Bengkulu","city":"Bengkulu Selatan","district":"Manna","urban":"Tanjung Raman","postal_code":38511},{"province":"Bengkulu","city":"Bengkulu Selatan","district":"Bunga Mas","urban":"Tanjung Aur","postal_code":38511},{"province":"Bengkulu","city":"Bengkulu Selatan","district":"Manna","urban":"Tanjung Besar","postal_code":38511},{"province":"Bengkulu","city":"Bengkulu Selatan","district":"Bunga Mas","urban":"Talang Indah","postal_code":38511},{"province":"Bengkulu","city":"Bengkulu Selatan","district":"Manna","urban":"Tambangan","postal_code":38511},{"province":"Bengkulu","city":"Bengkulu Selatan","district":"Bunga Mas","urban":"Padang Nibung","postal_code":38511},{"province":"Bengkulu","city":"Bengkulu Selatan","district":"Manna","urban":"Padang Pandan","postal_code":38511},{"province":"Bengkulu","city":"Bengkulu Selatan","district":"Kota Manna","urban":"Padang Niur","postal_code":38511},{"province":"Bengkulu","city":"Bengkulu Selatan","district":"Manna","urban":"Padang Manis","postal_code":38511},{"province":"Bengkulu","city":"Bengkulu Selatan","district":"Kota Manna","urban":"Padang Kapuk","postal_code":38511},{"province":"Bengkulu","city":"Bengkulu Selatan","district":"Bunga Mas","urban":"Padang Burnai","postal_code":38511},{"province":"Bengkulu","city":"Bengkulu Selatan","district":"Bunga Mas","urban":"Padang Jawi","postal_code":38511},{"province":"Bengkulu","city":"Bengkulu Selatan","district":"Manna","urban":"Melao","postal_code":38511},{"province":"Bengkulu","city":"Bengkulu Selatan","district":"Manna","urban":"Manggul","postal_code":38511},{"province":"Bengkulu","city":"Bengkulu Selatan","district":"Kota Manna","urban":"Padang Berangin","postal_code":38511},{"province":"Bengkulu","city":"Bengkulu Selatan","district":"Manna","urban":"Lubuk Sirih Ilir","postal_code":38511},{"province":"Bengkulu","city":"Bengkulu Selatan","district":"Manna","urban":"Lubuk Sirih Ulu","postal_code":38511},{"province":"Bengkulu","city":"Bengkulu Selatan","district":"Manna","urban":"Ketaping","postal_code":38511},{"province":"Bengkulu","city":"Bengkulu Selatan","district":"Manna","urban":"Kota Padang","postal_code":38511},{"province":"Bengkulu","city":"Bengkulu Selatan","district":"Bunga Mas","urban":"Kuripan","postal_code":38511},{"province":"Bengkulu","city":"Bengkulu Selatan","district":"Manna","urban":"Kembang Ayun","postal_code":38511},{"province":"Bengkulu","city":"Bengkulu Selatan","district":"Kota Manna","urban":"Kampung Baru","postal_code":38511},{"province":"Bengkulu","city":"Bengkulu Selatan","district":"Manna","urban":"Kayu Kunyit","postal_code":38511},{"province":"Bengkulu","city":"Bengkulu Selatan","district":"Manna","urban":"Jeranglah Rendah","postal_code":38511},{"province":"Bengkulu","city":"Bengkulu Selatan","district":"Manna","urban":"Jeranglah Tinggi","postal_code":38511},{"province":"Bengkulu","city":"Bengkulu Selatan","district":"Manna","urban":"Gunung Kembang","postal_code":38511},{"province":"Bengkulu","city":"Bengkulu Selatan","district":"Manna","urban":"Gunung Sakti","postal_code":38511},{"province":"Bengkulu","city":"Bengkulu Selatan","district":"Bunga Mas","urban":"Gindosuli","postal_code":38511},{"province":"Bengkulu","city":"Bengkulu Selatan","district":"Bunga Mas","urban":"Gunung Kayo","postal_code":38511},{"province":"Bengkulu","city":"Bengkulu Selatan","district":"Kota Manna","urban":"Gelombang (Gelumbang)","postal_code":38511}]