[{"province":"Bengkulu","city":"Bengkulu Selatan","district":"Kedurang","urban":"Tanjung Negara","postal_code":38553},{"province":"Bengkulu","city":"Bengkulu Selatan","district":"Kedurang","urban":"Tanjung Besar","postal_code":38553},{"province":"Bengkulu","city":"Bengkulu Selatan","district":"Kedurang","urban":"Tanjung Nanti (Sukananti)","postal_code":38553},{"province":"Bengkulu","city":"Bengkulu Selatan","district":"Kedurang Ilir","urban":"Sukarami I","postal_code":38553},{"province":"Bengkulu","city":"Bengkulu Selatan","district":"Kedurang","urban":"Tanjung Alam","postal_code":38553},{"province":"Bengkulu","city":"Bengkulu Selatan","district":"Kedurang Ilir","urban":"Suka Jaya","postal_code":38553},{"province":"Bengkulu","city":"Bengkulu Selatan","district":"Kedurang Ilir","urban":"Suka Raja","postal_code":38553},{"province":"Bengkulu","city":"Bengkulu Selatan","district":"Kedurang Ilir","urban":"Penindaian","postal_code":38553},{"province":"Bengkulu","city":"Bengkulu Selatan","district":"Kedurang","urban":"Palak Siring","postal_code":38553},{"province":"Bengkulu","city":"Bengkulu Selatan","district":"Kedurang","urban":"Rantau Sialang","postal_code":38553},{"province":"Bengkulu","city":"Bengkulu Selatan","district":"Kedurang Ilir","urban":"Pagar Banyu","postal_code":38553},{"province":"Bengkulu","city":"Bengkulu Selatan","district":"Kedurang","urban":"Pajar Bulan","postal_code":38553},{"province":"Bengkulu","city":"Bengkulu Selatan","district":"Kedurang Ilir","urban":"Padang Bindu","postal_code":38553},{"province":"Bengkulu","city":"Bengkulu Selatan","district":"Kedurang","urban":"Nanti Agung","postal_code":38553},{"province":"Bengkulu","city":"Bengkulu Selatan","district":"Kedurang Ilir","urban":"Nanjungan","postal_code":38553},{"province":"Bengkulu","city":"Bengkulu Selatan","district":"Kedurang","urban":"Muara Tiga Ilir","postal_code":38553},{"province":"Bengkulu","city":"Bengkulu Selatan","district":"Kedurang","urban":"Muara Tiga","postal_code":38553},{"province":"Bengkulu","city":"Bengkulu Selatan","district":"Kedurang Ilir","urban":"Limus","postal_code":38553},{"province":"Bengkulu","city":"Bengkulu Selatan","district":"Kedurang Ilir","urban":"Lubuk Ladung","postal_code":38553},{"province":"Bengkulu","city":"Bengkulu Selatan","district":"Kedurang","urban":"Lubuk Resam","postal_code":38553},{"province":"Bengkulu","city":"Bengkulu Selatan","district":"Kedurang","urban":"Keban Agung III","postal_code":38553},{"province":"Bengkulu","city":"Bengkulu Selatan","district":"Kedurang","urban":"Lawang Agung","postal_code":38553},{"province":"Bengkulu","city":"Bengkulu Selatan","district":"Kedurang","urban":"Keban Agung I","postal_code":38553},{"province":"Bengkulu","city":"Bengkulu Selatan","district":"Kedurang","urban":"Keban Agung II","postal_code":38553},{"province":"Bengkulu","city":"Bengkulu Selatan","district":"Kedurang","urban":"Karang Agung","postal_code":38553},{"province":"Bengkulu","city":"Bengkulu Selatan","district":"Kedurang","urban":"Karang Agung","postal_code":38553},{"province":"Bengkulu","city":"Bengkulu Selatan","district":"Kedurang","urban":"Durian Sebatang","postal_code":38553},{"province":"Bengkulu","city":"Bengkulu Selatan","district":"Kedurang","urban":"Bumi Agung","postal_code":38553},{"province":"Bengkulu","city":"Bengkulu Selatan","district":"Kedurang Ilir","urban":"Betungan","postal_code":38553},{"province":"Bengkulu","city":"Bengkulu Selatan","district":"Kedurang","urban":"Batu Ampar","postal_code":38553},{"province":"Bengkulu","city":"Bengkulu Selatan","district":"Kedurang Ilir","urban":"Air Sulau","postal_code":38553}]