[{"province":"Bengkulu","city":"Bengkulu Utara","district":"Air Besi","urban":"Tanjung Genting","postal_code":38575},{"province":"Bengkulu","city":"Bengkulu Utara","district":"Air Besi","urban":"Tanjung Karet","postal_code":38575},{"province":"Bengkulu","city":"Bengkulu Utara","district":"Tanjung Agung Palik","urban":"Tanjung Agung","postal_code":38575},{"province":"Bengkulu","city":"Bengkulu Utara","district":"Air Besi","urban":"Talang Renah","postal_code":38575},{"province":"Bengkulu","city":"Bengkulu Utara","district":"Air Besi","urban":"Talang Pungguk","postal_code":38575},{"province":"Bengkulu","city":"Bengkulu Utara","district":"Air Besi","urban":"Talang Lembak","postal_code":38575},{"province":"Bengkulu","city":"Bengkulu Utara","district":"Air Besi","urban":"Talang Ginting","postal_code":38575},{"province":"Bengkulu","city":"Bengkulu Utara","district":"Air Besi","urban":"Sungai Pura","postal_code":38575},{"province":"Bengkulu","city":"Bengkulu Utara","district":"Air Besi","urban":"Talang Baru Ginting","postal_code":38575},{"province":"Bengkulu","city":"Bengkulu Utara","district":"Tanjung Agung Palik","urban":"Sawang Lebar Ilir","postal_code":38575},{"province":"Bengkulu","city":"Bengkulu Utara","district":"Air Besi","urban":"Penyangkak","postal_code":38575},{"province":"Bengkulu","city":"Bengkulu Utara","district":"Tanjung Agung Palik","urban":"Padang Sepan","postal_code":38575},{"province":"Bengkulu","city":"Bengkulu Utara","district":"Air Besi","urban":"Lubuk Balam","postal_code":38575},{"province":"Bengkulu","city":"Bengkulu Utara","district":"Air Besi","urban":"Kota Agung","postal_code":38575},{"province":"Bengkulu","city":"Bengkulu Utara","district":"Air Besi","urban":"Kertapati","postal_code":38575},{"province":"Bengkulu","city":"Bengkulu Utara","district":"Air Besi","urban":"Datar Macang","postal_code":38575},{"province":"Bengkulu","city":"Bengkulu Utara","district":"Air Besi","urban":"Genting Perangkap","postal_code":38575},{"province":"Bengkulu","city":"Bengkulu Utara","district":"Air Besi","urban":"Curup (Dusun Curup)","postal_code":38575}]