[{"province":"Bengkulu","city":"Bengkulu Utara","district":"Arga Makmur","urban":"Talang Denau","postal_code":38611},{"province":"Bengkulu","city":"Bengkulu Utara","district":"Arma Jaya","urban":"Sidodadi","postal_code":38611},{"province":"Bengkulu","city":"Bengkulu Utara","district":"Arma Jaya","urban":"Sumber Agung","postal_code":38611},{"province":"Bengkulu","city":"Bengkulu Utara","district":"Arma Jaya","urban":"Tebing Kaning","postal_code":38611},{"province":"Bengkulu","city":"Bengkulu Utara","district":"Arga Makmur","urban":"Senali","postal_code":38611},{"province":"Bengkulu","city":"Bengkulu Utara","district":"Arga Makmur","urban":"Taba Tembilang","postal_code":38611},{"province":"Bengkulu","city":"Bengkulu Utara","district":"Arga Makmur","urban":"Sido Urip","postal_code":38611},{"province":"Bengkulu","city":"Bengkulu Utara","district":"Arma Jaya","urban":"Pematang Sapang","postal_code":38611},{"province":"Bengkulu","city":"Bengkulu Utara","district":"Arma Jaya","urban":"Pagar Banyu","postal_code":38611},{"province":"Bengkulu","city":"Bengkulu Utara","district":"Arma Jaya","urban":"Pagar Ruyung","postal_code":38611},{"province":"Bengkulu","city":"Bengkulu Utara","district":"Arga Makmur","urban":"Kuro Tidur","postal_code":38611},{"province":"Bengkulu","city":"Bengkulu Utara","district":"Arma Jaya","urban":"Kemumu","postal_code":38611},{"province":"Bengkulu","city":"Bengkulu Utara","district":"Arga Makmur","urban":"Karang Anyar","postal_code":38611},{"province":"Bengkulu","city":"Bengkulu Utara","district":"Arga Makmur","urban":"Karang Anyar Ilir","postal_code":38611},{"province":"Bengkulu","city":"Bengkulu Utara","district":"Arga Makmur","urban":"Gunung Selam / Selan","postal_code":38611},{"province":"Bengkulu","city":"Bengkulu Utara","district":"Arma Jaya","urban":"Kalai Duai","postal_code":38611},{"province":"Bengkulu","city":"Bengkulu Utara","district":"Arma Jaya","urban":"Kali","postal_code":38611},{"province":"Bengkulu","city":"Bengkulu Utara","district":"Arga Makmur","urban":"Gunung Alam","postal_code":38611},{"province":"Bengkulu","city":"Bengkulu Utara","district":"Arma Jaya","urban":"Gunung Besar","postal_code":38611},{"province":"Bengkulu","city":"Bengkulu Utara","district":"Arga Makmur","urban":"Gunung Agung","postal_code":38611},{"province":"Bengkulu","city":"Bengkulu Utara","district":"Arma Jaya","urban":"Gardu","postal_code":38611},{"province":"Bengkulu","city":"Bengkulu Utara","district":"Arma Jaya","urban":"Air Merah","postal_code":38611}]