[{"province":"Bengkulu","city":"Bengkulu Utara","district":"Air Padang","urban":"Tanjung Aur","postal_code":38653},{"province":"Bengkulu","city":"Bengkulu Utara","district":"Air Padang","urban":"Teluk Ajang","postal_code":38653},{"province":"Bengkulu","city":"Bengkulu Utara","district":"Lais","urban":"Taba Baru","postal_code":38653},{"province":"Bengkulu","city":"Bengkulu Utara","district":"Lais","urban":"Talang Rasau","postal_code":38653},{"province":"Bengkulu","city":"Bengkulu Utara","district":"Air Padang","urban":"Talang Ulu","postal_code":38653},{"province":"Bengkulu","city":"Bengkulu Utara","district":"Lais","urban":"Suka Langu","postal_code":38653},{"province":"Bengkulu","city":"Bengkulu Utara","district":"Air Padang","urban":"Retes","postal_code":38653},{"province":"Bengkulu","city":"Bengkulu Utara","district":"Air Padang","urban":"Sukarami","postal_code":38653},{"province":"Bengkulu","city":"Bengkulu Utara","district":"Air Padang","urban":"Padang Kala","postal_code":38653},{"province":"Bengkulu","city":"Bengkulu Utara","district":"Lais","urban":"Pal Tiga Puluh","postal_code":38653},{"province":"Bengkulu","city":"Bengkulu Utara","district":"Lais","urban":"Pasar Lais","postal_code":38653},{"province":"Bengkulu","city":"Bengkulu Utara","district":"Air Padang","urban":"Lubuk Mumpo","postal_code":38653},{"province":"Bengkulu","city":"Bengkulu Utara","district":"Air Padang","urban":"Mesigit","postal_code":38653},{"province":"Bengkulu","city":"Bengkulu Utara","district":"Air Padang","urban":"Kembang Manis","postal_code":38653},{"province":"Bengkulu","city":"Bengkulu Utara","district":"Lais","urban":"Lubuk Gedang","postal_code":38653},{"province":"Bengkulu","city":"Bengkulu Utara","district":"Lais","urban":"Lubuk Lesung","postal_code":38653},{"province":"Bengkulu","city":"Bengkulu Utara","district":"Lais","urban":"Jago Bayo","postal_code":38653},{"province":"Bengkulu","city":"Bengkulu Utara","district":"Lais","urban":"Kalbang","postal_code":38653},{"province":"Bengkulu","city":"Bengkulu Utara","district":"Lais","urban":"Durian Daun","postal_code":38653},{"province":"Bengkulu","city":"Bengkulu Utara","district":"Lais","urban":"Dusun Rajo/Raja","postal_code":38653},{"province":"Bengkulu","city":"Bengkulu Utara","district":"Air Padang","urban":"Balam","postal_code":38653},{"province":"Bengkulu","city":"Bengkulu Utara","district":"Lais","urban":"Datar Lebar","postal_code":38653},{"province":"Bengkulu","city":"Bengkulu Utara","district":"Lais","urban":"Air Padang","postal_code":38653}]