[{"province":"Bengkulu","city":"Muko Muko","district":"XIV Koto","urban":"Tanjung Mulya","postal_code":38765},{"province":"Bengkulu","city":"Muko Muko","district":"Air Dikit","urban":"Sumber Sari","postal_code":38765},{"province":"Bengkulu","city":"Muko Muko","district":"Kota Mukomuko (Mukomuko Utara)","urban":"Selagan Jaya","postal_code":38765},{"province":"Bengkulu","city":"Muko Muko","district":"Kota Mukomuko (Mukomuko Utara)","urban":"Tanah Harapan","postal_code":38765},{"province":"Bengkulu","city":"Muko Muko","district":"Air Dikit","urban":"Sari Bulan","postal_code":38765},{"province":"Bengkulu","city":"Muko Muko","district":"Kota Mukomuko (Mukomuko Utara)","urban":"Tanah Rekah","postal_code":38765},{"province":"Bengkulu","city":"Muko Muko","district":"Air Dikit","urban":"Sari Makmur","postal_code":38765},{"province":"Bengkulu","city":"Muko Muko","district":"XIV Koto","urban":"Rawa Bangun","postal_code":38765},{"province":"Bengkulu","city":"Muko Muko","district":"XIV Koto","urban":"Rawa Mulya","postal_code":38765},{"province":"Bengkulu","city":"Muko Muko","district":"XIV Koto","urban":"Pauh Terenjah","postal_code":38765},{"province":"Bengkulu","city":"Muko Muko","district":"Air Dikit","urban":"Pondok Lunang","postal_code":38765},{"province":"Bengkulu","city":"Muko Muko","district":"Kota Mukomuko (Mukomuko Utara)","urban":"Pasar Sebelah","postal_code":38765},{"province":"Bengkulu","city":"Muko Muko","district":"XIV Koto","urban":"Lubuk Sanai III","postal_code":38765},{"province":"Bengkulu","city":"Muko Muko","district":"Kota Mukomuko (Mukomuko Utara)","urban":"Koto Jaya","postal_code":38765},{"province":"Bengkulu","city":"Muko Muko","district":"XIV Koto","urban":"Lubuk Sanai","postal_code":38765},{"province":"Bengkulu","city":"Muko Muko","district":"XIV Koto","urban":"Lubuk Sanai II","postal_code":38765},{"province":"Bengkulu","city":"Muko Muko","district":"XIV Koto","urban":"Dusun Baru Pelokan","postal_code":38765},{"province":"Bengkulu","city":"Muko Muko","district":"Air Dikit","urban":"Dusun Baru V Koto","postal_code":38765},{"province":"Bengkulu","city":"Muko Muko","district":"Kota Mukomuko (Mukomuko Utara)","urban":"Bandar Ratu","postal_code":38765},{"province":"Bengkulu","city":"Muko Muko","district":"Air Dikit","urban":"Air Kasai","postal_code":38765},{"province":"Bengkulu","city":"Muko Muko","district":"Air Dikit","urban":"Air Dikit","postal_code":38765}]