[{"province":"Bengkulu","city":"Muko Muko","district":"Pondok Suguh","urban":"Teluk Bakung","postal_code":38766},{"province":"Bengkulu","city":"Muko Muko","district":"Pondok Suguh","urban":"Tunggang (Dusun Tunggang)","postal_code":38766},{"province":"Bengkulu","city":"Muko Muko","district":"Teramang Jaya","urban":"Teramang Jaya","postal_code":38766},{"province":"Bengkulu","city":"Muko Muko","district":"Sungai Rumbai","urban":"Sumber Makmur","postal_code":38766},{"province":"Bengkulu","city":"Muko Muko","district":"Sungai Rumbai","urban":"Talang Gading","postal_code":38766},{"province":"Bengkulu","city":"Muko Muko","district":"Pondok Suguh","urban":"Sinar Laut","postal_code":38766},{"province":"Bengkulu","city":"Muko Muko","district":"Sungai Rumbai","urban":"Sidodadi","postal_code":38766},{"province":"Bengkulu","city":"Muko Muko","district":"Pondok Suguh","urban":"Sido Makmur","postal_code":38766},{"province":"Bengkulu","city":"Muko Muko","district":"Sungai Rumbai","urban":"Retak Mudik","postal_code":38766},{"province":"Bengkulu","city":"Muko Muko","district":"Pondok Suguh","urban":"Pondok Kandang","postal_code":38766},{"province":"Bengkulu","city":"Muko Muko","district":"Pondok Suguh","urban":"Pondok Suguh","postal_code":38766},{"province":"Bengkulu","city":"Muko Muko","district":"Pondok Suguh","urban":"Pernyah","postal_code":38766},{"province":"Bengkulu","city":"Muko Muko","district":"Teramang Jaya","urban":"Pondok Baru","postal_code":38766},{"province":"Bengkulu","city":"Muko Muko","district":"Sungai Rumbai","urban":"Padang Gading","postal_code":38766},{"province":"Bengkulu","city":"Muko Muko","district":"Sungai Rumbai","urban":"Mekar Sari","postal_code":38766},{"province":"Bengkulu","city":"Muko Muko","district":"Teramang Jaya","urban":"Pasar Bantal","postal_code":38766},{"province":"Bengkulu","city":"Muko Muko","district":"Teramang Jaya","urban":"Nenggalo","postal_code":38766},{"province":"Bengkulu","city":"Muko Muko","district":"Pondok Suguh","urban":"Nelan Indah","postal_code":38766},{"province":"Bengkulu","city":"Muko Muko","district":"Pondok Suguh","urban":"Mandi Angin Jaya","postal_code":38766},{"province":"Bengkulu","city":"Muko Muko","district":"Pondok Suguh","urban":"Lubuk Selandak","postal_code":38766},{"province":"Bengkulu","city":"Muko Muko","district":"Pondok Suguh","urban":"Lubuk Bento","postal_code":38766},{"province":"Bengkulu","city":"Muko Muko","district":"Sungai Rumbai","urban":"Gajah Mati","postal_code":38766},{"province":"Bengkulu","city":"Muko Muko","district":"Pondok Suguh","urban":"Karya Mulya","postal_code":38766},{"province":"Bengkulu","city":"Muko Muko","district":"Sungai Rumbai","urban":"Gading Jaya","postal_code":38766},{"province":"Bengkulu","city":"Muko Muko","district":"Teramang Jaya","urban":"Bunga Tanjung","postal_code":38766},{"province":"Bengkulu","city":"Muko Muko","district":"Pondok Suguh","urban":"Bumi Mekar Jaya","postal_code":38766},{"province":"Bengkulu","city":"Muko Muko","district":"Teramang Jaya","urban":"Brangan Mulya","postal_code":38766},{"province":"Bengkulu","city":"Muko Muko","district":"Pondok Suguh","urban":"Batu Ejung","postal_code":38766},{"province":"Bengkulu","city":"Muko Muko","district":"Sungai Rumbai","urban":"Banjar Sari","postal_code":38766},{"province":"Bengkulu","city":"Muko Muko","district":"Teramang Jaya","urban":"Bandar Jaya","postal_code":38766},{"province":"Bengkulu","city":"Muko Muko","district":"Pondok Suguh","urban":"Air Bikuk","postal_code":38766},{"province":"Bengkulu","city":"Muko Muko","district":"Pondok Suguh","urban":"Air Hitam","postal_code":38766},{"province":"Bengkulu","city":"Muko Muko","district":"Pondok Suguh","urban":"Air Berau","postal_code":38766}]