[{"province":"Bengkulu","city":"Muko Muko","district":"Lubuk Pinang","urban":"Tirta Mulya","postal_code":38767},{"province":"Bengkulu","city":"Muko Muko","district":"Lubuk Pinang","urban":"Tanjung Alai","postal_code":38767},{"province":"Bengkulu","city":"Muko Muko","district":"Air Majunto","urban":"Tirta Mulya","postal_code":38767},{"province":"Bengkulu","city":"Muko Muko","district":"V Koto","urban":"Talang Sepakat","postal_code":38767},{"province":"Bengkulu","city":"Muko Muko","district":"V Koto","urban":"Sungai Rengas","postal_code":38767},{"province":"Bengkulu","city":"Muko Muko","district":"V Koto","urban":"Talang Petai","postal_code":38767},{"province":"Bengkulu","city":"Muko Muko","district":"V Koto","urban":"Talang Sakti","postal_code":38767},{"province":"Bengkulu","city":"Muko Muko","district":"Lubuk Pinang","urban":"Sumber Makmur","postal_code":38767},{"province":"Bengkulu","city":"Muko Muko","district":"V Koto","urban":"Sungai Lintang","postal_code":38767},{"province":"Bengkulu","city":"Muko Muko","district":"Lubuk Pinang","urban":"Sinar Jaya","postal_code":38767},{"province":"Bengkulu","city":"Muko Muko","district":"Lubuk Pinang","urban":"Suka Pindah","postal_code":38767},{"province":"Bengkulu","city":"Muko Muko","district":"Lubuk Pinang","urban":"Sido Makmur","postal_code":38767},{"province":"Bengkulu","city":"Muko Muko","district":"V Koto","urban":"Rasno","postal_code":38767},{"province":"Bengkulu","city":"Muko Muko","district":"Lubuk Pinang","urban":"Ranah Karya","postal_code":38767},{"province":"Bengkulu","city":"Muko Muko","district":"V Koto","urban":"Pondok Panjang","postal_code":38767},{"province":"Bengkulu","city":"Muko Muko","district":"V Koto","urban":"Pondok Tengah","postal_code":38767},{"province":"Bengkulu","city":"Muko Muko","district":"Air Majunto","urban":"Manjunto Jaya","postal_code":38767},{"province":"Bengkulu","city":"Muko Muko","district":"Air Majunto","urban":"Pondok Makmur","postal_code":38767},{"province":"Bengkulu","city":"Muko Muko","district":"Lubuk Pinang","urban":"Lubuk Gedang","postal_code":38767},{"province":"Bengkulu","city":"Muko Muko","district":"Lubuk Pinang","urban":"Lubuk Pinang","postal_code":38767},{"province":"Bengkulu","city":"Muko Muko","district":"V Koto","urban":"Lalang Luas","postal_code":38767},{"province":"Bengkulu","city":"Muko Muko","district":"V Koto","urban":"Lubuk Cabau","postal_code":38767},{"province":"Bengkulu","city":"Muko Muko","district":"Lubuk Pinang","urban":"Arah Tiga","postal_code":38767},{"province":"Bengkulu","city":"Muko Muko","district":"Lubuk Pinang","urban":"Kota Praja","postal_code":38767},{"province":"Bengkulu","city":"Muko Muko","district":"Air Majunto","urban":"Agung Jaya","postal_code":38767}]