[{"province":"Bengkulu","city":"Muko Muko","district":"Ipuh (Muko-Muko Selatan)","urban":"Tirta Mulya","postal_code":38764},{"province":"Bengkulu","city":"Muko Muko","district":"Ipuh (Muko-Muko Selatan)","urban":"Tanjung Jaya","postal_code":38764},{"province":"Bengkulu","city":"Muko Muko","district":"Ipuh (Muko-Muko Selatan)","urban":"Tanjung Medan","postal_code":38764},{"province":"Bengkulu","city":"Muko Muko","district":"Ipuh (Muko-Muko Selatan)","urban":"Tirta Kencana","postal_code":38764},{"province":"Bengkulu","city":"Muko Muko","district":"Air Rami","urban":"Talang Rio","postal_code":38764},{"province":"Bengkulu","city":"Muko Muko","district":"Ipuh (Muko-Muko Selatan)","urban":"Tanjung Harapan","postal_code":38764},{"province":"Bengkulu","city":"Muko Muko","district":"Malin Deman","urban":"Talang Baru","postal_code":38764},{"province":"Bengkulu","city":"Muko Muko","district":"Ipuh (Muko-Muko Selatan)","urban":"Sibak (Dusun Sibak)","postal_code":38764},{"province":"Bengkulu","city":"Muko Muko","district":"Malin Deman","urban":"Talang Arah","postal_code":38764},{"province":"Bengkulu","city":"Muko Muko","district":"Ipuh (Muko-Muko Selatan)","urban":"Semundam","postal_code":38764},{"province":"Bengkulu","city":"Muko Muko","district":"Malin Deman","urban":"Serami Baru","postal_code":38764},{"province":"Bengkulu","city":"Muko Muko","district":"Ipuh (Muko-Muko Selatan)","urban":"Retak Hilir","postal_code":38764},{"province":"Bengkulu","city":"Muko Muko","district":"Malin Deman","urban":"Semambang Makmur (Semambung)","postal_code":38764},{"province":"Bengkulu","city":"Muko Muko","district":"Ipuh (Muko-Muko Selatan)","urban":"Pulau Payung (Pulai Payung)","postal_code":38764},{"province":"Bengkulu","city":"Muko Muko","district":"Air Rami","urban":"Rami Mulia","postal_code":38764},{"province":"Bengkulu","city":"Muko Muko","district":"Ipuh (Muko-Muko Selatan)","urban":"Pulau Makmur","postal_code":38764},{"province":"Bengkulu","city":"Muko Muko","district":"Ipuh (Muko-Muko Selatan)","urban":"Pulau Baru","postal_code":38764},{"province":"Bengkulu","city":"Muko Muko","district":"Ipuh (Muko-Muko Selatan)","urban":"Mundam Marap","postal_code":38764},{"province":"Bengkulu","city":"Muko Muko","district":"Ipuh (Muko-Muko Selatan)","urban":"Pasar Baru","postal_code":38764},{"province":"Bengkulu","city":"Muko Muko","district":"Ipuh (Muko-Muko Selatan)","urban":"Pasar Ipuh","postal_code":38764},{"province":"Bengkulu","city":"Muko Muko","district":"Air Rami","urban":"Mekar Jaya","postal_code":38764},{"province":"Bengkulu","city":"Muko Muko","district":"Ipuh (Muko-Muko Selatan)","urban":"Medan Jaya","postal_code":38764},{"province":"Bengkulu","city":"Muko Muko","district":"Ipuh (Muko-Muko Selatan)","urban":"Manunggal Jaya","postal_code":38764},{"province":"Bengkulu","city":"Muko Muko","district":"Air Rami","urban":"Marga Mulia","postal_code":38764},{"province":"Bengkulu","city":"Muko Muko","district":"Malin Deman","urban":"Gajah Makmur","postal_code":38764},{"province":"Bengkulu","city":"Muko Muko","district":"Malin Deman","urban":"Lubuk Talang","postal_code":38764},{"province":"Bengkulu","city":"Muko Muko","district":"Air Rami","urban":"Makmur Jaya","postal_code":38764},{"province":"Bengkulu","city":"Muko Muko","district":"Air Rami","urban":"Dusun Pulau","postal_code":38764},{"province":"Bengkulu","city":"Muko Muko","district":"Ipuh (Muko-Muko Selatan)","urban":"Bukit Mulya","postal_code":38764},{"province":"Bengkulu","city":"Muko Muko","district":"Ipuh (Muko-Muko Selatan)","urban":"Cinta Asih","postal_code":38764},{"province":"Bengkulu","city":"Muko Muko","district":"Air Rami","urban":"Bukit Harapan","postal_code":38764},{"province":"Bengkulu","city":"Muko Muko","district":"Air Rami","urban":"Air Rami","postal_code":38764},{"province":"Bengkulu","city":"Muko Muko","district":"Air Rami","urban":"Arga Jaya","postal_code":38764},{"province":"Bengkulu","city":"Muko Muko","district":"Ipuh (Muko-Muko Selatan)","urban":"Air Buluh","postal_code":38764},{"province":"Bengkulu","city":"Muko Muko","district":"Ipuh (Muko-Muko Selatan)","urban":"Air Mera","postal_code":38764}]