[{"province":"Bengkulu","city":"Seluma","district":"Talo","urban":"Simpang Tiga Pagar Gasing","postal_code":38874},{"province":"Bengkulu","city":"Seluma","district":"Talo","urban":"Napal Melintang","postal_code":38874},{"province":"Bengkulu","city":"Seluma","district":"Talo","urban":"Serambi Gunung","postal_code":38874},{"province":"Bengkulu","city":"Seluma","district":"Talo","urban":"Lubuk Ngantungan","postal_code":38874},{"province":"Bengkulu","city":"Seluma","district":"Talo","urban":"Masmambang","postal_code":38874},{"province":"Bengkulu","city":"Seluma","district":"Talo","urban":"Muara Danau","postal_code":38874},{"province":"Bengkulu","city":"Seluma","district":"Talo","urban":"Lubuk Gadis","postal_code":38874},{"province":"Bengkulu","city":"Seluma","district":"Talo","urban":"Lubuk Gio","postal_code":38874},{"province":"Bengkulu","city":"Seluma","district":"Talo","urban":"Durian Bubur","postal_code":38874},{"province":"Bengkulu","city":"Seluma","district":"Talo","urban":"Kampai","postal_code":38874},{"province":"Bengkulu","city":"Seluma","district":"Talo","urban":"Kembang Seri","postal_code":38874},{"province":"Bengkulu","city":"Seluma","district":"Talo","urban":"Batu Tugu","postal_code":38874},{"province":"Bengkulu","city":"Seluma","district":"Talo","urban":"Bunut Tinggi","postal_code":38874},{"province":"Bengkulu","city":"Seluma","district":"Talo","urban":"Air Teras","postal_code":38874},{"province":"Bengkulu","city":"Seluma","district":"Talo","urban":"Air Teras","postal_code":38874}]