[{"province":"Bengkulu","city":"Kaur","district":"Padang Guci Hilir","urban":"Ulak Agung","postal_code":38956},{"province":"Bengkulu","city":"Kaur","district":"Lungkang Kule","urban":"Tanjung Kurung","postal_code":38956},{"province":"Bengkulu","city":"Kaur","district":"Kelam Tengah","urban":"Tanjung Ganti I","postal_code":38956},{"province":"Bengkulu","city":"Kaur","district":"Kelam Tengah","urban":"Tanjung Ganti II","postal_code":38956},{"province":"Bengkulu","city":"Kaur","district":"Kaur Utara","urban":"Tanjung Betung I","postal_code":38956},{"province":"Bengkulu","city":"Kaur","district":"Kaur Utara","urban":"Tanjung Betung II","postal_code":38956},{"province":"Bengkulu","city":"Kaur","district":"Lungkang Kule","urban":"Tanjung Bunian","postal_code":38956},{"province":"Bengkulu","city":"Kaur","district":"Kelam Tengah","urban":"Talang Marap","postal_code":38956},{"province":"Bengkulu","city":"Kaur","district":"Padang Guci Hilir","urban":"Talang Padang","postal_code":38956},{"province":"Bengkulu","city":"Kaur","district":"Padang Guci Hilir","urban":"Talang Besar","postal_code":38956},{"province":"Bengkulu","city":"Kaur","district":"Padang Guci Hilir","urban":"Talang Jawi I","postal_code":38956},{"province":"Bengkulu","city":"Kaur","district":"Padang Guci Hilir","urban":"Talang Jawi II","postal_code":38956},{"province":"Bengkulu","city":"Kaur","district":"Kelam Tengah","urban":"Suka Rami II","postal_code":38956},{"province":"Bengkulu","city":"Kaur","district":"Kelam Tengah","urban":"Sukarami","postal_code":38956},{"province":"Bengkulu","city":"Kaur","district":"Lungkang Kule","urban":"Suka Nanti","postal_code":38956},{"province":"Bengkulu","city":"Kaur","district":"Kaur Utara","urban":"Simpang Tiga","postal_code":38956},{"province":"Bengkulu","city":"Kaur","district":"Lungkang Kule","urban":"Sinar Bulan","postal_code":38956},{"province":"Bengkulu","city":"Kaur","district":"Lungkang Kule","urban":"Senak Perda","postal_code":38956},{"province":"Bengkulu","city":"Kaur","district":"Kelam Tengah","urban":"Rigangan II","postal_code":38956},{"province":"Bengkulu","city":"Kaur","district":"Kelam Tengah","urban":"Rigangan III","postal_code":38956},{"province":"Bengkulu","city":"Kaur","district":"Padang Guci Hilir","urban":"Pulau Panggung","postal_code":38956},{"province":"Bengkulu","city":"Kaur","district":"Kelam Tengah","urban":"Rigangan I","postal_code":38956},{"province":"Bengkulu","city":"Kaur","district":"Kaur Utara","urban":"Perugian","postal_code":38956},{"province":"Bengkulu","city":"Kaur","district":"Padang Guci Hulu","urban":"Pagar Gunung","postal_code":38956},{"province":"Bengkulu","city":"Kaur","district":"Kaur Utara","urban":"Pancur Negara","postal_code":38956},{"province":"Bengkulu","city":"Kaur","district":"Padang Guci Hulu","urban":"Naga Rantai","postal_code":38956},{"province":"Bengkulu","city":"Kaur","district":"Padang Guci Hulu","urban":"Pagar Alam","postal_code":38956},{"province":"Bengkulu","city":"Kaur","district":"Kaur Utara","urban":"Padang Manis","postal_code":38956},{"province":"Bengkulu","city":"Kaur","district":"Padang Guci Hilir","urban":"Marga Mulyo","postal_code":38956},{"province":"Bengkulu","city":"Kaur","district":"Padang Guci Hulu","urban":"Manau Sembilan I","postal_code":38956},{"province":"Bengkulu","city":"Kaur","district":"Padang Guci Hulu","urban":"Manau Sembilan II","postal_code":38956},{"province":"Bengkulu","city":"Kaur","district":"Padang Guci Hulu","urban":"Jati Mulyo","postal_code":38956},{"province":"Bengkulu","city":"Kaur","district":"Lungkang Kule","urban":"Lawang Agung","postal_code":38956},{"province":"Bengkulu","city":"Kaur","district":"Padang Guci Hilir","urban":"Gunung Kaya","postal_code":38956},{"province":"Bengkulu","city":"Kaur","district":"Kaur Utara","urban":"Guru Agung","postal_code":38956},{"province":"Bengkulu","city":"Kaur","district":"Kaur Utara","urban":"Guru Agung II","postal_code":38956},{"province":"Bengkulu","city":"Kaur","district":"Kaur Utara","urban":"Gunung Agung","postal_code":38956},{"province":"Bengkulu","city":"Kaur","district":"Lungkang Kule","urban":"Datar Lebar","postal_code":38956},{"province":"Bengkulu","city":"Kaur","district":"Lungkang Kule","urban":"Datar Lebar II","postal_code":38956},{"province":"Bengkulu","city":"Kaur","district":"Padang Guci Hulu","urban":"Coko Betung","postal_code":38956},{"province":"Bengkulu","city":"Kaur","district":"Kaur Utara","urban":"Coko Enau","postal_code":38956},{"province":"Bengkulu","city":"Kaur","district":"Padang Guci Hulu","urban":"Bungin Tambun III","postal_code":38956},{"province":"Bengkulu","city":"Kaur","district":"Padang Guci Hulu","urban":"Bungin Tambun I","postal_code":38956},{"province":"Bengkulu","city":"Kaur","district":"Padang Guci Hulu","urban":"Bungin Tambun II","postal_code":38956},{"province":"Bengkulu","city":"Kaur","district":"Kaur Utara","urban":"Bandu Agung","postal_code":38956},{"province":"Bengkulu","city":"Kaur","district":"Lungkang Kule","urban":"Aur Gading","postal_code":38956},{"province":"Bengkulu","city":"Kaur","district":"Padang Guci Hilir","urban":"Air Kering II","postal_code":38956},{"province":"Bengkulu","city":"Kaur","district":"Padang Guci Hilir","urban":"Air Kering II","postal_code":38956}]