[{"province":"Bengkulu","city":"Kaur","district":"Tanjung Kemuning","urban":"Tanjung Kemuning III","postal_code":38955},{"province":"Bengkulu","city":"Kaur","district":"Tanjung Kemuning","urban":"Tinggi Ari","postal_code":38955},{"province":"Bengkulu","city":"Kaur","district":"Tanjung Kemuning","urban":"Tanjung Iman II","postal_code":38955},{"province":"Bengkulu","city":"Kaur","district":"Tanjung Kemuning","urban":"Tanjung Kemuning","postal_code":38955},{"province":"Bengkulu","city":"Kaur","district":"Tanjung Kemuning","urban":"Tanjung Kemuning II","postal_code":38955},{"province":"Bengkulu","city":"Kaur","district":"Tanjung Kemuning","urban":"Tanjung Bulan","postal_code":38955},{"province":"Bengkulu","city":"Kaur","district":"Tanjung Kemuning","urban":"Tanjung Iman","postal_code":38955},{"province":"Bengkulu","city":"Kaur","district":"Tanjung Kemuning","urban":"Tanjung Aur","postal_code":38955},{"province":"Bengkulu","city":"Kaur","district":"Tanjung Kemuning","urban":"Tanjung Aur II","postal_code":38955},{"province":"Bengkulu","city":"Kaur","district":"Kelam Tengah","urban":"Talang Tais","postal_code":38955},{"province":"Bengkulu","city":"Kaur","district":"Tanjung Kemuning","urban":"Sulauwangi (Sula Wangi)","postal_code":38955},{"province":"Bengkulu","city":"Kaur","district":"Kelam Tengah","urban":"Siring Agung","postal_code":38955},{"province":"Bengkulu","city":"Kaur","district":"Tanjung Kemuning","urban":"Selika III","postal_code":38955},{"province":"Bengkulu","city":"Kaur","district":"Kelam Tengah","urban":"Penantian","postal_code":38955},{"province":"Bengkulu","city":"Kaur","district":"Tanjung Kemuning","urban":"Selika I","postal_code":38955},{"province":"Bengkulu","city":"Kaur","district":"Tanjung Kemuning","urban":"Selika II","postal_code":38955},{"province":"Bengkulu","city":"Kaur","district":"Tanjung Kemuning","urban":"Pelajaran I","postal_code":38955},{"province":"Bengkulu","city":"Kaur","district":"Tanjung Kemuning","urban":"Pelajaran II","postal_code":38955},{"province":"Bengkulu","city":"Kaur","district":"Kelam Tengah","urban":"Pagar Dewa","postal_code":38955},{"province":"Bengkulu","city":"Kaur","district":"Kelam Tengah","urban":"Pagar Dewa","postal_code":38955},{"province":"Bengkulu","city":"Kaur","district":"Tanjung Kemuning","urban":"Padang Kedondong","postal_code":38955},{"province":"Bengkulu","city":"Kaur","district":"Tanjung Kemuning","urban":"Padang Leban","postal_code":38955},{"province":"Bengkulu","city":"Kaur","district":"Kelam Tengah","urban":"Darat Sawah","postal_code":38955},{"province":"Bengkulu","city":"Kaur","district":"Tanjung Kemuning","urban":"Aur Ringit","postal_code":38955},{"province":"Bengkulu","city":"Kaur","district":"Tanjung Kemuning","urban":"Beriang Tinggi","postal_code":38955}]