[{"province":"Bengkulu","city":"Kaur","district":"Semidang Gumai (Gumay)","urban":"Tanjung Harapan","postal_code":38962},{"province":"Bengkulu","city":"Kaur","district":"Kinal","urban":"Tanjung Baru","postal_code":38962},{"province":"Bengkulu","city":"Kaur","district":"Kinal","urban":"Talang Padang","postal_code":38962},{"province":"Bengkulu","city":"Kaur","district":"Kinal","urban":"Tanjung Alam","postal_code":38962},{"province":"Bengkulu","city":"Kaur","district":"Semidang Gumai (Gumay)","urban":"Suka Merindu","postal_code":38962},{"province":"Bengkulu","city":"Kaur","district":"Kinal","urban":"Pinang Jawa II","postal_code":38962},{"province":"Bengkulu","city":"Kaur","district":"Kinal","urban":"Talang Beringin","postal_code":38962},{"province":"Bengkulu","city":"Kaur","district":"Kinal","urban":"Pinang Jawa","postal_code":38962},{"province":"Bengkulu","city":"Kaur","district":"Kinal","urban":"Penandingan","postal_code":38962},{"province":"Bengkulu","city":"Kaur","district":"Kinal","urban":"Pengurung","postal_code":38962},{"province":"Bengkulu","city":"Kaur","district":"Semidang Gumai (Gumay)","urban":"Padang Panjang","postal_code":38962},{"province":"Bengkulu","city":"Kaur","district":"Kinal","urban":"Papahan","postal_code":38962},{"province":"Bengkulu","city":"Kaur","district":"Semidang Gumai (Gumay)","urban":"Mentiring","postal_code":38962},{"province":"Bengkulu","city":"Kaur","district":"Semidang Gumai (Gumay)","urban":"Nusuk","postal_code":38962},{"province":"Bengkulu","city":"Kaur","district":"Semidang Gumai (Gumay)","urban":"Lubuk Gung","postal_code":38962},{"province":"Bengkulu","city":"Kaur","district":"Semidang Gumai (Gumay)","urban":"Masria Baru","postal_code":38962},{"province":"Bengkulu","city":"Kaur","district":"Kinal","urban":"Jawi","postal_code":38962},{"province":"Bengkulu","city":"Kaur","district":"Semidang Gumai (Gumay)","urban":"Gunung Tiga II","postal_code":38962},{"province":"Bengkulu","city":"Kaur","district":"Semidang Gumai (Gumay)","urban":"Karang Dapo","postal_code":38962},{"province":"Bengkulu","city":"Kaur","district":"Semidang Gumai (Gumay)","urban":"Gunung Tiga","postal_code":38962},{"province":"Bengkulu","city":"Kaur","district":"Kinal","urban":"Gunung Megang","postal_code":38962},{"province":"Bengkulu","city":"Kaur","district":"Kinal","urban":"Gunung Terang","postal_code":38962},{"province":"Bengkulu","city":"Kaur","district":"Kinal","urban":"Geramat","postal_code":38962},{"province":"Bengkulu","city":"Kaur","district":"Kinal","urban":"Gedung Wani","postal_code":38962},{"province":"Bengkulu","city":"Kaur","district":"Semidang Gumai (Gumay)","urban":"Bunga Melur","postal_code":38962},{"province":"Bengkulu","city":"Kaur","district":"Semidang Gumai (Gumay)","urban":"Cahaya Batin","postal_code":38962},{"province":"Bengkulu","city":"Kaur","district":"Semidang Gumai (Gumay)","urban":"Awat Mata","postal_code":38962}]