[{"province":"Bengkulu","city":"Rejang Lebong","district":"Curup Selatan","urban":"Turan Baru","postal_code":39125},{"province":"Bengkulu","city":"Rejang Lebong","district":"Curup Selatan","urban":"Watas Marga","postal_code":39125},{"province":"Bengkulu","city":"Rejang Lebong","district":"Curup Selatan","urban":"Teladan (Desa Teladan)","postal_code":39125},{"province":"Bengkulu","city":"Rejang Lebong","district":"Curup","urban":"Timbul Rejo","postal_code":39125},{"province":"Bengkulu","city":"Rejang Lebong","district":"Curup Selatan","urban":"Tanjung Dalam","postal_code":39125},{"province":"Bengkulu","city":"Rejang Lebong","district":"Curup Utara","urban":"Tasikmalaya","postal_code":39125},{"province":"Bengkulu","city":"Rejang Lebong","district":"Curup Utara","urban":"Tabarenah","postal_code":39125},{"province":"Bengkulu","city":"Rejang Lebong","district":"Curup Utara","urban":"Tanjung Beringin","postal_code":39125},{"province":"Bengkulu","city":"Rejang Lebong","district":"Curup Timur","urban":"Talang Ulu","postal_code":39125},{"province":"Bengkulu","city":"Rejang Lebong","district":"Curup Selatan","urban":"Suka Marga","postal_code":39125},{"province":"Bengkulu","city":"Rejang Lebong","district":"Curup Utara","urban":"Suka Datang","postal_code":39125},{"province":"Bengkulu","city":"Rejang Lebong","district":"Curup Selatan","urban":"Pungguk Lalang","postal_code":39125},{"province":"Bengkulu","city":"Rejang Lebong","district":"Curup Selatan","urban":"Rimbo Recap","postal_code":39125},{"province":"Bengkulu","city":"Rejang Lebong","district":"Curup Utara","urban":"Seguring","postal_code":39125},{"province":"Bengkulu","city":"Rejang Lebong","district":"Curup Selatan","urban":"Lubuk Ubar","postal_code":39125},{"province":"Bengkulu","city":"Rejang Lebong","district":"Curup Utara","urban":"Perbo","postal_code":39125},{"province":"Bengkulu","city":"Rejang Lebong","district":"Curup Utara","urban":"Kota Pagu","postal_code":39125},{"province":"Bengkulu","city":"Rejang Lebong","district":"Curup Utara","urban":"Lubuk Kembang","postal_code":39125},{"province":"Bengkulu","city":"Rejang Lebong","district":"Curup Timur","urban":"Kesambe Baru","postal_code":39125},{"province":"Bengkulu","city":"Rejang Lebong","district":"Curup Timur","urban":"Kesambe Lama","postal_code":39125},{"province":"Bengkulu","city":"Rejang Lebong","district":"Curup Utara","urban":"Dusun Sawah","postal_code":39125},{"province":"Bengkulu","city":"Rejang Lebong","district":"Curup Timur","urban":"Kampung Delima","postal_code":39125},{"province":"Bengkulu","city":"Rejang Lebong","district":"Curup Timur","urban":"Duku Ilir","postal_code":39125},{"province":"Bengkulu","city":"Rejang Lebong","district":"Curup Timur","urban":"Duku Ulu","postal_code":39125},{"province":"Bengkulu","city":"Rejang Lebong","district":"Curup Utara","urban":"Desa Pahlawan","postal_code":39125},{"province":"Bengkulu","city":"Rejang Lebong","district":"Curup Utara","urban":"Batu Dewa","postal_code":39125},{"province":"Bengkulu","city":"Rejang Lebong","district":"Curup Utara","urban":"Batu Panco","postal_code":39125},{"province":"Bengkulu","city":"Rejang Lebong","district":"Curup Tengah","urban":"Batu Galing","postal_code":39125},{"province":"Bengkulu","city":"Rejang Lebong","district":"Curup Tengah","urban":"Air Merah","postal_code":39125},{"province":"Bengkulu","city":"Rejang Lebong","district":"Curup Tengah","urban":"Banyumas","postal_code":39125},{"province":"Bengkulu","city":"Rejang Lebong","district":"Curup Tengah","urban":"Air Bang","postal_code":39125},{"province":"Bengkulu","city":"Rejang Lebong","district":"Curup Selatan","urban":"Air Lanang","postal_code":39125},{"province":"Bengkulu","city":"Rejang Lebong","district":"Curup","urban":"Adirejo","postal_code":39125}]