[{"province":"Bengkulu","city":"Rejang Lebong","district":"Bermani Ulu","urban":"Tebat Tenong Dalam","postal_code":39152},{"province":"Bengkulu","city":"Rejang Lebong","district":"Bermani Ulu Raya","urban":"Tebat Tenong Luar","postal_code":39152},{"province":"Bengkulu","city":"Rejang Lebong","district":"Bermani Ulu","urban":"Tebat Pulau","postal_code":39152},{"province":"Bengkulu","city":"Rejang Lebong","district":"Bermani Ulu Raya","urban":"Sumber Rejo Transad","postal_code":39152},{"province":"Bengkulu","city":"Rejang Lebong","district":"Bermani Ulu","urban":"Sentral Baru","postal_code":39152},{"province":"Bengkulu","city":"Rejang Lebong","district":"Bermani Ulu","urban":"Suka Rami","postal_code":39152},{"province":"Bengkulu","city":"Rejang Lebong","district":"Bermani Ulu","urban":"Purwodadi","postal_code":39152},{"province":"Bengkulu","city":"Rejang Lebong","district":"Bermani Ulu","urban":"Selamat Sudiarjo","postal_code":39152},{"province":"Bengkulu","city":"Rejang Lebong","district":"Bermani Ulu Raya","urban":"Pal VIII/Delapan","postal_code":39152},{"province":"Bengkulu","city":"Rejang Lebong","district":"Bermani Ulu Raya","urban":"Pal Seratus/100","postal_code":39152},{"province":"Bengkulu","city":"Rejang Lebong","district":"Bermani Ulu Raya","urban":"Pal VII/Tujuh","postal_code":39152},{"province":"Bengkulu","city":"Rejang Lebong","district":"Bermani Ulu","urban":"Kampung Sajad","postal_code":39152},{"province":"Bengkulu","city":"Rejang Lebong","district":"Bermani Ulu","urban":"Pagar Gunung","postal_code":39152},{"province":"Bengkulu","city":"Rejang Lebong","district":"Bermani Ulu","urban":"Kampung Melayu","postal_code":39152},{"province":"Bengkulu","city":"Rejang Lebong","district":"Bermani Ulu Raya","urban":"Dataran Tapus","postal_code":39152},{"province":"Bengkulu","city":"Rejang Lebong","district":"Bermani Ulu","urban":"Baru Manis","postal_code":39152},{"province":"Bengkulu","city":"Rejang Lebong","district":"Bermani Ulu Raya","urban":"Bangun Jaya","postal_code":39152},{"province":"Bengkulu","city":"Rejang Lebong","district":"Bermani Ulu Raya","urban":"Babakan Baru","postal_code":39152},{"province":"Bengkulu","city":"Rejang Lebong","district":"Bermani Ulu Raya","urban":"Bandung Marga","postal_code":39152},{"province":"Bengkulu","city":"Rejang Lebong","district":"Bermani Ulu","urban":"Air Mundu","postal_code":39152},{"province":"Bengkulu","city":"Rejang Lebong","district":"Bermani Ulu","urban":"Air Pikat","postal_code":39152},{"province":"Bengkulu","city":"Rejang Lebong","district":"Bermani Ulu Raya","urban":"Air Bening","postal_code":39152}]