[{"province":"Bengkulu","city":"Lebong","district":"Lebong Selatan","urban":"UPT Mangku Rajo","postal_code":39262},{"province":"Bengkulu","city":"Lebong","district":"Lebong Selatan","urban":"Turan Lalang","postal_code":39262},{"province":"Bengkulu","city":"Lebong","district":"Topos","urban":"Topos","postal_code":39262},{"province":"Bengkulu","city":"Lebong","district":"Lebong Selatan","urban":"Turan Tiging","postal_code":39262},{"province":"Bengkulu","city":"Lebong","district":"Bingin Kuning","urban":"Talang Leak II","postal_code":39262},{"province":"Bengkulu","city":"Lebong","district":"Lebong Selatan","urban":"Tes","postal_code":39262},{"province":"Bengkulu","city":"Lebong","district":"Topos","urban":"Talang Donok I","postal_code":39262},{"province":"Bengkulu","city":"Lebong","district":"Bingin Kuning","urban":"Talang Kerinci","postal_code":39262},{"province":"Bengkulu","city":"Lebong","district":"Bingin Kuning","urban":"Talang Leak I","postal_code":39262},{"province":"Bengkulu","city":"Lebong","district":"Lebong Selatan","urban":"Taba Anyar","postal_code":39262},{"province":"Bengkulu","city":"Lebong","district":"Topos","urban":"Talang Baru II","postal_code":39262},{"province":"Bengkulu","city":"Lebong","district":"Lebong Selatan","urban":"Suka Sari","postal_code":39262},{"province":"Bengkulu","city":"Lebong","district":"Bingin Kuning","urban":"Pungguk Pedaro","postal_code":39262},{"province":"Bengkulu","city":"Lebong","district":"Lebong Selatan","urban":"Mubai","postal_code":39262},{"province":"Bengkulu","city":"Lebong","district":"Bingin Kuning","urban":"Pelabuhan Talang Leak","postal_code":39262},{"province":"Bengkulu","city":"Lebong","district":"Lebong Selatan","urban":"Kutai Donok","postal_code":39262},{"province":"Bengkulu","city":"Lebong","district":"Bingin Kuning","urban":"Karang Dapo Bawah","postal_code":39262},{"province":"Bengkulu","city":"Lebong","district":"Bingin Kuning","urban":"Bukit Nibung","postal_code":39262},{"province":"Bengkulu","city":"Lebong","district":"Bingin Kuning","urban":"Bungin","postal_code":39262},{"province":"Bengkulu","city":"Lebong","district":"Bingin Kuning","urban":"Karang Dapo Atas","postal_code":39262},{"province":"Bengkulu","city":"Lebong","district":"Topos","urban":"Ajai Siang","postal_code":39262}]