[{"province":"Bengkulu","city":"Lebong","district":"Pelabai","urban":"UPT Tanjung Agung","postal_code":39265},{"province":"Bengkulu","city":"Lebong","district":"Pelabai","urban":"Tanjung Agung","postal_code":39265},{"province":"Bengkulu","city":"Lebong","district":"Pelabai","urban":"Tik Teleu","postal_code":39265},{"province":"Bengkulu","city":"Lebong","district":"Lebong Atas","urban":"Tabeak Blau","postal_code":39265},{"province":"Bengkulu","city":"Lebong","district":"Lebong Atas","urban":"Tabeak Blau I","postal_code":39265},{"province":"Bengkulu","city":"Lebong","district":"Pelabai","urban":"Tabeak Blau Dua/II","postal_code":39265},{"province":"Bengkulu","city":"Lebong","district":"Lebong Atas","urban":"Suka Kayo","postal_code":39265},{"province":"Bengkulu","city":"Lebong","district":"Pelabai","urban":"Sukau Datang","postal_code":39265},{"province":"Bengkulu","city":"Lebong","district":"Pelabai","urban":"Sukau Datang I","postal_code":39265},{"province":"Bengkulu","city":"Lebong","district":"Pelabai","urban":"Kota Baru Santan","postal_code":39265},{"province":"Bengkulu","city":"Lebong","district":"Pelabai","urban":"Pelabai (Pelabi)","postal_code":39265},{"province":"Bengkulu","city":"Lebong","district":"Lebong Atas","urban":"Daneo / Daneu / Danau","postal_code":39265},{"province":"Bengkulu","city":"Lebong","district":"Pelabai","urban":"Gunung Alam","postal_code":39265},{"province":"Bengkulu","city":"Lebong","district":"Lebong Atas","urban":"Atas Tebing","postal_code":39265},{"province":"Bengkulu","city":"Lebong","district":"Lebong Atas","urban":"Blau","postal_code":39265}]