[{"province":"Bengkulu","city":"Lebong","district":"Amen","urban":"Talang Bunut","postal_code":39264},{"province":"Bengkulu","city":"Lebong","district":"Lebong Utara","urban":"Talang Ulu","postal_code":39264},{"province":"Bengkulu","city":"Lebong","district":"Lebong Utara","urban":"Tunggang","postal_code":39264},{"province":"Bengkulu","city":"Lebong","district":"Amen","urban":"Sukaraja","postal_code":39264},{"province":"Bengkulu","city":"Lebong","district":"Amen","urban":"Sungai Gerong","postal_code":39264},{"province":"Bengkulu","city":"Lebong","district":"Amen","urban":"Selebar Jaya","postal_code":39264},{"province":"Bengkulu","city":"Lebong","district":"Amen","urban":"Suka Marga","postal_code":39264},{"province":"Bengkulu","city":"Lebong","district":"Amen","urban":"Paya Embik","postal_code":39264},{"province":"Bengkulu","city":"Lebong","district":"Lebong Utara","urban":"Pasar Muara Aman","postal_code":39264},{"province":"Bengkulu","city":"Lebong","district":"Amen","urban":"Nangai Tayau","postal_code":39264},{"province":"Bengkulu","city":"Lebong","district":"Amen","urban":"Nangai Tayau I","postal_code":39264},{"province":"Bengkulu","city":"Lebong","district":"Lebong Utara","urban":"Lokasari","postal_code":39264},{"province":"Bengkulu","city":"Lebong","district":"Lebong Utara","urban":"Muara Ketayu","postal_code":39264},{"province":"Bengkulu","city":"Lebong","district":"Lebong Utara","urban":"Ladang Palembang","postal_code":39264},{"province":"Bengkulu","city":"Lebong","district":"Lebong Utara","urban":"Lebong Donok","postal_code":39264},{"province":"Bengkulu","city":"Lebong","district":"Lebong Utara","urban":"Lebong Tambang","postal_code":39264},{"province":"Bengkulu","city":"Lebong","district":"Lebong Utara","urban":"Kampung Muara Aman","postal_code":39264},{"province":"Bengkulu","city":"Lebong","district":"Lebong Utara","urban":"Kampung Gandung","postal_code":39264},{"province":"Bengkulu","city":"Lebong","district":"Lebong Utara","urban":"Kampung Jawa Baru","postal_code":39264},{"province":"Bengkulu","city":"Lebong","district":"Lebong Utara","urban":"Kampung Jawa Dalam","postal_code":39264},{"province":"Bengkulu","city":"Lebong","district":"Lebong Utara","urban":"Gandung Baru","postal_code":39264},{"province":"Bengkulu","city":"Lebong","district":"Amen","urban":"Garut","postal_code":39264},{"province":"Bengkulu","city":"Lebong","district":"Lebong Utara","urban":"Dusun Muara Aman","postal_code":39264},{"province":"Bengkulu","city":"Lebong","district":"Lebong Utara","urban":"Embong Uram","postal_code":39264},{"province":"Bengkulu","city":"Lebong","district":"Lebong Utara","urban":"Gandung","postal_code":39264},{"province":"Bengkulu","city":"Lebong","district":"Lebong Utara","urban":"Bentangur","postal_code":39264},{"province":"Bengkulu","city":"Lebong","district":"Amen","urban":"Amen","postal_code":39264}]