[{"province":"Bengkulu","city":"Kepahiang","district":"Muara Kemumu","urban":"Warung Pojok","postal_code":39374},{"province":"Bengkulu","city":"Kepahiang","district":"Seberang Musi","urban":"Tebat Laut","postal_code":39374},{"province":"Bengkulu","city":"Kepahiang","district":"Muara Kemumu","urban":"Warung Pojok","postal_code":39374},{"province":"Bengkulu","city":"Kepahiang","district":"Muara Kemumu","urban":"Talang Tige","postal_code":39374},{"province":"Bengkulu","city":"Kepahiang","district":"Bermani Ilir","urban":"Talang Sawah","postal_code":39374},{"province":"Bengkulu","city":"Kepahiang","district":"Bermani Ilir","urban":"Talang Pito","postal_code":39374},{"province":"Bengkulu","city":"Kepahiang","district":"Bermani Ilir","urban":"Taba Baru","postal_code":39374},{"province":"Bengkulu","city":"Kepahiang","district":"Muara Kemumu","urban":"Sosokan Baru","postal_code":39374},{"province":"Bengkulu","city":"Kepahiang","district":"Muara Kemumu","urban":"Sosokan Tabah","postal_code":39374},{"province":"Bengkulu","city":"Kepahiang","district":"Bermani Ilir","urban":"Sosokan Cinta Mandi","postal_code":39374},{"province":"Bengkulu","city":"Kepahiang","district":"Muara Kemumu","urban":"Pematang Danau Air Les","postal_code":39374},{"province":"Bengkulu","city":"Kepahiang","district":"Muara Kemumu","urban":"Renah Kurung","postal_code":39374},{"province":"Bengkulu","city":"Kepahiang","district":"Muara Kemumu","urban":"Limbur/Lembur Baru","postal_code":39374},{"province":"Bengkulu","city":"Kepahiang","district":"Bermani Ilir","urban":"Muara Langkap","postal_code":39374},{"province":"Bengkulu","city":"Kepahiang","district":"Bermani Ilir","urban":"Pagar Agung","postal_code":39374},{"province":"Bengkulu","city":"Kepahiang","district":"Bermani Ilir","urban":"Langgar Jaya","postal_code":39374},{"province":"Bengkulu","city":"Kepahiang","district":"Bermani Ilir","urban":"Limbur Lama (Lembur Lama)","postal_code":39374},{"province":"Bengkulu","city":"Kepahiang","district":"Bermani Ilir","urban":"Kembang Seri","postal_code":39374},{"province":"Bengkulu","city":"Kepahiang","district":"Bermani Ilir","urban":"Kota Agung","postal_code":39374},{"province":"Bengkulu","city":"Kepahiang","district":"Bermani Ilir","urban":"Gunung Agung","postal_code":39374},{"province":"Bengkulu","city":"Kepahiang","district":"Bermani Ilir","urban":"Keban Agung","postal_code":39374},{"province":"Bengkulu","city":"Kepahiang","district":"Bermani Ilir","urban":"Embong Ijuk","postal_code":39374},{"province":"Bengkulu","city":"Kepahiang","district":"Bermani Ilir","urban":"Embong Sido","postal_code":39374},{"province":"Bengkulu","city":"Kepahiang","district":"Bermani Ilir","urban":"Bukit Menyan","postal_code":39374},{"province":"Bengkulu","city":"Kepahiang","district":"Bermani Ilir","urban":"Cinta Mandi Baru","postal_code":39374},{"province":"Bengkulu","city":"Kepahiang","district":"Bermani Ilir","urban":"Cinto Mandi (Cinta Mandi)","postal_code":39374},{"province":"Bengkulu","city":"Kepahiang","district":"Seberang Musi","urban":"Benuang Galing","postal_code":39374},{"province":"Bengkulu","city":"Kepahiang","district":"Muara Kemumu","urban":"Batu Kalung","postal_code":39374},{"province":"Bengkulu","city":"Kepahiang","district":"Bermani Ilir","urban":"Batu Belarik","postal_code":39374},{"province":"Bengkulu","city":"Kepahiang","district":"Muara Kemumu","urban":"Batu Bandung","postal_code":39374},{"province":"Bengkulu","city":"Kepahiang","district":"Bermani Ilir","urban":"Air Raman","postal_code":39374},{"province":"Bengkulu","city":"Kepahiang","district":"Seberang Musi","urban":"Air Selimang","postal_code":39374},{"province":"Bengkulu","city":"Kepahiang","district":"Muara Kemumu","urban":"Air Punggur","postal_code":39374}]