[{"province":"Bengkulu","city":"Kepahiang","district":"Kebawetan (Kabawetan)","urban":"Tugurejo","postal_code":39373},{"province":"Bengkulu","city":"Kepahiang","district":"Seberang Musi","urban":"Temedak/Temdak","postal_code":39373},{"province":"Bengkulu","city":"Kepahiang","district":"Tebat Karai","urban":"Tertik","postal_code":39373},{"province":"Bengkulu","city":"Kepahiang","district":"Tebat Karai","urban":"Tapak Gedung","postal_code":39373},{"province":"Bengkulu","city":"Kepahiang","district":"Tebat Karai","urban":"Tebat Karai","postal_code":39373},{"province":"Bengkulu","city":"Kepahiang","district":"Tebat Karai","urban":"Tebing Penyamun","postal_code":39373},{"province":"Bengkulu","city":"Kepahiang","district":"Tebat Karai","urban":"Talang Karet","postal_code":39373},{"province":"Bengkulu","city":"Kepahiang","district":"Seberang Musi","urban":"Talang Gelompok","postal_code":39373},{"province":"Bengkulu","city":"Kepahiang","district":"Tebat Karai","urban":"Taba Santing (Tabasating)","postal_code":39373},{"province":"Bengkulu","city":"Kepahiang","district":"Seberang Musi","urban":"Talang Babatan","postal_code":39373},{"province":"Bengkulu","city":"Kepahiang","district":"Tebat Karai","urban":"Taba Saling","postal_code":39373},{"province":"Bengkulu","city":"Kepahiang","district":"Seberang Musi","urban":"Taba Padang","postal_code":39373},{"province":"Bengkulu","city":"Kepahiang","district":"Seberang Musi","urban":"Sungai Jernih","postal_code":39373},{"province":"Bengkulu","city":"Kepahiang","district":"Tebat Karai","urban":"Taba Air Pauh","postal_code":39373},{"province":"Bengkulu","city":"Kepahiang","district":"Kebawetan (Kabawetan)","urban":"Sukasari","postal_code":39373},{"province":"Bengkulu","city":"Kepahiang","district":"Kebawetan (Kabawetan)","urban":"Sumber Sari","postal_code":39373},{"province":"Bengkulu","city":"Kepahiang","district":"Kebawetan (Kabawetan)","urban":"Sido Rejo","postal_code":39373},{"province":"Bengkulu","city":"Kepahiang","district":"Tebat Karai","urban":"Sinar Gunung","postal_code":39373},{"province":"Bengkulu","city":"Kepahiang","district":"Kebawetan (Kabawetan)","urban":"Sido Makmur","postal_code":39373},{"province":"Bengkulu","city":"Kepahiang","district":"Tebat Karai","urban":"Penanjung Panjang Atas","postal_code":39373},{"province":"Bengkulu","city":"Kepahiang","district":"Tebat Karai","urban":"Peraduan Binjai","postal_code":39373},{"province":"Bengkulu","city":"Kepahiang","district":"Tebat Karai","urban":"Penanjung Panjang","postal_code":39373},{"province":"Bengkulu","city":"Kepahiang","district":"Tebat Karai","urban":"Nanti Agung","postal_code":39373},{"province":"Bengkulu","city":"Kepahiang","district":"Kebawetan (Kabawetan)","urban":"Pematang Donok","postal_code":39373},{"province":"Bengkulu","city":"Kepahiang","district":"Seberang Musi","urban":"Lubuk Saung","postal_code":39373},{"province":"Bengkulu","city":"Kepahiang","district":"Kebawetan (Kabawetan)","urban":"Mekar Sari","postal_code":39373},{"province":"Bengkulu","city":"Kepahiang","district":"Tebat Karai","urban":"Karang Tengah","postal_code":39373},{"province":"Bengkulu","city":"Kepahiang","district":"Seberang Musi","urban":"Kandang","postal_code":39373},{"province":"Bengkulu","city":"Kepahiang","district":"Kebawetan (Kabawetan)","urban":"Bukit Sari","postal_code":39373},{"province":"Bengkulu","city":"Kepahiang","district":"Seberang Musi","urban":"Cirebon Baru (Cirbon Baru)","postal_code":39373},{"province":"Bengkulu","city":"Kepahiang","district":"Kebawetan (Kabawetan)","urban":"Bandung Jaya","postal_code":39373},{"province":"Bengkulu","city":"Kepahiang","district":"Seberang Musi","urban":"Bayung","postal_code":39373},{"province":"Bengkulu","city":"Kepahiang","district":"Kebawetan (Kabawetan)","urban":"Bandung Baru","postal_code":39373},{"province":"Bengkulu","city":"Kepahiang","district":"Seberang Musi","urban":"Air Pesi","postal_code":39373}]