[{"province":"Bengkulu","city":"Kepahiang","district":"Ujan Mas","urban":"Ujan Mas Bawah","postal_code":39371},{"province":"Bengkulu","city":"Kepahiang","district":"Ujan Mas","urban":"Tanjung Alam","postal_code":39371},{"province":"Bengkulu","city":"Kepahiang","district":"Ujan Mas","urban":"Ujan Mas Atas","postal_code":39371},{"province":"Bengkulu","city":"Kepahiang","district":"Merigi","urban":"Taba Mulan","postal_code":39371},{"province":"Bengkulu","city":"Kepahiang","district":"Ujan Mas","urban":"Suro Muncar","postal_code":39371},{"province":"Bengkulu","city":"Kepahiang","district":"Ujan Mas","urban":"Suro Ilir","postal_code":39371},{"province":"Bengkulu","city":"Kepahiang","district":"Ujan Mas","urban":"Suro Lembak","postal_code":39371},{"province":"Bengkulu","city":"Kepahiang","district":"Ujan Mas","urban":"Suro Bali","postal_code":39371},{"province":"Bengkulu","city":"Kepahiang","district":"Ujan Mas","urban":"Suro Baru","postal_code":39371},{"province":"Bengkulu","city":"Kepahiang","district":"Ujan Mas","urban":"Pungguk Meranti","postal_code":39371},{"province":"Bengkulu","city":"Kepahiang","district":"Merigi","urban":"Simpang Kota Bingin","postal_code":39371},{"province":"Bengkulu","city":"Kepahiang","district":"Ujan Mas","urban":"Pungguk Meringang","postal_code":39371},{"province":"Bengkulu","city":"Kepahiang","district":"Merigi","urban":"Pulo Geto Baru","postal_code":39371},{"province":"Bengkulu","city":"Kepahiang","district":"Merigi","urban":"Pulogeto","postal_code":39371},{"province":"Bengkulu","city":"Kepahiang","district":"Ujan Mas","urban":"Meranti Jaya","postal_code":39371},{"province":"Bengkulu","city":"Kepahiang","district":"Ujan Mas","urban":"Pekalongan","postal_code":39371},{"province":"Bengkulu","city":"Kepahiang","district":"Merigi","urban":"Durian Depun","postal_code":39371},{"province":"Bengkulu","city":"Kepahiang","district":"Ujan Mas","urban":"Daspetah II","postal_code":39371},{"province":"Bengkulu","city":"Kepahiang","district":"Merigi","urban":"Lubuk Penyamun","postal_code":39371},{"province":"Bengkulu","city":"Kepahiang","district":"Ujan Mas","urban":"Daspetah","postal_code":39371},{"province":"Bengkulu","city":"Kepahiang","district":"Ujan Mas","urban":"Cugung Lalang","postal_code":39371},{"province":"Bengkulu","city":"Kepahiang","district":"Ujan Mas","urban":"Bumi Sari","postal_code":39371},{"province":"Bengkulu","city":"Kepahiang","district":"Merigi","urban":"Bukit Barisan","postal_code":39371},{"province":"Bengkulu","city":"Kepahiang","district":"Ujan Mas","urban":"Air Hitam","postal_code":39371},{"province":"Bengkulu","city":"Kepahiang","district":"Merigi","urban":"Batu Ampar","postal_code":39371}]