[{"province":"Bengkulu","city":"Kepahiang","district":"Kepahiang","urban":"Tebat Monok","postal_code":39372},{"province":"Bengkulu","city":"Kepahiang","district":"Kepahiang","urban":"Weskust (Westkust)","postal_code":39372},{"province":"Bengkulu","city":"Kepahiang","district":"Kepahiang","urban":"Taba Tebelet","postal_code":39372},{"province":"Bengkulu","city":"Kepahiang","district":"Kebawetan (Kabawetan)","urban":"Tangsi Duren","postal_code":39372},{"province":"Bengkulu","city":"Kepahiang","district":"Kepahiang","urban":"Permu bawah","postal_code":39372},{"province":"Bengkulu","city":"Kepahiang","district":"Kepahiang","urban":"Sukamerindu","postal_code":39372},{"province":"Bengkulu","city":"Kepahiang","district":"Kepahiang","urban":"Pensiunan","postal_code":39372},{"province":"Bengkulu","city":"Kepahiang","district":"Kepahiang","urban":"Permu","postal_code":39372},{"province":"Bengkulu","city":"Kepahiang","district":"Kepahiang","urban":"Pasar Sejantung","postal_code":39372},{"province":"Bengkulu","city":"Kepahiang","district":"Kepahiang","urban":"Pasar Ujung","postal_code":39372},{"province":"Bengkulu","city":"Kepahiang","district":"Kepahiang","urban":"Pelangkian","postal_code":39372},{"province":"Bengkulu","city":"Kepahiang","district":"Kepahiang","urban":"Pasar Kepahiang","postal_code":39372},{"province":"Bengkulu","city":"Kepahiang","district":"Kepahiang","urban":"Pagar Gunung","postal_code":39372},{"province":"Bengkulu","city":"Kepahiang","district":"Kepahiang","urban":"Pagar Gunung","postal_code":39372},{"province":"Bengkulu","city":"Kepahiang","district":"Kepahiang","urban":"Kuto Rejo (Kuterejo)","postal_code":39372},{"province":"Bengkulu","city":"Kepahiang","district":"Kepahiang","urban":"Kelobak","postal_code":39372},{"province":"Bengkulu","city":"Kepahiang","district":"Kepahiang","urban":"Kepahiang (Dusun Kepahingan)","postal_code":39372},{"province":"Bengkulu","city":"Kepahiang","district":"Kepahiang","urban":"Karang Endah","postal_code":39372},{"province":"Bengkulu","city":"Kepahiang","district":"Kepahiang","urban":"Kelilik","postal_code":39372},{"province":"Bengkulu","city":"Kepahiang","district":"Kepahiang","urban":"Kampung Bogor","postal_code":39372},{"province":"Bengkulu","city":"Kepahiang","district":"Kepahiang","urban":"Kampung Pensiunan","postal_code":39372},{"province":"Bengkulu","city":"Kepahiang","district":"Kepahiang","urban":"Karang Anyar","postal_code":39372},{"province":"Bengkulu","city":"Kepahiang","district":"Kepahiang","urban":"Imigrasi Permu","postal_code":39372},{"province":"Bengkulu","city":"Kepahiang","district":"Kebawetan (Kabawetan)","urban":"Kabawetan/Tangsi Baru","postal_code":39372},{"province":"Bengkulu","city":"Kepahiang","district":"Kepahiang","urban":"Bogor Baru","postal_code":39372},{"province":"Bengkulu","city":"Kepahiang","district":"Kebawetan (Kabawetan)","urban":"Barat Wetan","postal_code":39372},{"province":"Bengkulu","city":"Kepahiang","district":"Kebawetan (Kabawetan)","urban":"Babakan Bogor","postal_code":39372},{"province":"Bengkulu","city":"Kepahiang","district":"Kebawetan (Kabawetan)","urban":"Air Sempiang","postal_code":39372}]