[{"province":"Jawa Barat","city":"Bandung","district":"Nagreg","urban":"Nagreg","postal_code":40215},{"province":"Jawa Barat","city":"Bandung","district":"Nagreg","urban":"Nagreg Kendan","postal_code":40215},{"province":"Jawa Barat","city":"Bandung","district":"Nagreg","urban":"Mandalawangi","postal_code":40215},{"province":"Jawa Barat","city":"Bandung","district":"Margaasih","urban":"Margaasih","postal_code":40215},{"province":"Jawa Barat","city":"Bandung","district":"Bandung Kulon","urban":"Gempolsari","postal_code":40215},{"province":"Jawa Barat","city":"Bandung","district":"Nagreg","urban":"Citaman","postal_code":40215},{"province":"Jawa Barat","city":"Bandung","district":"Nagreg","urban":"Ganjar Sabar","postal_code":40215},{"province":"Jawa Barat","city":"Bandung","district":"Nagreg","urban":"Ciherang","postal_code":40215},{"province":"Jawa Barat","city":"Bandung","district":"Bandung Kulon","urban":"Cigondewah Rahayu","postal_code":40215},{"province":"Jawa Barat","city":"Bandung","district":"Nagreg","urban":"Bojong","postal_code":40215},{"province":"Jawa Barat","city":"Bandung","district":"Nagreg","urban":"Ciaro","postal_code":40215}]