[{"province":"Jawa Barat","city":"Bandung","district":"Solokan Jeruk","urban":"Solokan Jeruk","postal_code":40376},{"province":"Jawa Barat","city":"Bandung","district":"Pameungpeuk","urban":"Sukasari","postal_code":40376},{"province":"Jawa Barat","city":"Bandung","district":"Solokan Jeruk","urban":"Panyadap","postal_code":40376},{"province":"Jawa Barat","city":"Bandung","district":"Solokan Jeruk","urban":"Rancakasumba","postal_code":40376},{"province":"Jawa Barat","city":"Bandung","district":"Solokan Jeruk","urban":"Langensari","postal_code":40376},{"province":"Jawa Barat","city":"Bandung","district":"Pameungpeuk","urban":"Rancamulya","postal_code":40376},{"province":"Jawa Barat","city":"Bandung","district":"Pameungpeuk","urban":"Langonsari","postal_code":40376},{"province":"Jawa Barat","city":"Bandung","district":"Pameungpeuk","urban":"Rancatungku","postal_code":40376},{"province":"Jawa Barat","city":"Bandung","district":"Solokan Jeruk","urban":"Cibodas","postal_code":40376},{"province":"Jawa Barat","city":"Bandung","district":"Solokan Jeruk","urban":"Panyadap","postal_code":40376},{"province":"Jawa Barat","city":"Bandung","district":"Pameungpeuk","urban":"Bojongmanggu","postal_code":40376},{"province":"Jawa Barat","city":"Bandung","district":"Pameungpeuk","urban":"Bojongkunci","postal_code":40376},{"province":"Jawa Barat","city":"Bandung","district":"Solokan Jeruk","urban":"Bojongemas","postal_code":40376}]