[{"province":"Jawa Barat","city":"Bandung Barat","district":"Cipatat","urban":"Sumurbandung","postal_code":40554},{"province":"Jawa Barat","city":"Bandung Barat","district":"Cipatat","urban":"Sarimukti","postal_code":40554},{"province":"Jawa Barat","city":"Bandung Barat","district":"Cipatat","urban":"Nyalindung","postal_code":40554},{"province":"Jawa Barat","city":"Bandung Barat","district":"Cipatat","urban":"Rajamandala Kulon","postal_code":40554},{"province":"Jawa Barat","city":"Bandung Barat","district":"Cipatat","urban":"Mandalasari","postal_code":40554},{"province":"Jawa Barat","city":"Bandung Barat","district":"Cipatat","urban":"Mandalawangi","postal_code":40554},{"province":"Jawa Barat","city":"Bandung Barat","district":"Cipatat","urban":"Citatah","postal_code":40554},{"province":"Jawa Barat","city":"Bandung Barat","district":"Cipatat","urban":"Gunungmasigit","postal_code":40554},{"province":"Jawa Barat","city":"Bandung Barat","district":"Cipatat","urban":"Kertamukti","postal_code":40554},{"province":"Jawa Barat","city":"Bandung Barat","district":"Cipatat","urban":"Ciptaharja","postal_code":40554},{"province":"Jawa Barat","city":"Bandung Barat","district":"Cipatat","urban":"Cirawamekar","postal_code":40554},{"province":"Jawa Barat","city":"Bandung Barat","district":"Cipatat","urban":"Cipatat","postal_code":40554}]