[{"province":"Jawa Barat","city":"Bandung Barat","district":"Cihampelas","urban":"Tanjungjaya","postal_code":40562},{"province":"Jawa Barat","city":"Bandung Barat","district":"Cihampelas","urban":"Tanjungwangi","postal_code":40562},{"province":"Jawa Barat","city":"Bandung Barat","district":"Cihampelas","urban":"Singajaya","postal_code":40562},{"province":"Jawa Barat","city":"Bandung Barat","district":"Cihampelas","urban":"Situwangi","postal_code":40562},{"province":"Jawa Barat","city":"Bandung Barat","district":"Cihampelas","urban":"Pataruman","postal_code":40562},{"province":"Jawa Barat","city":"Bandung Barat","district":"Cililin","urban":"Nanggerang","postal_code":40562},{"province":"Jawa Barat","city":"Bandung Barat","district":"Cililin","urban":"Rancapanggung","postal_code":40562},{"province":"Jawa Barat","city":"Bandung Barat","district":"Cililin","urban":"Mukapayung","postal_code":40562},{"province":"Jawa Barat","city":"Bandung Barat","district":"Cihampelas","urban":"Mekarmukti","postal_code":40562},{"province":"Jawa Barat","city":"Bandung Barat","district":"Cihampelas","urban":"Mekarjaya","postal_code":40562},{"province":"Jawa Barat","city":"Bandung Barat","district":"Cililin","urban":"Karangtanjung","postal_code":40562},{"province":"Jawa Barat","city":"Bandung Barat","district":"Cililin","urban":"Karyamukti","postal_code":40562},{"province":"Jawa Barat","city":"Bandung Barat","district":"Cililin","urban":"Kidangpananjung","postal_code":40562},{"province":"Jawa Barat","city":"Bandung Barat","district":"Cililin","urban":"Karanganyar","postal_code":40562},{"province":"Jawa Barat","city":"Bandung Barat","district":"Cihampelas","urban":"Citapen","postal_code":40562},{"province":"Jawa Barat","city":"Bandung Barat","district":"Cililin","urban":"Cililin","postal_code":40562},{"province":"Jawa Barat","city":"Bandung Barat","district":"Cihampelas","urban":"Cipatik","postal_code":40562},{"province":"Jawa Barat","city":"Bandung Barat","district":"Cililin","urban":"Budiharja","postal_code":40562},{"province":"Jawa Barat","city":"Bandung Barat","district":"Cihampelas","urban":"Cihampelas","postal_code":40562},{"province":"Jawa Barat","city":"Bandung Barat","district":"Cililin","urban":"Batulayang","postal_code":40562},{"province":"Jawa Barat","city":"Bandung Barat","district":"Cililin","urban":"Bongas","postal_code":40562}]