[{"province":"Jawa Barat","city":"Bandung Barat","district":"Batujajar","urban":"Selacau","postal_code":40561},{"province":"Jawa Barat","city":"Bandung Barat","district":"Saguling","urban":"Saguling","postal_code":40561},{"province":"Jawa Barat","city":"Bandung Barat","district":"Batujajar","urban":"Pangauban","postal_code":40561},{"province":"Jawa Barat","city":"Bandung Barat","district":"Batujajar","urban":"Pangauban","postal_code":40561},{"province":"Jawa Barat","city":"Bandung Barat","district":"Saguling","urban":"Girimukti","postal_code":40561},{"province":"Jawa Barat","city":"Bandung Barat","district":"Batujajar","urban":"Galanggang","postal_code":40561},{"province":"Jawa Barat","city":"Bandung Barat","district":"Batujajar","urban":"Giriasih","postal_code":40561},{"province":"Jawa Barat","city":"Bandung Barat","district":"Saguling","urban":"Cikande","postal_code":40561},{"province":"Jawa Barat","city":"Bandung Barat","district":"Saguling","urban":"Cipangeran","postal_code":40561},{"province":"Jawa Barat","city":"Bandung Barat","district":"Batujajar","urban":"Cangkorah","postal_code":40561},{"province":"Jawa Barat","city":"Bandung Barat","district":"Saguling","urban":"Bojonghaleuang","postal_code":40561},{"province":"Jawa Barat","city":"Bandung Barat","district":"Batujajar","urban":"Batujajar Barat","postal_code":40561},{"province":"Jawa Barat","city":"Bandung Barat","district":"Batujajar","urban":"Batujajar Timur","postal_code":40561}]