[{"province":"Jawa Barat","city":"Bandung","district":"Pasirjambu","urban":"Sugihmukti","postal_code":40972},{"province":"Jawa Barat","city":"Bandung","district":"Pasirjambu","urban":"Tenjolaya","postal_code":40972},{"province":"Jawa Barat","city":"Bandung","district":"Pasirjambu","urban":"Mekarsari","postal_code":40972},{"province":"Jawa Barat","city":"Bandung","district":"Pasirjambu","urban":"Pasirjambu","postal_code":40972},{"province":"Jawa Barat","city":"Bandung","district":"Pasirjambu","urban":"Cukanggenteng","postal_code":40972},{"province":"Jawa Barat","city":"Bandung","district":"Pasirjambu","urban":"Margamulya","postal_code":40972},{"province":"Jawa Barat","city":"Bandung","district":"Pasirjambu","urban":"Mekarmaju","postal_code":40972},{"province":"Jawa Barat","city":"Bandung","district":"Pasirjambu","urban":"Cikoneng","postal_code":40972},{"province":"Jawa Barat","city":"Bandung","district":"Pasirjambu","urban":"Cisondari","postal_code":40972},{"province":"Jawa Barat","city":"Bandung","district":"Pasirjambu","urban":"Cibodas","postal_code":40972}]