[{"province":"Jawa Barat","city":"Bandung","district":"Ranca Bali","urban":"Sukaresmi","postal_code":40973},{"province":"Jawa Barat","city":"Bandung","district":"Ciwidey","urban":"Sukawening","postal_code":40973},{"province":"Jawa Barat","city":"Bandung","district":"Ranca Bali","urban":"Patengan","postal_code":40973},{"province":"Jawa Barat","city":"Bandung","district":"Ciwidey","urban":"Panyocokan","postal_code":40973},{"province":"Jawa Barat","city":"Bandung","district":"Ciwidey","urban":"Rawabogo","postal_code":40973},{"province":"Jawa Barat","city":"Bandung","district":"Ciwidey","urban":"Lebakmuncang","postal_code":40973},{"province":"Jawa Barat","city":"Bandung","district":"Ciwidey","urban":"Nengkelan","postal_code":40973},{"province":"Jawa Barat","city":"Bandung","district":"Ciwidey","urban":"Panundaan","postal_code":40973},{"province":"Jawa Barat","city":"Bandung","district":"Ranca Bali","urban":"Indragiri","postal_code":40973},{"province":"Jawa Barat","city":"Bandung","district":"Ciwidey","urban":"Ciwidey","postal_code":40973},{"province":"Jawa Barat","city":"Bandung","district":"Ranca Bali","urban":"Alamendah","postal_code":40973},{"province":"Jawa Barat","city":"Bandung","district":"Ranca Bali","urban":"Cipelah","postal_code":40973}]