[{"province":"Jawa Barat","city":"Purwakarta","district":"Plered","urban":"Sindangsari","postal_code":41162},{"province":"Jawa Barat","city":"Purwakarta","district":"Plered","urban":"Sempur","postal_code":41162},{"province":"Jawa Barat","city":"Purwakarta","district":"Plered","urban":"Rawasari","postal_code":41162},{"province":"Jawa Barat","city":"Purwakarta","district":"Plered","urban":"Plered","postal_code":41162},{"province":"Jawa Barat","city":"Purwakarta","district":"Plered","urban":"Pamoyanan","postal_code":41162},{"province":"Jawa Barat","city":"Purwakarta","district":"Plered","urban":"Liunggunung","postal_code":41162},{"province":"Jawa Barat","city":"Purwakarta","district":"Plered","urban":"Palinggihan","postal_code":41162},{"province":"Jawa Barat","city":"Purwakarta","district":"Plered","urban":"Linggarsari","postal_code":41162},{"province":"Jawa Barat","city":"Purwakarta","district":"Plered","urban":"Gandamekar","postal_code":41162},{"province":"Jawa Barat","city":"Purwakarta","district":"Plered","urban":"Gandasoli","postal_code":41162},{"province":"Jawa Barat","city":"Purwakarta","district":"Plered","urban":"Citeko Kaler","postal_code":41162},{"province":"Jawa Barat","city":"Purwakarta","district":"Plered","urban":"Cibogohilir","postal_code":41162},{"province":"Jawa Barat","city":"Purwakarta","district":"Plered","urban":"Citeko","postal_code":41162},{"province":"Jawa Barat","city":"Purwakarta","district":"Plered","urban":"Cibogogirang","postal_code":41162},{"province":"Jawa Barat","city":"Purwakarta","district":"Plered","urban":"Anjun","postal_code":41162},{"province":"Jawa Barat","city":"Purwakarta","district":"Plered","urban":"Babakansari","postal_code":41162}]