[{"province":"Jawa Barat","city":"Purwakarta","district":"Pasawahan","urban":"Selaawi","postal_code":41172},{"province":"Jawa Barat","city":"Purwakarta","district":"Pasawahan","urban":"Warung Kadu","postal_code":41172},{"province":"Jawa Barat","city":"Purwakarta","district":"Pasawahan","urban":"Sawah Kulon","postal_code":41172},{"province":"Jawa Barat","city":"Purwakarta","district":"Pasawahan","urban":"Pasawahananyar","postal_code":41172},{"province":"Jawa Barat","city":"Purwakarta","district":"Pasawahan","urban":"Pasawahan Kidul","postal_code":41172},{"province":"Jawa Barat","city":"Purwakarta","district":"Pasawahan","urban":"Lebak Anyar","postal_code":41172},{"province":"Jawa Barat","city":"Purwakarta","district":"Pasawahan","urban":"Pasawahan","postal_code":41172},{"province":"Jawa Barat","city":"Purwakarta","district":"Pasawahan","urban":"Cihuni","postal_code":41172},{"province":"Jawa Barat","city":"Purwakarta","district":"Pasawahan","urban":"Kertajaya","postal_code":41172},{"province":"Jawa Barat","city":"Purwakarta","district":"Pasawahan","urban":"Cidahu","postal_code":41172},{"province":"Jawa Barat","city":"Purwakarta","district":"Pasawahan","urban":"Ciherang","postal_code":41172}]