[{"province":"Jawa Barat","city":"Purwakarta","district":"Cibatu","urban":"Wanawali","postal_code":41181},{"province":"Jawa Barat","city":"Purwakarta","district":"Bungursari","urban":"Wanakerta","postal_code":41181},{"province":"Jawa Barat","city":"Purwakarta","district":"Campaka","urban":"Kertamukti","postal_code":41181},{"province":"Jawa Barat","city":"Purwakarta","district":"Bungursari","urban":"Karangmukti","postal_code":41181},{"province":"Jawa Barat","city":"Purwakarta","district":"Cibatu","urban":"Karyamekar","postal_code":41181},{"province":"Jawa Barat","city":"Purwakarta","district":"Campaka","urban":"Cisaat","postal_code":41181},{"province":"Jawa Barat","city":"Purwakarta","district":"Bungursari","urban":"Ciwangi","postal_code":41181},{"province":"Jawa Barat","city":"Purwakarta","district":"Bungursari","urban":"Dangdeur","postal_code":41181},{"province":"Jawa Barat","city":"Purwakarta","district":"Campaka","urban":"Cirende","postal_code":41181},{"province":"Jawa Barat","city":"Purwakarta","district":"Cibatu","urban":"Cirangkong","postal_code":41181},{"province":"Jawa Barat","city":"Purwakarta","district":"Cibatu","urban":"Ciparungsari","postal_code":41181},{"province":"Jawa Barat","city":"Purwakarta","district":"Cibatu","urban":"Cipancur","postal_code":41181},{"province":"Jawa Barat","city":"Purwakarta","district":"Cibatu","urban":"Cipinang","postal_code":41181},{"province":"Jawa Barat","city":"Purwakarta","district":"Campaka","urban":"Cimahi","postal_code":41181},{"province":"Jawa Barat","city":"Purwakarta","district":"Cibatu","urban":"Cipancur","postal_code":41181},{"province":"Jawa Barat","city":"Purwakarta","district":"Cibatu","urban":"Cilandak","postal_code":41181},{"province":"Jawa Barat","city":"Purwakarta","district":"Bungursari","urban":"Cikopo","postal_code":41181},{"province":"Jawa Barat","city":"Purwakarta","district":"Campaka","urban":"Cikumpay","postal_code":41181},{"province":"Jawa Barat","city":"Purwakarta","district":"Campaka","urban":"Cijunti","postal_code":41181},{"province":"Jawa Barat","city":"Purwakarta","district":"Cibatu","urban":"Cikadu","postal_code":41181},{"province":"Jawa Barat","city":"Purwakarta","district":"Campaka","urban":"Cijaya","postal_code":41181},{"province":"Jawa Barat","city":"Purwakarta","district":"Bungursari","urban":"Cibodas","postal_code":41181},{"province":"Jawa Barat","city":"Purwakarta","district":"Bungursari","urban":"Cibungur","postal_code":41181},{"province":"Jawa Barat","city":"Purwakarta","district":"Cibatu","urban":"Cibukamanah","postal_code":41181},{"province":"Jawa Barat","city":"Purwakarta","district":"Bungursari","urban":"Cibening","postal_code":41181},{"province":"Jawa Barat","city":"Purwakarta","district":"Campaka","urban":"Campakasari","postal_code":41181},{"province":"Jawa Barat","city":"Purwakarta","district":"Cibatu","urban":"Cibatu","postal_code":41181},{"province":"Jawa Barat","city":"Purwakarta","district":"Campaka","urban":"Campaka","postal_code":41181},{"province":"Jawa Barat","city":"Purwakarta","district":"Bungursari","urban":"Bungursari","postal_code":41181},{"province":"Jawa Barat","city":"Purwakarta","district":"Campaka","urban":"Benteng","postal_code":41181}]