[{"province":"Jawa Barat","city":"Subang","district":"Pusakajaya","urban":"Rangdu","postal_code":41255},{"province":"Jawa Barat","city":"Subang","district":"Pusakanagara","urban":"Pusakaratu","postal_code":41255},{"province":"Jawa Barat","city":"Subang","district":"Pusakanagara","urban":"Rancadaka","postal_code":41255},{"province":"Jawa Barat","city":"Subang","district":"Pusakanagara","urban":"Patimban","postal_code":41255},{"province":"Jawa Barat","city":"Subang","district":"Pusakajaya","urban":"Pusakajaya","postal_code":41255},{"province":"Jawa Barat","city":"Subang","district":"Pusakanagara","urban":"Kotasari","postal_code":41255},{"province":"Jawa Barat","city":"Subang","district":"Pusakanagara","urban":"Mundusari","postal_code":41255},{"province":"Jawa Barat","city":"Subang","district":"Pusakajaya","urban":"Karanganyar","postal_code":41255},{"province":"Jawa Barat","city":"Subang","district":"Pusakajaya","urban":"Kebondanas","postal_code":41255},{"province":"Jawa Barat","city":"Subang","district":"Pusakanagara","urban":"Kalentambo","postal_code":41255},{"province":"Jawa Barat","city":"Subang","district":"Pusakajaya","urban":"Cigugur Kaler","postal_code":41255},{"province":"Jawa Barat","city":"Subang","district":"Pusakanagara","urban":"Gempol","postal_code":41255},{"province":"Jawa Barat","city":"Subang","district":"Pusakajaya","urban":"Bojongtengah","postal_code":41255},{"province":"Jawa Barat","city":"Subang","district":"Pusakajaya","urban":"Cigugur","postal_code":41255},{"province":"Jawa Barat","city":"Subang","district":"Pusakajaya","urban":"Bojong Jaya","postal_code":41255}]