[{"province":"Jawa Barat","city":"Subang","district":"Sukasari","urban":"Sukasari","postal_code":41254},{"province":"Jawa Barat","city":"Subang","district":"Legonkulon","urban":"Tegalurung","postal_code":41254},{"province":"Jawa Barat","city":"Subang","district":"Sukasari","urban":"Sukamaju","postal_code":41254},{"province":"Jawa Barat","city":"Subang","district":"Sukasari","urban":"Sukareja","postal_code":41254},{"province":"Jawa Barat","city":"Subang","district":"Pamanukan","urban":"Rancasari","postal_code":41254},{"province":"Jawa Barat","city":"Subang","district":"Pamanukan","urban":"Rancahilir","postal_code":41254},{"province":"Jawa Barat","city":"Subang","district":"Legonkulon","urban":"Pangarengan","postal_code":41254},{"province":"Jawa Barat","city":"Subang","district":"Pamanukan","urban":"Pamanukan Hilir","postal_code":41254},{"province":"Jawa Barat","city":"Subang","district":"Pamanukan","urban":"Pamanukan Sebrang","postal_code":41254},{"province":"Jawa Barat","city":"Subang","district":"Pamanukan","urban":"Mulyasari","postal_code":41254},{"province":"Jawa Barat","city":"Subang","district":"Pamanukan","urban":"Pamanukan","postal_code":41254},{"province":"Jawa Barat","city":"Subang","district":"Pamanukan","urban":"Lengkongjaya","postal_code":41254},{"province":"Jawa Barat","city":"Subang","district":"Legonkulon","urban":"Mayangan","postal_code":41254},{"province":"Jawa Barat","city":"Subang","district":"Legonkulon","urban":"Legonwetan","postal_code":41254},{"province":"Jawa Barat","city":"Subang","district":"Legonkulon","urban":"Karangmulya","postal_code":41254},{"province":"Jawa Barat","city":"Subang","district":"Legonkulon","urban":"Legonkulon","postal_code":41254},{"province":"Jawa Barat","city":"Subang","district":"Sukasari","urban":"Curugreja","postal_code":41254},{"province":"Jawa Barat","city":"Subang","district":"Pamanukan","urban":"Bongas","postal_code":41254},{"province":"Jawa Barat","city":"Subang","district":"Legonkulon","urban":"Bobos","postal_code":41254},{"province":"Jawa Barat","city":"Subang","district":"Sukasari","urban":"Anggasari","postal_code":41254},{"province":"Jawa Barat","city":"Subang","district":"Sukasari","urban":"Batangsari","postal_code":41254}]