[{"province":"Jawa Barat","city":"Subang","district":"Pagaden Barat","urban":"Sumurgintung","postal_code":41252},{"province":"Jawa Barat","city":"Subang","district":"Pagaden","urban":"Sumbersari","postal_code":41252},{"province":"Jawa Barat","city":"Subang","district":"Pagaden","urban":"Pagaden","postal_code":41252},{"province":"Jawa Barat","city":"Subang","district":"Pagaden Barat","urban":"Pangsor","postal_code":41252},{"province":"Jawa Barat","city":"Subang","district":"Pagaden","urban":"Neglasari","postal_code":41252},{"province":"Jawa Barat","city":"Subang","district":"Pagaden Barat","urban":"Mekarwangi","postal_code":41252},{"province":"Jawa Barat","city":"Subang","district":"Pagaden Barat","urban":"Munjul","postal_code":41252},{"province":"Jawa Barat","city":"Subang","district":"Pagaden","urban":"Kamarung","postal_code":41252},{"province":"Jawa Barat","city":"Subang","district":"Pagaden Barat","urban":"Margahayu","postal_code":41252},{"province":"Jawa Barat","city":"Subang","district":"Pagaden","urban":"Gunungsari","postal_code":41252},{"province":"Jawa Barat","city":"Subang","district":"Pagaden","urban":"Gunungsembung","postal_code":41252},{"province":"Jawa Barat","city":"Subang","district":"Pagaden","urban":"Jabong","postal_code":41252},{"province":"Jawa Barat","city":"Subang","district":"Pagaden Barat","urban":"Cidahu","postal_code":41252},{"province":"Jawa Barat","city":"Subang","district":"Pagaden","urban":"Gambarsari","postal_code":41252},{"province":"Jawa Barat","city":"Subang","district":"Pagaden","urban":"Gembor","postal_code":41252},{"province":"Jawa Barat","city":"Subang","district":"Pagaden Barat","urban":"Bendungan","postal_code":41252},{"province":"Jawa Barat","city":"Subang","district":"Pagaden Barat","urban":"Cidadap","postal_code":41252},{"province":"Jawa Barat","city":"Subang","district":"Pagaden Barat","urban":"Balingbing","postal_code":41252}]