[{"province":"Jawa Barat","city":"Subang","district":"Cikaum","urban":"Tanjungsari Timur","postal_code":41253},{"province":"Jawa Barat","city":"Subang","district":"Tambakdahan","urban":"Wanajaya","postal_code":41253},{"province":"Jawa Barat","city":"Subang","district":"Tambakdahan","urban":"Tanjungrasa","postal_code":41253},{"province":"Jawa Barat","city":"Subang","district":"Cikaum","urban":"Tanjungsari Barat","postal_code":41253},{"province":"Jawa Barat","city":"Subang","district":"Tambakdahan","urban":"Tambakdahan","postal_code":41253},{"province":"Jawa Barat","city":"Subang","district":"Cikaum","urban":"Sindangsari","postal_code":41253},{"province":"Jawa Barat","city":"Subang","district":"Tambakdahan","urban":"Rancaudik","postal_code":41253},{"province":"Jawa Barat","city":"Subang","district":"Cikaum","urban":"Pasirmuncang","postal_code":41253},{"province":"Jawa Barat","city":"Subang","district":"Binong","urban":"Mulyasari","postal_code":41253},{"province":"Jawa Barat","city":"Subang","district":"Binong","urban":"Nanggerang","postal_code":41253},{"province":"Jawa Barat","city":"Subang","district":"Tambakdahan","urban":"Mariuk","postal_code":41253},{"province":"Jawa Barat","city":"Subang","district":"Cikaum","urban":"Mekarsari","postal_code":41253},{"province":"Jawa Barat","city":"Subang","district":"Binong","urban":"Kihiyang","postal_code":41253},{"province":"Jawa Barat","city":"Subang","district":"Tambakdahan","urban":"Kertajaya","postal_code":41253},{"province":"Jawa Barat","city":"Subang","district":"Binong","urban":"Kediri","postal_code":41253},{"province":"Jawa Barat","city":"Subang","district":"Cikaum","urban":"Kaunganten","postal_code":41253},{"province":"Jawa Barat","city":"Subang","district":"Binong","urban":"Karangwangi","postal_code":41253},{"province":"Jawa Barat","city":"Subang","district":"Binong","urban":"Karangsari","postal_code":41253},{"province":"Jawa Barat","city":"Subang","district":"Tambakdahan","urban":"Gardumukti","postal_code":41253},{"province":"Jawa Barat","city":"Subang","district":"Cikaum","urban":"Gandasari","postal_code":41253},{"province":"Jawa Barat","city":"Subang","district":"Binong","urban":"Citrajaya","postal_code":41253},{"province":"Jawa Barat","city":"Subang","district":"Cikaum","urban":"Cikaum Timur","postal_code":41253},{"province":"Jawa Barat","city":"Subang","district":"Binong","urban":"Cicadas","postal_code":41253},{"province":"Jawa Barat","city":"Subang","district":"Cikaum","urban":"Cikaum Barat","postal_code":41253},{"province":"Jawa Barat","city":"Subang","district":"Tambakdahan","urban":"Bojonegara","postal_code":41253},{"province":"Jawa Barat","city":"Subang","district":"Tambakdahan","urban":"Bojongkeding","postal_code":41253},{"province":"Jawa Barat","city":"Subang","district":"Binong","urban":"Binong","postal_code":41253}]