[{"province":"Jawa Barat","city":"Subang","district":"Ciasem","urban":"Sukamandijaya","postal_code":41256},{"province":"Jawa Barat","city":"Subang","district":"Ciasem","urban":"Sukahaji","postal_code":41256},{"province":"Jawa Barat","city":"Subang","district":"Sukasari","urban":"Mandalawangi","postal_code":41256},{"province":"Jawa Barat","city":"Subang","district":"Ciasem","urban":"Pinangsari","postal_code":41256},{"province":"Jawa Barat","city":"Subang","district":"Ciasem","urban":"Jatibaru","postal_code":41256},{"province":"Jawa Barat","city":"Subang","district":"Ciasem","urban":"Dukuh","postal_code":41256},{"province":"Jawa Barat","city":"Subang","district":"Ciasem","urban":"Ciasem Tengah","postal_code":41256},{"province":"Jawa Barat","city":"Subang","district":"Ciasem","urban":"Ciasembaru","postal_code":41256},{"province":"Jawa Barat","city":"Subang","district":"Ciasem","urban":"Ciasem Girang","postal_code":41256},{"province":"Jawa Barat","city":"Subang","district":"Ciasem","urban":"Ciasem Hilir","postal_code":41256}]