[{"province":"Jawa Barat","city":"Subang","district":"Kalijati","urban":"Tanggulun Timur","postal_code":41271},{"province":"Jawa Barat","city":"Subang","district":"Kalijati","urban":"Tanggulun Barat","postal_code":41271},{"province":"Jawa Barat","city":"Subang","district":"Dawuan","urban":"Situsari","postal_code":41271},{"province":"Jawa Barat","city":"Subang","district":"Dawuan","urban":"Sukasari","postal_code":41271},{"province":"Jawa Barat","city":"Subang","district":"Dawuan","urban":"Margasari","postal_code":41271},{"province":"Jawa Barat","city":"Subang","district":"Dawuan","urban":"Rawalele","postal_code":41271},{"province":"Jawa Barat","city":"Subang","district":"Dawuan","urban":"Manyeti","postal_code":41271},{"province":"Jawa Barat","city":"Subang","district":"Kalijati","urban":"Marengmang","postal_code":41271},{"province":"Jawa Barat","city":"Subang","district":"Kalijati","urban":"Kalijati Timur","postal_code":41271},{"province":"Jawa Barat","city":"Subang","district":"Kalijati","urban":"Kalijati Barat","postal_code":41271},{"province":"Jawa Barat","city":"Subang","district":"Kalijati","urban":"Kaliangsana","postal_code":41271},{"province":"Jawa Barat","city":"Subang","district":"Dawuan","urban":"Jambelaer","postal_code":41271},{"province":"Jawa Barat","city":"Subang","district":"Kalijati","urban":"Jalupang","postal_code":41271},{"province":"Jawa Barat","city":"Subang","district":"Dawuan","urban":"Dawuan Kidul","postal_code":41271},{"province":"Jawa Barat","city":"Subang","district":"Dawuan","urban":"Dawuan Kaler","postal_code":41271},{"province":"Jawa Barat","city":"Subang","district":"Dawuan","urban":"Cisampih","postal_code":41271},{"province":"Jawa Barat","city":"Subang","district":"Kalijati","urban":"Caracas","postal_code":41271},{"province":"Jawa Barat","city":"Subang","district":"Kalijati","urban":"Ciruluk","postal_code":41271},{"province":"Jawa Barat","city":"Subang","district":"Dawuan","urban":"Batusari","postal_code":41271},{"province":"Jawa Barat","city":"Subang","district":"Kalijati","urban":"Banggalamulya","postal_code":41271}]