[{"province":"Jawa Barat","city":"Subang","district":"Tanjungsiang","urban":"Sindanglaya","postal_code":41284},{"province":"Jawa Barat","city":"Subang","district":"Tanjungsiang","urban":"Sirap","postal_code":41284},{"province":"Jawa Barat","city":"Subang","district":"Tanjungsiang","urban":"Tanjungsiang","postal_code":41284},{"province":"Jawa Barat","city":"Subang","district":"Tanjungsiang","urban":"Kawungluwuk","postal_code":41284},{"province":"Jawa Barat","city":"Subang","district":"Tanjungsiang","urban":"Rancamanggung","postal_code":41284},{"province":"Jawa Barat","city":"Subang","district":"Tanjungsiang","urban":"Gandasoli","postal_code":41284},{"province":"Jawa Barat","city":"Subang","district":"Tanjungsiang","urban":"Cimeuhmal","postal_code":41284},{"province":"Jawa Barat","city":"Subang","district":"Tanjungsiang","urban":"Cikawung","postal_code":41284},{"province":"Jawa Barat","city":"Subang","district":"Tanjungsiang","urban":"Buniara","postal_code":41284},{"province":"Jawa Barat","city":"Subang","district":"Tanjungsiang","urban":"Cibuluh","postal_code":41284}]