[{"province":"Jawa Barat","city":"Subang","district":"Kasomalang","urban":"Tenjolaya","postal_code":41283},{"province":"Jawa Barat","city":"Subang","district":"Kasomalang","urban":"Sukamelang","postal_code":41283},{"province":"Jawa Barat","city":"Subang","district":"Cisalak","urban":"Sukakerti","postal_code":41283},{"province":"Jawa Barat","city":"Subang","district":"Kasomalang","urban":"Pasanggrahan","postal_code":41283},{"province":"Jawa Barat","city":"Subang","district":"Kasomalang","urban":"Sindangsari","postal_code":41283},{"province":"Jawa Barat","city":"Subang","district":"Cisalak","urban":"Mayang","postal_code":41283},{"province":"Jawa Barat","city":"Subang","district":"Cisalak","urban":"Pakuhaji","postal_code":41283},{"province":"Jawa Barat","city":"Subang","district":"Cisalak","urban":"Gardusayang","postal_code":41283},{"province":"Jawa Barat","city":"Subang","district":"Cisalak","urban":"Cupunagara","postal_code":41283},{"province":"Jawa Barat","city":"Subang","district":"Cisalak","urban":"Darmaga","postal_code":41283},{"province":"Jawa Barat","city":"Subang","district":"Cisalak","urban":"Cimanggu","postal_code":41283},{"province":"Jawa Barat","city":"Subang","district":"Cisalak","urban":"Cisalak","postal_code":41283},{"province":"Jawa Barat","city":"Subang","district":"Cisalak","urban":"Cigadog","postal_code":41283},{"province":"Jawa Barat","city":"Subang","district":"Kasomalang","urban":"Bojongloa","postal_code":41283}]