[{"province":"Jawa Barat","city":"Subang","district":"Serangpanjang","urban":"Talagasari","postal_code":41282},{"province":"Jawa Barat","city":"Subang","district":"Sagalaherang","urban":"Sukamandi","postal_code":41282},{"province":"Jawa Barat","city":"Subang","district":"Sagalaherang","urban":"Sagalaherang","postal_code":41282},{"province":"Jawa Barat","city":"Subang","district":"Sagalaherang","urban":"Sagalaherang Kaler","postal_code":41282},{"province":"Jawa Barat","city":"Subang","district":"Serangpanjang","urban":"Ponggang","postal_code":41282},{"province":"Jawa Barat","city":"Subang","district":"Sagalaherang","urban":"Leles","postal_code":41282},{"province":"Jawa Barat","city":"Subang","district":"Serangpanjang","urban":"Cipancar","postal_code":41282},{"province":"Jawa Barat","city":"Subang","district":"Sagalaherang","urban":"Curugagung","postal_code":41282},{"province":"Jawa Barat","city":"Subang","district":"Sagalaherang","urban":"Dayeuhkolot","postal_code":41282},{"province":"Jawa Barat","city":"Subang","district":"Serangpanjang","urban":"Cijengkol","postal_code":41282},{"province":"Jawa Barat","city":"Subang","district":"Serangpanjang","urban":"Cikujang","postal_code":41282},{"province":"Jawa Barat","city":"Subang","district":"Serangpanjang","urban":"Cintamekar","postal_code":41282},{"province":"Jawa Barat","city":"Subang","district":"Sagalaherang","urban":"Cicadas","postal_code":41282}]