[{"province":"Jawa Barat","city":"Subang","district":"Jalancagak","urban":"Tambakan","postal_code":41281},{"province":"Jawa Barat","city":"Subang","district":"Jalancagak","urban":"Tambakmekar","postal_code":41281},{"province":"Jawa Barat","city":"Subang","district":"Jalancagak","urban":"Sarireja","postal_code":41281},{"province":"Jawa Barat","city":"Subang","district":"Ciater","urban":"Sanca","postal_code":41281},{"province":"Jawa Barat","city":"Subang","district":"Jalancagak","urban":"Kumpay","postal_code":41281},{"province":"Jawa Barat","city":"Subang","district":"Ciater","urban":"Nagrak","postal_code":41281},{"province":"Jawa Barat","city":"Subang","district":"Kasomalang","urban":"Kasomalang Wetan","postal_code":41281},{"province":"Jawa Barat","city":"Subang","district":"Kasomalang","urban":"Kasomalang Kulon","postal_code":41281},{"province":"Jawa Barat","city":"Subang","district":"Jalancagak","urban":"Curugrendeng","postal_code":41281},{"province":"Jawa Barat","city":"Subang","district":"Jalancagak","urban":"Jalancagak","postal_code":41281},{"province":"Jawa Barat","city":"Subang","district":"Ciater","urban":"Cisaat","postal_code":41281},{"province":"Jawa Barat","city":"Subang","district":"Kasomalang","urban":"Cimanglid","postal_code":41281},{"province":"Jawa Barat","city":"Subang","district":"Ciater","urban":"Cibitung","postal_code":41281},{"province":"Jawa Barat","city":"Subang","district":"Ciater","urban":"Cibeusi","postal_code":41281},{"province":"Jawa Barat","city":"Subang","district":"Ciater","urban":"Ciater","postal_code":41281},{"province":"Jawa Barat","city":"Subang","district":"Jalancagak","urban":"Bunihayu","postal_code":41281}]