[{"province":"Jawa Barat","city":"Karawang","district":"Rengasdengklok","urban":"Rengasdengklok Utara","postal_code":41352},{"province":"Jawa Barat","city":"Karawang","district":"Rengasdengklok","urban":"Rengasdengklok Selatan","postal_code":41352},{"province":"Jawa Barat","city":"Karawang","district":"Jayakerta","urban":"Medangasem","postal_code":41352},{"province":"Jawa Barat","city":"Karawang","district":"Rengasdengklok","urban":"Kertasari","postal_code":41352},{"province":"Jawa Barat","city":"Karawang","district":"Jayakerta","urban":"Makmurjaya","postal_code":41352},{"province":"Jawa Barat","city":"Karawang","district":"Jayakerta","urban":"Kemiri","postal_code":41352},{"province":"Jawa Barat","city":"Karawang","district":"Jayakerta","urban":"Kertajaya","postal_code":41352},{"province":"Jawa Barat","city":"Karawang","district":"Rengasdengklok","urban":"Karyasari","postal_code":41352},{"province":"Jawa Barat","city":"Karawang","district":"Rengasdengklok","urban":"Kalangsari","postal_code":41352},{"province":"Jawa Barat","city":"Karawang","district":"Rengasdengklok","urban":"Kalangsuria","postal_code":41352},{"province":"Jawa Barat","city":"Karawang","district":"Jayakerta","urban":"Kampungsawah","postal_code":41352},{"province":"Jawa Barat","city":"Karawang","district":"Jayakerta","urban":"Jayakerta","postal_code":41352},{"province":"Jawa Barat","city":"Karawang","district":"Jayakerta","urban":"Jayamakmur","postal_code":41352},{"province":"Jawa Barat","city":"Karawang","district":"Rengasdengklok","urban":"Dukuhkarya","postal_code":41352},{"province":"Jawa Barat","city":"Karawang","district":"Rengasdengklok","urban":"Dewisari","postal_code":41352},{"province":"Jawa Barat","city":"Karawang","district":"Jayakerta","urban":"Ciptamarga","postal_code":41352},{"province":"Jawa Barat","city":"Karawang","district":"Rengasdengklok","urban":"Amansari","postal_code":41352}]