[{"province":"Jawa Barat","city":"Karawang","district":"Pedes","urban":"Sungaibuntu","postal_code":41353},{"province":"Jawa Barat","city":"Karawang","district":"Cilebar","urban":"Sukaratu","postal_code":41353},{"province":"Jawa Barat","city":"Karawang","district":"Pedes","urban":"Randumulya","postal_code":41353},{"province":"Jawa Barat","city":"Karawang","district":"Cilebar","urban":"Rawasari","postal_code":41353},{"province":"Jawa Barat","city":"Karawang","district":"Pedes","urban":"Puspasari","postal_code":41353},{"province":"Jawa Barat","city":"Karawang","district":"Cilebar","urban":"Pusakajaya Utara","postal_code":41353},{"province":"Jawa Barat","city":"Karawang","district":"Pedes","urban":"Payungsari","postal_code":41353},{"province":"Jawa Barat","city":"Karawang","district":"Cilebar","urban":"Pusakajaya Selatan","postal_code":41353},{"province":"Jawa Barat","city":"Karawang","district":"Pedes","urban":"Labanjaya","postal_code":41353},{"province":"Jawa Barat","city":"Karawang","district":"Pedes","urban":"Malangsari","postal_code":41353},{"province":"Jawa Barat","city":"Karawang","district":"Pedes","urban":"Kertamulya","postal_code":41353},{"province":"Jawa Barat","city":"Karawang","district":"Pedes","urban":"Kertaraharja","postal_code":41353},{"province":"Jawa Barat","city":"Karawang","district":"Cilebar","urban":"Kosambibatu","postal_code":41353},{"province":"Jawa Barat","city":"Karawang","district":"Pedes","urban":"Kedaljaya","postal_code":41353},{"province":"Jawa Barat","city":"Karawang","district":"Cilebar","urban":"Kertamukti","postal_code":41353},{"province":"Jawa Barat","city":"Karawang","district":"Pedes","urban":"Jatimulya","postal_code":41353},{"province":"Jawa Barat","city":"Karawang","district":"Pedes","urban":"Karangjaya","postal_code":41353},{"province":"Jawa Barat","city":"Karawang","district":"Pedes","urban":"Dongkal","postal_code":41353},{"province":"Jawa Barat","city":"Karawang","district":"Cilebar","urban":"Cikande","postal_code":41353}]