[{"province":"Jawa Barat","city":"Karawang","district":"Tegalwaru","urban":"Wargasetra","postal_code":41362},{"province":"Jawa Barat","city":"Karawang","district":"Pangkalan","urban":"Tamansari","postal_code":41362},{"province":"Jawa Barat","city":"Karawang","district":"Pangkalan","urban":"Tamanmekar","postal_code":41362},{"province":"Jawa Barat","city":"Karawang","district":"Pangkalan","urban":"Mulangsari","postal_code":41362},{"province":"Jawa Barat","city":"Karawang","district":"Tegalwaru","urban":"Mekarbuana","postal_code":41362},{"province":"Jawa Barat","city":"Karawang","district":"Pangkalan","urban":"Medalsari","postal_code":41362},{"province":"Jawa Barat","city":"Karawang","district":"Tegalwaru","urban":"Kutamaneuh","postal_code":41362},{"province":"Jawa Barat","city":"Karawang","district":"Pangkalan","urban":"Jatilaksana","postal_code":41362},{"province":"Jawa Barat","city":"Karawang","district":"Pangkalan","urban":"Kertasari","postal_code":41362},{"province":"Jawa Barat","city":"Karawang","district":"Tegalwaru","urban":"Kutalanggeng","postal_code":41362},{"province":"Jawa Barat","city":"Karawang","district":"Tegalwaru","urban":"Cipurwasari","postal_code":41362},{"province":"Jawa Barat","city":"Karawang","district":"Pangkalan","urban":"Ciptasari","postal_code":41362},{"province":"Jawa Barat","city":"Karawang","district":"Tegalwaru","urban":"Cintalanggeng","postal_code":41362},{"province":"Jawa Barat","city":"Karawang","district":"Tegalwaru","urban":"Cintawargi","postal_code":41362},{"province":"Jawa Barat","city":"Karawang","district":"Tegalwaru","urban":"Cintalaksana","postal_code":41362},{"province":"Jawa Barat","city":"Karawang","district":"Pangkalan","urban":"Cintaasih","postal_code":41362},{"province":"Jawa Barat","city":"Karawang","district":"Tegalwaru","urban":"Cigunungsari","postal_code":41362}]