[{"province":"Jawa Barat","city":"Karawang","district":"Karawang Timur","urban":"Warungbambu","postal_code":41371},{"province":"Jawa Barat","city":"Karawang","district":"Klari","urban":"Sumurkondang","postal_code":41371},{"province":"Jawa Barat","city":"Karawang","district":"Klari","urban":"Walahar","postal_code":41371},{"province":"Jawa Barat","city":"Karawang","district":"Majalaya","urban":"Sarijaya","postal_code":41371},{"province":"Jawa Barat","city":"Karawang","district":"Majalaya","urban":"Pasirmulya","postal_code":41371},{"province":"Jawa Barat","city":"Karawang","district":"Klari","urban":"Pancawati","postal_code":41371},{"province":"Jawa Barat","city":"Karawang","district":"Majalaya","urban":"Pasirjengkol","postal_code":41371},{"province":"Jawa Barat","city":"Karawang","district":"Karawang Timur","urban":"Margasari","postal_code":41371},{"province":"Jawa Barat","city":"Karawang","district":"Majalaya","urban":"Lemahmulya","postal_code":41371},{"province":"Jawa Barat","city":"Karawang","district":"Majalaya","urban":"Majalaya","postal_code":41371},{"province":"Jawa Barat","city":"Karawang","district":"Karawang Timur","urban":"Kondangjaya","postal_code":41371},{"province":"Jawa Barat","city":"Karawang","district":"Klari","urban":"Klari","postal_code":41371},{"province":"Jawa Barat","city":"Karawang","district":"Klari","urban":"Karanganyar","postal_code":41371},{"province":"Jawa Barat","city":"Karawang","district":"Klari","urban":"Kiarapayung","postal_code":41371},{"province":"Jawa Barat","city":"Karawang","district":"Klari","urban":"Duren","postal_code":41371},{"province":"Jawa Barat","city":"Karawang","district":"Klari","urban":"Gintungkerta","postal_code":41371},{"province":"Jawa Barat","city":"Karawang","district":"Purwasari","urban":"Darawolong","postal_code":41371},{"province":"Jawa Barat","city":"Karawang","district":"Majalaya","urban":"Ciranggon","postal_code":41371},{"province":"Jawa Barat","city":"Karawang","district":"Klari","urban":"Curug","postal_code":41371},{"province":"Jawa Barat","city":"Karawang","district":"Klari","urban":"Cibalongsari","postal_code":41371},{"province":"Jawa Barat","city":"Karawang","district":"Klari","urban":"Cimahi","postal_code":41371},{"province":"Jawa Barat","city":"Karawang","district":"Majalaya","urban":"Bengle","postal_code":41371},{"province":"Jawa Barat","city":"Karawang","district":"Klari","urban":"Belendung","postal_code":41371},{"province":"Jawa Barat","city":"Karawang","district":"Klari","urban":"Anggadita","postal_code":41371}]