[{"province":"Jawa Barat","city":"Karawang","district":"Purwasari","urban":"Tegalsari","postal_code":41373},{"province":"Jawa Barat","city":"Karawang","district":"Purwasari","urban":"Purwasari","postal_code":41373},{"province":"Jawa Barat","city":"Karawang","district":"Purwasari","urban":"Sukasari","postal_code":41373},{"province":"Jawa Barat","city":"Karawang","district":"Purwasari","urban":"Tamelang","postal_code":41373},{"province":"Jawa Barat","city":"Karawang","district":"Purwasari","urban":"Karangsari","postal_code":41373},{"province":"Jawa Barat","city":"Karawang","district":"Purwasari","urban":"Mekarjaya","postal_code":41373},{"province":"Jawa Barat","city":"Karawang","district":"Cikampek","urban":"Kalihurip","postal_code":41373},{"province":"Jawa Barat","city":"Karawang","district":"Cikampek","urban":"Kamojing","postal_code":41373},{"province":"Jawa Barat","city":"Karawang","district":"Cikampek","urban":"Dawuan Tengah","postal_code":41373},{"province":"Jawa Barat","city":"Karawang","district":"Cikampek","urban":"Dawuan Timur","postal_code":41373},{"province":"Jawa Barat","city":"Karawang","district":"Cikampek","urban":"Cikampek Timur","postal_code":41373},{"province":"Jawa Barat","city":"Karawang","district":"Cikampek","urban":"Dawuan Barat","postal_code":41373},{"province":"Jawa Barat","city":"Karawang","district":"Cikampek","urban":"Cikampek Pusaka","postal_code":41373},{"province":"Jawa Barat","city":"Karawang","district":"Cikampek","urban":"Cikampek Selatan","postal_code":41373},{"province":"Jawa Barat","city":"Karawang","district":"Cikampek","urban":"Cikampek Barat","postal_code":41373},{"province":"Jawa Barat","city":"Karawang","district":"Cikampek","urban":"Cikampek Kota","postal_code":41373},{"province":"Jawa Barat","city":"Karawang","district":"Purwasari","urban":"Cengkong","postal_code":41373}]