[{"province":"Jawa Barat","city":"Karawang","district":"Jatisari","urban":"Telarsari","postal_code":41374},{"province":"Jawa Barat","city":"Karawang","district":"Kotabaru","urban":"Wancimekar","postal_code":41374},{"province":"Jawa Barat","city":"Karawang","district":"Banyusari","urban":"Tanjung","postal_code":41374},{"province":"Jawa Barat","city":"Karawang","district":"Banyusari","urban":"Talunjaya","postal_code":41374},{"province":"Jawa Barat","city":"Karawang","district":"Jatisari","urban":"Situdam","postal_code":41374},{"province":"Jawa Barat","city":"Karawang","district":"Jatisari","urban":"Sukamekar","postal_code":41374},{"province":"Jawa Barat","city":"Karawang","district":"Kotabaru","urban":"Sarimulya","postal_code":41374},{"province":"Jawa Barat","city":"Karawang","district":"Kotabaru","urban":"Pangulah Utara","postal_code":41374},{"province":"Jawa Barat","city":"Karawang","district":"Kotabaru","urban":"Pucung","postal_code":41374},{"province":"Jawa Barat","city":"Karawang","district":"Kotabaru","urban":"Pangulah Baru","postal_code":41374},{"province":"Jawa Barat","city":"Karawang","district":"Kotabaru","urban":"Pangulah Selatan","postal_code":41374},{"province":"Jawa Barat","city":"Karawang","district":"Jatisari","urban":"Pacing","postal_code":41374},{"province":"Jawa Barat","city":"Karawang","district":"Banyusari","urban":"Pamekaran","postal_code":41374},{"province":"Jawa Barat","city":"Karawang","district":"Banyusari","urban":"Kutaraharja","postal_code":41374},{"province":"Jawa Barat","city":"Karawang","district":"Banyusari","urban":"Mekarasih","postal_code":41374},{"province":"Jawa Barat","city":"Karawang","district":"Jatisari","urban":"Mekarsari","postal_code":41374},{"province":"Jawa Barat","city":"Karawang","district":"Jatisari","urban":"Kalijati","postal_code":41374},{"province":"Jawa Barat","city":"Karawang","district":"Kotabaru","urban":"Jomin Barat","postal_code":41374},{"province":"Jawa Barat","city":"Karawang","district":"Kotabaru","urban":"Jomin Timur","postal_code":41374},{"province":"Jawa Barat","city":"Karawang","district":"Banyusari","urban":"Jayamukti","postal_code":41374},{"province":"Jawa Barat","city":"Karawang","district":"Jatisari","urban":"Jatiwangi","postal_code":41374},{"province":"Jawa Barat","city":"Karawang","district":"Jatisari","urban":"Jatiragas","postal_code":41374},{"province":"Jawa Barat","city":"Karawang","district":"Jatisari","urban":"Jatisari","postal_code":41374},{"province":"Jawa Barat","city":"Karawang","district":"Banyusari","urban":"Gempol","postal_code":41374},{"province":"Jawa Barat","city":"Karawang","district":"Banyusari","urban":"Gempolkolot","postal_code":41374},{"province":"Jawa Barat","city":"Karawang","district":"Jatisari","urban":"Jatibaru","postal_code":41374},{"province":"Jawa Barat","city":"Karawang","district":"Jatisari","urban":"Cirejag","postal_code":41374},{"province":"Jawa Barat","city":"Karawang","district":"Banyusari","urban":"Gembongan","postal_code":41374},{"province":"Jawa Barat","city":"Karawang","district":"Jatisari","urban":"Cikalongsari","postal_code":41374},{"province":"Jawa Barat","city":"Karawang","district":"Kotabaru","urban":"Cikampek Utara","postal_code":41374},{"province":"Jawa Barat","city":"Karawang","district":"Banyusari","urban":"Cicinde Utara","postal_code":41374},{"province":"Jawa Barat","city":"Karawang","district":"Banyusari","urban":"Cicinde Selatan","postal_code":41374},{"province":"Jawa Barat","city":"Karawang","district":"Jatisari","urban":"Barugbug","postal_code":41374},{"province":"Jawa Barat","city":"Karawang","district":"Banyusari","urban":"Banyuasih","postal_code":41374},{"province":"Jawa Barat","city":"Karawang","district":"Jatisari","urban":"Balonggandu","postal_code":41374}]