[{"province":"Jawa Barat","city":"Karawang","district":"Cilamaya Wetan","urban":"Tegalwaru","postal_code":41384},{"province":"Jawa Barat","city":"Karawang","district":"Cilamaya Kulon","urban":"Tegalurung","postal_code":41384},{"province":"Jawa Barat","city":"Karawang","district":"Cilamaya Wetan","urban":"Tegalsari","postal_code":41384},{"province":"Jawa Barat","city":"Karawang","district":"Cilamaya Kulon","urban":"Sumurgede","postal_code":41384},{"province":"Jawa Barat","city":"Karawang","district":"Cilamaya Wetan","urban":"Sukatani","postal_code":41384},{"province":"Jawa Barat","city":"Karawang","district":"Cilamaya Kulon","urban":"Sukamulya","postal_code":41384},{"province":"Jawa Barat","city":"Karawang","district":"Cilamaya Wetan","urban":"Sukakerta","postal_code":41384},{"province":"Jawa Barat","city":"Karawang","district":"Cilamaya Kulon","urban":"Sukajaya","postal_code":41384},{"province":"Jawa Barat","city":"Karawang","district":"Cilamaya Wetan","urban":"Rawagempol Wetan","postal_code":41384},{"province":"Jawa Barat","city":"Karawang","district":"Cilamaya Wetan","urban":"Rawagempol Kulon","postal_code":41384},{"province":"Jawa Barat","city":"Karawang","district":"Cilamaya Kulon","urban":"Pasirukem","postal_code":41384},{"province":"Jawa Barat","city":"Karawang","district":"Cilamaya Kulon","urban":"Pasirjaya","postal_code":41384},{"province":"Jawa Barat","city":"Karawang","district":"Cilamaya Kulon","urban":"Muktijaya","postal_code":41384},{"province":"Jawa Barat","city":"Karawang","district":"Cilamaya Wetan","urban":"Muarabaru","postal_code":41384},{"province":"Jawa Barat","city":"Karawang","district":"Cilamaya Wetan","urban":"Mekarmaya","postal_code":41384},{"province":"Jawa Barat","city":"Karawang","district":"Cilamaya Wetan","urban":"Muara","postal_code":41384},{"province":"Jawa Barat","city":"Karawang","district":"Cilamaya Kulon","urban":"Manggungjaya","postal_code":41384},{"province":"Jawa Barat","city":"Karawang","district":"Cilamaya Kulon","urban":"Langensari","postal_code":41384},{"province":"Jawa Barat","city":"Karawang","district":"Cilamaya Kulon","urban":"Kiara","postal_code":41384},{"province":"Jawa Barat","city":"Karawang","district":"Cilamaya Wetan","urban":"Cikarang","postal_code":41384},{"province":"Jawa Barat","city":"Karawang","district":"Cilamaya Wetan","urban":"Cilamaya","postal_code":41384},{"province":"Jawa Barat","city":"Karawang","district":"Cilamaya Wetan","urban":"Cikalong","postal_code":41384},{"province":"Jawa Barat","city":"Karawang","district":"Cilamaya Kulon","urban":"Bayur Lor","postal_code":41384},{"province":"Jawa Barat","city":"Karawang","district":"Cilamaya Kulon","urban":"Bayur Kidul","postal_code":41384}]