[{"province":"Jawa Barat","city":"Karawang","district":"Talagasari","urban":"Talagamulya","postal_code":41381},{"province":"Jawa Barat","city":"Karawang","district":"Talagasari","urban":"Talagasari","postal_code":41381},{"province":"Jawa Barat","city":"Karawang","district":"Talagasari","urban":"Pasirmukti","postal_code":41381},{"province":"Jawa Barat","city":"Karawang","district":"Talagasari","urban":"Pasirtalaga","postal_code":41381},{"province":"Jawa Barat","city":"Karawang","district":"Talagasari","urban":"Pulosari","postal_code":41381},{"province":"Jawa Barat","city":"Karawang","district":"Talagasari","urban":"Pasirkamuning","postal_code":41381},{"province":"Jawa Barat","city":"Karawang","district":"Talagasari","urban":"Kalisari","postal_code":41381},{"province":"Jawa Barat","city":"Karawang","district":"Talagasari","urban":"Linggarsari","postal_code":41381},{"province":"Jawa Barat","city":"Karawang","district":"Talagasari","urban":"Kalibuaya","postal_code":41381},{"province":"Jawa Barat","city":"Karawang","district":"Talagasari","urban":"Kalijaya","postal_code":41381},{"province":"Jawa Barat","city":"Karawang","district":"Talagasari","urban":"Cariumulya","postal_code":41381},{"province":"Jawa Barat","city":"Karawang","district":"Talagasari","urban":"Cilewo","postal_code":41381},{"province":"Jawa Barat","city":"Karawang","district":"Talagasari","urban":"Ciwulan","postal_code":41381},{"province":"Jawa Barat","city":"Karawang","district":"Talagasari","urban":"Cadaskertajaya","postal_code":41381}]