[{"province":"Banten","city":"Serang","district":"Pabuaran","urban":"Tanjungsari","postal_code":42163},{"province":"Banten","city":"Serang","district":"Pabuaran","urban":"Talaga Warna","postal_code":42163},{"province":"Banten","city":"Serang","district":"Gunungsari","urban":"Sukalaba","postal_code":42163},{"province":"Banten","city":"Serang","district":"Gunungsari","urban":"Tamiang","postal_code":42163},{"province":"Banten","city":"Serang","district":"Pabuaran","urban":"Sindangheula","postal_code":42163},{"province":"Banten","city":"Serang","district":"Pabuaran","urban":"Sindangsari","postal_code":42163},{"province":"Banten","city":"Serang","district":"Pabuaran","urban":"Pabuaran","postal_code":42163},{"province":"Banten","city":"Serang","district":"Pabuaran","urban":"Pancanegara","postal_code":42163},{"province":"Banten","city":"Serang","district":"Pabuaran","urban":"Pasanggrahan","postal_code":42163},{"province":"Banten","city":"Serang","district":"Pabuaran","urban":"Kadubeureum","postal_code":42163},{"province":"Banten","city":"Serang","district":"Gunungsari","urban":"Luwuk","postal_code":42163},{"province":"Banten","city":"Serang","district":"Gunungsari","urban":"Gunungsari","postal_code":42163},{"province":"Banten","city":"Serang","district":"Gunungsari","urban":"Kadu Agung","postal_code":42163},{"province":"Banten","city":"Serang","district":"Pabuaran","urban":"Curug Sulanjana","postal_code":42163},{"province":"Banten","city":"Serang","district":"Gunungsari","urban":"Curug Sulanjana","postal_code":42163},{"province":"Banten","city":"Serang","district":"Gunungsari","urban":"Ciherang","postal_code":42163}]