[{"province":"Banten","city":"Serang","district":"Ciomas","urban":"Ujungtebu","postal_code":42164},{"province":"Banten","city":"Serang","district":"Ciomas","urban":"Sukadana","postal_code":42164},{"province":"Banten","city":"Serang","district":"Ciomas","urban":"Sukarena","postal_code":42164},{"province":"Banten","city":"Serang","district":"Ciomas","urban":"Siketug","postal_code":42164},{"province":"Banten","city":"Serang","district":"Ciomas","urban":"Sukabares","postal_code":42164},{"province":"Banten","city":"Serang","district":"Ciomas","urban":"Panyaungan Jaya","postal_code":42164},{"province":"Banten","city":"Serang","district":"Ciomas","urban":"Pondok Kahuru","postal_code":42164},{"province":"Banten","city":"Serang","district":"Ciomas","urban":"Citaman","postal_code":42164},{"province":"Banten","city":"Serang","district":"Ciomas","urban":"Lebak","postal_code":42164},{"province":"Banten","city":"Serang","district":"Padarincang","urban":"Ciomas","postal_code":42164},{"province":"Banten","city":"Serang","district":"Ciomas","urban":"Cisitu","postal_code":42164},{"province":"Banten","city":"Serang","district":"Ciomas","urban":"Cemplang","postal_code":42164}]