[{"province":"Banten","city":"Serang","district":"Cinangka","urban":"Umbul Tanjung","postal_code":42167},{"province":"Banten","city":"Serang","district":"Cinangka","urban":"Rancasanggal","postal_code":42167},{"province":"Banten","city":"Serang","district":"Cinangka","urban":"Sindanglaya","postal_code":42167},{"province":"Banten","city":"Serang","district":"Cinangka","urban":"Mekarsari","postal_code":42167},{"province":"Banten","city":"Serang","district":"Cinangka","urban":"Pasauran","postal_code":42167},{"province":"Banten","city":"Serang","district":"Cinangka","urban":"Karang Suraga","postal_code":42167},{"province":"Banten","city":"Serang","district":"Cinangka","urban":"Kubang Baros","postal_code":42167},{"province":"Banten","city":"Serang","district":"Cinangka","urban":"Cikolelet","postal_code":42167},{"province":"Banten","city":"Serang","district":"Cinangka","urban":"Cinangka","postal_code":42167},{"province":"Banten","city":"Serang","district":"Cinangka","urban":"Kamasan","postal_code":42167},{"province":"Banten","city":"Serang","district":"Cinangka","urban":"Baros Jaya","postal_code":42167},{"province":"Banten","city":"Serang","district":"Cinangka","urban":"Bulakan","postal_code":42167},{"province":"Banten","city":"Serang","district":"Cinangka","urban":"Bantarwangi","postal_code":42167},{"province":"Banten","city":"Serang","district":"Cinangka","urban":"Bantarwaru","postal_code":42167}]