[{"province":"Banten","city":"Serang","district":"Petir","urban":"Seuat Jaya","postal_code":42172},{"province":"Banten","city":"Serang","district":"Petir","urban":"Sindangsari","postal_code":42172},{"province":"Banten","city":"Serang","district":"Petir","urban":"Tambiluk","postal_code":42172},{"province":"Banten","city":"Serang","district":"Petir","urban":"Padasuka","postal_code":42172},{"province":"Banten","city":"Serang","district":"Petir","urban":"Petir","postal_code":42172},{"province":"Banten","city":"Serang","district":"Petir","urban":"Sanding","postal_code":42172},{"province":"Banten","city":"Serang","district":"Petir","urban":"Seuat","postal_code":42172},{"province":"Banten","city":"Serang","district":"Petir","urban":"Mekarbaru","postal_code":42172},{"province":"Banten","city":"Serang","district":"Petir","urban":"Nagara Padang","postal_code":42172},{"province":"Banten","city":"Serang","district":"Petir","urban":"Kampung Baru","postal_code":42172},{"province":"Banten","city":"Serang","district":"Petir","urban":"Kubang Jaya","postal_code":42172},{"province":"Banten","city":"Serang","district":"Petir","urban":"Kadugenep","postal_code":42172},{"province":"Banten","city":"Serang","district":"Petir","urban":"Cirangkong","postal_code":42172},{"province":"Banten","city":"Serang","district":"Petir","urban":"Kadugenep","postal_code":42172},{"province":"Banten","city":"Serang","district":"Petir","urban":"Bojong Nangka","postal_code":42172}]