[{"province":"Banten","city":"Serang","district":"Baros","urban":"Tamansari","postal_code":42173},{"province":"Banten","city":"Serang","district":"Baros","urban":"Tejamari","postal_code":42173},{"province":"Banten","city":"Serang","district":"Baros","urban":"Sukamenak","postal_code":42173},{"province":"Banten","city":"Serang","district":"Baros","urban":"Sukacai","postal_code":42173},{"province":"Banten","city":"Serang","district":"Baros","urban":"Sukamanah","postal_code":42173},{"province":"Banten","city":"Serang","district":"Baros","urban":"Sindangmandi","postal_code":42173},{"province":"Banten","city":"Serang","district":"Baros","urban":"Suka Indah","postal_code":42173},{"province":"Banten","city":"Serang","district":"Baros","urban":"Sidamukti","postal_code":42173},{"province":"Banten","city":"Serang","district":"Baros","urban":"Sinarmukti","postal_code":42173},{"province":"Banten","city":"Serang","district":"Baros","urban":"Panyirapan","postal_code":42173},{"province":"Banten","city":"Serang","district":"Baros","urban":"Curug Agung","postal_code":42173},{"province":"Banten","city":"Serang","district":"Baros","urban":"Padasuka","postal_code":42173},{"province":"Banten","city":"Serang","district":"Baros","urban":"Cisalam","postal_code":42173},{"province":"Banten","city":"Serang","district":"Baros","urban":"Baros","postal_code":42173}]