[{"province":"Banten","city":"Serang","district":"Pamarayan","urban":"Wirana","postal_code":42176},{"province":"Banten","city":"Serang","district":"Pamarayan","urban":"Sangiang","postal_code":42176},{"province":"Banten","city":"Serang","district":"Pamarayan","urban":"Pudar","postal_code":42176},{"province":"Banten","city":"Serang","district":"Bandung","urban":"Pringwulung","postal_code":42176},{"province":"Banten","city":"Serang","district":"Pamarayan","urban":"Pasirlimus","postal_code":42176},{"province":"Banten","city":"Serang","district":"Bandung","urban":"Pangawinan","postal_code":42176},{"province":"Banten","city":"Serang","district":"Pamarayan","urban":"Pasir Kembang","postal_code":42176},{"province":"Banten","city":"Serang","district":"Bandung","urban":"Mander","postal_code":42176},{"province":"Banten","city":"Serang","district":"Bandung","urban":"Panamping","postal_code":42176},{"province":"Banten","city":"Serang","district":"Pamarayan","urban":"Pamarayan","postal_code":42176},{"province":"Banten","city":"Serang","district":"Bandung","urban":"Malabar","postal_code":42176},{"province":"Banten","city":"Serang","district":"Bandung","urban":"Malabar","postal_code":42176},{"province":"Banten","city":"Serang","district":"Pamarayan","urban":"Damping","postal_code":42176},{"province":"Banten","city":"Serang","district":"Pamarayan","urban":"Kampung Baru","postal_code":42176},{"province":"Banten","city":"Serang","district":"Pamarayan","urban":"Binong","postal_code":42176},{"province":"Banten","city":"Serang","district":"Bandung","urban":"Blokang","postal_code":42176},{"province":"Banten","city":"Serang","district":"Bandung","urban":"Bandung","postal_code":42176},{"province":"Banten","city":"Serang","district":"Bandung","urban":"Babakan","postal_code":42176}]