[{"province":"Banten","city":"Serang","district":"Lebak Wangi","urban":"Tirem","postal_code":42182},{"province":"Banten","city":"Serang","district":"Ciruas","urban":"Singamerta","postal_code":42182},{"province":"Banten","city":"Serang","district":"Ciruas","urban":"Pulo","postal_code":42182},{"province":"Banten","city":"Serang","district":"Ciruas","urban":"Ranjeng","postal_code":42182},{"province":"Banten","city":"Serang","district":"Ciruas","urban":"Pelawad","postal_code":42182},{"province":"Banten","city":"Serang","district":"Ciruas","urban":"Kaserangan","postal_code":42182},{"province":"Banten","city":"Serang","district":"Ciruas","urban":"Penggalang","postal_code":42182},{"province":"Banten","city":"Serang","district":"Lebak Wangi","urban":"Kebonratu","postal_code":42182},{"province":"Banten","city":"Serang","district":"Ciruas","urban":"Kepandean","postal_code":42182},{"province":"Banten","city":"Serang","district":"Ciruas","urban":"Citerep","postal_code":42182},{"province":"Banten","city":"Serang","district":"Ciruas","urban":"Pamong","postal_code":42182},{"province":"Banten","city":"Serang","district":"Ciruas","urban":"Gosara","postal_code":42182},{"province":"Banten","city":"Serang","district":"Ciruas","urban":"Kaserangan","postal_code":42182},{"province":"Banten","city":"Serang","district":"Ciruas","urban":"Cigelam","postal_code":42182},{"province":"Banten","city":"Serang","district":"Ciruas","urban":"Ciruas","postal_code":42182},{"province":"Banten","city":"Serang","district":"Ciruas","urban":"Bumijaya","postal_code":42182},{"province":"Banten","city":"Serang","district":"Ciruas","urban":"Beberan","postal_code":42182}]