[{"province":"Banten","city":"Serang","district":"Kragilan","urban":"Tegalmaja","postal_code":42184},{"province":"Banten","city":"Serang","district":"Kragilan","urban":"Undar Andir","postal_code":42184},{"province":"Banten","city":"Serang","district":"Lebak Wangi","urban":"Terasbendung","postal_code":42184},{"province":"Banten","city":"Serang","district":"Kragilan","urban":"Sukajadi","postal_code":42184},{"province":"Banten","city":"Serang","district":"Kragilan","urban":"Sentul","postal_code":42184},{"province":"Banten","city":"Serang","district":"Kragilan","urban":"Silebu","postal_code":42184},{"province":"Banten","city":"Serang","district":"Kragilan","urban":"Pematang","postal_code":42184},{"province":"Banten","city":"Serang","district":"Kragilan","urban":"Kragilan","postal_code":42184},{"province":"Banten","city":"Serang","district":"Kragilan","urban":"Kramatjati","postal_code":42184},{"province":"Banten","city":"Serang","district":"Kragilan","urban":"Kendayakan","postal_code":42184},{"province":"Banten","city":"Serang","district":"Lebak Wangi","urban":"Kamaruton","postal_code":42184},{"province":"Banten","city":"Serang","district":"Kragilan","urban":"Dukuh","postal_code":42184},{"province":"Banten","city":"Serang","district":"Kragilan","urban":"Jeruktipis","postal_code":42184},{"province":"Banten","city":"Serang","district":"Kragilan","urban":"Cisait","postal_code":42184}]