[{"province":"Banten","city":"Serang","district":"Walantaka","urban":"Walantaka","postal_code":42183},{"province":"Banten","city":"Serang","district":"Walantaka","urban":"Tegalsari","postal_code":42183},{"province":"Banten","city":"Serang","district":"Walantaka","urban":"Teritih","postal_code":42183},{"province":"Banten","city":"Serang","district":"Walantaka","urban":"Pengampelan","postal_code":42183},{"province":"Banten","city":"Serang","district":"Walantaka","urban":"Pipitan","postal_code":42183},{"province":"Banten","city":"Serang","district":"Walantaka","urban":"Pageragung","postal_code":42183},{"province":"Banten","city":"Serang","district":"Walantaka","urban":"Pasuluhan","postal_code":42183},{"province":"Banten","city":"Serang","district":"Walantaka","urban":"Pageragung","postal_code":42183},{"province":"Banten","city":"Serang","district":"Walantaka","urban":"Nyapah","postal_code":42183},{"province":"Banten","city":"Serang","district":"Walantaka","urban":"Pabuaran","postal_code":42183},{"province":"Banten","city":"Serang","district":"Lebak Wangi","urban":"Lebakwangi","postal_code":42183},{"province":"Banten","city":"Serang","district":"Walantaka","urban":"Lebakwangi","postal_code":42183},{"province":"Banten","city":"Serang","district":"Lebak Wangi","urban":"Lebak Kepuh","postal_code":42183},{"province":"Banten","city":"Serang","district":"Walantaka","urban":"Kiara","postal_code":42183},{"province":"Banten","city":"Serang","district":"Lebak Wangi","urban":"Kencana Harapan","postal_code":42183},{"province":"Banten","city":"Serang","district":"Walantaka","urban":"Kalodoran / Kalodran","postal_code":42183},{"province":"Banten","city":"Serang","district":"Walantaka","urban":"Kepuren","postal_code":42183},{"province":"Banten","city":"Serang","district":"Walantaka","urban":"Cigoong","postal_code":42183}]