[{"province":"Banten","city":"Pandeglang","district":"Koroncong","urban":"Tegalongok","postal_code":42251},{"province":"Banten","city":"Pandeglang","district":"Cadasari","urban":"Tapos","postal_code":42251},{"province":"Banten","city":"Pandeglang","district":"Koroncong","urban":"Sukajaya","postal_code":42251},{"province":"Banten","city":"Pandeglang","district":"Cadasari","urban":"Tanagara","postal_code":42251},{"province":"Banten","city":"Pandeglang","district":"Koroncong","urban":"Setrajaya","postal_code":42251},{"province":"Banten","city":"Pandeglang","district":"Cadasari","urban":"Pasirpeuteuy","postal_code":42251},{"province":"Banten","city":"Pandeglang","district":"Koroncong","urban":"Pasirkarang","postal_code":42251},{"province":"Banten","city":"Pandeglang","district":"Koroncong","urban":"Pasirjaksa","postal_code":42251},{"province":"Banten","city":"Pandeglang","district":"Koroncong","urban":"Paniis","postal_code":42251},{"province":"Banten","city":"Pandeglang","district":"Karang Tanjung","urban":"Pagadungan","postal_code":42251},{"province":"Banten","city":"Pandeglang","district":"Koroncong","urban":"Pakuluran","postal_code":42251},{"province":"Banten","city":"Pandeglang","district":"Cadasari","urban":"Kurungdahu","postal_code":42251},{"province":"Banten","city":"Pandeglang","district":"Koroncong","urban":"Koroncong","postal_code":42251},{"province":"Banten","city":"Pandeglang","district":"Cadasari","urban":"Koranji","postal_code":42251},{"province":"Banten","city":"Pandeglang","district":"Cadasari","urban":"Kaungcaang","postal_code":42251},{"province":"Banten","city":"Pandeglang","district":"Karang Tanjung","urban":"Kadumerak","postal_code":42251},{"province":"Banten","city":"Pandeglang","district":"Koroncong","urban":"Karangsetra","postal_code":42251},{"province":"Banten","city":"Pandeglang","district":"Cadasari","urban":"Kaduengang","postal_code":42251},{"province":"Banten","city":"Pandeglang","district":"Cadasari","urban":"Kaduela","postal_code":42251},{"province":"Banten","city":"Pandeglang","district":"Koroncong","urban":"Gerendong","postal_code":42251},{"province":"Banten","city":"Pandeglang","district":"Cadasari","urban":"Cikentrung","postal_code":42251},{"province":"Banten","city":"Pandeglang","district":"Karang Tanjung","urban":"Cigadung","postal_code":42251},{"province":"Banten","city":"Pandeglang","district":"Cadasari","urban":"Ciinjuk","postal_code":42251},{"province":"Banten","city":"Pandeglang","district":"Cadasari","urban":"Cadasari","postal_code":42251},{"province":"Banten","city":"Pandeglang","district":"Koroncong","urban":"Bangkonol","postal_code":42251},{"province":"Banten","city":"Pandeglang","district":"Koroncong","urban":"Awilega","postal_code":42251}]