[{"province":"Banten","city":"Pandeglang","district":"Sukaresmi","urban":"Weru","postal_code":42265},{"province":"Banten","city":"Pandeglang","district":"Pagelaran","urban":"Tegalpapak","postal_code":42265},{"province":"Banten","city":"Pandeglang","district":"Patia","urban":"Turus","postal_code":42265},{"province":"Banten","city":"Pandeglang","district":"Pagelaran","urban":"Surakarta","postal_code":42265},{"province":"Banten","city":"Pandeglang","district":"Patia","urban":"Surianeun","postal_code":42265},{"province":"Banten","city":"Pandeglang","district":"Sukaresmi","urban":"Sukaresmi","postal_code":42265},{"province":"Banten","city":"Pandeglang","district":"Pagelaran","urban":"Sukadame","postal_code":42265},{"province":"Banten","city":"Pandeglang","district":"Pagelaran","urban":"Sindanglaya","postal_code":42265},{"province":"Banten","city":"Pandeglang","district":"Patia","urban":"Simpangtiga","postal_code":42265},{"province":"Banten","city":"Pandeglang","district":"Sukaresmi","urban":"Seuseupan","postal_code":42265},{"province":"Banten","city":"Pandeglang","district":"Sukaresmi","urban":"Sidamukti","postal_code":42265},{"province":"Banten","city":"Pandeglang","district":"Pagelaran","urban":"Senangsari","postal_code":42265},{"province":"Banten","city":"Pandeglang","district":"Patia","urban":"Rahayu","postal_code":42265},{"province":"Banten","city":"Pandeglang","district":"Sukaresmi","urban":"Perdana","postal_code":42265},{"province":"Banten","city":"Pandeglang","district":"Patia","urban":"Pasirgadung","postal_code":42265},{"province":"Banten","city":"Pandeglang","district":"Patia","urban":"Patia","postal_code":42265},{"province":"Banten","city":"Pandeglang","district":"Sukaresmi","urban":"Pasirkadu","postal_code":42265},{"province":"Banten","city":"Pandeglang","district":"Pagelaran","urban":"Montor","postal_code":42265},{"province":"Banten","city":"Pandeglang","district":"Pagelaran","urban":"Pagelaran","postal_code":42265},{"province":"Banten","city":"Pandeglang","district":"Pagelaran","urban":"Margagiri","postal_code":42265},{"province":"Banten","city":"Pandeglang","district":"Pagelaran","urban":"Margasana","postal_code":42265},{"province":"Banten","city":"Pandeglang","district":"Pagelaran","urban":"Kartasana","postal_code":42265},{"province":"Banten","city":"Pandeglang","district":"Sukaresmi","urban":"Karyasari","postal_code":42265},{"province":"Banten","city":"Pandeglang","district":"Sukaresmi","urban":"Kubangkampil","postal_code":42265},{"province":"Banten","city":"Pandeglang","district":"Patia","urban":"Idaman","postal_code":42265},{"province":"Banten","city":"Pandeglang","district":"Pagelaran","urban":"Harapankarya","postal_code":42265},{"province":"Banten","city":"Pandeglang","district":"Patia","urban":"Cimoyan","postal_code":42265},{"province":"Banten","city":"Pandeglang","district":"Sukaresmi","urban":"Cikuya","postal_code":42265},{"province":"Banten","city":"Pandeglang","district":"Patia","urban":"Ciawi","postal_code":42265},{"province":"Banten","city":"Pandeglang","district":"Sukaresmi","urban":"Cibungur","postal_code":42265},{"province":"Banten","city":"Pandeglang","district":"Patia","urban":"Babakankeusik","postal_code":42265},{"province":"Banten","city":"Pandeglang","district":"Pagelaran","urban":"Bama","postal_code":42265},{"province":"Banten","city":"Pandeglang","district":"Pagelaran","urban":"Bulagor","postal_code":42265}]