[{"province":"Banten","city":"Pandeglang","district":"Labuan","urban":"Teluk","postal_code":42264},{"province":"Banten","city":"Pandeglang","district":"Carita","urban":"Tembong","postal_code":42264},{"province":"Banten","city":"Pandeglang","district":"Carita","urban":"Sukanagara","postal_code":42264},{"province":"Banten","city":"Pandeglang","district":"Carita","urban":"Sukarame","postal_code":42264},{"province":"Banten","city":"Pandeglang","district":"Labuan","urban":"Sukamaju","postal_code":42264},{"province":"Banten","city":"Pandeglang","district":"Carita","urban":"Sukajadi","postal_code":42264},{"province":"Banten","city":"Pandeglang","district":"Labuan","urban":"Rancateureup","postal_code":42264},{"province":"Banten","city":"Pandeglang","district":"Carita","urban":"Pejamben","postal_code":42264},{"province":"Banten","city":"Pandeglang","district":"Carita","urban":"Sindanglaut","postal_code":42264},{"province":"Banten","city":"Pandeglang","district":"Labuan","urban":"Labuan","postal_code":42264},{"province":"Banten","city":"Pandeglang","district":"Carita","urban":"Kawoyang","postal_code":42264},{"province":"Banten","city":"Pandeglang","district":"Labuan","urban":"Cigondang","postal_code":42264},{"province":"Banten","city":"Pandeglang","district":"Labuan","urban":"Kalanganyar","postal_code":42264},{"province":"Banten","city":"Pandeglang","district":"Carita","urban":"Cinoyong","postal_code":42264},{"province":"Banten","city":"Pandeglang","district":"Labuan","urban":"Banyumekar","postal_code":42264},{"province":"Banten","city":"Pandeglang","district":"Labuan","urban":"Caringin","postal_code":42264},{"province":"Banten","city":"Pandeglang","district":"Carita","urban":"Carita","postal_code":42264},{"province":"Banten","city":"Pandeglang","district":"Carita","urban":"Banjarmasin","postal_code":42264},{"province":"Banten","city":"Pandeglang","district":"Labuan","urban":"Banyubiru","postal_code":42264}]