[{"province":"Banten","city":"Pandeglang","district":"Menes","urban":"Tegalwangi","postal_code":42262},{"province":"Banten","city":"Pandeglang","district":"Menes","urban":"Sukamanah","postal_code":42262},{"province":"Banten","city":"Pandeglang","district":"Pulosari","urban":"Sukasari","postal_code":42262},{"province":"Banten","city":"Pandeglang","district":"Menes","urban":"Ramaya","postal_code":42262},{"province":"Banten","city":"Pandeglang","district":"Menes","urban":"Sindangkarya","postal_code":42262},{"province":"Banten","city":"Pandeglang","district":"Menes","urban":"Menes","postal_code":42262},{"province":"Banten","city":"Pandeglang","district":"Menes","urban":"Muruy","postal_code":42262},{"province":"Banten","city":"Pandeglang","district":"Menes","urban":"Purwaraja","postal_code":42262},{"province":"Banten","city":"Pandeglang","district":"Pulosari","urban":"Koranji","postal_code":42262},{"province":"Banten","city":"Pandeglang","district":"Menes","urban":"Kananga","postal_code":42262},{"province":"Banten","city":"Pandeglang","district":"Pulosari","urban":"Karyawangi","postal_code":42262},{"province":"Banten","city":"Pandeglang","district":"Menes","urban":"Kadupayung","postal_code":42262},{"province":"Banten","city":"Pandeglang","district":"Pulosari","urban":"Banjarwangi","postal_code":42262},{"province":"Banten","city":"Pandeglang","district":"Menes","urban":"Cigandeng","postal_code":42262},{"province":"Banten","city":"Pandeglang","district":"Menes","urban":"Cilabanbulan","postal_code":42262},{"province":"Banten","city":"Pandeglang","district":"Menes","urban":"Alaswangi","postal_code":42262}]