[{"province":"Banten","city":"Pandeglang","district":"Saketi","urban":"Talagasari","postal_code":42273},{"province":"Banten","city":"Pandeglang","district":"Saketi","urban":"Wanagiri","postal_code":42273},{"province":"Banten","city":"Pandeglang","district":"Saketi","urban":"Sodong","postal_code":42273},{"province":"Banten","city":"Pandeglang","district":"Saketi","urban":"Sindanghayu","postal_code":42273},{"province":"Banten","city":"Pandeglang","district":"Saketi","urban":"Sukalangu","postal_code":42273},{"province":"Banten","city":"Pandeglang","district":"Pulosari","urban":"Sanghiangdengdek","postal_code":42273},{"province":"Banten","city":"Pandeglang","district":"Saketi","urban":"Saketi","postal_code":42273},{"province":"Banten","city":"Pandeglang","district":"Cisata","urban":"Rawasari","postal_code":42273},{"province":"Banten","city":"Pandeglang","district":"Saketi","urban":"Parigi","postal_code":42273},{"province":"Banten","city":"Pandeglang","district":"Cisata","urban":"Pasireurih","postal_code":42273},{"province":"Banten","city":"Pandeglang","district":"Cisata","urban":"Palembang","postal_code":42273},{"province":"Banten","city":"Pandeglang","district":"Saketi","urban":"Medalsari","postal_code":42273},{"province":"Banten","city":"Pandeglang","district":"Saketi","urban":"Mekarwangi","postal_code":42273},{"province":"Banten","city":"Pandeglang","district":"Saketi","urban":"Langensari","postal_code":42273},{"province":"Banten","city":"Pandeglang","district":"Saketi","urban":"Majau","postal_code":42273},{"province":"Banten","city":"Pandeglang","district":"Cisata","urban":"Kondangjaya","postal_code":42273},{"province":"Banten","city":"Pandeglang","district":"Cisata","urban":"Kubangkondang","postal_code":42273},{"province":"Banten","city":"Pandeglang","district":"Cisata","urban":"Kaduronyok","postal_code":42273},{"province":"Banten","city":"Pandeglang","district":"Saketi","urban":"Kadudampit","postal_code":42273},{"province":"Banten","city":"Pandeglang","district":"Saketi","urban":"Girijaya","postal_code":42273},{"province":"Banten","city":"Pandeglang","district":"Pulosari","urban":"Cilentung","postal_code":42273},{"province":"Banten","city":"Pandeglang","district":"Cisata","urban":"Cisereh","postal_code":42273},{"province":"Banten","city":"Pandeglang","district":"Cisata","urban":"Cibarani","postal_code":42273},{"province":"Banten","city":"Pandeglang","district":"Cisata","urban":"Ciherangjaya","postal_code":42273},{"province":"Banten","city":"Pandeglang","district":"Saketi","urban":"Ciandur","postal_code":42273},{"province":"Banten","city":"Pandeglang","district":"Pulosari","urban":"Banjarnegara","postal_code":42273}]