[{"province":"Banten","city":"Pandeglang","district":"Munjul","urban":"Sukasaba","postal_code":42276},{"province":"Banten","city":"Pandeglang","district":"Sindangresmi","urban":"Pasirtenjo","postal_code":42276},{"province":"Banten","city":"Pandeglang","district":"Sindangresmi","urban":"Sindangresmi","postal_code":42276},{"province":"Banten","city":"Pandeglang","district":"Sindangresmi","urban":"Pasirlancar","postal_code":42276},{"province":"Banten","city":"Pandeglang","district":"Sindangresmi","urban":"Pasirloa","postal_code":42276},{"province":"Banten","city":"Pandeglang","district":"Sindangresmi","urban":"Pasirdurung","postal_code":42276},{"province":"Banten","city":"Pandeglang","district":"Munjul","urban":"Pasanggrahan","postal_code":42276},{"province":"Banten","city":"Pandeglang","district":"Munjul","urban":"Munjul","postal_code":42276},{"province":"Banten","city":"Pandeglang","district":"Munjul","urban":"Panacaran","postal_code":42276},{"province":"Banten","city":"Pandeglang","district":"Sindangresmi","urban":"Kadumalati","postal_code":42276},{"province":"Banten","city":"Pandeglang","district":"Munjul","urban":"Kotadukuh","postal_code":42276},{"province":"Banten","city":"Pandeglang","district":"Munjul","urban":"Curuglanglang","postal_code":42276},{"province":"Banten","city":"Pandeglang","district":"Munjul","urban":"Gunungbatu","postal_code":42276},{"province":"Banten","city":"Pandeglang","district":"Sindangresmi","urban":"Ciodeng","postal_code":42276},{"province":"Banten","city":"Pandeglang","district":"Munjul","urban":"Cibitung","postal_code":42276},{"province":"Banten","city":"Pandeglang","district":"Sindangresmi","urban":"Bojongmanik","postal_code":42276},{"province":"Banten","city":"Pandeglang","district":"Sindangresmi","urban":"Campakawarna","postal_code":42276}]