[{"province":"Banten","city":"Pandeglang","district":"Cipeucang","urban":"Pasireurih","postal_code":42272},{"province":"Banten","city":"Pandeglang","district":"Cipeucang","urban":"Pasirmae","postal_code":42272},{"province":"Banten","city":"Pandeglang","district":"Cipeucang","urban":"Parumasan","postal_code":42272},{"province":"Banten","city":"Pandeglang","district":"Cipeucang","urban":"Palanyar","postal_code":42272},{"province":"Banten","city":"Pandeglang","district":"Cipeucang","urban":"Kalanggunung","postal_code":42272},{"province":"Banten","city":"Pandeglang","district":"Cipeucang","urban":"Koncang","postal_code":42272},{"province":"Banten","city":"Pandeglang","district":"Cipeucang","urban":"Cikadueun","postal_code":42272},{"province":"Banten","city":"Pandeglang","district":"Cipeucang","urban":"Curugbarang","postal_code":42272},{"province":"Banten","city":"Pandeglang","district":"Cipeucang","urban":"Kadugadung","postal_code":42272},{"province":"Banten","city":"Pandeglang","district":"Cipeucang","urban":"Baturanjang","postal_code":42272}]