[{"province":"Banten","city":"Pandeglang","district":"Cikeudal (Cikedal)","urban":"Tegal","postal_code":42271},{"province":"Banten","city":"Pandeglang","district":"Mekarjaya","urban":"Sukamulya","postal_code":42271},{"province":"Banten","city":"Pandeglang","district":"Mekarjaya","urban":"Wirasinga","postal_code":42271},{"province":"Banten","city":"Pandeglang","district":"Mekarjaya","urban":"Rancabugel","postal_code":42271},{"province":"Banten","city":"Pandeglang","district":"Cimanuk","urban":"Rocek","postal_code":42271},{"province":"Banten","city":"Pandeglang","district":"Cimanuk","urban":"Sekong","postal_code":42271},{"province":"Banten","city":"Pandeglang","district":"Cikeudal (Cikedal)","urban":"Padahayu","postal_code":42271},{"province":"Banten","city":"Pandeglang","district":"Mekarjaya","urban":"Pareang","postal_code":42271},{"province":"Banten","city":"Pandeglang","district":"Cikeudal (Cikedal)","urban":"Mekarjaya","postal_code":42271},{"province":"Banten","city":"Pandeglang","district":"Mekarjaya","urban":"Mekarjaya","postal_code":42271},{"province":"Banten","city":"Pandeglang","district":"Mekarjaya","urban":"Medong","postal_code":42271},{"province":"Banten","city":"Pandeglang","district":"Cimanuk","urban":"Kupahandap","postal_code":42271},{"province":"Banten","city":"Pandeglang","district":"Cimanuk","urban":"Kadumadang","postal_code":42271},{"province":"Banten","city":"Pandeglang","district":"Cikeudal (Cikedal)","urban":"Karyasari","postal_code":42271},{"province":"Banten","city":"Pandeglang","district":"Cikeudal (Cikedal)","urban":"Karyautama","postal_code":42271},{"province":"Banten","city":"Pandeglang","district":"Cimanuk","urban":"Kadudodol","postal_code":42271},{"province":"Banten","city":"Pandeglang","district":"Mekarjaya","urban":"Kadujangkung","postal_code":42271},{"province":"Banten","city":"Pandeglang","district":"Cimanuk","urban":"Kadubungbang","postal_code":42271},{"province":"Banten","city":"Pandeglang","district":"Mekarjaya","urban":"Kadubelang","postal_code":42271},{"province":"Banten","city":"Pandeglang","district":"Cimanuk","urban":"Gunungcupu","postal_code":42271},{"province":"Banten","city":"Pandeglang","district":"Cimanuk","urban":"Gunungdatar","postal_code":42271},{"province":"Banten","city":"Pandeglang","district":"Cimanuk","urban":"Dalembalar","postal_code":42271},{"province":"Banten","city":"Pandeglang","district":"Cikeudal (Cikedal)","urban":"Dahu","postal_code":42271},{"province":"Banten","city":"Pandeglang","district":"Cimanuk","urban":"Cimanuk","postal_code":42271},{"province":"Banten","city":"Pandeglang","district":"Cikeudal (Cikedal)","urban":"Cipicung","postal_code":42271},{"province":"Banten","city":"Pandeglang","district":"Cimanuk","urban":"Batubantar","postal_code":42271},{"province":"Banten","city":"Pandeglang","district":"Cikeudal (Cikedal)","urban":"Babakanlor","postal_code":42271},{"province":"Banten","city":"Pandeglang","district":"Cikeudal (Cikedal)","urban":"Bangkuyung","postal_code":42271},{"province":"Banten","city":"Pandeglang","district":"Cikeudal (Cikedal)","urban":"Cening","postal_code":42271}]