[{"province":"Banten","city":"Pandeglang","district":"Angsana","urban":"Padamulya","postal_code":42277},{"province":"Banten","city":"Pandeglang","district":"Angsana","urban":"Sumurlaban","postal_code":42277},{"province":"Banten","city":"Pandeglang","district":"Angsana","urban":"Kramatmanik","postal_code":42277},{"province":"Banten","city":"Pandeglang","district":"Angsana","urban":"Padaherang","postal_code":42277},{"province":"Banten","city":"Pandeglang","district":"Munjul","urban":"Lebak","postal_code":42277},{"province":"Banten","city":"Pandeglang","district":"Angsana","urban":"Cipinang","postal_code":42277},{"province":"Banten","city":"Pandeglang","district":"Angsana","urban":"Kadubadak","postal_code":42277},{"province":"Banten","city":"Pandeglang","district":"Angsana","urban":"Karangsari","postal_code":42277},{"province":"Banten","city":"Pandeglang","district":"Angsana","urban":"Angsana","postal_code":42277},{"province":"Banten","city":"Pandeglang","district":"Angsana","urban":"Cikayas","postal_code":42277}]