[{"province":"Banten","city":"Pandeglang","district":"Panimbang","urban":"Tanjungjaya","postal_code":42281},{"province":"Banten","city":"Pandeglang","district":"Sobang","urban":"Teluklada","postal_code":42281},{"province":"Banten","city":"Pandeglang","district":"Panimbang","urban":"Panimbangjaya","postal_code":42281},{"province":"Banten","city":"Pandeglang","district":"Sobang","urban":"Pangkalan","postal_code":42281},{"province":"Banten","city":"Pandeglang","district":"Sobang","urban":"Sobang","postal_code":42281},{"province":"Banten","city":"Pandeglang","district":"Panimbang","urban":"Mekarjaya","postal_code":42281},{"province":"Banten","city":"Pandeglang","district":"Panimbang","urban":"Mekarsari","postal_code":42281},{"province":"Banten","city":"Pandeglang","district":"Sobang","urban":"Kertaraharja","postal_code":42281},{"province":"Banten","city":"Pandeglang","district":"Sobang","urban":"Kutamekar","postal_code":42281},{"province":"Banten","city":"Pandeglang","district":"Panimbang","urban":"Citeureup","postal_code":42281},{"province":"Banten","city":"Pandeglang","district":"Panimbang","urban":"Gombong","postal_code":42281},{"province":"Banten","city":"Pandeglang","district":"Sobang","urban":"Bojen","postal_code":42281},{"province":"Banten","city":"Pandeglang","district":"Sobang","urban":"Cimanis","postal_code":42281},{"province":"Banten","city":"Pandeglang","district":"Sobang","urban":"Cimanis","postal_code":42281}]