[{"province":"Banten","city":"Pandeglang","district":"Cikeusik","urban":"Umbulan","postal_code":42286},{"province":"Banten","city":"Pandeglang","district":"Cikeusik","urban":"Sumurbatu","postal_code":42286},{"province":"Banten","city":"Pandeglang","district":"Cikeusik","urban":"Tanjungan","postal_code":42286},{"province":"Banten","city":"Pandeglang","district":"Cikeusik","urban":"Sukaseneng","postal_code":42286},{"province":"Banten","city":"Pandeglang","district":"Cikeusik","urban":"Sukawaris","postal_code":42286},{"province":"Banten","city":"Pandeglang","district":"Cikeusik","urban":"Sukamulya","postal_code":42286},{"province":"Banten","city":"Pandeglang","district":"Cikeusik","urban":"Rancaseneng","postal_code":42286},{"province":"Banten","city":"Pandeglang","district":"Cikeusik","urban":"Nanggala","postal_code":42286},{"province":"Banten","city":"Pandeglang","district":"Cikeusik","urban":"Parungkokosan","postal_code":42286},{"province":"Banten","city":"Pandeglang","district":"Cikeusik","urban":"Cikiruhwetan","postal_code":42286},{"province":"Banten","city":"Pandeglang","district":"Cikeusik","urban":"Curugciung","postal_code":42286},{"province":"Banten","city":"Pandeglang","district":"Cikeusik","urban":"Leuwibalang","postal_code":42286},{"province":"Banten","city":"Pandeglang","district":"Cikeusik","urban":"Cikadongdong","postal_code":42286},{"province":"Banten","city":"Pandeglang","district":"Cikeusik","urban":"Cikeusik","postal_code":42286}]