[{"province":"Banten","city":"Pandeglang","district":"Cibaliung","urban":"Sukajadi","postal_code":42285},{"province":"Banten","city":"Pandeglang","district":"Cibaliung","urban":"Sorongan","postal_code":42285},{"province":"Banten","city":"Pandeglang","district":"Cibaliung","urban":"Sudimanik","postal_code":42285},{"province":"Banten","city":"Pandeglang","district":"Cibitung","urban":"Manglid","postal_code":42285},{"province":"Banten","city":"Pandeglang","district":"Cibitung","urban":"Sindangkerta","postal_code":42285},{"province":"Banten","city":"Pandeglang","district":"Cibaliung","urban":"Mendung","postal_code":42285},{"province":"Banten","city":"Pandeglang","district":"Cibitung","urban":"Malangnengah","postal_code":42285},{"province":"Banten","city":"Pandeglang","district":"Cibaliung","urban":"Mahendra","postal_code":42285},{"province":"Banten","city":"Pandeglang","district":"Cibitung","urban":"Kiarajangkung","postal_code":42285},{"province":"Banten","city":"Pandeglang","district":"Cibitung","urban":"Kiarapayung","postal_code":42285},{"province":"Banten","city":"Pandeglang","district":"Cibitung","urban":"Kutakarang","postal_code":42285},{"province":"Banten","city":"Pandeglang","district":"Cibaliung","urban":"Curug","postal_code":42285},{"province":"Banten","city":"Pandeglang","district":"Cibitung","urban":"Citeluk","postal_code":42285},{"province":"Banten","city":"Pandeglang","district":"Cibitung","urban":"Cikiruh","postal_code":42285},{"province":"Banten","city":"Pandeglang","district":"Cibitung","urban":"Cikadu","postal_code":42285},{"province":"Banten","city":"Pandeglang","district":"Cibitung","urban":"Cikalong","postal_code":42285},{"province":"Banten","city":"Pandeglang","district":"Cibaliung","urban":"Cihanjuang","postal_code":42285},{"province":"Banten","city":"Pandeglang","district":"Cibaliung","urban":"Cibingbin","postal_code":42285},{"province":"Banten","city":"Pandeglang","district":"Cibaliung","urban":"Cibaliung","postal_code":42285}]