[{"province":"Banten","city":"Lebak","district":"Sobang","urban":"Sukamaju","postal_code":42318},{"province":"Banten","city":"Lebak","district":"Sobang","urban":"Sukaresmi","postal_code":42318},{"province":"Banten","city":"Lebak","district":"Sobang","urban":"Majasari","postal_code":42318},{"province":"Banten","city":"Lebak","district":"Sobang","urban":"Sobang","postal_code":42318},{"province":"Banten","city":"Lebak","district":"Sobang","urban":"Sukajaya","postal_code":42318},{"province":"Banten","city":"Lebak","district":"Cibadak","urban":"Kaduagung Barat","postal_code":42318},{"province":"Banten","city":"Lebak","district":"Cibadak","urban":"Kaduagung Tengah","postal_code":42318},{"province":"Banten","city":"Lebak","district":"Cibadak","urban":"Kaduagung Timur","postal_code":42318},{"province":"Banten","city":"Lebak","district":"Sobang","urban":"Citujah","postal_code":42318},{"province":"Banten","city":"Lebak","district":"Sobang","urban":"Hariang","postal_code":42318},{"province":"Banten","city":"Lebak","district":"Sobang","urban":"Cilebang","postal_code":42318},{"province":"Banten","city":"Lebak","district":"Sobang","urban":"Cirompang","postal_code":42318}]