[{"province":"Banten","city":"Lebak","district":"Kalanganyar","urban":"Sukamekarsari","postal_code":42312},{"province":"Banten","city":"Lebak","district":"Rangkasbitung","urban":"Rangkasbitung Barat","postal_code":42312},{"province":"Banten","city":"Lebak","district":"Rangkasbitung","urban":"Sukamanah","postal_code":42312},{"province":"Banten","city":"Lebak","district":"Kalanganyar","urban":"Sangiang Tanjung","postal_code":42312},{"province":"Banten","city":"Lebak","district":"Rangkasbitung","urban":"Pasirtanjung","postal_code":42312},{"province":"Banten","city":"Lebak","district":"Kalanganyar","urban":"Pasirkupa","postal_code":42312},{"province":"Banten","city":"Lebak","district":"Rangkasbitung","urban":"Nameng","postal_code":42312},{"province":"Banten","city":"Lebak","district":"Rangkasbitung","urban":"Pabuaran","postal_code":42312},{"province":"Banten","city":"Lebak","district":"Rangkasbitung","urban":"Mekarsari","postal_code":42312},{"province":"Banten","city":"Lebak","district":"Kalanganyar","urban":"Kalanganyar","postal_code":42312},{"province":"Banten","city":"Lebak","district":"Rangkasbitung","urban":"Kolelet Wetan","postal_code":42312},{"province":"Banten","city":"Lebak","district":"Rangkasbitung","urban":"Cimangeungteung","postal_code":42312},{"province":"Banten","city":"Lebak","district":"Rangkasbitung","urban":"Citeras","postal_code":42312},{"province":"Banten","city":"Lebak","district":"Kalanganyar","urban":"Aweh","postal_code":42312},{"province":"Banten","city":"Lebak","district":"Kalanganyar","urban":"Cilangkap","postal_code":42312}]