[{"province":"Banten","city":"Lebak","district":"Cimarga","urban":"Tambak","postal_code":42361},{"province":"Banten","city":"Lebak","district":"Cimarga","urban":"Sangkan Manik","postal_code":42361},{"province":"Banten","city":"Lebak","district":"Cimarga","urban":"Sarageni","postal_code":42361},{"province":"Banten","city":"Lebak","district":"Cimarga","urban":"Sudamanik","postal_code":42361},{"province":"Banten","city":"Lebak","district":"Cimarga","urban":"Mekar Jaya","postal_code":42361},{"province":"Banten","city":"Lebak","district":"Cimarga","urban":"Mekarmulya","postal_code":42361},{"province":"Banten","city":"Lebak","district":"Cimarga","urban":"Sangiang Jaya","postal_code":42361},{"province":"Banten","city":"Lebak","district":"Cimarga","urban":"Margaluyu","postal_code":42361},{"province":"Banten","city":"Lebak","district":"Cimarga","urban":"Margatirta","postal_code":42361},{"province":"Banten","city":"Lebak","district":"Cimarga","urban":"Karya Jaya","postal_code":42361},{"province":"Banten","city":"Lebak","district":"Cimarga","urban":"Marga Jaya","postal_code":42361},{"province":"Banten","city":"Lebak","district":"Cimarga","urban":"Jayamanik","postal_code":42361},{"province":"Banten","city":"Lebak","district":"Cimarga","urban":"Jayasari","postal_code":42361},{"province":"Banten","city":"Lebak","district":"Cimarga","urban":"Girimukti","postal_code":42361},{"province":"Banten","city":"Lebak","district":"Cimarga","urban":"Gunung Anten","postal_code":42361},{"province":"Banten","city":"Lebak","district":"Cimarga","urban":"Inten Jaya","postal_code":42361},{"province":"Banten","city":"Lebak","district":"Cimarga","urban":"Cimarga","postal_code":42361}]