[{"province":"Banten","city":"Lebak","district":"Bojongmanik","urban":"Pasirbitung","postal_code":42363},{"province":"Banten","city":"Lebak","district":"Cirinten","urban":"Parakanlima","postal_code":42363},{"province":"Banten","city":"Lebak","district":"Bojongmanik","urban":"Mekarmanik","postal_code":42363},{"province":"Banten","city":"Lebak","district":"Bojongmanik","urban":"Parakanbeusi","postal_code":42363},{"province":"Banten","city":"Lebak","district":"Cirinten","urban":"Nangerang","postal_code":42363},{"province":"Banten","city":"Lebak","district":"Bojongmanik","urban":"Keboncau","postal_code":42363},{"province":"Banten","city":"Lebak","district":"Bojongmanik","urban":"Mekar Rahayu","postal_code":42363},{"province":"Banten","city":"Lebak","district":"Bojongmanik","urban":"Kadurahayu","postal_code":42363},{"province":"Banten","city":"Lebak","district":"Cirinten","urban":"Karoya","postal_code":42363},{"province":"Banten","city":"Lebak","district":"Bojongmanik","urban":"Kadurahayu","postal_code":42363},{"province":"Banten","city":"Lebak","district":"Cirinten","urban":"Kadudamas","postal_code":42363},{"province":"Banten","city":"Lebak","district":"Bojongmanik","urban":"Harjawana","postal_code":42363},{"province":"Banten","city":"Lebak","district":"Bojongmanik","urban":"Cimayang","postal_code":42363},{"province":"Banten","city":"Lebak","district":"Cirinten","urban":"Cirinten","postal_code":42363},{"province":"Banten","city":"Lebak","district":"Cirinten","urban":"Datarcae","postal_code":42363},{"province":"Banten","city":"Lebak","district":"Bojongmanik","urban":"Bojongmanik","postal_code":42363},{"province":"Banten","city":"Lebak","district":"Cirinten","urban":"Cempaka","postal_code":42363},{"province":"Banten","city":"Lebak","district":"Cirinten","urban":"Cibarani","postal_code":42363},{"province":"Banten","city":"Lebak","district":"Cirinten","urban":"Badur","postal_code":42363}]