[{"province":"Banten","city":"Lebak","district":"Leuwidamar","urban":"Nayagati","postal_code":42362},{"province":"Banten","city":"Lebak","district":"Leuwidamar","urban":"Sangkanwangi","postal_code":42362},{"province":"Banten","city":"Lebak","district":"Leuwidamar","urban":"Wantisari","postal_code":42362},{"province":"Banten","city":"Lebak","district":"Leuwidamar","urban":"Leuwidamar","postal_code":42362},{"province":"Banten","city":"Lebak","district":"Leuwidamar","urban":"Margawangi","postal_code":42362},{"province":"Banten","city":"Lebak","district":"Leuwidamar","urban":"Jalupang Mulya","postal_code":42362},{"province":"Banten","city":"Lebak","district":"Leuwidamar","urban":"Kanekes","postal_code":42362},{"province":"Banten","city":"Lebak","district":"Leuwidamar","urban":"Lebak Parahiang","postal_code":42362},{"province":"Banten","city":"Lebak","district":"Leuwidamar","urban":"Cibungur","postal_code":42362},{"province":"Banten","city":"Lebak","district":"Leuwidamar","urban":"Cisimeut","postal_code":42362},{"province":"Banten","city":"Lebak","district":"Leuwidamar","urban":"Cisimeut Raya","postal_code":42362},{"province":"Banten","city":"Lebak","district":"Leuwidamar","urban":"Bojong Menteng","postal_code":42362}]