[{"province":"Banten","city":"Lebak","district":"Cipanas","urban":"Talagahiang/Talagahiyang","postal_code":42372},{"province":"Banten","city":"Lebak","district":"Cipanas","urban":"Sipayung","postal_code":42372},{"province":"Banten","city":"Lebak","district":"Cipanas","urban":"Sukasari","postal_code":42372},{"province":"Banten","city":"Lebak","district":"Cipanas","urban":"Luhurjaya","postal_code":42372},{"province":"Banten","city":"Lebak","district":"Cipanas","urban":"Malangsari","postal_code":42372},{"province":"Banten","city":"Lebak","district":"Cipanas","urban":"Pasirhaur","postal_code":42372},{"province":"Banten","city":"Lebak","district":"Lebakgedong","urban":"Lebaksangka","postal_code":42372},{"province":"Banten","city":"Lebak","district":"Lebakgedong","urban":"Lebaksitu","postal_code":42372},{"province":"Banten","city":"Lebak","district":"Cipanas","urban":"Jayapura","postal_code":42372},{"province":"Banten","city":"Lebak","district":"Lebakgedong","urban":"Lebakgedong","postal_code":42372},{"province":"Banten","city":"Lebak","district":"Cipanas","urban":"Haurgajrug","postal_code":42372},{"province":"Banten","city":"Lebak","district":"Cipanas","urban":"Girilaya","postal_code":42372},{"province":"Banten","city":"Lebak","district":"Cipanas","urban":"Harumsari","postal_code":42372},{"province":"Banten","city":"Lebak","district":"Cipanas","urban":"Cipanas","postal_code":42372},{"province":"Banten","city":"Lebak","district":"Cipanas","urban":"Giriharja","postal_code":42372},{"province":"Banten","city":"Lebak","district":"Lebakgedong","urban":"Ciladaeun","postal_code":42372},{"province":"Banten","city":"Lebak","district":"Cipanas","urban":"Bintangsari","postal_code":42372},{"province":"Banten","city":"Lebak","district":"Lebakgedong","urban":"Banjar Irigasi","postal_code":42372},{"province":"Banten","city":"Lebak","district":"Cipanas","urban":"Bintangresmi","postal_code":42372}]