[{"province":"Banten","city":"Lebak","district":"Malingping","urban":"Sumber Waras","postal_code":42391},{"province":"Banten","city":"Lebak","district":"Malingping","urban":"Senanghati","postal_code":42391},{"province":"Banten","city":"Lebak","district":"Malingping","urban":"Sukamanah","postal_code":42391},{"province":"Banten","city":"Lebak","district":"Malingping","urban":"Sukaraja","postal_code":42391},{"province":"Banten","city":"Lebak","district":"Malingping","urban":"Rahong","postal_code":42391},{"province":"Banten","city":"Lebak","district":"Malingping","urban":"Sanghiang","postal_code":42391},{"province":"Banten","city":"Lebak","district":"Malingping","urban":"Malingping Utara","postal_code":42391},{"province":"Banten","city":"Lebak","district":"Malingping","urban":"Pagelaran","postal_code":42391},{"province":"Banten","city":"Lebak","district":"Malingping","urban":"Kersaratu","postal_code":42391},{"province":"Banten","city":"Lebak","district":"Malingping","urban":"Malingping Selatan","postal_code":42391},{"province":"Banten","city":"Lebak","district":"Malingping","urban":"Kadujajar","postal_code":42391},{"province":"Banten","city":"Lebak","district":"Malingping","urban":"Cilangkahan","postal_code":42391},{"province":"Banten","city":"Lebak","district":"Malingping","urban":"Kadujajar","postal_code":42391}]