[{"province":"Banten","city":"Lebak","district":"Bayah","urban":"Suwakan","postal_code":42393},{"province":"Banten","city":"Lebak","district":"Bayah","urban":"Sawarna","postal_code":42393},{"province":"Banten","city":"Lebak","district":"Bayah","urban":"Sawarna Timur","postal_code":42393},{"province":"Banten","city":"Lebak","district":"Cilograng","urban":"Pasirbungur","postal_code":42393},{"province":"Banten","city":"Lebak","district":"Bayah","urban":"Pamubulan","postal_code":42393},{"province":"Banten","city":"Lebak","district":"Bayah","urban":"Pasirgombong","postal_code":42393},{"province":"Banten","city":"Lebak","district":"Cilograng","urban":"Gunungbatu","postal_code":42393},{"province":"Banten","city":"Lebak","district":"Cilograng","urban":"Lebaktipar","postal_code":42393},{"province":"Banten","city":"Lebak","district":"Bayah","urban":"Darmasari","postal_code":42393},{"province":"Banten","city":"Lebak","district":"Cilograng","urban":"Girimukti","postal_code":42393},{"province":"Banten","city":"Lebak","district":"Bayah","urban":"Cisuren","postal_code":42393},{"province":"Banten","city":"Lebak","district":"Cilograng","urban":"Cireundeu","postal_code":42393},{"province":"Banten","city":"Lebak","district":"Cilograng","urban":"Cilograng","postal_code":42393},{"province":"Banten","city":"Lebak","district":"Bayah","urban":"Cimancak","postal_code":42393},{"province":"Banten","city":"Lebak","district":"Cilograng","urban":"Cikamunding","postal_code":42393},{"province":"Banten","city":"Lebak","district":"Cilograng","urban":"Cikatomas","postal_code":42393},{"province":"Banten","city":"Lebak","district":"Bayah","urban":"Cidikit","postal_code":42393},{"province":"Banten","city":"Lebak","district":"Cilograng","urban":"Cijengkol","postal_code":42393},{"province":"Banten","city":"Lebak","district":"Cilograng","urban":"Cibareno","postal_code":42393},{"province":"Banten","city":"Lebak","district":"Bayah","urban":"Bayah Barat","postal_code":42393},{"province":"Banten","city":"Lebak","district":"Bayah","urban":"Bayah Timur","postal_code":42393}]