[{"province":"Banten","city":"Lebak","district":"Panggarangan","urban":"Sogong","postal_code":42392},{"province":"Banten","city":"Lebak","district":"Panggarangan","urban":"Sukajadi","postal_code":42392},{"province":"Banten","city":"Lebak","district":"Panggarangan","urban":"Situragen","postal_code":42392},{"province":"Banten","city":"Lebak","district":"Cihara","urban":"Pondokpanjang","postal_code":42392},{"province":"Banten","city":"Lebak","district":"Panggarangan","urban":"Sindangratu","postal_code":42392},{"province":"Banten","city":"Lebak","district":"Cihara","urban":"Panyaungan","postal_code":42392},{"province":"Banten","city":"Lebak","district":"Panggarangan","urban":"Panggarangan","postal_code":42392},{"province":"Banten","city":"Lebak","district":"Cihara","urban":"Mekarsari","postal_code":42392},{"province":"Banten","city":"Lebak","district":"Panggarangan","urban":"Mekarjaya","postal_code":42392},{"province":"Banten","city":"Lebak","district":"Cihara","urban":"Karangkamulyan","postal_code":42392},{"province":"Banten","city":"Lebak","district":"Cihara","urban":"Lebak Peundeuy","postal_code":42392},{"province":"Banten","city":"Lebak","district":"Panggarangan","urban":"Hegarmanah","postal_code":42392},{"province":"Banten","city":"Lebak","district":"Panggarangan","urban":"Jatake","postal_code":42392},{"province":"Banten","city":"Lebak","district":"Cihara","urban":"Citepuseun","postal_code":42392},{"province":"Banten","city":"Lebak","district":"Panggarangan","urban":"Gunung Gede","postal_code":42392},{"province":"Banten","city":"Lebak","district":"Cihara","urban":"Ciparahu","postal_code":42392},{"province":"Banten","city":"Lebak","district":"Panggarangan","urban":"Cimandiri","postal_code":42392},{"province":"Banten","city":"Lebak","district":"Cihara","urban":"Cihara","postal_code":42392},{"province":"Banten","city":"Lebak","district":"Panggarangan","urban":"Cibarengkok","postal_code":42392},{"province":"Banten","city":"Lebak","district":"Cihara","urban":"Barunai","postal_code":42392}]