[{"province":"Jawa Barat","city":"Sukabumi","district":"Jampang Kulon","urban":"Tanjung","postal_code":43178},{"province":"Jawa Barat","city":"Sukabumi","district":"Cimanggu","urban":"Sukamaju","postal_code":43178},{"province":"Jawa Barat","city":"Sukabumi","district":"Cimanggu","urban":"Sukamanah","postal_code":43178},{"province":"Jawa Barat","city":"Sukabumi","district":"Cimanggu","urban":"Sukajadi","postal_code":43178},{"province":"Jawa Barat","city":"Sukabumi","district":"Jampang Kulon","urban":"Nagraksari","postal_code":43178},{"province":"Jawa Barat","city":"Sukabumi","district":"Jampang Kulon","urban":"Padajaya","postal_code":43178},{"province":"Jawa Barat","city":"Sukabumi","district":"Cimanggu","urban":"Karangmekar","postal_code":43178},{"province":"Jawa Barat","city":"Sukabumi","district":"Jampang Kulon","urban":"Mekarjaya","postal_code":43178},{"province":"Jawa Barat","city":"Sukabumi","district":"Jampang Kulon","urban":"Jampang Kulon","postal_code":43178},{"province":"Jawa Barat","city":"Sukabumi","district":"Jampang Kulon","urban":"Karanganyar","postal_code":43178},{"province":"Jawa Barat","city":"Sukabumi","district":"Cimanggu","urban":"Cimanggu","postal_code":43178},{"province":"Jawa Barat","city":"Sukabumi","district":"Jampang Kulon","urban":"Ciparay","postal_code":43178},{"province":"Jawa Barat","city":"Sukabumi","district":"Jampang Kulon","urban":"Cikarang","postal_code":43178},{"province":"Jawa Barat","city":"Sukabumi","district":"Jampang Kulon","urban":"Cikaranggeusan","postal_code":43178},{"province":"Jawa Barat","city":"Sukabumi","district":"Jampang Kulon","urban":"Bojongsari","postal_code":43178},{"province":"Jawa Barat","city":"Sukabumi","district":"Cimanggu","urban":"Boregah Indah","postal_code":43178},{"province":"Jawa Barat","city":"Sukabumi","district":"Jampang Kulon","urban":"Bojong Genteng","postal_code":43178}]