[{"province":"Jawa Barat","city":"Sukabumi","district":"Sagaranten","urban":"Sagaranten","postal_code":43181},{"province":"Jawa Barat","city":"Sukabumi","district":"Sagaranten","urban":"Sinar Bentang","postal_code":43181},{"province":"Jawa Barat","city":"Sukabumi","district":"Sagaranten","urban":"Mekarsari","postal_code":43181},{"province":"Jawa Barat","city":"Sukabumi","district":"Sagaranten","urban":"Pasanggrahan","postal_code":43181},{"province":"Jawa Barat","city":"Sukabumi","district":"Sagaranten","urban":"Puncakmanggis","postal_code":43181},{"province":"Jawa Barat","city":"Sukabumi","district":"Sagaranten","urban":"Hegarmanah","postal_code":43181},{"province":"Jawa Barat","city":"Sukabumi","district":"Sagaranten","urban":"Margaluyu","postal_code":43181},{"province":"Jawa Barat","city":"Sukabumi","district":"Sagaranten","urban":"Datarnangka","postal_code":43181},{"province":"Jawa Barat","city":"Sukabumi","district":"Sagaranten","urban":"Gunung Bentang","postal_code":43181},{"province":"Jawa Barat","city":"Sukabumi","district":"Sagaranten","urban":"Curugluhur","postal_code":43181},{"province":"Jawa Barat","city":"Sukabumi","district":"Sagaranten","urban":"Cibaregbeg","postal_code":43181},{"province":"Jawa Barat","city":"Sukabumi","district":"Sagaranten","urban":"Cibitung","postal_code":43181}]