[{"province":"Jawa Barat","city":"Cianjur","district":"Pacet","urban":"Sukanagalih","postal_code":43253},{"province":"Jawa Barat","city":"Cianjur","district":"Pacet","urban":"Sukatani","postal_code":43253},{"province":"Jawa Barat","city":"Cianjur","district":"Cipanas","urban":"Sindangjaya","postal_code":43253},{"province":"Jawa Barat","city":"Cianjur","district":"Cipanas","urban":"Sindanglaya","postal_code":43253},{"province":"Jawa Barat","city":"Cianjur","district":"Cipanas","urban":"Palasari","postal_code":43253},{"province":"Jawa Barat","city":"Cianjur","district":"Pacet","urban":"Gadog","postal_code":43253},{"province":"Jawa Barat","city":"Cianjur","district":"Cipanas","urban":"Cipanas","postal_code":43253},{"province":"Jawa Barat","city":"Cianjur","district":"Pacet","urban":"Cipendawa","postal_code":43253},{"province":"Jawa Barat","city":"Cianjur","district":"Cipanas","urban":"Ciloto","postal_code":43253},{"province":"Jawa Barat","city":"Cianjur","district":"Cipanas","urban":"Cimacan","postal_code":43253},{"province":"Jawa Barat","city":"Cianjur","district":"Pacet","urban":"Cibodas","postal_code":43253},{"province":"Jawa Barat","city":"Cianjur","district":"Pacet","urban":"Ciherang","postal_code":43253},{"province":"Jawa Barat","city":"Cianjur","district":"Cipanas","urban":"Batulawang","postal_code":43253}]