[{"province":"Jawa Barat","city":"Cianjur","district":"Warungkondang","urban":"Sukawangi","postal_code":43261},{"province":"Jawa Barat","city":"Cianjur","district":"Warungkondang","urban":"Tegallega","postal_code":43261},{"province":"Jawa Barat","city":"Cianjur","district":"Gekbrong","urban":"Sukaratu","postal_code":43261},{"province":"Jawa Barat","city":"Cianjur","district":"Warungkondang","urban":"Sukamulya","postal_code":43261},{"province":"Jawa Barat","city":"Cianjur","district":"Warungkondang","urban":"Mekarwangi","postal_code":43261},{"province":"Jawa Barat","city":"Cianjur","district":"Gekbrong","urban":"Songgom","postal_code":43261},{"province":"Jawa Barat","city":"Cianjur","district":"Warungkondang","urban":"Jambudipa","postal_code":43261},{"province":"Jawa Barat","city":"Cianjur","district":"Gekbrong","urban":"Kebonpeuteuy","postal_code":43261},{"province":"Jawa Barat","city":"Cianjur","district":"Warungkondang","urban":"Ciwalen","postal_code":43261},{"province":"Jawa Barat","city":"Cianjur","district":"Gekbrong","urban":"Gekbrong","postal_code":43261},{"province":"Jawa Barat","city":"Cianjur","district":"Gekbrong","urban":"Cintaasih","postal_code":43261},{"province":"Jawa Barat","city":"Cianjur","district":"Warungkondang","urban":"Cisarandi","postal_code":43261},{"province":"Jawa Barat","city":"Cianjur","district":"Gekbrong","urban":"Cikancana","postal_code":43261},{"province":"Jawa Barat","city":"Cianjur","district":"Warungkondang","urban":"Cikaroya","postal_code":43261},{"province":"Jawa Barat","city":"Cianjur","district":"Gekbrong","urban":"Cikahuripan","postal_code":43261},{"province":"Jawa Barat","city":"Cianjur","district":"Warungkondang","urban":"Bunisari","postal_code":43261},{"province":"Jawa Barat","city":"Cianjur","district":"Warungkondang","urban":"Cieundeur","postal_code":43261},{"province":"Jawa Barat","city":"Cianjur","district":"Warungkondang","urban":"Bunikasih","postal_code":43261},{"province":"Jawa Barat","city":"Cianjur","district":"Gekbrong","urban":"Bangbayang","postal_code":43261}]