[{"province":"Jawa Barat","city":"Cianjur","district":"Pagelaran","urban":"Sindangkerta","postal_code":43266},{"province":"Jawa Barat","city":"Cianjur","district":"Pagelaran","urban":"Situhiang","postal_code":43266},{"province":"Jawa Barat","city":"Cianjur","district":"Pagelaran","urban":"Sukamaju","postal_code":43266},{"province":"Jawa Barat","city":"Cianjur","district":"Pagelaran","urban":"Selagedang","postal_code":43266},{"province":"Jawa Barat","city":"Cianjur","district":"Pasirkuda","urban":"Simpang","postal_code":43266},{"province":"Jawa Barat","city":"Cianjur","district":"Pagelaran","urban":"Pangadegan","postal_code":43266},{"province":"Jawa Barat","city":"Cianjur","district":"Pagelaran","urban":"Pasirbaru","postal_code":43266},{"province":"Jawa Barat","city":"Cianjur","district":"Pasirkuda","urban":"Pusakajaya","postal_code":43266},{"province":"Jawa Barat","city":"Cianjur","district":"Pagelaran","urban":"Padamaju","postal_code":43266},{"province":"Jawa Barat","city":"Cianjur","district":"Pagelaran","urban":"Pagelaran","postal_code":43266},{"province":"Jawa Barat","city":"Cianjur","district":"Pasirkuda","urban":"Karangjaya","postal_code":43266},{"province":"Jawa Barat","city":"Cianjur","district":"Pagelaran","urban":"Kertaraharja","postal_code":43266},{"province":"Jawa Barat","city":"Cianjur","district":"Pagelaran","urban":"Mekarsari","postal_code":43266},{"province":"Jawa Barat","city":"Cianjur","district":"Pasirkuda","urban":"Kalibaru","postal_code":43266},{"province":"Jawa Barat","city":"Cianjur","district":"Pagelaran","urban":"Karangharja","postal_code":43266},{"province":"Jawa Barat","city":"Cianjur","district":"Pagelaran","urban":"Bunijaya","postal_code":43266},{"province":"Jawa Barat","city":"Cianjur","district":"Pagelaran","urban":"Buniwangi","postal_code":43266},{"province":"Jawa Barat","city":"Cianjur","district":"Pagelaran","urban":"Gelaranyar","postal_code":43266}]