[{"province":"Jawa Barat","city":"Cianjur","district":"Tanggeung","urban":"Sirnajaya","postal_code":43267},{"province":"Jawa Barat","city":"Cianjur","district":"Tanggeung","urban":"Sukajaya","postal_code":43267},{"province":"Jawa Barat","city":"Cianjur","district":"Tanggeung","urban":"Tanggeung","postal_code":43267},{"province":"Jawa Barat","city":"Cianjur","district":"Tanggeung","urban":"Pasirjambu","postal_code":43267},{"province":"Jawa Barat","city":"Cianjur","district":"Tanggeung","urban":"Rawagede","postal_code":43267},{"province":"Jawa Barat","city":"Cianjur","district":"Pasirkuda","urban":"Padamulya","postal_code":43267},{"province":"Jawa Barat","city":"Cianjur","district":"Tanggeung","urban":"Padaluyu","postal_code":43267},{"province":"Jawa Barat","city":"Cianjur","district":"Pasirkuda","urban":"Padamulya","postal_code":43267},{"province":"Jawa Barat","city":"Cianjur","district":"Tanggeung","urban":"Margaluyu","postal_code":43267},{"province":"Jawa Barat","city":"Cianjur","district":"Pasirkuda","urban":"Mekarmulya","postal_code":43267},{"province":"Jawa Barat","city":"Cianjur","district":"Tanggeung","urban":"Kertajaya","postal_code":43267},{"province":"Jawa Barat","city":"Cianjur","district":"Pasirkuda","urban":"Kubang","postal_code":43267},{"province":"Jawa Barat","city":"Cianjur","district":"Tanggeung","urban":"Karangtengah","postal_code":43267},{"province":"Jawa Barat","city":"Cianjur","district":"Pasirkuda","urban":"Girijaya","postal_code":43267},{"province":"Jawa Barat","city":"Cianjur","district":"Pasirkuda","urban":"Girimukti","postal_code":43267},{"province":"Jawa Barat","city":"Cianjur","district":"Tanggeung","urban":"Cilongsong","postal_code":43267},{"province":"Jawa Barat","city":"Cianjur","district":"Tanggeung","urban":"Bojongpetir","postal_code":43267}]