[{"province":"Jawa Barat","city":"Cianjur","district":"Agrabinta","urban":"Wangunjaya","postal_code":43273},{"province":"Jawa Barat","city":"Cianjur","district":"Agrabinta","urban":"Wanasari","postal_code":43273},{"province":"Jawa Barat","city":"Cianjur","district":"Leles","urban":"Walahir","postal_code":43273},{"province":"Jawa Barat","city":"Cianjur","district":"Agrabinta","urban":"Tanjungsari","postal_code":43273},{"province":"Jawa Barat","city":"Cianjur","district":"Leles","urban":"Sukamulya","postal_code":43273},{"province":"Jawa Barat","city":"Cianjur","district":"Leles","urban":"Sukasirna","postal_code":43273},{"province":"Jawa Barat","city":"Cianjur","district":"Agrabinta","urban":"Sukamanah","postal_code":43273},{"province":"Jawa Barat","city":"Cianjur","district":"Leles","urban":"Sukajaya","postal_code":43273},{"province":"Jawa Barat","city":"Cianjur","district":"Leles","urban":"Sindangsari","postal_code":43273},{"province":"Jawa Barat","city":"Cianjur","district":"Leles","urban":"Sirnasari","postal_code":43273},{"province":"Jawa Barat","city":"Cianjur","district":"Agrabinta","urban":"Sinarlaut","postal_code":43273},{"province":"Jawa Barat","city":"Cianjur","district":"Leles","urban":"Purabaya","postal_code":43273},{"province":"Jawa Barat","city":"Cianjur","district":"Leles","urban":"Pusakasari","postal_code":43273},{"province":"Jawa Barat","city":"Cianjur","district":"Leles","urban":"Puncakwangi","postal_code":43273},{"province":"Jawa Barat","city":"Cianjur","district":"Agrabinta","urban":"Neglasari","postal_code":43273},{"province":"Jawa Barat","city":"Cianjur","district":"Leles","urban":"Nagasari","postal_code":43273},{"province":"Jawa Barat","city":"Cianjur","district":"Agrabinta","urban":"Mulyasari","postal_code":43273},{"province":"Jawa Barat","city":"Cianjur","district":"Agrabinta","urban":"Mekarsari","postal_code":43273},{"province":"Jawa Barat","city":"Cianjur","district":"Leles","urban":"Mandalawangi","postal_code":43273},{"province":"Jawa Barat","city":"Cianjur","district":"Leles","urban":"Karyamukti","postal_code":43273},{"province":"Jawa Barat","city":"Cianjur","district":"Agrabinta","urban":"Karangsari","postal_code":43273},{"province":"Jawa Barat","city":"Cianjur","district":"Agrabinta","urban":"Bojongkaso","postal_code":43273},{"province":"Jawa Barat","city":"Cianjur","district":"Agrabinta","urban":"Bunisari","postal_code":43273}]