[{"province":"Jawa Barat","city":"Cianjur","district":"Cilaku","urban":"Sukakerta","postal_code":43285},{"province":"Jawa Barat","city":"Cianjur","district":"Cilaku","urban":"Sukasari","postal_code":43285},{"province":"Jawa Barat","city":"Cianjur","district":"Cilaku","urban":"Rancagoong","postal_code":43285},{"province":"Jawa Barat","city":"Cianjur","district":"Cilaku","urban":"Sindangsari","postal_code":43285},{"province":"Jawa Barat","city":"Cianjur","district":"Cilaku","urban":"Sirnagalih","postal_code":43285},{"province":"Jawa Barat","city":"Cianjur","district":"Cilaku","urban":"Munjul","postal_code":43285},{"province":"Jawa Barat","city":"Cianjur","district":"Cilaku","urban":"Rahong","postal_code":43285},{"province":"Jawa Barat","city":"Cianjur","district":"Cilaku","urban":"Ciharashas","postal_code":43285},{"province":"Jawa Barat","city":"Cianjur","district":"Cilaku","urban":"Mulyasari","postal_code":43285},{"province":"Jawa Barat","city":"Cianjur","district":"Cilaku","urban":"Cibinong Hilir","postal_code":43285}]