[{"province":"Jawa Barat","city":"Cianjur","district":"Ciranjang","urban":"Sindangjaya","postal_code":43282},{"province":"Jawa Barat","city":"Cianjur","district":"Ciranjang","urban":"Sindangsari","postal_code":43282},{"province":"Jawa Barat","city":"Cianjur","district":"Haurwangi","urban":"Mekarwangi","postal_code":43282},{"province":"Jawa Barat","city":"Cianjur","district":"Ciranjang","urban":"Nanggalamekar","postal_code":43282},{"province":"Jawa Barat","city":"Cianjur","district":"Haurwangi","urban":"Kertamukti","postal_code":43282},{"province":"Jawa Barat","city":"Cianjur","district":"Ciranjang","urban":"Mekargalih","postal_code":43282},{"province":"Jawa Barat","city":"Cianjur","district":"Ciranjang","urban":"Gunungsari","postal_code":43282},{"province":"Jawa Barat","city":"Cianjur","district":"Ciranjang","urban":"Karangwangi","postal_code":43282},{"province":"Jawa Barat","city":"Cianjur","district":"Ciranjang","urban":"Karangwangi","postal_code":43282},{"province":"Jawa Barat","city":"Cianjur","district":"Haurwangi","urban":"Cipeuyeum","postal_code":43282},{"province":"Jawa Barat","city":"Cianjur","district":"Ciranjang","urban":"Ciranjang","postal_code":43282},{"province":"Jawa Barat","city":"Cianjur","district":"Ciranjang","urban":"Cibiuk","postal_code":43282}]