[{"province":"Jawa Barat","city":"Cianjur","district":"Bojongpicung","urban":"Sukaratu","postal_code":43283},{"province":"Jawa Barat","city":"Cianjur","district":"Haurwangi","urban":"Sukatani (Mekarwangi)","postal_code":43283},{"province":"Jawa Barat","city":"Cianjur","district":"Bojongpicung","urban":"Sukajaya","postal_code":43283},{"province":"Jawa Barat","city":"Cianjur","district":"Bojongpicung","urban":"Sukarama","postal_code":43283},{"province":"Jawa Barat","city":"Cianjur","district":"Bojongpicung","urban":"Sukajaya","postal_code":43283},{"province":"Jawa Barat","city":"Cianjur","district":"Haurwangi","urban":"Kertasari","postal_code":43283},{"province":"Jawa Barat","city":"Cianjur","district":"Bojongpicung","urban":"Neglasari","postal_code":43283},{"province":"Jawa Barat","city":"Cianjur","district":"Bojongpicung","urban":"Jatisari","postal_code":43283},{"province":"Jawa Barat","city":"Cianjur","district":"Bojongpicung","urban":"Kemang","postal_code":43283},{"province":"Jawa Barat","city":"Cianjur","district":"Bojongpicung","urban":"Hegarmanah","postal_code":43283},{"province":"Jawa Barat","city":"Cianjur","district":"Bojongpicung","urban":"Jati","postal_code":43283},{"province":"Jawa Barat","city":"Cianjur","district":"Haurwangi","urban":"Cihea","postal_code":43283},{"province":"Jawa Barat","city":"Cianjur","district":"Haurwangi","urban":"Haurwangi","postal_code":43283},{"province":"Jawa Barat","city":"Cianjur","district":"Bojongpicung","urban":"Cikondang","postal_code":43283},{"province":"Jawa Barat","city":"Cianjur","district":"Bojongpicung","urban":"Bojongpicung","postal_code":43283},{"province":"Jawa Barat","city":"Cianjur","district":"Bojongpicung","urban":"Cibarengkok","postal_code":43283}]