[{"province":"Jawa Barat","city":"Cianjur","district":"Sukaluyu","urban":"Tanjungsari","postal_code":43284},{"province":"Jawa Barat","city":"Cianjur","district":"Sukaluyu","urban":"Sukamulya","postal_code":43284},{"province":"Jawa Barat","city":"Cianjur","district":"Sukaluyu","urban":"Sukasirna","postal_code":43284},{"province":"Jawa Barat","city":"Cianjur","district":"Cikadu","urban":"Sukamulya","postal_code":43284},{"province":"Jawa Barat","city":"Cianjur","district":"Cikadu","urban":"Sukamanah","postal_code":43284},{"province":"Jawa Barat","city":"Cianjur","district":"Cijati","urban":"Sukamahi","postal_code":43284},{"province":"Jawa Barat","city":"Cianjur","district":"Cijati","urban":"Sukamaju","postal_code":43284},{"province":"Jawa Barat","city":"Cianjur","district":"Sukaluyu","urban":"Sukaluyu","postal_code":43284},{"province":"Jawa Barat","city":"Cianjur","district":"Cikadu","urban":"Sukaluyu","postal_code":43284},{"province":"Jawa Barat","city":"Cianjur","district":"Cijati","urban":"Sinarbakti","postal_code":43284},{"province":"Jawa Barat","city":"Cianjur","district":"Cijati","urban":"Sukaluyu","postal_code":43284},{"province":"Jawa Barat","city":"Cianjur","district":"Sukaluyu","urban":"Sindangraja","postal_code":43284},{"province":"Jawa Barat","city":"Cianjur","district":"Cijati","urban":"Parakantugu","postal_code":43284},{"province":"Jawa Barat","city":"Cianjur","district":"Sukaluyu","urban":"Selajambe","postal_code":43284},{"province":"Jawa Barat","city":"Cianjur","district":"Sukaluyu","urban":"Panyusuhan","postal_code":43284},{"province":"Jawa Barat","city":"Cianjur","district":"Cikadu","urban":"Padaluyu","postal_code":43284},{"province":"Jawa Barat","city":"Cianjur","district":"Cijati","urban":"Padaasih","postal_code":43284},{"province":"Jawa Barat","city":"Cianjur","district":"Cikadu","urban":"Mekarlaksana","postal_code":43284},{"province":"Jawa Barat","city":"Cianjur","district":"Cikadu","urban":"Mekarwangi","postal_code":43284},{"province":"Jawa Barat","city":"Cianjur","district":"Sukaluyu","urban":"Mekarjaya","postal_code":43284},{"province":"Jawa Barat","city":"Cianjur","district":"Cikadu","urban":"Mekarjaya","postal_code":43284},{"province":"Jawa Barat","city":"Cianjur","district":"Sukaluyu","urban":"Hegarmanah","postal_code":43284},{"province":"Jawa Barat","city":"Cianjur","district":"Cikadu","urban":"Kalapanunggal","postal_code":43284},{"province":"Jawa Barat","city":"Cianjur","district":"Cikadu","urban":"Cikadu","postal_code":43284},{"province":"Jawa Barat","city":"Cianjur","district":"Cikadu","urban":"Cisaranten","postal_code":43284},{"province":"Jawa Barat","city":"Cianjur","district":"Cijati","urban":"Cijati","postal_code":43284},{"province":"Jawa Barat","city":"Cianjur","district":"Cijati","urban":"Cibodas","postal_code":43284},{"province":"Jawa Barat","city":"Cianjur","district":"Cijati","urban":"Bojonglarang","postal_code":43284},{"province":"Jawa Barat","city":"Cianjur","district":"Cijati","urban":"Caringin","postal_code":43284},{"province":"Jawa Barat","city":"Cianjur","district":"Sukaluyu","urban":"Babakansari","postal_code":43284}]