[{"province":"Jawa Barat","city":"Cianjur","district":"Mande","urban":"Sukamanah","postal_code":43292},{"province":"Jawa Barat","city":"Cianjur","district":"Mande","urban":"Mulyasari","postal_code":43292},{"province":"Jawa Barat","city":"Cianjur","district":"Mande","urban":"Murnisari","postal_code":43292},{"province":"Jawa Barat","city":"Cianjur","district":"Mande","urban":"Leuwikoja","postal_code":43292},{"province":"Jawa Barat","city":"Cianjur","district":"Mande","urban":"Mande","postal_code":43292},{"province":"Jawa Barat","city":"Cianjur","district":"Mande","urban":"Mekarjaya","postal_code":43292},{"province":"Jawa Barat","city":"Cianjur","district":"Mande","urban":"Jamali","postal_code":43292},{"province":"Jawa Barat","city":"Cianjur","district":"Mande","urban":"Kademangan","postal_code":43292},{"province":"Jawa Barat","city":"Cianjur","district":"Mande","urban":"Kutawaringin","postal_code":43292},{"province":"Jawa Barat","city":"Cianjur","district":"Mande","urban":"Bobojong","postal_code":43292},{"province":"Jawa Barat","city":"Cianjur","district":"Mande","urban":"Ciandam","postal_code":43292},{"province":"Jawa Barat","city":"Cianjur","district":"Mande","urban":"Cikidangbayabang","postal_code":43292}]