[{"province":"Jawa Barat","city":"Sukabumi","district":"Cikakak","urban":"Sukamaju","postal_code":43365},{"province":"Jawa Barat","city":"Sukabumi","district":"Cikakak","urban":"Ridogalih","postal_code":43365},{"province":"Jawa Barat","city":"Sukabumi","district":"Cikakak","urban":"Sirnarasa","postal_code":43365},{"province":"Jawa Barat","city":"Sukabumi","district":"Cikakak","urban":"Gandasoli","postal_code":43365},{"province":"Jawa Barat","city":"Sukabumi","district":"Cikakak","urban":"Margalaksana","postal_code":43365},{"province":"Jawa Barat","city":"Sukabumi","district":"Pelabuhan/Palabuhan Ratu","urban":"Citepus","postal_code":43365},{"province":"Jawa Barat","city":"Sukabumi","district":"Cikakak","urban":"Cimaja","postal_code":43365},{"province":"Jawa Barat","city":"Sukabumi","district":"Cikakak","urban":"Cirendang","postal_code":43365},{"province":"Jawa Barat","city":"Sukabumi","district":"Cikakak","urban":"Cikakak","postal_code":43365},{"province":"Jawa Barat","city":"Sukabumi","district":"Cikakak","urban":"Cileungsing","postal_code":43365}]