[{"province":"Jawa Barat","city":"Sukabumi","district":"Warung Kiara","urban":"Sukaharja","postal_code":43362},{"province":"Jawa Barat","city":"Sukabumi","district":"Warung Kiara","urban":"Warungkiara","postal_code":43362},{"province":"Jawa Barat","city":"Sukabumi","district":"Warung Kiara","urban":"Kertamukti","postal_code":43362},{"province":"Jawa Barat","city":"Sukabumi","district":"Warung Kiara","urban":"Ubrug","postal_code":43362},{"province":"Jawa Barat","city":"Sukabumi","district":"Warung Kiara","urban":"Mekarjaya","postal_code":43362},{"province":"Jawa Barat","city":"Sukabumi","district":"Warung Kiara","urban":"Sirnajaya","postal_code":43362},{"province":"Jawa Barat","city":"Sukabumi","district":"Warung Kiara","urban":"Girijaya","postal_code":43362},{"province":"Jawa Barat","city":"Sukabumi","district":"Warung Kiara","urban":"Hegarmanah","postal_code":43362},{"province":"Jawa Barat","city":"Sukabumi","district":"Warung Kiara","urban":"Bojongkerta","postal_code":43362},{"province":"Jawa Barat","city":"Sukabumi","district":"Warung Kiara","urban":"Bantarkalong","postal_code":43362}]