[{"province":"Jawa Barat","city":"Sukabumi","district":"Pelabuhan/Palabuhan Ratu","urban":"Pelabuhanratu (Palabuhanratu)","postal_code":43364},{"province":"Jawa Barat","city":"Sukabumi","district":"Pelabuhan/Palabuhan Ratu","urban":"Tonjong","postal_code":43364},{"province":"Jawa Barat","city":"Sukabumi","district":"Pelabuhan/Palabuhan Ratu","urban":"Jayanti","postal_code":43364},{"province":"Jawa Barat","city":"Sukabumi","district":"Pelabuhan/Palabuhan Ratu","urban":"Pasirsuren","postal_code":43364},{"province":"Jawa Barat","city":"Sukabumi","district":"Pelabuhan/Palabuhan Ratu","urban":"Cimanggu","postal_code":43364},{"province":"Jawa Barat","city":"Sukabumi","district":"Pelabuhan/Palabuhan Ratu","urban":"Citarik","postal_code":43364},{"province":"Jawa Barat","city":"Sukabumi","district":"Pelabuhan/Palabuhan Ratu","urban":"Cibodas","postal_code":43364},{"province":"Jawa Barat","city":"Sukabumi","district":"Pelabuhan/Palabuhan Ratu","urban":"Cikadu","postal_code":43364},{"province":"Jawa Barat","city":"Sukabumi","district":"Pelabuhan/Palabuhan Ratu","urban":"Buniwangi","postal_code":43364}]