[{"province":"Jawa Barat","city":"Garut","district":"Samarang","urban":"Tanjunganom","postal_code":44161},{"province":"Jawa Barat","city":"Garut","district":"Samarang","urban":"Tanjung Karya","postal_code":44161},{"province":"Jawa Barat","city":"Garut","district":"Samarang","urban":"Sukarasa","postal_code":44161},{"province":"Jawa Barat","city":"Garut","district":"Pasirwangi","urban":"Talaga","postal_code":44161},{"province":"Jawa Barat","city":"Garut","district":"Samarang","urban":"Sukalaksana","postal_code":44161},{"province":"Jawa Barat","city":"Garut","district":"Samarang","urban":"Sukakarya","postal_code":44161},{"province":"Jawa Barat","city":"Garut","district":"Samarang","urban":"Sirnasari","postal_code":44161},{"province":"Jawa Barat","city":"Garut","district":"Pasirwangi","urban":"Sirnajaya","postal_code":44161},{"province":"Jawa Barat","city":"Garut","district":"Pasirwangi","urban":"Sarimukti","postal_code":44161},{"province":"Jawa Barat","city":"Garut","district":"Samarang","urban":"Samarang","postal_code":44161},{"province":"Jawa Barat","city":"Garut","district":"Pasirwangi","urban":"Pasirwangi","postal_code":44161},{"province":"Jawa Barat","city":"Garut","district":"Pasirwangi","urban":"Pasirkiamis","postal_code":44161},{"province":"Jawa Barat","city":"Garut","district":"Samarang","urban":"Parakan","postal_code":44161},{"province":"Jawa Barat","city":"Garut","district":"Pasirwangi","urban":"Padasuka","postal_code":44161},{"province":"Jawa Barat","city":"Garut","district":"Pasirwangi","urban":"Padamulya","postal_code":44161},{"province":"Jawa Barat","city":"Garut","district":"Pasirwangi","urban":"Padamukti","postal_code":44161},{"province":"Jawa Barat","city":"Garut","district":"Pasirwangi","urban":"Padaasih","postal_code":44161},{"province":"Jawa Barat","city":"Garut","district":"Pasirwangi","urban":"Padaawas","postal_code":44161},{"province":"Jawa Barat","city":"Garut","district":"Pasirwangi","urban":"Karyamekar","postal_code":44161},{"province":"Jawa Barat","city":"Garut","district":"Samarang","urban":"Cisarua","postal_code":44161},{"province":"Jawa Barat","city":"Garut","district":"Samarang","urban":"Cintarayat","postal_code":44161},{"province":"Jawa Barat","city":"Garut","district":"Samarang","urban":"Cintarasa","postal_code":44161},{"province":"Jawa Barat","city":"Garut","district":"Samarang","urban":"Cintaasih","postal_code":44161},{"province":"Jawa Barat","city":"Garut","district":"Samarang","urban":"Cintakarya","postal_code":44161},{"province":"Jawa Barat","city":"Garut","district":"Pasirwangi","urban":"Barusari","postal_code":44161}]