[{"province":"Jawa Barat","city":"Garut","district":"Bungbulang","urban":"Tegalega","postal_code":44165},{"province":"Jawa Barat","city":"Garut","district":"Bungbulang","urban":"Wangunjaya","postal_code":44165},{"province":"Jawa Barat","city":"Garut","district":"Mekarmukti","urban":"Mekarmukti","postal_code":44165},{"province":"Jawa Barat","city":"Garut","district":"Mekarmukti","urban":"Mekarsari","postal_code":44165},{"province":"Jawa Barat","city":"Garut","district":"Bungbulang","urban":"Sinarjaya","postal_code":44165},{"province":"Jawa Barat","city":"Garut","district":"Bungbulang","urban":"Mekarjaya","postal_code":44165},{"province":"Jawa Barat","city":"Garut","district":"Bungbulang","urban":"Margalaksana","postal_code":44165},{"province":"Jawa Barat","city":"Garut","district":"Bungbulang","urban":"Mekarbakti","postal_code":44165},{"province":"Jawa Barat","city":"Garut","district":"Mekarmukti","urban":"Jagabaya","postal_code":44165},{"province":"Jawa Barat","city":"Garut","district":"Mekarmukti","urban":"Karangwangi","postal_code":44165},{"province":"Jawa Barat","city":"Garut","district":"Bungbulang","urban":"Hegarmanah","postal_code":44165},{"province":"Jawa Barat","city":"Garut","district":"Bungbulang","urban":"Gunung Jampang","postal_code":44165},{"province":"Jawa Barat","city":"Garut","district":"Bungbulang","urban":"Hanjuang","postal_code":44165},{"province":"Jawa Barat","city":"Garut","district":"Bungbulang","urban":"Gunamekar","postal_code":44165},{"province":"Jawa Barat","city":"Garut","district":"Mekarmukti","urban":"Cijayana","postal_code":44165},{"province":"Jawa Barat","city":"Garut","district":"Bungbulang","urban":"Cihikeu","postal_code":44165},{"province":"Jawa Barat","city":"Garut","district":"Bungbulang","urban":"Bungbulang","postal_code":44165},{"province":"Jawa Barat","city":"Garut","district":"Bungbulang","urban":"Bojong","postal_code":44165}]