[{"province":"Jawa Barat","city":"Garut","district":"Pakenjeng","urban":"Wangunjaya","postal_code":44164},{"province":"Jawa Barat","city":"Garut","district":"Pakenjeng","urban":"Tanjungmulya","postal_code":44164},{"province":"Jawa Barat","city":"Garut","district":"Pakenjeng","urban":"Tegalgede","postal_code":44164},{"province":"Jawa Barat","city":"Garut","district":"Pakenjeng","urban":"Sukamulya","postal_code":44164},{"province":"Jawa Barat","city":"Garut","district":"Pakenjeng","urban":"Talagawangi","postal_code":44164},{"province":"Jawa Barat","city":"Garut","district":"Pakenjeng","urban":"Tanjungjaya","postal_code":44164},{"province":"Jawa Barat","city":"Garut","district":"Pakenjeng","urban":"Panyindangan","postal_code":44164},{"province":"Jawa Barat","city":"Garut","district":"Pakenjeng","urban":"Pasirlangu","postal_code":44164},{"province":"Jawa Barat","city":"Garut","district":"Pamulihan","urban":"Pakenjeng","postal_code":44164},{"province":"Jawa Barat","city":"Garut","district":"Pakenjeng","urban":"Neglasari","postal_code":44164},{"province":"Jawa Barat","city":"Garut","district":"Pakenjeng","urban":"Jayamekar","postal_code":44164},{"province":"Jawa Barat","city":"Garut","district":"Pakenjeng","urban":"Karangsari","postal_code":44164},{"province":"Jawa Barat","city":"Garut","district":"Pakenjeng","urban":"Depok","postal_code":44164},{"province":"Jawa Barat","city":"Garut","district":"Pakenjeng","urban":"Jatiwangi","postal_code":44164}]