[{"province":"Jawa Barat","city":"Garut","district":"Cisurupan","urban":"Tambakbaya","postal_code":44163},{"province":"Jawa Barat","city":"Garut","district":"Cisurupan","urban":"Sukatani","postal_code":44163},{"province":"Jawa Barat","city":"Garut","district":"Cisurupan","urban":"Sukawargi","postal_code":44163},{"province":"Jawa Barat","city":"Garut","district":"Sukaresmi","urban":"Sukamulya","postal_code":44163},{"province":"Jawa Barat","city":"Garut","district":"Sukaresmi","urban":"Sukaresmi","postal_code":44163},{"province":"Jawa Barat","city":"Garut","district":"Sukaresmi","urban":"Sukajaya","postal_code":44163},{"province":"Jawa Barat","city":"Garut","district":"Sukaresmi","urban":"Sukalilah","postal_code":44163},{"province":"Jawa Barat","city":"Garut","district":"Cisurupan","urban":"Situsari","postal_code":44163},{"province":"Jawa Barat","city":"Garut","district":"Cisurupan","urban":"Sirnagalih","postal_code":44163},{"province":"Jawa Barat","city":"Garut","district":"Cisurupan","urban":"Sirnajaya","postal_code":44163},{"province":"Jawa Barat","city":"Garut","district":"Cisurupan","urban":"Pangauban","postal_code":44163},{"province":"Jawa Barat","city":"Garut","district":"Cisurupan","urban":"Simpangsari","postal_code":44163},{"province":"Jawa Barat","city":"Garut","district":"Cisurupan","urban":"Pakuwon","postal_code":44163},{"province":"Jawa Barat","city":"Garut","district":"Cisurupan","urban":"Pamulihan","postal_code":44163},{"province":"Jawa Barat","city":"Garut","district":"Sukaresmi","urban":"Mekarjaya","postal_code":44163},{"province":"Jawa Barat","city":"Garut","district":"Sukaresmi","urban":"Padamukti","postal_code":44163},{"province":"Jawa Barat","city":"Garut","district":"Cisurupan","urban":"Cisurupan","postal_code":44163},{"province":"Jawa Barat","city":"Garut","district":"Cisurupan","urban":"Karamatwangi","postal_code":44163},{"province":"Jawa Barat","city":"Garut","district":"Cisurupan","urban":"Cipaganti","postal_code":44163},{"province":"Jawa Barat","city":"Garut","district":"Cisurupan","urban":"Cisero","postal_code":44163},{"province":"Jawa Barat","city":"Garut","district":"Sukaresmi","urban":"Cintadamai","postal_code":44163},{"province":"Jawa Barat","city":"Garut","district":"Cisurupan","urban":"Cintaasih","postal_code":44163},{"province":"Jawa Barat","city":"Garut","district":"Cisurupan","urban":"Balewangi","postal_code":44163},{"province":"Jawa Barat","city":"Garut","district":"Cisurupan","urban":"Cidatar","postal_code":44163}]