[{"province":"Jawa Barat","city":"Garut","district":"Caringin","urban":"Sukarame","postal_code":44166},{"province":"Jawa Barat","city":"Garut","district":"Caringin","urban":"Purbayani","postal_code":44166},{"province":"Jawa Barat","city":"Garut","district":"Caringin","urban":"Samuderajaya","postal_code":44166},{"province":"Jawa Barat","city":"Garut","district":"Cisewu","urban":"Sukajaya","postal_code":44166},{"province":"Jawa Barat","city":"Garut","district":"Cisewu","urban":"Pamalayan","postal_code":44166},{"province":"Jawa Barat","city":"Garut","district":"Cisewu","urban":"Panggalih","postal_code":44166},{"province":"Jawa Barat","city":"Garut","district":"Cisewu","urban":"Mekarsewu","postal_code":44166},{"province":"Jawa Barat","city":"Garut","district":"Cisewu","urban":"Nyalindung","postal_code":44166},{"province":"Jawa Barat","city":"Garut","district":"Cisewu","urban":"Karangsewu","postal_code":44166},{"province":"Jawa Barat","city":"Garut","district":"Caringin","urban":"Indralayang","postal_code":44166},{"province":"Jawa Barat","city":"Garut","district":"Cisewu","urban":"Girimukti","postal_code":44166},{"province":"Jawa Barat","city":"Garut","district":"Caringin","urban":"Cimahi","postal_code":44166},{"province":"Jawa Barat","city":"Garut","district":"Cisewu","urban":"Cisewu","postal_code":44166},{"province":"Jawa Barat","city":"Garut","district":"Caringin","urban":"Caringin","postal_code":44166},{"province":"Jawa Barat","city":"Garut","district":"Cisewu","urban":"Cikarang","postal_code":44166}]