[{"province":"Jawa Barat","city":"Garut","district":"Wanaraja","urban":"Wanaraja","postal_code":44183},{"province":"Jawa Barat","city":"Garut","district":"Wanaraja","urban":"Wanasari","postal_code":44183},{"province":"Jawa Barat","city":"Garut","district":"Wanaraja","urban":"Wanajaya","postal_code":44183},{"province":"Jawa Barat","city":"Garut","district":"Wanaraja","urban":"Wanamekar","postal_code":44183},{"province":"Jawa Barat","city":"Garut","district":"Pangatikan","urban":"Sukamulya","postal_code":44183},{"province":"Jawa Barat","city":"Garut","district":"Pangatikan","urban":"Sukarasa","postal_code":44183},{"province":"Jawa Barat","city":"Garut","district":"Pangatikan","urban":"Sukahurip","postal_code":44183},{"province":"Jawa Barat","city":"Garut","district":"Wanaraja","urban":"Sindangratu","postal_code":44183},{"province":"Jawa Barat","city":"Garut","district":"Wanaraja","urban":"Sukamenak","postal_code":44183},{"province":"Jawa Barat","city":"Garut","district":"Wanaraja","urban":"Sindangmekar","postal_code":44183},{"province":"Jawa Barat","city":"Garut","district":"Wanaraja","urban":"Sindangprabu","postal_code":44183},{"province":"Jawa Barat","city":"Garut","district":"Wanaraja","urban":"Cinunuk","postal_code":44183},{"province":"Jawa Barat","city":"Garut","district":"Pangatikan","urban":"Citangtu","postal_code":44183},{"province":"Jawa Barat","city":"Garut","district":"Pangatikan","urban":"Cimaragas","postal_code":44183},{"province":"Jawa Barat","city":"Garut","district":"Pangatikan","urban":"Karangsari","postal_code":44183},{"province":"Jawa Barat","city":"Garut","district":"Pangatikan","urban":"Babakanloa","postal_code":44183},{"province":"Jawa Barat","city":"Garut","district":"Pangatikan","urban":"Cihuni","postal_code":44183}]