[{"province":"Jawa Barat","city":"Garut","district":"Cibatu","urban":"Wanakerta","postal_code":44185},{"province":"Jawa Barat","city":"Garut","district":"Kersamanah","urban":"Sukamaju","postal_code":44185},{"province":"Jawa Barat","city":"Garut","district":"Kersamanah","urban":"Sukamerang","postal_code":44185},{"province":"Jawa Barat","city":"Garut","district":"Cibatu","urban":"Sindangsuka","postal_code":44185},{"province":"Jawa Barat","city":"Garut","district":"Cibatu","urban":"Sukalilah","postal_code":44185},{"province":"Jawa Barat","city":"Garut","district":"Cibatu","urban":"Padasuka","postal_code":44185},{"province":"Jawa Barat","city":"Garut","district":"Kersamanah","urban":"Mekarraya","postal_code":44185},{"province":"Jawa Barat","city":"Garut","district":"Kersamanah","urban":"Nanjungjaya","postal_code":44185},{"province":"Jawa Barat","city":"Garut","district":"Cibatu","urban":"Mekarsari","postal_code":44185},{"province":"Jawa Barat","city":"Garut","district":"Kersamanah","urban":"Kersamanah","postal_code":44185},{"province":"Jawa Barat","city":"Garut","district":"Cibatu","urban":"Kertajaya","postal_code":44185},{"province":"Jawa Barat","city":"Garut","district":"Cibatu","urban":"Keresek","postal_code":44185},{"province":"Jawa Barat","city":"Garut","district":"Cibatu","urban":"Karyamukti","postal_code":44185},{"province":"Jawa Barat","city":"Garut","district":"Kersamanah","urban":"Girijaya","postal_code":44185},{"province":"Jawa Barat","city":"Garut","district":"Cibatu","urban":"Girimukti","postal_code":44185},{"province":"Jawa Barat","city":"Garut","district":"Cibatu","urban":"Cibunar","postal_code":44185},{"province":"Jawa Barat","city":"Garut","district":"Cibatu","urban":"Cibatu","postal_code":44185}]