[{"province":"Jawa Barat","city":"Garut","district":"Karangpawitan","urban":"Sucikaler","postal_code":44182},{"province":"Jawa Barat","city":"Garut","district":"Karangpawitan","urban":"Tanjungsari","postal_code":44182},{"province":"Jawa Barat","city":"Garut","district":"Karangpawitan","urban":"Situsari","postal_code":44182},{"province":"Jawa Barat","city":"Garut","district":"Karangpawitan","urban":"Suci","postal_code":44182},{"province":"Jawa Barat","city":"Garut","district":"Karangpawitan","urban":"Situjaya","postal_code":44182},{"province":"Jawa Barat","city":"Garut","district":"Karangpawitan","urban":"Situsaeur","postal_code":44182},{"province":"Jawa Barat","city":"Garut","district":"Karangpawitan","urban":"Situgede","postal_code":44182},{"province":"Jawa Barat","city":"Garut","district":"Karangpawitan","urban":"Sindanglaya","postal_code":44182},{"province":"Jawa Barat","city":"Garut","district":"Karangpawitan","urban":"Sindangpalay","postal_code":44182},{"province":"Jawa Barat","city":"Garut","district":"Karangpawitan","urban":"Mekarsari","postal_code":44182},{"province":"Jawa Barat","city":"Garut","district":"Karangpawitan","urban":"Sindanggalih","postal_code":44182},{"province":"Jawa Barat","city":"Garut","district":"Karangpawitan","urban":"Lebakjaya","postal_code":44182},{"province":"Jawa Barat","city":"Garut","district":"Karangpawitan","urban":"Lengkongjaya","postal_code":44182},{"province":"Jawa Barat","city":"Garut","district":"Karangpawitan","urban":"Karangsari","postal_code":44182},{"province":"Jawa Barat","city":"Garut","district":"Karangpawitan","urban":"Lebakagung","postal_code":44182},{"province":"Jawa Barat","city":"Garut","district":"Karangpawitan","urban":"Karangmulya","postal_code":44182},{"province":"Jawa Barat","city":"Garut","district":"Karangpawitan","urban":"Karangpawitan","postal_code":44182},{"province":"Jawa Barat","city":"Garut","district":"Karangpawitan","urban":"Godog","postal_code":44182},{"province":"Jawa Barat","city":"Garut","district":"Karangpawitan","urban":"Jatisari","postal_code":44182},{"province":"Jawa Barat","city":"Garut","district":"Karangpawitan","urban":"Cimurah","postal_code":44182}]