[{"province":"Jawa Barat","city":"Garut","district":"Cilawu","urban":"Sukamurni","postal_code":44181},{"province":"Jawa Barat","city":"Garut","district":"Cilawu","urban":"Sukatani","postal_code":44181},{"province":"Jawa Barat","city":"Garut","district":"Cilawu","urban":"Sukamaju","postal_code":44181},{"province":"Jawa Barat","city":"Garut","district":"Cilawu","urban":"Sukamukti","postal_code":44181},{"province":"Jawa Barat","city":"Garut","district":"Cilawu","urban":"Ngamplangsari","postal_code":44181},{"province":"Jawa Barat","city":"Garut","district":"Cilawu","urban":"Pasanggrahan","postal_code":44181},{"province":"Jawa Barat","city":"Garut","district":"Cilawu","urban":"Sukahati","postal_code":44181},{"province":"Jawa Barat","city":"Garut","district":"Cilawu","urban":"Ngamplang","postal_code":44181},{"province":"Jawa Barat","city":"Garut","district":"Cilawu","urban":"Mekarmukti","postal_code":44181},{"province":"Jawa Barat","city":"Garut","district":"Cilawu","urban":"Mekarsari","postal_code":44181},{"province":"Jawa Barat","city":"Garut","district":"Cilawu","urban":"Margalaksana","postal_code":44181},{"province":"Jawa Barat","city":"Garut","district":"Cilawu","urban":"Karyamekar","postal_code":44181},{"province":"Jawa Barat","city":"Garut","district":"Cilawu","urban":"Mangkurayat","postal_code":44181},{"province":"Jawa Barat","city":"Garut","district":"Cilawu","urban":"Dawungsari","postal_code":44181},{"province":"Jawa Barat","city":"Garut","district":"Cilawu","urban":"Dayeuhmanggung","postal_code":44181},{"province":"Jawa Barat","city":"Garut","district":"Cilawu","urban":"Desakolot","postal_code":44181},{"province":"Jawa Barat","city":"Garut","district":"Cilawu","urban":"Cilawu","postal_code":44181},{"province":"Jawa Barat","city":"Garut","district":"Cilawu","urban":"Dangiang","postal_code":44181}]