[{"province":"Jawa Barat","city":"Garut","district":"Sukawening","urban":"Sukawening","postal_code":44184},{"province":"Jawa Barat","city":"Garut","district":"Sukawening","urban":"Sukamukti","postal_code":44184},{"province":"Jawa Barat","city":"Garut","district":"Sukawening","urban":"Sukasono","postal_code":44184},{"province":"Jawa Barat","city":"Garut","district":"Sukawening","urban":"Sukahaji","postal_code":44184},{"province":"Jawa Barat","city":"Garut","district":"Sukawening","urban":"Sukaluyu","postal_code":44184},{"province":"Jawa Barat","city":"Garut","district":"Sukawening","urban":"Sudalarang","postal_code":44184},{"province":"Jawa Barat","city":"Garut","district":"Karangtengah","urban":"Sindanggalih","postal_code":44184},{"province":"Jawa Barat","city":"Garut","district":"Sukawening","urban":"Mekarwangi","postal_code":44184},{"province":"Jawa Barat","city":"Garut","district":"Sukawening","urban":"Pasanggrahan","postal_code":44184},{"province":"Jawa Barat","city":"Garut","district":"Sukawening","urban":"Maripari","postal_code":44184},{"province":"Jawa Barat","city":"Garut","district":"Sukawening","urban":"Mekarhurip","postal_code":44184},{"province":"Jawa Barat","city":"Garut","district":"Sukawening","urban":"Mekarluyu","postal_code":44184},{"province":"Jawa Barat","city":"Garut","district":"Karangtengah","urban":"Cinta","postal_code":44184},{"province":"Jawa Barat","city":"Garut","district":"Karangtengah","urban":"Cintamanik","postal_code":44184},{"province":"Jawa Barat","city":"Garut","district":"Karangtengah","urban":"Caringin","postal_code":44184}]