[{"province":"Jawa Barat","city":"Cirebon","district":"Depok","urban":"Waruroyom","postal_code":45155},{"province":"Jawa Barat","city":"Cirebon","district":"Depok","urban":"Warujaya","postal_code":45155},{"province":"Jawa Barat","city":"Cirebon","district":"Depok","urban":"Warukawung","postal_code":45155},{"province":"Jawa Barat","city":"Cirebon","district":"Plumbon","urban":"Purbawinangun","postal_code":45155},{"province":"Jawa Barat","city":"Cirebon","district":"Depok","urban":"Warugede","postal_code":45155},{"province":"Jawa Barat","city":"Cirebon","district":"Plumbon","urban":"Plumbon","postal_code":45155},{"province":"Jawa Barat","city":"Cirebon","district":"Plumbon","urban":"Pamijahan","postal_code":45155},{"province":"Jawa Barat","city":"Cirebon","district":"Plumbon","urban":"Pasanggrahan","postal_code":45155},{"province":"Jawa Barat","city":"Cirebon","district":"Depok","urban":"Kejuden","postal_code":45155},{"province":"Jawa Barat","city":"Cirebon","district":"Plumbon","urban":"Lurah","postal_code":45155},{"province":"Jawa Barat","city":"Cirebon","district":"Plumbon","urban":"Marikangen","postal_code":45155},{"province":"Jawa Barat","city":"Cirebon","district":"Depok","urban":"Keduanan","postal_code":45155},{"province":"Jawa Barat","city":"Cirebon","district":"Plumbon","urban":"Kedungsana","postal_code":45155},{"province":"Jawa Barat","city":"Cirebon","district":"Depok","urban":"Kasugengan Lor","postal_code":45155},{"province":"Jawa Barat","city":"Cirebon","district":"Plumbon","urban":"Kebarepan","postal_code":45155},{"province":"Jawa Barat","city":"Cirebon","district":"Depok","urban":"Karangwangi","postal_code":45155},{"province":"Jawa Barat","city":"Cirebon","district":"Depok","urban":"Kasugengan Kidul","postal_code":45155},{"province":"Jawa Barat","city":"Cirebon","district":"Plumbon","urban":"Karangasem","postal_code":45155},{"province":"Jawa Barat","city":"Cirebon","district":"Plumbon","urban":"Karangmulya","postal_code":45155},{"province":"Jawa Barat","city":"Cirebon","district":"Depok","urban":"Getasan","postal_code":45155},{"province":"Jawa Barat","city":"Cirebon","district":"Plumbon","urban":"Gombang","postal_code":45155},{"province":"Jawa Barat","city":"Cirebon","district":"Depok","urban":"Depok","postal_code":45155},{"province":"Jawa Barat","city":"Cirebon","district":"Plumbon","urban":"Danamulya","postal_code":45155},{"province":"Jawa Barat","city":"Cirebon","district":"Depok","urban":"Cikeduk","postal_code":45155},{"province":"Jawa Barat","city":"Cirebon","district":"Plumbon","urban":"Bode Lor","postal_code":45155},{"province":"Jawa Barat","city":"Cirebon","district":"Plumbon","urban":"Bodesari","postal_code":45155},{"province":"Jawa Barat","city":"Cirebon","district":"Plumbon","urban":"Cempaka","postal_code":45155}]