[{"province":"Jawa Barat","city":"Cirebon","district":"Klangenan","urban":"Slangit","postal_code":45156},{"province":"Jawa Barat","city":"Cirebon","district":"Jamblang","urban":"Wangunharja","postal_code":45156},{"province":"Jawa Barat","city":"Cirebon","district":"Klangenan","urban":"Serang","postal_code":45156},{"province":"Jawa Barat","city":"Cirebon","district":"Jamblang","urban":"Sitiwinangun","postal_code":45156},{"province":"Jawa Barat","city":"Cirebon","district":"Klangenan","urban":"Pekantingan","postal_code":45156},{"province":"Jawa Barat","city":"Cirebon","district":"Jamblang","urban":"Orimalang","postal_code":45156},{"province":"Jawa Barat","city":"Cirebon","district":"Klangenan","urban":"Jemaras Lor","postal_code":45156},{"province":"Jawa Barat","city":"Cirebon","district":"Klangenan","urban":"Klangenan","postal_code":45156},{"province":"Jawa Barat","city":"Cirebon","district":"Klangenan","urban":"Kreyo","postal_code":45156},{"province":"Jawa Barat","city":"Cirebon","district":"Klangenan","urban":"Jemaras Kidul","postal_code":45156},{"province":"Jawa Barat","city":"Cirebon","district":"Jamblang","urban":"Jamblang","postal_code":45156},{"province":"Jawa Barat","city":"Cirebon","district":"Jamblang","urban":"Bojong Wetan","postal_code":45156},{"province":"Jawa Barat","city":"Cirebon","district":"Klangenan","urban":"Danawinangun","postal_code":45156},{"province":"Jawa Barat","city":"Cirebon","district":"Jamblang","urban":"Bojong Lor","postal_code":45156},{"province":"Jawa Barat","city":"Cirebon","district":"Klangenan","urban":"Bangodua","postal_code":45156},{"province":"Jawa Barat","city":"Cirebon","district":"Jamblang","urban":"Bakung Lor","postal_code":45156},{"province":"Jawa Barat","city":"Cirebon","district":"Jamblang","urban":"Bakung Kidul","postal_code":45156}]