[{"province":"Jawa Barat","city":"Cirebon","district":"Suranenggala","urban":"Suranenggala Lor","postal_code":45152},{"province":"Jawa Barat","city":"Cirebon","district":"Suranenggala","urban":"Suranenggala Kulon","postal_code":45152},{"province":"Jawa Barat","city":"Cirebon","district":"Suranenggala","urban":"Suranenggala Kidul","postal_code":45152},{"province":"Jawa Barat","city":"Cirebon","district":"Suranenggala","urban":"Suranenggala","postal_code":45152},{"province":"Jawa Barat","city":"Cirebon","district":"Suranenggala","urban":"Surakarta","postal_code":45152},{"province":"Jawa Barat","city":"Cirebon","district":"Suranenggala","urban":"Purwawinangun","postal_code":45152},{"province":"Jawa Barat","city":"Cirebon","district":"Kapetakan","urban":"Pegagan Lor","postal_code":45152},{"province":"Jawa Barat","city":"Cirebon","district":"Kapetakan","urban":"Pegagan Kidul","postal_code":45152},{"province":"Jawa Barat","city":"Cirebon","district":"Suranenggala","urban":"Muara","postal_code":45152},{"province":"Jawa Barat","city":"Cirebon","district":"Kapetakan","urban":"Kertasura","postal_code":45152},{"province":"Jawa Barat","city":"Cirebon","district":"Suranenggala","urban":"Keraton","postal_code":45152},{"province":"Jawa Barat","city":"Cirebon","district":"Kapetakan","urban":"Karangkendal","postal_code":45152},{"province":"Jawa Barat","city":"Cirebon","district":"Suranenggala","urban":"Karangreja","postal_code":45152},{"province":"Jawa Barat","city":"Cirebon","district":"Kapetakan","urban":"Kapetakan","postal_code":45152},{"province":"Jawa Barat","city":"Cirebon","district":"Kapetakan","urban":"Grogol","postal_code":45152},{"province":"Jawa Barat","city":"Cirebon","district":"Kapetakan","urban":"Dukuh","postal_code":45152},{"province":"Jawa Barat","city":"Cirebon","district":"Kapetakan","urban":"Bungko Lor","postal_code":45152},{"province":"Jawa Barat","city":"Cirebon","district":"Kapetakan","urban":"Bungko","postal_code":45152}]