[{"province":"Jawa Barat","city":"Cirebon","district":"Kedawung","urban":"TUK","postal_code":45153},{"province":"Jawa Barat","city":"Cirebon","district":"Kedawung","urban":"Sutawinangun","postal_code":45153},{"province":"Jawa Barat","city":"Cirebon","district":"Kedawung","urban":"Pilangsari","postal_code":45153},{"province":"Jawa Barat","city":"Cirebon","district":"Tengah Tani","urban":"Palir","postal_code":45153},{"province":"Jawa Barat","city":"Cirebon","district":"Kedawung","urban":"Kertawinangun","postal_code":45153},{"province":"Jawa Barat","city":"Cirebon","district":"Tengah Tani","urban":"Kemlakagede","postal_code":45153},{"province":"Jawa Barat","city":"Cirebon","district":"Kedawung","urban":"Kedungjaya","postal_code":45153},{"province":"Jawa Barat","city":"Cirebon","district":"Kedawung","urban":"Kedungdawa","postal_code":45153},{"province":"Jawa Barat","city":"Cirebon","district":"Kedawung","urban":"Kedawung","postal_code":45153},{"province":"Jawa Barat","city":"Cirebon","district":"Tengah Tani","urban":"Kalitengah","postal_code":45153},{"province":"Jawa Barat","city":"Cirebon","district":"Kedawung","urban":"Kalikoa","postal_code":45153},{"province":"Jawa Barat","city":"Cirebon","district":"Tengah Tani","urban":"Kalibaru","postal_code":45153},{"province":"Jawa Barat","city":"Cirebon","district":"Tengah Tani","urban":"Gesik","postal_code":45153},{"province":"Jawa Barat","city":"Cirebon","district":"Tengah Tani","urban":"Dawuan","postal_code":45153},{"province":"Jawa Barat","city":"Cirebon","district":"Tengah Tani","urban":"Battembat","postal_code":45153},{"province":"Jawa Barat","city":"Cirebon","district":"Tengah Tani","urban":"Astapada","postal_code":45153}]