[{"province":"Jawa Barat","city":"Cirebon","district":"Plered","urban":"Wotgali","postal_code":45154},{"province":"Jawa Barat","city":"Cirebon","district":"Weru","urban":"Weru Kidul","postal_code":45154},{"province":"Jawa Barat","city":"Cirebon","district":"Weru","urban":"Weru Lor","postal_code":45154},{"province":"Jawa Barat","city":"Cirebon","district":"Plered","urban":"Trusmi Kulon","postal_code":45154},{"province":"Jawa Barat","city":"Cirebon","district":"Plered","urban":"Trusmi Wetan","postal_code":45154},{"province":"Jawa Barat","city":"Cirebon","district":"Weru","urban":"Tegalwangi","postal_code":45154},{"province":"Jawa Barat","city":"Cirebon","district":"Plered","urban":"Tegalsari","postal_code":45154},{"province":"Jawa Barat","city":"Cirebon","district":"Weru","urban":"Setu Kulon","postal_code":45154},{"province":"Jawa Barat","city":"Cirebon","district":"Plered","urban":"Sarabau","postal_code":45154},{"province":"Jawa Barat","city":"Cirebon","district":"Plered","urban":"Panembahan","postal_code":45154},{"province":"Jawa Barat","city":"Cirebon","district":"Plered","urban":"Pangkalan","postal_code":45154},{"province":"Jawa Barat","city":"Cirebon","district":"Weru","urban":"Megugede","postal_code":45154},{"province":"Jawa Barat","city":"Cirebon","district":"Weru","urban":"Megucilik","postal_code":45154},{"province":"Jawa Barat","city":"Cirebon","district":"Weru","urban":"Karangsari","postal_code":45154},{"province":"Jawa Barat","city":"Cirebon","district":"Weru","urban":"Kertasari","postal_code":45154},{"province":"Jawa Barat","city":"Cirebon","district":"Plered","urban":"Kaliwulu","postal_code":45154},{"province":"Jawa Barat","city":"Cirebon","district":"Plered","urban":"Gamel","postal_code":45154},{"province":"Jawa Barat","city":"Cirebon","district":"Plered","urban":"Cangkring","postal_code":45154}]