[{"province":"Jawa Barat","city":"Cirebon","district":"Gempol","urban":"Winong","postal_code":45161},{"province":"Jawa Barat","city":"Cirebon","district":"Palimanan","urban":"Tegalkarang","postal_code":45161},{"province":"Jawa Barat","city":"Cirebon","district":"Gempol","urban":"Walahar","postal_code":45161},{"province":"Jawa Barat","city":"Cirebon","district":"Palimanan","urban":"Pegagan","postal_code":45161},{"province":"Jawa Barat","city":"Cirebon","district":"Palimanan","urban":"Semplo","postal_code":45161},{"province":"Jawa Barat","city":"Cirebon","district":"Palimanan","urban":"Palimanan Timur","postal_code":45161},{"province":"Jawa Barat","city":"Cirebon","district":"Palimanan","urban":"Panongan","postal_code":45161},{"province":"Jawa Barat","city":"Cirebon","district":"Gempol","urban":"Palimanan Barat","postal_code":45161},{"province":"Jawa Barat","city":"Cirebon","district":"Palimanan","urban":"Kepuh","postal_code":45161},{"province":"Jawa Barat","city":"Cirebon","district":"Palimanan","urban":"Lungbenda","postal_code":45161},{"province":"Jawa Barat","city":"Cirebon","district":"Gempol","urban":"Kedungbunder","postal_code":45161},{"province":"Jawa Barat","city":"Cirebon","district":"Gempol","urban":"Kempek","postal_code":45161},{"province":"Jawa Barat","city":"Cirebon","district":"Gempol","urban":"Cupang","postal_code":45161},{"province":"Jawa Barat","city":"Cirebon","district":"Gempol","urban":"Gempol","postal_code":45161},{"province":"Jawa Barat","city":"Cirebon","district":"Palimanan","urban":"Cilukrak","postal_code":45161},{"province":"Jawa Barat","city":"Cirebon","district":"Gempol","urban":"Cikeusal","postal_code":45161},{"province":"Jawa Barat","city":"Cirebon","district":"Palimanan","urban":"Ciawi","postal_code":45161},{"province":"Jawa Barat","city":"Cirebon","district":"Palimanan","urban":"Balerante","postal_code":45161},{"province":"Jawa Barat","city":"Cirebon","district":"Palimanan","urban":"Beberan","postal_code":45161},{"province":"Jawa Barat","city":"Cirebon","district":"Palimanan","urban":"Cengkuang","postal_code":45161}]