[{"province":"Jawa Barat","city":"Cirebon","district":"Arjawinangun","urban":"Tegalgubug Lor","postal_code":45162},{"province":"Jawa Barat","city":"Cirebon","district":"Arjawinangun","urban":"Rawagatel","postal_code":45162},{"province":"Jawa Barat","city":"Cirebon","district":"Arjawinangun","urban":"Sende","postal_code":45162},{"province":"Jawa Barat","city":"Cirebon","district":"Arjawinangun","urban":"Tegalgubug","postal_code":45162},{"province":"Jawa Barat","city":"Cirebon","district":"Arjawinangun","urban":"Karangsambung","postal_code":45162},{"province":"Jawa Barat","city":"Cirebon","district":"Arjawinangun","urban":"Kebonturi","postal_code":45162},{"province":"Jawa Barat","city":"Cirebon","district":"Arjawinangun","urban":"Jungjang Wetan","postal_code":45162},{"province":"Jawa Barat","city":"Cirebon","district":"Arjawinangun","urban":"Bulak","postal_code":45162},{"province":"Jawa Barat","city":"Cirebon","district":"Arjawinangun","urban":"Geyongan","postal_code":45162},{"province":"Jawa Barat","city":"Cirebon","district":"Arjawinangun","urban":"Jungjang","postal_code":45162},{"province":"Jawa Barat","city":"Cirebon","district":"Arjawinangun","urban":"Arjawinangun","postal_code":45162}]