[{"province":"Jawa Barat","city":"Cirebon","district":"Beber","urban":"Wanayasa","postal_code":45172},{"province":"Jawa Barat","city":"Cirebon","district":"Beber","urban":"Sindanghayu","postal_code":45172},{"province":"Jawa Barat","city":"Cirebon","district":"Greged (Greget)","urban":"Sindangkempeng","postal_code":45172},{"province":"Jawa Barat","city":"Cirebon","district":"Beber","urban":"Sindangkasih","postal_code":45172},{"province":"Jawa Barat","city":"Cirebon","district":"Greged (Greget)","urban":"Nanggela","postal_code":45172},{"province":"Jawa Barat","city":"Cirebon","district":"Beber","urban":"Patapan","postal_code":45172},{"province":"Jawa Barat","city":"Cirebon","district":"Greged (Greget)","urban":"Kamaranglebak","postal_code":45172},{"province":"Jawa Barat","city":"Cirebon","district":"Beber","urban":"Kondangsari","postal_code":45172},{"province":"Jawa Barat","city":"Cirebon","district":"Greged (Greget)","urban":"Kamarang","postal_code":45172},{"province":"Jawa Barat","city":"Cirebon","district":"Greged (Greget)","urban":"Jatipancur","postal_code":45172},{"province":"Jawa Barat","city":"Cirebon","district":"Beber","urban":"Halimpu","postal_code":45172},{"province":"Jawa Barat","city":"Cirebon","district":"Greged (Greget)","urban":"Greged (Greget)","postal_code":45172},{"province":"Jawa Barat","city":"Cirebon","district":"Greged (Greget)","urban":"Durajaya","postal_code":45172},{"province":"Jawa Barat","city":"Cirebon","district":"Beber","urban":"Cikancas","postal_code":45172},{"province":"Jawa Barat","city":"Cirebon","district":"Beber","urban":"Cipinang","postal_code":45172},{"province":"Jawa Barat","city":"Cirebon","district":"Beber","urban":"Beber","postal_code":45172},{"province":"Jawa Barat","city":"Cirebon","district":"Beber","urban":"Ciawigajah","postal_code":45172}]