[{"province":"Jawa Barat","city":"Cirebon","district":"Mundu","urban":"Suci","postal_code":45173},{"province":"Jawa Barat","city":"Cirebon","district":"Mundu","urban":"Waruduwur","postal_code":45173},{"province":"Jawa Barat","city":"Cirebon","district":"Mundu","urban":"Sinarrancang","postal_code":45173},{"province":"Jawa Barat","city":"Cirebon","district":"Mundu","urban":"Penpen","postal_code":45173},{"province":"Jawa Barat","city":"Cirebon","district":"Mundu","urban":"Setupatok","postal_code":45173},{"province":"Jawa Barat","city":"Cirebon","district":"Mundu","urban":"Mundupesisir","postal_code":45173},{"province":"Jawa Barat","city":"Cirebon","district":"Mundu","urban":"Pamengkang","postal_code":45173},{"province":"Jawa Barat","city":"Cirebon","district":"Mundu","urban":"Citemu","postal_code":45173},{"province":"Jawa Barat","city":"Cirebon","district":"Mundu","urban":"Luwung","postal_code":45173},{"province":"Jawa Barat","city":"Cirebon","district":"Mundu","urban":"Mundumesigit","postal_code":45173},{"province":"Jawa Barat","city":"Cirebon","district":"Mundu","urban":"Bandengan","postal_code":45173},{"province":"Jawa Barat","city":"Cirebon","district":"Mundu","urban":"Banjarwangunan","postal_code":45173}]