[{"province":"Jawa Barat","city":"Cirebon","district":"Talun (Cirebon Selatan)","urban":"Wanasaba Lor","postal_code":45171},{"province":"Jawa Barat","city":"Cirebon","district":"Talun (Cirebon Selatan)","urban":"Sarwadadi","postal_code":45171},{"province":"Jawa Barat","city":"Cirebon","district":"Talun (Cirebon Selatan)","urban":"Wanasaba Kidul","postal_code":45171},{"province":"Jawa Barat","city":"Cirebon","district":"Talun (Cirebon Selatan)","urban":"Kubang","postal_code":45171},{"province":"Jawa Barat","city":"Cirebon","district":"Talun (Cirebon Selatan)","urban":"Sampiran","postal_code":45171},{"province":"Jawa Barat","city":"Cirebon","district":"Talun (Cirebon Selatan)","urban":"Kepongpongan","postal_code":45171},{"province":"Jawa Barat","city":"Cirebon","district":"Talun (Cirebon Selatan)","urban":"Kerandon","postal_code":45171},{"province":"Jawa Barat","city":"Cirebon","district":"Talun (Cirebon Selatan)","urban":"Ciperna","postal_code":45171},{"province":"Jawa Barat","city":"Cirebon","district":"Talun (Cirebon Selatan)","urban":"Cirebongirang","postal_code":45171},{"province":"Jawa Barat","city":"Cirebon","district":"Talun (Cirebon Selatan)","urban":"Kecomberan","postal_code":45171},{"province":"Jawa Barat","city":"Cirebon","district":"Talun (Cirebon Selatan)","urban":"Cempaka","postal_code":45171}]