[{"province":"Jawa Barat","city":"Cirebon","district":"Lemahabang","urban":"Wangkelang","postal_code":45183},{"province":"Jawa Barat","city":"Cirebon","district":"Lemahabang","urban":"Sigong","postal_code":45183},{"province":"Jawa Barat","city":"Cirebon","district":"Lemahabang","urban":"Sindanglaut","postal_code":45183},{"province":"Jawa Barat","city":"Cirebon","district":"Lemahabang","urban":"Tuk Karangsuwung","postal_code":45183},{"province":"Jawa Barat","city":"Cirebon","district":"Lemahabang","urban":"Leuwidingding","postal_code":45183},{"province":"Jawa Barat","city":"Cirebon","district":"Lemahabang","urban":"Picungpugur","postal_code":45183},{"province":"Jawa Barat","city":"Cirebon","district":"Lemahabang","urban":"Sarajaya","postal_code":45183},{"province":"Jawa Barat","city":"Cirebon","district":"Lemahabang","urban":"Lemahabang","postal_code":45183},{"province":"Jawa Barat","city":"Cirebon","district":"Lemahabang","urban":"Lemahabang Kulon","postal_code":45183},{"province":"Jawa Barat","city":"Cirebon","district":"Lemahabang","urban":"Cipeujeuh Kulon","postal_code":45183},{"province":"Jawa Barat","city":"Cirebon","district":"Lemahabang","urban":"Cipeujeuh Wetan","postal_code":45183},{"province":"Jawa Barat","city":"Cirebon","district":"Lemahabang","urban":"Asem","postal_code":45183},{"province":"Jawa Barat","city":"Cirebon","district":"Lemahabang","urban":"Belawa","postal_code":45183}]