[{"province":"Jawa Barat","city":"Cirebon","district":"Waled","urban":"Waled Kota","postal_code":45187},{"province":"Jawa Barat","city":"Cirebon","district":"Waled","urban":"Waled Desa","postal_code":45187},{"province":"Jawa Barat","city":"Cirebon","district":"Pasaleman","urban":"Tanjung Anom","postal_code":45187},{"province":"Jawa Barat","city":"Cirebon","district":"Pasaleman","urban":"Tonjong","postal_code":45187},{"province":"Jawa Barat","city":"Cirebon","district":"Waled","urban":"Waled Asem","postal_code":45187},{"province":"Jawa Barat","city":"Cirebon","district":"Pasaleman","urban":"Pasaleman","postal_code":45187},{"province":"Jawa Barat","city":"Cirebon","district":"Waled","urban":"Mekarsari","postal_code":45187},{"province":"Jawa Barat","city":"Cirebon","district":"Waled","urban":"Gunungsari","postal_code":45187},{"province":"Jawa Barat","city":"Cirebon","district":"Waled","urban":"Karangsari","postal_code":45187},{"province":"Jawa Barat","city":"Cirebon","district":"Waled","urban":"Cisaat","postal_code":45187},{"province":"Jawa Barat","city":"Cirebon","district":"Waled","urban":"Ciuyah","postal_code":45187},{"province":"Jawa Barat","city":"Cirebon","district":"Pasaleman","urban":"Cilengkrang","postal_code":45187},{"province":"Jawa Barat","city":"Cirebon","district":"Pasaleman","urban":"Cilengkrang Girang","postal_code":45187},{"province":"Jawa Barat","city":"Cirebon","district":"Waled","urban":"Cikulak","postal_code":45187},{"province":"Jawa Barat","city":"Cirebon","district":"Waled","urban":"Cikulak Kidul","postal_code":45187},{"province":"Jawa Barat","city":"Cirebon","district":"Pasaleman","urban":"Cigobang Wangi","postal_code":45187},{"province":"Jawa Barat","city":"Cirebon","district":"Pasaleman","urban":"Cigobang","postal_code":45187},{"province":"Jawa Barat","city":"Cirebon","district":"Waled","urban":"Ambit","postal_code":45187},{"province":"Jawa Barat","city":"Cirebon","district":"Waled","urban":"Cibogo","postal_code":45187}]