[{"province":"Jawa Barat","city":"Cirebon","district":"Susukan Lebak","urban":"Wilulang","postal_code":45185},{"province":"Jawa Barat","city":"Cirebon","district":"Susukan Lebak","urban":"Susukan Agung","postal_code":45185},{"province":"Jawa Barat","city":"Cirebon","district":"Susukan Lebak","urban":"Susukan Lebak","postal_code":45185},{"province":"Jawa Barat","city":"Cirebon","district":"Susukan Lebak","urban":"Susukan Tonggoh","postal_code":45185},{"province":"Jawa Barat","city":"Cirebon","district":"Susukan Lebak","urban":"Pasawahan","postal_code":45185},{"province":"Jawa Barat","city":"Cirebon","district":"Susukan Lebak","urban":"Sampih","postal_code":45185},{"province":"Jawa Barat","city":"Cirebon","district":"Susukan Lebak","urban":"Kaligawe Wetan","postal_code":45185},{"province":"Jawa Barat","city":"Cirebon","district":"Susukan Lebak","urban":"Karangmanggu","postal_code":45185},{"province":"Jawa Barat","city":"Cirebon","district":"Susukan Lebak","urban":"Curug Wetan","postal_code":45185},{"province":"Jawa Barat","city":"Cirebon","district":"Susukan Lebak","urban":"Kaligawe","postal_code":45185},{"province":"Jawa Barat","city":"Cirebon","district":"Susukan Lebak","urban":"Ciawijapura","postal_code":45185},{"province":"Jawa Barat","city":"Cirebon","district":"Susukan Lebak","urban":"Curug","postal_code":45185},{"province":"Jawa Barat","city":"Cirebon","district":"Susukan Lebak","urban":"Ciawiasih","postal_code":45185}]