[{"province":"Jawa Barat","city":"Cirebon","district":"Karangwareng","urban":"Sumurkondang","postal_code":45186},{"province":"Jawa Barat","city":"Cirebon","district":"Karangsembung","urban":"Tambelang","postal_code":45186},{"province":"Jawa Barat","city":"Cirebon","district":"Karangwareng","urban":"Seuseupan","postal_code":45186},{"province":"Jawa Barat","city":"Cirebon","district":"Karangsembung","urban":"Kubangkarang","postal_code":45186},{"province":"Jawa Barat","city":"Cirebon","district":"Karangwareng","urban":"Kubangdeleg","postal_code":45186},{"province":"Jawa Barat","city":"Cirebon","district":"Karangwareng","urban":"Karangwangi","postal_code":45186},{"province":"Jawa Barat","city":"Cirebon","district":"Karangwareng","urban":"Karangwareng","postal_code":45186},{"province":"Jawa Barat","city":"Cirebon","district":"Karangsembung","urban":"Karangsembung","postal_code":45186},{"province":"Jawa Barat","city":"Cirebon","district":"Karangsembung","urban":"Karangsuwung","postal_code":45186},{"province":"Jawa Barat","city":"Cirebon","district":"Karangsembung","urban":"Karangtengah","postal_code":45186},{"province":"Jawa Barat","city":"Cirebon","district":"Karangsembung","urban":"Karangmalang","postal_code":45186},{"province":"Jawa Barat","city":"Cirebon","district":"Karangsembung","urban":"Karangmekar","postal_code":45186},{"province":"Jawa Barat","city":"Cirebon","district":"Karangwareng","urban":"Karangasem","postal_code":45186},{"province":"Jawa Barat","city":"Cirebon","district":"Karangwareng","urban":"Karanganyar","postal_code":45186},{"province":"Jawa Barat","city":"Cirebon","district":"Karangsembung","urban":"Kalimeang","postal_code":45186},{"province":"Jawa Barat","city":"Cirebon","district":"Karangwareng","urban":"Jatipiring","postal_code":45186},{"province":"Jawa Barat","city":"Cirebon","district":"Karangwareng","urban":"Blender","postal_code":45186}]