[{"province":"Jawa Barat","city":"Cirebon","district":"Babakan","urban":"Sumber Lor","postal_code":45191},{"province":"Jawa Barat","city":"Cirebon","district":"Babakan","urban":"Serang Wetan","postal_code":45191},{"province":"Jawa Barat","city":"Cirebon","district":"Babakan","urban":"Sumber Kidul","postal_code":45191},{"province":"Jawa Barat","city":"Cirebon","district":"Babakan","urban":"Pakusamben","postal_code":45191},{"province":"Jawa Barat","city":"Cirebon","district":"Babakan","urban":"Serang Kulon","postal_code":45191},{"province":"Jawa Barat","city":"Cirebon","district":"Gebang","urban":"Pelayangan (Playangan)","postal_code":45191},{"province":"Jawa Barat","city":"Cirebon","district":"Babakan","urban":"Kudumulya","postal_code":45191},{"province":"Jawa Barat","city":"Cirebon","district":"Gebang","urban":"Melakasari","postal_code":45191},{"province":"Jawa Barat","city":"Cirebon","district":"Babakan","urban":"Karangwangun","postal_code":45191},{"province":"Jawa Barat","city":"Cirebon","district":"Babakan","urban":"Kudukeras","postal_code":45191},{"province":"Jawa Barat","city":"Cirebon","district":"Gebang","urban":"Kalimekar","postal_code":45191},{"province":"Jawa Barat","city":"Cirebon","district":"Gebang","urban":"Kalipasung","postal_code":45191},{"province":"Jawa Barat","city":"Cirebon","district":"Gebang","urban":"Kalimaro","postal_code":45191},{"province":"Jawa Barat","city":"Cirebon","district":"Babakan","urban":"Gembongan","postal_code":45191},{"province":"Jawa Barat","city":"Cirebon","district":"Babakan","urban":"Gembonganmekar","postal_code":45191},{"province":"Jawa Barat","city":"Cirebon","district":"Gebang","urban":"Gebangmekar","postal_code":45191},{"province":"Jawa Barat","city":"Cirebon","district":"Gebang","urban":"Gebangudik","postal_code":45191},{"province":"Jawa Barat","city":"Cirebon","district":"Gebang","urban":"Gebang","postal_code":45191},{"province":"Jawa Barat","city":"Cirebon","district":"Gebang","urban":"Gebang Kulon","postal_code":45191},{"province":"Jawa Barat","city":"Cirebon","district":"Gebang","urban":"Gebangilir","postal_code":45191},{"province":"Jawa Barat","city":"Cirebon","district":"Gebang","urban":"Dompyong Wetan","postal_code":45191},{"province":"Jawa Barat","city":"Cirebon","district":"Gebang","urban":"Gagasari","postal_code":45191},{"province":"Jawa Barat","city":"Cirebon","district":"Gebang","urban":"Dompyong Kulon","postal_code":45191},{"province":"Jawa Barat","city":"Cirebon","district":"Babakan","urban":"Cangkuang","postal_code":45191},{"province":"Jawa Barat","city":"Cirebon","district":"Babakan","urban":"Babakangebang","postal_code":45191},{"province":"Jawa Barat","city":"Cirebon","district":"Babakan","urban":"Bojonggebang","postal_code":45191},{"province":"Jawa Barat","city":"Cirebon","district":"Babakan","urban":"Babakan","postal_code":45191}]