[{"province":"Jawa Barat","city":"Cirebon","district":"Losari","urban":"Panggangsari","postal_code":45192},{"province":"Jawa Barat","city":"Cirebon","district":"Losari","urban":"Tawangsari","postal_code":45192},{"province":"Jawa Barat","city":"Cirebon","district":"Losari","urban":"Mulyasari","postal_code":45192},{"province":"Jawa Barat","city":"Cirebon","district":"Losari","urban":"Losari Kidul","postal_code":45192},{"province":"Jawa Barat","city":"Cirebon","district":"Losari","urban":"Losari Lor","postal_code":45192},{"province":"Jawa Barat","city":"Cirebon","district":"Losari","urban":"Barisan","postal_code":45192},{"province":"Jawa Barat","city":"Cirebon","district":"Losari","urban":"Kalirahayu","postal_code":45192},{"province":"Jawa Barat","city":"Cirebon","district":"Losari","urban":"Kalisari","postal_code":45192},{"province":"Jawa Barat","city":"Cirebon","district":"Losari","urban":"Ambulu","postal_code":45192},{"province":"Jawa Barat","city":"Cirebon","district":"Losari","urban":"Astanalanggar","postal_code":45192}]