[{"province":"Jawa Barat","city":"Indramayu","district":"Sukra","urban":"Ujunggebang","postal_code":45257},{"province":"Jawa Barat","city":"Indramayu","district":"Sukra","urban":"Sumuradem Timur","postal_code":45257},{"province":"Jawa Barat","city":"Indramayu","district":"Sukra","urban":"Tegaltaman","postal_code":45257},{"province":"Jawa Barat","city":"Indramayu","district":"Sukra","urban":"Sumuradem","postal_code":45257},{"province":"Jawa Barat","city":"Indramayu","district":"Sukra","urban":"Sukra","postal_code":45257},{"province":"Jawa Barat","city":"Indramayu","district":"Sukra","urban":"Sukrawetan","postal_code":45257},{"province":"Jawa Barat","city":"Indramayu","district":"Patrol","urban":"Sukahaji","postal_code":45257},{"province":"Jawa Barat","city":"Indramayu","district":"Patrol","urban":"Patrol Baru","postal_code":45257},{"province":"Jawa Barat","city":"Indramayu","district":"Patrol","urban":"Patrollor","postal_code":45257},{"province":"Jawa Barat","city":"Indramayu","district":"Patrol","urban":"Patrol","postal_code":45257},{"province":"Jawa Barat","city":"Indramayu","district":"Patrol","urban":"Limpas","postal_code":45257},{"province":"Jawa Barat","city":"Indramayu","district":"Patrol","urban":"Mekarsari","postal_code":45257},{"province":"Jawa Barat","city":"Indramayu","district":"Patrol","urban":"Bugel","postal_code":45257},{"province":"Jawa Barat","city":"Indramayu","district":"Sukra","urban":"Karang Layung","postal_code":45257},{"province":"Jawa Barat","city":"Indramayu","district":"Patrol","urban":"Arjasari","postal_code":45257},{"province":"Jawa Barat","city":"Indramayu","district":"Sukra","urban":"Bogor","postal_code":45257}]