[{"province":"Jawa Barat","city":"Indramayu","district":"Losarang","urban":"Santing","postal_code":45253},{"province":"Jawa Barat","city":"Indramayu","district":"Losarang","urban":"Rajaiyang","postal_code":45253},{"province":"Jawa Barat","city":"Indramayu","district":"Losarang","urban":"Ranjeng","postal_code":45253},{"province":"Jawa Barat","city":"Indramayu","district":"Losarang","urban":"Pegagan","postal_code":45253},{"province":"Jawa Barat","city":"Indramayu","district":"Losarang","urban":"Puntang","postal_code":45253},{"province":"Jawa Barat","city":"Indramayu","district":"Losarang","urban":"Muntur","postal_code":45253},{"province":"Jawa Barat","city":"Indramayu","district":"Losarang","urban":"Pangkalan","postal_code":45253},{"province":"Jawa Barat","city":"Indramayu","district":"Losarang","urban":"Losarang","postal_code":45253},{"province":"Jawa Barat","city":"Indramayu","district":"Losarang","urban":"Jumbleng","postal_code":45253},{"province":"Jawa Barat","city":"Indramayu","district":"Losarang","urban":"Krimun","postal_code":45253},{"province":"Jawa Barat","city":"Indramayu","district":"Losarang","urban":"Jangga","postal_code":45253},{"province":"Jawa Barat","city":"Indramayu","district":"Losarang","urban":"Cemara Kulon","postal_code":45253},{"province":"Jawa Barat","city":"Indramayu","district":"Losarang","urban":"Cemara","postal_code":45253}]