[{"province":"Jawa Barat","city":"Indramayu","district":"Anjatan","urban":"Salamdarma","postal_code":45256},{"province":"Jawa Barat","city":"Indramayu","district":"Anjatan","urban":"Wanguk","postal_code":45256},{"province":"Jawa Barat","city":"Indramayu","district":"Anjatan","urban":"Lempuyang","postal_code":45256},{"province":"Jawa Barat","city":"Indramayu","district":"Anjatan","urban":"Mangunjaya","postal_code":45256},{"province":"Jawa Barat","city":"Indramayu","district":"Anjatan","urban":"Kedungwungu","postal_code":45256},{"province":"Jawa Barat","city":"Indramayu","district":"Anjatan","urban":"Kopyah","postal_code":45256},{"province":"Jawa Barat","city":"Indramayu","district":"Anjatan","urban":"Cilandak","postal_code":45256},{"province":"Jawa Barat","city":"Indramayu","district":"Anjatan","urban":"Cilandak Lor","postal_code":45256},{"province":"Jawa Barat","city":"Indramayu","district":"Anjatan","urban":"Bugis","postal_code":45256},{"province":"Jawa Barat","city":"Indramayu","district":"Anjatan","urban":"Bugistua","postal_code":45256},{"province":"Jawa Barat","city":"Indramayu","district":"Anjatan","urban":"Anjatan Baru","postal_code":45256},{"province":"Jawa Barat","city":"Indramayu","district":"Anjatan","urban":"Anjatan Utara","postal_code":45256},{"province":"Jawa Barat","city":"Indramayu","district":"Anjatan","urban":"Anjatan","postal_code":45256}]