[{"province":"Jawa Barat","city":"Indramayu","district":"Haurgeulis","urban":"Wanakaya","postal_code":45264},{"province":"Jawa Barat","city":"Indramayu","district":"Haurgeulis","urban":"Sukajati","postal_code":45264},{"province":"Jawa Barat","city":"Indramayu","district":"Haurgeulis","urban":"Sumbermulya","postal_code":45264},{"province":"Jawa Barat","city":"Indramayu","district":"Gantar","urban":"Situraja","postal_code":45264},{"province":"Jawa Barat","city":"Indramayu","district":"Haurgeulis","urban":"Sidadadi","postal_code":45264},{"province":"Jawa Barat","city":"Indramayu","district":"Gantar","urban":"Mekarjaya","postal_code":45264},{"province":"Jawa Barat","city":"Indramayu","district":"Gantar","urban":"Mekarwaru","postal_code":45264},{"province":"Jawa Barat","city":"Indramayu","district":"Gantar","urban":"Sanca","postal_code":45264},{"province":"Jawa Barat","city":"Indramayu","district":"Haurgeulis","urban":"Karangtumaritis","postal_code":45264},{"province":"Jawa Barat","city":"Indramayu","district":"Haurgeulis","urban":"Kertanegara","postal_code":45264},{"province":"Jawa Barat","city":"Indramayu","district":"Haurgeulis","urban":"Karangtumaritis","postal_code":45264},{"province":"Jawa Barat","city":"Indramayu","district":"Gantar","urban":"Gantar","postal_code":45264},{"province":"Jawa Barat","city":"Indramayu","district":"Haurgeulis","urban":"Haurgeulis","postal_code":45264},{"province":"Jawa Barat","city":"Indramayu","district":"Haurgeulis","urban":"Haurkolot","postal_code":45264},{"province":"Jawa Barat","city":"Indramayu","district":"Gantar","urban":"Baleraja","postal_code":45264},{"province":"Jawa Barat","city":"Indramayu","district":"Gantar","urban":"Bantarwaru","postal_code":45264},{"province":"Jawa Barat","city":"Indramayu","district":"Haurgeulis","urban":"Cipancuh","postal_code":45264}]