[{"province":"Jawa Barat","city":"Indramayu","district":"Bangodua","urban":"Wanasari","postal_code":45272},{"province":"Jawa Barat","city":"Indramayu","district":"Tukdana","urban":"Tukdana","postal_code":45272},{"province":"Jawa Barat","city":"Indramayu","district":"Bangodua","urban":"Tegalgirang","postal_code":45272},{"province":"Jawa Barat","city":"Indramayu","district":"Tukdana","urban":"Sukaperna","postal_code":45272},{"province":"Jawa Barat","city":"Indramayu","district":"Tukdana","urban":"Sukadana","postal_code":45272},{"province":"Jawa Barat","city":"Indramayu","district":"Tukdana","urban":"Sukamulya","postal_code":45272},{"province":"Jawa Barat","city":"Indramayu","district":"Bangodua","urban":"Rancasari","postal_code":45272},{"province":"Jawa Barat","city":"Indramayu","district":"Tukdana","urban":"Pagedangan","postal_code":45272},{"province":"Jawa Barat","city":"Indramayu","district":"Tukdana","urban":"Rancajawat","postal_code":45272},{"province":"Jawa Barat","city":"Indramayu","district":"Tukdana","urban":"Mekarsari","postal_code":45272},{"province":"Jawa Barat","city":"Indramayu","district":"Tukdana","urban":"Mekarsari","postal_code":45272},{"province":"Jawa Barat","city":"Indramayu","district":"Bangodua","urban":"Malangsari","postal_code":45272},{"province":"Jawa Barat","city":"Indramayu","district":"Tukdana","urban":"Kerticala","postal_code":45272},{"province":"Jawa Barat","city":"Indramayu","district":"Tukdana","urban":"Lajer","postal_code":45272},{"province":"Jawa Barat","city":"Indramayu","district":"Bangodua","urban":"Karanggetas","postal_code":45272},{"province":"Jawa Barat","city":"Indramayu","district":"Tukdana","urban":"Karangkerta","postal_code":45272},{"province":"Jawa Barat","city":"Indramayu","district":"Tukdana","urban":"Cangko","postal_code":45272},{"province":"Jawa Barat","city":"Indramayu","district":"Tukdana","urban":"Gadel","postal_code":45272},{"province":"Jawa Barat","city":"Indramayu","district":"Tukdana","urban":"Bodas","postal_code":45272},{"province":"Jawa Barat","city":"Indramayu","district":"Bangodua","urban":"Bangodua","postal_code":45272},{"province":"Jawa Barat","city":"Indramayu","district":"Bangodua","urban":"Beduyut","postal_code":45272}]