[{"province":"Jawa Barat","city":"Indramayu","district":"Widasari","urban":"Widasari","postal_code":45271},{"province":"Jawa Barat","city":"Indramayu","district":"Widasari","urban":"Ujungpendokjaya","postal_code":45271},{"province":"Jawa Barat","city":"Indramayu","district":"Widasari","urban":"Leuwigede","postal_code":45271},{"province":"Jawa Barat","city":"Indramayu","district":"Widasari","urban":"Ujungaris","postal_code":45271},{"province":"Jawa Barat","city":"Indramayu","district":"Widasari","urban":"Ujungjaya","postal_code":45271},{"province":"Jawa Barat","city":"Indramayu","district":"Widasari","urban":"Kalensari","postal_code":45271},{"province":"Jawa Barat","city":"Indramayu","district":"Widasari","urban":"Kasmaran","postal_code":45271},{"province":"Jawa Barat","city":"Indramayu","district":"Widasari","urban":"Kongsijaya","postal_code":45271},{"province":"Jawa Barat","city":"Indramayu","district":"Widasari","urban":"Bangkaloa Ilir","postal_code":45271},{"province":"Jawa Barat","city":"Indramayu","district":"Widasari","urban":"Bunder","postal_code":45271}]