[{"province":"Jawa Barat","city":"Indramayu","district":"Kertasemaya","urban":"Tulungagung","postal_code":45274},{"province":"Jawa Barat","city":"Indramayu","district":"Sukagumiwang","urban":"Tersana","postal_code":45274},{"province":"Jawa Barat","city":"Indramayu","district":"Kertasemaya","urban":"Tenajar Kidul","postal_code":45274},{"province":"Jawa Barat","city":"Indramayu","district":"Kertasemaya","urban":"Tenajar Lor","postal_code":45274},{"province":"Jawa Barat","city":"Indramayu","district":"Kertasemaya","urban":"Tegalwirangrong","postal_code":45274},{"province":"Jawa Barat","city":"Indramayu","district":"Kertasemaya","urban":"Tenajar","postal_code":45274},{"province":"Jawa Barat","city":"Indramayu","district":"Sukagumiwang","urban":"Sukagumiwang","postal_code":45274},{"province":"Jawa Barat","city":"Indramayu","district":"Kertasemaya","urban":"Manguntara","postal_code":45274},{"province":"Jawa Barat","city":"Indramayu","district":"Kertasemaya","urban":"Sukawera","postal_code":45274},{"province":"Jawa Barat","city":"Indramayu","district":"Kertasemaya","urban":"Laranganjambe","postal_code":45274},{"province":"Jawa Barat","city":"Indramayu","district":"Kertasemaya","urban":"Lemahayu","postal_code":45274},{"province":"Jawa Barat","city":"Indramayu","district":"Kertasemaya","urban":"Kertasemaya","postal_code":45274},{"province":"Jawa Barat","city":"Indramayu","district":"Kertasemaya","urban":"Kliwed","postal_code":45274},{"province":"Jawa Barat","city":"Indramayu","district":"Kertasemaya","urban":"Jengkok","postal_code":45274},{"province":"Jawa Barat","city":"Indramayu","district":"Sukagumiwang","urban":"Gunungsari","postal_code":45274},{"province":"Jawa Barat","city":"Indramayu","district":"Kertasemaya","urban":"Jambe","postal_code":45274},{"province":"Jawa Barat","city":"Indramayu","district":"Sukagumiwang","urban":"Cadangpinggan","postal_code":45274},{"province":"Jawa Barat","city":"Indramayu","district":"Sukagumiwang","urban":"Cibeber","postal_code":45274},{"province":"Jawa Barat","city":"Indramayu","district":"Sukagumiwang","urban":"Gedangan","postal_code":45274},{"province":"Jawa Barat","city":"Indramayu","district":"Sukagumiwang","urban":"Bondan","postal_code":45274}]