[{"province":"Jawa Barat","city":"Sumedang","district":"Sumedang Utara","urban":"Sirnamulya","postal_code":45321},{"province":"Jawa Barat","city":"Sumedang","district":"Sumedang Utara","urban":"Talun","postal_code":45321},{"province":"Jawa Barat","city":"Sumedang","district":"Sumedang Utara","urban":"Padasuka","postal_code":45321},{"province":"Jawa Barat","city":"Sumedang","district":"Sumedang Utara","urban":"Rancamulya","postal_code":45321},{"province":"Jawa Barat","city":"Sumedang","district":"Sumedang Utara","urban":"Mulyasari","postal_code":45321},{"province":"Jawa Barat","city":"Sumedang","district":"Sumedang Utara","urban":"Margamukti","postal_code":45321},{"province":"Jawa Barat","city":"Sumedang","district":"Sumedang Utara","urban":"Mekarjaya","postal_code":45321},{"province":"Jawa Barat","city":"Sumedang","district":"Sumedang Utara","urban":"Jatimulya","postal_code":45321},{"province":"Jawa Barat","city":"Sumedang","district":"Sumedang Utara","urban":"Kebonjati","postal_code":45321},{"province":"Jawa Barat","city":"Sumedang","district":"Sumedang Utara","urban":"Girimukti","postal_code":45321},{"province":"Jawa Barat","city":"Sumedang","district":"Sumedang Utara","urban":"Jatihurip","postal_code":45321}]