[{"province":"Jawa Barat","city":"Sumedang","district":"Tanjungmedar","urban":"Wargaluyu","postal_code":45354},{"province":"Jawa Barat","city":"Sumedang","district":"Tanjungmedar","urban":"Tanjungwangi","postal_code":45354},{"province":"Jawa Barat","city":"Sumedang","district":"Tanjungkerta","urban":"Tanjungmulya","postal_code":45354},{"province":"Jawa Barat","city":"Sumedang","district":"Tanjungmedar","urban":"Tanjungmedar","postal_code":45354},{"province":"Jawa Barat","city":"Sumedang","district":"Tanjungkerta","urban":"Tanjungmekar","postal_code":45354},{"province":"Jawa Barat","city":"Sumedang","district":"Tanjungmedar","urban":"Sukamukti","postal_code":45354},{"province":"Jawa Barat","city":"Sumedang","district":"Tanjungmedar","urban":"Sukatani","postal_code":45354},{"province":"Jawa Barat","city":"Sumedang","district":"Tanjungkerta","urban":"Sukamantri","postal_code":45354},{"province":"Jawa Barat","city":"Sumedang","district":"Tanjungkerta","urban":"Mulyamekar","postal_code":45354},{"province":"Jawa Barat","city":"Sumedang","district":"Tanjungmedar","urban":"Kertamukti","postal_code":45354},{"province":"Jawa Barat","city":"Sumedang","district":"Tanjungkerta","urban":"Kertaharja","postal_code":45354},{"province":"Jawa Barat","city":"Sumedang","district":"Tanjungkerta","urban":"Kertamekar","postal_code":45354},{"province":"Jawa Barat","city":"Sumedang","district":"Tanjungmedar","urban":"Jingkang","postal_code":45354},{"province":"Jawa Barat","city":"Sumedang","district":"Tanjungmedar","urban":"Kamal","postal_code":45354},{"province":"Jawa Barat","city":"Sumedang","district":"Tanjungkerta","urban":"Cipanas","postal_code":45354},{"province":"Jawa Barat","city":"Sumedang","district":"Tanjungkerta","urban":"Gunturmekar","postal_code":45354},{"province":"Jawa Barat","city":"Sumedang","district":"Tanjungkerta","urban":"Cigentur","postal_code":45354},{"province":"Jawa Barat","city":"Sumedang","district":"Tanjungmedar","urban":"Cikaramas","postal_code":45354},{"province":"Jawa Barat","city":"Sumedang","district":"Tanjungkerta","urban":"Banyuasih","postal_code":45354},{"province":"Jawa Barat","city":"Sumedang","district":"Tanjungkerta","urban":"Boros","postal_code":45354}]