[{"province":"Jawa Barat","city":"Indramayu","district":"Arahan","urban":"Tawangsari","postal_code":45365},{"province":"Jawa Barat","city":"Indramayu","district":"Arahan","urban":"Sukasari","postal_code":45365},{"province":"Jawa Barat","city":"Indramayu","district":"Arahan","urban":"Sukadadi","postal_code":45365},{"province":"Jawa Barat","city":"Indramayu","district":"Arahan","urban":"Pranggong","postal_code":45365},{"province":"Jawa Barat","city":"Indramayu","district":"Arahan","urban":"Linggajati","postal_code":45365},{"province":"Jawa Barat","city":"Indramayu","district":"Arahan","urban":"Cidempet","postal_code":45365},{"province":"Jawa Barat","city":"Indramayu","district":"Arahan","urban":"Arahan Lor","postal_code":45365},{"province":"Jawa Barat","city":"Indramayu","district":"Arahan","urban":"Arahan Kidul","postal_code":45365},{"province":"Jawa Barat","city":"Sumedang","district":"Pamulihan","urban":"Sukawangi","postal_code":45365},{"province":"Jawa Barat","city":"Sumedang","district":"Pamulihan","urban":"Pamulihan","postal_code":45365},{"province":"Jawa Barat","city":"Sumedang","district":"Pamulihan","urban":"Mekarbakti","postal_code":45365},{"province":"Jawa Barat","city":"Sumedang","district":"Pamulihan","urban":"Haurngombong","postal_code":45365},{"province":"Jawa Barat","city":"Sumedang","district":"Pamulihan","urban":"Citali","postal_code":45365},{"province":"Jawa Barat","city":"Sumedang","district":"Pamulihan","urban":"Ciptasari","postal_code":45365},{"province":"Jawa Barat","city":"Sumedang","district":"Pamulihan","urban":"Cinanggerang","postal_code":45365},{"province":"Jawa Barat","city":"Sumedang","district":"Pamulihan","urban":"Cimarias","postal_code":45365},{"province":"Jawa Barat","city":"Sumedang","district":"Pamulihan","urban":"Cilembu","postal_code":45365},{"province":"Jawa Barat","city":"Sumedang","district":"Pamulihan","urban":"Cijeruk","postal_code":45365},{"province":"Jawa Barat","city":"Sumedang","district":"Pamulihan","urban":"Cigendel","postal_code":45365}]