[{"province":"Jawa Barat","city":"Sumedang","district":"Cimanggung","urban":"Tegalmanggung","postal_code":45364},{"province":"Jawa Barat","city":"Sumedang","district":"Cimanggung","urban":"Sukadana","postal_code":45364},{"province":"Jawa Barat","city":"Sumedang","district":"Cimanggung","urban":"Sindulang","postal_code":45364},{"province":"Jawa Barat","city":"Sumedang","district":"Cimanggung","urban":"Sindangpakuon","postal_code":45364},{"province":"Jawa Barat","city":"Sumedang","district":"Cimanggung","urban":"Sindanggalih","postal_code":45364},{"province":"Jawa Barat","city":"Sumedang","district":"Cimanggung","urban":"Pasirnunjang","postal_code":45364},{"province":"Jawa Barat","city":"Sumedang","district":"Cimanggung","urban":"Sawahdadap","postal_code":45364},{"province":"Jawa Barat","city":"Sumedang","district":"Cimanggung","urban":"Mangunarga","postal_code":45364},{"province":"Jawa Barat","city":"Sumedang","district":"Cimanggung","urban":"Cimanggung","postal_code":45364},{"province":"Jawa Barat","city":"Sumedang","district":"Cimanggung","urban":"Cikahuripan","postal_code":45364},{"province":"Jawa Barat","city":"Sumedang","district":"Cimanggung","urban":"Cihanjuang","postal_code":45364}]