[{"province":"Jawa Barat","city":"Sumedang","district":"Cisitu","urban":"Situmekar","postal_code":45363},{"province":"Jawa Barat","city":"Sumedang","district":"Cisitu","urban":"Sundamekar","postal_code":45363},{"province":"Jawa Barat","city":"Sumedang","district":"Jatinangor","urban":"Sayang","postal_code":45363},{"province":"Jawa Barat","city":"Sumedang","district":"Cisitu","urban":"Ranjeng","postal_code":45363},{"province":"Jawa Barat","city":"Sumedang","district":"Cisitu","urban":"Pajagan","postal_code":45363},{"province":"Jawa Barat","city":"Sumedang","district":"Jatinangor","urban":"Mekargalih","postal_code":45363},{"province":"Jawa Barat","city":"Sumedang","district":"Cisitu","urban":"Linggajaya","postal_code":45363},{"province":"Jawa Barat","city":"Sumedang","district":"Jatinangor","urban":"Jatimukti","postal_code":45363},{"province":"Jawa Barat","city":"Sumedang","district":"Jatinangor","urban":"Jatiroke","postal_code":45363},{"province":"Jawa Barat","city":"Sumedang","district":"Jatinangor","urban":"Hegarmanah","postal_code":45363},{"province":"Jawa Barat","city":"Sumedang","district":"Cisitu","urban":"Cisitu","postal_code":45363},{"province":"Jawa Barat","city":"Sumedang","district":"Jatinangor","urban":"Cisempur","postal_code":45363},{"province":"Jawa Barat","city":"Sumedang","district":"Jatinangor","urban":"Cipacing","postal_code":45363},{"province":"Jawa Barat","city":"Sumedang","district":"Jatinangor","urban":"Cinta Mulya","postal_code":45363},{"province":"Jawa Barat","city":"Sumedang","district":"Cisitu","urban":"Cinangsi","postal_code":45363},{"province":"Jawa Barat","city":"Sumedang","district":"Cisitu","urban":"Cilopang","postal_code":45363},{"province":"Jawa Barat","city":"Sumedang","district":"Cisitu","urban":"Cimarga","postal_code":45363},{"province":"Jawa Barat","city":"Sumedang","district":"Jatinangor","urban":"Cileles","postal_code":45363},{"province":"Jawa Barat","city":"Sumedang","district":"Jatinangor","urban":"Cikeruh","postal_code":45363},{"province":"Jawa Barat","city":"Sumedang","district":"Jatinangor","urban":"Cilayung","postal_code":45363},{"province":"Jawa Barat","city":"Sumedang","district":"Cisitu","urban":"Cigintung","postal_code":45363},{"province":"Jawa Barat","city":"Sumedang","district":"Jatinangor","urban":"Cibeusi","postal_code":45363}]