[{"province":"Jawa Barat","city":"Sumedang","district":"Paseh","urban":"Pasireungit","postal_code":45381},{"province":"Jawa Barat","city":"Sumedang","district":"Paseh","urban":"Paseh Kaler","postal_code":45381},{"province":"Jawa Barat","city":"Sumedang","district":"Paseh","urban":"Paseh Kidul","postal_code":45381},{"province":"Jawa Barat","city":"Sumedang","district":"Paseh","urban":"Padanaan","postal_code":45381},{"province":"Jawa Barat","city":"Sumedang","district":"Paseh","urban":"Legok Kidul","postal_code":45381},{"province":"Jawa Barat","city":"Sumedang","district":"Paseh","urban":"Citepok","postal_code":45381},{"province":"Jawa Barat","city":"Sumedang","district":"Paseh","urban":"Haurkuning","postal_code":45381},{"province":"Jawa Barat","city":"Sumedang","district":"Paseh","urban":"Legok Kaler","postal_code":45381},{"province":"Jawa Barat","city":"Sumedang","district":"Paseh","urban":"Bongkok","postal_code":45381},{"province":"Jawa Barat","city":"Sumedang","district":"Paseh","urban":"Cijambe","postal_code":45381}]