[{"province":"Jawa Barat","city":"Sumedang","district":"Conggeang","urban":"Ungkal","postal_code":45391},{"province":"Jawa Barat","city":"Sumedang","district":"Conggeang","urban":"Padaasih","postal_code":45391},{"province":"Jawa Barat","city":"Sumedang","district":"Conggeang","urban":"Karanglayung","postal_code":45391},{"province":"Jawa Barat","city":"Sumedang","district":"Conggeang","urban":"Narimbang","postal_code":45391},{"province":"Jawa Barat","city":"Sumedang","district":"Conggeang","urban":"Conggeang Wetan","postal_code":45391},{"province":"Jawa Barat","city":"Sumedang","district":"Conggeang","urban":"Jambu","postal_code":45391},{"province":"Jawa Barat","city":"Sumedang","district":"Conggeang","urban":"Cibubuan","postal_code":45391},{"province":"Jawa Barat","city":"Sumedang","district":"Conggeang","urban":"Cipamekar","postal_code":45391},{"province":"Jawa Barat","city":"Sumedang","district":"Conggeang","urban":"Conggeang Kulon","postal_code":45391},{"province":"Jawa Barat","city":"Sumedang","district":"Conggeang","urban":"Cacaban","postal_code":45391},{"province":"Jawa Barat","city":"Sumedang","district":"Conggeang","urban":"Cibeureuyeuh","postal_code":45391},{"province":"Jawa Barat","city":"Sumedang","district":"Conggeang","urban":"Babakan Asem","postal_code":45391}]