[{"province":"Jawa Barat","city":"Majalengka","district":"Dawuan","urban":"Sinarjati","postal_code":45453},{"province":"Jawa Barat","city":"Majalengka","district":"Kasokandel","urban":"Wanajaya","postal_code":45453},{"province":"Jawa Barat","city":"Majalengka","district":"Dawuan","urban":"Salawana","postal_code":45453},{"province":"Jawa Barat","city":"Majalengka","district":"Kasokandel","urban":"Ranjiwetan","postal_code":45453},{"province":"Jawa Barat","city":"Majalengka","district":"Dawuan","urban":"Pasirmalati","postal_code":45453},{"province":"Jawa Barat","city":"Majalengka","district":"Kasokandel","urban":"Ranjikulon","postal_code":45453},{"province":"Jawa Barat","city":"Majalengka","district":"Dawuan","urban":"Mandapa","postal_code":45453},{"province":"Jawa Barat","city":"Majalengka","district":"Kasokandel","urban":"Leuwikidang","postal_code":45453},{"province":"Jawa Barat","city":"Majalengka","district":"Dawuan","urban":"Karanganyar","postal_code":45453},{"province":"Jawa Barat","city":"Majalengka","district":"Kasokandel","urban":"Kasokandel","postal_code":45453},{"province":"Jawa Barat","city":"Majalengka","district":"Kasokandel","urban":"Jatimulya","postal_code":45453},{"province":"Jawa Barat","city":"Majalengka","district":"Kasokandel","urban":"Jatisawit","postal_code":45453},{"province":"Jawa Barat","city":"Majalengka","district":"Kasokandel","urban":"Gunungsari","postal_code":45453},{"province":"Jawa Barat","city":"Majalengka","district":"Dawuan","urban":"Genteng","postal_code":45453},{"province":"Jawa Barat","city":"Majalengka","district":"Kasokandel","urban":"Girimukti","postal_code":45453},{"province":"Jawa Barat","city":"Majalengka","district":"Dawuan","urban":"Gandu","postal_code":45453},{"province":"Jawa Barat","city":"Majalengka","district":"Kasokandel","urban":"Gandasari","postal_code":45453},{"province":"Jawa Barat","city":"Majalengka","district":"Dawuan","urban":"Baturuyuk","postal_code":45453},{"province":"Jawa Barat","city":"Majalengka","district":"Dawuan","urban":"Bojongcideres","postal_code":45453},{"province":"Jawa Barat","city":"Majalengka","district":"Dawuan","urban":"Dawuan","postal_code":45453},{"province":"Jawa Barat","city":"Majalengka","district":"Dawuan","urban":"Balida","postal_code":45453}]