[{"province":"Jawa Barat","city":"Majalengka","district":"Jatiwangi","urban":"Surawangi","postal_code":45454},{"province":"Jawa Barat","city":"Majalengka","district":"Jatiwangi","urban":"Sutawangi","postal_code":45454},{"province":"Jawa Barat","city":"Majalengka","district":"Jatiwangi","urban":"Sukaraja Kulon","postal_code":45454},{"province":"Jawa Barat","city":"Majalengka","district":"Jatiwangi","urban":"Sukaraja Wetan","postal_code":45454},{"province":"Jawa Barat","city":"Majalengka","district":"Jatiwangi","urban":"Mekarsari","postal_code":45454},{"province":"Jawa Barat","city":"Majalengka","district":"Jatiwangi","urban":"Pinangraja","postal_code":45454},{"province":"Jawa Barat","city":"Majalengka","district":"Jatiwangi","urban":"Leuwenggede","postal_code":45454},{"province":"Jawa Barat","city":"Majalengka","district":"Jatiwangi","urban":"Loji","postal_code":45454},{"province":"Jawa Barat","city":"Majalengka","district":"Jatiwangi","urban":"Jatisura","postal_code":45454},{"province":"Jawa Barat","city":"Majalengka","district":"Jatiwangi","urban":"Jatiwangi","postal_code":45454},{"province":"Jawa Barat","city":"Majalengka","district":"Jatiwangi","urban":"Ciborelang","postal_code":45454},{"province":"Jawa Barat","city":"Majalengka","district":"Jatiwangi","urban":"Cicadas","postal_code":45454},{"province":"Jawa Barat","city":"Majalengka","district":"Jatiwangi","urban":"Burujul Wetan","postal_code":45454},{"province":"Jawa Barat","city":"Majalengka","district":"Jatiwangi","urban":"Cibentar","postal_code":45454},{"province":"Jawa Barat","city":"Majalengka","district":"Jatiwangi","urban":"Andir","postal_code":45454},{"province":"Jawa Barat","city":"Majalengka","district":"Jatiwangi","urban":"Burujul Kulon","postal_code":45454}]