[{"province":"Jawa Barat","city":"Majalengka","district":"Banjaran","urban":"Suniabaru","postal_code":45468},{"province":"Jawa Barat","city":"Majalengka","district":"Banjaran","urban":"Sunia","postal_code":45468},{"province":"Jawa Barat","city":"Majalengka","district":"Banjaran","urban":"Sindangpala","postal_code":45468},{"province":"Jawa Barat","city":"Majalengka","district":"Banjaran","urban":"Sangiang","postal_code":45468},{"province":"Jawa Barat","city":"Majalengka","district":"Banjaran","urban":"Panyindangan","postal_code":45468},{"province":"Jawa Barat","city":"Majalengka","district":"Banjaran","urban":"Kareo","postal_code":45468},{"province":"Jawa Barat","city":"Majalengka","district":"Banjaran","urban":"Kagok","postal_code":45468},{"province":"Jawa Barat","city":"Majalengka","district":"Banjaran","urban":"Hegarmanah","postal_code":45468},{"province":"Jawa Barat","city":"Majalengka","district":"Banjaran","urban":"Girimulya","postal_code":45468},{"province":"Jawa Barat","city":"Majalengka","district":"Banjaran","urban":"Genteng","postal_code":45468},{"province":"Jawa Barat","city":"Majalengka","district":"Banjaran","urban":"Darmalarang","postal_code":45468},{"province":"Jawa Barat","city":"Majalengka","district":"Banjaran","urban":"Cimeong","postal_code":45468},{"province":"Jawa Barat","city":"Majalengka","district":"Sumberjaya","urban":"Banjaran","postal_code":45468},{"province":"Jawa Barat","city":"Majalengka","district":"Banjaran","urban":"Banjaran","postal_code":45468}]