[{"province":"Jawa Barat","city":"Majalengka","district":"Malausma","urban":"Werasari","postal_code":45464},{"province":"Jawa Barat","city":"Majalengka","district":"Bantarujeg","urban":"Sukamenak","postal_code":45464},{"province":"Jawa Barat","city":"Majalengka","district":"Bantarujeg","urban":"Wadowetan","postal_code":45464},{"province":"Jawa Barat","city":"Majalengka","district":"Bantarujeg","urban":"Sindanghurip","postal_code":45464},{"province":"Jawa Barat","city":"Majalengka","district":"Malausma","urban":"Sukadana","postal_code":45464},{"province":"Jawa Barat","city":"Majalengka","district":"Bantarujeg","urban":"Salawangi","postal_code":45464},{"province":"Jawa Barat","city":"Majalengka","district":"Bantarujeg","urban":"Silihwangi","postal_code":45464},{"province":"Jawa Barat","city":"Majalengka","district":"Malausma","urban":"Lebakwangi","postal_code":45464},{"province":"Jawa Barat","city":"Majalengka","district":"Malausma","urban":"Malausma","postal_code":45464},{"province":"Jawa Barat","city":"Majalengka","district":"Malausma","urban":"Jagamulya","postal_code":45464},{"province":"Jawa Barat","city":"Majalengka","district":"Malausma","urban":"Keramat Jaya","postal_code":45464},{"province":"Jawa Barat","city":"Majalengka","district":"Bantarujeg","urban":"Haurgeulis","postal_code":45464},{"province":"Jawa Barat","city":"Majalengka","district":"Malausma","urban":"Girimukti","postal_code":45464},{"province":"Jawa Barat","city":"Majalengka","district":"Bantarujeg","urban":"Gununglarang","postal_code":45464},{"province":"Jawa Barat","city":"Majalengka","district":"Malausma","urban":"Ciranca","postal_code":45464},{"province":"Jawa Barat","city":"Majalengka","district":"Bantarujeg","urban":"Cipeundeuy","postal_code":45464},{"province":"Jawa Barat","city":"Majalengka","district":"Malausma","urban":"Cimuncang","postal_code":45464},{"province":"Jawa Barat","city":"Majalengka","district":"Bantarujeg","urban":"Cimangguhilir","postal_code":45464},{"province":"Jawa Barat","city":"Majalengka","district":"Bantarujeg","urban":"Cinambo","postal_code":45464},{"province":"Jawa Barat","city":"Majalengka","district":"Malausma","urban":"Buninagara","postal_code":45464},{"province":"Jawa Barat","city":"Majalengka","district":"Bantarujeg","urban":"Cikidang","postal_code":45464},{"province":"Jawa Barat","city":"Majalengka","district":"Malausma","urban":"Banyusari","postal_code":45464},{"province":"Jawa Barat","city":"Majalengka","district":"Bantarujeg","urban":"Babakansari","postal_code":45464},{"province":"Jawa Barat","city":"Majalengka","district":"Bantarujeg","urban":"Bantarujeg","postal_code":45464}]