[{"province":"Jawa Barat","city":"Majalengka","district":"Sindangwangi","urban":"Padaherang","postal_code":45474},{"province":"Jawa Barat","city":"Majalengka","district":"Sindangwangi","urban":"Sindangwangi","postal_code":45474},{"province":"Jawa Barat","city":"Majalengka","district":"Sindangwangi","urban":"Ujungberung","postal_code":45474},{"province":"Jawa Barat","city":"Majalengka","district":"Sindangwangi","urban":"Leuwilaja","postal_code":45474},{"province":"Jawa Barat","city":"Majalengka","district":"Sindangwangi","urban":"Lengkongkulon","postal_code":45474},{"province":"Jawa Barat","city":"Majalengka","district":"Sindangwangi","urban":"Lengkongwetan","postal_code":45474},{"province":"Jawa Barat","city":"Majalengka","district":"Sindangwangi","urban":"Jerukleueut","postal_code":45474},{"province":"Jawa Barat","city":"Majalengka","district":"Sindangwangi","urban":"Buahkapas","postal_code":45474},{"province":"Jawa Barat","city":"Majalengka","district":"Sindangwangi","urban":"Balagedog","postal_code":45474},{"province":"Jawa Barat","city":"Majalengka","district":"Sindangwangi","urban":"Bantar Agung","postal_code":45474}]