[{"province":"Jawa Barat","city":"Kuningan","district":"Japara","urban":"Singkup","postal_code":45555},{"province":"Jawa Barat","city":"Kuningan","district":"Japara","urban":"Wano","postal_code":45555},{"province":"Jawa Barat","city":"Kuningan","district":"Japara","urban":"Kalimati","postal_code":45555},{"province":"Jawa Barat","city":"Kuningan","district":"Japara","urban":"Rajadanu","postal_code":45555},{"province":"Jawa Barat","city":"Kuningan","district":"Japara","urban":"Garatengah","postal_code":45555},{"province":"Jawa Barat","city":"Kuningan","district":"Japara","urban":"Japara","postal_code":45555},{"province":"Jawa Barat","city":"Kuningan","district":"Japara","urban":"Cikeleng","postal_code":45555},{"province":"Jawa Barat","city":"Kuningan","district":"Japara","urban":"Citapen","postal_code":45555},{"province":"Jawa Barat","city":"Kuningan","district":"Japara","urban":"Dukuhdalem","postal_code":45555},{"province":"Jawa Barat","city":"Kuningan","district":"Japara","urban":"Cengal","postal_code":45555}]