[{"province":"Jawa Barat","city":"Kuningan","district":"Mandirancan","urban":"Trijaya","postal_code":45558},{"province":"Jawa Barat","city":"Kuningan","district":"Mandirancan","urban":"Salakadomas","postal_code":45558},{"province":"Jawa Barat","city":"Kuningan","district":"Mandirancan","urban":"Seda","postal_code":45558},{"province":"Jawa Barat","city":"Kuningan","district":"Mandirancan","urban":"Sukasari","postal_code":45558},{"province":"Jawa Barat","city":"Kuningan","district":"Mandirancan","urban":"Randobawagirang","postal_code":45558},{"province":"Jawa Barat","city":"Kuningan","district":"Mandirancan","urban":"Randobawailir","postal_code":45558},{"province":"Jawa Barat","city":"Kuningan","district":"Mandirancan","urban":"Pakembangan","postal_code":45558},{"province":"Jawa Barat","city":"Kuningan","district":"Mandirancan","urban":"Mandirancan","postal_code":45558},{"province":"Jawa Barat","city":"Kuningan","district":"Mandirancan","urban":"Nanggela","postal_code":45558},{"province":"Jawa Barat","city":"Kuningan","district":"Mandirancan","urban":"Nanggerangjaya","postal_code":45558},{"province":"Jawa Barat","city":"Kuningan","district":"Mandirancan","urban":"Cirea","postal_code":45558},{"province":"Jawa Barat","city":"Kuningan","district":"Mandirancan","urban":"Kertawinangun","postal_code":45558}]