[{"province":"Jawa Barat","city":"Kuningan","district":"Pancalang","urban":"Tarikolot","postal_code":45557},{"province":"Jawa Barat","city":"Kuningan","district":"Pancalang","urban":"Tenjolayar","postal_code":45557},{"province":"Jawa Barat","city":"Kuningan","district":"Pancalang","urban":"Tajurbuntu","postal_code":45557},{"province":"Jawa Barat","city":"Kuningan","district":"Pancalang","urban":"Sumbakeling","postal_code":45557},{"province":"Jawa Barat","city":"Kuningan","district":"Pancalang","urban":"Sindangkempeng","postal_code":45557},{"province":"Jawa Barat","city":"Kuningan","district":"Pancalang","urban":"Silebu","postal_code":45557},{"province":"Jawa Barat","city":"Kuningan","district":"Pancalang","urban":"Rajawetan","postal_code":45557},{"province":"Jawa Barat","city":"Kuningan","district":"Pancalang","urban":"Sarewu","postal_code":45557},{"province":"Jawa Barat","city":"Kuningan","district":"Pancalang","urban":"Pancalang","postal_code":45557},{"province":"Jawa Barat","city":"Kuningan","district":"Pancalang","urban":"Patalagan","postal_code":45557},{"province":"Jawa Barat","city":"Kuningan","district":"Pancalang","urban":"Danalampah","postal_code":45557},{"province":"Jawa Barat","city":"Kuningan","district":"Pancalang","urban":"Kahiyangan","postal_code":45557},{"province":"Jawa Barat","city":"Kuningan","district":"Pancalang","urban":"Mekarjaya","postal_code":45557}]