[{"province":"Jawa Barat","city":"Kuningan","district":"Cimahi","urban":"Mulyajaya","postal_code":45582},{"province":"Jawa Barat","city":"Kuningan","district":"Cimahi","urban":"Sukajaya","postal_code":45582},{"province":"Jawa Barat","city":"Kuningan","district":"Cimahi","urban":"Margamukti","postal_code":45582},{"province":"Jawa Barat","city":"Kuningan","district":"Cimahi","urban":"Mekarjaya","postal_code":45582},{"province":"Jawa Barat","city":"Kuningan","district":"Cimahi","urban":"Cimulya","postal_code":45582},{"province":"Jawa Barat","city":"Kuningan","district":"Cimahi","urban":"Gunungsari","postal_code":45582},{"province":"Jawa Barat","city":"Kuningan","district":"Cimahi","urban":"Kananga","postal_code":45582},{"province":"Jawa Barat","city":"Kuningan","district":"Cimahi","urban":"Cimahi","postal_code":45582},{"province":"Jawa Barat","city":"Kuningan","district":"Cimahi","urban":"Cikeusal","postal_code":45582},{"province":"Jawa Barat","city":"Kuningan","district":"Cimahi","urban":"Cileuya","postal_code":45582},{"province":"Jawa Barat","city":"Kuningan","district":"Cimahi","urban":"Benda","postal_code":45582},{"province":"Jawa Barat","city":"Kuningan","district":"Cimahi","urban":"Cikaduwetan","postal_code":45582}]