[{"province":"Jawa Barat","city":"Kuningan","district":"Ciwaru","urban":"Sumberjaya","postal_code":45583},{"province":"Jawa Barat","city":"Kuningan","district":"Ciwaru","urban":"Sagaranten","postal_code":45583},{"province":"Jawa Barat","city":"Kuningan","district":"Ciwaru","urban":"Linggajaya","postal_code":45583},{"province":"Jawa Barat","city":"Kuningan","district":"Ciwaru","urban":"Lebakherang","postal_code":45583},{"province":"Jawa Barat","city":"Kuningan","district":"Ciwaru","urban":"Karangbaru","postal_code":45583},{"province":"Jawa Barat","city":"Kuningan","district":"Ciwaru","urban":"Garajati","postal_code":45583},{"province":"Jawa Barat","city":"Kuningan","district":"Ciwaru","urban":"Ciwaru","postal_code":45583},{"province":"Jawa Barat","city":"Kuningan","district":"Ciwaru","urban":"Citundun","postal_code":45583},{"province":"Jawa Barat","city":"Kuningan","district":"Ciwaru","urban":"Cilayung","postal_code":45583},{"province":"Jawa Barat","city":"Kuningan","district":"Ciwaru","urban":"Andamui","postal_code":45583},{"province":"Jawa Barat","city":"Kuningan","district":"Ciwaru","urban":"Baok","postal_code":45583}]