[{"province":"Jawa Barat","city":"Kuningan","district":"Luragung","urban":"Walaharcageur","postal_code":45581},{"province":"Jawa Barat","city":"Kuningan","district":"Luragung","urban":"Wilanagara","postal_code":45581},{"province":"Jawa Barat","city":"Kuningan","district":"Luragung","urban":"Sindangsari","postal_code":45581},{"province":"Jawa Barat","city":"Kuningan","district":"Luragung","urban":"Sindangsuka","postal_code":45581},{"province":"Jawa Barat","city":"Kuningan","district":"Luragung","urban":"Luragungtonggoh","postal_code":45581},{"province":"Jawa Barat","city":"Kuningan","district":"Luragung","urban":"Margasari","postal_code":45581},{"province":"Jawa Barat","city":"Kuningan","district":"Luragung","urban":"Panyosogan","postal_code":45581},{"province":"Jawa Barat","city":"Kuningan","district":"Luragung","urban":"Dukuhpicung","postal_code":45581},{"province":"Jawa Barat","city":"Kuningan","district":"Luragung","urban":"Gunungkarung","postal_code":45581},{"province":"Jawa Barat","city":"Kuningan","district":"Luragung","urban":"Luragunglandeuh","postal_code":45581},{"province":"Jawa Barat","city":"Kuningan","district":"Luragung","urban":"Cirahayu","postal_code":45581},{"province":"Jawa Barat","city":"Kuningan","district":"Luragung","urban":"Dukuhmaja","postal_code":45581},{"province":"Jawa Barat","city":"Kuningan","district":"Luragung","urban":"Cigedang","postal_code":45581},{"province":"Jawa Barat","city":"Kuningan","district":"Luragung","urban":"Cikandang","postal_code":45581}]