[{"province":"Jawa Barat","city":"Kuningan","district":"Cidahu","urban":"Nanggela","postal_code":45595},{"province":"Jawa Barat","city":"Kuningan","district":"Cidahu","urban":"Legok","postal_code":45595},{"province":"Jawa Barat","city":"Kuningan","district":"Cidahu","urban":"Kertawinangun","postal_code":45595},{"province":"Jawa Barat","city":"Kuningan","district":"Cidahu","urban":"Datar","postal_code":45595},{"province":"Jawa Barat","city":"Kuningan","district":"Cidahu","urban":"Jatimulya","postal_code":45595},{"province":"Jawa Barat","city":"Kuningan","district":"Cidahu","urban":"Cihideunggirang","postal_code":45595},{"province":"Jawa Barat","city":"Kuningan","district":"Cidahu","urban":"Cihideunghilir","postal_code":45595},{"province":"Jawa Barat","city":"Kuningan","district":"Cidahu","urban":"Cikeusik","postal_code":45595},{"province":"Jawa Barat","city":"Kuningan","district":"Cidahu","urban":"Cieurih","postal_code":45595},{"province":"Jawa Barat","city":"Kuningan","district":"Cidahu","urban":"Cibulan","postal_code":45595},{"province":"Jawa Barat","city":"Kuningan","district":"Cidahu","urban":"Cidahu","postal_code":45595},{"province":"Jawa Barat","city":"Kuningan","district":"Cidahu","urban":"Bunder","postal_code":45595}]