[{"province":"Jawa Barat","city":"Kuningan","district":"Ciawigebang","urban":"Sukaraja","postal_code":45591},{"province":"Jawa Barat","city":"Kuningan","district":"Ciawigebang","urban":"Sukadana","postal_code":45591},{"province":"Jawa Barat","city":"Kuningan","district":"Ciawigebang","urban":"Sidaraja","postal_code":45591},{"province":"Jawa Barat","city":"Kuningan","district":"Ciawigebang","urban":"Pamijahan","postal_code":45591},{"province":"Jawa Barat","city":"Kuningan","district":"Ciawigebang","urban":"Pangkalan","postal_code":45591},{"province":"Jawa Barat","city":"Kuningan","district":"Ciawigebang","urban":"Pajawanlor","postal_code":45591},{"province":"Jawa Barat","city":"Kuningan","district":"Ciawigebang","urban":"Mekarjaya","postal_code":45591},{"province":"Jawa Barat","city":"Kuningan","district":"Ciawigebang","urban":"Padarama","postal_code":45591},{"province":"Jawa Barat","city":"Kuningan","district":"Ciawigebang","urban":"Lebaksiuh","postal_code":45591},{"province":"Jawa Barat","city":"Kuningan","district":"Ciawigebang","urban":"Keramatmulya","postal_code":45591},{"province":"Jawa Barat","city":"Kuningan","district":"Ciawigebang","urban":"Karangkamulyan","postal_code":45591},{"province":"Jawa Barat","city":"Kuningan","district":"Ciawigebang","urban":"Kapandayan","postal_code":45591},{"province":"Jawa Barat","city":"Kuningan","district":"Ciawigebang","urban":"Kadurama","postal_code":45591},{"province":"Jawa Barat","city":"Kuningan","district":"Ciawigebang","urban":"Geresik","postal_code":45591},{"province":"Jawa Barat","city":"Kuningan","district":"Ciawigebang","urban":"Dukuhdalem","postal_code":45591},{"province":"Jawa Barat","city":"Kuningan","district":"Ciawigebang","urban":"Ciputat","postal_code":45591},{"province":"Jawa Barat","city":"Kuningan","district":"Ciawigebang","urban":"Cikubangmulya","postal_code":45591},{"province":"Jawa Barat","city":"Kuningan","district":"Ciawigebang","urban":"Ciomas","postal_code":45591},{"province":"Jawa Barat","city":"Kuningan","district":"Ciawigebang","urban":"Cihaur","postal_code":45591},{"province":"Jawa Barat","city":"Kuningan","district":"Ciawigebang","urban":"Cijagamulya","postal_code":45591},{"province":"Jawa Barat","city":"Kuningan","district":"Ciawigebang","urban":"Ciawilor","postal_code":45591},{"province":"Jawa Barat","city":"Kuningan","district":"Ciawigebang","urban":"Cigarukgak","postal_code":45591},{"province":"Jawa Barat","city":"Kuningan","district":"Ciawigebang","urban":"Ciawigebang","postal_code":45591}]