[{"province":"Jawa Barat","city":"Tasikmalaya","district":"Cisayong","urban":"Sukasetia","postal_code":46153},{"province":"Jawa Barat","city":"Tasikmalaya","district":"Cisayong","urban":"Sukasukur","postal_code":46153},{"province":"Jawa Barat","city":"Tasikmalaya","district":"Cisayong","urban":"Sukaraharja","postal_code":46153},{"province":"Jawa Barat","city":"Tasikmalaya","district":"Cisayong","urban":"Sukamukti","postal_code":46153},{"province":"Jawa Barat","city":"Tasikmalaya","district":"Cisayong","urban":"Santanamekar","postal_code":46153},{"province":"Jawa Barat","city":"Tasikmalaya","district":"Cisayong","urban":"Sukajadi","postal_code":46153},{"province":"Jawa Barat","city":"Tasikmalaya","district":"Cisayong","urban":"Nusawangi","postal_code":46153},{"province":"Jawa Barat","city":"Tasikmalaya","district":"Cisayong","urban":"Purwasari","postal_code":46153},{"province":"Jawa Barat","city":"Tasikmalaya","district":"Cisayong","urban":"Jatihurip","postal_code":46153},{"province":"Jawa Barat","city":"Tasikmalaya","district":"Cisayong","urban":"Mekarwangi","postal_code":46153},{"province":"Jawa Barat","city":"Tasikmalaya","district":"Cisayong","urban":"Cileuleus","postal_code":46153},{"province":"Jawa Barat","city":"Tasikmalaya","district":"Cisayong","urban":"Cisayong","postal_code":46153},{"province":"Jawa Barat","city":"Tasikmalaya","district":"Cisayong","urban":"Cikadu","postal_code":46153}]