[{"province":"Jawa Barat","city":"Tasikmalaya","district":"Bungursari","urban":"Sukarindik","postal_code":46151},{"province":"Jawa Barat","city":"Tasikmalaya","district":"Bungursari","urban":"Sukamulya","postal_code":46151},{"province":"Jawa Barat","city":"Tasikmalaya","district":"Indihiang","urban":"Sukamajukaler","postal_code":46151},{"province":"Jawa Barat","city":"Tasikmalaya","district":"Indihiang","urban":"Sukamajukidul","postal_code":46151},{"province":"Jawa Barat","city":"Tasikmalaya","district":"Bungursari","urban":"Sukalaksana","postal_code":46151},{"province":"Jawa Barat","city":"Tasikmalaya","district":"Bungursari","urban":"Sukajaya","postal_code":46151},{"province":"Jawa Barat","city":"Tasikmalaya","district":"Indihiang","urban":"Sirnagalih","postal_code":46151},{"province":"Jawa Barat","city":"Tasikmalaya","district":"Indihiang","urban":"Parakannyasag","postal_code":46151},{"province":"Jawa Barat","city":"Tasikmalaya","district":"Indihiang","urban":"Indihiang","postal_code":46151},{"province":"Jawa Barat","city":"Tasikmalaya","district":"Bungursari","urban":"Bungursari","postal_code":46151},{"province":"Jawa Barat","city":"Tasikmalaya","district":"Bungursari","urban":"Cibunigeulis","postal_code":46151},{"province":"Jawa Barat","city":"Tasikmalaya","district":"Bungursari","urban":"Bantarsari","postal_code":46151}]