[{"province":"Jawa Barat","city":"Tasikmalaya","district":"Ciawi","urban":"Pasirhuni","postal_code":46156},{"province":"Jawa Barat","city":"Tasikmalaya","district":"Ciawi","urban":"Sukamantri","postal_code":46156},{"province":"Jawa Barat","city":"Tasikmalaya","district":"Kadipaten","urban":"Pamoyanan","postal_code":46156},{"province":"Jawa Barat","city":"Tasikmalaya","district":"Ciawi","urban":"Pakemitan","postal_code":46156},{"province":"Jawa Barat","city":"Tasikmalaya","district":"Ciawi","urban":"Pakemitankidul","postal_code":46156},{"province":"Jawa Barat","city":"Tasikmalaya","district":"Ciawi","urban":"Margasari","postal_code":46156},{"province":"Jawa Barat","city":"Tasikmalaya","district":"Kadipaten","urban":"Mekarsari","postal_code":46156},{"province":"Jawa Barat","city":"Tasikmalaya","district":"Ciawi","urban":"Kertamukti","postal_code":46156},{"province":"Jawa Barat","city":"Tasikmalaya","district":"Ciawi","urban":"Kurniabakti","postal_code":46156},{"province":"Jawa Barat","city":"Tasikmalaya","district":"Ciawi","urban":"Gombong","postal_code":46156},{"province":"Jawa Barat","city":"Tasikmalaya","district":"Kadipaten","urban":"Dirgahayu","postal_code":46156},{"province":"Jawa Barat","city":"Tasikmalaya","district":"Kadipaten","urban":"Kadipaten","postal_code":46156},{"province":"Jawa Barat","city":"Tasikmalaya","district":"Kadipaten","urban":"Cibahayu","postal_code":46156},{"province":"Jawa Barat","city":"Tasikmalaya","district":"Ciawi","urban":"Ciawi","postal_code":46156},{"province":"Jawa Barat","city":"Tasikmalaya","district":"Ciawi","urban":"Citamba","postal_code":46156},{"province":"Jawa Barat","city":"Tasikmalaya","district":"Kadipaten","urban":"Buniasih","postal_code":46156},{"province":"Jawa Barat","city":"Tasikmalaya","district":"Ciawi","urban":"Bugel","postal_code":46156}]