[{"province":"Jawa Barat","city":"Tasikmalaya","district":"Cibalong","urban":"Singajaya","postal_code":46185},{"province":"Jawa Barat","city":"Tasikmalaya","district":"Jatiwaras","urban":"Sukakerta","postal_code":46185},{"province":"Jawa Barat","city":"Tasikmalaya","district":"Jatiwaras","urban":"Setiawangi","postal_code":46185},{"province":"Jawa Barat","city":"Tasikmalaya","district":"Cibalong","urban":"Setiawaras","postal_code":46185},{"province":"Jawa Barat","city":"Tasikmalaya","district":"Parungponteng","urban":"Parungponteng","postal_code":46185},{"province":"Jawa Barat","city":"Tasikmalaya","district":"Cibalong","urban":"Parung","postal_code":46185},{"province":"Jawa Barat","city":"Tasikmalaya","district":"Jatiwaras","urban":"Neglasari","postal_code":46185},{"province":"Jawa Barat","city":"Tasikmalaya","district":"Jatiwaras","urban":"Papayan","postal_code":46185},{"province":"Jawa Barat","city":"Tasikmalaya","district":"Jatiwaras","urban":"Mandalahurip","postal_code":46185},{"province":"Jawa Barat","city":"Tasikmalaya","district":"Jatiwaras","urban":"Mandalamekar","postal_code":46185},{"province":"Jawa Barat","city":"Tasikmalaya","district":"Jatiwaras","urban":"Kersagalih","postal_code":46185},{"province":"Jawa Barat","city":"Tasikmalaya","district":"Jatiwaras","urban":"Kertarahayu","postal_code":46185},{"province":"Jawa Barat","city":"Tasikmalaya","district":"Parungponteng","urban":"Karyabakti","postal_code":46185},{"province":"Jawa Barat","city":"Tasikmalaya","district":"Jatiwaras","urban":"Kaputihan","postal_code":46185},{"province":"Jawa Barat","city":"Tasikmalaya","district":"Parungponteng","urban":"Girikencana","postal_code":46185},{"province":"Jawa Barat","city":"Tasikmalaya","district":"Jatiwaras","urban":"Jatiwaras","postal_code":46185},{"province":"Jawa Barat","city":"Tasikmalaya","district":"Cibalong","urban":"Eureunpalay","postal_code":46185},{"province":"Jawa Barat","city":"Tasikmalaya","district":"Jatiwaras","urban":"Ciwarak","postal_code":46185},{"province":"Jawa Barat","city":"Tasikmalaya","district":"Cibalong","urban":"Cisempur","postal_code":46185},{"province":"Jawa Barat","city":"Tasikmalaya","district":"Parungponteng","urban":"Cigunung","postal_code":46185},{"province":"Jawa Barat","city":"Tasikmalaya","district":"Parungponteng","urban":"Cibungur","postal_code":46185},{"province":"Jawa Barat","city":"Tasikmalaya","district":"Cibalong","urban":"Cibalong","postal_code":46185},{"province":"Jawa Barat","city":"Tasikmalaya","district":"Parungponteng","urban":"Cibanteng","postal_code":46185},{"province":"Jawa Barat","city":"Tasikmalaya","district":"Parungponteng","urban":"Barumekar","postal_code":46185},{"province":"Jawa Barat","city":"Tasikmalaya","district":"Parungponteng","urban":"Burujuljaya","postal_code":46185}]