[{"province":"Jawa Barat","city":"Tasikmalaya","district":"Karang Jaya","urban":"Sirnajaya","postal_code":46198},{"province":"Jawa Barat","city":"Tasikmalaya","district":"Cineam","urban":"Rajadatu","postal_code":46198},{"province":"Jawa Barat","city":"Tasikmalaya","district":"Cineam","urban":"Pasirmukti","postal_code":46198},{"province":"Jawa Barat","city":"Tasikmalaya","district":"Cineam","urban":"Madiasari","postal_code":46198},{"province":"Jawa Barat","city":"Tasikmalaya","district":"Cineam","urban":"Nagaratengah","postal_code":46198},{"province":"Jawa Barat","city":"Tasikmalaya","district":"Karang Jaya","urban":"Karangjaya","postal_code":46198},{"province":"Jawa Barat","city":"Tasikmalaya","district":"Karang Jaya","urban":"Karanglayung","postal_code":46198},{"province":"Jawa Barat","city":"Tasikmalaya","district":"Karang Jaya","urban":"Citalahab","postal_code":46198},{"province":"Jawa Barat","city":"Tasikmalaya","district":"Cineam","urban":"Cisarua","postal_code":46198},{"province":"Jawa Barat","city":"Tasikmalaya","district":"Cineam","urban":"Cineam","postal_code":46198},{"province":"Jawa Barat","city":"Tasikmalaya","district":"Cineam","urban":"Cijulang","postal_code":46198},{"province":"Jawa Barat","city":"Tasikmalaya","district":"Cineam","urban":"Cikondang","postal_code":46198},{"province":"Jawa Barat","city":"Tasikmalaya","district":"Cineam","urban":"Ancol","postal_code":46198},{"province":"Jawa Barat","city":"Tasikmalaya","district":"Cineam","urban":"Ciampanan","postal_code":46198}]