[{"province":"Jawa Barat","city":"Tasikmalaya","district":"Cikalong","urban":"Sindangjaya","postal_code":46195},{"province":"Jawa Barat","city":"Tasikmalaya","district":"Cikalong","urban":"Singkir","postal_code":46195},{"province":"Jawa Barat","city":"Tasikmalaya","district":"Cikalong","urban":"Tonjongsari","postal_code":46195},{"province":"Jawa Barat","city":"Tasikmalaya","district":"Cikalong","urban":"Mandalajaya","postal_code":46195},{"province":"Jawa Barat","city":"Tasikmalaya","district":"Cikalong","urban":"Panyiaran","postal_code":46195},{"province":"Jawa Barat","city":"Tasikmalaya","district":"Cikalong","urban":"Kalapagenep","postal_code":46195},{"province":"Jawa Barat","city":"Tasikmalaya","district":"Cikalong","urban":"Kubangsari","postal_code":46195},{"province":"Jawa Barat","city":"Tasikmalaya","district":"Cikalong","urban":"Cikancra","postal_code":46195},{"province":"Jawa Barat","city":"Tasikmalaya","district":"Cikalong","urban":"Cimanuk","postal_code":46195},{"province":"Jawa Barat","city":"Tasikmalaya","district":"Cikalong","urban":"Cikalong","postal_code":46195},{"province":"Jawa Barat","city":"Tasikmalaya","district":"Cikalong","urban":"Cikadu","postal_code":46195},{"province":"Jawa Barat","city":"Tasikmalaya","district":"Cikalong","urban":"Cibeber","postal_code":46195},{"province":"Jawa Barat","city":"Tasikmalaya","district":"Cikalong","urban":"Cidadali","postal_code":46195}]