[{"province":"Jawa Barat","city":"Tasikmalaya","district":"Tamansari","urban":"Tamanjaya","postal_code":46196},{"province":"Jawa Barat","city":"Tasikmalaya","district":"Tamansari","urban":"Tamansari","postal_code":46196},{"province":"Jawa Barat","city":"Tasikmalaya","district":"Tamansari","urban":"Sumelap","postal_code":46196},{"province":"Jawa Barat","city":"Tasikmalaya","district":"Purbaratu","urban":"Sukanagara","postal_code":46196},{"province":"Jawa Barat","city":"Tasikmalaya","district":"Purbaratu","urban":"Sukajaya","postal_code":46196},{"province":"Jawa Barat","city":"Tasikmalaya","district":"Purbaratu","urban":"Sukamenak","postal_code":46196},{"province":"Jawa Barat","city":"Tasikmalaya","district":"Tamansari","urban":"Sukahurip","postal_code":46196},{"province":"Jawa Barat","city":"Tasikmalaya","district":"Purbaratu","urban":"Sukaasih","postal_code":46196},{"province":"Jawa Barat","city":"Tasikmalaya","district":"Tamansari","urban":"Setiawargi","postal_code":46196},{"province":"Jawa Barat","city":"Tasikmalaya","district":"Purbaratu","urban":"Singkup","postal_code":46196},{"province":"Jawa Barat","city":"Tasikmalaya","district":"Cibeureum","urban":"Setianagara","postal_code":46196},{"province":"Jawa Barat","city":"Tasikmalaya","district":"Cibeureum","urban":"Setiaratu","postal_code":46196},{"province":"Jawa Barat","city":"Tasikmalaya","district":"Tamansari","urban":"Setiamulya","postal_code":46196},{"province":"Jawa Barat","city":"Tasikmalaya","district":"Cibeureum","urban":"Setiajaya","postal_code":46196},{"province":"Jawa Barat","city":"Tasikmalaya","district":"Tamansari","urban":"Mulyasari","postal_code":46196},{"province":"Jawa Barat","city":"Tasikmalaya","district":"Purbaratu","urban":"Purbaratu","postal_code":46196},{"province":"Jawa Barat","city":"Tasikmalaya","district":"Tamansari","urban":"Mugarsari","postal_code":46196},{"province":"Jawa Barat","city":"Tasikmalaya","district":"Cibeureum","urban":"Margabakti","postal_code":46196},{"province":"Jawa Barat","city":"Tasikmalaya","district":"Cibeureum","urban":"Kersanagara","postal_code":46196},{"province":"Jawa Barat","city":"Tasikmalaya","district":"Cibeureum","urban":"Kotabaru","postal_code":46196},{"province":"Jawa Barat","city":"Tasikmalaya","district":"Cibeureum","urban":"Ciakar","postal_code":46196},{"province":"Jawa Barat","city":"Tasikmalaya","district":"Cibeureum","urban":"Awipari","postal_code":46196}]