[{"province":"Jawa Barat","city":"Ciamis","district":"Panumbangan","urban":"Sukakerta","postal_code":46263},{"province":"Jawa Barat","city":"Ciamis","district":"Panumbangan","urban":"Tanjungmulya","postal_code":46263},{"province":"Jawa Barat","city":"Ciamis","district":"Panumbangan","urban":"Sindangherang","postal_code":46263},{"province":"Jawa Barat","city":"Ciamis","district":"Panumbangan","urban":"Sindangmukti","postal_code":46263},{"province":"Jawa Barat","city":"Ciamis","district":"Panumbangan","urban":"Payungagung","postal_code":46263},{"province":"Jawa Barat","city":"Ciamis","district":"Panumbangan","urban":"Payungsari","postal_code":46263},{"province":"Jawa Barat","city":"Ciamis","district":"Panumbangan","urban":"Sindangbarang","postal_code":46263},{"province":"Jawa Barat","city":"Ciamis","district":"Panumbangan","urban":"Kertaraharja","postal_code":46263},{"province":"Jawa Barat","city":"Ciamis","district":"Panumbangan","urban":"Medanglayang","postal_code":46263},{"province":"Jawa Barat","city":"Ciamis","district":"Panumbangan","urban":"Panumbangan","postal_code":46263},{"province":"Jawa Barat","city":"Ciamis","district":"Panumbangan","urban":"Jayagiri","postal_code":46263},{"province":"Jawa Barat","city":"Ciamis","district":"Panumbangan","urban":"Jayagiri","postal_code":46263},{"province":"Jawa Barat","city":"Ciamis","district":"Panumbangan","urban":"Banjarangsana","postal_code":46263},{"province":"Jawa Barat","city":"Ciamis","district":"Panumbangan","urban":"Buanamekar","postal_code":46263}]