[{"province":"Jawa Barat","city":"Ciamis","district":"Pamarican","urban":"Sukajaya","postal_code":46382},{"province":"Jawa Barat","city":"Ciamis","district":"Pamarican","urban":"Sukamukti","postal_code":46382},{"province":"Jawa Barat","city":"Ciamis","district":"Pamarican","urban":"Sidaharja","postal_code":46382},{"province":"Jawa Barat","city":"Ciamis","district":"Pamarican","urban":"Sukahurip","postal_code":46382},{"province":"Jawa Barat","city":"Ciamis","district":"Pamarican","urban":"Sukajadi","postal_code":46382},{"province":"Jawa Barat","city":"Ciamis","district":"Pamarican","urban":"Pamarican","postal_code":46382},{"province":"Jawa Barat","city":"Ciamis","district":"Pamarican","urban":"Pasirnagara","postal_code":46382},{"province":"Jawa Barat","city":"Ciamis","district":"Pamarican","urban":"Margajaya","postal_code":46382},{"province":"Jawa Barat","city":"Ciamis","district":"Pamarican","urban":"Mekarmulya","postal_code":46382},{"province":"Jawa Barat","city":"Ciamis","district":"Pamarican","urban":"Neglasari","postal_code":46382},{"province":"Jawa Barat","city":"Ciamis","district":"Pamarican","urban":"Bangunsari","postal_code":46382},{"province":"Jawa Barat","city":"Ciamis","district":"Pamarican","urban":"Bantarsari","postal_code":46382}]