[{"province":"Jawa Barat","city":"Ciamis","district":"Cisaga","urban":"Sukahurip","postal_code":46386},{"province":"Jawa Barat","city":"Ciamis","district":"Cisaga","urban":"Tanjungjaya","postal_code":46386},{"province":"Jawa Barat","city":"Ciamis","district":"Cisaga","urban":"Wangunjaya","postal_code":46386},{"province":"Jawa Barat","city":"Ciamis","district":"Cisaga","urban":"Mekarmukti","postal_code":46386},{"province":"Jawa Barat","city":"Ciamis","district":"Cisaga","urban":"Sidamulya","postal_code":46386},{"province":"Jawa Barat","city":"Ciamis","district":"Cisaga","urban":"Karyamulya","postal_code":46386},{"province":"Jawa Barat","city":"Ciamis","district":"Cisaga","urban":"Kepel","postal_code":46386},{"province":"Jawa Barat","city":"Ciamis","district":"Cisaga","urban":"Danasari","postal_code":46386},{"province":"Jawa Barat","city":"Ciamis","district":"Cisaga","urban":"Girimukti","postal_code":46386},{"province":"Jawa Barat","city":"Ciamis","district":"Cisaga","urban":"Cisaga","postal_code":46386},{"province":"Jawa Barat","city":"Ciamis","district":"Cisaga","urban":"Bangunharja","postal_code":46386}]