[{"province":"Jawa Barat","city":"Pangandaran","district":"Padaherang","urban":"Sindangwangi","postal_code":46384},{"province":"Jawa Barat","city":"Pangandaran","district":"Padaherang","urban":"Panyutran","postal_code":46384},{"province":"Jawa Barat","city":"Pangandaran","district":"Padaherang","urban":"Pasirgeulis","postal_code":46384},{"province":"Jawa Barat","city":"Pangandaran","district":"Padaherang","urban":"Maruyung Sari","postal_code":46384},{"province":"Jawa Barat","city":"Pangandaran","district":"Padaherang","urban":"Padaherang","postal_code":46384},{"province":"Jawa Barat","city":"Pangandaran","district":"Padaherang","urban":"Paledah","postal_code":46384},{"province":"Jawa Barat","city":"Pangandaran","district":"Padaherang","urban":"Kedungwuluh","postal_code":46384},{"province":"Jawa Barat","city":"Pangandaran","district":"Padaherang","urban":"Karangsari","postal_code":46384},{"province":"Jawa Barat","city":"Pangandaran","district":"Padaherang","urban":"Cibogo","postal_code":46384},{"province":"Jawa Barat","city":"Pangandaran","district":"Padaherang","urban":"Karangmulya","postal_code":46384},{"province":"Jawa Barat","city":"Pangandaran","district":"Padaherang","urban":"Karangpawitan","postal_code":46384},{"province":"Jawa Barat","city":"Pangandaran","district":"Padaherang","urban":"Bojongsari","postal_code":46384}]