[{"province":"Jawa Barat","city":"Pangandaran","district":"Cimerak","urban":"Sukajaya","postal_code":46395},{"province":"Jawa Barat","city":"Pangandaran","district":"Cimerak","urban":"Sindangsari","postal_code":46395},{"province":"Jawa Barat","city":"Pangandaran","district":"Cimerak","urban":"Mekarsari","postal_code":46395},{"province":"Jawa Barat","city":"Pangandaran","district":"Cimerak","urban":"Limusgede","postal_code":46395},{"province":"Jawa Barat","city":"Pangandaran","district":"Cimerak","urban":"Masawah","postal_code":46395},{"province":"Jawa Barat","city":"Pangandaran","district":"Cimerak","urban":"Kertaharja","postal_code":46395},{"province":"Jawa Barat","city":"Pangandaran","district":"Cimerak","urban":"Kertamukti","postal_code":46395},{"province":"Jawa Barat","city":"Pangandaran","district":"Cimerak","urban":"Legokjawa","postal_code":46395},{"province":"Jawa Barat","city":"Pangandaran","district":"Cimerak","urban":"Ciparanti","postal_code":46395},{"province":"Jawa Barat","city":"Pangandaran","district":"Cimerak","urban":"Batumalang","postal_code":46395},{"province":"Jawa Barat","city":"Pangandaran","district":"Cimerak","urban":"Cimerak","postal_code":46395}]