[{"province":"Jawa Barat","city":"Tasikmalaya","district":"Sukaresik","urban":"Tanjungsari","postal_code":46418},{"province":"Jawa Barat","city":"Tasikmalaya","district":"Gunung Tanjung","urban":"Tanjungsari","postal_code":46418},{"province":"Jawa Barat","city":"Tasikmalaya","district":"Sukaresik","urban":"Sukaresik","postal_code":46418},{"province":"Jawa Barat","city":"Tasikmalaya","district":"Sukaresik","urban":"Sukaratu","postal_code":46418},{"province":"Jawa Barat","city":"Tasikmalaya","district":"Sukaresik","urban":"Sukapancar","postal_code":46418},{"province":"Jawa Barat","city":"Tasikmalaya","district":"Sukaresik","urban":"Sukamenak","postal_code":46418},{"province":"Jawa Barat","city":"Tasikmalaya","district":"Gunung Tanjung","urban":"Malatisuka","postal_code":46418},{"province":"Jawa Barat","city":"Tasikmalaya","district":"Sukaresik","urban":"Margamulya","postal_code":46418},{"province":"Jawa Barat","city":"Tasikmalaya","district":"Gunung Tanjung","urban":"Jatijaya","postal_code":46418},{"province":"Jawa Barat","city":"Tasikmalaya","district":"Gunung Tanjung","urban":"Giriwangi","postal_code":46418},{"province":"Jawa Barat","city":"Tasikmalaya","district":"Gunung Tanjung","urban":"Gunung Tanjung","postal_code":46418},{"province":"Jawa Barat","city":"Tasikmalaya","district":"Gunung Tanjung","urban":"Cinunjang","postal_code":46418},{"province":"Jawa Barat","city":"Tasikmalaya","district":"Sukaresik","urban":"Cipondok","postal_code":46418},{"province":"Jawa Barat","city":"Tasikmalaya","district":"Singaparna","urban":"Cikunir","postal_code":46418},{"province":"Jawa Barat","city":"Tasikmalaya","district":"Singaparna","urban":"Cikadongdong","postal_code":46418},{"province":"Jawa Barat","city":"Tasikmalaya","district":"Gunung Tanjung","urban":"Bojongsari","postal_code":46418},{"province":"Jawa Barat","city":"Tasikmalaya","district":"Sukaresik","urban":"Banjarsari","postal_code":46418}]