[{"province":"Jawa Barat","city":"Tasikmalaya","district":"Salawu","urban":"Tanjungsari","postal_code":46471},{"province":"Jawa Barat","city":"Tasikmalaya","district":"Salawu","urban":"Tenjowaringin","postal_code":46471},{"province":"Jawa Barat","city":"Tasikmalaya","district":"Salawu","urban":"Sundawenang","postal_code":46471},{"province":"Jawa Barat","city":"Tasikmalaya","district":"Puspahiang","urban":"Sukasari","postal_code":46471},{"province":"Jawa Barat","city":"Tasikmalaya","district":"Salawu","urban":"Serang","postal_code":46471},{"province":"Jawa Barat","city":"Tasikmalaya","district":"Salawu","urban":"Sukarasa","postal_code":46471},{"province":"Jawa Barat","city":"Tasikmalaya","district":"Salawu","urban":"Salawu","postal_code":46471},{"province":"Jawa Barat","city":"Tasikmalaya","district":"Puspahiang","urban":"Puspasari","postal_code":46471},{"province":"Jawa Barat","city":"Tasikmalaya","district":"Puspahiang","urban":"Puspahiang","postal_code":46471},{"province":"Jawa Barat","city":"Tasikmalaya","district":"Puspahiang","urban":"Puspajaya","postal_code":46471},{"province":"Jawa Barat","city":"Tasikmalaya","district":"Puspahiang","urban":"Pusparahayu","postal_code":46471},{"province":"Jawa Barat","city":"Tasikmalaya","district":"Salawu","urban":"Neglasari","postal_code":46471},{"province":"Jawa Barat","city":"Tasikmalaya","district":"Salawu","urban":"Margalaksana","postal_code":46471},{"province":"Jawa Barat","city":"Tasikmalaya","district":"Puspahiang","urban":"Mandalasari","postal_code":46471},{"province":"Jawa Barat","city":"Tasikmalaya","district":"Salawu","urban":"Kutawaringin","postal_code":46471},{"province":"Jawa Barat","city":"Tasikmalaya","district":"Puspahiang","urban":"Luyubakti","postal_code":46471},{"province":"Jawa Barat","city":"Tasikmalaya","district":"Salawu","urban":"Jahiang","postal_code":46471},{"province":"Jawa Barat","city":"Tasikmalaya","district":"Salawu","urban":"Karangmukti","postal_code":46471},{"province":"Jawa Barat","city":"Tasikmalaya","district":"Salawu","urban":"Kawungsari","postal_code":46471},{"province":"Jawa Barat","city":"Tasikmalaya","district":"Puspahiang","urban":"Cimanggu","postal_code":46471}]