[{"province":"Jawa Barat","city":"Tasikmalaya","district":"Bojonggambir","urban":"Wandasari","postal_code":46475},{"province":"Jawa Barat","city":"Tasikmalaya","district":"Bojonggambir","urban":"Purwaraharja","postal_code":46475},{"province":"Jawa Barat","city":"Tasikmalaya","district":"Bojongasih","urban":"Sindangsari","postal_code":46475},{"province":"Jawa Barat","city":"Tasikmalaya","district":"Bojongasih","urban":"Toblongan","postal_code":46475},{"province":"Jawa Barat","city":"Tasikmalaya","district":"Bojonggambir","urban":"Pedangkamulyan","postal_code":46475},{"province":"Jawa Barat","city":"Tasikmalaya","district":"Bojongasih","urban":"Mertajaya","postal_code":46475},{"province":"Jawa Barat","city":"Tasikmalaya","district":"Bojonggambir","urban":"Mangkonjaya","postal_code":46475},{"province":"Jawa Barat","city":"Tasikmalaya","district":"Bojonggambir","urban":"Kertanegla","postal_code":46475},{"province":"Jawa Barat","city":"Tasikmalaya","district":"Bojongasih","urban":"Girijaya","postal_code":46475},{"province":"Jawa Barat","city":"Tasikmalaya","district":"Bojonggambir","urban":"Ciroyom","postal_code":46475},{"province":"Jawa Barat","city":"Tasikmalaya","district":"Bojonggambir","urban":"Girimukti","postal_code":46475},{"province":"Jawa Barat","city":"Tasikmalaya","district":"Bojongasih","urban":"Cikadongdong","postal_code":46475},{"province":"Jawa Barat","city":"Tasikmalaya","district":"Bojonggambir","urban":"Campakasari","postal_code":46475},{"province":"Jawa Barat","city":"Tasikmalaya","district":"Bojonggambir","urban":"Bojonggambir","postal_code":46475},{"province":"Jawa Barat","city":"Tasikmalaya","district":"Bojonggambir","urban":"Bojongkapol","postal_code":46475},{"province":"Jawa Barat","city":"Tasikmalaya","district":"Bojongasih","urban":"Bojongasih","postal_code":46475}]