[{"province":"Jawa Tengah","city":"Semarang","district":"Kaliwungu","urban":"Siwal","postal_code":50229},{"province":"Jawa Tengah","city":"Semarang","district":"Kaliwungu","urban":"Udanwuh","postal_code":50229},{"province":"Jawa Tengah","city":"Semarang","district":"Gunungpati","urban":"Sekaran","postal_code":50229},{"province":"Jawa Tengah","city":"Semarang","district":"Kaliwungu","urban":"Rogomulyo","postal_code":50229},{"province":"Jawa Tengah","city":"Semarang","district":"Gunungpati","urban":"Pungangan","postal_code":50229},{"province":"Jawa Tengah","city":"Semarang","district":"Kaliwungu","urban":"Payungan","postal_code":50229},{"province":"Jawa Tengah","city":"Semarang","district":"Kaliwungu","urban":"Papringan","postal_code":50229},{"province":"Jawa Tengah","city":"Semarang","district":"Kaliwungu","urban":"Pager","postal_code":50229},{"province":"Jawa Tengah","city":"Semarang","district":"Kaliwungu","urban":"Mukiran","postal_code":50229},{"province":"Jawa Tengah","city":"Semarang","district":"Kaliwungu","urban":"Kener","postal_code":50229},{"province":"Jawa Tengah","city":"Semarang","district":"Kaliwungu","urban":"Kaliwungu","postal_code":50229},{"province":"Jawa Tengah","city":"Semarang","district":"Gunungpati","urban":"Kalisegoro","postal_code":50229},{"province":"Jawa Tengah","city":"Semarang","district":"Kaliwungu","urban":"Jetis","postal_code":50229},{"province":"Jawa Tengah","city":"Semarang","district":"Gunungpati","urban":"Gunung Pati","postal_code":50229}]