[{"province":"Jawa Tengah","city":"Semarang","district":"Ungaran Timur","urban":"Mluweh","postal_code":50519},{"province":"Jawa Tengah","city":"Semarang","district":"Mijen","urban":"Mijen","postal_code":50519},{"province":"Jawa Tengah","city":"Semarang","district":"Ungaran Timur","urban":"Leyangan","postal_code":50519},{"province":"Jawa Tengah","city":"Semarang","district":"Ungaran Barat","urban":"Lerep","postal_code":50519},{"province":"Jawa Tengah","city":"Semarang","district":"Ungaran Barat","urban":"Keji","postal_code":50519},{"province":"Jawa Tengah","city":"Semarang","district":"Ungaran Timur","urban":"Kawengen","postal_code":50519},{"province":"Jawa Tengah","city":"Semarang","district":"Ungaran Timur","urban":"Kalongan","postal_code":50519},{"province":"Jawa Tengah","city":"Semarang","district":"Ungaran Barat","urban":"Kalisidi","postal_code":50519},{"province":"Jawa Tengah","city":"Semarang","district":"Ungaran Timur","urban":"Kalikayen","postal_code":50519},{"province":"Jawa Tengah","city":"Semarang","district":"Ungaran Timur","urban":"Gedanganak","postal_code":50519},{"province":"Jawa Tengah","city":"Semarang","district":"Ungaran Barat","urban":"Branjang","postal_code":50519},{"province":"Jawa Tengah","city":"Semarang","district":"Ungaran Timur","urban":"Beji","postal_code":50519}]