[{"province":"Jawa Tengah","city":"Semarang","district":"Ambarawa","urban":"Pojoksari","postal_code":50614},{"province":"Jawa Tengah","city":"Semarang","district":"Candisari","urban":"Tegalsari","postal_code":50614},{"province":"Jawa Tengah","city":"Semarang","district":"Ambarawa","urban":"Pasekan","postal_code":50614},{"province":"Jawa Tengah","city":"Semarang","district":"Ambarawa","urban":"Panjang","postal_code":50614},{"province":"Jawa Tengah","city":"Semarang","district":"Bandungan","urban":"Mlilir","postal_code":50614},{"province":"Jawa Tengah","city":"Semarang","district":"Ambarawa","urban":"Ngampin","postal_code":50614},{"province":"Jawa Tengah","city":"Semarang","district":"Bandungan","urban":"Jetis","postal_code":50614},{"province":"Jawa Tengah","city":"Semarang","district":"Bandungan","urban":"Kenteng","postal_code":50614},{"province":"Jawa Tengah","city":"Semarang","district":"Bandungan","urban":"Duren","postal_code":50614},{"province":"Jawa Tengah","city":"Semarang","district":"Bandungan","urban":"Candi","postal_code":50614},{"province":"Jawa Tengah","city":"Semarang","district":"Ambarawa","urban":"Baran","postal_code":50614},{"province":"Jawa Tengah","city":"Semarang","district":"Ambarawa","urban":"Bejalen","postal_code":50614},{"province":"Jawa Tengah","city":"Semarang","district":"Bandungan","urban":"Bandungan","postal_code":50614}]