[{"province":"Jawa Tengah","city":"Semarang","district":"Bandungan","urban":"Jimbaran","postal_code":50661},{"province":"Jawa Tengah","city":"Semarang","district":"Bawen","urban":"Harjosari","postal_code":50661},{"province":"Jawa Tengah","city":"Semarang","district":"Bawen","urban":"Doplang","postal_code":50661},{"province":"Jawa Tengah","city":"Semarang","district":"Bawen","urban":"Bawen","postal_code":50661},{"province":"Jawa Tengah","city":"Semarang","district":"Bawen","urban":"Asinan","postal_code":50661},{"province":"Jawa Tengah","city":"Semarang","district":"Bandungan","urban":"Sidomukti","postal_code":50661},{"province":"Jawa Tengah","city":"Semarang","district":"Bandungan","urban":"Sidomukti","postal_code":50661},{"province":"Jawa Tengah","city":"Semarang","district":"Bawen","urban":"Samban","postal_code":50661},{"province":"Jawa Tengah","city":"Semarang","district":"Bawen","urban":"Poncoruso","postal_code":50661},{"province":"Jawa Tengah","city":"Semarang","district":"Bawen","urban":"Polosiri","postal_code":50661},{"province":"Jawa Tengah","city":"Semarang","district":"Bandungan","urban":"Pakopen","postal_code":50661},{"province":"Jawa Tengah","city":"Semarang","district":"Bawen","urban":"Lemahireng","postal_code":50661},{"province":"Jawa Tengah","city":"Semarang","district":"Bawen","urban":"Kandangan","postal_code":50661}]