[{"province":"Jawa Tengah","city":"Semarang","district":"Jambu","urban":"Rejosari","postal_code":50663},{"province":"Jawa Tengah","city":"Semarang","district":"Jambu","urban":"Kuwarasan","postal_code":50663},{"province":"Jawa Tengah","city":"Semarang","district":"Jambu","urban":"Kebondalem","postal_code":50663},{"province":"Jawa Tengah","city":"Semarang","district":"Jambu","urban":"Kelurahan","postal_code":50663},{"province":"Jawa Tengah","city":"Semarang","district":"Jambu","urban":"Jambu","postal_code":50663},{"province":"Jawa Tengah","city":"Semarang","district":"Jambu","urban":"Gondoriyo","postal_code":50663},{"province":"Jawa Tengah","city":"Semarang","district":"Jambu","urban":"Gemawang","postal_code":50663},{"province":"Jawa Tengah","city":"Semarang","district":"Jambu","urban":"Brongkol","postal_code":50663},{"province":"Jawa Tengah","city":"Semarang","district":"Jambu","urban":"Bedono","postal_code":50663},{"province":"Jawa Tengah","city":"Semarang","district":"Bandungan","urban":"Banyukuning","postal_code":50663}]