[{"province":"Jawa Tengah","city":"Semarang","district":"Sumowono","urban":"Trayu","postal_code":50662},{"province":"Jawa Tengah","city":"Semarang","district":"Sumowono","urban":"Sumowono","postal_code":50662},{"province":"Jawa Tengah","city":"Semarang","district":"Sumowono","urban":"Pledokan","postal_code":50662},{"province":"Jawa Tengah","city":"Semarang","district":"Sumowono","urban":"Piyanggang","postal_code":50662},{"province":"Jawa Tengah","city":"Semarang","district":"Sumowono","urban":"Ngadikerso","postal_code":50662},{"province":"Jawa Tengah","city":"Semarang","district":"Sumowono","urban":"Mendongan","postal_code":50662},{"province":"Jawa Tengah","city":"Semarang","district":"Sumowono","urban":"Lanjan","postal_code":50662},{"province":"Jawa Tengah","city":"Semarang","district":"Sumowono","urban":"Keseneng","postal_code":50662},{"province":"Jawa Tengah","city":"Semarang","district":"Sumowono","urban":"Kemitir","postal_code":50662},{"province":"Jawa Tengah","city":"Semarang","district":"Sumowono","urban":"Kemawi","postal_code":50662},{"province":"Jawa Tengah","city":"Semarang","district":"Sumowono","urban":"Jubelan","postal_code":50662},{"province":"Jawa Tengah","city":"Semarang","district":"Sumowono","urban":"Duren","postal_code":50662},{"province":"Jawa Tengah","city":"Semarang","district":"Sumowono","urban":"Candigaron","postal_code":50662},{"province":"Jawa Tengah","city":"Semarang","district":"Sumowono","urban":"Bumen","postal_code":50662}]