[{"province":"Jawa Tengah","city":"Semarang","district":"Banyubiru","urban":"Wirogomo","postal_code":50664},{"province":"Jawa Tengah","city":"Semarang","district":"Banyubiru","urban":"Tegaron","postal_code":50664},{"province":"Jawa Tengah","city":"Semarang","district":"Banyubiru","urban":"Sepakung","postal_code":50664},{"province":"Jawa Tengah","city":"Semarang","district":"Banyubiru","urban":"Rowoboni","postal_code":50664},{"province":"Jawa Tengah","city":"Semarang","district":"Banyubiru","urban":"Ngrapah","postal_code":50664},{"province":"Jawa Tengah","city":"Semarang","district":"Banyubiru","urban":"Kemambang","postal_code":50664},{"province":"Jawa Tengah","city":"Semarang","district":"Banyubiru","urban":"Kebumen","postal_code":50664},{"province":"Jawa Tengah","city":"Semarang","district":"Banyubiru","urban":"Kebondowo","postal_code":50664},{"province":"Jawa Tengah","city":"Semarang","district":"Banyubiru","urban":"Gedong","postal_code":50664},{"province":"Jawa Tengah","city":"Semarang","district":"Banyubiru","urban":"Banyubiru","postal_code":50664}]