[{"province":"Jawa Tengah","city":"Pekalongan","district":"Siwalan","urban":"Depok","postal_code":51137},{"province":"Jawa Tengah","city":"Pekalongan","district":"Siwalan","urban":"Boyo Teluk","postal_code":51137},{"province":"Jawa Tengah","city":"Pekalongan","district":"Siwalan","urban":"Blimbing Wuluh","postal_code":51137},{"province":"Jawa Tengah","city":"Pekalongan","district":"Siwalan","urban":"Blacanan","postal_code":51137},{"province":"Jawa Tengah","city":"Pekalongan","district":"Siwalan","urban":"Yosorejo","postal_code":51137},{"province":"Jawa Tengah","city":"Pekalongan","district":"Pekalongan Selatan","urban":"Yosorejo","postal_code":51137},{"province":"Jawa Tengah","city":"Pekalongan","district":"Siwalan","urban":"Wonosari","postal_code":51137},{"province":"Jawa Tengah","city":"Pekalongan","district":"Siwalan","urban":"Tunjungsari","postal_code":51137},{"province":"Jawa Tengah","city":"Pekalongan","district":"Siwalan","urban":"Tengeng Wetan","postal_code":51137},{"province":"Jawa Tengah","city":"Pekalongan","district":"Siwalan","urban":"Tengengkulon","postal_code":51137},{"province":"Jawa Tengah","city":"Pekalongan","district":"Siwalan","urban":"Siwalan","postal_code":51137},{"province":"Jawa Tengah","city":"Pekalongan","district":"Siwalan","urban":"Rembun","postal_code":51137},{"province":"Jawa Tengah","city":"Pekalongan","district":"Siwalan","urban":"Pait","postal_code":51137},{"province":"Jawa Tengah","city":"Pekalongan","district":"Siwalan","urban":"Mejasem","postal_code":51137}]