[{"province":"Jawa Tengah","city":"Batang","district":"Warungasem","urban":"Warungasem","postal_code":51252},{"province":"Jawa Tengah","city":"Batang","district":"Warungasem","urban":"Terban","postal_code":51252},{"province":"Jawa Tengah","city":"Batang","district":"Warungasem","urban":"Sijono","postal_code":51252},{"province":"Jawa Tengah","city":"Batang","district":"Warungasem","urban":"Sidorejo","postal_code":51252},{"province":"Jawa Tengah","city":"Batang","district":"Warungasem","urban":"Sariglagah","postal_code":51252},{"province":"Jawa Tengah","city":"Batang","district":"Warungasem","urban":"Sawahjoho","postal_code":51252},{"province":"Jawa Tengah","city":"Batang","district":"Warungasem","urban":"Pesaren","postal_code":51252},{"province":"Jawa Tengah","city":"Batang","district":"Warungasem","urban":"Pandansari","postal_code":51252},{"province":"Jawa Tengah","city":"Batang","district":"Warungasem","urban":"Pejambon","postal_code":51252},{"province":"Jawa Tengah","city":"Batang","district":"Warungasem","urban":"Masin","postal_code":51252},{"province":"Jawa Tengah","city":"Batang","district":"Warungasem","urban":"Menguneng","postal_code":51252},{"province":"Jawa Tengah","city":"Batang","district":"Warungasem","urban":"Lebo","postal_code":51252},{"province":"Jawa Tengah","city":"Batang","district":"Warungasem","urban":"Gapuro","postal_code":51252},{"province":"Jawa Tengah","city":"Batang","district":"Warungasem","urban":"Kalibeluk","postal_code":51252},{"province":"Jawa Tengah","city":"Batang","district":"Warungasem","urban":"Kaliwareng","postal_code":51252},{"province":"Jawa Tengah","city":"Batang","district":"Warungasem","urban":"Cepagan","postal_code":51252},{"province":"Jawa Tengah","city":"Batang","district":"Warungasem","urban":"Banjiran","postal_code":51252},{"province":"Jawa Tengah","city":"Batang","district":"Warungasem","urban":"Candiareng","postal_code":51252}]