[{"province":"Jawa Tengah","city":"Batang","district":"Subah","urban":"Subah","postal_code":51262},{"province":"Jawa Tengah","city":"Batang","district":"Subah","urban":"Tenggulangharjo","postal_code":51262},{"province":"Jawa Tengah","city":"Batang","district":"Subah","urban":"Sengon","postal_code":51262},{"province":"Jawa Tengah","city":"Batang","district":"Subah","urban":"Siberuk","postal_code":51262},{"province":"Jawa Tengah","city":"Batang","district":"Pecalungan","urban":"Siguci","postal_code":51262},{"province":"Jawa Tengah","city":"Batang","district":"Pecalungan","urban":"Pretek","postal_code":51262},{"province":"Jawa Tengah","city":"Batang","district":"Pecalungan","urban":"Randu","postal_code":51262},{"province":"Jawa Tengah","city":"Batang","district":"Pecalungan","urban":"Selokarto","postal_code":51262},{"province":"Jawa Tengah","city":"Batang","district":"Subah","urban":"Menjangan","postal_code":51262},{"province":"Jawa Tengah","city":"Batang","district":"Pecalungan","urban":"Pecalungan","postal_code":51262},{"province":"Jawa Tengah","city":"Batang","district":"Subah","urban":"Kuripan","postal_code":51262},{"province":"Jawa Tengah","city":"Batang","district":"Subah","urban":"Mangunharjo","postal_code":51262},{"province":"Jawa Tengah","city":"Batang","district":"Pecalungan","urban":"Keniten","postal_code":51262},{"province":"Jawa Tengah","city":"Batang","district":"Subah","urban":"Kemiri Timur","postal_code":51262},{"province":"Jawa Tengah","city":"Batang","district":"Subah","urban":"Kumejing","postal_code":51262},{"province":"Jawa Tengah","city":"Batang","district":"Subah","urban":"Kebumen","postal_code":51262},{"province":"Jawa Tengah","city":"Batang","district":"Subah","urban":"Kemiri Barat","postal_code":51262},{"province":"Jawa Tengah","city":"Batang","district":"Subah","urban":"Keborangan","postal_code":51262},{"province":"Jawa Tengah","city":"Batang","district":"Subah","urban":"Karangtengah","postal_code":51262},{"province":"Jawa Tengah","city":"Batang","district":"Subah","urban":"Jrakahpayung","postal_code":51262},{"province":"Jawa Tengah","city":"Batang","district":"Subah","urban":"Kalimanggis","postal_code":51262},{"province":"Jawa Tengah","city":"Batang","district":"Subah","urban":"Jatisari","postal_code":51262},{"province":"Jawa Tengah","city":"Batang","district":"Subah","urban":"Jolosekti","postal_code":51262},{"province":"Jawa Tengah","city":"Batang","district":"Pecalungan","urban":"Gumawang","postal_code":51262},{"province":"Jawa Tengah","city":"Batang","district":"Subah","urban":"Gondang","postal_code":51262},{"province":"Jawa Tengah","city":"Batang","district":"Pecalungan","urban":"Gombong","postal_code":51262},{"province":"Jawa Tengah","city":"Batang","district":"Pecalungan","urban":"Gemuh","postal_code":51262},{"province":"Jawa Tengah","city":"Batang","district":"Subah","urban":"Cluwuk","postal_code":51262},{"province":"Jawa Tengah","city":"Batang","district":"Subah","urban":"Durenombo","postal_code":51262},{"province":"Jawa Tengah","city":"Batang","district":"Subah","urban":"Clapar","postal_code":51262},{"province":"Jawa Tengah","city":"Batang","district":"Pecalungan","urban":"Bandung","postal_code":51262},{"province":"Jawa Tengah","city":"Batang","district":"Subah","urban":"Adinuso","postal_code":51262}]