[{"province":"Jawa Tengah","city":"Batang","district":"Tulis","urban":"Wringingintung","postal_code":51261},{"province":"Jawa Tengah","city":"Batang","district":"Kandeman","urban":"Ujungnegoro","postal_code":51261},{"province":"Jawa Tengah","city":"Batang","district":"Kandeman","urban":"Wonokerso","postal_code":51261},{"province":"Jawa Tengah","city":"Batang","district":"Tulis","urban":"Tulis","postal_code":51261},{"province":"Jawa Tengah","city":"Batang","district":"Kandeman","urban":"Tragung","postal_code":51261},{"province":"Jawa Tengah","city":"Batang","district":"Kandeman","urban":"Tegalsari","postal_code":51261},{"province":"Jawa Tengah","city":"Batang","district":"Tulis","urban":"Simbangdesa","postal_code":51261},{"province":"Jawa Tengah","city":"Batang","district":"Tulis","urban":"Simbangjati","postal_code":51261},{"province":"Jawa Tengah","city":"Batang","district":"Tulis","urban":"Sembojo","postal_code":51261},{"province":"Jawa Tengah","city":"Batang","district":"Tulis","urban":"Posong","postal_code":51261},{"province":"Jawa Tengah","city":"Batang","district":"Tulis","urban":"Ponowareng","postal_code":51261},{"province":"Jawa Tengah","city":"Batang","district":"Kandeman","urban":"Lawangaji","postal_code":51261},{"province":"Jawa Tengah","city":"Batang","district":"Tulis","urban":"Kedungsegog","postal_code":51261},{"province":"Jawa Tengah","city":"Batang","district":"Tulis","urban":"Kenconorejo","postal_code":51261},{"province":"Jawa Tengah","city":"Batang","district":"Kandeman","urban":"Kandeman","postal_code":51261},{"province":"Jawa Tengah","city":"Batang","district":"Kandeman","urban":"Karanganom","postal_code":51261},{"province":"Jawa Tengah","city":"Batang","district":"Kandeman","urban":"Karanggeneng","postal_code":51261},{"province":"Jawa Tengah","city":"Batang","district":"Tulis","urban":"Kaliboyo","postal_code":51261},{"province":"Jawa Tengah","city":"Batang","district":"Kandeman","urban":"Juragan","postal_code":51261},{"province":"Jawa Tengah","city":"Batang","district":"Kandeman","urban":"Cempereng","postal_code":51261},{"province":"Jawa Tengah","city":"Batang","district":"Kandeman","urban":"Depok","postal_code":51261},{"province":"Jawa Tengah","city":"Batang","district":"Kandeman","urban":"Botolambat","postal_code":51261},{"province":"Jawa Tengah","city":"Batang","district":"Tulis","urban":"Beji","postal_code":51261},{"province":"Jawa Tengah","city":"Batang","district":"Kandeman","urban":"Bakalan","postal_code":51261}]