[{"province":"Jawa Tengah","city":"Batang","district":"Tersono","urban":"Wanar","postal_code":51272},{"province":"Jawa Tengah","city":"Batang","district":"Tersono","urban":"Tedunan","postal_code":51272},{"province":"Jawa Tengah","city":"Batang","district":"Tersono","urban":"Tegalombo","postal_code":51272},{"province":"Jawa Tengah","city":"Batang","district":"Tersono","urban":"Sidalang","postal_code":51272},{"province":"Jawa Tengah","city":"Batang","district":"Tersono","urban":"Sumurbanger","postal_code":51272},{"province":"Jawa Tengah","city":"Batang","district":"Tersono","urban":"Tanjungsari","postal_code":51272},{"province":"Jawa Tengah","city":"Batang","district":"Tersono","urban":"Rejosari Timur","postal_code":51272},{"province":"Jawa Tengah","city":"Batang","district":"Tersono","urban":"Satriyan","postal_code":51272},{"province":"Jawa Tengah","city":"Batang","district":"Tersono","urban":"Sendang","postal_code":51272},{"province":"Jawa Tengah","city":"Batang","district":"Tersono","urban":"Pujut","postal_code":51272},{"province":"Jawa Tengah","city":"Batang","district":"Tersono","urban":"Rejosari Barat","postal_code":51272},{"province":"Jawa Tengah","city":"Batang","district":"Tersono","urban":"Margosono","postal_code":51272},{"province":"Jawa Tengah","city":"Batang","district":"Tersono","urban":"Plosowangi","postal_code":51272},{"province":"Jawa Tengah","city":"Batang","district":"Tersono","urban":"Kranggan","postal_code":51272},{"province":"Jawa Tengah","city":"Batang","district":"Tersono","urban":"Lobang","postal_code":51272},{"province":"Jawa Tengah","city":"Batang","district":"Tersono","urban":"Madugowongjati","postal_code":51272},{"province":"Jawa Tengah","city":"Batang","district":"Tersono","urban":"Harjowinangun Timur","postal_code":51272},{"province":"Jawa Tengah","city":"Batang","district":"Tersono","urban":"Kebumen","postal_code":51272},{"province":"Jawa Tengah","city":"Batang","district":"Tersono","urban":"Harjowinangun Barat","postal_code":51272},{"province":"Jawa Tengah","city":"Batang","district":"Tersono","urban":"Gondo","postal_code":51272},{"province":"Jawa Tengah","city":"Batang","district":"Tersono","urban":"Harjowinangun Barat","postal_code":51272},{"province":"Jawa Tengah","city":"Batang","district":"Tersono","urban":"Banteng","postal_code":51272}]