[{"province":"Jawa Tengah","city":"Batang","district":"Gringsing","urban":"Yosorejo","postal_code":51281},{"province":"Jawa Tengah","city":"Batang","district":"Banyuputih","urban":"Timbang","postal_code":51281},{"province":"Jawa Tengah","city":"Batang","district":"Gringsing","urban":"Sidorejo","postal_code":51281},{"province":"Jawa Tengah","city":"Batang","district":"Gringsing","urban":"Surodadi","postal_code":51281},{"province":"Jawa Tengah","city":"Batang","district":"Gringsing","urban":"Sawangan","postal_code":51281},{"province":"Jawa Tengah","city":"Batang","district":"Gringsing","urban":"Sentul","postal_code":51281},{"province":"Jawa Tengah","city":"Batang","district":"Gringsing","urban":"Plelen","postal_code":51281},{"province":"Jawa Tengah","city":"Batang","district":"Banyuputih","urban":"Penundan","postal_code":51281},{"province":"Jawa Tengah","city":"Batang","district":"Gringsing","urban":"Lebo","postal_code":51281},{"province":"Jawa Tengah","city":"Batang","district":"Gringsing","urban":"Mentosari","postal_code":51281},{"province":"Jawa Tengah","city":"Batang","district":"Gringsing","urban":"Krengseng","postal_code":51281},{"province":"Jawa Tengah","city":"Batang","district":"Gringsing","urban":"Kutosari","postal_code":51281},{"province":"Jawa Tengah","city":"Batang","district":"Gringsing","urban":"Ketanggan","postal_code":51281},{"province":"Jawa Tengah","city":"Batang","district":"Gringsing","urban":"Gringsing","postal_code":51281},{"province":"Jawa Tengah","city":"Batang","district":"Gringsing","urban":"Kebondalem","postal_code":51281},{"province":"Jawa Tengah","city":"Batang","district":"Banyuputih","urban":"Banaran","postal_code":51281},{"province":"Jawa Tengah","city":"Batang","district":"Banyuputih","urban":"Bulu","postal_code":51281}]