[{"province":"Jawa Tengah","city":"Kendal","district":"Ringinarum","urban":"Wungurejo","postal_code":51356},{"province":"Jawa Tengah","city":"Kendal","district":"Gemuh","urban":"Tlahab","postal_code":51356},{"province":"Jawa Tengah","city":"Kendal","district":"Gemuh","urban":"Triharjo","postal_code":51356},{"province":"Jawa Tengah","city":"Kendal","district":"Gemuh","urban":"Tamangede","postal_code":51356},{"province":"Jawa Tengah","city":"Kendal","district":"Ringinarum","urban":"Tejorejo","postal_code":51356},{"province":"Jawa Tengah","city":"Kendal","district":"Gemuh","urban":"Sedayu","postal_code":51356},{"province":"Jawa Tengah","city":"Kendal","district":"Gemuh","urban":"Sojomerto","postal_code":51356},{"province":"Jawa Tengah","city":"Kendal","district":"Ringinarum","urban":"Ringinarum","postal_code":51356},{"province":"Jawa Tengah","city":"Kendal","district":"Ringinarum","urban":"Rowobranten","postal_code":51356},{"province":"Jawa Tengah","city":"Kendal","district":"Gemuh","urban":"Poncorejo","postal_code":51356},{"province":"Jawa Tengah","city":"Kendal","district":"Gemuh","urban":"Pucangrejo","postal_code":51356},{"province":"Jawa Tengah","city":"Kendal","district":"Ringinarum","urban":"Purworejo","postal_code":51356},{"province":"Jawa Tengah","city":"Kendal","district":"Gemuh","urban":"Pamriyan","postal_code":51356},{"province":"Jawa Tengah","city":"Kendal","district":"Ringinarum","urban":"Ngawensari","postal_code":51356},{"province":"Jawa Tengah","city":"Kendal","district":"Ringinarum","urban":"Ngerjo","postal_code":51356},{"province":"Jawa Tengah","city":"Kendal","district":"Ringinarum","urban":"Pagerdawung","postal_code":51356},{"province":"Jawa Tengah","city":"Kendal","district":"Ringinarum","urban":"Mojo","postal_code":51356},{"province":"Jawa Tengah","city":"Kendal","district":"Gemuh","urban":"Krompaan","postal_code":51356},{"province":"Jawa Tengah","city":"Kendal","district":"Gemuh","urban":"Lumansari","postal_code":51356},{"province":"Jawa Tengah","city":"Kendal","district":"Ringinarum","urban":"Kedungasri","postal_code":51356},{"province":"Jawa Tengah","city":"Kendal","district":"Ringinarum","urban":"Kedunggading","postal_code":51356},{"province":"Jawa Tengah","city":"Kendal","district":"Gemuh","urban":"Johorejo","postal_code":51356},{"province":"Jawa Tengah","city":"Kendal","district":"Gemuh","urban":"Jenarsari","postal_code":51356},{"province":"Jawa Tengah","city":"Kendal","district":"Gemuh","urban":"Gebang","postal_code":51356},{"province":"Jawa Tengah","city":"Kendal","district":"Gemuh","urban":"Gemuhblanten","postal_code":51356},{"province":"Jawa Tengah","city":"Kendal","district":"Gemuh","urban":"Cepokomulyo","postal_code":51356},{"province":"Jawa Tengah","city":"Kendal","district":"Gemuh","urban":"Galih","postal_code":51356},{"province":"Jawa Tengah","city":"Kendal","district":"Ringinarum","urban":"Caruban","postal_code":51356}]