[{"province":"Jawa Tengah","city":"Kendal","district":"Weleri","urban":"Weleri","postal_code":51355},{"province":"Jawa Tengah","city":"Kendal","district":"Weleri","urban":"Sumberagung","postal_code":51355},{"province":"Jawa Tengah","city":"Kendal","district":"Weleri","urban":"Tratemulyo","postal_code":51355},{"province":"Jawa Tengah","city":"Kendal","district":"Weleri","urban":"Sambongsari","postal_code":51355},{"province":"Jawa Tengah","city":"Kendal","district":"Weleri","urban":"Sidomukti","postal_code":51355},{"province":"Jawa Tengah","city":"Kendal","district":"Weleri","urban":"Penaruban","postal_code":51355},{"province":"Jawa Tengah","city":"Kendal","district":"Weleri","urban":"Penyangkringan","postal_code":51355},{"province":"Jawa Tengah","city":"Kendal","district":"Weleri","urban":"Pucuksari","postal_code":51355},{"province":"Jawa Tengah","city":"Kendal","district":"Weleri","urban":"Payung","postal_code":51355},{"province":"Jawa Tengah","city":"Kendal","district":"Weleri","urban":"Nawangsari","postal_code":51355},{"province":"Jawa Tengah","city":"Kendal","district":"Weleri","urban":"Ngasinan","postal_code":51355},{"province":"Jawa Tengah","city":"Kendal","district":"Weleri","urban":"Manggungsari","postal_code":51355},{"province":"Jawa Tengah","city":"Kendal","district":"Weleri","urban":"Montongsari","postal_code":51355},{"province":"Jawa Tengah","city":"Kendal","district":"Weleri","urban":"Bumiayu","postal_code":51355},{"province":"Jawa Tengah","city":"Kendal","district":"Weleri","urban":"Karanganom","postal_code":51355},{"province":"Jawa Tengah","city":"Kendal","district":"Weleri","urban":"Karangdowo","postal_code":51355}]