[{"province":"Jawa Tengah","city":"Kendal","district":"Ngampel","urban":"Winong","postal_code":51357},{"province":"Jawa Tengah","city":"Kendal","district":"Pegandon","urban":"Wonosari","postal_code":51357},{"province":"Jawa Tengah","city":"Kendal","district":"Ngampel","urban":"Sudipayung","postal_code":51357},{"province":"Jawa Tengah","city":"Kendal","district":"Ngampel","urban":"Sumbersari","postal_code":51357},{"province":"Jawa Tengah","city":"Kendal","district":"Pegandon","urban":"Tegorejo","postal_code":51357},{"province":"Jawa Tengah","city":"Kendal","district":"Ngampel","urban":"Rejosari","postal_code":51357},{"province":"Jawa Tengah","city":"Kendal","district":"Ngampel","urban":"Putatgede","postal_code":51357},{"province":"Jawa Tengah","city":"Kendal","district":"Pegandon","urban":"Pesawahan","postal_code":51357},{"province":"Jawa Tengah","city":"Kendal","district":"Pegandon","urban":"Pucang Rejo","postal_code":51357},{"province":"Jawa Tengah","city":"Kendal","district":"Pegandon","urban":"Puguh","postal_code":51357},{"province":"Jawa Tengah","city":"Kendal","district":"Pegandon","urban":"Pegandon","postal_code":51357},{"province":"Jawa Tengah","city":"Kendal","district":"Pegandon","urban":"Pekuncen","postal_code":51357},{"province":"Jawa Tengah","city":"Kendal","district":"Pegandon","urban":"Penanggulan","postal_code":51357},{"province":"Jawa Tengah","city":"Kendal","district":"Ngampel","urban":"Ngampel Wetan","postal_code":51357},{"province":"Jawa Tengah","city":"Kendal","district":"Pegandon","urban":"Margomulyo","postal_code":51357},{"province":"Jawa Tengah","city":"Kendal","district":"Ngampel","urban":"Ngampel Kulon","postal_code":51357},{"province":"Jawa Tengah","city":"Kendal","district":"Pegandon","urban":"Karangmulyo","postal_code":51357},{"province":"Jawa Tengah","city":"Kendal","district":"Ngampel","urban":"Kebonagung","postal_code":51357},{"province":"Jawa Tengah","city":"Kendal","district":"Ngampel","urban":"Jatirejo","postal_code":51357},{"province":"Jawa Tengah","city":"Kendal","district":"Pegandon","urban":"Gubugsari","postal_code":51357},{"province":"Jawa Tengah","city":"Kendal","district":"Ngampel","urban":"Dempelrejo","postal_code":51357},{"province":"Jawa Tengah","city":"Kendal","district":"Pegandon","urban":"Dawungsari","postal_code":51357},{"province":"Jawa Tengah","city":"Kendal","district":"Ngampel","urban":"Bojonggede","postal_code":51357},{"province":"Jawa Tengah","city":"Kendal","district":"Ngampel","urban":"Banyuurip","postal_code":51357}]