[{"province":"Jawa Tengah","city":"Kendal","district":"Rowosari","urban":"Tanjungsari","postal_code":51354},{"province":"Jawa Tengah","city":"Kendal","district":"Rowosari","urban":"Wonotenggang","postal_code":51354},{"province":"Jawa Tengah","city":"Kendal","district":"Rowosari","urban":"Tambaksari","postal_code":51354},{"province":"Jawa Tengah","city":"Kendal","district":"Rowosari","urban":"Tanjunganom","postal_code":51354},{"province":"Jawa Tengah","city":"Kendal","district":"Rowosari","urban":"Sendang Sikucing","postal_code":51354},{"province":"Jawa Tengah","city":"Kendal","district":"Rowosari","urban":"Sendangdawuhan","postal_code":51354},{"province":"Jawa Tengah","city":"Kendal","district":"Rowosari","urban":"Randusari","postal_code":51354},{"province":"Jawa Tengah","city":"Kendal","district":"Rowosari","urban":"Rowosari","postal_code":51354},{"province":"Jawa Tengah","city":"Kendal","district":"Rowosari","urban":"Kebonsari","postal_code":51354},{"province":"Jawa Tengah","city":"Kendal","district":"Rowosari","urban":"Parakan","postal_code":51354},{"province":"Jawa Tengah","city":"Kendal","district":"Rowosari","urban":"Pojoksari","postal_code":51354},{"province":"Jawa Tengah","city":"Kendal","district":"Rowosari","urban":"Jatipurwo","postal_code":51354},{"province":"Jawa Tengah","city":"Kendal","district":"Rowosari","urban":"Gempolsewu","postal_code":51354},{"province":"Jawa Tengah","city":"Kendal","district":"Rowosari","urban":"Bulak","postal_code":51354},{"province":"Jawa Tengah","city":"Kendal","district":"Rowosari","urban":"Gebanganom","postal_code":51354}]