[{"province":"Jawa Tengah","city":"Kendal","district":"Kaliwungu","urban":"Sumberejo","postal_code":51372},{"province":"Jawa Tengah","city":"Kendal","district":"Kaliwungu","urban":"Wonorejo","postal_code":51372},{"province":"Jawa Tengah","city":"Kendal","district":"Kaliwungu","urban":"Sarirejo","postal_code":51372},{"province":"Jawa Tengah","city":"Kendal","district":"Kaliwungu Selatan","urban":"Sidomakmur","postal_code":51372},{"province":"Jawa Tengah","city":"Kendal","district":"Kaliwungu Selatan","urban":"Sukomulyo","postal_code":51372},{"province":"Jawa Tengah","city":"Kendal","district":"Kaliwungu Selatan","urban":"Protomulyo","postal_code":51372},{"province":"Jawa Tengah","city":"Kendal","district":"Kaliwungu","urban":"Mororejo","postal_code":51372},{"province":"Jawa Tengah","city":"Kendal","district":"Kaliwungu","urban":"Nolokerto","postal_code":51372},{"province":"Jawa Tengah","city":"Kendal","district":"Kaliwungu Selatan","urban":"Plantaran","postal_code":51372},{"province":"Jawa Tengah","city":"Kendal","district":"Kaliwungu Selatan","urban":"Magelung","postal_code":51372},{"province":"Jawa Tengah","city":"Kendal","district":"Kaliwungu","urban":"Kumpulrejo","postal_code":51372},{"province":"Jawa Tengah","city":"Kendal","district":"Kaliwungu","urban":"Kutoharjo","postal_code":51372},{"province":"Jawa Tengah","city":"Kendal","district":"Kaliwungu Selatan","urban":"Kedungsuren","postal_code":51372},{"province":"Jawa Tengah","city":"Kendal","district":"Kaliwungu","urban":"Krajankulon","postal_code":51372},{"province":"Jawa Tengah","city":"Kendal","district":"Kaliwungu","urban":"Karangtengah","postal_code":51372},{"province":"Jawa Tengah","city":"Kendal","district":"Kaliwungu Selatan","urban":"Derupono/Darupono","postal_code":51372}]