[{"province":"Jawa Tengah","city":"Kendal","district":"Singorojo","urban":"Trayu","postal_code":51382},{"province":"Jawa Tengah","city":"Kendal","district":"Singorojo","urban":"Singorojo","postal_code":51382},{"province":"Jawa Tengah","city":"Kendal","district":"Singorojo","urban":"Sukodadi","postal_code":51382},{"province":"Jawa Tengah","city":"Kendal","district":"Singorojo","urban":"Ngareanak","postal_code":51382},{"province":"Jawa Tengah","city":"Kendal","district":"Singorojo","urban":"Merbuh","postal_code":51382},{"province":"Jawa Tengah","city":"Kendal","district":"Singorojo","urban":"Kertosari","postal_code":51382},{"province":"Jawa Tengah","city":"Kendal","district":"Singorojo","urban":"Kalirejo","postal_code":51382},{"province":"Jawa Tengah","city":"Kendal","district":"Singorojo","urban":"Kedungsari","postal_code":51382},{"province":"Jawa Tengah","city":"Kendal","district":"Singorojo","urban":"Kaliputih","postal_code":51382},{"province":"Jawa Tengah","city":"Kendal","district":"Kaliwungu Selatan","urban":"Jerukgiling","postal_code":51382},{"province":"Jawa Tengah","city":"Kendal","district":"Singorojo","urban":"Getas","postal_code":51382},{"province":"Jawa Tengah","city":"Kendal","district":"Singorojo","urban":"Cening","postal_code":51382},{"province":"Jawa Tengah","city":"Kendal","district":"Singorojo","urban":"Cacaban","postal_code":51382},{"province":"Jawa Tengah","city":"Kendal","district":"Singorojo","urban":"Banyuringin","postal_code":51382}]