[{"province":"Jawa Tengah","city":"Tegal","district":"Talang","urban":"Wangandawa","postal_code":52193},{"province":"Jawa Tengah","city":"Tegal","district":"Talang","urban":"Pesayangan","postal_code":52193},{"province":"Jawa Tengah","city":"Tegal","district":"Talang","urban":"Talang","postal_code":52193},{"province":"Jawa Tengah","city":"Tegal","district":"Talang","urban":"Tegalwangi","postal_code":52193},{"province":"Jawa Tengah","city":"Tegal","district":"Talang","urban":"Pegirikan","postal_code":52193},{"province":"Jawa Tengah","city":"Tegal","district":"Talang","urban":"Pekiringan","postal_code":52193},{"province":"Jawa Tengah","city":"Tegal","district":"Talang","urban":"Pacul","postal_code":52193},{"province":"Jawa Tengah","city":"Tegal","district":"Talang","urban":"Pasangan","postal_code":52193},{"province":"Jawa Tengah","city":"Tegal","district":"Talang","urban":"Kaligayam","postal_code":52193},{"province":"Jawa Tengah","city":"Tegal","district":"Talang","urban":"Kebasen","postal_code":52193},{"province":"Jawa Tengah","city":"Tegal","district":"Talang","urban":"Langgen","postal_code":52193},{"province":"Jawa Tengah","city":"Tegal","district":"Talang","urban":"Kajen","postal_code":52193},{"province":"Jawa Tengah","city":"Tegal","district":"Talang","urban":"Kaladawa","postal_code":52193},{"province":"Jawa Tengah","city":"Tegal","district":"Talang","urban":"Gembong Kulon","postal_code":52193},{"province":"Jawa Tengah","city":"Tegal","district":"Talang","urban":"Getaskerep","postal_code":52193},{"province":"Jawa Tengah","city":"Tegal","district":"Talang","urban":"Dawuhan","postal_code":52193},{"province":"Jawa Tengah","city":"Tegal","district":"Talang","urban":"Dukuhmalang","postal_code":52193},{"province":"Jawa Tengah","city":"Tegal","district":"Talang","urban":"Bengle","postal_code":52193},{"province":"Jawa Tengah","city":"Tegal","district":"Talang","urban":"Cangkring","postal_code":52193}]