[{"province":"Jawa Tengah","city":"Brebes","district":"Brebes","urban":"Tengki","postal_code":52219},{"province":"Jawa Tengah","city":"Brebes","district":"Brebes","urban":"Terlangu","postal_code":52219},{"province":"Jawa Tengah","city":"Brebes","district":"Brebes","urban":"Randusanga Wetan","postal_code":52219},{"province":"Jawa Tengah","city":"Brebes","district":"Brebes","urban":"Sigambir","postal_code":52219},{"province":"Jawa Tengah","city":"Brebes","district":"Brebes","urban":"Randusanga Kulon","postal_code":52219},{"province":"Jawa Tengah","city":"Brebes","district":"Brebes","urban":"Pemaron","postal_code":52219},{"province":"Jawa Tengah","city":"Brebes","district":"Brebes","urban":"Lembarawa","postal_code":52219},{"province":"Jawa Tengah","city":"Brebes","district":"Brebes","urban":"Limbangan Kulon","postal_code":52219},{"province":"Jawa Tengah","city":"Brebes","district":"Brebes","urban":"Pagejugan","postal_code":52219},{"province":"Jawa Tengah","city":"Brebes","district":"Brebes","urban":"Krasak","postal_code":52219},{"province":"Jawa Tengah","city":"Brebes","district":"Brebes","urban":"Kalimati","postal_code":52219},{"province":"Jawa Tengah","city":"Brebes","district":"Brebes","urban":"Kaliwlingi","postal_code":52219},{"province":"Jawa Tengah","city":"Brebes","district":"Brebes","urban":"Kedunguter","postal_code":52219}]