[{"province":"Jawa Tengah","city":"Brebes","district":"Tanjung","urban":"Tegongan","postal_code":52254},{"province":"Jawa Tengah","city":"Brebes","district":"Tanjung","urban":"Tengguli","postal_code":52254},{"province":"Jawa Tengah","city":"Brebes","district":"Tanjung","urban":"Tanjung","postal_code":52254},{"province":"Jawa Tengah","city":"Brebes","district":"Tanjung","urban":"Sengon","postal_code":52254},{"province":"Jawa Tengah","city":"Brebes","district":"Tanjung","urban":"Sidakaton","postal_code":52254},{"province":"Jawa Tengah","city":"Brebes","district":"Tanjung","urban":"Pejagan","postal_code":52254},{"province":"Jawa Tengah","city":"Brebes","district":"Tanjung","urban":"Pengaradan","postal_code":52254},{"province":"Jawa Tengah","city":"Brebes","district":"Tanjung","urban":"Sarireja","postal_code":52254},{"province":"Jawa Tengah","city":"Brebes","district":"Tanjung","urban":"Mundu","postal_code":52254},{"province":"Jawa Tengah","city":"Brebes","district":"Tanjung","urban":"Luwungbata","postal_code":52254},{"province":"Jawa Tengah","city":"Brebes","district":"Tanjung","urban":"Lemah Abang","postal_code":52254},{"province":"Jawa Tengah","city":"Brebes","district":"Tanjung","urban":"Luwung Gede","postal_code":52254},{"province":"Jawa Tengah","city":"Brebes","district":"Tanjung","urban":"Kemurang Wetan","postal_code":52254},{"province":"Jawa Tengah","city":"Brebes","district":"Tanjung","urban":"Krakahan","postal_code":52254},{"province":"Jawa Tengah","city":"Brebes","district":"Tanjung","urban":"Kubangputat","postal_code":52254},{"province":"Jawa Tengah","city":"Brebes","district":"Tanjung","urban":"Kedawung","postal_code":52254},{"province":"Jawa Tengah","city":"Brebes","district":"Tanjung","urban":"Kemurang Kulon","postal_code":52254},{"province":"Jawa Tengah","city":"Brebes","district":"Tanjung","urban":"Karangreja","postal_code":52254}]