[{"province":"Jawa Tengah","city":"Brebes","district":"Wanasari","urban":"Tegalgandu","postal_code":52252},{"province":"Jawa Tengah","city":"Brebes","district":"Wanasari","urban":"Wanasari","postal_code":52252},{"province":"Jawa Tengah","city":"Brebes","district":"Wanasari","urban":"Siwungkuk","postal_code":52252},{"province":"Jawa Tengah","city":"Brebes","district":"Wanasari","urban":"Tanjungsari","postal_code":52252},{"province":"Jawa Tengah","city":"Brebes","district":"Wanasari","urban":"Sigentong","postal_code":52252},{"province":"Jawa Tengah","city":"Brebes","district":"Wanasari","urban":"Sisalam","postal_code":52252},{"province":"Jawa Tengah","city":"Brebes","district":"Wanasari","urban":"Siasem","postal_code":52252},{"province":"Jawa Tengah","city":"Brebes","district":"Wanasari","urban":"Sidamulya","postal_code":52252},{"province":"Jawa Tengah","city":"Brebes","district":"Wanasari","urban":"Sawojajar","postal_code":52252},{"province":"Jawa Tengah","city":"Brebes","district":"Wanasari","urban":"Kupu","postal_code":52252},{"province":"Jawa Tengah","city":"Brebes","district":"Wanasari","urban":"Lengkong","postal_code":52252},{"province":"Jawa Tengah","city":"Brebes","district":"Wanasari","urban":"Kertabesuki","postal_code":52252},{"province":"Jawa Tengah","city":"Brebes","district":"Wanasari","urban":"Klampok","postal_code":52252},{"province":"Jawa Tengah","city":"Brebes","district":"Wanasari","urban":"Jagalempeni","postal_code":52252},{"province":"Jawa Tengah","city":"Brebes","district":"Wanasari","urban":"Keboledan","postal_code":52252},{"province":"Jawa Tengah","city":"Brebes","district":"Wanasari","urban":"Glonggong","postal_code":52252},{"province":"Jawa Tengah","city":"Brebes","district":"Wanasari","urban":"Dukuhwringin","postal_code":52252},{"province":"Jawa Tengah","city":"Brebes","district":"Wanasari","urban":"Dumeling","postal_code":52252}]