[{"province":"Jawa Tengah","city":"Brebes","district":"Bulakamba","urban":"Tegalglagah","postal_code":52253},{"province":"Jawa Tengah","city":"Brebes","district":"Bulakamba","urban":"Rancawuluh","postal_code":52253},{"province":"Jawa Tengah","city":"Brebes","district":"Bulakamba","urban":"Siwuluh","postal_code":52253},{"province":"Jawa Tengah","city":"Brebes","district":"Bulakamba","urban":"Petunjungan","postal_code":52253},{"province":"Jawa Tengah","city":"Brebes","district":"Bulakamba","urban":"Pulogading","postal_code":52253},{"province":"Jawa Tengah","city":"Brebes","district":"Bulakamba","urban":"Luwungragi","postal_code":52253},{"province":"Jawa Tengah","city":"Brebes","district":"Bulakamba","urban":"Pakijangan","postal_code":52253},{"province":"Jawa Tengah","city":"Brebes","district":"Bulakamba","urban":"Karangsari","postal_code":52253},{"province":"Jawa Tengah","city":"Brebes","district":"Bulakamba","urban":"Kluwut","postal_code":52253},{"province":"Jawa Tengah","city":"Brebes","district":"Bulakamba","urban":"Jubang","postal_code":52253},{"province":"Jawa Tengah","city":"Brebes","district":"Bulakamba","urban":"Dukuhlo","postal_code":52253},{"province":"Jawa Tengah","city":"Brebes","district":"Bulakamba","urban":"Grinting","postal_code":52253},{"province":"Jawa Tengah","city":"Brebes","district":"Bulakamba","urban":"Cimohong","postal_code":52253},{"province":"Jawa Tengah","city":"Brebes","district":"Bulakamba","urban":"Cipelem","postal_code":52253},{"province":"Jawa Tengah","city":"Brebes","district":"Bulakamba","urban":"Bulakparen","postal_code":52253},{"province":"Jawa Tengah","city":"Brebes","district":"Bulakamba","urban":"Bulusari","postal_code":52253},{"province":"Jawa Tengah","city":"Brebes","district":"Bulakamba","urban":"Banjaratma","postal_code":52253},{"province":"Jawa Tengah","city":"Brebes","district":"Bulakamba","urban":"Bulakamba","postal_code":52253},{"province":"Jawa Tengah","city":"Brebes","district":"Bulakamba","urban":"Bangsri","postal_code":52253}]