[{"province":"Jawa Tengah","city":"Brebes","district":"Banjarharjo","urban":"Tegalreja","postal_code":52265},{"province":"Jawa Tengah","city":"Brebes","district":"Banjarharjo","urban":"Tiwulandu","postal_code":52265},{"province":"Jawa Tengah","city":"Brebes","district":"Banjarharjo","urban":"Sindangheula","postal_code":52265},{"province":"Jawa Tengah","city":"Brebes","district":"Banjarharjo","urban":"Sukareja","postal_code":52265},{"province":"Jawa Tengah","city":"Brebes","district":"Banjarharjo","urban":"Parireja","postal_code":52265},{"province":"Jawa Tengah","city":"Brebes","district":"Banjarharjo","urban":"Penanggapan","postal_code":52265},{"province":"Jawa Tengah","city":"Brebes","district":"Banjarharjo","urban":"Pende","postal_code":52265},{"province":"Jawa Tengah","city":"Brebes","district":"Banjarharjo","urban":"Kubangjero","postal_code":52265},{"province":"Jawa Tengah","city":"Brebes","district":"Banjarharjo","urban":"Malahayu","postal_code":52265},{"province":"Jawa Tengah","city":"Brebes","district":"Banjarharjo","urban":"Kertasari","postal_code":52265},{"province":"Jawa Tengah","city":"Brebes","district":"Banjarharjo","urban":"Cipajang","postal_code":52265},{"province":"Jawa Tengah","city":"Brebes","district":"Banjarharjo","urban":"Dukuhjeruk","postal_code":52265},{"province":"Jawa Tengah","city":"Brebes","district":"Banjarharjo","urban":"Karangmaja","postal_code":52265},{"province":"Jawa Tengah","city":"Brebes","district":"Banjarharjo","urban":"Cikuya","postal_code":52265},{"province":"Jawa Tengah","city":"Brebes","district":"Banjarharjo","urban":"Cimunding","postal_code":52265},{"province":"Jawa Tengah","city":"Brebes","district":"Banjarharjo","urban":"Cikakak","postal_code":52265},{"province":"Jawa Tengah","city":"Brebes","district":"Banjarharjo","urban":"Cihaur","postal_code":52265},{"province":"Jawa Tengah","city":"Brebes","district":"Banjarharjo","urban":"Cibuniwangi","postal_code":52265},{"province":"Jawa Tengah","city":"Brebes","district":"Banjarharjo","urban":"Cigadung","postal_code":52265},{"province":"Jawa Tengah","city":"Brebes","district":"Banjarharjo","urban":"Ciawi","postal_code":52265},{"province":"Jawa Tengah","city":"Brebes","district":"Banjarharjo","urban":"Cibendung","postal_code":52265},{"province":"Jawa Tengah","city":"Brebes","district":"Banjarharjo","urban":"Banjar Lor","postal_code":52265},{"province":"Jawa Tengah","city":"Brebes","district":"Banjarharjo","urban":"Banjarharjo","postal_code":52265},{"province":"Jawa Tengah","city":"Brebes","district":"Banjarharjo","urban":"Blandongan","postal_code":52265},{"province":"Jawa Tengah","city":"Brebes","district":"Banjarharjo","urban":"Bandungsari","postal_code":52265}]