[{"province":"Jawa Tengah","city":"Brebes","district":"Ketanggungan","urban":"Sindangjaya","postal_code":52263},{"province":"Jawa Tengah","city":"Brebes","district":"Ketanggungan","urban":"Tanggungsari","postal_code":52263},{"province":"Jawa Tengah","city":"Brebes","district":"Ketanggungan","urban":"Padakaton","postal_code":52263},{"province":"Jawa Tengah","city":"Brebes","district":"Ketanggungan","urban":"Pamedaran","postal_code":52263},{"province":"Jawa Tengah","city":"Brebes","district":"Ketanggungan","urban":"Kubangwungu","postal_code":52263},{"province":"Jawa Tengah","city":"Brebes","district":"Ketanggungan","urban":"Kubangsari","postal_code":52263},{"province":"Jawa Tengah","city":"Brebes","district":"Ketanggungan","urban":"Ketanggungan","postal_code":52263},{"province":"Jawa Tengah","city":"Brebes","district":"Ketanggungan","urban":"Kubangjati","postal_code":52263},{"province":"Jawa Tengah","city":"Brebes","district":"Ketanggungan","urban":"Karangmalang","postal_code":52263},{"province":"Jawa Tengah","city":"Brebes","district":"Ketanggungan","urban":"Jemasih","postal_code":52263},{"province":"Jawa Tengah","city":"Brebes","district":"Ketanggungan","urban":"Karangbandung","postal_code":52263},{"province":"Jawa Tengah","city":"Brebes","district":"Ketanggungan","urban":"Dukuh Tengah","postal_code":52263},{"province":"Jawa Tengah","city":"Brebes","district":"Ketanggungan","urban":"Dukuhbadag","postal_code":52263},{"province":"Jawa Tengah","city":"Brebes","district":"Ketanggungan","urban":"Dukuhturi","postal_code":52263},{"province":"Jawa Tengah","city":"Brebes","district":"Ketanggungan","urban":"Cikeusal Lor","postal_code":52263},{"province":"Jawa Tengah","city":"Brebes","district":"Ketanggungan","urban":"Ciseureuh","postal_code":52263},{"province":"Jawa Tengah","city":"Brebes","district":"Ketanggungan","urban":"Cikeusal Kidul","postal_code":52263},{"province":"Jawa Tengah","city":"Brebes","district":"Ketanggungan","urban":"Bulakelor","postal_code":52263},{"province":"Jawa Tengah","city":"Brebes","district":"Ketanggungan","urban":"Ciduwet","postal_code":52263},{"province":"Jawa Tengah","city":"Brebes","district":"Ketanggungan","urban":"Baros","postal_code":52263},{"province":"Jawa Tengah","city":"Brebes","district":"Ketanggungan","urban":"Buara","postal_code":52263}]