[{"province":"Jawa Tengah","city":"Brebes","district":"Paguyangan","urban":"Winduaji","postal_code":52276},{"province":"Jawa Tengah","city":"Brebes","district":"Paguyangan","urban":"Taraban","postal_code":52276},{"province":"Jawa Tengah","city":"Brebes","district":"Paguyangan","urban":"Wanatirta","postal_code":52276},{"province":"Jawa Tengah","city":"Brebes","district":"Paguyangan","urban":"Ragatunjung","postal_code":52276},{"province":"Jawa Tengah","city":"Brebes","district":"Paguyangan","urban":"Paguyangan","postal_code":52276},{"province":"Jawa Tengah","city":"Brebes","district":"Paguyangan","urban":"Pakujati","postal_code":52276},{"province":"Jawa Tengah","city":"Brebes","district":"Paguyangan","urban":"Pandansari","postal_code":52276},{"province":"Jawa Tengah","city":"Brebes","district":"Paguyangan","urban":"Kretek","postal_code":52276},{"province":"Jawa Tengah","city":"Brebes","district":"Paguyangan","urban":"Pagojengan","postal_code":52276},{"province":"Jawa Tengah","city":"Brebes","district":"Paguyangan","urban":"Cipetung","postal_code":52276},{"province":"Jawa Tengah","city":"Brebes","district":"Paguyangan","urban":"Kedungoleng","postal_code":52276},{"province":"Jawa Tengah","city":"Brebes","district":"Paguyangan","urban":"Cilibur","postal_code":52276}]