[{"province":"Jawa Tengah","city":"Brebes","district":"Tonjong","urban":"Watujaya","postal_code":52271},{"province":"Jawa Tengah","city":"Brebes","district":"Tonjong","urban":"Tanggeran","postal_code":52271},{"province":"Jawa Tengah","city":"Brebes","district":"Tonjong","urban":"Tonjong","postal_code":52271},{"province":"Jawa Tengah","city":"Brebes","district":"Tonjong","urban":"Purbayasa","postal_code":52271},{"province":"Jawa Tengah","city":"Brebes","district":"Tonjong","urban":"Purwodadi","postal_code":52271},{"province":"Jawa Tengah","city":"Brebes","district":"Tonjong","urban":"Rajawetan","postal_code":52271},{"province":"Jawa Tengah","city":"Brebes","district":"Tonjong","urban":"Negarayu","postal_code":52271},{"province":"Jawa Tengah","city":"Brebes","district":"Tonjong","urban":"Pepedan","postal_code":52271},{"province":"Jawa Tengah","city":"Brebes","district":"Tonjong","urban":"Kutayu","postal_code":52271},{"province":"Jawa Tengah","city":"Brebes","district":"Tonjong","urban":"Linggapura","postal_code":52271},{"province":"Jawa Tengah","city":"Brebes","district":"Tonjong","urban":"Kutamendala","postal_code":52271},{"province":"Jawa Tengah","city":"Brebes","district":"Tonjong","urban":"Kalijurang","postal_code":52271},{"province":"Jawa Tengah","city":"Brebes","district":"Tonjong","urban":"Karangjongkeng","postal_code":52271},{"province":"Jawa Tengah","city":"Brebes","district":"Tonjong","urban":"Galuh Timur","postal_code":52271}]