[{"province":"Jawa Tengah","city":"Pemalang","district":"Moga","urban":"Wangkelang","postal_code":52354},{"province":"Jawa Tengah","city":"Pemalang","district":"Warungpring","urban":"Warungpring","postal_code":52354},{"province":"Jawa Tengah","city":"Pemalang","district":"Moga","urban":"Sima","postal_code":52354},{"province":"Jawa Tengah","city":"Pemalang","district":"Moga","urban":"Walangsanga","postal_code":52354},{"province":"Jawa Tengah","city":"Pemalang","district":"Moga","urban":"Pepedan","postal_code":52354},{"province":"Jawa Tengah","city":"Pemalang","district":"Moga","urban":"Plakaran","postal_code":52354},{"province":"Jawa Tengah","city":"Pemalang","district":"Moga","urban":"Moga","postal_code":52354},{"province":"Jawa Tengah","city":"Pemalang","district":"Warungpring","urban":"Mereng","postal_code":52354},{"province":"Jawa Tengah","city":"Pemalang","district":"Warungpring","urban":"Pakembaran","postal_code":52354},{"province":"Jawa Tengah","city":"Pemalang","district":"Moga","urban":"Kebanggan","postal_code":52354},{"province":"Jawa Tengah","city":"Pemalang","district":"Moga","urban":"Mandiraja","postal_code":52354},{"province":"Jawa Tengah","city":"Pemalang","district":"Warungpring","urban":"Datar","postal_code":52354},{"province":"Jawa Tengah","city":"Pemalang","district":"Warungpring","urban":"Karangdawa","postal_code":52354},{"province":"Jawa Tengah","city":"Pemalang","district":"Moga","urban":"Gendowang","postal_code":52354},{"province":"Jawa Tengah","city":"Pemalang","district":"Warungpring","urban":"Cibuyur","postal_code":52354},{"province":"Jawa Tengah","city":"Pemalang","district":"Moga","urban":"Banyumudal","postal_code":52354}]