[{"province":"Jawa Tengah","city":"Pemalang","district":"Comal","urban":"Tumbal","postal_code":52363},{"province":"Jawa Tengah","city":"Pemalang","district":"Comal","urban":"Wonokromo","postal_code":52363},{"province":"Jawa Tengah","city":"Pemalang","district":"Comal","urban":"Sidorejo","postal_code":52363},{"province":"Jawa Tengah","city":"Pemalang","district":"Comal","urban":"Sikayu","postal_code":52363},{"province":"Jawa Tengah","city":"Pemalang","district":"Comal","urban":"Susukan","postal_code":52363},{"province":"Jawa Tengah","city":"Pemalang","district":"Comal","urban":"Purwoharjo","postal_code":52363},{"province":"Jawa Tengah","city":"Pemalang","district":"Comal","urban":"Purwosari","postal_code":52363},{"province":"Jawa Tengah","city":"Pemalang","district":"Comal","urban":"Sarwodadi","postal_code":52363},{"province":"Jawa Tengah","city":"Pemalang","district":"Comal","urban":"Lowa","postal_code":52363},{"province":"Jawa Tengah","city":"Pemalang","district":"Comal","urban":"Pecangakan","postal_code":52363},{"province":"Jawa Tengah","city":"Pemalang","district":"Comal","urban":"Kauman","postal_code":52363},{"province":"Jawa Tengah","city":"Pemalang","district":"Comal","urban":"Kebojongan","postal_code":52363},{"province":"Jawa Tengah","city":"Pemalang","district":"Comal","urban":"Klegen","postal_code":52363},{"province":"Jawa Tengah","city":"Pemalang","district":"Comal","urban":"Gintung","postal_code":52363},{"province":"Jawa Tengah","city":"Pemalang","district":"Comal","urban":"Kandang","postal_code":52363},{"province":"Jawa Tengah","city":"Pemalang","district":"Comal","urban":"Ambokulon","postal_code":52363},{"province":"Jawa Tengah","city":"Pemalang","district":"Comal","urban":"Gandu","postal_code":52363},{"province":"Jawa Tengah","city":"Pemalang","district":"Comal","urban":"Gedeg","postal_code":52363}]