[{"province":"Jawa Tengah","city":"Pemalang","district":"Ampelgading","urban":"Wonogiri","postal_code":52364},{"province":"Jawa Tengah","city":"Pemalang","district":"Ampelgading","urban":"Tegalsari Timur","postal_code":52364},{"province":"Jawa Tengah","city":"Pemalang","district":"Ampelgading","urban":"Ujunggede","postal_code":52364},{"province":"Jawa Tengah","city":"Pemalang","district":"Ampelgading","urban":"Sokawati","postal_code":52364},{"province":"Jawa Tengah","city":"Pemalang","district":"Ampelgading","urban":"Tegalsari Barat","postal_code":52364},{"province":"Jawa Tengah","city":"Pemalang","district":"Ampelgading","urban":"Kemuning","postal_code":52364},{"province":"Jawa Tengah","city":"Pemalang","district":"Ampelgading","urban":"Losari","postal_code":52364},{"province":"Jawa Tengah","city":"Pemalang","district":"Ampelgading","urban":"Sidokare","postal_code":52364},{"province":"Jawa Tengah","city":"Pemalang","district":"Ampelgading","urban":"Karangtengah","postal_code":52364},{"province":"Jawa Tengah","city":"Pemalang","district":"Ampelgading","urban":"Kebagusan","postal_code":52364},{"province":"Jawa Tengah","city":"Pemalang","district":"Ampelgading","urban":"Cibiyuk","postal_code":52364},{"province":"Jawa Tengah","city":"Pemalang","district":"Ampelgading","urban":"Jatirejo","postal_code":52364},{"province":"Jawa Tengah","city":"Pemalang","district":"Ampelgading","urban":"Karangtalok","postal_code":52364},{"province":"Jawa Tengah","city":"Pemalang","district":"Ampelgading","urban":"Blimbing","postal_code":52364},{"province":"Jawa Tengah","city":"Pemalang","district":"Ampelgading","urban":"Ampelgading","postal_code":52364},{"province":"Jawa Tengah","city":"Pemalang","district":"Ampelgading","urban":"Banglarangan","postal_code":52364}]