[{"province":"Jawa Tengah","city":"Pemalang","district":"Taman","urban":"Wanarejan Selatan","postal_code":52361},{"province":"Jawa Tengah","city":"Pemalang","district":"Taman","urban":"Wanarejan Utara","postal_code":52361},{"province":"Jawa Tengah","city":"Pemalang","district":"Taman","urban":"Sokawangi","postal_code":52361},{"province":"Jawa Tengah","city":"Pemalang","district":"Taman","urban":"Taman","postal_code":52361},{"province":"Jawa Tengah","city":"Pemalang","district":"Taman","urban":"Penggarit","postal_code":52361},{"province":"Jawa Tengah","city":"Pemalang","district":"Taman","urban":"Sitemu","postal_code":52361},{"province":"Jawa Tengah","city":"Pemalang","district":"Taman","urban":"Pener","postal_code":52361},{"province":"Jawa Tengah","city":"Pemalang","district":"Taman","urban":"Pedurungan","postal_code":52361},{"province":"Jawa Tengah","city":"Pemalang","district":"Taman","urban":"Kedungbanjar","postal_code":52361},{"province":"Jawa Tengah","city":"Pemalang","district":"Taman","urban":"Kejambon","postal_code":52361},{"province":"Jawa Tengah","city":"Pemalang","district":"Taman","urban":"Jrakah","postal_code":52361},{"province":"Jawa Tengah","city":"Pemalang","district":"Taman","urban":"Kabunan","postal_code":52361},{"province":"Jawa Tengah","city":"Pemalang","district":"Taman","urban":"Kaligelang","postal_code":52361},{"province":"Jawa Tengah","city":"Pemalang","district":"Taman","urban":"Jebed Selatan","postal_code":52361},{"province":"Jawa Tengah","city":"Pemalang","district":"Taman","urban":"Jebed Utara","postal_code":52361},{"province":"Jawa Tengah","city":"Pemalang","district":"Taman","urban":"Gondang","postal_code":52361},{"province":"Jawa Tengah","city":"Pemalang","district":"Taman","urban":"Beji","postal_code":52361},{"province":"Jawa Tengah","city":"Pemalang","district":"Taman","urban":"Cibelok","postal_code":52361},{"province":"Jawa Tengah","city":"Pemalang","district":"Taman","urban":"Asemdoyong","postal_code":52361},{"province":"Jawa Tengah","city":"Pemalang","district":"Taman","urban":"Banjaran","postal_code":52361},{"province":"Jawa Tengah","city":"Pemalang","district":"Taman","urban":"Banjardawa","postal_code":52361}]