[{"province":"Jawa Tengah","city":"Tegal","district":"Dukuhwaru","urban":"Selapura","postal_code":52451},{"province":"Jawa Tengah","city":"Tegal","district":"Dukuhwaru","urban":"Sindang","postal_code":52451},{"province":"Jawa Tengah","city":"Tegal","district":"Dukuhwaru","urban":"Slarang Lor","postal_code":52451},{"province":"Jawa Tengah","city":"Tegal","district":"Dukuhwaru","urban":"Kalisoka","postal_code":52451},{"province":"Jawa Tengah","city":"Tegal","district":"Dukuhwaru","urban":"Pedagangan","postal_code":52451},{"province":"Jawa Tengah","city":"Tegal","district":"Dukuhwaru","urban":"Gumayun","postal_code":52451},{"province":"Jawa Tengah","city":"Tegal","district":"Dukuhwaru","urban":"Kabunan","postal_code":52451},{"province":"Jawa Tengah","city":"Tegal","district":"Dukuhwaru","urban":"Bulakpacing","postal_code":52451},{"province":"Jawa Tengah","city":"Tegal","district":"Dukuhwaru","urban":"Dukuhwaru","postal_code":52451},{"province":"Jawa Tengah","city":"Tegal","district":"Dukuhwaru","urban":"Blubuk","postal_code":52451}]