[{"province":"Jawa Tengah","city":"Tegal","district":"Margasari","urban":"Prupuk Utara","postal_code":52463},{"province":"Jawa Tengah","city":"Tegal","district":"Margasari","urban":"Wanasari","postal_code":52463},{"province":"Jawa Tengah","city":"Tegal","district":"Margasari","urban":"Pakulaut","postal_code":52463},{"province":"Jawa Tengah","city":"Tegal","district":"Margasari","urban":"Prupuk Selatan","postal_code":52463},{"province":"Jawa Tengah","city":"Tegal","district":"Margasari","urban":"Marga Ayu","postal_code":52463},{"province":"Jawa Tengah","city":"Tegal","district":"Margasari","urban":"Margasari","postal_code":52463},{"province":"Jawa Tengah","city":"Tegal","district":"Margasari","urban":"Kalisalak","postal_code":52463},{"province":"Jawa Tengah","city":"Tegal","district":"Margasari","urban":"Karangdawa","postal_code":52463},{"province":"Jawa Tengah","city":"Tegal","district":"Margasari","urban":"Jembayat","postal_code":52463},{"province":"Jawa Tengah","city":"Tegal","district":"Margasari","urban":"Kaligayam","postal_code":52463},{"province":"Jawa Tengah","city":"Tegal","district":"Margasari","urban":"Dukuh Tengah","postal_code":52463},{"province":"Jawa Tengah","city":"Tegal","district":"Margasari","urban":"Jatilaba","postal_code":52463},{"province":"Jawa Tengah","city":"Tegal","district":"Margasari","urban":"Danaraja","postal_code":52463}]