[{"province":"Jawa Tengah","city":"Banyumas","district":"Karanglewas","urban":"Tamansari","postal_code":53161},{"province":"Jawa Tengah","city":"Banyumas","district":"Karanglewas","urban":"Pasir Wetan","postal_code":53161},{"province":"Jawa Tengah","city":"Banyumas","district":"Karanglewas","urban":"Singasari","postal_code":53161},{"province":"Jawa Tengah","city":"Banyumas","district":"Karanglewas","urban":"Sunyalangu","postal_code":53161},{"province":"Jawa Tengah","city":"Banyumas","district":"Karanglewas","urban":"Pasir Kulon","postal_code":53161},{"province":"Jawa Tengah","city":"Banyumas","district":"Karanglewas","urban":"Pasir Lor","postal_code":53161},{"province":"Jawa Tengah","city":"Banyumas","district":"Karanglewas","urban":"Kediri","postal_code":53161},{"province":"Jawa Tengah","city":"Banyumas","district":"Karanglewas","urban":"Pangebatan (Pengebatan)","postal_code":53161},{"province":"Jawa Tengah","city":"Banyumas","district":"Karanglewas","urban":"Karangkemiri","postal_code":53161},{"province":"Jawa Tengah","city":"Banyumas","district":"Karanglewas","urban":"Karanglewas Kidul","postal_code":53161},{"province":"Jawa Tengah","city":"Banyumas","district":"Karanglewas","urban":"Jipang","postal_code":53161},{"province":"Jawa Tengah","city":"Banyumas","district":"Karanglewas","urban":"Karanggude Kulon","postal_code":53161},{"province":"Jawa Tengah","city":"Banyumas","district":"Karanglewas","urban":"Babakan","postal_code":53161}]