[{"province":"Jawa Tengah","city":"Banyumas","district":"Purwojati","urban":"Purwojati","postal_code":53175},{"province":"Jawa Tengah","city":"Banyumas","district":"Purwojati","urban":"Karangtalun Kidul","postal_code":53175},{"province":"Jawa Tengah","city":"Banyumas","district":"Purwojati","urban":"Karangtalun Lor","postal_code":53175},{"province":"Jawa Tengah","city":"Banyumas","district":"Purwojati","urban":"Klapasawit","postal_code":53175},{"province":"Jawa Tengah","city":"Banyumas","district":"Purwojati","urban":"Kaliwangi","postal_code":53175},{"province":"Jawa Tengah","city":"Banyumas","district":"Purwojati","urban":"Karangmangu","postal_code":53175},{"province":"Jawa Tengah","city":"Banyumas","district":"Purwojati","urban":"Kalitapen","postal_code":53175},{"province":"Jawa Tengah","city":"Banyumas","district":"Purwojati","urban":"Kaliurip","postal_code":53175},{"province":"Jawa Tengah","city":"Banyumas","district":"Purwojati","urban":"Gerduren","postal_code":53175},{"province":"Jawa Tengah","city":"Banyumas","district":"Purwojati","urban":"Kaliputih","postal_code":53175}]