[{"province":"Jawa Tengah","city":"Banyumas","district":"Patikraja","urban":"Wlahar Kulon","postal_code":53171},{"province":"Jawa Tengah","city":"Banyumas","district":"Patikraja","urban":"Sidabowa","postal_code":53171},{"province":"Jawa Tengah","city":"Banyumas","district":"Patikraja","urban":"Sokawera Kidul","postal_code":53171},{"province":"Jawa Tengah","city":"Banyumas","district":"Patikraja","urban":"Sawangan Wetan","postal_code":53171},{"province":"Jawa Tengah","city":"Banyumas","district":"Patikraja","urban":"Patikraja","postal_code":53171},{"province":"Jawa Tengah","city":"Banyumas","district":"Patikraja","urban":"Pegalongan","postal_code":53171},{"province":"Jawa Tengah","city":"Banyumas","district":"Patikraja","urban":"Kedungwuluh Kidul","postal_code":53171},{"province":"Jawa Tengah","city":"Banyumas","district":"Patikraja","urban":"Kedungwuluh Lor","postal_code":53171},{"province":"Jawa Tengah","city":"Banyumas","district":"Patikraja","urban":"Notog","postal_code":53171},{"province":"Jawa Tengah","city":"Banyumas","district":"Patikraja","urban":"Kedungwringin","postal_code":53171},{"province":"Jawa Tengah","city":"Banyumas","district":"Patikraja","urban":"Karangendep","postal_code":53171},{"province":"Jawa Tengah","city":"Banyumas","district":"Patikraja","urban":"Kedungrandu","postal_code":53171},{"province":"Jawa Tengah","city":"Banyumas","district":"Patikraja","urban":"Karanganyar","postal_code":53171}]