[{"province":"Jawa Tengah","city":"Banyumas","district":"Tambak","urban":"Purwodadi","postal_code":53196},{"province":"Jawa Tengah","city":"Banyumas","district":"Tambak","urban":"Watuagung","postal_code":53196},{"province":"Jawa Tengah","city":"Banyumas","district":"Tambak","urban":"Plangkapan","postal_code":53196},{"province":"Jawa Tengah","city":"Banyumas","district":"Tambak","urban":"Prembun","postal_code":53196},{"province":"Jawa Tengah","city":"Banyumas","district":"Tambak","urban":"Pesantren","postal_code":53196},{"province":"Jawa Tengah","city":"Banyumas","district":"Tambak","urban":"Karangpetir","postal_code":53196},{"province":"Jawa Tengah","city":"Banyumas","district":"Tambak","urban":"Karangpucung","postal_code":53196},{"province":"Jawa Tengah","city":"Banyumas","district":"Tambak","urban":"Gumelar Lor","postal_code":53196},{"province":"Jawa Tengah","city":"Banyumas","district":"Tambak","urban":"Kamulyan","postal_code":53196},{"province":"Jawa Tengah","city":"Banyumas","district":"Tambak","urban":"Gebangsari","postal_code":53196},{"province":"Jawa Tengah","city":"Banyumas","district":"Tambak","urban":"Gumelar Kidul","postal_code":53196},{"province":"Jawa Tengah","city":"Banyumas","district":"Tambak","urban":"Buniayu","postal_code":53196}]