[{"province":"Jawa Tengah","city":"Cilacap","district":"Majenang","urban":"Sindangsari","postal_code":53257},{"province":"Jawa Tengah","city":"Cilacap","district":"Majenang","urban":"Ujungbarang","postal_code":53257},{"province":"Jawa Tengah","city":"Cilacap","district":"Majenang","urban":"Sadahayu","postal_code":53257},{"province":"Jawa Tengah","city":"Cilacap","district":"Majenang","urban":"Salebu","postal_code":53257},{"province":"Jawa Tengah","city":"Cilacap","district":"Majenang","urban":"Sepatnunggal","postal_code":53257},{"province":"Jawa Tengah","city":"Cilacap","district":"Majenang","urban":"Pahonjean","postal_code":53257},{"province":"Jawa Tengah","city":"Cilacap","district":"Majenang","urban":"Pengadegan","postal_code":53257},{"province":"Jawa Tengah","city":"Cilacap","district":"Majenang","urban":"Sadabumi","postal_code":53257},{"province":"Jawa Tengah","city":"Cilacap","district":"Majenang","urban":"Padangjaya","postal_code":53257},{"province":"Jawa Tengah","city":"Cilacap","district":"Majenang","urban":"Padangsari","postal_code":53257},{"province":"Jawa Tengah","city":"Cilacap","district":"Majenang","urban":"Mulyadadi","postal_code":53257},{"province":"Jawa Tengah","city":"Cilacap","district":"Majenang","urban":"Mulyasari","postal_code":53257},{"province":"Jawa Tengah","city":"Cilacap","district":"Majenang","urban":"Cilopadang","postal_code":53257},{"province":"Jawa Tengah","city":"Cilacap","district":"Majenang","urban":"Jenang","postal_code":53257},{"province":"Jawa Tengah","city":"Cilacap","district":"Majenang","urban":"Bener","postal_code":53257},{"province":"Jawa Tengah","city":"Cilacap","district":"Majenang","urban":"Boja","postal_code":53257},{"province":"Jawa Tengah","city":"Cilacap","district":"Majenang","urban":"Cibeunying","postal_code":53257}]