[{"province":"Jawa Tengah","city":"Cilacap","district":"Kawunganten","urban":"Ujungmanik","postal_code":53253},{"province":"Jawa Tengah","city":"Cilacap","district":"Kampung Laut","urban":"Ujunggagak","postal_code":53253},{"province":"Jawa Tengah","city":"Cilacap","district":"Kampung Laut","urban":"Ujungalang","postal_code":53253},{"province":"Jawa Tengah","city":"Cilacap","district":"Kawunganten","urban":"Sidaurip","postal_code":53253},{"province":"Jawa Tengah","city":"Cilacap","district":"Kawunganten","urban":"Sarwadadi","postal_code":53253},{"province":"Jawa Tengah","city":"Cilacap","district":"Kampung Laut","urban":"Panikel","postal_code":53253},{"province":"Jawa Tengah","city":"Cilacap","district":"Kawunganten","urban":"Mentasan","postal_code":53253},{"province":"Jawa Tengah","city":"Cilacap","district":"Kawunganten","urban":"Kubangkangkung","postal_code":53253},{"province":"Jawa Tengah","city":"Cilacap","district":"Kampung Laut","urban":"Klaces","postal_code":53253},{"province":"Jawa Tengah","city":"Cilacap","district":"Kawunganten","urban":"Kawunganten Lor","postal_code":53253},{"province":"Jawa Tengah","city":"Cilacap","district":"Kawunganten","urban":"Kawunganten","postal_code":53253},{"province":"Jawa Tengah","city":"Cilacap","district":"Kawunganten","urban":"Kalijeruk","postal_code":53253},{"province":"Jawa Tengah","city":"Cilacap","district":"Kawunganten","urban":"Grugu","postal_code":53253},{"province":"Jawa Tengah","city":"Cilacap","district":"Kawunganten","urban":"Bringkeng","postal_code":53253},{"province":"Jawa Tengah","city":"Cilacap","district":"Kawunganten","urban":"Bojong","postal_code":53253},{"province":"Jawa Tengah","city":"Cilacap","district":"Kawunganten","urban":"Babakan","postal_code":53253}]