[{"province":"Jawa Tengah","city":"Cilacap","district":"Cimanggu","urban":"Pesahangan","postal_code":53256},{"province":"Jawa Tengah","city":"Cilacap","district":"Cimanggu","urban":"Rejodadi","postal_code":53256},{"province":"Jawa Tengah","city":"Cilacap","district":"Cimanggu","urban":"Negarajati","postal_code":53256},{"province":"Jawa Tengah","city":"Cilacap","district":"Cimanggu","urban":"Panimbang","postal_code":53256},{"province":"Jawa Tengah","city":"Cilacap","district":"Cimanggu","urban":"Mandala","postal_code":53256},{"province":"Jawa Tengah","city":"Cilacap","district":"Cimanggu","urban":"Karangsari","postal_code":53256},{"province":"Jawa Tengah","city":"Cilacap","district":"Cimanggu","urban":"Kutabima","postal_code":53256},{"province":"Jawa Tengah","city":"Cilacap","district":"Cimanggu","urban":"Cisalak","postal_code":53256},{"province":"Jawa Tengah","city":"Cilacap","district":"Cimanggu","urban":"Karangreja","postal_code":53256},{"province":"Jawa Tengah","city":"Cilacap","district":"Cimanggu","urban":"Cilempuyang","postal_code":53256},{"province":"Jawa Tengah","city":"Cilacap","district":"Cimanggu","urban":"Cimanggu","postal_code":53256},{"province":"Jawa Tengah","city":"Cilacap","district":"Cimanggu","urban":"Cibalung","postal_code":53256},{"province":"Jawa Tengah","city":"Cilacap","district":"Cimanggu","urban":"Cijati","postal_code":53256},{"province":"Jawa Tengah","city":"Cilacap","district":"Cimanggu","urban":"Bantarmangu","postal_code":53256},{"province":"Jawa Tengah","city":"Cilacap","district":"Cimanggu","urban":"Bantarpanjang","postal_code":53256}]