[{"province":"Jawa Tengah","city":"Cilacap","district":"Kedungreja","urban":"Tambaksari","postal_code":53263},{"province":"Jawa Tengah","city":"Cilacap","district":"Kedungreja","urban":"Sidanegara","postal_code":53263},{"province":"Jawa Tengah","city":"Cilacap","district":"Kedungreja","urban":"Tambakreja","postal_code":53263},{"province":"Jawa Tengah","city":"Cilacap","district":"Kedungreja","urban":"Kaliwungu","postal_code":53263},{"province":"Jawa Tengah","city":"Cilacap","district":"Kedungreja","urban":"Kedungreja","postal_code":53263},{"province":"Jawa Tengah","city":"Cilacap","district":"Kedungreja","urban":"Rejamulya","postal_code":53263},{"province":"Jawa Tengah","city":"Cilacap","district":"Kedungreja","urban":"Bumireja","postal_code":53263},{"province":"Jawa Tengah","city":"Cilacap","district":"Kedungreja","urban":"Ciklapa","postal_code":53263},{"province":"Jawa Tengah","city":"Cilacap","district":"Kedungreja","urban":"Jatisari","postal_code":53263},{"province":"Jawa Tengah","city":"Cilacap","district":"Kedungreja","urban":"Bangunreja","postal_code":53263},{"province":"Jawa Tengah","city":"Cilacap","district":"Kedungreja","urban":"Bojongsari","postal_code":53263}]