[{"province":"Jawa Tengah","city":"Cilacap","district":"Sidareja","urban":"Sudagaran","postal_code":53261},{"province":"Jawa Tengah","city":"Cilacap","district":"Sidareja","urban":"Tegalsari","postal_code":53261},{"province":"Jawa Tengah","city":"Cilacap","district":"Sidareja","urban":"Tinggarjaya","postal_code":53261},{"province":"Jawa Tengah","city":"Cilacap","district":"Sidareja","urban":"Sidamulya","postal_code":53261},{"province":"Jawa Tengah","city":"Cilacap","district":"Sidareja","urban":"Sidareja","postal_code":53261},{"province":"Jawa Tengah","city":"Cilacap","district":"Sidareja","urban":"Margasari","postal_code":53261},{"province":"Jawa Tengah","city":"Cilacap","district":"Sidareja","urban":"Penyarang","postal_code":53261},{"province":"Jawa Tengah","city":"Cilacap","district":"Sidareja","urban":"Kunci","postal_code":53261},{"province":"Jawa Tengah","city":"Cilacap","district":"Sidareja","urban":"Gunungreja","postal_code":53261},{"province":"Jawa Tengah","city":"Cilacap","district":"Sidareja","urban":"Karanggedang","postal_code":53261}]