[{"province":"Jawa Tengah","city":"Cilacap","district":"Cipari","urban":"Segaralangu","postal_code":53262},{"province":"Jawa Tengah","city":"Cilacap","district":"Cipari","urban":"Serang","postal_code":53262},{"province":"Jawa Tengah","city":"Cilacap","district":"Cipari","urban":"Sidasari","postal_code":53262},{"province":"Jawa Tengah","city":"Cilacap","district":"Cipari","urban":"Mulyadadi","postal_code":53262},{"province":"Jawa Tengah","city":"Cilacap","district":"Cipari","urban":"Pegadingan","postal_code":53262},{"province":"Jawa Tengah","city":"Cilacap","district":"Cipari","urban":"Cisuru","postal_code":53262},{"province":"Jawa Tengah","city":"Cilacap","district":"Cipari","urban":"Karangreja","postal_code":53262},{"province":"Jawa Tengah","city":"Cilacap","district":"Cipari","urban":"Kutasari","postal_code":53262},{"province":"Jawa Tengah","city":"Cilacap","district":"Cipari","urban":"Mekarsari","postal_code":53262},{"province":"Jawa Tengah","city":"Cilacap","district":"Cipari","urban":"Caruy","postal_code":53262},{"province":"Jawa Tengah","city":"Cilacap","district":"Cipari","urban":"Cipari","postal_code":53262}]