[{"province":"Jawa Tengah","city":"Cilacap","district":"Adipala","urban":"Wlahar","postal_code":53271},{"province":"Jawa Tengah","city":"Cilacap","district":"Adipala","urban":"Penggalang","postal_code":53271},{"province":"Jawa Tengah","city":"Cilacap","district":"Adipala","urban":"Welahan Wetan","postal_code":53271},{"province":"Jawa Tengah","city":"Cilacap","district":"Adipala","urban":"Karangsari","postal_code":53271},{"province":"Jawa Tengah","city":"Cilacap","district":"Adipala","urban":"Pedasong","postal_code":53271},{"province":"Jawa Tengah","city":"Cilacap","district":"Adipala","urban":"Kalikudi","postal_code":53271},{"province":"Jawa Tengah","city":"Cilacap","district":"Adipala","urban":"Karanganyar","postal_code":53271},{"province":"Jawa Tengah","city":"Cilacap","district":"Adipala","urban":"Karangbenda","postal_code":53271},{"province":"Jawa Tengah","city":"Cilacap","district":"Adipala","urban":"Gombolharjo","postal_code":53271},{"province":"Jawa Tengah","city":"Cilacap","district":"Adipala","urban":"Bunton","postal_code":53271},{"province":"Jawa Tengah","city":"Cilacap","district":"Adipala","urban":"Doplang","postal_code":53271},{"province":"Jawa Tengah","city":"Cilacap","district":"Adipala","urban":"Glempangpasir","postal_code":53271},{"province":"Jawa Tengah","city":"Cilacap","district":"Adipala","urban":"Adiraja","postal_code":53271},{"province":"Jawa Tengah","city":"Cilacap","district":"Adipala","urban":"Adireja Kulon","postal_code":53271},{"province":"Jawa Tengah","city":"Cilacap","district":"Adipala","urban":"Adireja Wetan","postal_code":53271},{"province":"Jawa Tengah","city":"Cilacap","district":"Adipala","urban":"Adipala","postal_code":53271}]