[{"province":"Jawa Tengah","city":"Purbalingga","district":"Karanganyar","urban":"Ponjen","postal_code":53354},{"province":"Jawa Tengah","city":"Purbalingga","district":"Karanganyar","urban":"Maribaya","postal_code":53354},{"province":"Jawa Tengah","city":"Purbalingga","district":"Kertanegara","urban":"Margasana (Mergasana)","postal_code":53354},{"province":"Jawa Tengah","city":"Purbalingga","district":"Kertanegara","urban":"Langkap","postal_code":53354},{"province":"Jawa Tengah","city":"Purbalingga","district":"Karanganyar","urban":"Lumpang","postal_code":53354},{"province":"Jawa Tengah","city":"Purbalingga","district":"Kertanegara","urban":"Krangean","postal_code":53354},{"province":"Jawa Tengah","city":"Purbalingga","district":"Kertanegara","urban":"Kasih","postal_code":53354},{"province":"Jawa Tengah","city":"Purbalingga","district":"Kertanegara","urban":"Kertanegara","postal_code":53354},{"province":"Jawa Tengah","city":"Purbalingga","district":"Kertanegara","urban":"Karangpucung","postal_code":53354},{"province":"Jawa Tengah","city":"Purbalingga","district":"Kertanegara","urban":"Karangasem","postal_code":53354},{"province":"Jawa Tengah","city":"Purbalingga","district":"Karanganyar","urban":"Karanggedang","postal_code":53354},{"province":"Jawa Tengah","city":"Purbalingga","district":"Kertanegara","urban":"Karang Tengah","postal_code":53354},{"province":"Jawa Tengah","city":"Purbalingga","district":"Karanganyar","urban":"Karanganyar","postal_code":53354},{"province":"Jawa Tengah","city":"Purbalingga","district":"Karanganyar","urban":"Kalijaran","postal_code":53354},{"province":"Jawa Tengah","city":"Purbalingga","district":"Karanganyar","urban":"Kaliori","postal_code":53354},{"province":"Jawa Tengah","city":"Purbalingga","district":"Karanganyar","urban":"Jambudesa","postal_code":53354},{"province":"Jawa Tengah","city":"Purbalingga","district":"Karanganyar","urban":"Kabunderan","postal_code":53354},{"province":"Jawa Tengah","city":"Purbalingga","district":"Kertanegara","urban":"Darma","postal_code":53354},{"province":"Jawa Tengah","city":"Purbalingga","district":"Karanganyar","urban":"Bungkanel","postal_code":53354},{"province":"Jawa Tengah","city":"Purbalingga","district":"Kertanegara","urban":"Condong","postal_code":53354},{"province":"Jawa Tengah","city":"Purbalingga","district":"Karanganyar","urban":"Brakas","postal_code":53354},{"province":"Jawa Tengah","city":"Purbalingga","district":"Karanganyar","urban":"Buara","postal_code":53354},{"province":"Jawa Tengah","city":"Purbalingga","district":"Karanganyar","urban":"Banjarkerta","postal_code":53354},{"province":"Jawa Tengah","city":"Purbalingga","district":"Kertanegara","urban":"Adiarsa","postal_code":53354}]