[{"province":"Jawa Tengah","city":"Purbalingga","district":"Karangreja","urban":"Tlahab Lor","postal_code":53357},{"province":"Jawa Tengah","city":"Purbalingga","district":"Karangreja","urban":"Siwarak","postal_code":53357},{"province":"Jawa Tengah","city":"Purbalingga","district":"Karangreja","urban":"Tlahab Kidul","postal_code":53357},{"province":"Jawa Tengah","city":"Purbalingga","district":"Karangjambu","urban":"Sirandu","postal_code":53357},{"province":"Jawa Tengah","city":"Purbalingga","district":"Karangreja","urban":"Serang","postal_code":53357},{"province":"Jawa Tengah","city":"Purbalingga","district":"Karangjambu","urban":"Purbasari","postal_code":53357},{"province":"Jawa Tengah","city":"Purbalingga","district":"Karangjambu","urban":"Sanguwatang","postal_code":53357},{"province":"Jawa Tengah","city":"Purbalingga","district":"Karangreja","urban":"Kutabawa","postal_code":53357},{"province":"Jawa Tengah","city":"Purbalingga","district":"Karangjambu","urban":"Karangjambu","postal_code":53357},{"province":"Jawa Tengah","city":"Purbalingga","district":"Karangreja","urban":"Karangreja","postal_code":53357},{"province":"Jawa Tengah","city":"Purbalingga","district":"Karangjambu","urban":"Jingkang","postal_code":53357},{"province":"Jawa Tengah","city":"Purbalingga","district":"Karangreja","urban":"Gondang","postal_code":53357},{"province":"Jawa Tengah","city":"Purbalingga","district":"Karangjambu","urban":"Danasari","postal_code":53357}]