[{"province":"Jawa Tengah","city":"Purbalingga","district":"Kutasari","urban":"Sumingkir","postal_code":53361},{"province":"Jawa Tengah","city":"Purbalingga","district":"Kutasari","urban":"Meri","postal_code":53361},{"province":"Jawa Tengah","city":"Purbalingga","district":"Kutasari","urban":"Munjul","postal_code":53361},{"province":"Jawa Tengah","city":"Purbalingga","district":"Kutasari","urban":"Limbangan","postal_code":53361},{"province":"Jawa Tengah","city":"Purbalingga","district":"Kutasari","urban":"Kutasari","postal_code":53361},{"province":"Jawa Tengah","city":"Purbalingga","district":"Kutasari","urban":"Karanglewas","postal_code":53361},{"province":"Jawa Tengah","city":"Purbalingga","district":"Kutasari","urban":"Karangreja","postal_code":53361},{"province":"Jawa Tengah","city":"Purbalingga","district":"Kutasari","urban":"Karangjengkol","postal_code":53361},{"province":"Jawa Tengah","city":"Purbalingga","district":"Kutasari","urban":"Karangklesem","postal_code":53361},{"province":"Jawa Tengah","city":"Purbalingga","district":"Kutasari","urban":"Karangcegak","postal_code":53361},{"province":"Jawa Tengah","city":"Purbalingga","district":"Kutasari","urban":"Karangaren","postal_code":53361},{"province":"Jawa Tengah","city":"Purbalingga","district":"Kutasari","urban":"Candiwulan","postal_code":53361},{"province":"Jawa Tengah","city":"Purbalingga","district":"Kutasari","urban":"Cendana","postal_code":53361},{"province":"Jawa Tengah","city":"Purbalingga","district":"Kutasari","urban":"Candinata","postal_code":53361}]