[{"province":"Jawa Tengah","city":"Purbalingga","district":"Pengadegan","urban":"Tumanggal","postal_code":53393},{"province":"Jawa Tengah","city":"Purbalingga","district":"Pengadegan","urban":"Pasunggingan","postal_code":53393},{"province":"Jawa Tengah","city":"Purbalingga","district":"Pengadegan","urban":"Tegalpingen","postal_code":53393},{"province":"Jawa Tengah","city":"Purbalingga","district":"Pengadegan","urban":"Tetel","postal_code":53393},{"province":"Jawa Tengah","city":"Purbalingga","district":"Pengadegan","urban":"Panunggalan","postal_code":53393},{"province":"Jawa Tengah","city":"Purbalingga","district":"Pengadegan","urban":"Karangjoho","postal_code":53393},{"province":"Jawa Tengah","city":"Purbalingga","district":"Pengadegan","urban":"Larangan","postal_code":53393},{"province":"Jawa Tengah","city":"Purbalingga","district":"Pengadegan","urban":"Pangadegan","postal_code":53393},{"province":"Jawa Tengah","city":"Purbalingga","district":"Pengadegan","urban":"Bedagas","postal_code":53393}]