[{"province":"Jawa Tengah","city":"Banjarnegara","district":"Pagedongan","urban":"Twelagiri","postal_code":53418},{"province":"Jawa Tengah","city":"Banjarnegara","district":"Banjarnegara","urban":"Sokayasa","postal_code":53418},{"province":"Jawa Tengah","city":"Banjarnegara","district":"Banjarnegara","urban":"Tlagawera","postal_code":53418},{"province":"Jawa Tengah","city":"Banjarnegara","district":"Pagedongan","urban":"Pesangkalan","postal_code":53418},{"province":"Jawa Tengah","city":"Banjarnegara","district":"Banjarnegara","urban":"Semampir","postal_code":53418},{"province":"Jawa Tengah","city":"Banjarnegara","district":"Pagedongan","urban":"Pagedongan","postal_code":53418},{"province":"Jawa Tengah","city":"Banjarnegara","district":"Pagedongan","urban":"Kebutuhjurang","postal_code":53418},{"province":"Jawa Tengah","city":"Banjarnegara","district":"Pagedongan","urban":"Lebakwangi","postal_code":53418},{"province":"Jawa Tengah","city":"Banjarnegara","district":"Banjarnegara","urban":"Kuta Banjarnegara","postal_code":53418},{"province":"Jawa Tengah","city":"Banjarnegara","district":"Pagedongan","urban":"Gunungjati","postal_code":53418},{"province":"Jawa Tengah","city":"Banjarnegara","district":"Pagedongan","urban":"Kebutuhduwur","postal_code":53418},{"province":"Jawa Tengah","city":"Banjarnegara","district":"Pagedongan","urban":"Duren","postal_code":53418},{"province":"Jawa Tengah","city":"Banjarnegara","district":"Pagedongan","urban":"Gentansari","postal_code":53418},{"province":"Jawa Tengah","city":"Banjarnegara","district":"Banjarnegara","urban":"Argasoka","postal_code":53418},{"province":"Jawa Tengah","city":"Banjarnegara","district":"Banjarnegara","urban":"Cendana","postal_code":53418},{"province":"Jawa Tengah","city":"Banjarnegara","district":"Banjarnegara","urban":"Ampelsari","postal_code":53418}]