[{"province":"Jawa Tengah","city":"Banjarnegara","district":"Pandanarum","urban":"Sirongge","postal_code":53458},{"province":"Jawa Tengah","city":"Banjarnegara","district":"Kalibening","urban":"Sirukem","postal_code":53458},{"province":"Jawa Tengah","city":"Banjarnegara","district":"Kalibening","urban":"Sirukun","postal_code":53458},{"province":"Jawa Tengah","city":"Banjarnegara","district":"Pandanarum","urban":"Sinduaji","postal_code":53458},{"province":"Jawa Tengah","city":"Banjarnegara","district":"Kalibening","urban":"Sikumpul","postal_code":53458},{"province":"Jawa Tengah","city":"Banjarnegara","district":"Kalibening","urban":"Sembawa","postal_code":53458},{"province":"Jawa Tengah","city":"Banjarnegara","district":"Kalibening","urban":"Sidakangen","postal_code":53458},{"province":"Jawa Tengah","city":"Banjarnegara","district":"Pandanarum","urban":"Pringamba","postal_code":53458},{"province":"Jawa Tengah","city":"Banjarnegara","district":"Kalibening","urban":"Plorengan","postal_code":53458},{"province":"Jawa Tengah","city":"Banjarnegara","district":"Pandanarum","urban":"Pingit Lor","postal_code":53458},{"province":"Jawa Tengah","city":"Banjarnegara","district":"Pandanarum","urban":"Pandanarum","postal_code":53458},{"province":"Jawa Tengah","city":"Banjarnegara","district":"Pandanarum","urban":"Pasegeran","postal_code":53458},{"province":"Jawa Tengah","city":"Banjarnegara","district":"Kalibening","urban":"Majatengah","postal_code":53458},{"province":"Jawa Tengah","city":"Banjarnegara","district":"Pandanarum","urban":"Lawen","postal_code":53458},{"province":"Jawa Tengah","city":"Banjarnegara","district":"Kalibening","urban":"Kasinoman","postal_code":53458},{"province":"Jawa Tengah","city":"Banjarnegara","district":"Kalibening","urban":"Kertasari","postal_code":53458},{"province":"Jawa Tengah","city":"Banjarnegara","district":"Kalibening","urban":"Kalisat Kidul","postal_code":53458},{"province":"Jawa Tengah","city":"Banjarnegara","district":"Kalibening","urban":"Karang Anyar","postal_code":53458},{"province":"Jawa Tengah","city":"Banjarnegara","district":"Kalibening","urban":"Kalibombong","postal_code":53458},{"province":"Jawa Tengah","city":"Banjarnegara","district":"Kalibening","urban":"Kalibening","postal_code":53458},{"province":"Jawa Tengah","city":"Banjarnegara","district":"Pandanarum","urban":"Beji","postal_code":53458},{"province":"Jawa Tengah","city":"Banjarnegara","district":"Kalibening","urban":"Gununglangit","postal_code":53458},{"province":"Jawa Tengah","city":"Banjarnegara","district":"Kalibening","urban":"Asinan","postal_code":53458},{"province":"Jawa Tengah","city":"Banjarnegara","district":"Kalibening","urban":"Bedana","postal_code":53458}]