[{"province":"Jawa Tengah","city":"Banjarnegara","district":"Wanadadi (Wonodadi)","urban":"Wanakarsa","postal_code":53461},{"province":"Jawa Tengah","city":"Banjarnegara","district":"Wanadadi (Wonodadi)","urban":"Medayu","postal_code":53461},{"province":"Jawa Tengah","city":"Banjarnegara","district":"Wanadadi (Wonodadi)","urban":"Tapen","postal_code":53461},{"province":"Jawa Tengah","city":"Banjarnegara","district":"Wanadadi (Wonodadi)","urban":"Wanadadi","postal_code":53461},{"province":"Jawa Tengah","city":"Banjarnegara","district":"Wanadadi (Wonodadi)","urban":"Linggasari","postal_code":53461},{"province":"Jawa Tengah","city":"Banjarnegara","district":"Wanadadi (Wonodadi)","urban":"Kasalib","postal_code":53461},{"province":"Jawa Tengah","city":"Banjarnegara","district":"Wanadadi (Wonodadi)","urban":"Lemahjaya","postal_code":53461},{"province":"Jawa Tengah","city":"Banjarnegara","district":"Wanadadi (Wonodadi)","urban":"Karangjambe","postal_code":53461},{"province":"Jawa Tengah","city":"Banjarnegara","district":"Wanadadi (Wonodadi)","urban":"Karangkemiri","postal_code":53461},{"province":"Jawa Tengah","city":"Banjarnegara","district":"Wanadadi (Wonodadi)","urban":"Gumingsir","postal_code":53461},{"province":"Jawa Tengah","city":"Banjarnegara","district":"Wanadadi (Wonodadi)","urban":"Kandangwangi","postal_code":53461}]