[{"province":"Jawa Tengah","city":"Banjarnegara","district":"Bawang","urban":"Watuurip","postal_code":53471},{"province":"Jawa Tengah","city":"Banjarnegara","district":"Bawang","urban":"Winong","postal_code":53471},{"province":"Jawa Tengah","city":"Banjarnegara","district":"Bawang","urban":"Wiramastra","postal_code":53471},{"province":"Jawa Tengah","city":"Banjarnegara","district":"Bawang","urban":"Serang","postal_code":53471},{"province":"Jawa Tengah","city":"Banjarnegara","district":"Bawang","urban":"Wanadri","postal_code":53471},{"province":"Jawa Tengah","city":"Banjarnegara","district":"Bawang","urban":"Mantrianom","postal_code":53471},{"province":"Jawa Tengah","city":"Banjarnegara","district":"Bawang","urban":"Masaran","postal_code":53471},{"province":"Jawa Tengah","city":"Banjarnegara","district":"Bawang","urban":"Pucang","postal_code":53471},{"province":"Jawa Tengah","city":"Banjarnegara","district":"Bawang","urban":"Majalengka","postal_code":53471},{"province":"Jawa Tengah","city":"Banjarnegara","district":"Bawang","urban":"Kebondalem","postal_code":53471},{"province":"Jawa Tengah","city":"Banjarnegara","district":"Bawang","urban":"Kutayasa","postal_code":53471},{"province":"Jawa Tengah","city":"Banjarnegara","district":"Bawang","urban":"Gemuruh","postal_code":53471},{"province":"Jawa Tengah","city":"Banjarnegara","district":"Bawang","urban":"Joho","postal_code":53471},{"province":"Jawa Tengah","city":"Banjarnegara","district":"Bawang","urban":"Blambangan","postal_code":53471},{"province":"Jawa Tengah","city":"Banjarnegara","district":"Bawang","urban":"Depok","postal_code":53471},{"province":"Jawa Tengah","city":"Banjarnegara","district":"Bawang","urban":"Bandingan","postal_code":53471},{"province":"Jawa Tengah","city":"Banjarnegara","district":"Bawang","urban":"Bawang","postal_code":53471},{"province":"Jawa Tengah","city":"Banjarnegara","district":"Bawang","urban":"Binorong","postal_code":53471}]