[{"province":"Jawa Tengah","city":"Purworejo","district":"Purworejo","urban":"Wonotulus","postal_code":54119},{"province":"Jawa Tengah","city":"Purworejo","district":"Purworejo","urban":"Wonoroto","postal_code":54119},{"province":"Jawa Tengah","city":"Purworejo","district":"Purworejo","urban":"Sudimoro","postal_code":54119},{"province":"Jawa Tengah","city":"Purworejo","district":"Purworejo","urban":"Sidorejo","postal_code":54119},{"province":"Jawa Tengah","city":"Purworejo","district":"Purworejo","urban":"Sido Mulyo","postal_code":54119},{"province":"Jawa Tengah","city":"Purworejo","district":"Purworejo","urban":"Plipir","postal_code":54119},{"province":"Jawa Tengah","city":"Purworejo","district":"Purworejo","urban":"Semawung","postal_code":54119},{"province":"Jawa Tengah","city":"Purworejo","district":"Purworejo","urban":"Pacekelan","postal_code":54119},{"province":"Jawa Tengah","city":"Purworejo","district":"Purworejo","urban":"Mudal","postal_code":54119},{"province":"Jawa Tengah","city":"Purworejo","district":"Purworejo","urban":"Kedung Sari","postal_code":54119},{"province":"Jawa Tengah","city":"Purworejo","district":"Purworejo","urban":"Keseneng","postal_code":54119},{"province":"Jawa Tengah","city":"Purworejo","district":"Purworejo","urban":"Ganggeng","postal_code":54119},{"province":"Jawa Tengah","city":"Purworejo","district":"Purworejo","urban":"Donorati","postal_code":54119},{"province":"Jawa Tengah","city":"Purworejo","district":"Purworejo","urban":"Brenggong","postal_code":54119}]