[{"province":"Jawa Tengah","city":"Purworejo","district":"Pituruh","urban":"Wonoyoso","postal_code":54263},{"province":"Jawa Tengah","city":"Purworejo","district":"Pituruh","urban":"Wonosido","postal_code":54263},{"province":"Jawa Tengah","city":"Purworejo","district":"Pituruh","urban":"Waru","postal_code":54263},{"province":"Jawa Tengah","city":"Purworejo","district":"Pituruh","urban":"Tunjungtejo","postal_code":54263},{"province":"Jawa Tengah","city":"Purworejo","district":"Pituruh","urban":"Tersidi Lor","postal_code":54263},{"province":"Jawa Tengah","city":"Purworejo","district":"Pituruh","urban":"Tersidi Kidul","postal_code":54263},{"province":"Jawa Tengah","city":"Purworejo","district":"Pituruh","urban":"Tasikmadu","postal_code":54263},{"province":"Jawa Tengah","city":"Purworejo","district":"Pituruh","urban":"Tapen","postal_code":54263},{"province":"Jawa Tengah","city":"Purworejo","district":"Pituruh","urban":"Sumber","postal_code":54263},{"province":"Jawa Tengah","city":"Purworejo","district":"Pituruh","urban":"Sikambang","postal_code":54263},{"province":"Jawa Tengah","city":"Purworejo","district":"Pituruh","urban":"Somogede","postal_code":54263},{"province":"Jawa Tengah","city":"Purworejo","district":"Pituruh","urban":"Semampir","postal_code":54263},{"province":"Jawa Tengah","city":"Purworejo","district":"Pituruh","urban":"Sawangan","postal_code":54263},{"province":"Jawa Tengah","city":"Purworejo","district":"Pituruh","urban":"Sekartejo","postal_code":54263},{"province":"Jawa Tengah","city":"Purworejo","district":"Pituruh","urban":"Sambeng","postal_code":54263},{"province":"Jawa Tengah","city":"Purworejo","district":"Pituruh","urban":"Prapag Lor","postal_code":54263},{"province":"Jawa Tengah","city":"Purworejo","district":"Pituruh","urban":"Prigelan","postal_code":54263},{"province":"Jawa Tengah","city":"Purworejo","district":"Pituruh","urban":"Prapag Kidul","postal_code":54263},{"province":"Jawa Tengah","city":"Purworejo","district":"Pituruh","urban":"Pituruh","postal_code":54263},{"province":"Jawa Tengah","city":"Purworejo","district":"Pituruh","urban":"Polowangi","postal_code":54263},{"province":"Jawa Tengah","city":"Purworejo","district":"Pituruh","urban":"Pepe","postal_code":54263},{"province":"Jawa Tengah","city":"Purworejo","district":"Pituruh","urban":"Petuguran","postal_code":54263},{"province":"Jawa Tengah","city":"Purworejo","district":"Pituruh","urban":"Pamriyan","postal_code":54263},{"province":"Jawa Tengah","city":"Purworejo","district":"Pituruh","urban":"Pangkalan","postal_code":54263},{"province":"Jawa Tengah","city":"Purworejo","district":"Pituruh","urban":"Pekacangan","postal_code":54263},{"province":"Jawa Tengah","city":"Purworejo","district":"Pituruh","urban":"Ngampel","postal_code":54263},{"province":"Jawa Tengah","city":"Purworejo","district":"Pituruh","urban":"Ngandagan","postal_code":54263},{"province":"Jawa Tengah","city":"Purworejo","district":"Pituruh","urban":"Megulung Kidul","postal_code":54263},{"province":"Jawa Tengah","city":"Purworejo","district":"Pituruh","urban":"Megulung Lor","postal_code":54263},{"province":"Jawa Tengah","city":"Purworejo","district":"Pituruh","urban":"Kesawen","postal_code":54263},{"province":"Jawa Tengah","city":"Purworejo","district":"Pituruh","urban":"Luweng Kidul","postal_code":54263},{"province":"Jawa Tengah","city":"Purworejo","district":"Pituruh","urban":"Luweng Lor","postal_code":54263},{"province":"Jawa Tengah","city":"Purworejo","district":"Pituruh","urban":"Kendalrejo","postal_code":54263},{"province":"Jawa Tengah","city":"Purworejo","district":"Pituruh","urban":"Kembangkuning","postal_code":54263},{"province":"Jawa Tengah","city":"Purworejo","district":"Pituruh","urban":"Keburusan","postal_code":54263},{"province":"Jawa Tengah","city":"Purworejo","district":"Pituruh","urban":"Kedung Batur","postal_code":54263},{"province":"Jawa Tengah","city":"Purworejo","district":"Pituruh","urban":"Kalimati","postal_code":54263},{"province":"Jawa Tengah","city":"Purworejo","district":"Pituruh","urban":"Karanganyar","postal_code":54263},{"province":"Jawa Tengah","city":"Purworejo","district":"Pituruh","urban":"Karanggetas","postal_code":54263},{"province":"Jawa Tengah","city":"Purworejo","district":"Pituruh","urban":"Kalijering","postal_code":54263},{"province":"Jawa Tengah","city":"Purworejo","district":"Pituruh","urban":"Kalikotes","postal_code":54263},{"province":"Jawa Tengah","city":"Purworejo","district":"Pituruh","urban":"Kaligintung","postal_code":54263},{"province":"Jawa Tengah","city":"Purworejo","district":"Pituruh","urban":"Kaligondang","postal_code":54263},{"province":"Jawa Tengah","city":"Purworejo","district":"Pituruh","urban":"Girigondo","postal_code":54263},{"province":"Jawa Tengah","city":"Purworejo","district":"Pituruh","urban":"Gumawangrejo","postal_code":54263},{"province":"Jawa Tengah","city":"Purworejo","district":"Pituruh","urban":"Dlisen Wetan","postal_code":54263},{"province":"Jawa Tengah","city":"Purworejo","district":"Pituruh","urban":"Brengkol","postal_code":54263},{"province":"Jawa Tengah","city":"Purworejo","district":"Pituruh","urban":"Dlisen Kulon","postal_code":54263},{"province":"Jawa Tengah","city":"Purworejo","district":"Pituruh","urban":"Blekatuk","postal_code":54263},{"province":"Jawa Tengah","city":"Purworejo","district":"Pituruh","urban":"Blekatuk","postal_code":54263}]