[{"province":"Jawa Tengah","city":"Purworejo","district":"Bruno","urban":"Tegalsari","postal_code":54261},{"province":"Jawa Tengah","city":"Purworejo","district":"Bruno","urban":"Watuduwur","postal_code":54261},{"province":"Jawa Tengah","city":"Purworejo","district":"Bruno","urban":"Plipiran","postal_code":54261},{"province":"Jawa Tengah","city":"Purworejo","district":"Bruno","urban":"Puspo","postal_code":54261},{"province":"Jawa Tengah","city":"Purworejo","district":"Bruno","urban":"Somoleter","postal_code":54261},{"province":"Jawa Tengah","city":"Purworejo","district":"Bruno","urban":"Kemranggen","postal_code":54261},{"province":"Jawa Tengah","city":"Purworejo","district":"Bruno","urban":"Pakisarum","postal_code":54261},{"province":"Jawa Tengah","city":"Purworejo","district":"Bruno","urban":"Karanggedang","postal_code":54261},{"province":"Jawa Tengah","city":"Purworejo","district":"Bruno","urban":"Kaliwungu","postal_code":54261},{"province":"Jawa Tengah","city":"Purworejo","district":"Bruno","urban":"Kambangan","postal_code":54261},{"province":"Jawa Tengah","city":"Purworejo","district":"Bruno","urban":"Gunung Condong","postal_code":54261},{"province":"Jawa Tengah","city":"Purworejo","district":"Bruno","urban":"Giyombong","postal_code":54261},{"province":"Jawa Tengah","city":"Purworejo","district":"Bruno","urban":"Gowong","postal_code":54261},{"province":"Jawa Tengah","city":"Purworejo","district":"Bruno","urban":"Brunosari","postal_code":54261},{"province":"Jawa Tengah","city":"Purworejo","district":"Bruno","urban":"Cepedak","postal_code":54261},{"province":"Jawa Tengah","city":"Purworejo","district":"Bruno","urban":"Brondong","postal_code":54261},{"province":"Jawa Tengah","city":"Purworejo","district":"Bruno","urban":"Brunorejo","postal_code":54261},{"province":"Jawa Tengah","city":"Purworejo","district":"Bruno","urban":"Blimbing","postal_code":54261}]