[{"province":"Jawa Tengah","city":"Kebumen","district":"Sadang","urban":"Wonosari","postal_code":54353},{"province":"Jawa Tengah","city":"Kebumen","district":"Karangsambung","urban":"Totogan","postal_code":54353},{"province":"Jawa Tengah","city":"Kebumen","district":"Karangsambung","urban":"Wadasmalang","postal_code":54353},{"province":"Jawa Tengah","city":"Kebumen","district":"Karangsambung","urban":"Widoro","postal_code":54353},{"province":"Jawa Tengah","city":"Kebumen","district":"Karangsambung","urban":"Seling","postal_code":54353},{"province":"Jawa Tengah","city":"Kebumen","district":"Karangsambung","urban":"Tlepok","postal_code":54353},{"province":"Jawa Tengah","city":"Kebumen","district":"Sadang","urban":"Seboro","postal_code":54353},{"province":"Jawa Tengah","city":"Kebumen","district":"Sadang","urban":"Sadangwetan","postal_code":54353},{"province":"Jawa Tengah","city":"Kebumen","district":"Sadang","urban":"Seboro","postal_code":54353},{"province":"Jawa Tengah","city":"Kebumen","district":"Karangsambung","urban":"Pujotirto","postal_code":54353},{"province":"Jawa Tengah","city":"Kebumen","district":"Sadang","urban":"Pucangan","postal_code":54353},{"province":"Jawa Tengah","city":"Kebumen","district":"Karangsambung","urban":"Plumbon","postal_code":54353},{"province":"Jawa Tengah","city":"Kebumen","district":"Karangsambung","urban":"Pencil","postal_code":54353},{"province":"Jawa Tengah","city":"Kebumen","district":"Karangsambung","urban":"Langse","postal_code":54353},{"province":"Jawa Tengah","city":"Kebumen","district":"Sadang","urban":"Kedunggong","postal_code":54353},{"province":"Jawa Tengah","city":"Kebumen","district":"Karangsambung","urban":"Kedungwaru","postal_code":54353},{"province":"Jawa Tengah","city":"Kebumen","district":"Karangsambung","urban":"Kaligending","postal_code":54353},{"province":"Jawa Tengah","city":"Kebumen","district":"Karangsambung","urban":"Kalisana","postal_code":54353},{"province":"Jawa Tengah","city":"Kebumen","district":"Karangsambung","urban":"Karangsambung","postal_code":54353},{"province":"Jawa Tengah","city":"Kebumen","district":"Sadang","urban":"Cangkring","postal_code":54353},{"province":"Jawa Tengah","city":"Kebumen","district":"Karangsambung","urban":"Banioro","postal_code":54353}]