[{"province":"Jawa Tengah","city":"Kebumen","district":"Adimulyo","urban":"Wajasari","postal_code":54363},{"province":"Jawa Tengah","city":"Kebumen","district":"Adimulyo","urban":"Tegalsari","postal_code":54363},{"province":"Jawa Tengah","city":"Kebumen","district":"Adimulyo","urban":"Temanggal","postal_code":54363},{"province":"Jawa Tengah","city":"Kebumen","district":"Adimulyo","urban":"Tepakyang","postal_code":54363},{"province":"Jawa Tengah","city":"Kebumen","district":"Adimulyo","urban":"Sugihwaras","postal_code":54363},{"province":"Jawa Tengah","city":"Kebumen","district":"Adimulyo","urban":"Tambakharjo","postal_code":54363},{"province":"Jawa Tengah","city":"Kebumen","district":"Adimulyo","urban":"Sidamukti","postal_code":54363},{"province":"Jawa Tengah","city":"Kebumen","district":"Adimulyo","urban":"Sidamulyo","postal_code":54363},{"province":"Jawa Tengah","city":"Kebumen","district":"Adimulyo","urban":"Pekuwon","postal_code":54363},{"province":"Jawa Tengah","city":"Kebumen","district":"Adimulyo","urban":"Sekarteja","postal_code":54363},{"province":"Jawa Tengah","city":"Kebumen","district":"Adimulyo","urban":"Mangunharjo","postal_code":54363},{"province":"Jawa Tengah","city":"Kebumen","district":"Adimulyo","urban":"Meles","postal_code":54363},{"province":"Jawa Tengah","city":"Kebumen","district":"Adimulyo","urban":"Kemujan","postal_code":54363},{"province":"Jawa Tengah","city":"Kebumen","district":"Adimulyo","urban":"Joho","postal_code":54363},{"province":"Jawa Tengah","city":"Kebumen","district":"Adimulyo","urban":"Bonjok","postal_code":54363},{"province":"Jawa Tengah","city":"Kebumen","district":"Adimulyo","urban":"Candi Wulan","postal_code":54363},{"province":"Jawa Tengah","city":"Kebumen","district":"Adimulyo","urban":"Caruban","postal_code":54363},{"province":"Jawa Tengah","city":"Kebumen","district":"Adimulyo","urban":"Banyuroto","postal_code":54363},{"province":"Jawa Tengah","city":"Kebumen","district":"Adimulyo","urban":"Arjosari","postal_code":54363},{"province":"Jawa Tengah","city":"Kebumen","district":"Adimulyo","urban":"Adimulyo","postal_code":54363},{"province":"Jawa Tengah","city":"Kebumen","district":"Adimulyo","urban":"Arjomulyo","postal_code":54363},{"province":"Jawa Tengah","city":"Kebumen","district":"Adimulyo","urban":"Adikarto","postal_code":54363},{"province":"Jawa Tengah","city":"Kebumen","district":"Adimulyo","urban":"Adiluhur","postal_code":54363}]