[{"province":"Jawa Tengah","city":"Kebumen","district":"Sruweng","urban":"Trikarso","postal_code":54362},{"province":"Jawa Tengah","city":"Kebumen","district":"Sruweng","urban":"Trikarso","postal_code":54362},{"province":"Jawa Tengah","city":"Kebumen","district":"Sruweng","urban":"Sidoharjo","postal_code":54362},{"province":"Jawa Tengah","city":"Kebumen","district":"Sruweng","urban":"Sruweng","postal_code":54362},{"province":"Jawa Tengah","city":"Kebumen","district":"Sruweng","urban":"Purwodeso","postal_code":54362},{"province":"Jawa Tengah","city":"Kebumen","district":"Sruweng","urban":"Sidoagung","postal_code":54362},{"province":"Jawa Tengah","city":"Kebumen","district":"Sruweng","urban":"Pengempon","postal_code":54362},{"province":"Jawa Tengah","city":"Kebumen","district":"Sruweng","urban":"Penusupan","postal_code":54362},{"province":"Jawa Tengah","city":"Kebumen","district":"Sruweng","urban":"Pandansari","postal_code":54362},{"province":"Jawa Tengah","city":"Kebumen","district":"Sruweng","urban":"Pakuran","postal_code":54362},{"province":"Jawa Tengah","city":"Kebumen","district":"Sruweng","urban":"Menganti","postal_code":54362},{"province":"Jawa Tengah","city":"Kebumen","district":"Sruweng","urban":"Kejawang","postal_code":54362},{"province":"Jawa Tengah","city":"Kebumen","district":"Sruweng","urban":"Klepusanggar","postal_code":54362},{"province":"Jawa Tengah","city":"Kebumen","district":"Sruweng","urban":"Karangjambu","postal_code":54362},{"province":"Jawa Tengah","city":"Kebumen","district":"Sruweng","urban":"Karangpule","postal_code":54362},{"province":"Jawa Tengah","city":"Kebumen","district":"Sruweng","urban":"Karangsari","postal_code":54362},{"province":"Jawa Tengah","city":"Kebumen","district":"Sruweng","urban":"Jabres","postal_code":54362},{"province":"Jawa Tengah","city":"Kebumen","district":"Sruweng","urban":"Karanggedang","postal_code":54362},{"province":"Jawa Tengah","city":"Kebumen","district":"Sruweng","urban":"Donosari","postal_code":54362},{"province":"Jawa Tengah","city":"Kebumen","district":"Sruweng","urban":"Giwangretno","postal_code":54362},{"province":"Jawa Tengah","city":"Kebumen","district":"Sruweng","urban":"Condongcampur","postal_code":54362}]