[{"province":"Jawa Tengah","city":"Kebumen","district":"Klirong","urban":"Tanggulangin","postal_code":54381},{"province":"Jawa Tengah","city":"Kebumen","district":"Klirong","urban":"Wotbuwono","postal_code":54381},{"province":"Jawa Tengah","city":"Kebumen","district":"Klirong","urban":"Tambakagung","postal_code":54381},{"province":"Jawa Tengah","city":"Kebumen","district":"Klirong","urban":"Tambakprogaten","postal_code":54381},{"province":"Jawa Tengah","city":"Kebumen","district":"Klirong","urban":"Ranterejo","postal_code":54381},{"province":"Jawa Tengah","city":"Kebumen","district":"Klirong","urban":"Sitirejo","postal_code":54381},{"province":"Jawa Tengah","city":"Kebumen","district":"Klirong","urban":"Pandanlor","postal_code":54381},{"province":"Jawa Tengah","city":"Kebumen","district":"Klirong","urban":"Podoluhur","postal_code":54381},{"province":"Jawa Tengah","city":"Kebumen","district":"Klirong","urban":"Klegenwonosari","postal_code":54381},{"province":"Jawa Tengah","city":"Kebumen","district":"Klirong","urban":"Klirong","postal_code":54381},{"province":"Jawa Tengah","city":"Kebumen","district":"Klirong","urban":"Kedungsari","postal_code":54381},{"province":"Jawa Tengah","city":"Kebumen","district":"Klirong","urban":"Kedungwinangun","postal_code":54381},{"province":"Jawa Tengah","city":"Kebumen","district":"Klirong","urban":"Klegenrejo","postal_code":54381},{"province":"Jawa Tengah","city":"Kebumen","district":"Klirong","urban":"Karangglonggong","postal_code":54381},{"province":"Jawa Tengah","city":"Kebumen","district":"Klirong","urban":"Kebadongan","postal_code":54381},{"province":"Jawa Tengah","city":"Kebumen","district":"Klirong","urban":"Jogosimo","postal_code":54381},{"province":"Jawa Tengah","city":"Kebumen","district":"Klirong","urban":"Kaliwungu","postal_code":54381},{"province":"Jawa Tengah","city":"Kebumen","district":"Klirong","urban":"Gebangsari","postal_code":54381},{"province":"Jawa Tengah","city":"Kebumen","district":"Klirong","urban":"Jatimalang","postal_code":54381},{"province":"Jawa Tengah","city":"Kebumen","district":"Klirong","urban":"Jerukagung","postal_code":54381},{"province":"Jawa Tengah","city":"Kebumen","district":"Klirong","urban":"Dorowati","postal_code":54381},{"province":"Jawa Tengah","city":"Kebumen","district":"Klirong","urban":"Gadungrejo","postal_code":54381},{"province":"Jawa Tengah","city":"Kebumen","district":"Klirong","urban":"Bendogarap","postal_code":54381},{"province":"Jawa Tengah","city":"Kebumen","district":"Klirong","urban":"Bumiharjo","postal_code":54381}]