[{"province":"Jawa Tengah","city":"Kebumen","district":"Ambal","urban":"Surobayan","postal_code":54392},{"province":"Jawa Tengah","city":"Kebumen","district":"Ambal","urban":"Sumberjati","postal_code":54392},{"province":"Jawa Tengah","city":"Kebumen","district":"Ambal","urban":"Sinungreja","postal_code":54392},{"province":"Jawa Tengah","city":"Kebumen","district":"Ambal","urban":"Singosari","postal_code":54392},{"province":"Jawa Tengah","city":"Kebumen","district":"Ambal","urban":"Sidomulyo","postal_code":54392},{"province":"Jawa Tengah","city":"Kebumen","district":"Ambal","urban":"Sidomukti","postal_code":54392},{"province":"Jawa Tengah","city":"Kebumen","district":"Ambal","urban":"Sidoluhur","postal_code":54392},{"province":"Jawa Tengah","city":"Kebumen","district":"Ambal","urban":"Sidareja","postal_code":54392},{"province":"Jawa Tengah","city":"Kebumen","district":"Ambal","urban":"Pucangan","postal_code":54392},{"province":"Jawa Tengah","city":"Kebumen","district":"Ambal","urban":"Prasutan","postal_code":54392},{"province":"Jawa Tengah","city":"Kebumen","district":"Ambal","urban":"Plempukankembaran","postal_code":54392},{"province":"Jawa Tengah","city":"Kebumen","district":"Ambal","urban":"Peneket","postal_code":54392},{"province":"Jawa Tengah","city":"Kebumen","district":"Ambal","urban":"Pagedangan","postal_code":54392},{"province":"Jawa Tengah","city":"Kebumen","district":"Ambal","urban":"Pasarsenen","postal_code":54392},{"province":"Jawa Tengah","city":"Kebumen","district":"Ambal","urban":"Lajer","postal_code":54392},{"province":"Jawa Tengah","city":"Kebumen","district":"Ambal","urban":"Kenayajayan","postal_code":54392},{"province":"Jawa Tengah","city":"Kebumen","district":"Ambal","urban":"Kradenan","postal_code":54392},{"province":"Jawa Tengah","city":"Kebumen","district":"Ambal","urban":"Kaibon","postal_code":54392},{"province":"Jawa Tengah","city":"Kebumen","district":"Ambal","urban":"Kaibonpetangkuran","postal_code":54392},{"province":"Jawa Tengah","city":"Kebumen","district":"Ambal","urban":"Kembangsawit","postal_code":54392},{"province":"Jawa Tengah","city":"Kebumen","district":"Ambal","urban":"Entak","postal_code":54392},{"province":"Jawa Tengah","city":"Kebumen","district":"Ambal","urban":"Gondanglegi","postal_code":54392},{"province":"Jawa Tengah","city":"Kebumen","district":"Ambal","urban":"Blengorwetan","postal_code":54392},{"province":"Jawa Tengah","city":"Kebumen","district":"Ambal","urban":"Dukuhrejasari","postal_code":54392},{"province":"Jawa Tengah","city":"Kebumen","district":"Ambal","urban":"Benerkulon","postal_code":54392},{"province":"Jawa Tengah","city":"Kebumen","district":"Ambal","urban":"Benerwetan","postal_code":54392},{"province":"Jawa Tengah","city":"Kebumen","district":"Ambal","urban":"Blengorkulon","postal_code":54392},{"province":"Jawa Tengah","city":"Kebumen","district":"Ambal","urban":"Ambarwinangun","postal_code":54392},{"province":"Jawa Tengah","city":"Kebumen","district":"Ambal","urban":"Banjarsari","postal_code":54392},{"province":"Jawa Tengah","city":"Kebumen","district":"Ambal","urban":"Ambalkliwonan","postal_code":54392},{"province":"Jawa Tengah","city":"Kebumen","district":"Ambal","urban":"Ambalresmi","postal_code":54392},{"province":"Jawa Tengah","city":"Kebumen","district":"Ambal","urban":"Ambalkebrek","postal_code":54392}]