[{"province":"Jawa Tengah","city":"Kebumen","district":"Prembun","urban":"Tunggalroso","postal_code":54394},{"province":"Jawa Tengah","city":"Kebumen","district":"Prembun","urban":"Tersobo","postal_code":54394},{"province":"Jawa Tengah","city":"Kebumen","district":"Padureso","urban":"Sidototo","postal_code":54394},{"province":"Jawa Tengah","city":"Kebumen","district":"Prembun","urban":"Sidogede","postal_code":54394},{"province":"Jawa Tengah","city":"Kebumen","district":"Padureso","urban":"Sendangdalem","postal_code":54394},{"province":"Jawa Tengah","city":"Kebumen","district":"Prembun","urban":"Sembirkadipaten","postal_code":54394},{"province":"Jawa Tengah","city":"Kebumen","district":"Padureso","urban":"Rahayu","postal_code":54394},{"province":"Jawa Tengah","city":"Kebumen","district":"Prembun","urban":"Prembun","postal_code":54394},{"province":"Jawa Tengah","city":"Kebumen","district":"Prembun","urban":"Pesuningan","postal_code":54394},{"province":"Jawa Tengah","city":"Kebumen","district":"Padureso","urban":"Pejengkolan","postal_code":54394},{"province":"Jawa Tengah","city":"Kebumen","district":"Prembun","urban":"Pecarikan","postal_code":54394},{"province":"Jawa Tengah","city":"Kebumen","district":"Padureso","urban":"Padureso","postal_code":54394},{"province":"Jawa Tengah","city":"Kebumen","district":"Prembun","urban":"Mulyosri","postal_code":54394},{"province":"Jawa Tengah","city":"Kebumen","district":"Padureso","urban":"Merden","postal_code":54394},{"province":"Jawa Tengah","city":"Kebumen","district":"Prembun","urban":"Kedungwaru","postal_code":54394},{"province":"Jawa Tengah","city":"Kebumen","district":"Prembun","urban":"Kedungbulus","postal_code":54394},{"province":"Jawa Tengah","city":"Kebumen","district":"Padureso","urban":"Kaligubuk","postal_code":54394},{"province":"Jawa Tengah","city":"Kebumen","district":"Padureso","urban":"Kalijering","postal_code":54394},{"province":"Jawa Tengah","city":"Kebumen","district":"Prembun","urban":"Kabuaran","postal_code":54394},{"province":"Jawa Tengah","city":"Kebumen","district":"Prembun","urban":"Kabekelan","postal_code":54394},{"province":"Jawa Tengah","city":"Kebumen","district":"Padureso","urban":"Balingasal","postal_code":54394},{"province":"Jawa Tengah","city":"Kebumen","district":"Prembun","urban":"Bagung","postal_code":54394}]