[{"province":"Jawa Tengah","city":"Kebumen","district":"Kutowinangun","urban":"Triwarno","postal_code":54393},{"province":"Jawa Tengah","city":"Kebumen","district":"Kutowinangun","urban":"Ungaran","postal_code":54393},{"province":"Jawa Tengah","city":"Kebumen","district":"Poncowarno","urban":"Tirtomoyo","postal_code":54393},{"province":"Jawa Tengah","city":"Kebumen","district":"Poncowarno","urban":"Tegalrejo","postal_code":54393},{"province":"Jawa Tengah","city":"Kebumen","district":"Kutowinangun","urban":"Tanjungseto","postal_code":54393},{"province":"Jawa Tengah","city":"Kebumen","district":"Kutowinangun","urban":"Tanjungsari","postal_code":54393},{"province":"Jawa Tengah","city":"Kebumen","district":"Kutowinangun","urban":"Tanjungmeru","postal_code":54393},{"province":"Jawa Tengah","city":"Kebumen","district":"Poncowarno","urban":"Soka","postal_code":54393},{"province":"Jawa Tengah","city":"Kebumen","district":"Poncowarno","urban":"Poncowarno","postal_code":54393},{"province":"Jawa Tengah","city":"Kebumen","district":"Kutowinangun","urban":"Pekunden","postal_code":54393},{"province":"Jawa Tengah","city":"Kebumen","district":"Kutowinangun","urban":"Pesalakan","postal_code":54393},{"province":"Jawa Tengah","city":"Kebumen","district":"Kutowinangun","urban":"Pejagatan","postal_code":54393},{"province":"Jawa Tengah","city":"Kebumen","district":"Kutowinangun","urban":"Mrinen","postal_code":54393},{"province":"Jawa Tengah","city":"Kebumen","district":"Kutowinangun","urban":"Mekarsari","postal_code":54393},{"province":"Jawa Tengah","city":"Kebumen","district":"Kutowinangun","urban":"Lundong","postal_code":54393},{"province":"Jawa Tengah","city":"Kebumen","district":"Kutowinangun","urban":"Lumbu","postal_code":54393},{"province":"Jawa Tengah","city":"Kebumen","district":"Poncowarno","urban":"Lerepkebumen","postal_code":54393},{"province":"Jawa Tengah","city":"Kebumen","district":"Kutowinangun","urban":"Kuwarisan","postal_code":54393},{"province":"Jawa Tengah","city":"Kebumen","district":"Kutowinangun","urban":"Kutowinangun","postal_code":54393},{"province":"Jawa Tengah","city":"Kebumen","district":"Kutowinangun","urban":"Korowelang","postal_code":54393},{"province":"Jawa Tengah","city":"Kebumen","district":"Poncowarno","urban":"Kedungdowo","postal_code":54393},{"province":"Jawa Tengah","city":"Kebumen","district":"Poncowarno","urban":"Karangtengah","postal_code":54393},{"province":"Jawa Tengah","city":"Kebumen","district":"Poncowarno","urban":"Kebapangan","postal_code":54393},{"province":"Jawa Tengah","city":"Kebumen","district":"Kutowinangun","urban":"Karangsari","postal_code":54393},{"province":"Jawa Tengah","city":"Kebumen","district":"Kutowinangun","urban":"Kaliputih","postal_code":54393},{"province":"Jawa Tengah","city":"Kebumen","district":"Kutowinangun","urban":"Jlegiwinangun","postal_code":54393},{"province":"Jawa Tengah","city":"Kebumen","district":"Poncowarno","urban":"Jembangan","postal_code":54393},{"province":"Jawa Tengah","city":"Kebumen","district":"Poncowarno","urban":"Jatipurus","postal_code":54393},{"province":"Jawa Tengah","city":"Kebumen","district":"Poncowarno","urban":"Blater","postal_code":54393},{"province":"Jawa Tengah","city":"Kebumen","district":"Kutowinangun","urban":"Babadsari","postal_code":54393}]