[{"province":"Jawa Tengah","city":"Kebumen","district":"Rowokele","urban":"Wonoharjo","postal_code":54472},{"province":"Jawa Tengah","city":"Kebumen","district":"Rowokele","urban":"Rowokele","postal_code":54472},{"province":"Jawa Tengah","city":"Kebumen","district":"Rowokele","urban":"Sukomulyo","postal_code":54472},{"province":"Jawa Tengah","city":"Kebumen","district":"Rowokele","urban":"Wagirpandan","postal_code":54472},{"province":"Jawa Tengah","city":"Kebumen","district":"Rowokele","urban":"Pringtutul","postal_code":54472},{"province":"Jawa Tengah","city":"Kebumen","district":"Rowokele","urban":"Redisari","postal_code":54472},{"province":"Jawa Tengah","city":"Kebumen","district":"Rowokele","urban":"Kalisari","postal_code":54472},{"province":"Jawa Tengah","city":"Kebumen","district":"Rowokele","urban":"Kretek","postal_code":54472},{"province":"Jawa Tengah","city":"Kebumen","district":"Rowokele","urban":"Giyanti","postal_code":54472},{"province":"Jawa Tengah","city":"Kebumen","district":"Rowokele","urban":"Jatiluhur","postal_code":54472},{"province":"Jawa Tengah","city":"Kebumen","district":"Rowokele","urban":"Bumiagung","postal_code":54472}]