[{"province":"DI Yogyakarta","city":"Kulon Progo","district":"Temon","urban":"Temon Kulon","postal_code":55654},{"province":"DI Yogyakarta","city":"Kulon Progo","district":"Temon","urban":"Temon Wetan","postal_code":55654},{"province":"DI Yogyakarta","city":"Kulon Progo","district":"Temon","urban":"Plumbon","postal_code":55654},{"province":"DI Yogyakarta","city":"Kulon Progo","district":"Temon","urban":"Sindutan","postal_code":55654},{"province":"DI Yogyakarta","city":"Kulon Progo","district":"Temon","urban":"Kedundang","postal_code":55654},{"province":"DI Yogyakarta","city":"Kulon Progo","district":"Temon","urban":"Kulur","postal_code":55654},{"province":"DI Yogyakarta","city":"Kulon Progo","district":"Temon","urban":"Palihan","postal_code":55654},{"province":"DI Yogyakarta","city":"Kulon Progo","district":"Temon","urban":"Karang Wuluh","postal_code":55654},{"province":"DI Yogyakarta","city":"Kulon Progo","district":"Temon","urban":"Kebonrejo","postal_code":55654},{"province":"DI Yogyakarta","city":"Kulon Progo","district":"Temon","urban":"Kali Dengen","postal_code":55654},{"province":"DI Yogyakarta","city":"Kulon Progo","district":"Temon","urban":"Kaligintung","postal_code":55654},{"province":"DI Yogyakarta","city":"Kulon Progo","district":"Temon","urban":"Glagah","postal_code":55654},{"province":"DI Yogyakarta","city":"Kulon Progo","district":"Temon","urban":"Jangkaran","postal_code":55654},{"province":"DI Yogyakarta","city":"Kulon Progo","district":"Temon","urban":"Janten","postal_code":55654},{"province":"DI Yogyakarta","city":"Kulon Progo","district":"Temon","urban":"Demen","postal_code":55654}]