[{"province":"DI Yogyakarta","city":"Gunung Kidul","district":"Semin","urban":"Semin","postal_code":55854},{"province":"DI Yogyakarta","city":"Gunung Kidul","district":"Semin","urban":"Sumberrejo","postal_code":55854},{"province":"DI Yogyakarta","city":"Gunung Kidul","district":"Semin","urban":"Kemejing","postal_code":55854},{"province":"DI Yogyakarta","city":"Gunung Kidul","district":"Semin","urban":"Pundung Sari","postal_code":55854},{"province":"DI Yogyakarta","city":"Gunung Kidul","district":"Semin","urban":"Rejosari","postal_code":55854},{"province":"DI Yogyakarta","city":"Gunung Kidul","district":"Semin","urban":"Kalitekuk","postal_code":55854},{"province":"DI Yogyakarta","city":"Gunung Kidul","district":"Semin","urban":"Karang Sari","postal_code":55854},{"province":"DI Yogyakarta","city":"Gunung Kidul","district":"Semin","urban":"Bulurejo","postal_code":55854},{"province":"DI Yogyakarta","city":"Gunung Kidul","district":"Semin","urban":"Candi Rejo","postal_code":55854},{"province":"DI Yogyakarta","city":"Gunung Kidul","district":"Semin","urban":"Bendung","postal_code":55854}]