[{"province":"DI Yogyakarta","city":"Gunung Kidul","district":"Patuk","urban":"Terbah","postal_code":55862},{"province":"DI Yogyakarta","city":"Gunung Kidul","district":"Patuk","urban":"Salam","postal_code":55862},{"province":"DI Yogyakarta","city":"Gunung Kidul","district":"Patuk","urban":"Semoyo","postal_code":55862},{"province":"DI Yogyakarta","city":"Gunung Kidul","district":"Patuk","urban":"Putat","postal_code":55862},{"province":"DI Yogyakarta","city":"Gunung Kidul","district":"Patuk","urban":"Pengkok","postal_code":55862},{"province":"DI Yogyakarta","city":"Gunung Kidul","district":"Patuk","urban":"Nglegi","postal_code":55862},{"province":"DI Yogyakarta","city":"Gunung Kidul","district":"Patuk","urban":"Ngoro Oro","postal_code":55862},{"province":"DI Yogyakarta","city":"Gunung Kidul","district":"Patuk","urban":"Patuk","postal_code":55862},{"province":"DI Yogyakarta","city":"Gunung Kidul","district":"Patuk","urban":"Bunder","postal_code":55862},{"province":"DI Yogyakarta","city":"Gunung Kidul","district":"Patuk","urban":"Nglanggeran","postal_code":55862},{"province":"DI Yogyakarta","city":"Gunung Kidul","district":"Patuk","urban":"Beji","postal_code":55862}]