[{"province":"DI Yogyakarta","city":"Gunung Kidul","district":"Playen","urban":"Plembutan","postal_code":55861},{"province":"DI Yogyakarta","city":"Gunung Kidul","district":"Playen","urban":"Playen","postal_code":55861},{"province":"DI Yogyakarta","city":"Gunung Kidul","district":"Playen","urban":"Ngawu","postal_code":55861},{"province":"DI Yogyakarta","city":"Gunung Kidul","district":"Playen","urban":"Ngleri","postal_code":55861},{"province":"DI Yogyakarta","city":"Gunung Kidul","district":"Playen","urban":"Ngunut","postal_code":55861},{"province":"DI Yogyakarta","city":"Gunung Kidul","district":"Playen","urban":"Logandeng","postal_code":55861},{"province":"DI Yogyakarta","city":"Gunung Kidul","district":"Playen","urban":"Dengok","postal_code":55861},{"province":"DI Yogyakarta","city":"Gunung Kidul","district":"Playen","urban":"Gading","postal_code":55861},{"province":"DI Yogyakarta","city":"Gunung Kidul","district":"Playen","urban":"Getas","postal_code":55861},{"province":"DI Yogyakarta","city":"Gunung Kidul","district":"Playen","urban":"Banyusoco","postal_code":55861},{"province":"DI Yogyakarta","city":"Gunung Kidul","district":"Playen","urban":"Bleberan","postal_code":55861},{"province":"DI Yogyakarta","city":"Gunung Kidul","district":"Playen","urban":"Banaran","postal_code":55861},{"province":"DI Yogyakarta","city":"Gunung Kidul","district":"Playen","urban":"Bandung","postal_code":55861}]