[{"province":"DI Yogyakarta","city":"Gunung Kidul","district":"Sapto Sari","urban":"Planjan","postal_code":55871},{"province":"DI Yogyakarta","city":"Gunung Kidul","district":"Paliyan","urban":"Sodo","postal_code":55871},{"province":"DI Yogyakarta","city":"Gunung Kidul","district":"Sapto Sari","urban":"Nglora","postal_code":55871},{"province":"DI Yogyakarta","city":"Gunung Kidul","district":"Paliyan","urban":"Mulusan","postal_code":55871},{"province":"DI Yogyakarta","city":"Gunung Kidul","district":"Paliyan","urban":"Pampang","postal_code":55871},{"province":"DI Yogyakarta","city":"Gunung Kidul","district":"Sapto Sari","urban":"Krambil Sawit","postal_code":55871},{"province":"DI Yogyakarta","city":"Gunung Kidul","district":"Sapto Sari","urban":"Monggol","postal_code":55871},{"province":"DI Yogyakarta","city":"Gunung Kidul","district":"Paliyan","urban":"Karang Asem","postal_code":55871},{"province":"DI Yogyakarta","city":"Gunung Kidul","district":"Paliyan","urban":"Karang Duwet","postal_code":55871},{"province":"DI Yogyakarta","city":"Gunung Kidul","district":"Sapto Sari","urban":"Kepek","postal_code":55871},{"province":"DI Yogyakarta","city":"Gunung Kidul","district":"Sapto Sari","urban":"Kanigoro","postal_code":55871},{"province":"DI Yogyakarta","city":"Gunung Kidul","district":"Paliyan","urban":"Grogol","postal_code":55871},{"province":"DI Yogyakarta","city":"Gunung Kidul","district":"Sapto Sari","urban":"Jetis","postal_code":55871},{"province":"DI Yogyakarta","city":"Gunung Kidul","district":"Paliyan","urban":"Giring","postal_code":55871}]