[{"province":"DI Yogyakarta","city":"Gunung Kidul","district":"Purwosari","urban":"Giritirto","postal_code":55872},{"province":"DI Yogyakarta","city":"Gunung Kidul","district":"Panggang","urban":"Girisuko","postal_code":55872},{"province":"DI Yogyakarta","city":"Gunung Kidul","district":"Panggang","urban":"Giriwungu","postal_code":55872},{"province":"DI Yogyakarta","city":"Gunung Kidul","district":"Purwosari","urban":"Giripurwo","postal_code":55872},{"province":"DI Yogyakarta","city":"Gunung Kidul","district":"Panggang","urban":"Girisekar","postal_code":55872},{"province":"DI Yogyakarta","city":"Gunung Kidul","district":"Purwosari","urban":"Girijati","postal_code":55872},{"province":"DI Yogyakarta","city":"Gunung Kidul","district":"Panggang","urban":"Girikarto","postal_code":55872},{"province":"DI Yogyakarta","city":"Gunung Kidul","district":"Panggang","urban":"Girimulyo","postal_code":55872},{"province":"DI Yogyakarta","city":"Gunung Kidul","district":"Panggang","urban":"Giriharjo","postal_code":55872},{"province":"DI Yogyakarta","city":"Gunung Kidul","district":"Purwosari","urban":"Giriasih","postal_code":55872},{"province":"DI Yogyakarta","city":"Gunung Kidul","district":"Purwosari","urban":"Giricahyo","postal_code":55872}]