[{"province":"DI Yogyakarta","city":"Gunung Kidul","district":"Tepus","urban":"Tepus","postal_code":55881},{"province":"DI Yogyakarta","city":"Gunung Kidul","district":"Tepus","urban":"Sidoharjo","postal_code":55881},{"province":"DI Yogyakarta","city":"Gunung Kidul","district":"Tepus","urban":"Sumber Wungu","postal_code":55881},{"province":"DI Yogyakarta","city":"Gunung Kidul","district":"Tanjungsari","urban":"Ngestirejo","postal_code":55881},{"province":"DI Yogyakarta","city":"Gunung Kidul","district":"Tepus","urban":"Purwodadi","postal_code":55881},{"province":"DI Yogyakarta","city":"Gunung Kidul","district":"Tanjungsari","urban":"Kemadang","postal_code":55881},{"province":"DI Yogyakarta","city":"Gunung Kidul","district":"Tanjungsari","urban":"Kemiri","postal_code":55881},{"province":"DI Yogyakarta","city":"Gunung Kidul","district":"Tanjungsari","urban":"Hargosari","postal_code":55881},{"province":"DI Yogyakarta","city":"Gunung Kidul","district":"Tepus","urban":"Giripanggung","postal_code":55881},{"province":"DI Yogyakarta","city":"Gunung Kidul","district":"Tanjungsari","urban":"Banjarejo","postal_code":55881}]