[{"province":"DI Yogyakarta","city":"Gunung Kidul","district":"Girisubo","urban":"Tileng","postal_code":55883},{"province":"DI Yogyakarta","city":"Gunung Kidul","district":"Girisubo","urban":"Songbanyu","postal_code":55883},{"province":"DI Yogyakarta","city":"Gunung Kidul","district":"Rongkop","urban":"Pucanganom","postal_code":55883},{"province":"DI Yogyakarta","city":"Gunung Kidul","district":"Rongkop","urban":"Semugih","postal_code":55883},{"province":"DI Yogyakarta","city":"Gunung Kidul","district":"Girisubo","urban":"Pucung","postal_code":55883},{"province":"DI Yogyakarta","city":"Gunung Kidul","district":"Rongkop","urban":"Petir","postal_code":55883},{"province":"DI Yogyakarta","city":"Gunung Kidul","district":"Rongkop","urban":"Pringombo","postal_code":55883},{"province":"DI Yogyakarta","city":"Gunung Kidul","district":"Rongkop","urban":"Karangwuni","postal_code":55883},{"province":"DI Yogyakarta","city":"Gunung Kidul","district":"Rongkop","urban":"Melikan","postal_code":55883},{"province":"DI Yogyakarta","city":"Gunung Kidul","district":"Girisubo","urban":"Nglindur","postal_code":55883},{"province":"DI Yogyakarta","city":"Gunung Kidul","district":"Girisubo","urban":"Jepitu","postal_code":55883},{"province":"DI Yogyakarta","city":"Gunung Kidul","district":"Girisubo","urban":"Jerukwudel","postal_code":55883},{"province":"DI Yogyakarta","city":"Gunung Kidul","district":"Girisubo","urban":"Karangawen","postal_code":55883},{"province":"DI Yogyakarta","city":"Gunung Kidul","district":"Rongkop","urban":"Bohol","postal_code":55883},{"province":"DI Yogyakarta","city":"Gunung Kidul","district":"Rongkop","urban":"Botodayakan (Botodayaan)","postal_code":55883},{"province":"DI Yogyakarta","city":"Gunung Kidul","district":"Girisubo","urban":"Balong","postal_code":55883}]