[{"province":"Jawa Tengah","city":"Magelang","district":"Candimulyo","urban":"Tempursari","postal_code":56191},{"province":"Jawa Tengah","city":"Magelang","district":"Candimulyo","urban":"Trenten","postal_code":56191},{"province":"Jawa Tengah","city":"Magelang","district":"Candimulyo","urban":"Tempak","postal_code":56191},{"province":"Jawa Tengah","city":"Magelang","district":"Candimulyo","urban":"Tembelang","postal_code":56191},{"province":"Jawa Tengah","city":"Magelang","district":"Candimulyo","urban":"Tampirwetan","postal_code":56191},{"province":"Jawa Tengah","city":"Magelang","district":"Candimulyo","urban":"Tegalsari","postal_code":56191},{"province":"Jawa Tengah","city":"Magelang","district":"Candimulyo","urban":"Tampirkulon","postal_code":56191},{"province":"Jawa Tengah","city":"Magelang","district":"Candimulyo","urban":"Surodadi","postal_code":56191},{"province":"Jawa Tengah","city":"Magelang","district":"Candimulyo","urban":"Surojoyo","postal_code":56191},{"province":"Jawa Tengah","city":"Magelang","district":"Candimulyo","urban":"Sidomulyo","postal_code":56191},{"province":"Jawa Tengah","city":"Magelang","district":"Candimulyo","urban":"Sonorejo","postal_code":56191},{"province":"Jawa Tengah","city":"Magelang","district":"Candimulyo","urban":"Podosoko","postal_code":56191},{"province":"Jawa Tengah","city":"Magelang","district":"Candimulyo","urban":"Purworejo","postal_code":56191},{"province":"Jawa Tengah","city":"Magelang","district":"Candimulyo","urban":"Mejing","postal_code":56191},{"province":"Jawa Tengah","city":"Magelang","district":"Candimulyo","urban":"Kebonrejo","postal_code":56191},{"province":"Jawa Tengah","city":"Magelang","district":"Candimulyo","urban":"Kembaran","postal_code":56191},{"province":"Jawa Tengah","city":"Magelang","district":"Candimulyo","urban":"Candimulyo","postal_code":56191},{"province":"Jawa Tengah","city":"Magelang","district":"Candimulyo","urban":"Giyanti","postal_code":56191},{"province":"Jawa Tengah","city":"Magelang","district":"Candimulyo","urban":"Bateh","postal_code":56191}]