[{"province":"Jawa Tengah","city":"Temanggung","district":"Temanggung","urban":"Tlogorejo","postal_code":56229},{"province":"Jawa Tengah","city":"Temanggung","district":"Temanggung","urban":"Walitelon Selatan","postal_code":56229},{"province":"Jawa Tengah","city":"Temanggung","district":"Temanggung","urban":"Walitelon Utara","postal_code":56229},{"province":"Jawa Tengah","city":"Temanggung","district":"Temanggung","urban":"Madureso","postal_code":56229},{"province":"Jawa Tengah","city":"Temanggung","district":"Temanggung","urban":"Nampirejo","postal_code":56229},{"province":"Jawa Tengah","city":"Temanggung","district":"Temanggung","urban":"Guntur","postal_code":56229},{"province":"Jawa Tengah","city":"Temanggung","district":"Temanggung","urban":"Joho","postal_code":56229},{"province":"Jawa Tengah","city":"Temanggung","district":"Temanggung","urban":"Lungge","postal_code":56229},{"province":"Jawa Tengah","city":"Temanggung","district":"Temanggung","urban":"Gilingsari","postal_code":56229}]