[{"province":"Jawa Tengah","city":"Temanggung","district":"Kedu","urban":"Tegalsari","postal_code":56252},{"province":"Jawa Tengah","city":"Temanggung","district":"Kedu","urban":"Mojotengah","postal_code":56252},{"province":"Jawa Tengah","city":"Temanggung","district":"Kedu","urban":"Ngadimulyo","postal_code":56252},{"province":"Jawa Tengah","city":"Temanggung","district":"Kedu","urban":"Salamsari","postal_code":56252},{"province":"Jawa Tengah","city":"Temanggung","district":"Kedu","urban":"Kutoanyar","postal_code":56252},{"province":"Jawa Tengah","city":"Temanggung","district":"Kedu","urban":"Mergowati","postal_code":56252},{"province":"Jawa Tengah","city":"Temanggung","district":"Kedu","urban":"Karangtejo","postal_code":56252},{"province":"Jawa Tengah","city":"Temanggung","district":"Kedu","urban":"Kedu","postal_code":56252},{"province":"Jawa Tengah","city":"Temanggung","district":"Kedu","urban":"Kundisari","postal_code":56252},{"province":"Jawa Tengah","city":"Temanggung","district":"Kedu","urban":"Danurejo","postal_code":56252},{"province":"Jawa Tengah","city":"Temanggung","district":"Kedu","urban":"Gondangwayang","postal_code":56252},{"province":"Jawa Tengah","city":"Temanggung","district":"Kedu","urban":"Candimulya","postal_code":56252},{"province":"Jawa Tengah","city":"Temanggung","district":"Kedu","urban":"Bandunggede","postal_code":56252},{"province":"Jawa Tengah","city":"Temanggung","district":"Kedu","urban":"Bojonegoro","postal_code":56252}]