[{"province":"Jawa Tengah","city":"Temanggung","district":"Bansari","urban":"Tanurejo","postal_code":56265},{"province":"Jawa Tengah","city":"Temanggung","district":"Bansari","urban":"Tlogowero","postal_code":56265},{"province":"Jawa Tengah","city":"Temanggung","district":"Bansari","urban":"Purborejo","postal_code":56265},{"province":"Jawa Tengah","city":"Temanggung","district":"Bansari","urban":"Rejosari","postal_code":56265},{"province":"Jawa Tengah","city":"Temanggung","district":"Bansari","urban":"Mranggen Kidul","postal_code":56265},{"province":"Jawa Tengah","city":"Temanggung","district":"Bansari","urban":"Mranggen Tengah","postal_code":56265},{"province":"Jawa Tengah","city":"Temanggung","district":"Bansari","urban":"Gunungsari","postal_code":56265},{"province":"Jawa Tengah","city":"Temanggung","district":"Bansari","urban":"Mojosari","postal_code":56265},{"province":"Jawa Tengah","city":"Temanggung","district":"Bansari","urban":"Campuranom","postal_code":56265},{"province":"Jawa Tengah","city":"Temanggung","district":"Bansari","urban":"Candisari","postal_code":56265},{"province":"Jawa Tengah","city":"Temanggung","district":"Bansari","urban":"Gentingsari","postal_code":56265},{"province":"Jawa Tengah","city":"Temanggung","district":"Bansari","urban":"Balesari","postal_code":56265},{"province":"Jawa Tengah","city":"Temanggung","district":"Bansari","urban":"Bansari","postal_code":56265}]