[{"province":"Jawa Tengah","city":"Temanggung","district":"Gemawang","urban":"Sucen","postal_code":56283},{"province":"Jawa Tengah","city":"Temanggung","district":"Gemawang","urban":"Muncar","postal_code":56283},{"province":"Jawa Tengah","city":"Temanggung","district":"Gemawang","urban":"Ngadisepi","postal_code":56283},{"province":"Jawa Tengah","city":"Temanggung","district":"Gemawang","urban":"Kemiriombo","postal_code":56283},{"province":"Jawa Tengah","city":"Temanggung","district":"Gemawang","urban":"Krempong","postal_code":56283},{"province":"Jawa Tengah","city":"Temanggung","district":"Gemawang","urban":"Karangseneng","postal_code":56283},{"province":"Jawa Tengah","city":"Temanggung","district":"Gemawang","urban":"Gemawang","postal_code":56283},{"province":"Jawa Tengah","city":"Temanggung","district":"Gemawang","urban":"Jambon","postal_code":56283},{"province":"Jawa Tengah","city":"Temanggung","district":"Gemawang","urban":"Kalibanger","postal_code":56283},{"province":"Jawa Tengah","city":"Temanggung","district":"Gemawang","urban":"Banaran","postal_code":56283}]