[{"province":"Jawa Tengah","city":"Wonosobo","district":"Watumalang","urban":"Wonosroyo","postal_code":56352},{"province":"Jawa Tengah","city":"Wonosobo","district":"Watumalang","urban":"Wonoroto","postal_code":56352},{"province":"Jawa Tengah","city":"Wonosobo","district":"Watumalang","urban":"Wonokampir","postal_code":56352},{"province":"Jawa Tengah","city":"Wonosobo","district":"Watumalang","urban":"Pasuruhan","postal_code":56352},{"province":"Jawa Tengah","city":"Wonosobo","district":"Watumalang","urban":"Watumalang","postal_code":56352},{"province":"Jawa Tengah","city":"Wonosobo","district":"Watumalang","urban":"Limbangan","postal_code":56352},{"province":"Jawa Tengah","city":"Wonosobo","district":"Watumalang","urban":"Lumajang","postal_code":56352},{"province":"Jawa Tengah","city":"Wonosobo","district":"Watumalang","urban":"Mutisari","postal_code":56352},{"province":"Jawa Tengah","city":"Wonosobo","district":"Watumalang","urban":"Krinjing","postal_code":56352},{"province":"Jawa Tengah","city":"Wonosobo","district":"Watumalang","urban":"Kuripan","postal_code":56352},{"province":"Jawa Tengah","city":"Wonosobo","district":"Watumalang","urban":"Gumawang Kidul","postal_code":56352},{"province":"Jawa Tengah","city":"Wonosobo","district":"Watumalang","urban":"Kalidesel","postal_code":56352},{"province":"Jawa Tengah","city":"Wonosobo","district":"Watumalang","urban":"Binangun","postal_code":56352},{"province":"Jawa Tengah","city":"Wonosobo","district":"Watumalang","urban":"Bumiroso","postal_code":56352},{"province":"Jawa Tengah","city":"Wonosobo","district":"Watumalang","urban":"Gondang","postal_code":56352},{"province":"Jawa Tengah","city":"Wonosobo","district":"Watumalang","urban":"Banyukembar","postal_code":56352}]