[{"province":"Jawa Tengah","city":"Wonosobo","district":"Kejajar","urban":"Tieng","postal_code":56354},{"province":"Jawa Tengah","city":"Wonosobo","district":"Kejajar","urban":"Tambi","postal_code":56354},{"province":"Jawa Tengah","city":"Wonosobo","district":"Kejajar","urban":"Sikunang","postal_code":56354},{"province":"Jawa Tengah","city":"Wonosobo","district":"Kejajar","urban":"Surengede","postal_code":56354},{"province":"Jawa Tengah","city":"Wonosobo","district":"Kejajar","urban":"Sigedang","postal_code":56354},{"province":"Jawa Tengah","city":"Wonosobo","district":"Kejajar","urban":"Serang","postal_code":56354},{"province":"Jawa Tengah","city":"Wonosobo","district":"Kejajar","urban":"Sembungan","postal_code":56354},{"province":"Jawa Tengah","city":"Wonosobo","district":"Kejajar","urban":"Patakbanteng","postal_code":56354},{"province":"Jawa Tengah","city":"Wonosobo","district":"Kejajar","urban":"Kreo","postal_code":56354},{"province":"Jawa Tengah","city":"Wonosobo","district":"Kejajar","urban":"Parikesit","postal_code":56354},{"province":"Jawa Tengah","city":"Wonosobo","district":"Kejajar","urban":"Kejajar","postal_code":56354},{"province":"Jawa Tengah","city":"Wonosobo","district":"Kejajar","urban":"Jojogan","postal_code":56354},{"province":"Jawa Tengah","city":"Wonosobo","district":"Kejajar","urban":"Dieng","postal_code":56354},{"province":"Jawa Tengah","city":"Wonosobo","district":"Kejajar","urban":"Igirmranak","postal_code":56354},{"province":"Jawa Tengah","city":"Wonosobo","district":"Kejajar","urban":"Buntu","postal_code":56354}]