[{"province":"Jawa Tengah","city":"Wonosobo","district":"Leksono","urban":"Wonokerto","postal_code":56362},{"province":"Jawa Tengah","city":"Wonosobo","district":"Sukoharjo","urban":"Tlogo","postal_code":56362},{"province":"Jawa Tengah","city":"Wonosobo","district":"Leksono","urban":"Timbang","postal_code":56362},{"province":"Jawa Tengah","city":"Wonosobo","district":"Sukoharjo","urban":"Suroyudan","postal_code":56362},{"province":"Jawa Tengah","city":"Wonosobo","district":"Leksono","urban":"Sojokerto","postal_code":56362},{"province":"Jawa Tengah","city":"Wonosobo","district":"Sukoharjo","urban":"Sempol","postal_code":56362},{"province":"Jawa Tengah","city":"Wonosobo","district":"Sukoharjo","urban":"Sukoharjo","postal_code":56362},{"province":"Jawa Tengah","city":"Wonosobo","district":"Leksono","urban":"Sawangan","postal_code":56362},{"province":"Jawa Tengah","city":"Wonosobo","district":"Leksono","urban":"Selokromo","postal_code":56362},{"province":"Jawa Tengah","city":"Wonosobo","district":"Sukoharjo","urban":"Pulus","postal_code":56362},{"province":"Jawa Tengah","city":"Wonosobo","district":"Sukoharjo","urban":"Rogojati","postal_code":56362},{"province":"Jawa Tengah","city":"Wonosobo","district":"Sukoharjo","urban":"Plodongan","postal_code":56362},{"province":"Jawa Tengah","city":"Wonosobo","district":"Leksono","urban":"Pacarmulyo","postal_code":56362},{"province":"Jawa Tengah","city":"Wonosobo","district":"Sukoharjo","urban":"Pucung Wetan","postal_code":56362},{"province":"Jawa Tengah","city":"Wonosobo","district":"Sukoharjo","urban":"Mergosari","postal_code":56362},{"province":"Jawa Tengah","city":"Wonosobo","district":"Leksono","urban":"Manggis","postal_code":56362},{"province":"Jawa Tengah","city":"Wonosobo","district":"Leksono","urban":"Leksono","postal_code":56362},{"province":"Jawa Tengah","city":"Wonosobo","district":"Leksono","urban":"Lipursari","postal_code":56362},{"province":"Jawa Tengah","city":"Wonosobo","district":"Leksono","urban":"Kalimendong","postal_code":56362},{"province":"Jawa Tengah","city":"Wonosobo","district":"Sukoharjo","urban":"Karanganyar","postal_code":56362},{"province":"Jawa Tengah","city":"Wonosobo","district":"Sukoharjo","urban":"Kupangan","postal_code":56362},{"province":"Jawa Tengah","city":"Wonosobo","district":"Sukoharjo","urban":"Kalibening","postal_code":56362},{"province":"Jawa Tengah","city":"Wonosobo","district":"Leksono","urban":"Jlamprang","postal_code":56362},{"province":"Jawa Tengah","city":"Wonosobo","district":"Sukoharjo","urban":"Kajeksan","postal_code":56362},{"province":"Jawa Tengah","city":"Wonosobo","district":"Leksono","urban":"Jonggolsari","postal_code":56362},{"province":"Jawa Tengah","city":"Wonosobo","district":"Sukoharjo","urban":"Gunungtugel","postal_code":56362},{"province":"Jawa Tengah","city":"Wonosobo","district":"Sukoharjo","urban":"Jebengplampitan","postal_code":56362},{"province":"Jawa Tengah","city":"Wonosobo","district":"Sukoharjo","urban":"Garunglor","postal_code":56362},{"province":"Jawa Tengah","city":"Wonosobo","district":"Sukoharjo","urban":"Gumiwang","postal_code":56362},{"province":"Jawa Tengah","city":"Wonosobo","district":"Leksono","urban":"Besani","postal_code":56362},{"province":"Jawa Tengah","city":"Wonosobo","district":"Leksono","urban":"Durensawit","postal_code":56362}]