[{"province":"Jawa Tengah","city":"Wonosobo","district":"Kertek","urban":"Tlogomulyo","postal_code":56371},{"province":"Jawa Tengah","city":"Wonosobo","district":"Kertek","urban":"Wringinanom","postal_code":56371},{"province":"Jawa Tengah","city":"Wonosobo","district":"Kertek","urban":"Sumberdalem","postal_code":56371},{"province":"Jawa Tengah","city":"Wonosobo","district":"Kertek","urban":"Surengede","postal_code":56371},{"province":"Jawa Tengah","city":"Wonosobo","district":"Kertek","urban":"Tlogodalem","postal_code":56371},{"province":"Jawa Tengah","city":"Wonosobo","district":"Kertek","urban":"Sudungdewo","postal_code":56371},{"province":"Jawa Tengah","city":"Wonosobo","district":"Kertek","urban":"Reco","postal_code":56371},{"province":"Jawa Tengah","city":"Wonosobo","district":"Kertek","urban":"Sindupaten","postal_code":56371},{"province":"Jawa Tengah","city":"Wonosobo","district":"Kertek","urban":"Purbosono","postal_code":56371},{"province":"Jawa Tengah","city":"Wonosobo","district":"Kertek","urban":"Purwojati","postal_code":56371},{"province":"Jawa Tengah","city":"Wonosobo","district":"Kertek","urban":"Ngadikusuman","postal_code":56371},{"province":"Jawa Tengah","city":"Wonosobo","district":"Kertek","urban":"Pagerejo","postal_code":56371},{"province":"Jawa Tengah","city":"Wonosobo","district":"Kertek","urban":"Kapencar","postal_code":56371},{"province":"Jawa Tengah","city":"Wonosobo","district":"Kertek","urban":"Karangluhur","postal_code":56371},{"province":"Jawa Tengah","city":"Wonosobo","district":"Kertek","urban":"Kertek","postal_code":56371},{"province":"Jawa Tengah","city":"Wonosobo","district":"Kertek","urban":"Candimulyo","postal_code":56371},{"province":"Jawa Tengah","city":"Wonosobo","district":"Kertek","urban":"Candiyasan","postal_code":56371},{"province":"Jawa Tengah","city":"Wonosobo","district":"Kertek","urban":"Damarkasian","postal_code":56371},{"province":"Jawa Tengah","city":"Wonosobo","district":"Kertek","urban":"Bejiarum","postal_code":56371},{"province":"Jawa Tengah","city":"Wonosobo","district":"Kertek","urban":"Bojasari","postal_code":56371},{"province":"Jawa Tengah","city":"Wonosobo","district":"Kertek","urban":"Banjar","postal_code":56371}]