[{"province":"Jawa Tengah","city":"Wonosobo","district":"Kepil","urban":"Teges Wetan","postal_code":56374},{"province":"Jawa Tengah","city":"Wonosobo","district":"Kepil","urban":"Warangan","postal_code":56374},{"province":"Jawa Tengah","city":"Wonosobo","district":"Kepil","urban":"Tanjunganom","postal_code":56374},{"province":"Jawa Tengah","city":"Wonosobo","district":"Kepil","urban":"Tegalgot","postal_code":56374},{"province":"Jawa Tengah","city":"Wonosobo","district":"Kepil","urban":"Rejosari","postal_code":56374},{"province":"Jawa Tengah","city":"Wonosobo","district":"Kepil","urban":"Rejosari","postal_code":56374},{"province":"Jawa Tengah","city":"Wonosobo","district":"Kepil","urban":"Ropoh","postal_code":56374},{"province":"Jawa Tengah","city":"Wonosobo","district":"Kepil","urban":"Ngalian","postal_code":56374},{"province":"Jawa Tengah","city":"Wonosobo","district":"Kepil","urban":"Pulosaren","postal_code":56374},{"province":"Jawa Tengah","city":"Wonosobo","district":"Kepil","urban":"Kapulogo","postal_code":56374},{"province":"Jawa Tengah","city":"Wonosobo","district":"Kepil","urban":"Kepil","postal_code":56374},{"province":"Jawa Tengah","city":"Wonosobo","district":"Kepil","urban":"Kaliwuluh","postal_code":56374},{"province":"Jawa Tengah","city":"Wonosobo","district":"Kepil","urban":"Kalipuru","postal_code":56374},{"province":"Jawa Tengah","city":"Wonosobo","district":"Kepil","urban":"Jangkrikan","postal_code":56374},{"province":"Jawa Tengah","city":"Wonosobo","district":"Kepil","urban":"Kagungan","postal_code":56374},{"province":"Jawa Tengah","city":"Wonosobo","district":"Kepil","urban":"Gadingsukuh","postal_code":56374},{"province":"Jawa Tengah","city":"Wonosobo","district":"Kepil","urban":"Gondowulan","postal_code":56374},{"province":"Jawa Tengah","city":"Wonosobo","district":"Kepil","urban":"Burat","postal_code":56374},{"province":"Jawa Tengah","city":"Wonosobo","district":"Kepil","urban":"Gadingrejo","postal_code":56374},{"province":"Jawa Tengah","city":"Wonosobo","district":"Kepil","urban":"Bener","postal_code":56374},{"province":"Jawa Tengah","city":"Wonosobo","district":"Kepil","urban":"Beran","postal_code":56374}]