[{"province":"Jawa Tengah","city":"Sragen","district":"Kalijambe","urban":"Trobayan","postal_code":57275},{"province":"Jawa Tengah","city":"Sragen","district":"Kalijambe","urban":"Wonorejo","postal_code":57275},{"province":"Jawa Tengah","city":"Sragen","district":"Kalijambe","urban":"Saren","postal_code":57275},{"province":"Jawa Tengah","city":"Sragen","district":"Kalijambe","urban":"Tegalombo","postal_code":57275},{"province":"Jawa Tengah","city":"Sragen","district":"Kalijambe","urban":"Krikilan","postal_code":57275},{"province":"Jawa Tengah","city":"Sragen","district":"Kalijambe","urban":"Ngebung","postal_code":57275},{"province":"Jawa Tengah","city":"Sragen","district":"Kalijambe","urban":"Samberembe","postal_code":57275},{"province":"Jawa Tengah","city":"Sragen","district":"Kalijambe","urban":"Keden","postal_code":57275},{"province":"Jawa Tengah","city":"Sragen","district":"Kalijambe","urban":"Karangjati","postal_code":57275},{"province":"Jawa Tengah","city":"Sragen","district":"Kalijambe","urban":"Jetis Karangpung","postal_code":57275},{"province":"Jawa Tengah","city":"Sragen","district":"Kalijambe","urban":"Kalimacan","postal_code":57275},{"province":"Jawa Tengah","city":"Sragen","district":"Kalijambe","urban":"Bukuran","postal_code":57275},{"province":"Jawa Tengah","city":"Sragen","district":"Kalijambe","urban":"Donoyudan","postal_code":57275},{"province":"Jawa Tengah","city":"Sragen","district":"Kalijambe","urban":"Banaran","postal_code":57275}]