[{"province":"Jawa Tengah","city":"Boyolali","district":"Simo","urban":"Wates","postal_code":57377},{"province":"Jawa Tengah","city":"Boyolali","district":"Simo","urban":"Teter","postal_code":57377},{"province":"Jawa Tengah","city":"Boyolali","district":"Simo","urban":"Walen","postal_code":57377},{"province":"Jawa Tengah","city":"Boyolali","district":"Simo","urban":"Sumber","postal_code":57377},{"province":"Jawa Tengah","city":"Boyolali","district":"Simo","urban":"Talakbroto","postal_code":57377},{"province":"Jawa Tengah","city":"Boyolali","district":"Simo","urban":"Temon","postal_code":57377},{"province":"Jawa Tengah","city":"Boyolali","district":"Simo","urban":"Pentur","postal_code":57377},{"province":"Jawa Tengah","city":"Boyolali","district":"Simo","urban":"Simo","postal_code":57377},{"province":"Jawa Tengah","city":"Boyolali","district":"Simo","urban":"Kedung Lengkong","postal_code":57377},{"province":"Jawa Tengah","city":"Boyolali","district":"Simo","urban":"Pelem","postal_code":57377},{"province":"Jawa Tengah","city":"Boyolali","district":"Simo","urban":"Blagung","postal_code":57377},{"province":"Jawa Tengah","city":"Boyolali","district":"Simo","urban":"Gunung","postal_code":57377},{"province":"Jawa Tengah","city":"Boyolali","district":"Simo","urban":"Bendungan","postal_code":57377}]