[{"province":"Jawa Tengah","city":"Boyolali","district":"Karanggede","urban":"Sranten","postal_code":57381},{"province":"Jawa Tengah","city":"Boyolali","district":"Karanggede","urban":"Sendang","postal_code":57381},{"province":"Jawa Tengah","city":"Boyolali","district":"Karanggede","urban":"Sempulur","postal_code":57381},{"province":"Jawa Tengah","city":"Boyolali","district":"Karanggede","urban":"Pinggir","postal_code":57381},{"province":"Jawa Tengah","city":"Boyolali","district":"Karanggede","urban":"Pengkol","postal_code":57381},{"province":"Jawa Tengah","city":"Boyolali","district":"Karanggede","urban":"Mojosari","postal_code":57381},{"province":"Jawa Tengah","city":"Boyolali","district":"Karanggede","urban":"Klumpit","postal_code":57381},{"province":"Jawa Tengah","city":"Boyolali","district":"Karanggede","urban":"Manyaran","postal_code":57381},{"province":"Jawa Tengah","city":"Boyolali","district":"Karanggede","urban":"Kebonan","postal_code":57381},{"province":"Jawa Tengah","city":"Boyolali","district":"Karanggede","urban":"Klari","postal_code":57381},{"province":"Jawa Tengah","city":"Boyolali","district":"Karanggede","urban":"Karangkepoh","postal_code":57381},{"province":"Jawa Tengah","city":"Boyolali","district":"Karanggede","urban":"Dologan","postal_code":57381},{"province":"Jawa Tengah","city":"Boyolali","district":"Karanggede","urban":"Grogolan","postal_code":57381},{"province":"Jawa Tengah","city":"Boyolali","district":"Karanggede","urban":"Bantengan","postal_code":57381},{"province":"Jawa Tengah","city":"Boyolali","district":"Karanggede","urban":"Bangkok","postal_code":57381}]