[{"province":"Jawa Tengah","city":"Boyolali","district":"Juwangi","urban":"Sambeng","postal_code":57391},{"province":"Jawa Tengah","city":"Boyolali","district":"Juwangi","urban":"Pilangrejo","postal_code":57391},{"province":"Jawa Tengah","city":"Boyolali","district":"Juwangi","urban":"Ngleses","postal_code":57391},{"province":"Jawa Tengah","city":"Boyolali","district":"Juwangi","urban":"Ngaren","postal_code":57391},{"province":"Jawa Tengah","city":"Boyolali","district":"Juwangi","urban":"Krobokan","postal_code":57391},{"province":"Jawa Tengah","city":"Boyolali","district":"Juwangi","urban":"Kalimati","postal_code":57391},{"province":"Jawa Tengah","city":"Boyolali","district":"Juwangi","urban":"Kayen","postal_code":57391},{"province":"Jawa Tengah","city":"Boyolali","district":"Juwangi","urban":"Juwangi","postal_code":57391},{"province":"Jawa Tengah","city":"Boyolali","district":"Juwangi","urban":"Cerme","postal_code":57391},{"province":"Jawa Tengah","city":"Boyolali","district":"Juwangi","urban":"Jerukan","postal_code":57391}]