[{"province":"Jawa Tengah","city":"Klaten","district":"Ceper","urban":"Tegalrejo","postal_code":57465},{"province":"Jawa Tengah","city":"Klaten","district":"Ceper","urban":"Pokak","postal_code":57465},{"province":"Jawa Tengah","city":"Klaten","district":"Ceper","urban":"Srebegan","postal_code":57465},{"province":"Jawa Tengah","city":"Klaten","district":"Ceper","urban":"Ngawonggo","postal_code":57465},{"province":"Jawa Tengah","city":"Klaten","district":"Ceper","urban":"Pasungan","postal_code":57465},{"province":"Jawa Tengah","city":"Klaten","district":"Ceper","urban":"Meger","postal_code":57465},{"province":"Jawa Tengah","city":"Klaten","district":"Ceper","urban":"Mlese","postal_code":57465},{"province":"Jawa Tengah","city":"Klaten","district":"Ceper","urban":"Kuncen","postal_code":57465},{"province":"Jawa Tengah","city":"Klaten","district":"Ceper","urban":"Kurung","postal_code":57465},{"province":"Jawa Tengah","city":"Klaten","district":"Ceper","urban":"Klepu","postal_code":57465},{"province":"Jawa Tengah","city":"Klaten","district":"Ceper","urban":"Kujon","postal_code":57465},{"province":"Jawa Tengah","city":"Klaten","district":"Ceper","urban":"Jombor","postal_code":57465},{"province":"Jawa Tengah","city":"Klaten","district":"Ceper","urban":"Kajen","postal_code":57465},{"province":"Jawa Tengah","city":"Klaten","district":"Ceper","urban":"Dlimas","postal_code":57465},{"province":"Jawa Tengah","city":"Klaten","district":"Ceper","urban":"Jambu Kidul","postal_code":57465},{"province":"Jawa Tengah","city":"Klaten","district":"Ceper","urban":"Jambu Kulon","postal_code":57465},{"province":"Jawa Tengah","city":"Klaten","district":"Ceper","urban":"Cetan","postal_code":57465},{"province":"Jawa Tengah","city":"Klaten","district":"Ceper","urban":"Ceper","postal_code":57465}]