[{"province":"Jawa Tengah","city":"Klaten","district":"Polanharjo","urban":"Turus","postal_code":57474},{"province":"Jawa Tengah","city":"Klaten","district":"Polanharjo","urban":"Wangen","postal_code":57474},{"province":"Jawa Tengah","city":"Klaten","district":"Polanharjo","urban":"Sidoharjo","postal_code":57474},{"province":"Jawa Tengah","city":"Klaten","district":"Polanharjo","urban":"Sidowayah","postal_code":57474},{"province":"Jawa Tengah","city":"Klaten","district":"Polanharjo","urban":"Ponggok","postal_code":57474},{"province":"Jawa Tengah","city":"Klaten","district":"Polanharjo","urban":"Polan","postal_code":57474},{"province":"Jawa Tengah","city":"Klaten","district":"Polanharjo","urban":"Kranggan","postal_code":57474},{"province":"Jawa Tengah","city":"Klaten","district":"Polanharjo","urban":"Nganjat","postal_code":57474},{"province":"Jawa Tengah","city":"Klaten","district":"Polanharjo","urban":"Ngaran","postal_code":57474},{"province":"Jawa Tengah","city":"Klaten","district":"Polanharjo","urban":"Kebonharjo","postal_code":57474},{"province":"Jawa Tengah","city":"Klaten","district":"Polanharjo","urban":"Keprabon","postal_code":57474},{"province":"Jawa Tengah","city":"Klaten","district":"Polanharjo","urban":"Kapungan","postal_code":57474},{"province":"Jawa Tengah","city":"Klaten","district":"Polanharjo","urban":"Karanglo","postal_code":57474},{"province":"Jawa Tengah","city":"Klaten","district":"Polanharjo","urban":"Kauman","postal_code":57474},{"province":"Jawa Tengah","city":"Klaten","district":"Polanharjo","urban":"Jimus","postal_code":57474},{"province":"Jawa Tengah","city":"Klaten","district":"Polanharjo","urban":"Glagah Wangi","postal_code":57474},{"province":"Jawa Tengah","city":"Klaten","district":"Polanharjo","urban":"Janti","postal_code":57474},{"province":"Jawa Tengah","city":"Klaten","district":"Polanharjo","urban":"Borongan","postal_code":57474}]