[{"province":"Jawa Tengah","city":"Klaten","district":"Trucuk","urban":"Wonosari (Wonososa)","postal_code":57473},{"province":"Jawa Tengah","city":"Klaten","district":"Wonosari","urban":"Teloyo","postal_code":57473},{"province":"Jawa Tengah","city":"Klaten","district":"Wonosari","urban":"Wadung Getas","postal_code":57473},{"province":"Jawa Tengah","city":"Klaten","district":"Wonosari","urban":"Tegalgondo","postal_code":57473},{"province":"Jawa Tengah","city":"Klaten","district":"Wonosari","urban":"Tegalgondo","postal_code":57473},{"province":"Jawa Tengah","city":"Klaten","district":"Wonosari","urban":"Pandanan","postal_code":57473},{"province":"Jawa Tengah","city":"Klaten","district":"Wonosari","urban":"Sekaran","postal_code":57473},{"province":"Jawa Tengah","city":"Klaten","district":"Wonosari","urban":"Sidowarno","postal_code":57473},{"province":"Jawa Tengah","city":"Klaten","district":"Wonosari","urban":"Lumbung Kerep","postal_code":57473},{"province":"Jawa Tengah","city":"Klaten","district":"Wonosari","urban":"Ngreden","postal_code":57473},{"province":"Jawa Tengah","city":"Klaten","district":"Wonosari","urban":"Jelobo","postal_code":57473},{"province":"Jawa Tengah","city":"Klaten","district":"Wonosari","urban":"Kingkang","postal_code":57473},{"province":"Jawa Tengah","city":"Klaten","district":"Wonosari","urban":"Duwet","postal_code":57473},{"province":"Jawa Tengah","city":"Klaten","district":"Wonosari","urban":"Gunting","postal_code":57473},{"province":"Jawa Tengah","city":"Klaten","district":"Wonosari","urban":"Bolali","postal_code":57473},{"province":"Jawa Tengah","city":"Klaten","district":"Wonosari","urban":"Boto","postal_code":57473},{"province":"Jawa Tengah","city":"Klaten","district":"Wonosari","urban":"Bulan","postal_code":57473},{"province":"Jawa Tengah","city":"Klaten","district":"Wonosari","urban":"Bentangan","postal_code":57473},{"province":"Jawa Tengah","city":"Klaten","district":"Wonosari","urban":"Bener","postal_code":57473}]