[{"province":"Jawa Tengah","city":"Klaten","district":"Karangnongko","urban":"Ngemplak","postal_code":57483},{"province":"Jawa Tengah","city":"Klaten","district":"Karangnongko","urban":"Somokaton","postal_code":57483},{"province":"Jawa Tengah","city":"Klaten","district":"Karangnongko","urban":"Karang Nongko","postal_code":57483},{"province":"Jawa Tengah","city":"Klaten","district":"Karangnongko","urban":"Logede","postal_code":57483},{"province":"Jawa Tengah","city":"Klaten","district":"Karangnongko","urban":"Kadilajo","postal_code":57483},{"province":"Jawa Tengah","city":"Klaten","district":"Karangnongko","urban":"Kanoman","postal_code":57483},{"province":"Jawa Tengah","city":"Klaten","district":"Karangnongko","urban":"Jagalan","postal_code":57483},{"province":"Jawa Tengah","city":"Klaten","district":"Karangnongko","urban":"Jetis","postal_code":57483},{"province":"Jawa Tengah","city":"Klaten","district":"Karangnongko","urban":"Jiwan","postal_code":57483},{"province":"Jawa Tengah","city":"Klaten","district":"Karangnongko","urban":"Gumul","postal_code":57483},{"province":"Jawa Tengah","city":"Klaten","district":"Karangnongko","urban":"Demakijo","postal_code":57483},{"province":"Jawa Tengah","city":"Klaten","district":"Karangnongko","urban":"Gemampir","postal_code":57483},{"province":"Jawa Tengah","city":"Klaten","district":"Karangnongko","urban":"Blimbing","postal_code":57483},{"province":"Jawa Tengah","city":"Klaten","district":"Karangnongko","urban":"Banyuaeng","postal_code":57483}]