[{"province":"Jawa Tengah","city":"Wonogiri","district":"Wonogiri","urban":"Wonokerto","postal_code":57615},{"province":"Jawa Tengah","city":"Wonogiri","district":"Wonogiri","urban":"Wonoboyo","postal_code":57615},{"province":"Jawa Tengah","city":"Wonogiri","district":"Wonogiri","urban":"Wonoharjo","postal_code":57615},{"province":"Jawa Tengah","city":"Wonogiri","district":"Wonogiri","urban":"Purwosari","postal_code":57615},{"province":"Jawa Tengah","city":"Wonogiri","district":"Wonogiri","urban":"Sendang","postal_code":57615},{"province":"Jawa Tengah","city":"Wonogiri","district":"Wonogiri","urban":"Sonoharjo","postal_code":57615},{"province":"Jawa Tengah","city":"Wonogiri","district":"Wonogiri","urban":"Pokohkidul","postal_code":57615},{"province":"Jawa Tengah","city":"Wonogiri","district":"Wonogiri","urban":"Purworejo","postal_code":57615},{"province":"Jawa Tengah","city":"Wonogiri","district":"Wonogiri","urban":"Bulusulur","postal_code":57615},{"province":"Jawa Tengah","city":"Wonogiri","district":"Wonogiri","urban":"Manjung","postal_code":57615}]