[{"province":"Jawa Tengah","city":"Wonogiri","district":"Ngadirojo","urban":"Pondok","postal_code":57681},{"province":"Jawa Tengah","city":"Wonogiri","district":"Ngadirojo","urban":"Ngadirojolor","postal_code":57681},{"province":"Jawa Tengah","city":"Wonogiri","district":"Ngadirojo","urban":"Ngadirojokidul","postal_code":57681},{"province":"Jawa Tengah","city":"Wonogiri","district":"Ngadirojo","urban":"Mlokomaniswetan","postal_code":57681},{"province":"Jawa Tengah","city":"Wonogiri","district":"Ngadirojo","urban":"Mlokomaniskulon","postal_code":57681},{"province":"Jawa Tengah","city":"Wonogiri","district":"Ngadirojo","urban":"Kerjolor","postal_code":57681},{"province":"Jawa Tengah","city":"Wonogiri","district":"Ngadirojo","urban":"Kerjokidul","postal_code":57681},{"province":"Jawa Tengah","city":"Wonogiri","district":"Ngadirojo","urban":"Kasihan","postal_code":57681},{"province":"Jawa Tengah","city":"Wonogiri","district":"Ngadirojo","urban":"Jatimarto","postal_code":57681},{"province":"Jawa Tengah","city":"Wonogiri","district":"Ngadirojo","urban":"Gemawang","postal_code":57681},{"province":"Jawa Tengah","city":"Wonogiri","district":"Ngadirojo","urban":"Gedong","postal_code":57681}]