[{"province":"Jawa Tengah","city":"Wonogiri","district":"Slogohimo","urban":"Waru","postal_code":57694},{"province":"Jawa Tengah","city":"Wonogiri","district":"Slogohimo","urban":"Watusomo","postal_code":57694},{"province":"Jawa Tengah","city":"Wonogiri","district":"Slogohimo","urban":"Soco","postal_code":57694},{"province":"Jawa Tengah","city":"Wonogiri","district":"Slogohimo","urban":"Sokoboyo","postal_code":57694},{"province":"Jawa Tengah","city":"Wonogiri","district":"Slogohimo","urban":"Tunggur","postal_code":57694},{"province":"Jawa Tengah","city":"Wonogiri","district":"Slogohimo","urban":"Setren","postal_code":57694},{"province":"Jawa Tengah","city":"Wonogiri","district":"Slogohimo","urban":"Slogohimo","postal_code":57694},{"province":"Jawa Tengah","city":"Wonogiri","district":"Slogohimo","urban":"Sambirejo","postal_code":57694},{"province":"Jawa Tengah","city":"Wonogiri","district":"Slogohimo","urban":"Sedayu","postal_code":57694},{"province":"Jawa Tengah","city":"Wonogiri","district":"Slogohimo","urban":"Padarangin","postal_code":57694},{"province":"Jawa Tengah","city":"Wonogiri","district":"Slogohimo","urban":"Pandan","postal_code":57694},{"province":"Jawa Tengah","city":"Wonogiri","district":"Slogohimo","urban":"Randusari","postal_code":57694},{"province":"Jawa Tengah","city":"Wonogiri","district":"Slogohimo","urban":"Klunggen","postal_code":57694},{"province":"Jawa Tengah","city":"Wonogiri","district":"Slogohimo","urban":"Made","postal_code":57694},{"province":"Jawa Tengah","city":"Wonogiri","district":"Slogohimo","urban":"Gunan","postal_code":57694},{"province":"Jawa Tengah","city":"Wonogiri","district":"Slogohimo","urban":"Karang","postal_code":57694},{"province":"Jawa Tengah","city":"Wonogiri","district":"Slogohimo","urban":"Bulusari","postal_code":57694}]