[{"province":"Jawa Tengah","city":"Wonogiri","district":"Bulukerto","urban":"Ngaglik","postal_code":57697},{"province":"Jawa Tengah","city":"Wonogiri","district":"Bulukerto","urban":"Sugihan","postal_code":57697},{"province":"Jawa Tengah","city":"Wonogiri","district":"Bulukerto","urban":"Tanjung","postal_code":57697},{"province":"Jawa Tengah","city":"Wonogiri","district":"Bulukerto","urban":"Geneng","postal_code":57697},{"province":"Jawa Tengah","city":"Wonogiri","district":"Bulukerto","urban":"Krandegan","postal_code":57697},{"province":"Jawa Tengah","city":"Wonogiri","district":"Bulukerto","urban":"Nadi","postal_code":57697},{"province":"Jawa Tengah","city":"Wonogiri","district":"Bulukerto","urban":"Conto","postal_code":57697},{"province":"Jawa Tengah","city":"Wonogiri","district":"Bulukerto","urban":"Domas","postal_code":57697},{"province":"Jawa Tengah","city":"Wonogiri","district":"Bulukerto","urban":"Bulukerto","postal_code":57697},{"province":"Jawa Tengah","city":"Wonogiri","district":"Bulukerto","urban":"Bulurejo","postal_code":57697}]