[{"province":"Jawa Tengah","city":"Karanganyar","district":"Kebakkramat","urban":"Pulosari","postal_code":57762},{"province":"Jawa Tengah","city":"Karanganyar","district":"Kebakkramat","urban":"Waru","postal_code":57762},{"province":"Jawa Tengah","city":"Karanganyar","district":"Kebakkramat","urban":"Macanan","postal_code":57762},{"province":"Jawa Tengah","city":"Karanganyar","district":"Kebakkramat","urban":"Malanggaten","postal_code":57762},{"province":"Jawa Tengah","city":"Karanganyar","district":"Kebakkramat","urban":"Nangsri","postal_code":57762},{"province":"Jawa Tengah","city":"Karanganyar","district":"Kebakkramat","urban":"Kemiri","postal_code":57762},{"province":"Jawa Tengah","city":"Karanganyar","district":"Kebakkramat","urban":"Kaliwuluh","postal_code":57762},{"province":"Jawa Tengah","city":"Karanganyar","district":"Kebakkramat","urban":"Kebak","postal_code":57762},{"province":"Jawa Tengah","city":"Karanganyar","district":"Kebakkramat","urban":"Banjarharjo","postal_code":57762},{"province":"Jawa Tengah","city":"Karanganyar","district":"Kebakkramat","urban":"Alastuwo","postal_code":57762}]