[{"province":"Jawa Tengah","city":"Grobogan","district":"Kradenan","urban":"Simo","postal_code":58182},{"province":"Jawa Tengah","city":"Grobogan","district":"Kradenan","urban":"Tanjungsari","postal_code":58182},{"province":"Jawa Tengah","city":"Grobogan","district":"Kradenan","urban":"Sengonwetan","postal_code":58182},{"province":"Jawa Tengah","city":"Grobogan","district":"Kradenan","urban":"Rejosari","postal_code":58182},{"province":"Jawa Tengah","city":"Grobogan","district":"Kradenan","urban":"Sambongbangi","postal_code":58182},{"province":"Jawa Tengah","city":"Grobogan","district":"Kradenan","urban":"Kuwu","postal_code":58182},{"province":"Jawa Tengah","city":"Grobogan","district":"Kradenan","urban":"Pakis","postal_code":58182},{"province":"Jawa Tengah","city":"Grobogan","district":"Kradenan","urban":"Kalisari","postal_code":58182},{"province":"Jawa Tengah","city":"Grobogan","district":"Kradenan","urban":"Kradenan","postal_code":58182},{"province":"Jawa Tengah","city":"Grobogan","district":"Kradenan","urban":"Crewek","postal_code":58182},{"province":"Jawa Tengah","city":"Grobogan","district":"Kradenan","urban":"Grabagan","postal_code":58182},{"province":"Jawa Tengah","city":"Grobogan","district":"Kradenan","urban":"Banjardowo","postal_code":58182},{"province":"Jawa Tengah","city":"Grobogan","district":"Kradenan","urban":"Banjarsari","postal_code":58182},{"province":"Jawa Tengah","city":"Grobogan","district":"Kradenan","urban":"Bago","postal_code":58182}]