[{"province":"Jawa Tengah","city":"Grobogan","district":"Tawangharjo","urban":"Selo","postal_code":58191},{"province":"Jawa Tengah","city":"Grobogan","district":"Tawangharjo","urban":"Tarub","postal_code":58191},{"province":"Jawa Tengah","city":"Grobogan","district":"Tawangharjo","urban":"Tawangharjo","postal_code":58191},{"province":"Jawa Tengah","city":"Grobogan","district":"Tawangharjo","urban":"Pojok","postal_code":58191},{"province":"Jawa Tengah","city":"Grobogan","district":"Tawangharjo","urban":"Pulongrambe","postal_code":58191},{"province":"Jawa Tengah","city":"Grobogan","district":"Tawangharjo","urban":"Plosorejo","postal_code":58191},{"province":"Jawa Tengah","city":"Grobogan","district":"Tawangharjo","urban":"Kemaduhbatur","postal_code":58191},{"province":"Jawa Tengah","city":"Grobogan","district":"Tawangharjo","urban":"Mayahan","postal_code":58191},{"province":"Jawa Tengah","city":"Grobogan","district":"Tawangharjo","urban":"Godan","postal_code":58191},{"province":"Jawa Tengah","city":"Grobogan","district":"Tawangharjo","urban":"Jono","postal_code":58191}]