[{"province":"Jawa Tengah","city":"Blora","district":"Blora kota","urban":"Tempuran","postal_code":58219},{"province":"Jawa Tengah","city":"Blora","district":"Blora kota","urban":"Tempurejo","postal_code":58219},{"province":"Jawa Tengah","city":"Blora","district":"Blora kota","urban":"Temurejo","postal_code":58219},{"province":"Jawa Tengah","city":"Blora","district":"Blora kota","urban":"Tegalgunung","postal_code":58219},{"province":"Jawa Tengah","city":"Blora","district":"Blora kota","urban":"Tambaksari","postal_code":58219},{"province":"Jawa Tengah","city":"Blora","district":"Blora kota","urban":"Sendangharjo","postal_code":58219},{"province":"Jawa Tengah","city":"Blora","district":"Blora kota","urban":"Purworejo","postal_code":58219},{"province":"Jawa Tengah","city":"Blora","district":"Blora kota","urban":"Purwosari","postal_code":58219},{"province":"Jawa Tengah","city":"Blora","district":"Blora kota","urban":"Pelem","postal_code":58219},{"province":"Jawa Tengah","city":"Blora","district":"Blora kota","urban":"Plantungan","postal_code":58219},{"province":"Jawa Tengah","city":"Blora","district":"Blora kota","urban":"Ngampel","postal_code":58219},{"province":"Jawa Tengah","city":"Blora","district":"Blora kota","urban":"Patalan","postal_code":58219},{"province":"Jawa Tengah","city":"Blora","district":"Blora kota","urban":"Karangjati","postal_code":58219},{"province":"Jawa Tengah","city":"Blora","district":"Blora kota","urban":"Ngadipurwo","postal_code":58219},{"province":"Jawa Tengah","city":"Blora","district":"Blora kota","urban":"Jepangrejo","postal_code":58219},{"province":"Jawa Tengah","city":"Blora","district":"Blora kota","urban":"Kamolan","postal_code":58219},{"province":"Jawa Tengah","city":"Blora","district":"Blora kota","urban":"Andongrejo","postal_code":58219}]