[{"province":"Jawa Tengah","city":"Blora","district":"Sambong","urban":"Temengeng","postal_code":58371},{"province":"Jawa Tengah","city":"Blora","district":"Sambong","urban":"Sambongrejo","postal_code":58371},{"province":"Jawa Tengah","city":"Blora","district":"Sambong","urban":"Sambong","postal_code":58371},{"province":"Jawa Tengah","city":"Blora","district":"Sambong","urban":"Ledok","postal_code":58371},{"province":"Jawa Tengah","city":"Blora","district":"Sambong","urban":"Pojokwatu","postal_code":58371},{"province":"Jawa Tengah","city":"Blora","district":"Sambong","urban":"Gagakan","postal_code":58371},{"province":"Jawa Tengah","city":"Blora","district":"Sambong","urban":"Giyanti","postal_code":58371},{"province":"Jawa Tengah","city":"Blora","district":"Sambong","urban":"Brabowan","postal_code":58371},{"province":"Jawa Tengah","city":"Blora","district":"Sambong","urban":"Gadu","postal_code":58371},{"province":"Jawa Tengah","city":"Blora","district":"Sambong","urban":"Biting","postal_code":58371}]