[{"province":"Jawa Tengah","city":"Blora","district":"Kradenan","urban":"Sumber","postal_code":58383},{"province":"Jawa Tengah","city":"Blora","district":"Kradenan","urban":"Nglebak","postal_code":58383},{"province":"Jawa Tengah","city":"Blora","district":"Kradenan","urban":"Nglungger","postal_code":58383},{"province":"Jawa Tengah","city":"Blora","district":"Kradenan","urban":"Ngrawoh","postal_code":58383},{"province":"Jawa Tengah","city":"Blora","district":"Kradenan","urban":"Mojorembun","postal_code":58383},{"province":"Jawa Tengah","city":"Blora","district":"Kradenan","urban":"Nginggil","postal_code":58383},{"province":"Jawa Tengah","city":"Blora","district":"Kradenan","urban":"Medalem","postal_code":58383},{"province":"Jawa Tengah","city":"Blora","district":"Kradenan","urban":"Megeri","postal_code":58383},{"province":"Jawa Tengah","city":"Blora","district":"Kradenan","urban":"Mendenrejo","postal_code":58383},{"province":"Jawa Tengah","city":"Blora","district":"Kradenan","urban":"Getas","postal_code":58383}]