[{"province":"Jawa Tengah","city":"Blora","district":"Jati","urban":"Tobo","postal_code":58384},{"province":"Jawa Tengah","city":"Blora","district":"Jati","urban":"Randulawang","postal_code":58384},{"province":"Jawa Tengah","city":"Blora","district":"Jati","urban":"Singget","postal_code":58384},{"province":"Jawa Tengah","city":"Blora","district":"Jati","urban":"Kepoh","postal_code":58384},{"province":"Jawa Tengah","city":"Blora","district":"Jati","urban":"Pelem","postal_code":58384},{"province":"Jawa Tengah","city":"Blora","district":"Jati","urban":"Pengkoljagong","postal_code":58384},{"province":"Jawa Tengah","city":"Blora","district":"Jati","urban":"Jati","postal_code":58384},{"province":"Jawa Tengah","city":"Blora","district":"Jati","urban":"Jegong","postal_code":58384},{"province":"Jawa Tengah","city":"Blora","district":"Jati","urban":"Doplang","postal_code":58384},{"province":"Jawa Tengah","city":"Blora","district":"Jati","urban":"Gabusan","postal_code":58384},{"province":"Jawa Tengah","city":"Blora","district":"Jati","urban":"Gempol","postal_code":58384},{"province":"Jawa Tengah","city":"Blora","district":"Jati","urban":"Bangkleyan","postal_code":58384}]