[{"province":"Jawa Tengah","city":"Pati","district":"Pati","urban":"Widorokandang","postal_code":59119},{"province":"Jawa Tengah","city":"Pati","district":"Pati","urban":"Tambaharjo","postal_code":59119},{"province":"Jawa Tengah","city":"Pati","district":"Pati","urban":"Tambahsari","postal_code":59119},{"province":"Jawa Tengah","city":"Pati","district":"Pati","urban":"Sinoman","postal_code":59119},{"province":"Jawa Tengah","city":"Pati","district":"Pati","urban":"Sugiharjo","postal_code":59119},{"province":"Jawa Tengah","city":"Pati","district":"Pati","urban":"Payang","postal_code":59119},{"province":"Jawa Tengah","city":"Pati","district":"Pati","urban":"Purworejo","postal_code":59119},{"province":"Jawa Tengah","city":"Pati","district":"Pati","urban":"Parenggan","postal_code":59119},{"province":"Jawa Tengah","city":"Pati","district":"Pati","urban":"Mulyoharjo","postal_code":59119},{"province":"Jawa Tengah","city":"Pati","district":"Pati","urban":"Ngepungrojo","postal_code":59119},{"province":"Jawa Tengah","city":"Pati","district":"Pati","urban":"Dengkek","postal_code":59119},{"province":"Jawa Tengah","city":"Pati","district":"Pati","urban":"Geritan","postal_code":59119}]