[{"province":"Jawa Tengah","city":"Pati","district":"Margoyoso","urban":"Tunjungrejo","postal_code":59154},{"province":"Jawa Tengah","city":"Pati","district":"Margoyoso","urban":"Waturoyo","postal_code":59154},{"province":"Jawa Tengah","city":"Pati","district":"Margoyoso","urban":"Soneyan","postal_code":59154},{"province":"Jawa Tengah","city":"Pati","district":"Margoyoso","urban":"Tanjungrejo","postal_code":59154},{"province":"Jawa Tengah","city":"Pati","district":"Margoyoso","urban":"Tegalarum","postal_code":59154},{"province":"Jawa Tengah","city":"Pati","district":"Margoyoso","urban":"Semerak","postal_code":59154},{"province":"Jawa Tengah","city":"Pati","district":"Margoyoso","urban":"Sidomukti","postal_code":59154},{"province":"Jawa Tengah","city":"Pati","district":"Margoyoso","urban":"Purwodadi","postal_code":59154},{"province":"Jawa Tengah","city":"Pati","district":"Margoyoso","urban":"Purworejo","postal_code":59154},{"province":"Jawa Tengah","city":"Pati","district":"Margoyoso","urban":"Sekarjalak","postal_code":59154},{"province":"Jawa Tengah","city":"Pati","district":"Margoyoso","urban":"Pangkalan","postal_code":59154},{"province":"Jawa Tengah","city":"Pati","district":"Margoyoso","urban":"Pohijo","postal_code":59154},{"province":"Jawa Tengah","city":"Pati","district":"Margoyoso","urban":"Ngemplak Kidul","postal_code":59154},{"province":"Jawa Tengah","city":"Pati","district":"Margoyoso","urban":"Ngemplak Lor","postal_code":59154},{"province":"Jawa Tengah","city":"Pati","district":"Margoyoso","urban":"Langgenharjo","postal_code":59154},{"province":"Jawa Tengah","city":"Pati","district":"Margoyoso","urban":"Margotuhu Kidul","postal_code":59154},{"province":"Jawa Tengah","city":"Pati","district":"Margoyoso","urban":"Margoyoso","postal_code":59154},{"province":"Jawa Tengah","city":"Pati","district":"Margoyoso","urban":"Kajen","postal_code":59154},{"province":"Jawa Tengah","city":"Pati","district":"Margoyoso","urban":"Kertomulyo","postal_code":59154},{"province":"Jawa Tengah","city":"Pati","district":"Margoyoso","urban":"Bulumanis Kidul","postal_code":59154},{"province":"Jawa Tengah","city":"Pati","district":"Margoyoso","urban":"Bulumanis Lor","postal_code":59154},{"province":"Jawa Tengah","city":"Pati","district":"Margoyoso","urban":"Cebolek Kidul","postal_code":59154}]