[{"province":"Jawa Tengah","city":"Rembang","district":"Rembang","urban":"Weton","postal_code":59219},{"province":"Jawa Tengah","city":"Rembang","district":"Rembang","urban":"Waru","postal_code":59219},{"province":"Jawa Tengah","city":"Rembang","district":"Rembang","urban":"Tritunggal","postal_code":59219},{"province":"Jawa Tengah","city":"Rembang","district":"Rembang","urban":"Turusgede","postal_code":59219},{"province":"Jawa Tengah","city":"Rembang","district":"Rembang","urban":"Sumberjo","postal_code":59219},{"province":"Jawa Tengah","city":"Rembang","district":"Rembang","urban":"Tireman","postal_code":59219},{"province":"Jawa Tengah","city":"Rembang","district":"Rembang","urban":"Tlogomojo","postal_code":59219},{"province":"Jawa Tengah","city":"Rembang","district":"Rembang","urban":"Sridadi","postal_code":59219},{"province":"Jawa Tengah","city":"Rembang","district":"Rembang","urban":"Sukoharjo","postal_code":59219},{"province":"Jawa Tengah","city":"Rembang","district":"Rembang","urban":"Pulo","postal_code":59219},{"province":"Jawa Tengah","city":"Rembang","district":"Rembang","urban":"Punjulharjo","postal_code":59219},{"province":"Jawa Tengah","city":"Rembang","district":"Rembang","urban":"Ngotet","postal_code":59219},{"province":"Jawa Tengah","city":"Rembang","district":"Rembang","urban":"Padaran","postal_code":59219},{"province":"Jawa Tengah","city":"Rembang","district":"Rembang","urban":"Pasarbanggi","postal_code":59219},{"province":"Jawa Tengah","city":"Rembang","district":"Rembang","urban":"Ngadem","postal_code":59219},{"province":"Jawa Tengah","city":"Rembang","district":"Rembang","urban":"Kumendung","postal_code":59219},{"province":"Jawa Tengah","city":"Rembang","district":"Rembang","urban":"Mondoteko","postal_code":59219},{"province":"Jawa Tengah","city":"Rembang","district":"Rembang","urban":"Kedungrejo","postal_code":59219},{"province":"Jawa Tengah","city":"Rembang","district":"Rembang","urban":"Ketanggi","postal_code":59219},{"province":"Jawa Tengah","city":"Rembang","district":"Rembang","urban":"Kabongan Lor","postal_code":59219},{"province":"Jawa Tengah","city":"Rembang","district":"Rembang","urban":"Kasreman","postal_code":59219},{"province":"Jawa Tengah","city":"Rembang","district":"Rembang","urban":"Gedangan","postal_code":59219}]