[{"province":"Jawa Tengah","city":"Rembang","district":"Sulang","urban":"Sulang","postal_code":59254},{"province":"Jawa Tengah","city":"Rembang","district":"Sulang","urban":"Tanjung","postal_code":59254},{"province":"Jawa Tengah","city":"Rembang","district":"Sulang","urban":"Seren","postal_code":59254},{"province":"Jawa Tengah","city":"Rembang","district":"Sulang","urban":"Sudo","postal_code":59254},{"province":"Jawa Tengah","city":"Rembang","district":"Sulang","urban":"Pranti","postal_code":59254},{"province":"Jawa Tengah","city":"Rembang","district":"Sulang","urban":"Rukem","postal_code":59254},{"province":"Jawa Tengah","city":"Rembang","district":"Sulang","urban":"Pomahan","postal_code":59254},{"province":"Jawa Tengah","city":"Rembang","district":"Sulang","urban":"Pragu","postal_code":59254},{"province":"Jawa Tengah","city":"Rembang","district":"Sulang","urban":"Pedak","postal_code":59254},{"province":"Jawa Tengah","city":"Rembang","district":"Sulang","urban":"Kunir","postal_code":59254},{"province":"Jawa Tengah","city":"Rembang","district":"Sulang","urban":"Landoh","postal_code":59254},{"province":"Jawa Tengah","city":"Rembang","district":"Sulang","urban":"Kerep","postal_code":59254},{"province":"Jawa Tengah","city":"Rembang","district":"Sulang","urban":"Korowelang","postal_code":59254},{"province":"Jawa Tengah","city":"Rembang","district":"Sulang","urban":"Kebonagung","postal_code":59254},{"province":"Jawa Tengah","city":"Rembang","district":"Sulang","urban":"Kemadu","postal_code":59254},{"province":"Jawa Tengah","city":"Rembang","district":"Sulang","urban":"Karangharjo","postal_code":59254},{"province":"Jawa Tengah","city":"Rembang","district":"Sulang","urban":"Karangsari","postal_code":59254},{"province":"Jawa Tengah","city":"Rembang","district":"Sulang","urban":"Jatimudo","postal_code":59254},{"province":"Jawa Tengah","city":"Rembang","district":"Sulang","urban":"Kaliombo","postal_code":59254},{"province":"Jawa Tengah","city":"Rembang","district":"Sulang","urban":"Bogorame","postal_code":59254},{"province":"Jawa Tengah","city":"Rembang","district":"Sulang","urban":"Glebeg","postal_code":59254}]