[{"province":"Jawa Tengah","city":"Rembang","district":"Gunem","urban":"Trembes","postal_code":59263},{"province":"Jawa Tengah","city":"Rembang","district":"Gunem","urban":"Telgawah","postal_code":59263},{"province":"Jawa Tengah","city":"Rembang","district":"Gunem","urban":"Timbrangan","postal_code":59263},{"province":"Jawa Tengah","city":"Rembang","district":"Gunem","urban":"Sidomulyo","postal_code":59263},{"province":"Jawa Tengah","city":"Rembang","district":"Gunem","urban":"Tegaldowo","postal_code":59263},{"province":"Jawa Tengah","city":"Rembang","district":"Gunem","urban":"Sidomulyo","postal_code":59263},{"province":"Jawa Tengah","city":"Rembang","district":"Gunem","urban":"Sendangmulyo","postal_code":59263},{"province":"Jawa Tengah","city":"Rembang","district":"Gunem","urban":"Panohan","postal_code":59263},{"province":"Jawa Tengah","city":"Rembang","district":"Gunem","urban":"Pasucen","postal_code":59263},{"province":"Jawa Tengah","city":"Rembang","district":"Gunem","urban":"Sambongpayak","postal_code":59263},{"province":"Jawa Tengah","city":"Rembang","district":"Gunem","urban":"Kajar","postal_code":59263},{"province":"Jawa Tengah","city":"Rembang","district":"Gunem","urban":"Kulutan","postal_code":59263},{"province":"Jawa Tengah","city":"Rembang","district":"Gunem","urban":"Dowan","postal_code":59263},{"province":"Jawa Tengah","city":"Rembang","district":"Gunem","urban":"Gunem","postal_code":59263},{"province":"Jawa Tengah","city":"Rembang","district":"Gunem","urban":"Banyuurip","postal_code":59263},{"province":"Jawa Tengah","city":"Rembang","district":"Gunem","urban":"Demaan","postal_code":59263}]