[{"province":"Jawa Tengah","city":"Rembang","district":"Sedan","urban":"Sidomulyo","postal_code":59264},{"province":"Jawa Tengah","city":"Rembang","district":"Sedan","urban":"Sidorejo","postal_code":59264},{"province":"Jawa Tengah","city":"Rembang","district":"Sedan","urban":"Sambong","postal_code":59264},{"province":"Jawa Tengah","city":"Rembang","district":"Sedan","urban":"Sedan","postal_code":59264},{"province":"Jawa Tengah","city":"Rembang","district":"Sedan","urban":"Sambiroto","postal_code":59264},{"province":"Jawa Tengah","city":"Rembang","district":"Sedan","urban":"Sambiroto","postal_code":59264},{"province":"Jawa Tengah","city":"Rembang","district":"Sedan","urban":"Mojosari","postal_code":59264},{"province":"Jawa Tengah","city":"Rembang","district":"Sedan","urban":"Ngulahan","postal_code":59264},{"province":"Jawa Tengah","city":"Rembang","district":"Sedan","urban":"Kumbo","postal_code":59264},{"province":"Jawa Tengah","city":"Rembang","district":"Sedan","urban":"Lemahputih","postal_code":59264},{"province":"Jawa Tengah","city":"Rembang","district":"Sedan","urban":"Menoro","postal_code":59264},{"province":"Jawa Tengah","city":"Rembang","district":"Sedan","urban":"Kedungringin","postal_code":59264},{"province":"Jawa Tengah","city":"Rembang","district":"Sedan","urban":"Kenongo","postal_code":59264},{"province":"Jawa Tengah","city":"Rembang","district":"Sedan","urban":"Jambeyan","postal_code":59264},{"province":"Jawa Tengah","city":"Rembang","district":"Sedan","urban":"Karangasem","postal_code":59264},{"province":"Jawa Tengah","city":"Rembang","district":"Sedan","urban":"Karas","postal_code":59264},{"province":"Jawa Tengah","city":"Rembang","district":"Sedan","urban":"Gandrirojo","postal_code":59264},{"province":"Jawa Tengah","city":"Rembang","district":"Sedan","urban":"Gesikan","postal_code":59264},{"province":"Jawa Tengah","city":"Rembang","district":"Sedan","urban":"Candimulyo","postal_code":59264},{"province":"Jawa Tengah","city":"Rembang","district":"Sedan","urban":"Dadapan","postal_code":59264},{"province":"Jawa Tengah","city":"Rembang","district":"Sedan","urban":"Bogorejo","postal_code":59264}]