[{"province":"Jawa Tengah","city":"Kudus","district":"Gebog","urban":"Rahtawu","postal_code":59333},{"province":"Jawa Tengah","city":"Kudus","district":"Gebog","urban":"Padurenan","postal_code":59333},{"province":"Jawa Tengah","city":"Kudus","district":"Gebog","urban":"Menawan","postal_code":59333},{"province":"Jawa Tengah","city":"Kudus","district":"Gebog","urban":"Kedungsari","postal_code":59333},{"province":"Jawa Tengah","city":"Kudus","district":"Gebog","urban":"Klumpit","postal_code":59333},{"province":"Jawa Tengah","city":"Kudus","district":"Gebog","urban":"Karangmalang","postal_code":59333},{"province":"Jawa Tengah","city":"Kudus","district":"Gebog","urban":"Jurang","postal_code":59333},{"province":"Jawa Tengah","city":"Kudus","district":"Gebog","urban":"Gribig","postal_code":59333},{"province":"Jawa Tengah","city":"Kudus","district":"Gebog","urban":"Getasrabi","postal_code":59333},{"province":"Jawa Tengah","city":"Kudus","district":"Gebog","urban":"Gondosari","postal_code":59333},{"province":"Jawa Tengah","city":"Kudus","district":"Gebog","urban":"Besito","postal_code":59333}]