[{"province":"Jawa Tengah","city":"Kudus","district":"Undaan","urban":"Wonosoco","postal_code":59372},{"province":"Jawa Tengah","city":"Kudus","district":"Undaan","urban":"Undaan Tengah","postal_code":59372},{"province":"Jawa Tengah","city":"Kudus","district":"Undaan","urban":"Wates","postal_code":59372},{"province":"Jawa Tengah","city":"Kudus","district":"Undaan","urban":"Undaan Lor","postal_code":59372},{"province":"Jawa Tengah","city":"Kudus","district":"Undaan","urban":"Undaan Kidul","postal_code":59372},{"province":"Jawa Tengah","city":"Kudus","district":"Undaan","urban":"Ngemplak","postal_code":59372},{"province":"Jawa Tengah","city":"Kudus","district":"Undaan","urban":"Sambung","postal_code":59372},{"province":"Jawa Tengah","city":"Kudus","district":"Undaan","urban":"Terangmas","postal_code":59372},{"province":"Jawa Tengah","city":"Kudus","district":"Undaan","urban":"Lambangan","postal_code":59372},{"province":"Jawa Tengah","city":"Kudus","district":"Undaan","urban":"Larikrejo","postal_code":59372},{"province":"Jawa Tengah","city":"Kudus","district":"Undaan","urban":"Medini","postal_code":59372},{"province":"Jawa Tengah","city":"Kudus","district":"Undaan","urban":"Karangrowo","postal_code":59372},{"province":"Jawa Tengah","city":"Kudus","district":"Undaan","urban":"Kutuk","postal_code":59372},{"province":"Jawa Tengah","city":"Kudus","district":"Undaan","urban":"Glagahwaru","postal_code":59372},{"province":"Jawa Tengah","city":"Kudus","district":"Undaan","urban":"Kalirejo","postal_code":59372},{"province":"Jawa Tengah","city":"Kudus","district":"Undaan","urban":"Berugenjang","postal_code":59372}]