[{"province":"Jawa Tengah","city":"Jepara","district":"Bangsri","urban":"Tengguli","postal_code":59453},{"province":"Jawa Tengah","city":"Jepara","district":"Bangsri","urban":"Wedelan","postal_code":59453},{"province":"Jawa Tengah","city":"Jepara","district":"Kembang","urban":"Tubanan","postal_code":59453},{"province":"Jawa Tengah","city":"Jepara","district":"Bangsri","urban":"Srikandang","postal_code":59453},{"province":"Jawa Tengah","city":"Jepara","district":"Kembang","urban":"Pendem","postal_code":59453},{"province":"Jawa Tengah","city":"Jepara","district":"Kembang","urban":"Sumanding","postal_code":59453},{"province":"Jawa Tengah","city":"Jepara","district":"Bangsri","urban":"Kepuk","postal_code":59453},{"province":"Jawa Tengah","city":"Jepara","district":"Bangsri","urban":"Papasan","postal_code":59453},{"province":"Jawa Tengah","city":"Jepara","district":"Kembang","urban":"Kancilan","postal_code":59453},{"province":"Jawa Tengah","city":"Jepara","district":"Bangsri","urban":"Kedungleper","postal_code":59453},{"province":"Jawa Tengah","city":"Jepara","district":"Kembang","urban":"Jinggotan","postal_code":59453},{"province":"Jawa Tengah","city":"Jepara","district":"Kembang","urban":"Kaliaman","postal_code":59453},{"province":"Jawa Tengah","city":"Jepara","district":"Bangsri","urban":"Guyangan","postal_code":59453},{"province":"Jawa Tengah","city":"Jepara","district":"Bangsri","urban":"Jerukwangi","postal_code":59453},{"province":"Jawa Tengah","city":"Jepara","district":"Kembang","urban":"Cepogo","postal_code":59453},{"province":"Jawa Tengah","city":"Jepara","district":"Kembang","urban":"Dermolo","postal_code":59453},{"province":"Jawa Tengah","city":"Jepara","district":"Kembang","urban":"Dudakawu","postal_code":59453},{"province":"Jawa Tengah","city":"Jepara","district":"Bangsri","urban":"Banjaran","postal_code":59453},{"province":"Jawa Tengah","city":"Jepara","district":"Bangsri","urban":"Bondo","postal_code":59453},{"province":"Jawa Tengah","city":"Jepara","district":"Kembang","urban":"Bucu","postal_code":59453},{"province":"Jawa Tengah","city":"Jepara","district":"Bangsri","urban":"Bangsri","postal_code":59453},{"province":"Jawa Tengah","city":"Jepara","district":"Bangsri","urban":"Banjar Agung","postal_code":59453},{"province":"Jawa Tengah","city":"Jepara","district":"Kembang","urban":"Balong","postal_code":59453}]