[{"province":"Jawa Tengah","city":"Jepara","district":"Pakis Aji","urban":"Suwawal Timur","postal_code":59452},{"province":"Jawa Tengah","city":"Jepara","district":"Pakis Aji","urban":"Tanjung","postal_code":59452},{"province":"Jawa Tengah","city":"Jepara","district":"Pakis Aji","urban":"Slagi","postal_code":59452},{"province":"Jawa Tengah","city":"Jepara","district":"Mlonggo","urban":"Suwawal","postal_code":59452},{"province":"Jawa Tengah","city":"Jepara","district":"Pakis Aji","urban":"Slagi","postal_code":59452},{"province":"Jawa Tengah","city":"Jepara","district":"Mlonggo","urban":"Sinanggul","postal_code":59452},{"province":"Jawa Tengah","city":"Jepara","district":"Mlonggo","urban":"Sekuro","postal_code":59452},{"province":"Jawa Tengah","city":"Jepara","district":"Pakis Aji","urban":"Plajan","postal_code":59452},{"province":"Jawa Tengah","city":"Jepara","district":"Pakis Aji","urban":"Lebak","postal_code":59452},{"province":"Jawa Tengah","city":"Jepara","district":"Pakis Aji","urban":"Mambak","postal_code":59452},{"province":"Jawa Tengah","city":"Jepara","district":"Mlonggo","urban":"Mororejo","postal_code":59452},{"province":"Jawa Tengah","city":"Jepara","district":"Pakis Aji","urban":"Kawak","postal_code":59452},{"province":"Jawa Tengah","city":"Jepara","district":"Mlonggo","urban":"Karanggondang","postal_code":59452},{"province":"Jawa Tengah","city":"Jepara","district":"Mlonggo","urban":"Jambu","postal_code":59452},{"province":"Jawa Tengah","city":"Jepara","district":"Mlonggo","urban":"Jambu Timur","postal_code":59452},{"province":"Jawa Tengah","city":"Jepara","district":"Pakis Aji","urban":"Bulungan","postal_code":59452}]