[{"province":"Jawa Tengah","city":"Jepara","district":"Keling","urban":"Watuaji","postal_code":59454},{"province":"Jawa Tengah","city":"Jepara","district":"Keling","urban":"Tunahan","postal_code":59454},{"province":"Jawa Tengah","city":"Jepara","district":"Donorojo","urban":"Tulakan","postal_code":59454},{"province":"Jawa Tengah","city":"Jepara","district":"Donorojo","urban":"Ujungwatu","postal_code":59454},{"province":"Jawa Tengah","city":"Jepara","district":"Keling","urban":"Kunir","postal_code":59454},{"province":"Jawa Tengah","city":"Jepara","district":"Keling","urban":"Tempur","postal_code":59454},{"province":"Jawa Tengah","city":"Jepara","district":"Donorojo","urban":"Sumber Rejo","postal_code":59454},{"province":"Jawa Tengah","city":"Jepara","district":"Keling","urban":"Kelet","postal_code":59454},{"province":"Jawa Tengah","city":"Jepara","district":"Keling","urban":"Keling","postal_code":59454},{"province":"Jawa Tengah","city":"Jepara","district":"Keling","urban":"Klepu","postal_code":59454},{"province":"Jawa Tengah","city":"Jepara","district":"Keling","urban":"Jlegong","postal_code":59454},{"province":"Jawa Tengah","city":"Jepara","district":"Keling","urban":"Kaligarang","postal_code":59454},{"province":"Jawa Tengah","city":"Jepara","district":"Donorojo","urban":"Jugo","postal_code":59454},{"province":"Jawa Tengah","city":"Jepara","district":"Keling","urban":"Damarwulan","postal_code":59454},{"province":"Jawa Tengah","city":"Jepara","district":"Keling","urban":"Gelang","postal_code":59454},{"province":"Jawa Tengah","city":"Jepara","district":"Donorojo","urban":"Clering","postal_code":59454},{"province":"Jawa Tengah","city":"Jepara","district":"Keling","urban":"Bumiharjo","postal_code":59454},{"province":"Jawa Tengah","city":"Jepara","district":"Donorojo","urban":"Blingoh","postal_code":59454},{"province":"Jawa Tengah","city":"Jepara","district":"Donorojo","urban":"Bandungharjo","postal_code":59454},{"province":"Jawa Tengah","city":"Jepara","district":"Donorojo","urban":"Banyumanis","postal_code":59454}]