[{"province":"Jawa Tengah","city":"Jepara","district":"Pecangaan","urban":"Troso","postal_code":59462},{"province":"Jawa Tengah","city":"Jepara","district":"Kalinyamatan","urban":"Robayan","postal_code":59462},{"province":"Jawa Tengah","city":"Jepara","district":"Kalinyamatan","urban":"Sendang","postal_code":59462},{"province":"Jawa Tengah","city":"Jepara","district":"Pecangaan","urban":"Rengging","postal_code":59462},{"province":"Jawa Tengah","city":"Jepara","district":"Kalinyamatan","urban":"Purwogondo","postal_code":59462},{"province":"Jawa Tengah","city":"Jepara","district":"Pecangaan","urban":"Pecangaan Wetan","postal_code":59462},{"province":"Jawa Tengah","city":"Jepara","district":"Pecangaan","urban":"Pulodarat","postal_code":59462},{"province":"Jawa Tengah","city":"Jepara","district":"Kalinyamatan","urban":"Pendosawalan","postal_code":59462},{"province":"Jawa Tengah","city":"Jepara","district":"Pecangaan","urban":"Ngeling","postal_code":59462},{"province":"Jawa Tengah","city":"Jepara","district":"Pecangaan","urban":"Pecangaan Kulon","postal_code":59462},{"province":"Jawa Tengah","city":"Jepara","district":"Pecangaan","urban":"Lebuawu","postal_code":59462},{"province":"Jawa Tengah","city":"Jepara","district":"Kalinyamatan","urban":"Manyargading","postal_code":59462},{"province":"Jawa Tengah","city":"Jepara","district":"Kalinyamatan","urban":"Margoyoso","postal_code":59462},{"province":"Jawa Tengah","city":"Jepara","district":"Pecangaan","urban":"Krasak","postal_code":59462},{"province":"Jawa Tengah","city":"Jepara","district":"Kalinyamatan","urban":"Kriyan","postal_code":59462},{"province":"Jawa Tengah","city":"Jepara","district":"Pecangaan","urban":"Karangrandu","postal_code":59462},{"province":"Jawa Tengah","city":"Jepara","district":"Pecangaan","urban":"Gerdu","postal_code":59462},{"province":"Jawa Tengah","city":"Jepara","district":"Pecangaan","urban":"Kaliombo","postal_code":59462},{"province":"Jawa Tengah","city":"Jepara","district":"Pecangaan","urban":"Gemulung","postal_code":59462},{"province":"Jawa Tengah","city":"Jepara","district":"Kalinyamatan","urban":"Damarjati","postal_code":59462},{"province":"Jawa Tengah","city":"Jepara","district":"Kalinyamatan","urban":"Banyuputih","postal_code":59462},{"province":"Jawa Tengah","city":"Jepara","district":"Kalinyamatan","urban":"Batukali","postal_code":59462},{"province":"Jawa Tengah","city":"Jepara","district":"Kalinyamatan","urban":"Bakalan","postal_code":59462},{"province":"Jawa Tengah","city":"Jepara","district":"Kalinyamatan","urban":"Bandungrejo","postal_code":59462}]