[{"province":"Jawa Tengah","city":"Jepara","district":"Nalumsari","urban":"Pringtulis","postal_code":59466},{"province":"Jawa Tengah","city":"Jepara","district":"Nalumsari","urban":"Tritis","postal_code":59466},{"province":"Jawa Tengah","city":"Jepara","district":"Nalumsari","urban":"Tunggulpandean","postal_code":59466},{"province":"Jawa Tengah","city":"Jepara","district":"Nalumsari","urban":"Muryolobo","postal_code":59466},{"province":"Jawa Tengah","city":"Jepara","district":"Nalumsari","urban":"Nalumsari","postal_code":59466},{"province":"Jawa Tengah","city":"Jepara","district":"Nalumsari","urban":"Ngetuk","postal_code":59466},{"province":"Jawa Tengah","city":"Jepara","district":"Nalumsari","urban":"Jatisari","postal_code":59466},{"province":"Jawa Tengah","city":"Jepara","district":"Nalumsari","urban":"Karangnongko","postal_code":59466},{"province":"Jawa Tengah","city":"Jepara","district":"Nalumsari","urban":"Gemiring Kidul","postal_code":59466},{"province":"Jawa Tengah","city":"Jepara","district":"Nalumsari","urban":"Gemiring Lor","postal_code":59466},{"province":"Jawa Tengah","city":"Jepara","district":"Nalumsari","urban":"Daren","postal_code":59466},{"province":"Jawa Tengah","city":"Jepara","district":"Nalumsari","urban":"Dorang","postal_code":59466},{"province":"Jawa Tengah","city":"Jepara","district":"Nalumsari","urban":"Blimbingrejo","postal_code":59466},{"province":"Jawa Tengah","city":"Jepara","district":"Nalumsari","urban":"Bategede","postal_code":59466},{"province":"Jawa Tengah","city":"Jepara","district":"Nalumsari","urban":"Bendanpete","postal_code":59466}]