[{"province":"Jawa Tengah","city":"Demak","district":"Wonosalam","urban":"Trengguli","postal_code":59571},{"province":"Jawa Tengah","city":"Demak","district":"Wonosalam","urban":"Wonosalam","postal_code":59571},{"province":"Jawa Tengah","city":"Demak","district":"Wonosalam","urban":"Tlogodowo","postal_code":59571},{"province":"Jawa Tengah","city":"Demak","district":"Wonosalam","urban":"Tlogorejo","postal_code":59571},{"province":"Jawa Tengah","city":"Demak","district":"Wonosalam","urban":"Pilangrejo","postal_code":59571},{"province":"Jawa Tengah","city":"Demak","district":"Wonosalam","urban":"Sido Mulyo","postal_code":59571},{"province":"Jawa Tengah","city":"Demak","district":"Wonosalam","urban":"Mranak","postal_code":59571},{"province":"Jawa Tengah","city":"Demak","district":"Wonosalam","urban":"Mrisen","postal_code":59571},{"province":"Jawa Tengah","city":"Demak","district":"Wonosalam","urban":"Lempuyang","postal_code":59571},{"province":"Jawa Tengah","city":"Demak","district":"Wonosalam","urban":"Mojodemak","postal_code":59571},{"province":"Jawa Tengah","city":"Demak","district":"Wonosalam","urban":"Kerangkulon","postal_code":59571},{"province":"Jawa Tengah","city":"Demak","district":"Wonosalam","urban":"Kuncir","postal_code":59571},{"province":"Jawa Tengah","city":"Demak","district":"Wonosalam","urban":"Karangrejo","postal_code":59571},{"province":"Jawa Tengah","city":"Demak","district":"Wonosalam","urban":"Karangrowo","postal_code":59571},{"province":"Jawa Tengah","city":"Demak","district":"Wonosalam","urban":"Kendaldoyong","postal_code":59571},{"province":"Jawa Tengah","city":"Demak","district":"Wonosalam","urban":"Jogoloyo","postal_code":59571},{"province":"Jawa Tengah","city":"Demak","district":"Wonosalam","urban":"Kalianyar","postal_code":59571},{"province":"Jawa Tengah","city":"Demak","district":"Wonosalam","urban":"Bunderan","postal_code":59571},{"province":"Jawa Tengah","city":"Demak","district":"Wonosalam","urban":"Doreng","postal_code":59571},{"province":"Jawa Tengah","city":"Demak","district":"Wonosalam","urban":"Getas","postal_code":59571},{"province":"Jawa Tengah","city":"Demak","district":"Wonosalam","urban":"Botorejo","postal_code":59571}]