[{"province":"Jawa Tengah","city":"Demak","district":"Dempet","urban":"Merak","postal_code":59573},{"province":"Jawa Tengah","city":"Demak","district":"Dempet","urban":"Sidomulyo","postal_code":59573},{"province":"Jawa Tengah","city":"Demak","district":"Dempet","urban":"Kunir","postal_code":59573},{"province":"Jawa Tengah","city":"Demak","district":"Dempet","urban":"Kuwu","postal_code":59573},{"province":"Jawa Tengah","city":"Demak","district":"Dempet","urban":"Kedungori","postal_code":59573},{"province":"Jawa Tengah","city":"Demak","district":"Dempet","urban":"Kramat","postal_code":59573},{"province":"Jawa Tengah","city":"Demak","district":"Dempet","urban":"Karangrejo","postal_code":59573},{"province":"Jawa Tengah","city":"Demak","district":"Dempet","urban":"Kebonsari","postal_code":59573},{"province":"Jawa Tengah","city":"Demak","district":"Dempet","urban":"Jerukgulung","postal_code":59573},{"province":"Jawa Tengah","city":"Demak","district":"Dempet","urban":"Dempet","postal_code":59573},{"province":"Jawa Tengah","city":"Demak","district":"Dempet","urban":"Gempoldenok","postal_code":59573},{"province":"Jawa Tengah","city":"Demak","district":"Dempet","urban":"Harjowinangun","postal_code":59573},{"province":"Jawa Tengah","city":"Demak","district":"Dempet","urban":"Botosengon","postal_code":59573},{"province":"Jawa Tengah","city":"Demak","district":"Dempet","urban":"Brakas","postal_code":59573},{"province":"Jawa Tengah","city":"Demak","district":"Dempet","urban":"Baleromo","postal_code":59573},{"province":"Jawa Tengah","city":"Demak","district":"Dempet","urban":"Balerejo","postal_code":59573}]