[{"province":"Jawa Tengah","city":"Demak","district":"Kebonagung","urban":"Tlogosih","postal_code":59583},{"province":"Jawa Tengah","city":"Demak","district":"Mijen","urban":"Tanggul","postal_code":59583},{"province":"Jawa Tengah","city":"Demak","district":"Kebonagung","urban":"Werdoyo","postal_code":59583},{"province":"Jawa Tengah","city":"Demak","district":"Kebonagung","urban":"Sarimulyo","postal_code":59583},{"province":"Jawa Tengah","city":"Demak","district":"Kebonagung","urban":"Soko Kidul","postal_code":59583},{"province":"Jawa Tengah","city":"Demak","district":"Kebonagung","urban":"Solowire","postal_code":59583},{"province":"Jawa Tengah","city":"Demak","district":"Kebonagung","urban":"Prigi","postal_code":59583},{"province":"Jawa Tengah","city":"Demak","district":"Mijen","urban":"Rejosari","postal_code":59583},{"province":"Jawa Tengah","city":"Demak","district":"Kebonagung","urban":"Pilangwetan","postal_code":59583},{"province":"Jawa Tengah","city":"Demak","district":"Mijen","urban":"Pasir","postal_code":59583},{"province":"Jawa Tengah","city":"Demak","district":"Mijen","urban":"Pecuk","postal_code":59583},{"province":"Jawa Tengah","city":"Demak","district":"Mijen","urban":"Ngelo Kulon","postal_code":59583},{"province":"Jawa Tengah","city":"Demak","district":"Mijen","urban":"Ngelo Wetan","postal_code":59583},{"province":"Jawa Tengah","city":"Demak","district":"Mijen","urban":"Mijen","postal_code":59583},{"province":"Jawa Tengah","city":"Demak","district":"Mijen","urban":"Mlaten","postal_code":59583},{"province":"Jawa Tengah","city":"Demak","district":"Mijen","urban":"Ngegot","postal_code":59583},{"province":"Jawa Tengah","city":"Demak","district":"Kebonagung","urban":"Megonten","postal_code":59583},{"province":"Jawa Tengah","city":"Demak","district":"Kebonagung","urban":"Mijen","postal_code":59583},{"province":"Jawa Tengah","city":"Demak","district":"Kebonagung","urban":"Klampok Lor","postal_code":59583},{"province":"Jawa Tengah","city":"Demak","district":"Kebonagung","urban":"Mangunan Lor","postal_code":59583},{"province":"Jawa Tengah","city":"Demak","district":"Kebonagung","urban":"Mangunrejo","postal_code":59583},{"province":"Jawa Tengah","city":"Demak","district":"Kebonagung","urban":"Kebonagung","postal_code":59583},{"province":"Jawa Tengah","city":"Demak","district":"Mijen","urban":"Jleper","postal_code":59583},{"province":"Jawa Tengah","city":"Demak","district":"Mijen","urban":"Gempolsongo","postal_code":59583},{"province":"Jawa Tengah","city":"Demak","district":"Mijen","urban":"Geneng","postal_code":59583},{"province":"Jawa Tengah","city":"Demak","district":"Mijen","urban":"Banteng Mati","postal_code":59583},{"province":"Jawa Tengah","city":"Demak","district":"Mijen","urban":"Bermi","postal_code":59583},{"province":"Jawa Tengah","city":"Demak","district":"Mijen","urban":"Bakung","postal_code":59583},{"province":"Jawa Tengah","city":"Demak","district":"Kebonagung","urban":"Babad","postal_code":59583}]