[{"province":"Jawa Timur","city":"Gresik","district":"Panceng","urban":"Surowiti","postal_code":61156},{"province":"Jawa Timur","city":"Gresik","district":"Panceng","urban":"Wotan","postal_code":61156},{"province":"Jawa Timur","city":"Gresik","district":"Panceng","urban":"Sukodono","postal_code":61156},{"province":"Jawa Timur","city":"Gresik","district":"Panceng","urban":"Sumurber","postal_code":61156},{"province":"Jawa Timur","city":"Gresik","district":"Panceng","urban":"Prupuh","postal_code":61156},{"province":"Jawa Timur","city":"Gresik","district":"Panceng","urban":"Serah","postal_code":61156},{"province":"Jawa Timur","city":"Gresik","district":"Panceng","urban":"Siwalan","postal_code":61156},{"province":"Jawa Timur","city":"Gresik","district":"Panceng","urban":"Petung","postal_code":61156},{"province":"Jawa Timur","city":"Gresik","district":"Panceng","urban":"Pantenan","postal_code":61156},{"province":"Jawa Timur","city":"Gresik","district":"Panceng","urban":"Doudo","postal_code":61156},{"province":"Jawa Timur","city":"Gresik","district":"Panceng","urban":"Ketanen","postal_code":61156},{"province":"Jawa Timur","city":"Gresik","district":"Panceng","urban":"Banyutengah","postal_code":61156},{"province":"Jawa Timur","city":"Gresik","district":"Panceng","urban":"Campurejo","postal_code":61156},{"province":"Jawa Timur","city":"Gresik","district":"Panceng","urban":"Dalegan","postal_code":61156}]