[{"province":"Jawa Timur","city":"Gresik","district":"Benjeng","urban":"Sedapurklagen","postal_code":61172},{"province":"Jawa Timur","city":"Gresik","district":"Benjeng","urban":"Sirnoboyo","postal_code":61172},{"province":"Jawa Timur","city":"Gresik","district":"Benjeng","urban":"Punduttrate","postal_code":61172},{"province":"Jawa Timur","city":"Gresik","district":"Benjeng","urban":"Metatu","postal_code":61172},{"province":"Jawa Timur","city":"Gresik","district":"Benjeng","urban":"Munggugebang","postal_code":61172},{"province":"Jawa Timur","city":"Gresik","district":"Benjeng","urban":"Munggugianti","postal_code":61172},{"province":"Jawa Timur","city":"Gresik","district":"Benjeng","urban":"Klampok","postal_code":61172},{"province":"Jawa Timur","city":"Gresik","district":"Benjeng","urban":"Lundo","postal_code":61172},{"province":"Jawa Timur","city":"Gresik","district":"Benjeng","urban":"Karangankidul","postal_code":61172},{"province":"Jawa Timur","city":"Gresik","district":"Benjeng","urban":"Kedungrukem","postal_code":61172},{"province":"Jawa Timur","city":"Gresik","district":"Benjeng","urban":"Kedungsekar","postal_code":61172},{"province":"Jawa Timur","city":"Gresik","district":"Benjeng","urban":"Jogodalu","postal_code":61172},{"province":"Jawa Timur","city":"Gresik","district":"Benjeng","urban":"Kalipadang","postal_code":61172},{"province":"Jawa Timur","city":"Gresik","district":"Benjeng","urban":"Gluranploso","postal_code":61172},{"province":"Jawa Timur","city":"Gresik","district":"Benjeng","urban":"Jatirembe","postal_code":61172},{"province":"Jawa Timur","city":"Gresik","district":"Benjeng","urban":"Dermo","postal_code":61172},{"province":"Jawa Timur","city":"Gresik","district":"Benjeng","urban":"Bulangkulon","postal_code":61172},{"province":"Jawa Timur","city":"Gresik","district":"Benjeng","urban":"Bulurejo","postal_code":61172},{"province":"Jawa Timur","city":"Gresik","district":"Benjeng","urban":"Deliksumber","postal_code":61172},{"province":"Jawa Timur","city":"Gresik","district":"Benjeng","urban":"Banter","postal_code":61172},{"province":"Jawa Timur","city":"Gresik","district":"Benjeng","urban":"Bengkelolor","postal_code":61172},{"province":"Jawa Timur","city":"Gresik","district":"Benjeng","urban":"Balongtunjung","postal_code":61172},{"province":"Jawa Timur","city":"Gresik","district":"Benjeng","urban":"Balongmojo","postal_code":61172}]