[{"province":"Jawa Timur","city":"Sidoarjo","district":"Waru","urban":"Waru","postal_code":61256},{"province":"Jawa Timur","city":"Sidoarjo","district":"Waru","urban":"Wedoro","postal_code":61256},{"province":"Jawa Timur","city":"Sidoarjo","district":"Waru","urban":"Tropodo","postal_code":61256},{"province":"Jawa Timur","city":"Sidoarjo","district":"Waru","urban":"Wadungasri","postal_code":61256},{"province":"Jawa Timur","city":"Sidoarjo","district":"Waru","urban":"Tambak Rejo","postal_code":61256},{"province":"Jawa Timur","city":"Sidoarjo","district":"Waru","urban":"Tambak Sawah","postal_code":61256},{"province":"Jawa Timur","city":"Sidoarjo","district":"Waru","urban":"Tambak Sumur","postal_code":61256},{"province":"Jawa Timur","city":"Sidoarjo","district":"Waru","urban":"Pepelegi","postal_code":61256},{"province":"Jawa Timur","city":"Sidoarjo","district":"Waru","urban":"Tambak Oso","postal_code":61256},{"province":"Jawa Timur","city":"Sidoarjo","district":"Waru","urban":"Medaeng","postal_code":61256},{"province":"Jawa Timur","city":"Sidoarjo","district":"Waru","urban":"Ngingas","postal_code":61256},{"province":"Jawa Timur","city":"Sidoarjo","district":"Waru","urban":"Kepuh Kiriman","postal_code":61256},{"province":"Jawa Timur","city":"Sidoarjo","district":"Waru","urban":"Kureksari","postal_code":61256},{"province":"Jawa Timur","city":"Sidoarjo","district":"Waru","urban":"Bungurasih","postal_code":61256},{"province":"Jawa Timur","city":"Sidoarjo","district":"Waru","urban":"Janti","postal_code":61256},{"province":"Jawa Timur","city":"Sidoarjo","district":"Waru","urban":"Kedungrejo","postal_code":61256},{"province":"Jawa Timur","city":"Sidoarjo","district":"Waru","urban":"Berbek","postal_code":61256}]