[{"province":"Jawa Timur","city":"Sidoarjo","district":"Prambon","urban":"Wono Plintahan","postal_code":61264},{"province":"Jawa Timur","city":"Sidoarjo","district":"Prambon","urban":"Watutulis","postal_code":61264},{"province":"Jawa Timur","city":"Sidoarjo","district":"Prambon","urban":"Wirobiting","postal_code":61264},{"province":"Jawa Timur","city":"Sidoarjo","district":"Prambon","urban":"Simpang","postal_code":61264},{"province":"Jawa Timur","city":"Sidoarjo","district":"Prambon","urban":"Temu","postal_code":61264},{"province":"Jawa Timur","city":"Sidoarjo","district":"Prambon","urban":"Prambon","postal_code":61264},{"province":"Jawa Timur","city":"Sidoarjo","district":"Prambon","urban":"Simogirang","postal_code":61264},{"province":"Jawa Timur","city":"Sidoarjo","district":"Prambon","urban":"Kedungwonokerto","postal_code":61264},{"province":"Jawa Timur","city":"Sidoarjo","district":"Prambon","urban":"Pejangkungan","postal_code":61264},{"province":"Jawa Timur","city":"Sidoarjo","district":"Prambon","urban":"Kajartengguli","postal_code":61264},{"province":"Jawa Timur","city":"Sidoarjo","district":"Prambon","urban":"Kedungkembar","postal_code":61264},{"province":"Jawa Timur","city":"Sidoarjo","district":"Prambon","urban":"Kedungsugo","postal_code":61264},{"province":"Jawa Timur","city":"Sidoarjo","district":"Prambon","urban":"Jatikalang","postal_code":61264},{"province":"Jawa Timur","city":"Sidoarjo","district":"Prambon","urban":"Jedongcangkring","postal_code":61264},{"province":"Jawa Timur","city":"Sidoarjo","district":"Prambon","urban":"Gampang","postal_code":61264},{"province":"Jawa Timur","city":"Sidoarjo","district":"Prambon","urban":"Gedangrowo","postal_code":61264},{"province":"Jawa Timur","city":"Sidoarjo","district":"Prambon","urban":"Jati Alun Alun","postal_code":61264},{"province":"Jawa Timur","city":"Sidoarjo","district":"Prambon","urban":"Bulang","postal_code":61264},{"province":"Jawa Timur","city":"Sidoarjo","district":"Prambon","urban":"Cangkringturi","postal_code":61264},{"province":"Jawa Timur","city":"Sidoarjo","district":"Prambon","urban":"Bendotretek","postal_code":61264}]