[{"province":"Jawa Timur","city":"Sidoarjo","district":"Tarik","urban":"Tarik","postal_code":61265},{"province":"Jawa Timur","city":"Sidoarjo","district":"Tarik","urban":"Sebani","postal_code":61265},{"province":"Jawa Timur","city":"Sidoarjo","district":"Tarik","urban":"Segodobancang","postal_code":61265},{"province":"Jawa Timur","city":"Sidoarjo","district":"Tarik","urban":"Singogalih","postal_code":61265},{"province":"Jawa Timur","city":"Sidoarjo","district":"Tarik","urban":"Mindugading","postal_code":61265},{"province":"Jawa Timur","city":"Sidoarjo","district":"Tarik","urban":"Mliriprowo","postal_code":61265},{"province":"Jawa Timur","city":"Sidoarjo","district":"Tarik","urban":"Mergosari","postal_code":61265},{"province":"Jawa Timur","city":"Sidoarjo","district":"Tarik","urban":"Kramat Temenggung","postal_code":61265},{"province":"Jawa Timur","city":"Sidoarjo","district":"Tarik","urban":"Mergobener","postal_code":61265},{"province":"Jawa Timur","city":"Sidoarjo","district":"Tarik","urban":"Klantingsari","postal_code":61265},{"province":"Jawa Timur","city":"Sidoarjo","district":"Tarik","urban":"Kemuning","postal_code":61265},{"province":"Jawa Timur","city":"Sidoarjo","district":"Tarik","urban":"Kendalsewu","postal_code":61265},{"province":"Jawa Timur","city":"Sidoarjo","district":"Tarik","urban":"Kedinding","postal_code":61265},{"province":"Jawa Timur","city":"Sidoarjo","district":"Tarik","urban":"Kedungbocok","postal_code":61265},{"province":"Jawa Timur","city":"Sidoarjo","district":"Tarik","urban":"Janti","postal_code":61265},{"province":"Jawa Timur","city":"Sidoarjo","district":"Tarik","urban":"Kalimati","postal_code":61265},{"province":"Jawa Timur","city":"Sidoarjo","district":"Tarik","urban":"Banjarwungu","postal_code":61265},{"province":"Jawa Timur","city":"Sidoarjo","district":"Tarik","urban":"Gampingrowo","postal_code":61265},{"province":"Jawa Timur","city":"Sidoarjo","district":"Tarik","urban":"Gempolklutuk","postal_code":61265},{"province":"Jawa Timur","city":"Sidoarjo","district":"Tarik","urban":"Balongmacekan","postal_code":61265}]