[{"province":"Jawa Timur","city":"Sidoarjo","district":"Krembung","urban":"Wonomlati","postal_code":61275},{"province":"Jawa Timur","city":"Sidoarjo","district":"Krembung","urban":"Tanjeg Wagir","postal_code":61275},{"province":"Jawa Timur","city":"Sidoarjo","district":"Krembung","urban":"Wangkal","postal_code":61275},{"province":"Jawa Timur","city":"Sidoarjo","district":"Krembung","urban":"Waung","postal_code":61275},{"province":"Jawa Timur","city":"Sidoarjo","district":"Krembung","urban":"Ploso","postal_code":61275},{"province":"Jawa Timur","city":"Sidoarjo","district":"Krembung","urban":"Rejeni","postal_code":61275},{"province":"Jawa Timur","city":"Sidoarjo","district":"Krembung","urban":"Tambakrejo","postal_code":61275},{"province":"Jawa Timur","city":"Sidoarjo","district":"Krembung","urban":"Lemujut","postal_code":61275},{"province":"Jawa Timur","city":"Sidoarjo","district":"Krembung","urban":"Mojoruntut","postal_code":61275},{"province":"Jawa Timur","city":"Sidoarjo","district":"Krembung","urban":"Keper","postal_code":61275},{"province":"Jawa Timur","city":"Sidoarjo","district":"Krembung","urban":"Keret","postal_code":61275},{"province":"Jawa Timur","city":"Sidoarjo","district":"Krembung","urban":"Krembung","postal_code":61275},{"province":"Jawa Timur","city":"Sidoarjo","district":"Krembung","urban":"Kedungrawan","postal_code":61275},{"province":"Jawa Timur","city":"Sidoarjo","district":"Krembung","urban":"Kedungsumur","postal_code":61275},{"province":"Jawa Timur","city":"Sidoarjo","district":"Krembung","urban":"Jenggot","postal_code":61275},{"province":"Jawa Timur","city":"Sidoarjo","district":"Krembung","urban":"Kandangan","postal_code":61275},{"province":"Jawa Timur","city":"Sidoarjo","district":"Krembung","urban":"Cangkring","postal_code":61275},{"province":"Jawa Timur","city":"Sidoarjo","district":"Krembung","urban":"Gading","postal_code":61275},{"province":"Jawa Timur","city":"Sidoarjo","district":"Krembung","urban":"Balong Garut","postal_code":61275}]