[{"province":"Jawa Timur","city":"Jombang","district":"Kabuh","urban":"Tanjung Wadung","postal_code":61455},{"province":"Jawa Timur","city":"Jombang","district":"Kabuh","urban":"Sumberringin","postal_code":61455},{"province":"Jawa Timur","city":"Jombang","district":"Kabuh","urban":"Sumberaji","postal_code":61455},{"province":"Jawa Timur","city":"Jombang","district":"Kabuh","urban":"Pengampon","postal_code":61455},{"province":"Jawa Timur","city":"Jombang","district":"Kabuh","urban":"Sukodadi","postal_code":61455},{"province":"Jawa Timur","city":"Jombang","district":"Kabuh","urban":"Sumber Gondang","postal_code":61455},{"province":"Jawa Timur","city":"Jombang","district":"Kabuh","urban":"Munung Kerep","postal_code":61455},{"province":"Jawa Timur","city":"Jombang","district":"Kabuh","urban":"Manduro","postal_code":61455},{"province":"Jawa Timur","city":"Jombang","district":"Kabuh","urban":"Mangunan","postal_code":61455},{"province":"Jawa Timur","city":"Jombang","district":"Kabuh","urban":"Marmoyo","postal_code":61455},{"province":"Jawa Timur","city":"Jombang","district":"Kabuh","urban":"Kauman","postal_code":61455},{"province":"Jawa Timur","city":"Jombang","district":"Kabuh","urban":"Kedung Jati","postal_code":61455},{"province":"Jawa Timur","city":"Jombang","district":"Kabuh","urban":"Kabuh","postal_code":61455},{"province":"Jawa Timur","city":"Jombang","district":"Kabuh","urban":"Karang Pakis","postal_code":61455},{"province":"Jawa Timur","city":"Jombang","district":"Kabuh","urban":"Banjar Dowo","postal_code":61455},{"province":"Jawa Timur","city":"Jombang","district":"Kabuh","urban":"Genengan Jasem","postal_code":61455}]