[{"province":"Jawa Timur","city":"Jombang","district":"Gudo","urban":"Tanggungan","postal_code":61463},{"province":"Jawa Timur","city":"Jombang","district":"Gudo","urban":"Wangkalkepuh","postal_code":61463},{"province":"Jawa Timur","city":"Jombang","district":"Gudo","urban":"Sukoiber","postal_code":61463},{"province":"Jawa Timur","city":"Jombang","district":"Gudo","urban":"Sukopinggir","postal_code":61463},{"province":"Jawa Timur","city":"Jombang","district":"Gudo","urban":"Pucangro","postal_code":61463},{"province":"Jawa Timur","city":"Jombang","district":"Gudo","urban":"Sepanyul","postal_code":61463},{"province":"Jawa Timur","city":"Jombang","district":"Gudo","urban":"Pesanggrahan","postal_code":61463},{"province":"Jawa Timur","city":"Jombang","district":"Gudo","urban":"Plumbon Gambang","postal_code":61463},{"province":"Jawa Timur","city":"Jombang","district":"Gudo","urban":"Mentaos","postal_code":61463},{"province":"Jawa Timur","city":"Jombang","district":"Gudo","urban":"Mejoyolosari","postal_code":61463},{"province":"Jawa Timur","city":"Jombang","district":"Gudo","urban":"Japanan","postal_code":61463},{"province":"Jawa Timur","city":"Jombang","district":"Gudo","urban":"Kedungturi","postal_code":61463},{"province":"Jawa Timur","city":"Jombang","district":"Gudo","urban":"Krembangan","postal_code":61463},{"province":"Jawa Timur","city":"Jombang","district":"Gudo","urban":"Godong","postal_code":61463},{"province":"Jawa Timur","city":"Jombang","district":"Gudo","urban":"Gudo","postal_code":61463},{"province":"Jawa Timur","city":"Jombang","district":"Gudo","urban":"Bugasur Kedaleman","postal_code":61463},{"province":"Jawa Timur","city":"Jombang","district":"Gudo","urban":"Gempol Legundi","postal_code":61463},{"province":"Jawa Timur","city":"Jombang","district":"Gudo","urban":"Blimbing","postal_code":61463}]