[{"province":"Jawa Timur","city":"Jombang","district":"Perak","urban":"Sumberagung","postal_code":61461},{"province":"Jawa Timur","city":"Jombang","district":"Perak","urban":"Temuwulan","postal_code":61461},{"province":"Jawa Timur","city":"Jombang","district":"Perak","urban":"Plosogenuk","postal_code":61461},{"province":"Jawa Timur","city":"Jombang","district":"Perak","urban":"Sembung","postal_code":61461},{"province":"Jawa Timur","city":"Jombang","district":"Perak","urban":"Sukorejo","postal_code":61461},{"province":"Jawa Timur","city":"Jombang","district":"Perak","urban":"Pagerwojo","postal_code":61461},{"province":"Jawa Timur","city":"Jombang","district":"Perak","urban":"Perak","postal_code":61461},{"province":"Jawa Timur","city":"Jombang","district":"Perak","urban":"Jantiganggong","postal_code":61461},{"province":"Jawa Timur","city":"Jombang","district":"Perak","urban":"Kalang Semanding","postal_code":61461},{"province":"Jawa Timur","city":"Jombang","district":"Perak","urban":"Kepuhkajang","postal_code":61461},{"province":"Jawa Timur","city":"Jombang","district":"Perak","urban":"Gadingmangu","postal_code":61461},{"province":"Jawa Timur","city":"Jombang","district":"Perak","urban":"Gadingmangu","postal_code":61461},{"province":"Jawa Timur","city":"Jombang","district":"Perak","urban":"Cangkringrandu","postal_code":61461}]