[{"province":"Jawa Timur","city":"Jombang","district":"Ngoro","urban":"Rejoagung","postal_code":61473},{"province":"Jawa Timur","city":"Jombang","district":"Ngoro","urban":"Sidowarek","postal_code":61473},{"province":"Jawa Timur","city":"Jombang","district":"Ngoro","urban":"Sugihwaras","postal_code":61473},{"province":"Jawa Timur","city":"Jombang","district":"Ngoro","urban":"Ngoro","postal_code":61473},{"province":"Jawa Timur","city":"Jombang","district":"Ngoro","urban":"Pulorejo","postal_code":61473},{"province":"Jawa Timur","city":"Jombang","district":"Ngoro","urban":"Kertorejo","postal_code":61473},{"province":"Jawa Timur","city":"Jombang","district":"Ngoro","urban":"Kesamben","postal_code":61473},{"province":"Jawa Timur","city":"Jombang","district":"Ngoro","urban":"Genukwatu","postal_code":61473},{"province":"Jawa Timur","city":"Jombang","district":"Ngoro","urban":"Jombok","postal_code":61473},{"province":"Jawa Timur","city":"Jombang","district":"Ngoro","urban":"Kauman","postal_code":61473},{"province":"Jawa Timur","city":"Jombang","district":"Ngoro","urban":"Gajah","postal_code":61473},{"province":"Jawa Timur","city":"Jombang","district":"Ngoro","urban":"Badang","postal_code":61473},{"province":"Jawa Timur","city":"Jombang","district":"Ngoro","urban":"Banyuarang","postal_code":61473}]