[{"province":"Jawa Timur","city":"Jombang","district":"Kesamben","urban":"Wuluh","postal_code":61484},{"province":"Jawa Timur","city":"Jombang","district":"Kesamben","urban":"Watu Dakon","postal_code":61484},{"province":"Jawa Timur","city":"Jombang","district":"Kesamben","urban":"Pojok Rejo","postal_code":61484},{"province":"Jawa Timur","city":"Jombang","district":"Kesamben","urban":"Pojok Kulon","postal_code":61484},{"province":"Jawa Timur","city":"Jombang","district":"Kesamben","urban":"Kesamben","postal_code":61484},{"province":"Jawa Timur","city":"Jombang","district":"Kesamben","urban":"Podoroto","postal_code":61484},{"province":"Jawa Timur","city":"Jombang","district":"Kesamben","urban":"Kedung Mlati","postal_code":61484},{"province":"Jawa Timur","city":"Jombang","district":"Kesamben","urban":"Kedung Betik","postal_code":61484},{"province":"Jawa Timur","city":"Jombang","district":"Kesamben","urban":"Jombatan","postal_code":61484},{"province":"Jawa Timur","city":"Jombang","district":"Kesamben","urban":"Jombok","postal_code":61484},{"province":"Jawa Timur","city":"Jombang","district":"Kesamben","urban":"Jati Duwur","postal_code":61484},{"province":"Jawa Timur","city":"Jombang","district":"Kesamben","urban":"Gumulan","postal_code":61484},{"province":"Jawa Timur","city":"Jombang","district":"Kesamben","urban":"Blimbing","postal_code":61484},{"province":"Jawa Timur","city":"Jombang","district":"Kesamben","urban":"Carang Rejo","postal_code":61484}]