[{"province":"Jawa Timur","city":"Bojonegoro","district":"Kalitidu","urban":"Sumengko","postal_code":62152},{"province":"Jawa Timur","city":"Bojonegoro","district":"Kalitidu","urban":"Talok","postal_code":62152},{"province":"Jawa Timur","city":"Bojonegoro","district":"Kalitidu","urban":"Wotan Ngare","postal_code":62152},{"province":"Jawa Timur","city":"Bojonegoro","district":"Kalitidu","urban":"Sukoharjo","postal_code":62152},{"province":"Jawa Timur","city":"Bojonegoro","district":"Gayam","urban":"Sudu","postal_code":62152},{"province":"Jawa Timur","city":"Bojonegoro","district":"Kalitidu","urban":"Pilangsari","postal_code":62152},{"province":"Jawa Timur","city":"Bojonegoro","district":"Kalitidu","urban":"Pungpungan","postal_code":62152},{"province":"Jawa Timur","city":"Bojonegoro","district":"Kalitidu","urban":"Ngujo","postal_code":62152},{"province":"Jawa Timur","city":"Bojonegoro","district":"Kalitidu","urban":"Panjunan","postal_code":62152},{"province":"Jawa Timur","city":"Bojonegoro","district":"Gayam","urban":"Ngraho","postal_code":62152},{"province":"Jawa Timur","city":"Bojonegoro","district":"Kalitidu","urban":"Ngringinrejo","postal_code":62152},{"province":"Jawa Timur","city":"Bojonegoro","district":"Kalitidu","urban":"Mlaten","postal_code":62152},{"province":"Jawa Timur","city":"Bojonegoro","district":"Kalitidu","urban":"Mojo","postal_code":62152},{"province":"Jawa Timur","city":"Bojonegoro","district":"Kalitidu","urban":"Mojosari","postal_code":62152},{"province":"Jawa Timur","city":"Bojonegoro","district":"Kalitidu","urban":"Mayanggeneng","postal_code":62152},{"province":"Jawa Timur","city":"Bojonegoro","district":"Kalitidu","urban":"Mayangrejo","postal_code":62152},{"province":"Jawa Timur","city":"Bojonegoro","district":"Gayam","urban":"Manukan","postal_code":62152},{"province":"Jawa Timur","city":"Bojonegoro","district":"Kalitidu","urban":"Leran","postal_code":62152},{"province":"Jawa Timur","city":"Bojonegoro","district":"Gayam","urban":"Katur","postal_code":62152},{"province":"Jawa Timur","city":"Bojonegoro","district":"Kalitidu","urban":"Kalitidu","postal_code":62152},{"province":"Jawa Timur","city":"Bojonegoro","district":"Gayam","urban":"Cengungklung","postal_code":62152},{"province":"Jawa Timur","city":"Bojonegoro","district":"Kalitidu","urban":"Grebegan","postal_code":62152},{"province":"Jawa Timur","city":"Bojonegoro","district":"Gayam","urban":"Beged","postal_code":62152},{"province":"Jawa Timur","city":"Bojonegoro","district":"Kalitidu","urban":"Brenggolo","postal_code":62152}]