[{"province":"Jawa Timur","city":"Bojonegoro","district":"Ngasem","urban":"Trenggulunan","postal_code":62154},{"province":"Jawa Timur","city":"Bojonegoro","district":"Ngasem","urban":"Wadang","postal_code":62154},{"province":"Jawa Timur","city":"Bojonegoro","district":"Ngasem","urban":"Sendangharjo","postal_code":62154},{"province":"Jawa Timur","city":"Bojonegoro","district":"Ngasem","urban":"Setren","postal_code":62154},{"province":"Jawa Timur","city":"Bojonegoro","district":"Ngasem","urban":"Tengger","postal_code":62154},{"province":"Jawa Timur","city":"Bojonegoro","district":"Ngasem","urban":"Sambong","postal_code":62154},{"province":"Jawa Timur","city":"Bojonegoro","district":"Gayam","urban":"Ringintunggal","postal_code":62154},{"province":"Jawa Timur","city":"Bojonegoro","district":"Ngasem","urban":"Ngantru","postal_code":62154},{"province":"Jawa Timur","city":"Bojonegoro","district":"Ngasem","urban":"Ngasem","postal_code":62154},{"province":"Jawa Timur","city":"Bojonegoro","district":"Gayam","urban":"Mojodelik","postal_code":62154},{"province":"Jawa Timur","city":"Bojonegoro","district":"Ngasem","urban":"Ngadiluwih","postal_code":62154},{"province":"Jawa Timur","city":"Bojonegoro","district":"Ngasem","urban":"Jelu","postal_code":62154},{"province":"Jawa Timur","city":"Bojonegoro","district":"Ngasem","urban":"Kolong","postal_code":62154},{"province":"Jawa Timur","city":"Bojonegoro","district":"Ngasem","urban":"Mediyunan","postal_code":62154},{"province":"Jawa Timur","city":"Bojonegoro","district":"Ngasem","urban":"Jampet","postal_code":62154},{"province":"Jawa Timur","city":"Bojonegoro","district":"Gayam","urban":"Gayam","postal_code":62154},{"province":"Jawa Timur","city":"Bojonegoro","district":"Ngasem","urban":"Butoh","postal_code":62154},{"province":"Jawa Timur","city":"Bojonegoro","district":"Ngasem","urban":"Dukohkidul","postal_code":62154},{"province":"Jawa Timur","city":"Bojonegoro","district":"Gayam","urban":"Brabowan","postal_code":62154},{"province":"Jawa Timur","city":"Bojonegoro","district":"Gayam","urban":"Begadon","postal_code":62154},{"province":"Jawa Timur","city":"Bojonegoro","district":"Gayam","urban":"Bonorejo","postal_code":62154},{"province":"Jawa Timur","city":"Bojonegoro","district":"Ngasem","urban":"Bareng","postal_code":62154},{"province":"Jawa Timur","city":"Bojonegoro","district":"Ngasem","urban":"Bandungrejo","postal_code":62154}]