[{"province":"Jawa Timur","city":"Bojonegoro","district":"Sekar","urban":"Sekar","postal_code":62167},{"province":"Jawa Timur","city":"Bojonegoro","district":"Ngambon","urban":"Nglampin","postal_code":62167},{"province":"Jawa Timur","city":"Bojonegoro","district":"Ngambon","urban":"Sengon","postal_code":62167},{"province":"Jawa Timur","city":"Bojonegoro","district":"Sekar","urban":"Miyono","postal_code":62167},{"province":"Jawa Timur","city":"Bojonegoro","district":"Ngambon","urban":"Ngambon","postal_code":62167},{"province":"Jawa Timur","city":"Bojonegoro","district":"Sekar","urban":"Klino","postal_code":62167},{"province":"Jawa Timur","city":"Bojonegoro","district":"Ngambon","urban":"Karangmangu","postal_code":62167},{"province":"Jawa Timur","city":"Bojonegoro","district":"Sekar","urban":"Deling","postal_code":62167},{"province":"Jawa Timur","city":"Bojonegoro","district":"Ngambon","urban":"Bondol","postal_code":62167},{"province":"Jawa Timur","city":"Bojonegoro","district":"Sekar","urban":"Bareng","postal_code":62167},{"province":"Jawa Timur","city":"Bojonegoro","district":"Sekar","urban":"Bobol","postal_code":62167}]