[{"province":"Jawa Timur","city":"Bojonegoro","district":"Padangan","urban":"Tebon","postal_code":62162},{"province":"Jawa Timur","city":"Bojonegoro","district":"Padangan","urban":"Sidorejo","postal_code":62162},{"province":"Jawa Timur","city":"Bojonegoro","district":"Padangan","urban":"Sonorejo","postal_code":62162},{"province":"Jawa Timur","city":"Bojonegoro","district":"Padangan","urban":"Prangi","postal_code":62162},{"province":"Jawa Timur","city":"Bojonegoro","district":"Padangan","urban":"Purworejo","postal_code":62162},{"province":"Jawa Timur","city":"Bojonegoro","district":"Padangan","urban":"Ngradin","postal_code":62162},{"province":"Jawa Timur","city":"Bojonegoro","district":"Padangan","urban":"Nguken","postal_code":62162},{"province":"Jawa Timur","city":"Bojonegoro","district":"Padangan","urban":"Padangan","postal_code":62162},{"province":"Jawa Timur","city":"Bojonegoro","district":"Padangan","urban":"Ngeper","postal_code":62162},{"province":"Jawa Timur","city":"Bojonegoro","district":"Padangan","urban":"Kuncen","postal_code":62162},{"province":"Jawa Timur","city":"Bojonegoro","district":"Padangan","urban":"Ngasinan","postal_code":62162},{"province":"Jawa Timur","city":"Bojonegoro","district":"Padangan","urban":"Kebunagung","postal_code":62162},{"province":"Jawa Timur","city":"Bojonegoro","district":"Padangan","urban":"Kendung","postal_code":62162},{"province":"Jawa Timur","city":"Bojonegoro","district":"Padangan","urban":"Cendono","postal_code":62162},{"province":"Jawa Timur","city":"Bojonegoro","district":"Padangan","urban":"Dengok","postal_code":62162},{"province":"Jawa Timur","city":"Bojonegoro","district":"Padangan","urban":"Banjarjo","postal_code":62162}]