[{"province":"Jawa Timur","city":"Bojonegoro","district":"Kasiman","urban":"Tambakmerak","postal_code":62164},{"province":"Jawa Timur","city":"Bojonegoro","district":"Kasiman","urban":"Tembeling","postal_code":62164},{"province":"Jawa Timur","city":"Bojonegoro","district":"Kedewan","urban":"Wonocolo","postal_code":62164},{"province":"Jawa Timur","city":"Bojonegoro","district":"Kasiman","urban":"Sekaran","postal_code":62164},{"province":"Jawa Timur","city":"Bojonegoro","district":"Kasiman","urban":"Sidomukti","postal_code":62164},{"province":"Jawa Timur","city":"Bojonegoro","district":"Kasiman","urban":"Ngaglik","postal_code":62164},{"province":"Jawa Timur","city":"Bojonegoro","district":"Kasiman","urban":"Sambeng","postal_code":62164},{"province":"Jawa Timur","city":"Bojonegoro","district":"Kedewan","urban":"Kedewan","postal_code":62164},{"province":"Jawa Timur","city":"Bojonegoro","district":"Kasiman","urban":"Kasiman","postal_code":62164},{"province":"Jawa Timur","city":"Bojonegoro","district":"Kedewan","urban":"Kawengan","postal_code":62164},{"province":"Jawa Timur","city":"Bojonegoro","district":"Kasiman","urban":"Besah","postal_code":62164},{"province":"Jawa Timur","city":"Bojonegoro","district":"Kasiman","urban":"Besah","postal_code":62164},{"province":"Jawa Timur","city":"Bojonegoro","district":"Kasiman","urban":"Betet","postal_code":62164},{"province":"Jawa Timur","city":"Bojonegoro","district":"Kedewan","urban":"Beji","postal_code":62164},{"province":"Jawa Timur","city":"Bojonegoro","district":"Kasiman","urban":"Batokan","postal_code":62164}]