[{"province":"Jawa Timur","city":"Bojonegoro","district":"Bubulan","urban":"Sumber Bendo","postal_code":62172},{"province":"Jawa Timur","city":"Bojonegoro","district":"Gondang","urban":"Sengaten","postal_code":62172},{"province":"Jawa Timur","city":"Bojonegoro","district":"Gondang","urban":"Pajeng","postal_code":62172},{"province":"Jawa Timur","city":"Bojonegoro","district":"Gondang","urban":"Pragelan","postal_code":62172},{"province":"Jawa Timur","city":"Bojonegoro","district":"Gondang","urban":"Sambongrejo","postal_code":62172},{"province":"Jawa Timur","city":"Bojonegoro","district":"Bubulan","urban":"Ngorogunung","postal_code":62172},{"province":"Jawa Timur","city":"Bojonegoro","district":"Gondang","urban":"Jari","postal_code":62172},{"province":"Jawa Timur","city":"Bojonegoro","district":"Gondang","urban":"Krondonan","postal_code":62172},{"province":"Jawa Timur","city":"Bojonegoro","district":"Bubulan","urban":"Clebung","postal_code":62172},{"province":"Jawa Timur","city":"Bojonegoro","district":"Gondang","urban":"Gondang","postal_code":62172},{"province":"Jawa Timur","city":"Bojonegoro","district":"Bubulan","urban":"Bubulan","postal_code":62172},{"province":"Jawa Timur","city":"Bojonegoro","district":"Bubulan","urban":"Cancung","postal_code":62172}]