[{"province":"Jawa Timur","city":"Bojonegoro","district":"Sugihwaras","urban":"Wedoro","postal_code":62183},{"province":"Jawa Timur","city":"Bojonegoro","district":"Sukosewu","urban":"Tegalkodo","postal_code":62183},{"province":"Jawa Timur","city":"Bojonegoro","district":"Sugihwaras","urban":"Trate","postal_code":62183},{"province":"Jawa Timur","city":"Bojonegoro","district":"Sukosewu","urban":"Sukosewu","postal_code":62183},{"province":"Jawa Timur","city":"Bojonegoro","district":"Sukosewu","urban":"Sumberejo Kidul","postal_code":62183},{"province":"Jawa Timur","city":"Bojonegoro","district":"Sugihwaras","urban":"Siwalan","postal_code":62183},{"province":"Jawa Timur","city":"Bojonegoro","district":"Sugihwaras","urban":"Sugihwaras","postal_code":62183},{"province":"Jawa Timur","city":"Bojonegoro","district":"Sukosewu","urban":"Sitiaji","postal_code":62183},{"province":"Jawa Timur","city":"Bojonegoro","district":"Sukosewu","urban":"Sidodadi","postal_code":62183},{"province":"Jawa Timur","city":"Bojonegoro","district":"Sukosewu","urban":"Sidorejo","postal_code":62183},{"province":"Jawa Timur","city":"Bojonegoro","district":"Sukosewu","urban":"Semawot","postal_code":62183},{"province":"Jawa Timur","city":"Bojonegoro","district":"Sukosewu","urban":"Semen Kidul","postal_code":62183},{"province":"Jawa Timur","city":"Bojonegoro","district":"Sukosewu","urban":"Purwoasri","postal_code":62183},{"province":"Jawa Timur","city":"Bojonegoro","district":"Sugihwaras","urban":"Panunggalan","postal_code":62183},{"province":"Jawa Timur","city":"Bojonegoro","district":"Sukosewu","urban":"Pacing","postal_code":62183},{"province":"Jawa Timur","city":"Bojonegoro","district":"Sugihwaras","urban":"Panemon","postal_code":62183},{"province":"Jawa Timur","city":"Bojonegoro","district":"Sukosewu","urban":"Klepek","postal_code":62183},{"province":"Jawa Timur","city":"Bojonegoro","district":"Sugihwaras","urban":"Nglajang","postal_code":62183},{"province":"Jawa Timur","city":"Bojonegoro","district":"Sukosewu","urban":"Jumput","postal_code":62183},{"province":"Jawa Timur","city":"Bojonegoro","district":"Sukosewu","urban":"Kalicilik","postal_code":62183},{"province":"Jawa Timur","city":"Bojonegoro","district":"Sugihwaras","urban":"Kedungdowo","postal_code":62183},{"province":"Jawa Timur","city":"Bojonegoro","district":"Sugihwaras","urban":"Glagahan","postal_code":62183},{"province":"Jawa Timur","city":"Bojonegoro","district":"Sugihwaras","urban":"Jatitengah","postal_code":62183},{"province":"Jawa Timur","city":"Bojonegoro","district":"Sukosewu","urban":"Duyungan","postal_code":62183},{"province":"Jawa Timur","city":"Bojonegoro","district":"Sugihwaras","urban":"Genjor","postal_code":62183},{"province":"Jawa Timur","city":"Bojonegoro","district":"Sugihwaras","urban":"Glagah Wangi","postal_code":62183},{"province":"Jawa Timur","city":"Bojonegoro","district":"Sugihwaras","urban":"Bulu","postal_code":62183},{"province":"Jawa Timur","city":"Bojonegoro","district":"Sugihwaras","urban":"Drenges","postal_code":62183},{"province":"Jawa Timur","city":"Bojonegoro","district":"Sugihwaras","urban":"Alasgung","postal_code":62183},{"province":"Jawa Timur","city":"Bojonegoro","district":"Sugihwaras","urban":"Balongrejo","postal_code":62183},{"province":"Jawa Timur","city":"Bojonegoro","district":"Sugihwaras","urban":"Bareng","postal_code":62183}]