[{"province":"Jawa Timur","city":"Bojonegoro","district":"Temayang","urban":"Soko","postal_code":62184},{"province":"Jawa Timur","city":"Bojonegoro","district":"Temayang","urban":"Temayang","postal_code":62184},{"province":"Jawa Timur","city":"Bojonegoro","district":"Temayang","urban":"Papringan","postal_code":62184},{"province":"Jawa Timur","city":"Bojonegoro","district":"Temayang","urban":"Pandantoyo","postal_code":62184},{"province":"Jawa Timur","city":"Bojonegoro","district":"Temayang","urban":"Ngujung","postal_code":62184},{"province":"Jawa Timur","city":"Bojonegoro","district":"Temayang","urban":"Pancur","postal_code":62184},{"province":"Jawa Timur","city":"Bojonegoro","district":"Temayang","urban":"Jono","postal_code":62184},{"province":"Jawa Timur","city":"Bojonegoro","district":"Temayang","urban":"Kedungsari","postal_code":62184},{"province":"Jawa Timur","city":"Bojonegoro","district":"Temayang","urban":"Kedungsumber","postal_code":62184},{"province":"Jawa Timur","city":"Bojonegoro","district":"Temayang","urban":"Belun","postal_code":62184},{"province":"Jawa Timur","city":"Bojonegoro","district":"Temayang","urban":"Buntalan","postal_code":62184},{"province":"Jawa Timur","city":"Bojonegoro","district":"Temayang","urban":"Bakulan","postal_code":62184}]