[{"province":"Jawa Timur","city":"Bojonegoro","district":"Kepoh Baru","urban":"Woro","postal_code":62194},{"province":"Jawa Timur","city":"Bojonegoro","district":"Kepoh Baru","urban":"Tlogorejo","postal_code":62194},{"province":"Jawa Timur","city":"Bojonegoro","district":"Kepoh Baru","urban":"Turigede","postal_code":62194},{"province":"Jawa Timur","city":"Bojonegoro","district":"Kepoh Baru","urban":"Sumberoto","postal_code":62194},{"province":"Jawa Timur","city":"Bojonegoro","district":"Kepoh Baru","urban":"Sumberagung","postal_code":62194},{"province":"Jawa Timur","city":"Bojonegoro","district":"Kepoh Baru","urban":"Sumbergede","postal_code":62194},{"province":"Jawa Timur","city":"Bojonegoro","district":"Kepoh Baru","urban":"Sugihwaras","postal_code":62194},{"province":"Jawa Timur","city":"Bojonegoro","district":"Kepoh Baru","urban":"Simorejo","postal_code":62194},{"province":"Jawa Timur","city":"Bojonegoro","district":"Kepoh Baru","urban":"Pohwates","postal_code":62194},{"province":"Jawa Timur","city":"Bojonegoro","district":"Kepoh Baru","urban":"Sidomukti","postal_code":62194},{"province":"Jawa Timur","city":"Bojonegoro","district":"Kepoh Baru","urban":"Pejok","postal_code":62194},{"province":"Jawa Timur","city":"Bojonegoro","district":"Kepoh Baru","urban":"Nglumber","postal_code":62194},{"province":"Jawa Timur","city":"Bojonegoro","district":"Kepoh Baru","urban":"Ngranggon Anyar","postal_code":62194},{"province":"Jawa Timur","city":"Bojonegoro","district":"Kepoh Baru","urban":"Mudung","postal_code":62194},{"province":"Jawa Timur","city":"Bojonegoro","district":"Kepoh Baru","urban":"Mojosari","postal_code":62194},{"province":"Jawa Timur","city":"Bojonegoro","district":"Kepoh Baru","urban":"Krangkong","postal_code":62194},{"province":"Jawa Timur","city":"Bojonegoro","district":"Kepoh Baru","urban":"Karangan","postal_code":62194},{"province":"Jawa Timur","city":"Bojonegoro","district":"Kepoh Baru","urban":"Kepoh","postal_code":62194},{"province":"Jawa Timur","city":"Bojonegoro","district":"Kepoh Baru","urban":"Jipo","postal_code":62194},{"province":"Jawa Timur","city":"Bojonegoro","district":"Kepoh Baru","urban":"Cengkir","postal_code":62194},{"province":"Jawa Timur","city":"Bojonegoro","district":"Kepoh Baru","urban":"Brangkal","postal_code":62194},{"province":"Jawa Timur","city":"Bojonegoro","district":"Kepoh Baru","urban":"Bumirejo","postal_code":62194},{"province":"Jawa Timur","city":"Bojonegoro","district":"Kepoh Baru","urban":"Betet","postal_code":62194},{"province":"Jawa Timur","city":"Bojonegoro","district":"Kepoh Baru","urban":"Bayemgede","postal_code":62194},{"province":"Jawa Timur","city":"Bojonegoro","district":"Kepoh Baru","urban":"Balongdowo","postal_code":62194}]