[{"province":"Jawa Timur","city":"Bojonegoro","district":"Sumberrejo","urban":"Tulungrejo","postal_code":62191},{"province":"Jawa Timur","city":"Bojonegoro","district":"Sumberrejo","urban":"Wotan","postal_code":62191},{"province":"Jawa Timur","city":"Bojonegoro","district":"Sumberrejo","urban":"Teleng","postal_code":62191},{"province":"Jawa Timur","city":"Bojonegoro","district":"Sumberrejo","urban":"Tlogohaji","postal_code":62191},{"province":"Jawa Timur","city":"Bojonegoro","district":"Trucuk","urban":"Sumberrejo","postal_code":62191},{"province":"Jawa Timur","city":"Bojonegoro","district":"Sumberrejo","urban":"Sumuragung","postal_code":62191},{"province":"Jawa Timur","city":"Bojonegoro","district":"Sumberrejo","urban":"Talun","postal_code":62191},{"province":"Jawa Timur","city":"Bojonegoro","district":"Sumberrejo","urban":"Sumberharjo","postal_code":62191},{"province":"Jawa Timur","city":"Bojonegoro","district":"Sumberrejo","urban":"Sumberrejo","postal_code":62191},{"province":"Jawa Timur","city":"Bojonegoro","district":"Sumberrejo","urban":"Prayungan","postal_code":62191},{"province":"Jawa Timur","city":"Bojonegoro","district":"Sumberrejo","urban":"Sambongrejo","postal_code":62191},{"province":"Jawa Timur","city":"Bojonegoro","district":"Sumberrejo","urban":"Sendangagung","postal_code":62191},{"province":"Jawa Timur","city":"Bojonegoro","district":"Sumberrejo","urban":"Pejambon","postal_code":62191},{"province":"Jawa Timur","city":"Bojonegoro","district":"Sumberrejo","urban":"Pekuwon","postal_code":62191},{"province":"Jawa Timur","city":"Bojonegoro","district":"Sumberrejo","urban":"Mlinjeng","postal_code":62191},{"province":"Jawa Timur","city":"Bojonegoro","district":"Sumberrejo","urban":"Ngampal","postal_code":62191},{"province":"Jawa Timur","city":"Bojonegoro","district":"Sumberrejo","urban":"Kedungrejo","postal_code":62191},{"province":"Jawa Timur","city":"Bojonegoro","district":"Sumberrejo","urban":"Margoagung","postal_code":62191},{"province":"Jawa Timur","city":"Bojonegoro","district":"Sumberrejo","urban":"Mejuwet","postal_code":62191},{"province":"Jawa Timur","city":"Bojonegoro","district":"Sumberrejo","urban":"Karangdowo","postal_code":62191},{"province":"Jawa Timur","city":"Bojonegoro","district":"Sumberrejo","urban":"Kayulemah","postal_code":62191},{"province":"Jawa Timur","city":"Bojonegoro","district":"Sumberrejo","urban":"Jatigede","postal_code":62191},{"province":"Jawa Timur","city":"Bojonegoro","district":"Sumberrejo","urban":"Karang Dinoyo","postal_code":62191},{"province":"Jawa Timur","city":"Bojonegoro","district":"Sumberrejo","urban":"Butoh","postal_code":62191},{"province":"Jawa Timur","city":"Bojonegoro","district":"Sumberrejo","urban":"Deru","postal_code":62191},{"province":"Jawa Timur","city":"Bojonegoro","district":"Sumberrejo","urban":"Banjarjo","postal_code":62191},{"province":"Jawa Timur","city":"Bojonegoro","district":"Sumberrejo","urban":"Bogangin","postal_code":62191}]