[{"province":"Jawa Timur","city":"Bojonegoro","district":"Kedungadem","urban":"Tumbrasanom","postal_code":62195},{"province":"Jawa Timur","city":"Bojonegoro","district":"Kedungadem","urban":"Tondomulo","postal_code":62195},{"province":"Jawa Timur","city":"Bojonegoro","district":"Kedungadem","urban":"Sidorejo","postal_code":62195},{"province":"Jawa Timur","city":"Bojonegoro","district":"Kedungadem","urban":"Tlogoagung","postal_code":62195},{"province":"Jawa Timur","city":"Bojonegoro","district":"Kedungadem","urban":"Pejok","postal_code":62195},{"province":"Jawa Timur","city":"Bojonegoro","district":"Kedungadem","urban":"Sidomulyo","postal_code":62195},{"province":"Jawa Timur","city":"Bojonegoro","district":"Kedungadem","urban":"Ngrandu","postal_code":62195},{"province":"Jawa Timur","city":"Bojonegoro","district":"Kedungadem","urban":"Panjang","postal_code":62195},{"province":"Jawa Timur","city":"Bojonegoro","district":"Kedungadem","urban":"Megale","postal_code":62195},{"province":"Jawa Timur","city":"Bojonegoro","district":"Kedungadem","urban":"Mlideg","postal_code":62195},{"province":"Jawa Timur","city":"Bojonegoro","district":"Kedungadem","urban":"Mojorejo","postal_code":62195},{"province":"Jawa Timur","city":"Bojonegoro","district":"Kedungadem","urban":"Kepoh Kidul","postal_code":62195},{"province":"Jawa Timur","city":"Bojonegoro","district":"Kedungadem","urban":"Kesongo","postal_code":62195},{"province":"Jawa Timur","city":"Bojonegoro","district":"Kedungadem","urban":"Kedungrejo","postal_code":62195},{"province":"Jawa Timur","city":"Bojonegoro","district":"Kedungadem","urban":"Kendung","postal_code":62195},{"province":"Jawa Timur","city":"Bojonegoro","district":"Kedungadem","urban":"Geger","postal_code":62195},{"province":"Jawa Timur","city":"Bojonegoro","district":"Kedungadem","urban":"Jamberejo","postal_code":62195},{"province":"Jawa Timur","city":"Bojonegoro","district":"Kedungadem","urban":"Kedungadem","postal_code":62195},{"province":"Jawa Timur","city":"Bojonegoro","district":"Kedungadem","urban":"Drokilo","postal_code":62195},{"province":"Jawa Timur","city":"Bojonegoro","district":"Kedungadem","urban":"Duwel","postal_code":62195},{"province":"Jawa Timur","city":"Bojonegoro","district":"Kedungadem","urban":"Balongcabe","postal_code":62195},{"province":"Jawa Timur","city":"Bojonegoro","district":"Kedungadem","urban":"Dayukidul","postal_code":62195},{"province":"Jawa Timur","city":"Bojonegoro","district":"Kedungadem","urban":"Babad","postal_code":62195}]