[{"province":"Jawa Timur","city":"Bojonegoro","district":"Kanor","urban":"Temu","postal_code":62193},{"province":"Jawa Timur","city":"Bojonegoro","district":"Kanor","urban":"Tejo","postal_code":62193},{"province":"Jawa Timur","city":"Bojonegoro","district":"Kanor","urban":"Sumberwangi","postal_code":62193},{"province":"Jawa Timur","city":"Bojonegoro","district":"Kanor","urban":"Tambahrejo","postal_code":62193},{"province":"Jawa Timur","city":"Bojonegoro","district":"Kanor","urban":"Sroyo","postal_code":62193},{"province":"Jawa Timur","city":"Bojonegoro","district":"Kanor","urban":"Simorejo","postal_code":62193},{"province":"Jawa Timur","city":"Bojonegoro","district":"Kanor","urban":"Semambung","postal_code":62193},{"province":"Jawa Timur","city":"Bojonegoro","district":"Kanor","urban":"Simbatan","postal_code":62193},{"province":"Jawa Timur","city":"Bojonegoro","district":"Kanor","urban":"Sedeng","postal_code":62193},{"province":"Jawa Timur","city":"Bojonegoro","district":"Kanor","urban":"Samberan","postal_code":62193},{"province":"Jawa Timur","city":"Bojonegoro","district":"Kanor","urban":"Sarangan","postal_code":62193},{"province":"Jawa Timur","city":"Bojonegoro","district":"Kanor","urban":"Prigi","postal_code":62193},{"province":"Jawa Timur","city":"Bojonegoro","district":"Kanor","urban":"Piyak","postal_code":62193},{"province":"Jawa Timur","city":"Bojonegoro","district":"Kanor","urban":"Pilang","postal_code":62193},{"province":"Jawa Timur","city":"Bojonegoro","district":"Kanor","urban":"Pesen","postal_code":62193},{"province":"Jawa Timur","city":"Bojonegoro","district":"Kanor","urban":"Nglarangan","postal_code":62193},{"province":"Jawa Timur","city":"Bojonegoro","district":"Kanor","urban":"Palembon","postal_code":62193},{"province":"Jawa Timur","city":"Bojonegoro","district":"Kanor","urban":"Kedungprimpen","postal_code":62193},{"province":"Jawa Timur","city":"Bojonegoro","district":"Kanor","urban":"Kanor","postal_code":62193},{"province":"Jawa Timur","city":"Bojonegoro","district":"Kanor","urban":"Gedongarum","postal_code":62193},{"province":"Jawa Timur","city":"Bojonegoro","district":"Kanor","urban":"Kabalan","postal_code":62193},{"province":"Jawa Timur","city":"Bojonegoro","district":"Kanor","urban":"Caruban","postal_code":62193},{"province":"Jawa Timur","city":"Bojonegoro","district":"Kanor","urban":"Cangakan","postal_code":62193},{"province":"Jawa Timur","city":"Bojonegoro","district":"Kanor","urban":"Bungur","postal_code":62193},{"province":"Jawa Timur","city":"Bojonegoro","district":"Kanor","urban":"Bakung","postal_code":62193}]