[{"province":"Jawa Timur","city":"Lamongan","district":"Solokuro","urban":"Takerharjo","postal_code":62265},{"province":"Jawa Timur","city":"Lamongan","district":"Solokuro","urban":"Tebluru","postal_code":62265},{"province":"Jawa Timur","city":"Lamongan","district":"Solokuro","urban":"Tenggulun","postal_code":62265},{"province":"Jawa Timur","city":"Lamongan","district":"Solokuro","urban":"Sugihan","postal_code":62265},{"province":"Jawa Timur","city":"Lamongan","district":"Solokuro","urban":"Solokuro","postal_code":62265},{"province":"Jawa Timur","city":"Lamongan","district":"Solokuro","urban":"Dadapan","postal_code":62265},{"province":"Jawa Timur","city":"Lamongan","district":"Solokuro","urban":"Dagan","postal_code":62265},{"province":"Jawa Timur","city":"Lamongan","district":"Solokuro","urban":"Payaman","postal_code":62265},{"province":"Jawa Timur","city":"Lamongan","district":"Solokuro","urban":"Banyubang","postal_code":62265},{"province":"Jawa Timur","city":"Lamongan","district":"Solokuro","urban":"Bluri","postal_code":62265}]