[{"province":"Jawa Timur","city":"Lamongan","district":"Sekaran","urban":"Trosono","postal_code":62261},{"province":"Jawa Timur","city":"Lamongan","district":"Maduran","urban":"Turi","postal_code":62261},{"province":"Jawa Timur","city":"Lamongan","district":"Sekaran","urban":"Sungegeneng","postal_code":62261},{"province":"Jawa Timur","city":"Lamongan","district":"Sekaran","urban":"Titik","postal_code":62261},{"province":"Jawa Timur","city":"Lamongan","district":"Maduran","urban":"Taji","postal_code":62261},{"province":"Jawa Timur","city":"Lamongan","district":"Maduran","urban":"Siwuran","postal_code":62261},{"province":"Jawa Timur","city":"Lamongan","district":"Sekaran","urban":"Sekaran","postal_code":62261},{"province":"Jawa Timur","city":"Lamongan","district":"Sekaran","urban":"Siman","postal_code":62261},{"province":"Jawa Timur","city":"Lamongan","district":"Sekaran","urban":"Porodeso","postal_code":62261},{"province":"Jawa Timur","city":"Lamongan","district":"Maduran","urban":"Parengan","postal_code":62261},{"province":"Jawa Timur","city":"Lamongan","district":"Maduran","urban":"Pringgoboyo","postal_code":62261},{"province":"Jawa Timur","city":"Lamongan","district":"Maduran","urban":"Pangean","postal_code":62261},{"province":"Jawa Timur","city":"Lamongan","district":"Maduran","urban":"Pangkatrejo","postal_code":62261},{"province":"Jawa Timur","city":"Lamongan","district":"Sekaran","urban":"Moro","postal_code":62261},{"province":"Jawa Timur","city":"Lamongan","district":"Sekaran","urban":"Ngarum","postal_code":62261},{"province":"Jawa Timur","city":"Lamongan","district":"Maduran","urban":"Ngayung","postal_code":62261},{"province":"Jawa Timur","city":"Lamongan","district":"Sekaran","urban":"Manyar","postal_code":62261},{"province":"Jawa Timur","city":"Lamongan","district":"Sekaran","urban":"Miru","postal_code":62261},{"province":"Jawa Timur","city":"Lamongan","district":"Sekaran","urban":"Latek","postal_code":62261},{"province":"Jawa Timur","city":"Lamongan","district":"Maduran","urban":"Maduran","postal_code":62261},{"province":"Jawa Timur","city":"Lamongan","district":"Sekaran","urban":"Keting","postal_code":62261},{"province":"Jawa Timur","city":"Lamongan","district":"Sekaran","urban":"Kudikan","postal_code":62261},{"province":"Jawa Timur","city":"Lamongan","district":"Maduran","urban":"Klagensrampat","postal_code":62261},{"province":"Jawa Timur","city":"Lamongan","district":"Sekaran","urban":"Kembangan","postal_code":62261},{"province":"Jawa Timur","city":"Lamongan","district":"Sekaran","urban":"Kendal","postal_code":62261},{"province":"Jawa Timur","city":"Lamongan","district":"Maduran","urban":"Kanugrahan","postal_code":62261},{"province":"Jawa Timur","city":"Lamongan","district":"Sekaran","urban":"Karang","postal_code":62261},{"province":"Jawa Timur","city":"Lamongan","district":"Sekaran","urban":"Kebalan Kulon","postal_code":62261},{"province":"Jawa Timur","city":"Lamongan","district":"Maduran","urban":"Jangkungsomo","postal_code":62261},{"province":"Jawa Timur","city":"Lamongan","district":"Sekaran","urban":"Jugo","postal_code":62261},{"province":"Jawa Timur","city":"Lamongan","district":"Maduran","urban":"Gedangan","postal_code":62261},{"province":"Jawa Timur","city":"Lamongan","district":"Maduran","urban":"Gumantuk","postal_code":62261},{"province":"Jawa Timur","city":"Lamongan","district":"Sekaran","urban":"Bulutengger","postal_code":62261},{"province":"Jawa Timur","city":"Lamongan","district":"Maduran","urban":"Duriwetan","postal_code":62261},{"province":"Jawa Timur","city":"Lamongan","district":"Sekaran","urban":"Bugel","postal_code":62261},{"province":"Jawa Timur","city":"Lamongan","district":"Maduran","urban":"Brumbun","postal_code":62261},{"province":"Jawa Timur","city":"Lamongan","district":"Maduran","urban":"Blumbang","postal_code":62261},{"province":"Jawa Timur","city":"Lamongan","district":"Sekaran","urban":"Besur","postal_code":62261}]