[{"province":"Jawa Timur","city":"Lamongan","district":"Brondong","urban":"Sumberagung","postal_code":62263},{"province":"Jawa Timur","city":"Lamongan","district":"Brondong","urban":"Tlogoretno","postal_code":62263},{"province":"Jawa Timur","city":"Lamongan","district":"Brondong","urban":"Sedayulawas","postal_code":62263},{"province":"Jawa Timur","city":"Lamongan","district":"Brondong","urban":"Sendangharjo","postal_code":62263},{"province":"Jawa Timur","city":"Lamongan","district":"Brondong","urban":"Sidomukti","postal_code":62263},{"province":"Jawa Timur","city":"Lamongan","district":"Brondong","urban":"Lembor","postal_code":62263},{"province":"Jawa Timur","city":"Lamongan","district":"Brondong","urban":"Lohgung","postal_code":62263},{"province":"Jawa Timur","city":"Lamongan","district":"Brondong","urban":"Brondong","postal_code":62263},{"province":"Jawa Timur","city":"Lamongan","district":"Brondong","urban":"Labuhan","postal_code":62263},{"province":"Jawa Timur","city":"Lamongan","district":"Brondong","urban":"Brengkok","postal_code":62263}]