[{"province":"Jawa Timur","city":"Lamongan","district":"Kedungpring","urban":"Warungering","postal_code":62272},{"province":"Jawa Timur","city":"Lamongan","district":"Kedungpring","urban":"Tenggerejo","postal_code":62272},{"province":"Jawa Timur","city":"Lamongan","district":"Kedungpring","urban":"Tlanak","postal_code":62272},{"province":"Jawa Timur","city":"Lamongan","district":"Kedungpring","urban":"Sumengko","postal_code":62272},{"province":"Jawa Timur","city":"Lamongan","district":"Kedungpring","urban":"Sukomalo","postal_code":62272},{"province":"Jawa Timur","city":"Lamongan","district":"Kedungpring","urban":"Nglebur","postal_code":62272},{"province":"Jawa Timur","city":"Lamongan","district":"Kedungpring","urban":"Sidobangun","postal_code":62272},{"province":"Jawa Timur","city":"Lamongan","district":"Kedungpring","urban":"Sidomlangean","postal_code":62272},{"province":"Jawa Timur","city":"Lamongan","district":"Kedungpring","urban":"Mlati","postal_code":62272},{"province":"Jawa Timur","city":"Lamongan","district":"Kedungpring","urban":"Mojodadi","postal_code":62272},{"province":"Jawa Timur","city":"Lamongan","district":"Kedungpring","urban":"Majenang","postal_code":62272},{"province":"Jawa Timur","city":"Lamongan","district":"Kedungpring","urban":"Mekanderejo","postal_code":62272},{"province":"Jawa Timur","city":"Lamongan","district":"Kedungpring","urban":"Kradenanrejo","postal_code":62272},{"province":"Jawa Timur","city":"Lamongan","district":"Kedungpring","urban":"Maindu","postal_code":62272},{"province":"Jawa Timur","city":"Lamongan","district":"Kedungpring","urban":"Karangcangkring","postal_code":62272},{"province":"Jawa Timur","city":"Lamongan","district":"Kedungpring","urban":"Kedungpring","postal_code":62272},{"province":"Jawa Timur","city":"Lamongan","district":"Kedungpring","urban":"Kalen","postal_code":62272},{"province":"Jawa Timur","city":"Lamongan","district":"Kedungpring","urban":"Kandangrejo","postal_code":62272},{"province":"Jawa Timur","city":"Lamongan","district":"Kedungpring","urban":"Gunungrejo","postal_code":62272},{"province":"Jawa Timur","city":"Lamongan","district":"Kedungpring","urban":"Jatidrojok","postal_code":62272},{"province":"Jawa Timur","city":"Lamongan","district":"Kedungpring","urban":"Blawirejo","postal_code":62272},{"province":"Jawa Timur","city":"Lamongan","district":"Kedungpring","urban":"Dradah Blumbang","postal_code":62272},{"province":"Jawa Timur","city":"Lamongan","district":"Kedungpring","urban":"Banjarrejo","postal_code":62272}]