[{"province":"Jawa Timur","city":"Lamongan","district":"Modo","urban":"Sidomulyo","postal_code":62275},{"province":"Jawa Timur","city":"Lamongan","district":"Modo","urban":"Sumberagung","postal_code":62275},{"province":"Jawa Timur","city":"Lamongan","district":"Modo","urban":"Yungyang","postal_code":62275},{"province":"Jawa Timur","city":"Lamongan","district":"Modo","urban":"Sambungrejo","postal_code":62275},{"province":"Jawa Timur","city":"Lamongan","district":"Modo","urban":"Sidodowo","postal_code":62275},{"province":"Jawa Timur","city":"Lamongan","district":"Modo","urban":"Pule","postal_code":62275},{"province":"Jawa Timur","city":"Lamongan","district":"Modo","urban":"Sambangrejo","postal_code":62275},{"province":"Jawa Timur","city":"Lamongan","district":"Modo","urban":"Nguwok","postal_code":62275},{"province":"Jawa Timur","city":"Lamongan","district":"Modo","urban":"Mojorejo","postal_code":62275},{"province":"Jawa Timur","city":"Lamongan","district":"Modo","urban":"Kedungrejo","postal_code":62275},{"province":"Jawa Timur","city":"Lamongan","district":"Modo","urban":"Kedungwaras","postal_code":62275},{"province":"Jawa Timur","city":"Lamongan","district":"Modo","urban":"Medalem","postal_code":62275},{"province":"Jawa Timur","city":"Lamongan","district":"Modo","urban":"Kedunglerep","postal_code":62275},{"province":"Jawa Timur","city":"Lamongan","district":"Modo","urban":"Kedungpengaron","postal_code":62275},{"province":"Jawa Timur","city":"Lamongan","district":"Modo","urban":"Jegreg","postal_code":62275},{"province":"Jawa Timur","city":"Lamongan","district":"Modo","urban":"Kacangan","postal_code":62275},{"province":"Jawa Timur","city":"Lamongan","district":"Modo","urban":"Jatipayak","postal_code":62275}]