[{"province":"Jawa Timur","city":"Lamongan","district":"Ngimbang","urban":"Slaharwotan","postal_code":62273},{"province":"Jawa Timur","city":"Lamongan","district":"Ngimbang","urban":"Tlemang","postal_code":62273},{"province":"Jawa Timur","city":"Lamongan","district":"Ngimbang","urban":"Purwokerto","postal_code":62273},{"province":"Jawa Timur","city":"Lamongan","district":"Ngimbang","urban":"Sendangrejo","postal_code":62273},{"province":"Jawa Timur","city":"Lamongan","district":"Ngimbang","urban":"Ngasem Lemahbang","postal_code":62273},{"province":"Jawa Timur","city":"Lamongan","district":"Ngimbang","urban":"Ngimbang","postal_code":62273},{"province":"Jawa Timur","city":"Lamongan","district":"Ngimbang","urban":"Mendogo","postal_code":62273},{"province":"Jawa Timur","city":"Lamongan","district":"Ngimbang","urban":"Munungrejo","postal_code":62273},{"province":"Jawa Timur","city":"Lamongan","district":"Ngimbang","urban":"Kedungmentawar","postal_code":62273},{"province":"Jawa Timur","city":"Lamongan","district":"Ngimbang","urban":"Lamongrejo","postal_code":62273},{"province":"Jawa Timur","city":"Lamongan","district":"Ngimbang","urban":"Lawak","postal_code":62273},{"province":"Jawa Timur","city":"Lamongan","district":"Ngimbang","urban":"Jejel","postal_code":62273},{"province":"Jawa Timur","city":"Lamongan","district":"Ngimbang","urban":"Kakatpenjalin","postal_code":62273},{"province":"Jawa Timur","city":"Lamongan","district":"Ngimbang","urban":"Gebangangkrik","postal_code":62273},{"province":"Jawa Timur","city":"Lamongan","district":"Ngimbang","urban":"Girik","postal_code":62273},{"province":"Jawa Timur","city":"Lamongan","district":"Ngimbang","urban":"Ganggantingan","postal_code":62273},{"province":"Jawa Timur","city":"Lamongan","district":"Ngimbang","urban":"Drujugurit","postal_code":62273},{"province":"Jawa Timur","city":"Lamongan","district":"Ngimbang","urban":"Durikedungjero","postal_code":62273},{"province":"Jawa Timur","city":"Lamongan","district":"Ngimbang","urban":"Cerme","postal_code":62273}]