[{"province":"Jawa Timur","city":"Lamongan","district":"Tikung","urban":"Wonokromo","postal_code":62281},{"province":"Jawa Timur","city":"Lamongan","district":"Tikung","urban":"Tambakrigadung","postal_code":62281},{"province":"Jawa Timur","city":"Lamongan","district":"Sarirejo","urban":"Tambakmenjangan","postal_code":62281},{"province":"Jawa Timur","city":"Lamongan","district":"Tikung","urban":"Takeranklating","postal_code":62281},{"province":"Jawa Timur","city":"Lamongan","district":"Sarirejo","urban":"Sumberjo","postal_code":62281},{"province":"Jawa Timur","city":"Lamongan","district":"Tikung","urban":"Soko","postal_code":62281},{"province":"Jawa Timur","city":"Lamongan","district":"Sarirejo","urban":"Simbatan","postal_code":62281},{"province":"Jawa Timur","city":"Lamongan","district":"Sarirejo","urban":"Sarirejo","postal_code":62281},{"province":"Jawa Timur","city":"Lamongan","district":"Tikung","urban":"Pengumbulanadi","postal_code":62281},{"province":"Jawa Timur","city":"Lamongan","district":"Tikung","urban":"Kelorarum","postal_code":62281},{"province":"Jawa Timur","city":"Lamongan","district":"Sarirejo","urban":"Kedungkumpul","postal_code":62281},{"province":"Jawa Timur","city":"Lamongan","district":"Tikung","urban":"Jotosanur","postal_code":62281},{"province":"Jawa Timur","city":"Lamongan","district":"Tikung","urban":"Jatirejo","postal_code":62281},{"province":"Jawa Timur","city":"Lamongan","district":"Tikung","urban":"Guminingrejo","postal_code":62281},{"province":"Jawa Timur","city":"Lamongan","district":"Sarirejo","urban":"Gempol Tukmloko","postal_code":62281},{"province":"Jawa Timur","city":"Lamongan","district":"Tikung","urban":"Dukuhagung","postal_code":62281},{"province":"Jawa Timur","city":"Lamongan","district":"Sarirejo","urban":"Canggah","postal_code":62281},{"province":"Jawa Timur","city":"Lamongan","district":"Sarirejo","urban":"Dermo Lemahbang","postal_code":62281},{"province":"Jawa Timur","city":"Lamongan","district":"Tikung","urban":"Botoputih","postal_code":62281},{"province":"Jawa Timur","city":"Lamongan","district":"Sarirejo","urban":"Beru","postal_code":62281},{"province":"Jawa Timur","city":"Lamongan","district":"Tikung","urban":"Balongwangi","postal_code":62281},{"province":"Jawa Timur","city":"Lamongan","district":"Tikung","urban":"Bakalanpule","postal_code":62281}]