[{"province":"Jawa Timur","city":"Tuban","district":"Merakurak","urban":"Tuwiri Wetan","postal_code":62355},{"province":"Jawa Timur","city":"Tuban","district":"Merakurak","urban":"Tobo","postal_code":62355},{"province":"Jawa Timur","city":"Tuban","district":"Merakurak","urban":"Tuwiri Kulon","postal_code":62355},{"province":"Jawa Timur","city":"Tuban","district":"Merakurak","urban":"Temandang","postal_code":62355},{"province":"Jawa Timur","city":"Tuban","district":"Merakurak","urban":"Tlogowaru","postal_code":62355},{"province":"Jawa Timur","city":"Tuban","district":"Merakurak","urban":"Tahulu","postal_code":62355},{"province":"Jawa Timur","city":"Tuban","district":"Merakurak","urban":"Tegalrejo","postal_code":62355},{"province":"Jawa Timur","city":"Tuban","district":"Merakurak","urban":"Sumberejo","postal_code":62355},{"province":"Jawa Timur","city":"Tuban","district":"Merakurak","urban":"Sumber","postal_code":62355},{"province":"Jawa Timur","city":"Tuban","district":"Merakurak","urban":"Sendanghaji","postal_code":62355},{"province":"Jawa Timur","city":"Tuban","district":"Merakurak","urban":"Sugihan","postal_code":62355},{"province":"Jawa Timur","city":"Tuban","district":"Merakurak","urban":"Pongpongan","postal_code":62355},{"province":"Jawa Timur","city":"Tuban","district":"Merakurak","urban":"Sambonggede","postal_code":62355},{"province":"Jawa Timur","city":"Tuban","district":"Merakurak","urban":"Sembungrejo","postal_code":62355},{"province":"Jawa Timur","city":"Tuban","district":"Merakurak","urban":"Kapu","postal_code":62355},{"province":"Jawa Timur","city":"Tuban","district":"Merakurak","urban":"Mandirejo","postal_code":62355},{"province":"Jawa Timur","city":"Tuban","district":"Merakurak","urban":"Bogorejo","postal_code":62355},{"province":"Jawa Timur","city":"Tuban","district":"Merakurak","urban":"Borehbangle","postal_code":62355}]