[{"province":"Jawa Timur","city":"Tuban","district":"Bancar","urban":"Tlogoagung","postal_code":62354},{"province":"Jawa Timur","city":"Tuban","district":"Bancar","urban":"Sumberan","postal_code":62354},{"province":"Jawa Timur","city":"Tuban","district":"Bancar","urban":"Tengger Kulon","postal_code":62354},{"province":"Jawa Timur","city":"Tuban","district":"Bancar","urban":"Tergambang","postal_code":62354},{"province":"Jawa Timur","city":"Tuban","district":"Bancar","urban":"Sukolilo","postal_code":62354},{"province":"Jawa Timur","city":"Tuban","district":"Bancar","urban":"Sidomulyo","postal_code":62354},{"province":"Jawa Timur","city":"Tuban","district":"Bancar","urban":"Sukoharjo","postal_code":62354},{"province":"Jawa Timur","city":"Tuban","district":"Bancar","urban":"Pugoh","postal_code":62354},{"province":"Jawa Timur","city":"Tuban","district":"Bancar","urban":"Sembungin","postal_code":62354},{"province":"Jawa Timur","city":"Tuban","district":"Bancar","urban":"Margosuko","postal_code":62354},{"province":"Jawa Timur","city":"Tuban","district":"Bancar","urban":"Siding","postal_code":62354},{"province":"Jawa Timur","city":"Tuban","district":"Bancar","urban":"Latsari","postal_code":62354},{"province":"Jawa Timur","city":"Tuban","district":"Bancar","urban":"Ngampelrejo","postal_code":62354},{"province":"Jawa Timur","city":"Tuban","district":"Bancar","urban":"Karangrejo","postal_code":62354},{"province":"Jawa Timur","city":"Tuban","district":"Bancar","urban":"Ngujuran","postal_code":62354},{"province":"Jawa Timur","city":"Tuban","district":"Bancar","urban":"Kayen","postal_code":62354},{"province":"Jawa Timur","city":"Tuban","district":"Bancar","urban":"Cingklung","postal_code":62354},{"province":"Jawa Timur","city":"Tuban","district":"Bancar","urban":"Jatisari","postal_code":62354},{"province":"Jawa Timur","city":"Tuban","district":"Bancar","urban":"Bulujowo","postal_code":62354},{"province":"Jawa Timur","city":"Tuban","district":"Bancar","urban":"Bulumeduro","postal_code":62354},{"province":"Jawa Timur","city":"Tuban","district":"Bancar","urban":"Bogorejo","postal_code":62354},{"province":"Jawa Timur","city":"Tuban","district":"Bancar","urban":"Boncong","postal_code":62354},{"province":"Jawa Timur","city":"Tuban","district":"Bancar","urban":"Bancar","postal_code":62354},{"province":"Jawa Timur","city":"Tuban","district":"Bancar","urban":"Banjarejo","postal_code":62354}]