[{"province":"Jawa Timur","city":"Tuban","district":"Grabagan","urban":"Waleran","postal_code":62371},{"province":"Jawa Timur","city":"Tuban","district":"Rengel","urban":"Tambakrejo","postal_code":62371},{"province":"Jawa Timur","city":"Tuban","district":"Rengel","urban":"Rengel","postal_code":62371},{"province":"Jawa Timur","city":"Tuban","district":"Rengel","urban":"Sawahan","postal_code":62371},{"province":"Jawa Timur","city":"Tuban","district":"Rengel","urban":"Sumberejo","postal_code":62371},{"province":"Jawa Timur","city":"Tuban","district":"Rengel","urban":"Prambon Wetan","postal_code":62371},{"province":"Jawa Timur","city":"Tuban","district":"Rengel","urban":"Punggulrejo","postal_code":62371},{"province":"Jawa Timur","city":"Tuban","district":"Rengel","urban":"Pekuwon","postal_code":62371},{"province":"Jawa Timur","city":"Tuban","district":"Grabagan","urban":"Pakis","postal_code":62371},{"province":"Jawa Timur","city":"Tuban","district":"Grabagan","urban":"Ngarum","postal_code":62371},{"province":"Jawa Timur","city":"Tuban","district":"Grabagan","urban":"Ngrejeng","postal_code":62371},{"province":"Jawa Timur","city":"Tuban","district":"Grabagan","urban":"Menyunyur","postal_code":62371},{"province":"Jawa Timur","city":"Tuban","district":"Grabagan","urban":"Ngandong","postal_code":62371},{"province":"Jawa Timur","city":"Tuban","district":"Rengel","urban":"Ngadirejo","postal_code":62371},{"province":"Jawa Timur","city":"Tuban","district":"Rengel","urban":"Kebonagung","postal_code":62371},{"province":"Jawa Timur","city":"Tuban","district":"Rengel","urban":"Maibit","postal_code":62371},{"province":"Jawa Timur","city":"Tuban","district":"Rengel","urban":"Karangtinoto","postal_code":62371},{"province":"Jawa Timur","city":"Tuban","district":"Grabagan","urban":"Gesikan","postal_code":62371},{"province":"Jawa Timur","city":"Tuban","district":"Rengel","urban":"Kanorejo","postal_code":62371},{"province":"Jawa Timur","city":"Tuban","district":"Grabagan","urban":"Grabagan","postal_code":62371},{"province":"Jawa Timur","city":"Tuban","district":"Grabagan","urban":"Dahor","postal_code":62371},{"province":"Jawa Timur","city":"Tuban","district":"Grabagan","urban":"Dermawuhardjo","postal_code":62371},{"province":"Jawa Timur","city":"Tuban","district":"Rengel","urban":"Bulurejo","postal_code":62371},{"province":"Jawa Timur","city":"Tuban","district":"Rengel","urban":"Campurejo","postal_code":62371},{"province":"Jawa Timur","city":"Tuban","district":"Grabagan","urban":"Banyubang","postal_code":62371},{"province":"Jawa Timur","city":"Tuban","district":"Rengel","urban":"Banjararum","postal_code":62371},{"province":"Jawa Timur","city":"Tuban","district":"Rengel","urban":"Banjaragung","postal_code":62371}]