[{"province":"Jawa Timur","city":"Tuban","district":"Widang","urban":"Tegalsari","postal_code":62383},{"province":"Jawa Timur","city":"Tuban","district":"Widang","urban":"Widang","postal_code":62383},{"province":"Jawa Timur","city":"Tuban","district":"Widang","urban":"Sumberejo","postal_code":62383},{"province":"Jawa Timur","city":"Tuban","district":"Widang","urban":"Tegalrejo","postal_code":62383},{"province":"Jawa Timur","city":"Tuban","district":"Widang","urban":"Patihan","postal_code":62383},{"province":"Jawa Timur","city":"Tuban","district":"Widang","urban":"Simorejo","postal_code":62383},{"province":"Jawa Timur","city":"Tuban","district":"Widang","urban":"Mrutuk","postal_code":62383},{"province":"Jawa Timur","city":"Tuban","district":"Widang","urban":"Ngadipuro","postal_code":62383},{"province":"Jawa Timur","city":"Tuban","district":"Widang","urban":"Ngadirejo","postal_code":62383},{"province":"Jawa Timur","city":"Tuban","district":"Widang","urban":"Minohorejo","postal_code":62383},{"province":"Jawa Timur","city":"Tuban","district":"Widang","urban":"Mlangi","postal_code":62383},{"province":"Jawa Timur","city":"Tuban","district":"Widang","urban":"Compreng","postal_code":62383},{"province":"Jawa Timur","city":"Tuban","district":"Widang","urban":"Kedungharjo","postal_code":62383},{"province":"Jawa Timur","city":"Tuban","district":"Widang","urban":"Kujung","postal_code":62383},{"province":"Jawa Timur","city":"Tuban","district":"Widang","urban":"Bunut","postal_code":62383},{"province":"Jawa Timur","city":"Tuban","district":"Widang","urban":"Banjar","postal_code":62383}]