[{"province":"Jawa Timur","city":"Tuban","district":"Plumpang","urban":"Sumurjalak","postal_code":62382},{"province":"Jawa Timur","city":"Tuban","district":"Plumpang","urban":"Trutup","postal_code":62382},{"province":"Jawa Timur","city":"Tuban","district":"Plumpang","urban":"Sembungrejo","postal_code":62382},{"province":"Jawa Timur","city":"Tuban","district":"Plumpang","urban":"Sumberagung","postal_code":62382},{"province":"Jawa Timur","city":"Tuban","district":"Plumpang","urban":"Plumpang","postal_code":62382},{"province":"Jawa Timur","city":"Tuban","district":"Plumpang","urban":"Penidon","postal_code":62382},{"province":"Jawa Timur","city":"Tuban","district":"Plumpang","urban":"Plandirejo","postal_code":62382},{"province":"Jawa Timur","city":"Tuban","district":"Plumpang","urban":"Ngrayung","postal_code":62382},{"province":"Jawa Timur","city":"Tuban","district":"Plumpang","urban":"Magersari","postal_code":62382},{"province":"Jawa Timur","city":"Tuban","district":"Plumpang","urban":"Klotok","postal_code":62382},{"province":"Jawa Timur","city":"Tuban","district":"Plumpang","urban":"Kesamben","postal_code":62382},{"province":"Jawa Timur","city":"Tuban","district":"Plumpang","urban":"Kepohagung","postal_code":62382},{"province":"Jawa Timur","city":"Tuban","district":"Plumpang","urban":"Kedungsoko","postal_code":62382},{"province":"Jawa Timur","city":"Tuban","district":"Plumpang","urban":"Kedungrojo","postal_code":62382},{"province":"Jawa Timur","city":"Tuban","district":"Plumpang","urban":"Kebomlati","postal_code":62382},{"province":"Jawa Timur","city":"Tuban","district":"Plumpang","urban":"Cangkring","postal_code":62382},{"province":"Jawa Timur","city":"Tuban","district":"Plumpang","urban":"Jatimulyo","postal_code":62382},{"province":"Jawa Timur","city":"Tuban","district":"Plumpang","urban":"Bandungrejo","postal_code":62382}]