[{"province":"Jawa Timur","city":"Madiun","district":"Mejayan","urban":"Pandeyan","postal_code":63153},{"province":"Jawa Timur","city":"Madiun","district":"Mejayan","urban":"Wonorejo","postal_code":63153},{"province":"Jawa Timur","city":"Madiun","district":"Mejayan","urban":"Mejayan","postal_code":63153},{"province":"Jawa Timur","city":"Madiun","district":"Mejayan","urban":"Ngampel","postal_code":63153},{"province":"Jawa Timur","city":"Madiun","district":"Mejayan","urban":"Klecorejo","postal_code":63153},{"province":"Jawa Timur","city":"Madiun","district":"Mejayan","urban":"Krajan","postal_code":63153},{"province":"Jawa Timur","city":"Madiun","district":"Mejayan","urban":"Kuncen","postal_code":63153},{"province":"Jawa Timur","city":"Madiun","district":"Mejayan","urban":"Kebonagung","postal_code":63153},{"province":"Jawa Timur","city":"Madiun","district":"Mejayan","urban":"Darmorejo","postal_code":63153},{"province":"Jawa Timur","city":"Madiun","district":"Mejayan","urban":"Kaliabu","postal_code":63153},{"province":"Jawa Timur","city":"Madiun","district":"Mejayan","urban":"Kaligunting","postal_code":63153},{"province":"Jawa Timur","city":"Madiun","district":"Mejayan","urban":"Bangunsari","postal_code":63153},{"province":"Jawa Timur","city":"Madiun","district":"Mejayan","urban":"Blabakan","postal_code":63153}]