[{"province":"Jawa Timur","city":"Madiun","district":"Pilangkenceng","urban":"Wonoayu","postal_code":63154},{"province":"Jawa Timur","city":"Madiun","district":"Pilangkenceng","urban":"Sumbergandu","postal_code":63154},{"province":"Jawa Timur","city":"Madiun","district":"Pilangkenceng","urban":"Pulerejo","postal_code":63154},{"province":"Jawa Timur","city":"Madiun","district":"Pilangkenceng","urban":"Purworejo","postal_code":63154},{"province":"Jawa Timur","city":"Madiun","district":"Pilangkenceng","urban":"Ngale","postal_code":63154},{"province":"Jawa Timur","city":"Madiun","district":"Pilangkenceng","urban":"Ngengor","postal_code":63154},{"province":"Jawa Timur","city":"Madiun","district":"Pilangkenceng","urban":"Pilangkenceng","postal_code":63154},{"province":"Jawa Timur","city":"Madiun","district":"Pilangkenceng","urban":"Luworo","postal_code":63154},{"province":"Jawa Timur","city":"Madiun","district":"Pilangkenceng","urban":"Muneng","postal_code":63154},{"province":"Jawa Timur","city":"Madiun","district":"Pilangkenceng","urban":"Kenongorejo","postal_code":63154},{"province":"Jawa Timur","city":"Madiun","district":"Pilangkenceng","urban":"Krebet","postal_code":63154},{"province":"Jawa Timur","city":"Madiun","district":"Pilangkenceng","urban":"Kedung Banteng","postal_code":63154},{"province":"Jawa Timur","city":"Madiun","district":"Pilangkenceng","urban":"Kedungmaron","postal_code":63154},{"province":"Jawa Timur","city":"Madiun","district":"Pilangkenceng","urban":"Kedungrejo","postal_code":63154},{"province":"Jawa Timur","city":"Madiun","district":"Pilangkenceng","urban":"Duren","postal_code":63154},{"province":"Jawa Timur","city":"Madiun","district":"Pilangkenceng","urban":"Gandul","postal_code":63154},{"province":"Jawa Timur","city":"Madiun","district":"Pilangkenceng","urban":"Bulu","postal_code":63154},{"province":"Jawa Timur","city":"Madiun","district":"Pilangkenceng","urban":"Dawuhan","postal_code":63154}]