[{"province":"Jawa Timur","city":"Madiun","district":"Sawahan","urban":"Sidomulyo","postal_code":63162},{"province":"Jawa Timur","city":"Madiun","district":"Sawahan","urban":"Rejosari","postal_code":63162},{"province":"Jawa Timur","city":"Madiun","district":"Sawahan","urban":"Sawahan","postal_code":63162},{"province":"Jawa Timur","city":"Madiun","district":"Sawahan","urban":"Pucangrejo","postal_code":63162},{"province":"Jawa Timur","city":"Madiun","district":"Sawahan","urban":"Pule","postal_code":63162},{"province":"Jawa Timur","city":"Madiun","district":"Sawahan","urban":"Klumpit","postal_code":63162},{"province":"Jawa Timur","city":"Madiun","district":"Sawahan","urban":"Krokeh","postal_code":63162},{"province":"Jawa Timur","city":"Madiun","district":"Sawahan","urban":"Lebakayu","postal_code":63162},{"province":"Jawa Timur","city":"Madiun","district":"Sawahan","urban":"Kajang","postal_code":63162},{"province":"Jawa Timur","city":"Madiun","district":"Sawahan","urban":"Kanung","postal_code":63162},{"province":"Jawa Timur","city":"Madiun","district":"Sawahan","urban":"Bakur","postal_code":63162},{"province":"Jawa Timur","city":"Madiun","district":"Sawahan","urban":"Cabean","postal_code":63162},{"province":"Jawa Timur","city":"Madiun","district":"Sawahan","urban":"Golan","postal_code":63162}]