[{"province":"Jawa Timur","city":"Ngawi","district":"Ngawi","urban":"Watualang","postal_code":63218},{"province":"Jawa Timur","city":"Ngawi","district":"Ngawi","urban":"Kerek","postal_code":63218},{"province":"Jawa Timur","city":"Ngawi","district":"Ngawi","urban":"Mangunharjo","postal_code":63218},{"province":"Jawa Timur","city":"Ngawi","district":"Ngawi","urban":"Ngawi","postal_code":63218},{"province":"Jawa Timur","city":"Ngawi","district":"Ngawi","urban":"Kartoharjo","postal_code":63218},{"province":"Jawa Timur","city":"Ngawi","district":"Ngawi","urban":"Karang Tengah Prandon","postal_code":63218},{"province":"Jawa Timur","city":"Ngawi","district":"Ngawi","urban":"Karangasri","postal_code":63218},{"province":"Jawa Timur","city":"Ngawi","district":"Ngawi","urban":"Kandangan","postal_code":63218},{"province":"Jawa Timur","city":"Ngawi","district":"Ngawi","urban":"Karang Tengah","postal_code":63218},{"province":"Jawa Timur","city":"Ngawi","district":"Ngawi","urban":"Banyu Urip","postal_code":63218}]