[{"province":"Jawa Timur","city":"Ngawi","district":"Geneng","urban":"Tambakromo","postal_code":63271},{"province":"Jawa Timur","city":"Ngawi","district":"Geneng","urban":"Tepas","postal_code":63271},{"province":"Jawa Timur","city":"Ngawi","district":"Gerih","urban":"Widodaren","postal_code":63271},{"province":"Jawa Timur","city":"Ngawi","district":"Geneng","urban":"Sidorejo","postal_code":63271},{"province":"Jawa Timur","city":"Ngawi","district":"Gerih","urban":"Randusongo","postal_code":63271},{"province":"Jawa Timur","city":"Ngawi","district":"Geneng","urban":"Klampisan","postal_code":63271},{"province":"Jawa Timur","city":"Ngawi","district":"Geneng","urban":"Klitik","postal_code":63271},{"province":"Jawa Timur","city":"Ngawi","district":"Geneng","urban":"Keras Wetan","postal_code":63271},{"province":"Jawa Timur","city":"Ngawi","district":"Geneng","urban":"Kersikan","postal_code":63271},{"province":"Jawa Timur","city":"Ngawi","district":"Geneng","urban":"Kersoharjo","postal_code":63271},{"province":"Jawa Timur","city":"Ngawi","district":"Gerih","urban":"Keras Kulon","postal_code":63271},{"province":"Jawa Timur","city":"Ngawi","district":"Geneng","urban":"Keniten","postal_code":63271},{"province":"Jawa Timur","city":"Ngawi","district":"Gerih","urban":"Guyung","postal_code":63271},{"province":"Jawa Timur","city":"Ngawi","district":"Geneng","urban":"Kasreman","postal_code":63271},{"province":"Jawa Timur","city":"Ngawi","district":"Gerih","urban":"Gerih","postal_code":63271},{"province":"Jawa Timur","city":"Ngawi","district":"Geneng","urban":"Geneng","postal_code":63271},{"province":"Jawa Timur","city":"Ngawi","district":"Geneng","urban":"Dempel","postal_code":63271},{"province":"Jawa Timur","city":"Ngawi","district":"Geneng","urban":"Baderan","postal_code":63271}]