[{"province":"Jawa Timur","city":"Ngawi","district":"Padas","urban":"Tungkulrejo","postal_code":63281},{"province":"Jawa Timur","city":"Ngawi","district":"Kasreman","urban":"Tawun","postal_code":63281},{"province":"Jawa Timur","city":"Ngawi","district":"Padas","urban":"Tambakromo","postal_code":63281},{"province":"Jawa Timur","city":"Ngawi","district":"Padas","urban":"Sambiroto","postal_code":63281},{"province":"Jawa Timur","city":"Ngawi","district":"Padas","urban":"Sukowiyono","postal_code":63281},{"province":"Jawa Timur","city":"Ngawi","district":"Padas","urban":"Pacing","postal_code":63281},{"province":"Jawa Timur","city":"Ngawi","district":"Padas","urban":"Padas","postal_code":63281},{"province":"Jawa Timur","city":"Ngawi","district":"Kasreman","urban":"Lego Kulon","postal_code":63281},{"province":"Jawa Timur","city":"Ngawi","district":"Padas","urban":"Munggut","postal_code":63281},{"province":"Jawa Timur","city":"Ngawi","district":"Kasreman","urban":"Kiyonten","postal_code":63281},{"province":"Jawa Timur","city":"Ngawi","district":"Padas","urban":"Kedung Prahu","postal_code":63281},{"province":"Jawa Timur","city":"Ngawi","district":"Padas","urban":"Kwadungan Lor","postal_code":63281},{"province":"Jawa Timur","city":"Ngawi","district":"Kasreman","urban":"Karang Malang","postal_code":63281},{"province":"Jawa Timur","city":"Ngawi","district":"Kasreman","urban":"Kasreman","postal_code":63281},{"province":"Jawa Timur","city":"Ngawi","district":"Kasreman","urban":"Cangakan","postal_code":63281},{"province":"Jawa Timur","city":"Ngawi","district":"Kasreman","urban":"Gunungsari","postal_code":63281},{"province":"Jawa Timur","city":"Ngawi","district":"Kasreman","urban":"Jatirejo","postal_code":63281},{"province":"Jawa Timur","city":"Ngawi","district":"Padas","urban":"Bendo","postal_code":63281},{"province":"Jawa Timur","city":"Ngawi","district":"Padas","urban":"Bintoyo","postal_code":63281},{"province":"Jawa Timur","city":"Ngawi","district":"Padas","urban":"Banjaransari","postal_code":63281}]