[{"province":"Jawa Timur","city":"Ngawi","district":"Bringin","urban":"Sumber Bening","postal_code":63285},{"province":"Jawa Timur","city":"Ngawi","district":"Bringin","urban":"Suruh","postal_code":63285},{"province":"Jawa Timur","city":"Ngawi","district":"Bringin","urban":"Krompol","postal_code":63285},{"province":"Jawa Timur","city":"Ngawi","district":"Bringin","urban":"Lego Wetan","postal_code":63285},{"province":"Jawa Timur","city":"Ngawi","district":"Bringin","urban":"Mojo","postal_code":63285},{"province":"Jawa Timur","city":"Ngawi","district":"Bringin","urban":"Dero","postal_code":63285},{"province":"Jawa Timur","city":"Ngawi","district":"Bringin","urban":"Gandong","postal_code":63285},{"province":"Jawa Timur","city":"Ngawi","district":"Bringin","urban":"Kenongorejo","postal_code":63285},{"province":"Jawa Timur","city":"Ngawi","district":"Bringin","urban":"Bringin","postal_code":63285},{"province":"Jawa Timur","city":"Ngawi","district":"Bringin","urban":"Dampit","postal_code":63285}]