[{"province":"Jawa Timur","city":"Magetan","district":"Magetan","urban":"Sukowinangun","postal_code":63319},{"province":"Jawa Timur","city":"Magetan","district":"Magetan","urban":"Tambakrejo","postal_code":63319},{"province":"Jawa Timur","city":"Magetan","district":"Sidorejo","urban":"Sambirobyong","postal_code":63319},{"province":"Jawa Timur","city":"Magetan","district":"Magetan","urban":"Purwosari","postal_code":63319},{"province":"Jawa Timur","city":"Magetan","district":"Magetan","urban":"Ringinagung","postal_code":63319},{"province":"Jawa Timur","city":"Magetan","district":"Magetan","urban":"Magetan","postal_code":63319},{"province":"Jawa Timur","city":"Magetan","district":"Sidorejo","urban":"Kalang","postal_code":63319},{"province":"Jawa Timur","city":"Magetan","district":"Magetan","urban":"Candirejo","postal_code":63319},{"province":"Jawa Timur","city":"Magetan","district":"Sidorejo","urban":"Campursari","postal_code":63319},{"province":"Jawa Timur","city":"Magetan","district":"Magetan","urban":"Baron","postal_code":63319}]