[{"province":"Jawa Timur","city":"Magetan","district":"Sidorejo","urban":"Widorokandang","postal_code":63352},{"province":"Jawa Timur","city":"Magetan","district":"Panekan","urban":"Wates","postal_code":63352},{"province":"Jawa Timur","city":"Magetan","district":"Panekan","urban":"Terung","postal_code":63352},{"province":"Jawa Timur","city":"Magetan","district":"Panekan","urban":"Turi","postal_code":63352},{"province":"Jawa Timur","city":"Magetan","district":"Panekan","urban":"Tanjungsari","postal_code":63352},{"province":"Jawa Timur","city":"Magetan","district":"Panekan","urban":"Tapak","postal_code":63352},{"province":"Jawa Timur","city":"Magetan","district":"Panekan","urban":"Sukowidi","postal_code":63352},{"province":"Jawa Timur","city":"Magetan","district":"Panekan","urban":"Sumberdodol","postal_code":63352},{"province":"Jawa Timur","city":"Magetan","district":"Sidorejo","urban":"Sumbersawit","postal_code":63352},{"province":"Jawa Timur","city":"Magetan","district":"Panekan","urban":"Sidowayah","postal_code":63352},{"province":"Jawa Timur","city":"Magetan","district":"Sidorejo","urban":"Sidokerto","postal_code":63352},{"province":"Jawa Timur","city":"Magetan","district":"Panekan","urban":"Rejomulyo","postal_code":63352},{"province":"Jawa Timur","city":"Magetan","district":"Panekan","urban":"Milangasri","postal_code":63352},{"province":"Jawa Timur","city":"Magetan","district":"Panekan","urban":"Ngiliran","postal_code":63352},{"province":"Jawa Timur","city":"Magetan","district":"Panekan","urban":"Panekan","postal_code":63352},{"province":"Jawa Timur","city":"Magetan","district":"Panekan","urban":"Jabung","postal_code":63352},{"province":"Jawa Timur","city":"Magetan","district":"Panekan","urban":"Manjung","postal_code":63352},{"province":"Jawa Timur","city":"Magetan","district":"Panekan","urban":"Bedagung","postal_code":63352},{"province":"Jawa Timur","city":"Magetan","district":"Panekan","urban":"Cepoko","postal_code":63352},{"province":"Jawa Timur","city":"Magetan","district":"Panekan","urban":"Banjarejo","postal_code":63352}]