[{"province":"Jawa Timur","city":"Magetan","district":"Parang","urban":"Trosono","postal_code":63371},{"province":"Jawa Timur","city":"Magetan","district":"Parang","urban":"Sayutan","postal_code":63371},{"province":"Jawa Timur","city":"Magetan","district":"Parang","urban":"Sundul","postal_code":63371},{"province":"Jawa Timur","city":"Magetan","district":"Parang","urban":"Tamanarum","postal_code":63371},{"province":"Jawa Timur","city":"Magetan","district":"Parang","urban":"Parang","postal_code":63371},{"province":"Jawa Timur","city":"Magetan","district":"Parang","urban":"Pragak","postal_code":63371},{"province":"Jawa Timur","city":"Magetan","district":"Parang","urban":"Nglopang","postal_code":63371},{"province":"Jawa Timur","city":"Magetan","district":"Parang","urban":"Ngunut","postal_code":63371},{"province":"Jawa Timur","city":"Magetan","district":"Parang","urban":"Mategal","postal_code":63371},{"province":"Jawa Timur","city":"Magetan","district":"Parang","urban":"Ngaglik","postal_code":63371},{"province":"Jawa Timur","city":"Magetan","district":"Parang","urban":"Krajan","postal_code":63371},{"province":"Jawa Timur","city":"Magetan","district":"Parang","urban":"Bungkuk","postal_code":63371},{"province":"Jawa Timur","city":"Magetan","district":"Parang","urban":"Joketro","postal_code":63371}]