[{"province":"Jawa Timur","city":"Magetan","district":"Lembeyan","urban":"Pupus","postal_code":63372},{"province":"Jawa Timur","city":"Magetan","district":"Lembeyan","urban":"Tapen","postal_code":63372},{"province":"Jawa Timur","city":"Magetan","district":"Lembeyan","urban":"Tunggur","postal_code":63372},{"province":"Jawa Timur","city":"Magetan","district":"Lembeyan","urban":"Lembeyan Wetan","postal_code":63372},{"province":"Jawa Timur","city":"Magetan","district":"Lembeyan","urban":"Nguri","postal_code":63372},{"province":"Jawa Timur","city":"Magetan","district":"Lembeyan","urban":"Lembeyan Kulon","postal_code":63372},{"province":"Jawa Timur","city":"Magetan","district":"Lembeyan","urban":"Kedungpanji","postal_code":63372},{"province":"Jawa Timur","city":"Magetan","district":"Lembeyan","urban":"Krowe","postal_code":63372},{"province":"Jawa Timur","city":"Magetan","district":"Lembeyan","urban":"Dukuh","postal_code":63372},{"province":"Jawa Timur","city":"Magetan","district":"Lembeyan","urban":"Kediren","postal_code":63372}]