[{"province":"Jawa Timur","city":"Magetan","district":"Takeran","urban":"Waduk","postal_code":63383},{"province":"Jawa Timur","city":"Magetan","district":"Takeran","urban":"Takeran","postal_code":63383},{"province":"Jawa Timur","city":"Magetan","district":"Takeran","urban":"Tawangrejo","postal_code":63383},{"province":"Jawa Timur","city":"Magetan","district":"Nguntoronadi","urban":"Simbatan","postal_code":63383},{"province":"Jawa Timur","city":"Magetan","district":"Nguntoronadi","urban":"Sukowidi","postal_code":63383},{"province":"Jawa Timur","city":"Magetan","district":"Takeran","urban":"Sawojajar","postal_code":63383},{"province":"Jawa Timur","city":"Magetan","district":"Nguntoronadi","urban":"Semen","postal_code":63383},{"province":"Jawa Timur","city":"Magetan","district":"Nguntoronadi","urban":"Nguntoronadi","postal_code":63383},{"province":"Jawa Timur","city":"Magetan","district":"Nguntoronadi","urban":"Petungrejo","postal_code":63383},{"province":"Jawa Timur","city":"Magetan","district":"Nguntoronadi","urban":"Purworejo","postal_code":63383},{"province":"Jawa Timur","city":"Magetan","district":"Takeran","urban":"Kuwonharjo","postal_code":63383},{"province":"Jawa Timur","city":"Magetan","district":"Takeran","urban":"Madigondo","postal_code":63383},{"province":"Jawa Timur","city":"Magetan","district":"Takeran","urban":"Kerik","postal_code":63383},{"province":"Jawa Timur","city":"Magetan","district":"Takeran","urban":"Kiringan","postal_code":63383},{"province":"Jawa Timur","city":"Magetan","district":"Takeran","urban":"Kepuhrejo","postal_code":63383},{"province":"Jawa Timur","city":"Magetan","district":"Takeran","urban":"Kerang","postal_code":63383},{"province":"Jawa Timur","city":"Magetan","district":"Takeran","urban":"Jomblang","postal_code":63383},{"province":"Jawa Timur","city":"Magetan","district":"Nguntoronadi","urban":"Kenongomulyo","postal_code":63383},{"province":"Jawa Timur","city":"Magetan","district":"Takeran","urban":"Duyung","postal_code":63383},{"province":"Jawa Timur","city":"Magetan","district":"Nguntoronadi","urban":"Gorang Gareng","postal_code":63383},{"province":"Jawa Timur","city":"Magetan","district":"Nguntoronadi","urban":"Driyorejo","postal_code":63383}]