[{"province":"Jawa Timur","city":"Magetan","district":"Sukomoro","urban":"Tinap","postal_code":63391},{"province":"Jawa Timur","city":"Magetan","district":"Sukomoro","urban":"Truneng","postal_code":63391},{"province":"Jawa Timur","city":"Magetan","district":"Sukomoro","urban":"Tambakmas","postal_code":63391},{"province":"Jawa Timur","city":"Magetan","district":"Sukomoro","urban":"Sukomoro","postal_code":63391},{"province":"Jawa Timur","city":"Magetan","district":"Sukomoro","urban":"Tamanan","postal_code":63391},{"province":"Jawa Timur","city":"Magetan","district":"Sukomoro","urban":"Kembangan","postal_code":63391},{"province":"Jawa Timur","city":"Magetan","district":"Sukomoro","urban":"Kentangan","postal_code":63391},{"province":"Jawa Timur","city":"Magetan","district":"Sukomoro","urban":"Pojoksari","postal_code":63391},{"province":"Jawa Timur","city":"Magetan","district":"Sukomoro","urban":"Kedungguwo","postal_code":63391},{"province":"Jawa Timur","city":"Magetan","district":"Sukomoro","urban":"Bulu","postal_code":63391},{"province":"Jawa Timur","city":"Magetan","district":"Sukomoro","urban":"Kalangketi","postal_code":63391},{"province":"Jawa Timur","city":"Magetan","district":"Sukomoro","urban":"Bibis","postal_code":63391},{"province":"Jawa Timur","city":"Magetan","district":"Sukomoro","urban":"Bogem","postal_code":63391},{"province":"Jawa Timur","city":"Magetan","district":"Sukomoro","urban":"Bandar","postal_code":63391}]