[{"province":"Jawa Timur","city":"Magetan","district":"Karas","urban":"Temboro","postal_code":63395},{"province":"Jawa Timur","city":"Magetan","district":"Karas","urban":"Temenggungan","postal_code":63395},{"province":"Jawa Timur","city":"Magetan","district":"Barat","urban":"Tebon","postal_code":63395},{"province":"Jawa Timur","city":"Magetan","district":"Karas","urban":"Sumursongo","postal_code":63395},{"province":"Jawa Timur","city":"Magetan","district":"Karas","urban":"Taji","postal_code":63395},{"province":"Jawa Timur","city":"Magetan","district":"Karangrejo","urban":"Sambirembe","postal_code":63395},{"province":"Jawa Timur","city":"Magetan","district":"Karas","urban":"Sobontoro","postal_code":63395},{"province":"Jawa Timur","city":"Magetan","district":"Kartoharjo (Kertoharjo)","urban":"Sukowidi","postal_code":63395},{"province":"Jawa Timur","city":"Magetan","district":"Barat","urban":"Purwodadi","postal_code":63395},{"province":"Jawa Timur","city":"Magetan","district":"Barat","urban":"Rejomulyo","postal_code":63395},{"province":"Jawa Timur","city":"Magetan","district":"Kartoharjo (Kertoharjo)","urban":"Pencol","postal_code":63395},{"province":"Jawa Timur","city":"Magetan","district":"Karangrejo","urban":"Prampelan","postal_code":63395},{"province":"Jawa Timur","city":"Magetan","district":"Karangrejo","urban":"Patihan","postal_code":63395},{"province":"Jawa Timur","city":"Magetan","district":"Barat","urban":"Panggung","postal_code":63395},{"province":"Jawa Timur","city":"Magetan","district":"Karangrejo","urban":"Pelem","postal_code":63395},{"province":"Jawa Timur","city":"Magetan","district":"Kartoharjo (Kertoharjo)","urban":"Ngelang","postal_code":63395},{"province":"Jawa Timur","city":"Magetan","district":"Barat","urban":"Ngumpul","postal_code":63395},{"province":"Jawa Timur","city":"Magetan","district":"Kartoharjo (Kertoharjo)","urban":"Mrahu","postal_code":63395},{"province":"Jawa Timur","city":"Magetan","district":"Karangrejo","urban":"Mantren","postal_code":63395},{"province":"Jawa Timur","city":"Magetan","district":"Karangrejo","urban":"Maron","postal_code":63395},{"province":"Jawa Timur","city":"Magetan","district":"Karangrejo","urban":"Manisrejo","postal_code":63395},{"province":"Jawa Timur","city":"Magetan","district":"Barat","urban":"Manjung","postal_code":63395},{"province":"Jawa Timur","city":"Magetan","district":"Karas","urban":"Kuwon","postal_code":63395},{"province":"Jawa Timur","city":"Magetan","district":"Kartoharjo (Kertoharjo)","urban":"Klurahan","postal_code":63395},{"province":"Jawa Timur","city":"Magetan","district":"Barat","urban":"Mangge","postal_code":63395},{"province":"Jawa Timur","city":"Magetan","district":"Kartoharjo (Kertoharjo)","urban":"Kartoharjo (Kertoharjo)","postal_code":63395},{"province":"Jawa Timur","city":"Magetan","district":"Karangrejo","urban":"Kauman","postal_code":63395},{"province":"Jawa Timur","city":"Magetan","district":"Barat","urban":"Klagen","postal_code":63395},{"province":"Jawa Timur","city":"Magetan","district":"Karas","urban":"Karas","postal_code":63395},{"province":"Jawa Timur","city":"Magetan","district":"Barat","urban":"Karangsono","postal_code":63395},{"province":"Jawa Timur","city":"Magetan","district":"Karas","urban":"Jungke","postal_code":63395},{"province":"Jawa Timur","city":"Magetan","district":"Kartoharjo (Kertoharjo)","urban":"Karangmojo","postal_code":63395},{"province":"Jawa Timur","city":"Magetan","district":"Karangrejo","urban":"Karangrejo","postal_code":63395},{"province":"Jawa Timur","city":"Magetan","district":"Barat","urban":"Jonggrang","postal_code":63395},{"province":"Jawa Timur","city":"Magetan","district":"Kartoharjo (Kertoharjo)","urban":"Gunungan","postal_code":63395},{"province":"Jawa Timur","city":"Magetan","district":"Kartoharjo (Kertoharjo)","urban":"Jajar","postal_code":63395},{"province":"Jawa Timur","city":"Magetan","district":"Kartoharjo (Kertoharjo)","urban":"Jeruk","postal_code":63395},{"province":"Jawa Timur","city":"Magetan","district":"Karangrejo","urban":"Gondang","postal_code":63395},{"province":"Jawa Timur","city":"Magetan","district":"Karangrejo","urban":"Grabahan","postal_code":63395},{"province":"Jawa Timur","city":"Magetan","district":"Karas","urban":"Geplak","postal_code":63395},{"province":"Jawa Timur","city":"Magetan","district":"Karas","urban":"Ginuk","postal_code":63395},{"province":"Jawa Timur","city":"Magetan","district":"Karas","urban":"Botok","postal_code":63395},{"province":"Jawa Timur","city":"Magetan","district":"Karangrejo","urban":"Gebyog","postal_code":63395},{"province":"Jawa Timur","city":"Magetan","district":"Barat","urban":"Blaran","postal_code":63395},{"province":"Jawa Timur","city":"Magetan","district":"Barat","urban":"Bogorejo","postal_code":63395},{"province":"Jawa Timur","city":"Magetan","district":"Kartoharjo (Kertoharjo)","urban":"Bayem Taman","postal_code":63395},{"province":"Jawa Timur","city":"Magetan","district":"Kartoharjo (Kertoharjo)","urban":"Bayem Wetan","postal_code":63395},{"province":"Jawa Timur","city":"Magetan","district":"Karangrejo","urban":"Baluk","postal_code":63395},{"province":"Jawa Timur","city":"Magetan","district":"Barat","urban":"Bangunasri","postal_code":63395}]