[{"province":"Jawa Timur","city":"Ponorogo","district":"Sampung","urban":"Tulung","postal_code":63454},{"province":"Jawa Timur","city":"Ponorogo","district":"Sampung","urban":"Sampung","postal_code":63454},{"province":"Jawa Timur","city":"Ponorogo","district":"Sampung","urban":"Ringinputih","postal_code":63454},{"province":"Jawa Timur","city":"Ponorogo","district":"Sampung","urban":"Pohijo","postal_code":63454},{"province":"Jawa Timur","city":"Ponorogo","district":"Sampung","urban":"Pagerukir","postal_code":63454},{"province":"Jawa Timur","city":"Ponorogo","district":"Sampung","urban":"Nglurup","postal_code":63454},{"province":"Jawa Timur","city":"Ponorogo","district":"Sampung","urban":"Karang Waluh","postal_code":63454},{"province":"Jawa Timur","city":"Ponorogo","district":"Sampung","urban":"Kunti","postal_code":63454},{"province":"Jawa Timur","city":"Ponorogo","district":"Sampung","urban":"Jenangan","postal_code":63454},{"province":"Jawa Timur","city":"Ponorogo","district":"Sampung","urban":"Glinggang","postal_code":63454},{"province":"Jawa Timur","city":"Ponorogo","district":"Sampung","urban":"Gelangkulon","postal_code":63454},{"province":"Jawa Timur","city":"Ponorogo","district":"Sampung","urban":"Carang Rejo","postal_code":63454}]