[{"province":"Jawa Timur","city":"Ponorogo","district":"Sukorejo","urban":"Sukorejo","postal_code":63453},{"province":"Jawa Timur","city":"Ponorogo","district":"Sukorejo","urban":"Sragi","postal_code":63453},{"province":"Jawa Timur","city":"Ponorogo","district":"Sukorejo","urban":"Sidorejo","postal_code":63453},{"province":"Jawa Timur","city":"Ponorogo","district":"Sukorejo","urban":"Serangan","postal_code":63453},{"province":"Jawa Timur","city":"Ponorogo","district":"Sukorejo","urban":"Nampan","postal_code":63453},{"province":"Jawa Timur","city":"Ponorogo","district":"Sukorejo","urban":"Prajegan","postal_code":63453},{"province":"Jawa Timur","city":"Ponorogo","district":"Sukorejo","urban":"Nambangrejo","postal_code":63453},{"province":"Jawa Timur","city":"Ponorogo","district":"Sukorejo","urban":"Morosari","postal_code":63453},{"province":"Jawa Timur","city":"Ponorogo","district":"Sukorejo","urban":"Lengkong","postal_code":63453},{"province":"Jawa Timur","city":"Ponorogo","district":"Sukorejo","urban":"Kranggan","postal_code":63453},{"province":"Jawa Timur","city":"Ponorogo","district":"Sukorejo","urban":"Kedung Banteng","postal_code":63453},{"province":"Jawa Timur","city":"Ponorogo","district":"Sukorejo","urban":"Kalimalang","postal_code":63453},{"province":"Jawa Timur","city":"Ponorogo","district":"Sukorejo","urban":"Karanglo Lor","postal_code":63453},{"province":"Jawa Timur","city":"Ponorogo","district":"Sukorejo","urban":"Golan","postal_code":63453},{"province":"Jawa Timur","city":"Ponorogo","district":"Sukorejo","urban":"Gelanglor","postal_code":63453},{"province":"Jawa Timur","city":"Ponorogo","district":"Sukorejo","urban":"Gegeran","postal_code":63453},{"province":"Jawa Timur","city":"Ponorogo","district":"Sukorejo","urban":"Gandukepuh","postal_code":63453},{"province":"Jawa Timur","city":"Ponorogo","district":"Sukorejo","urban":"Bangunrejo","postal_code":63453}]