[{"province":"Jawa Timur","city":"Ponorogo","district":"Jambon","urban":"Sidoharjo","postal_code":63456},{"province":"Jawa Timur","city":"Ponorogo","district":"Jambon","urban":"Srandil","postal_code":63456},{"province":"Jawa Timur","city":"Ponorogo","district":"Jambon","urban":"Pulosari","postal_code":63456},{"province":"Jawa Timur","city":"Ponorogo","district":"Jambon","urban":"Sendang","postal_code":63456},{"province":"Jawa Timur","city":"Ponorogo","district":"Jambon","urban":"Krebet","postal_code":63456},{"province":"Jawa Timur","city":"Ponorogo","district":"Jambon","urban":"Menang","postal_code":63456},{"province":"Jawa Timur","city":"Ponorogo","district":"Jambon","urban":"Poko","postal_code":63456},{"province":"Jawa Timur","city":"Ponorogo","district":"Jambon","urban":"Karanglo Kidul","postal_code":63456},{"province":"Jawa Timur","city":"Ponorogo","district":"Jambon","urban":"Jambon","postal_code":63456},{"province":"Jawa Timur","city":"Ponorogo","district":"Jambon","urban":"Jonggol","postal_code":63456},{"province":"Jawa Timur","city":"Ponorogo","district":"Jambon","urban":"Bulu Lor","postal_code":63456},{"province":"Jawa Timur","city":"Ponorogo","district":"Jambon","urban":"Blembem","postal_code":63456},{"province":"Jawa Timur","city":"Ponorogo","district":"Jambon","urban":"Bringinan","postal_code":63456}]