[{"province":"Jawa Timur","city":"Ponorogo","district":"Badegan","urban":"Tanjungrejo","postal_code":63455},{"province":"Jawa Timur","city":"Ponorogo","district":"Badegan","urban":"Watubonang","postal_code":63455},{"province":"Jawa Timur","city":"Ponorogo","district":"Badegan","urban":"Tanjung Gunung","postal_code":63455},{"province":"Jawa Timur","city":"Ponorogo","district":"Badegan","urban":"Karangjoho","postal_code":63455},{"province":"Jawa Timur","city":"Ponorogo","district":"Badegan","urban":"Karangan","postal_code":63455},{"province":"Jawa Timur","city":"Ponorogo","district":"Badegan","urban":"Dayakan","postal_code":63455},{"province":"Jawa Timur","city":"Ponorogo","district":"Badegan","urban":"Kapuran","postal_code":63455},{"province":"Jawa Timur","city":"Ponorogo","district":"Badegan","urban":"Biting","postal_code":63455},{"province":"Jawa Timur","city":"Ponorogo","district":"Badegan","urban":"Bandaralim","postal_code":63455},{"province":"Jawa Timur","city":"Ponorogo","district":"Badegan","urban":"Badegan","postal_code":63455}]