[{"province":"Jawa Timur","city":"Ponorogo","district":"Balong","urban":"Tatung","postal_code":63461},{"province":"Jawa Timur","city":"Ponorogo","district":"Balong","urban":"Singkil","postal_code":63461},{"province":"Jawa Timur","city":"Ponorogo","district":"Balong","urban":"Sumberejo","postal_code":63461},{"province":"Jawa Timur","city":"Ponorogo","district":"Balong","urban":"Pandak","postal_code":63461},{"province":"Jawa Timur","city":"Ponorogo","district":"Balong","urban":"Purworejo","postal_code":63461},{"province":"Jawa Timur","city":"Ponorogo","district":"Balong","urban":"Sedarat","postal_code":63461},{"province":"Jawa Timur","city":"Ponorogo","district":"Balong","urban":"Ngraket","postal_code":63461},{"province":"Jawa Timur","city":"Ponorogo","district":"Balong","urban":"Ngumpul","postal_code":63461},{"province":"Jawa Timur","city":"Ponorogo","district":"Balong","urban":"Ngampel","postal_code":63461},{"province":"Jawa Timur","city":"Ponorogo","district":"Balong","urban":"Ngendut","postal_code":63461},{"province":"Jawa Timur","city":"Ponorogo","district":"Balong","urban":"Karangpatihan","postal_code":63461},{"province":"Jawa Timur","city":"Ponorogo","district":"Balong","urban":"Muneng","postal_code":63461},{"province":"Jawa Timur","city":"Ponorogo","district":"Balong","urban":"Karangan","postal_code":63461},{"province":"Jawa Timur","city":"Ponorogo","district":"Balong","urban":"Karangmojo","postal_code":63461},{"province":"Jawa Timur","city":"Ponorogo","district":"Balong","urban":"Dadapan","postal_code":63461},{"province":"Jawa Timur","city":"Ponorogo","district":"Balong","urban":"Jalen","postal_code":63461},{"province":"Jawa Timur","city":"Ponorogo","district":"Balong","urban":"Bulak","postal_code":63461},{"province":"Jawa Timur","city":"Ponorogo","district":"Balong","urban":"Bulukidul","postal_code":63461},{"province":"Jawa Timur","city":"Ponorogo","district":"Balong","urban":"Balong","postal_code":63461},{"province":"Jawa Timur","city":"Ponorogo","district":"Balong","urban":"Bajang","postal_code":63461}]