[{"province":"Jawa Timur","city":"Ponorogo","district":"Pulung","urban":"Wayang","postal_code":63481},{"province":"Jawa Timur","city":"Ponorogo","district":"Pulung","urban":"Wotan","postal_code":63481},{"province":"Jawa Timur","city":"Ponorogo","district":"Pulung","urban":"Singgahan","postal_code":63481},{"province":"Jawa Timur","city":"Ponorogo","district":"Pulung","urban":"Tegalrejo","postal_code":63481},{"province":"Jawa Timur","city":"Ponorogo","district":"Pulung","urban":"Wagirkidul","postal_code":63481},{"province":"Jawa Timur","city":"Ponorogo","district":"Pulung","urban":"Sidoharjo","postal_code":63481},{"province":"Jawa Timur","city":"Ponorogo","district":"Pulung","urban":"Pulung Merdiko","postal_code":63481},{"province":"Jawa Timur","city":"Ponorogo","district":"Pulung","urban":"Serag","postal_code":63481},{"province":"Jawa Timur","city":"Ponorogo","district":"Pulung","urban":"Plunturan","postal_code":63481},{"province":"Jawa Timur","city":"Ponorogo","district":"Pulung","urban":"Pomahan","postal_code":63481},{"province":"Jawa Timur","city":"Ponorogo","district":"Pulung","urban":"Pulung","postal_code":63481},{"province":"Jawa Timur","city":"Ponorogo","district":"Pulung","urban":"Patik","postal_code":63481},{"province":"Jawa Timur","city":"Ponorogo","district":"Pulung","urban":"Munggung","postal_code":63481},{"province":"Jawa Timur","city":"Ponorogo","district":"Pulung","urban":"Karangpatihan","postal_code":63481},{"province":"Jawa Timur","city":"Ponorogo","district":"Pulung","urban":"Kesugihan","postal_code":63481},{"province":"Jawa Timur","city":"Ponorogo","district":"Pulung","urban":"Banaran","postal_code":63481},{"province":"Jawa Timur","city":"Ponorogo","district":"Pulung","urban":"Bedrug","postal_code":63481},{"province":"Jawa Timur","city":"Ponorogo","district":"Pulung","urban":"Bekiring","postal_code":63481}]