[{"province":"Jawa Timur","city":"Ponorogo","district":"Jenangan","urban":"Wates","postal_code":63492},{"province":"Jawa Timur","city":"Ponorogo","district":"Jenangan","urban":"Singosaren","postal_code":63492},{"province":"Jawa Timur","city":"Ponorogo","district":"Jenangan","urban":"Sraten","postal_code":63492},{"province":"Jawa Timur","city":"Ponorogo","district":"Jenangan","urban":"Tanjung Sari","postal_code":63492},{"province":"Jawa Timur","city":"Ponorogo","district":"Jenangan","urban":"Semanding","postal_code":63492},{"province":"Jawa Timur","city":"Ponorogo","district":"Jenangan","urban":"Setono","postal_code":63492},{"province":"Jawa Timur","city":"Ponorogo","district":"Jenangan","urban":"Plalangan","postal_code":63492},{"province":"Jawa Timur","city":"Ponorogo","district":"Jenangan","urban":"Panjeng","postal_code":63492},{"province":"Jawa Timur","city":"Ponorogo","district":"Jenangan","urban":"Sedah","postal_code":63492},{"province":"Jawa Timur","city":"Ponorogo","district":"Jenangan","urban":"Paringan","postal_code":63492},{"province":"Jawa Timur","city":"Ponorogo","district":"Jenangan","urban":"Pintu","postal_code":63492},{"province":"Jawa Timur","city":"Ponorogo","district":"Jenangan","urban":"Ngrupit","postal_code":63492},{"province":"Jawa Timur","city":"Ponorogo","district":"Jenangan","urban":"Mrican","postal_code":63492},{"province":"Jawa Timur","city":"Ponorogo","district":"Jenangan","urban":"Nglayang","postal_code":63492},{"province":"Jawa Timur","city":"Ponorogo","district":"Jenangan","urban":"Jimbe","postal_code":63492},{"province":"Jawa Timur","city":"Ponorogo","district":"Jenangan","urban":"Kemiri","postal_code":63492},{"province":"Jawa Timur","city":"Ponorogo","district":"Jenangan","urban":"Jenangan","postal_code":63492}]