[{"province":"Jawa Timur","city":"Ponorogo","district":"Babadan","urban":"Trisono","postal_code":63491},{"province":"Jawa Timur","city":"Ponorogo","district":"Babadan","urban":"Pondok","postal_code":63491},{"province":"Jawa Timur","city":"Ponorogo","district":"Babadan","urban":"Purwosari","postal_code":63491},{"province":"Jawa Timur","city":"Ponorogo","district":"Babadan","urban":"Sukosari","postal_code":63491},{"province":"Jawa Timur","city":"Ponorogo","district":"Babadan","urban":"Patihan Wetan","postal_code":63491},{"province":"Jawa Timur","city":"Ponorogo","district":"Babadan","urban":"Polorejo","postal_code":63491},{"province":"Jawa Timur","city":"Ponorogo","district":"Babadan","urban":"Lembah","postal_code":63491},{"province":"Jawa Timur","city":"Ponorogo","district":"Babadan","urban":"Ngunut","postal_code":63491},{"province":"Jawa Timur","city":"Ponorogo","district":"Babadan","urban":"Japan","postal_code":63491},{"province":"Jawa Timur","city":"Ponorogo","district":"Babadan","urban":"Kadipaten","postal_code":63491},{"province":"Jawa Timur","city":"Ponorogo","district":"Babadan","urban":"Kertosari","postal_code":63491},{"province":"Jawa Timur","city":"Ponorogo","district":"Babadan","urban":"Bareng","postal_code":63491},{"province":"Jawa Timur","city":"Ponorogo","district":"Babadan","urban":"Cekok","postal_code":63491},{"province":"Jawa Timur","city":"Ponorogo","district":"Babadan","urban":"Gupolo","postal_code":63491},{"province":"Jawa Timur","city":"Ponorogo","district":"Babadan","urban":"Babadan","postal_code":63491}]