[{"province":"Jawa Timur","city":"Pacitan","district":"Pringkuku","urban":"Watu Karung","postal_code":63552},{"province":"Jawa Timur","city":"Pacitan","district":"Pringkuku","urban":"Sugihwaras","postal_code":63552},{"province":"Jawa Timur","city":"Pacitan","district":"Pringkuku","urban":"Tamanasri","postal_code":63552},{"province":"Jawa Timur","city":"Pacitan","district":"Pringkuku","urban":"Pringkuku","postal_code":63552},{"province":"Jawa Timur","city":"Pacitan","district":"Pringkuku","urban":"Sobo","postal_code":63552},{"province":"Jawa Timur","city":"Pacitan","district":"Pringkuku","urban":"Pelem","postal_code":63552},{"province":"Jawa Timur","city":"Pacitan","district":"Pringkuku","urban":"Poko","postal_code":63552},{"province":"Jawa Timur","city":"Pacitan","district":"Pringkuku","urban":"Glinggangan","postal_code":63552},{"province":"Jawa Timur","city":"Pacitan","district":"Pringkuku","urban":"Jlubang","postal_code":63552},{"province":"Jawa Timur","city":"Pacitan","district":"Pringkuku","urban":"Ngadirejan","postal_code":63552},{"province":"Jawa Timur","city":"Pacitan","district":"Pringkuku","urban":"Dadapan","postal_code":63552},{"province":"Jawa Timur","city":"Pacitan","district":"Pringkuku","urban":"Dersono","postal_code":63552},{"province":"Jawa Timur","city":"Pacitan","district":"Pringkuku","urban":"Candi","postal_code":63552}]