[{"province":"Jawa Timur","city":"Pacitan","district":"Sudimoro","urban":"Sudimoro","postal_code":63573},{"province":"Jawa Timur","city":"Pacitan","district":"Sudimoro","urban":"Sukorejo","postal_code":63573},{"province":"Jawa Timur","city":"Pacitan","district":"Sudimoro","urban":"Sumberejo (Sumber Rejo)","postal_code":63573},{"province":"Jawa Timur","city":"Pacitan","district":"Sudimoro","urban":"Pager Lor","postal_code":63573},{"province":"Jawa Timur","city":"Pacitan","district":"Sudimoro","urban":"Sembowo","postal_code":63573},{"province":"Jawa Timur","city":"Pacitan","district":"Sudimoro","urban":"Klepu (Kelepu)","postal_code":63573},{"province":"Jawa Timur","city":"Pacitan","district":"Sudimoro","urban":"Pager Kidul","postal_code":63573},{"province":"Jawa Timur","city":"Pacitan","district":"Sudimoro","urban":"Karang Mulyo","postal_code":63573},{"province":"Jawa Timur","city":"Pacitan","district":"Sudimoro","urban":"Ketanggung","postal_code":63573},{"province":"Jawa Timur","city":"Pacitan","district":"Sudimoro","urban":"Gunung Rejo","postal_code":63573}]