[{"province":"Jawa Timur","city":"Pacitan","district":"Tegalombo","urban":"Tegalombo","postal_code":63582},{"province":"Jawa Timur","city":"Pacitan","district":"Tegalombo","urban":"Tahunan","postal_code":63582},{"province":"Jawa Timur","city":"Pacitan","district":"Tegalombo","urban":"Tahunan Baru","postal_code":63582},{"province":"Jawa Timur","city":"Pacitan","district":"Tegalombo","urban":"Pucangombo (Pucung Ombo)","postal_code":63582},{"province":"Jawa Timur","city":"Pacitan","district":"Tegalombo","urban":"Ploso","postal_code":63582},{"province":"Jawa Timur","city":"Pacitan","district":"Tegalombo","urban":"Ngreco (Ngereco)","postal_code":63582},{"province":"Jawa Timur","city":"Pacitan","district":"Tegalombo","urban":"Kemuning","postal_code":63582},{"province":"Jawa Timur","city":"Pacitan","district":"Tegalombo","urban":"Kebondalem","postal_code":63582},{"province":"Jawa Timur","city":"Pacitan","district":"Tegalombo","urban":"Kasihan","postal_code":63582},{"province":"Jawa Timur","city":"Pacitan","district":"Tegalombo","urban":"Gemaharjo","postal_code":63582},{"province":"Jawa Timur","city":"Pacitan","district":"Tegalombo","urban":"Gedangan","postal_code":63582}]