[{"province":"Jawa Timur","city":"Kediri","district":"Kunjang","urban":"Tenggerlor","postal_code":64156},{"province":"Jawa Timur","city":"Kediri","district":"Kunjang","urban":"Wonorejo","postal_code":64156},{"province":"Jawa Timur","city":"Kediri","district":"Kunjang","urban":"Kuwik","postal_code":64156},{"province":"Jawa Timur","city":"Kediri","district":"Kunjang","urban":"Pakis","postal_code":64156},{"province":"Jawa Timur","city":"Kediri","district":"Kunjang","urban":"Parelor","postal_code":64156},{"province":"Jawa Timur","city":"Kediri","district":"Ngancar","urban":"Kunjang","postal_code":64156},{"province":"Jawa Timur","city":"Kediri","district":"Kunjang","urban":"Kunjang","postal_code":64156},{"province":"Jawa Timur","city":"Kediri","district":"Kunjang","urban":"Kapas","postal_code":64156},{"province":"Jawa Timur","city":"Kediri","district":"Kunjang","urban":"Kapi","postal_code":64156},{"province":"Jawa Timur","city":"Kediri","district":"Kunjang","urban":"Klepek","postal_code":64156},{"province":"Jawa Timur","city":"Kediri","district":"Kunjang","urban":"Dungus","postal_code":64156},{"province":"Jawa Timur","city":"Kediri","district":"Kunjang","urban":"Juwet","postal_code":64156},{"province":"Jawa Timur","city":"Kediri","district":"Kunjang","urban":"Balongjeruk (Balung Jeruk)","postal_code":64156}]