[{"province":"Jawa Timur","city":"Kediri","district":"Tarokan","urban":"Tarokan","postal_code":64152},{"province":"Jawa Timur","city":"Kediri","district":"Tarokan","urban":"Kerep","postal_code":64152},{"province":"Jawa Timur","city":"Kediri","district":"Tarokan","urban":"Sumberduren","postal_code":64152},{"province":"Jawa Timur","city":"Kediri","district":"Tarokan","urban":"Kaliboto","postal_code":64152},{"province":"Jawa Timur","city":"Kediri","district":"Tarokan","urban":"Kalirong","postal_code":64152},{"province":"Jawa Timur","city":"Kediri","district":"Tarokan","urban":"Kedungsari","postal_code":64152},{"province":"Jawa Timur","city":"Kediri","district":"Tarokan","urban":"Cengkok","postal_code":64152},{"province":"Jawa Timur","city":"Kediri","district":"Tarokan","urban":"Jati","postal_code":64152},{"province":"Jawa Timur","city":"Kediri","district":"Tarokan","urban":"Blimbing","postal_code":64152},{"province":"Jawa Timur","city":"Kediri","district":"Tarokan","urban":"Bulusari","postal_code":64152}]