[{"province":"Jawa Timur","city":"Kediri","district":"Semen","urban":"Semen","postal_code":64161},{"province":"Jawa Timur","city":"Kediri","district":"Semen","urban":"Sidomulyo","postal_code":64161},{"province":"Jawa Timur","city":"Kediri","district":"Semen","urban":"Titik","postal_code":64161},{"province":"Jawa Timur","city":"Kediri","district":"Semen","urban":"Puhrubuh","postal_code":64161},{"province":"Jawa Timur","city":"Kediri","district":"Semen","urban":"Puhsarang","postal_code":64161},{"province":"Jawa Timur","city":"Kediri","district":"Semen","urban":"Selopanggung","postal_code":64161},{"province":"Jawa Timur","city":"Kediri","district":"Semen","urban":"Kanyoran","postal_code":64161},{"province":"Jawa Timur","city":"Kediri","district":"Semen","urban":"Kedak","postal_code":64161},{"province":"Jawa Timur","city":"Kediri","district":"Semen","urban":"Pagung","postal_code":64161},{"province":"Jawa Timur","city":"Kediri","district":"Semen","urban":"Joho","postal_code":64161},{"province":"Jawa Timur","city":"Kediri","district":"Semen","urban":"Bulu","postal_code":64161},{"province":"Jawa Timur","city":"Kediri","district":"Semen","urban":"Bobang","postal_code":64161}]