[{"province":"Jawa Timur","city":"Kediri","district":"Ringinrejo","urban":"Selodono","postal_code":64176},{"province":"Jawa Timur","city":"Kediri","district":"Ringinrejo","urban":"Srikaton","postal_code":64176},{"province":"Jawa Timur","city":"Kediri","district":"Ringinrejo","urban":"Susuhbango","postal_code":64176},{"province":"Jawa Timur","city":"Kediri","district":"Ringinrejo","urban":"Sambi","postal_code":64176},{"province":"Jawa Timur","city":"Kediri","district":"Ringinrejo","urban":"Nambaan","postal_code":64176},{"province":"Jawa Timur","city":"Kediri","district":"Ringinrejo","urban":"Purwodadi","postal_code":64176},{"province":"Jawa Timur","city":"Kediri","district":"Ringinrejo","urban":"Ringinrejo","postal_code":64176},{"province":"Jawa Timur","city":"Kediri","district":"Ringinrejo","urban":"Deyeng","postal_code":64176},{"province":"Jawa Timur","city":"Kediri","district":"Ringinrejo","urban":"Jemekan","postal_code":64176},{"province":"Jawa Timur","city":"Kediri","district":"Ringinrejo","urban":"Batuaji","postal_code":64176},{"province":"Jawa Timur","city":"Kediri","district":"Ringinrejo","urban":"Dawung","postal_code":64176}]