[{"province":"Jawa Timur","city":"Kediri","district":"Pagu","urban":"Wates","postal_code":64183},{"province":"Jawa Timur","city":"Kediri","district":"Pagu","urban":"Wonosari","postal_code":64183},{"province":"Jawa Timur","city":"Kediri","district":"Pagu","urban":"Tengger Kidul","postal_code":64183},{"province":"Jawa Timur","city":"Kediri","district":"Pagu","urban":"Sitimert0","postal_code":64183},{"province":"Jawa Timur","city":"Kediri","district":"Pagu","urban":"Tanjung","postal_code":64183},{"province":"Jawa Timur","city":"Kediri","district":"Kayen Kidul","urban":"Sukoharjo","postal_code":64183},{"province":"Jawa Timur","city":"Kediri","district":"Kayen Kidul","urban":"Senden","postal_code":64183},{"province":"Jawa Timur","city":"Kediri","district":"Pagu","urban":"Semanding","postal_code":64183},{"province":"Jawa Timur","city":"Kediri","district":"Pagu","urban":"Semen","postal_code":64183},{"province":"Jawa Timur","city":"Kediri","district":"Kayen Kidul","urban":"Sambirobyong","postal_code":64183},{"province":"Jawa Timur","city":"Kediri","district":"Kayen Kidul","urban":"Sekaran","postal_code":64183},{"province":"Jawa Timur","city":"Kediri","district":"Kayen Kidul","urban":"Semambung","postal_code":64183},{"province":"Jawa Timur","city":"Kediri","district":"Pagu","urban":"Pagu","postal_code":64183},{"province":"Jawa Timur","city":"Kediri","district":"Kayen Kidul","urban":"Padangan","postal_code":64183},{"province":"Jawa Timur","city":"Kediri","district":"Kayen Kidul","urban":"Mukuh","postal_code":64183},{"province":"Jawa Timur","city":"Kediri","district":"Kayen Kidul","urban":"Nanggungan","postal_code":64183},{"province":"Jawa Timur","city":"Kediri","district":"Pagu","urban":"Kambingan","postal_code":64183},{"province":"Jawa Timur","city":"Kediri","district":"Pagu","urban":"Menang","postal_code":64183},{"province":"Jawa Timur","city":"Kediri","district":"Kayen Kidul","urban":"Kayen Kidul","postal_code":64183},{"province":"Jawa Timur","city":"Kediri","district":"Pagu","urban":"Jagung","postal_code":64183},{"province":"Jawa Timur","city":"Kediri","district":"Kayen Kidul","urban":"Jambu","postal_code":64183},{"province":"Jawa Timur","city":"Kediri","district":"Pagu","urban":"Bendo","postal_code":64183},{"province":"Jawa Timur","city":"Kediri","district":"Pagu","urban":"Bulupasar","postal_code":64183},{"province":"Jawa Timur","city":"Kediri","district":"Kayen Kidul","urban":"Bangsongan","postal_code":64183},{"province":"Jawa Timur","city":"Kediri","district":"Kayen Kidul","urban":"Baye","postal_code":64183}]