[{"province":"Jawa Timur","city":"Kediri","district":"Kepung","urban":"Siman","postal_code":64293},{"province":"Jawa Timur","city":"Kediri","district":"Kepung","urban":"Krenceng","postal_code":64293},{"province":"Jawa Timur","city":"Kediri","district":"Kepung","urban":"Kencong","postal_code":64293},{"province":"Jawa Timur","city":"Kediri","district":"Kepung","urban":"Kepung","postal_code":64293},{"province":"Jawa Timur","city":"Kediri","district":"Kepung","urban":"Keling","postal_code":64293},{"province":"Jawa Timur","city":"Kediri","district":"Kepung","urban":"Kebonrejo","postal_code":64293},{"province":"Jawa Timur","city":"Kediri","district":"Kepung","urban":"Kampungbaru","postal_code":64293},{"province":"Jawa Timur","city":"Kediri","district":"Kepung","urban":"Damarwulan","postal_code":64293},{"province":"Jawa Timur","city":"Kediri","district":"Kepung","urban":"Brumbung","postal_code":64293},{"province":"Jawa Timur","city":"Kediri","district":"Kepung","urban":"Besowo","postal_code":64293}]