[{"province":"Jawa Timur","city":"Kediri","district":"Kandangan","urban":"Mlancu","postal_code":64294},{"province":"Jawa Timur","city":"Kediri","district":"Kandangan","urban":"Medowo","postal_code":64294},{"province":"Jawa Timur","city":"Kediri","district":"Kandangan","urban":"Klampisan","postal_code":64294},{"province":"Jawa Timur","city":"Kediri","district":"Kandangan","urban":"Kemiri","postal_code":64294},{"province":"Jawa Timur","city":"Kediri","district":"Kandangan","urban":"Kasreman","postal_code":64294},{"province":"Jawa Timur","city":"Kediri","district":"Kandangan","urban":"Karangtengah","postal_code":64294},{"province":"Jawa Timur","city":"Kediri","district":"Kandangan","urban":"Jlumbang","postal_code":64294},{"province":"Jawa Timur","city":"Kediri","district":"Kandangan","urban":"Kandangan","postal_code":64294},{"province":"Jawa Timur","city":"Kediri","district":"Kandangan","urban":"Jerukwangi","postal_code":64294},{"province":"Jawa Timur","city":"Kediri","district":"Kandangan","urban":"Jerukgulung","postal_code":64294},{"province":"Jawa Timur","city":"Kediri","district":"Kandangan","urban":"Bukur","postal_code":64294},{"province":"Jawa Timur","city":"Kediri","district":"Kandangan","urban":"Banaran","postal_code":64294}]