[{"province":"Jawa Timur","city":"Nganjuk","district":"Kertosono","urban":"Tembarak","postal_code":64315},{"province":"Jawa Timur","city":"Nganjuk","district":"Kertosono","urban":"Nglawak","postal_code":64315},{"province":"Jawa Timur","city":"Nganjuk","district":"Kertosono","urban":"Pandan Toyo","postal_code":64315},{"province":"Jawa Timur","city":"Nganjuk","district":"Kertosono","urban":"Tanjung","postal_code":64315},{"province":"Jawa Timur","city":"Nganjuk","district":"Kertosono","urban":"Lambang Kuning","postal_code":64315},{"province":"Jawa Timur","city":"Nganjuk","district":"Kertosono","urban":"Juwono","postal_code":64315},{"province":"Jawa Timur","city":"Nganjuk","district":"Kertosono","urban":"Kalianyar","postal_code":64315},{"province":"Jawa Timur","city":"Nganjuk","district":"Kertosono","urban":"Kepuh","postal_code":64315},{"province":"Jawa Timur","city":"Nganjuk","district":"Kertosono","urban":"Drenges","postal_code":64315},{"province":"Jawa Timur","city":"Nganjuk","district":"Kertosono","urban":"Bangsri","postal_code":64315}]