[{"province":"Jawa Timur","city":"Nganjuk","district":"Patianrowo","urban":"Rowomarto","postal_code":64391},{"province":"Jawa Timur","city":"Nganjuk","district":"Patianrowo","urban":"Tirtobinangun","postal_code":64391},{"province":"Jawa Timur","city":"Nganjuk","district":"Patianrowo","urban":"Pecuk","postal_code":64391},{"province":"Jawa Timur","city":"Nganjuk","district":"Patianrowo","urban":"Pisang","postal_code":64391},{"province":"Jawa Timur","city":"Nganjuk","district":"Patianrowo","urban":"Ngrombot","postal_code":64391},{"province":"Jawa Timur","city":"Nganjuk","district":"Patianrowo","urban":"Pakuncen","postal_code":64391},{"province":"Jawa Timur","city":"Nganjuk","district":"Patianrowo","urban":"Patianrowo","postal_code":64391},{"province":"Jawa Timur","city":"Nganjuk","district":"Patianrowo","urban":"Lestari","postal_code":64391},{"province":"Jawa Timur","city":"Nganjuk","district":"Patianrowo","urban":"Ngepung","postal_code":64391},{"province":"Jawa Timur","city":"Nganjuk","district":"Patianrowo","urban":"Babadan","postal_code":64391},{"province":"Jawa Timur","city":"Nganjuk","district":"Patianrowo","urban":"Bukur","postal_code":64391}]