[{"province":"Jawa Timur","city":"Nganjuk","district":"Gondang","urban":"Sumber Agung","postal_code":64451},{"province":"Jawa Timur","city":"Nganjuk","district":"Gondang","urban":"Sumberjo","postal_code":64451},{"province":"Jawa Timur","city":"Nganjuk","district":"Gondang","urban":"Senggowar","postal_code":64451},{"province":"Jawa Timur","city":"Nganjuk","district":"Gondang","urban":"Senjayan","postal_code":64451},{"province":"Jawa Timur","city":"Nganjuk","district":"Gondang","urban":"Ngujung","postal_code":64451},{"province":"Jawa Timur","city":"Nganjuk","district":"Gondang","urban":"Pandean","postal_code":64451},{"province":"Jawa Timur","city":"Nganjuk","district":"Gondang","urban":"Sanggrahan","postal_code":64451},{"province":"Jawa Timur","city":"Nganjuk","district":"Gondang","urban":"Mojoseto","postal_code":64451},{"province":"Jawa Timur","city":"Nganjuk","district":"Gondang","urban":"Nglinggo","postal_code":64451},{"province":"Jawa Timur","city":"Nganjuk","district":"Gondang","urban":"Kedung Glugu","postal_code":64451},{"province":"Jawa Timur","city":"Nganjuk","district":"Gondang","urban":"Ketawang","postal_code":64451},{"province":"Jawa Timur","city":"Nganjuk","district":"Gondang","urban":"Losari","postal_code":64451},{"province":"Jawa Timur","city":"Nganjuk","district":"Gondang","urban":"Karangsemi","postal_code":64451},{"province":"Jawa Timur","city":"Nganjuk","district":"Gondang","urban":"Jaan","postal_code":64451},{"province":"Jawa Timur","city":"Nganjuk","district":"Pace","urban":"Gondang","postal_code":64451},{"province":"Jawa Timur","city":"Nganjuk","district":"Gondang","urban":"Gondang Kulon","postal_code":64451},{"province":"Jawa Timur","city":"Nganjuk","district":"Gondang","urban":"Balong Gebang","postal_code":64451},{"province":"Jawa Timur","city":"Nganjuk","district":"Gondang","urban":"Campur","postal_code":64451}]