[{"province":"Jawa Timur","city":"Malang","district":"Wagir","urban":"Sumbersuko","postal_code":65158},{"province":"Jawa Timur","city":"Malang","district":"Wagir","urban":"Sidorahayu","postal_code":65158},{"province":"Jawa Timur","city":"Malang","district":"Wagir","urban":"Sitirejo","postal_code":65158},{"province":"Jawa Timur","city":"Malang","district":"Wagir","urban":"Sukodadi","postal_code":65158},{"province":"Jawa Timur","city":"Malang","district":"Wagir","urban":"Parangargo","postal_code":65158},{"province":"Jawa Timur","city":"Malang","district":"Wagir","urban":"Petungsewu","postal_code":65158},{"province":"Jawa Timur","city":"Malang","district":"Wagir","urban":"Pandanlandung","postal_code":65158},{"province":"Jawa Timur","city":"Malang","district":"Wagir","urban":"Pandanrejo","postal_code":65158},{"province":"Jawa Timur","city":"Malang","district":"Wagir","urban":"Jedong","postal_code":65158},{"province":"Jawa Timur","city":"Malang","district":"Wagir","urban":"Mendalanwangi","postal_code":65158},{"province":"Jawa Timur","city":"Malang","district":"Wagir","urban":"Dalisodo","postal_code":65158},{"province":"Jawa Timur","city":"Malang","district":"Wagir","urban":"Gondowangi","postal_code":65158}]