[{"province":"Jawa Timur","city":"Malang","district":"Jabung","urban":"Taji","postal_code":65155},{"province":"Jawa Timur","city":"Malang","district":"Jabung","urban":"Sukopuro","postal_code":65155},{"province":"Jawa Timur","city":"Malang","district":"Jabung","urban":"Sukolilo","postal_code":65155},{"province":"Jawa Timur","city":"Malang","district":"Jabung","urban":"Slamparejo","postal_code":65155},{"province":"Jawa Timur","city":"Malang","district":"Jabung","urban":"Sidorejo","postal_code":65155},{"province":"Jawa Timur","city":"Malang","district":"Jabung","urban":"Sidomulyo","postal_code":65155},{"province":"Jawa Timur","city":"Malang","district":"Jabung","urban":"Pandansari Lor","postal_code":65155},{"province":"Jawa Timur","city":"Malang","district":"Jabung","urban":"Ngadirejo","postal_code":65155},{"province":"Jawa Timur","city":"Malang","district":"Jabung","urban":"Kenongo","postal_code":65155},{"province":"Jawa Timur","city":"Malang","district":"Jabung","urban":"Kemiri","postal_code":65155},{"province":"Jawa Timur","city":"Malang","district":"Jabung","urban":"Kemantren","postal_code":65155},{"province":"Jawa Timur","city":"Malang","district":"Jabung","urban":"Jabung","postal_code":65155},{"province":"Jawa Timur","city":"Malang","district":"Jabung","urban":"Gunung Jati","postal_code":65155},{"province":"Jawa Timur","city":"Malang","district":"Jabung","urban":"Gading Kembar","postal_code":65155},{"province":"Jawa Timur","city":"Malang","district":"Jabung","urban":"Argosari","postal_code":65155}]