[{"province":"Jawa Timur","city":"Malang","district":"Donomulyo","urban":"Tulungrejo","postal_code":65167},{"province":"Jawa Timur","city":"Malang","district":"Donomulyo","urban":"Tempursari","postal_code":65167},{"province":"Jawa Timur","city":"Malang","district":"Donomulyo","urban":"Tlogosari","postal_code":65167},{"province":"Jawa Timur","city":"Malang","district":"Donomulyo","urban":"Purwodadi","postal_code":65167},{"province":"Jawa Timur","city":"Malang","district":"Donomulyo","urban":"Purworejo","postal_code":65167},{"province":"Jawa Timur","city":"Malang","district":"Donomulyo","urban":"Sumberoto","postal_code":65167},{"province":"Jawa Timur","city":"Malang","district":"Donomulyo","urban":"Donomulyo","postal_code":65167},{"province":"Jawa Timur","city":"Malang","district":"Donomulyo","urban":"Kedungsalam","postal_code":65167},{"province":"Jawa Timur","city":"Malang","district":"Donomulyo","urban":"Mentaraman","postal_code":65167},{"province":"Jawa Timur","city":"Malang","district":"Donomulyo","urban":"Banjarjo","postal_code":65167}]