[{"province":"Jawa Timur","city":"Malang","district":"Sumberpucung","urban":"Ternyang","postal_code":65165},{"province":"Jawa Timur","city":"Malang","district":"Sumberpucung","urban":"Senggreng","postal_code":65165},{"province":"Jawa Timur","city":"Malang","district":"Sumberpucung","urban":"Sumberpucung","postal_code":65165},{"province":"Jawa Timur","city":"Malang","district":"Kromengan","urban":"Slorok","postal_code":65165},{"province":"Jawa Timur","city":"Malang","district":"Sumberpucung","urban":"Sambigede","postal_code":65165},{"province":"Jawa Timur","city":"Malang","district":"Kromengan","urban":"Peniwen","postal_code":65165},{"province":"Jawa Timur","city":"Malang","district":"Sumberpucung","urban":"Ngebruk","postal_code":65165},{"province":"Jawa Timur","city":"Malang","district":"Kromengan","urban":"Ngadirejo","postal_code":65165},{"province":"Jawa Timur","city":"Malang","district":"Kromengan","urban":"Karangrejo","postal_code":65165},{"province":"Jawa Timur","city":"Malang","district":"Kromengan","urban":"Kromengan","postal_code":65165},{"province":"Jawa Timur","city":"Malang","district":"Kromengan","urban":"Jatikerto","postal_code":65165},{"province":"Jawa Timur","city":"Malang","district":"Sumberpucung","urban":"Jatiguwi","postal_code":65165},{"province":"Jawa Timur","city":"Malang","district":"Sumberpucung","urban":"Karangkates","postal_code":65165},{"province":"Jawa Timur","city":"Malang","district":"Kromengan","urban":"Jambuwer","postal_code":65165}]