[{"province":"Jawa Timur","city":"Malang","district":"Pakisaji","urban":"Wonokerso","postal_code":65162},{"province":"Jawa Timur","city":"Malang","district":"Pakisaji","urban":"Wadung","postal_code":65162},{"province":"Jawa Timur","city":"Malang","district":"Pakisaji","urban":"Permanu","postal_code":65162},{"province":"Jawa Timur","city":"Malang","district":"Pakisaji","urban":"Sutojayan","postal_code":65162},{"province":"Jawa Timur","city":"Malang","district":"Pakisaji","urban":"Pakisaji","postal_code":65162},{"province":"Jawa Timur","city":"Malang","district":"Pakisaji","urban":"Kendalpayak","postal_code":65162},{"province":"Jawa Timur","city":"Malang","district":"Pakisaji","urban":"Karangduren","postal_code":65162},{"province":"Jawa Timur","city":"Malang","district":"Pakisaji","urban":"Karangpandan","postal_code":65162},{"province":"Jawa Timur","city":"Malang","district":"Pakisaji","urban":"Kebonagung","postal_code":65162},{"province":"Jawa Timur","city":"Malang","district":"Pakisaji","urban":"Glanggang","postal_code":65162},{"province":"Jawa Timur","city":"Malang","district":"Pakisaji","urban":"Jatisari","postal_code":65162},{"province":"Jawa Timur","city":"Malang","district":"Pakisaji","urban":"Genengan","postal_code":65162}]