[{"province":"Jawa Timur","city":"Malang","district":"Wonosari","urban":"Sumberdem","postal_code":65164},{"province":"Jawa Timur","city":"Malang","district":"Wonosari","urban":"Wonosari","postal_code":65164},{"province":"Jawa Timur","city":"Malang","district":"Wonosari","urban":"Sumber Tempur","postal_code":65164},{"province":"Jawa Timur","city":"Malang","district":"Wonosari","urban":"Plandi","postal_code":65164},{"province":"Jawa Timur","city":"Malang","district":"Wonosari","urban":"Plaosan","postal_code":65164},{"province":"Jawa Timur","city":"Malang","district":"Ngajung (Ngajum)","urban":"Ngasem","postal_code":65164},{"province":"Jawa Timur","city":"Malang","district":"Ngajung (Ngajum)","urban":"Palaan","postal_code":65164},{"province":"Jawa Timur","city":"Malang","district":"Ngajung (Ngajum)","urban":"Kranggan","postal_code":65164},{"province":"Jawa Timur","city":"Malang","district":"Ngajung (Ngajum)","urban":"Maguan","postal_code":65164},{"province":"Jawa Timur","city":"Malang","district":"Ngajung (Ngajum)","urban":"Ngajum","postal_code":65164},{"province":"Jawa Timur","city":"Malang","district":"Ngajung (Ngajum)","urban":"Kesamben","postal_code":65164},{"province":"Jawa Timur","city":"Malang","district":"Wonosari","urban":"Kebobang","postal_code":65164},{"province":"Jawa Timur","city":"Malang","district":"Wonosari","urban":"Kluwut","postal_code":65164},{"province":"Jawa Timur","city":"Malang","district":"Ngajung (Ngajum)","urban":"Banjarsari","postal_code":65164},{"province":"Jawa Timur","city":"Malang","district":"Wonosari","urban":"Bangelan","postal_code":65164},{"province":"Jawa Timur","city":"Malang","district":"Ngajung (Ngajum)","urban":"Babadan","postal_code":65164},{"province":"Jawa Timur","city":"Malang","district":"Ngajung (Ngajum)","urban":"Balesari","postal_code":65164}]