[{"province":"Jawa Timur","city":"Malang","district":"Bululawang","urban":"Wandanpuro","postal_code":65171},{"province":"Jawa Timur","city":"Malang","district":"Bululawang","urban":"Sudimoro","postal_code":65171},{"province":"Jawa Timur","city":"Malang","district":"Bululawang","urban":"Sukonolo","postal_code":65171},{"province":"Jawa Timur","city":"Malang","district":"Bululawang","urban":"Lumbangsari","postal_code":65171},{"province":"Jawa Timur","city":"Malang","district":"Bululawang","urban":"Pringu","postal_code":65171},{"province":"Jawa Timur","city":"Malang","district":"Bululawang","urban":"Sempalwadak","postal_code":65171},{"province":"Jawa Timur","city":"Malang","district":"Bululawang","urban":"Krebet Senggrong","postal_code":65171},{"province":"Jawa Timur","city":"Malang","district":"Bululawang","urban":"Kuwolu","postal_code":65171},{"province":"Jawa Timur","city":"Malang","district":"Bululawang","urban":"Kasembon","postal_code":65171},{"province":"Jawa Timur","city":"Malang","district":"Bululawang","urban":"Kasri","postal_code":65171},{"province":"Jawa Timur","city":"Malang","district":"Bululawang","urban":"Krebet","postal_code":65171},{"province":"Jawa Timur","city":"Malang","district":"Bululawang","urban":"Bululawang","postal_code":65171},{"province":"Jawa Timur","city":"Malang","district":"Bululawang","urban":"Gading","postal_code":65171},{"province":"Jawa Timur","city":"Malang","district":"Bululawang","urban":"Bakalan","postal_code":65171}]