[{"province":"Jawa Timur","city":"Malang","district":"Bantur","urban":"Wonorejo","postal_code":65179},{"province":"Jawa Timur","city":"Malang","district":"Bantur","urban":"Sumberbening","postal_code":65179},{"province":"Jawa Timur","city":"Malang","district":"Bantur","urban":"Wonokerto","postal_code":65179},{"province":"Jawa Timur","city":"Malang","district":"Bantur","urban":"Rejoyoso","postal_code":65179},{"province":"Jawa Timur","city":"Malang","district":"Bantur","urban":"Srigonco","postal_code":65179},{"province":"Jawa Timur","city":"Malang","district":"Bantur","urban":"Pringgodani","postal_code":65179},{"province":"Jawa Timur","city":"Malang","district":"Bantur","urban":"Rejosari","postal_code":65179},{"province":"Jawa Timur","city":"Malang","district":"Bantur","urban":"Bantur","postal_code":65179},{"province":"Jawa Timur","city":"Malang","district":"Bantur","urban":"Karangsari","postal_code":65179},{"province":"Jawa Timur","city":"Malang","district":"Bantur","urban":"Bandungrejo","postal_code":65179}]