[{"province":"Jawa Timur","city":"Malang","district":"Sumbermanjing Wetan","urban":"Tambak Asri","postal_code":65176},{"province":"Jawa Timur","city":"Malang","district":"Sumbermanjing Wetan","urban":"Tambakrejo","postal_code":65176},{"province":"Jawa Timur","city":"Malang","district":"Sumbermanjing Wetan","urban":"Tegalrejo","postal_code":65176},{"province":"Jawa Timur","city":"Malang","district":"Sumbermanjing Wetan","urban":"Sumberagung","postal_code":65176},{"province":"Jawa Timur","city":"Malang","district":"Sumbermanjing Wetan","urban":"Sumbermanjing Wetan","postal_code":65176},{"province":"Jawa Timur","city":"Malang","district":"Sumbermanjing Wetan","urban":"Sekarbanyu","postal_code":65176},{"province":"Jawa Timur","city":"Malang","district":"Sumbermanjing Wetan","urban":"Sidoasri","postal_code":65176},{"province":"Jawa Timur","city":"Malang","district":"Sumbermanjing Wetan","urban":"Sitiarjo","postal_code":65176},{"province":"Jawa Timur","city":"Malang","district":"Sumbermanjing Wetan","urban":"Ringinkembar","postal_code":65176},{"province":"Jawa Timur","city":"Malang","district":"Sumbermanjing Wetan","urban":"Ringinsari","postal_code":65176},{"province":"Jawa Timur","city":"Malang","district":"Sumbermanjing Wetan","urban":"Kedungbanteng","postal_code":65176},{"province":"Jawa Timur","city":"Malang","district":"Sumbermanjing Wetan","urban":"Klepu","postal_code":65176},{"province":"Jawa Timur","city":"Malang","district":"Sumbermanjing Wetan","urban":"Druju","postal_code":65176},{"province":"Jawa Timur","city":"Malang","district":"Sumbermanjing Wetan","urban":"Harjokuncaran","postal_code":65176},{"province":"Jawa Timur","city":"Malang","district":"Sumbermanjing Wetan","urban":"Argotirto","postal_code":65176}]