[{"province":"Jawa Timur","city":"Malang","district":"Tajinan","urban":"Tangkilsari","postal_code":65172},{"province":"Jawa Timur","city":"Malang","district":"Tajinan","urban":"Tajinan","postal_code":65172},{"province":"Jawa Timur","city":"Malang","district":"Tajinan","urban":"Tambakasri","postal_code":65172},{"province":"Jawa Timur","city":"Malang","district":"Tajinan","urban":"Randugading","postal_code":65172},{"province":"Jawa Timur","city":"Malang","district":"Tajinan","urban":"Sumbersuko","postal_code":65172},{"province":"Jawa Timur","city":"Malang","district":"Tajinan","urban":"Pandanmulyo","postal_code":65172},{"province":"Jawa Timur","city":"Malang","district":"Tajinan","urban":"Purwosekar","postal_code":65172},{"province":"Jawa Timur","city":"Malang","district":"Tajinan","urban":"Jatisari","postal_code":65172},{"province":"Jawa Timur","city":"Malang","district":"Tajinan","urban":"Ngawonggo","postal_code":65172},{"province":"Jawa Timur","city":"Malang","district":"Tajinan","urban":"Gunungsari","postal_code":65172},{"province":"Jawa Timur","city":"Malang","district":"Tajinan","urban":"Jambearjo","postal_code":65172},{"province":"Jawa Timur","city":"Malang","district":"Tajinan","urban":"Gunungronggo","postal_code":65172}]