[{"province":"Jawa Timur","city":"Malang","district":"Ampelgading","urban":"Tirtomoyo","postal_code":65183},{"province":"Jawa Timur","city":"Malang","district":"Ampelgading","urban":"Wirotaman","postal_code":65183},{"province":"Jawa Timur","city":"Malang","district":"Ampelgading","urban":"Tawangagung","postal_code":65183},{"province":"Jawa Timur","city":"Malang","district":"Ampelgading","urban":"Tirtomarto","postal_code":65183},{"province":"Jawa Timur","city":"Malang","district":"Ampelgading","urban":"Sonowangi","postal_code":65183},{"province":"Jawa Timur","city":"Malang","district":"Ampelgading","urban":"Tamanasri","postal_code":65183},{"province":"Jawa Timur","city":"Malang","district":"Ampelgading","urban":"Tamansari","postal_code":65183},{"province":"Jawa Timur","city":"Malang","district":"Ampelgading","urban":"Sidorenggo","postal_code":65183},{"province":"Jawa Timur","city":"Malang","district":"Ampelgading","urban":"Simojayan","postal_code":65183},{"province":"Jawa Timur","city":"Malang","district":"Ampelgading","urban":"Mulyoasri","postal_code":65183},{"province":"Jawa Timur","city":"Malang","district":"Ampelgading","urban":"Purwoharjo","postal_code":65183},{"province":"Jawa Timur","city":"Malang","district":"Ampelgading","urban":"Lebakharjo","postal_code":65183},{"province":"Jawa Timur","city":"Malang","district":"Ampelgading","urban":"Argoyuwono","postal_code":65183},{"province":"Jawa Timur","city":"Malang","district":"Tirtoyudo","urban":"Ampelgading","postal_code":65183}]