[{"province":"Jawa Timur","city":"Blitar","district":"Ponggok","urban":"Sidorejo","postal_code":66153},{"province":"Jawa Timur","city":"Blitar","district":"Ponggok","urban":"Ponggok","postal_code":66153},{"province":"Jawa Timur","city":"Blitar","district":"Ponggok","urban":"Ringinanyar","postal_code":66153},{"province":"Jawa Timur","city":"Blitar","district":"Ponggok","urban":"Pojok","postal_code":66153},{"province":"Jawa Timur","city":"Blitar","district":"Ponggok","urban":"Maliran","postal_code":66153},{"province":"Jawa Timur","city":"Blitar","district":"Ponggok","urban":"Langon","postal_code":66153},{"province":"Jawa Timur","city":"Blitar","district":"Ponggok","urban":"Kebonduren","postal_code":66153},{"province":"Jawa Timur","city":"Blitar","district":"Ponggok","urban":"Karangbendo","postal_code":66153},{"province":"Jawa Timur","city":"Blitar","district":"Ponggok","urban":"Kawedusan","postal_code":66153},{"province":"Jawa Timur","city":"Blitar","district":"Ponggok","urban":"Jatilengger","postal_code":66153},{"province":"Jawa Timur","city":"Blitar","district":"Ponggok","urban":"Gembongan","postal_code":66153},{"province":"Jawa Timur","city":"Blitar","district":"Ponggok","urban":"Dadaplangu","postal_code":66153},{"province":"Jawa Timur","city":"Blitar","district":"Ponggok","urban":"Candirejo","postal_code":66153},{"province":"Jawa Timur","city":"Blitar","district":"Ponggok","urban":"Bendo","postal_code":66153},{"province":"Jawa Timur","city":"Blitar","district":"Ponggok","urban":"Bacem","postal_code":66153}]