[{"province":"Jawa Timur","city":"Blitar","district":"Srengat","urban":"Wonorejo","postal_code":66152},{"province":"Jawa Timur","city":"Blitar","district":"Srengat","urban":"Togogan","postal_code":66152},{"province":"Jawa Timur","city":"Blitar","district":"Srengat","urban":"Srengat","postal_code":66152},{"province":"Jawa Timur","city":"Blitar","district":"Srengat","urban":"Selokajang","postal_code":66152},{"province":"Jawa Timur","city":"Blitar","district":"Srengat","urban":"Purwokerto","postal_code":66152},{"province":"Jawa Timur","city":"Blitar","district":"Srengat","urban":"Pakisrejo","postal_code":66152},{"province":"Jawa Timur","city":"Blitar","district":"Srengat","urban":"Ngaglik","postal_code":66152},{"province":"Jawa Timur","city":"Blitar","district":"Srengat","urban":"Maron","postal_code":66152},{"province":"Jawa Timur","city":"Blitar","district":"Srengat","urban":"Kerjen","postal_code":66152},{"province":"Jawa Timur","city":"Blitar","district":"Srengat","urban":"Kauman","postal_code":66152},{"province":"Jawa Timur","city":"Blitar","district":"Srengat","urban":"Kendalrejo","postal_code":66152},{"province":"Jawa Timur","city":"Blitar","district":"Srengat","urban":"Karanggayam","postal_code":66152},{"province":"Jawa Timur","city":"Blitar","district":"Srengat","urban":"Kandangan","postal_code":66152},{"province":"Jawa Timur","city":"Blitar","district":"Srengat","urban":"Dermojayan","postal_code":66152},{"province":"Jawa Timur","city":"Blitar","district":"Srengat","urban":"Dandong","postal_code":66152},{"province":"Jawa Timur","city":"Blitar","district":"Srengat","urban":"Bagelenan","postal_code":66152}]