[{"province":"Jawa Timur","city":"Blitar","district":"Sutojayan","urban":"Sumberjo","postal_code":66172},{"province":"Jawa Timur","city":"Blitar","district":"Sutojayan","urban":"Sotojayan (Sutojayan)","postal_code":66172},{"province":"Jawa Timur","city":"Blitar","district":"Sutojayan","urban":"Sukorejo","postal_code":66172},{"province":"Jawa Timur","city":"Blitar","district":"Sutojayan","urban":"Kedung Bunder","postal_code":66172},{"province":"Jawa Timur","city":"Blitar","district":"Sutojayan","urban":"Kembangarum","postal_code":66172},{"province":"Jawa Timur","city":"Blitar","district":"Sutojayan","urban":"Pandanarum","postal_code":66172},{"province":"Jawa Timur","city":"Blitar","district":"Sutojayan","urban":"Kalipang","postal_code":66172},{"province":"Jawa Timur","city":"Blitar","district":"Sutojayan","urban":"Kaulon","postal_code":66172},{"province":"Jawa Timur","city":"Blitar","district":"Sutojayan","urban":"Bacem","postal_code":66172},{"province":"Jawa Timur","city":"Blitar","district":"Sutojayan","urban":"Jegu","postal_code":66172},{"province":"Jawa Timur","city":"Blitar","district":"Sutojayan","urban":"Jingglong","postal_code":66172}]