[{"province":"Jawa Timur","city":"Blitar","district":"Wlingi","urban":"Wlingi","postal_code":66184},{"province":"Jawa Timur","city":"Blitar","district":"Wlingi","urban":"Tegalasri","postal_code":66184},{"province":"Jawa Timur","city":"Blitar","district":"Wlingi","urban":"Tembalang","postal_code":66184},{"province":"Jawa Timur","city":"Blitar","district":"Selopuro","urban":"Tegalrejo","postal_code":66184},{"province":"Jawa Timur","city":"Blitar","district":"Wlingi","urban":"Tangkil","postal_code":66184},{"province":"Jawa Timur","city":"Blitar","district":"Selopuro","urban":"Selopuro","postal_code":66184},{"province":"Jawa Timur","city":"Blitar","district":"Selopuro","urban":"Ploso","postal_code":66184},{"province":"Jawa Timur","city":"Blitar","district":"Selopuro","urban":"Popoh","postal_code":66184},{"province":"Jawa Timur","city":"Blitar","district":"Wlingi","urban":"Ngadirenggo","postal_code":66184},{"province":"Jawa Timur","city":"Blitar","district":"Selopuro","urban":"Mandesan","postal_code":66184},{"province":"Jawa Timur","city":"Blitar","district":"Selopuro","urban":"Mronjo","postal_code":66184},{"province":"Jawa Timur","city":"Blitar","district":"Wlingi","urban":"Klemunan","postal_code":66184},{"province":"Jawa Timur","city":"Blitar","district":"Selopuro","urban":"Jatitengah","postal_code":66184},{"province":"Jawa Timur","city":"Blitar","district":"Wlingi","urban":"Beru","postal_code":66184},{"province":"Jawa Timur","city":"Blitar","district":"Selopuro","urban":"Jambewangi","postal_code":66184},{"province":"Jawa Timur","city":"Blitar","district":"Wlingi","urban":"Balerejo","postal_code":66184},{"province":"Jawa Timur","city":"Blitar","district":"Wlingi","urban":"Babadan","postal_code":66184}]