[{"province":"Jawa Timur","city":"Blitar","district":"Binangun","urban":"Tawang Rejo","postal_code":66193},{"province":"Jawa Timur","city":"Blitar","district":"Binangun","urban":"Umbul Damar","postal_code":66193},{"province":"Jawa Timur","city":"Blitar","district":"Binangun","urban":"Sumber Kembar","postal_code":66193},{"province":"Jawa Timur","city":"Blitar","district":"Binangun","urban":"Sukorame","postal_code":66193},{"province":"Jawa Timur","city":"Blitar","district":"Binangun","urban":"Salamrejo","postal_code":66193},{"province":"Jawa Timur","city":"Blitar","district":"Binangun","urban":"Sambigede","postal_code":66193},{"province":"Jawa Timur","city":"Blitar","district":"Binangun","urban":"Ngembul","postal_code":66193},{"province":"Jawa Timur","city":"Blitar","district":"Binangun","urban":"Rejoso","postal_code":66193},{"province":"Jawa Timur","city":"Blitar","district":"Binangun","urban":"Kedungwungu","postal_code":66193},{"province":"Jawa Timur","city":"Blitar","district":"Binangun","urban":"Ngadri","postal_code":66193},{"province":"Jawa Timur","city":"Blitar","district":"Binangun","urban":"Binangun","postal_code":66193},{"province":"Jawa Timur","city":"Blitar","district":"Binangun","urban":"Birowo","postal_code":66193}]