[{"province":"Jawa Timur","city":"Blitar","district":"Selorejo","urban":"Sidomulyo","postal_code":66192},{"province":"Jawa Timur","city":"Blitar","district":"Selorejo","urban":"Sumber Agung","postal_code":66192},{"province":"Jawa Timur","city":"Blitar","district":"Selorejo","urban":"Pohgajih","postal_code":66192},{"province":"Jawa Timur","city":"Blitar","district":"Selorejo","urban":"Selorejo","postal_code":66192},{"province":"Jawa Timur","city":"Blitar","district":"Selorejo","urban":"Ngreco","postal_code":66192},{"province":"Jawa Timur","city":"Blitar","district":"Selorejo","urban":"Ngrendeng","postal_code":66192},{"province":"Jawa Timur","city":"Blitar","district":"Selorejo","urban":"Olak Alen","postal_code":66192},{"province":"Jawa Timur","city":"Blitar","district":"Selorejo","urban":"Banjarsari","postal_code":66192},{"province":"Jawa Timur","city":"Blitar","district":"Selorejo","urban":"Boro","postal_code":66192},{"province":"Jawa Timur","city":"Blitar","district":"Selorejo","urban":"Ampelgading","postal_code":66192}]