[{"province":"Jawa Timur","city":"Tulungagung","district":"Kedungwaru","urban":"Tapan","postal_code":66229},{"province":"Jawa Timur","city":"Tulungagung","district":"Kedungwaru","urban":"Winong","postal_code":66229},{"province":"Jawa Timur","city":"Tulungagung","district":"Kedungwaru","urban":"Ngujang","postal_code":66229},{"province":"Jawa Timur","city":"Tulungagung","district":"Kedungwaru","urban":"Plandaan","postal_code":66229},{"province":"Jawa Timur","city":"Tulungagung","district":"Kedungwaru","urban":"Simo","postal_code":66229},{"province":"Jawa Timur","city":"Tulungagung","district":"Kedungwaru","urban":"Majan","postal_code":66229},{"province":"Jawa Timur","city":"Tulungagung","district":"Kedungwaru","urban":"Loderesan","postal_code":66229},{"province":"Jawa Timur","city":"Tulungagung","district":"Kedungwaru","urban":"Bulusari","postal_code":66229},{"province":"Jawa Timur","city":"Tulungagung","district":"Kedungwaru","urban":"Gendingan","postal_code":66229},{"province":"Jawa Timur","city":"Tulungagung","district":"Kedungwaru","urban":"Bangoan","postal_code":66229},{"province":"Jawa Timur","city":"Tulungagung","district":"Kedungwaru","urban":"Boro","postal_code":66229}]