[{"province":"Jawa Timur","city":"Tulungagung","district":"Boyolangu","urban":"Wajak Lor","postal_code":66235},{"province":"Jawa Timur","city":"Tulungagung","district":"Boyolangu","urban":"Waung","postal_code":66235},{"province":"Jawa Timur","city":"Tulungagung","district":"Boyolangu","urban":"Tanjungsari","postal_code":66235},{"province":"Jawa Timur","city":"Tulungagung","district":"Boyolangu","urban":"Wajak Kidul","postal_code":66235},{"province":"Jawa Timur","city":"Tulungagung","district":"Boyolangu","urban":"Serut","postal_code":66235},{"province":"Jawa Timur","city":"Tulungagung","district":"Boyolangu","urban":"Sanggrahan","postal_code":66235},{"province":"Jawa Timur","city":"Tulungagung","district":"Boyolangu","urban":"Pucung Kidul","postal_code":66235},{"province":"Jawa Timur","city":"Tulungagung","district":"Boyolangu","urban":"Kendalbulur","postal_code":66235},{"province":"Jawa Timur","city":"Tulungagung","district":"Boyolangu","urban":"Moyoketen","postal_code":66235},{"province":"Jawa Timur","city":"Tulungagung","district":"Boyolangu","urban":"Ngranti","postal_code":66235},{"province":"Jawa Timur","city":"Tulungagung","district":"Boyolangu","urban":"Boyolangu","postal_code":66235},{"province":"Jawa Timur","city":"Tulungagung","district":"Boyolangu","urban":"Karangrejo","postal_code":66235},{"province":"Jawa Timur","city":"Tulungagung","district":"Boyolangu","urban":"Bono","postal_code":66235}]