[{"province":"Jawa Timur","city":"Tulungagung","district":"Ngantru","urban":"Pulerejo","postal_code":66252},{"province":"Jawa Timur","city":"Tulungagung","district":"Ngantru","urban":"Srikaton","postal_code":66252},{"province":"Jawa Timur","city":"Tulungagung","district":"Ngantru","urban":"Pinggirsari","postal_code":66252},{"province":"Jawa Timur","city":"Tulungagung","district":"Ngantru","urban":"Pojok","postal_code":66252},{"province":"Jawa Timur","city":"Tulungagung","district":"Ngantru","urban":"Pojok","postal_code":66252},{"province":"Jawa Timur","city":"Tulungagung","district":"Ngantru","urban":"Padangan","postal_code":66252},{"province":"Jawa Timur","city":"Tulungagung","district":"Ngantru","urban":"Pakel","postal_code":66252},{"province":"Jawa Timur","city":"Tulungagung","district":"Ngantru","urban":"Kepuhrejo","postal_code":66252},{"province":"Jawa Timur","city":"Tulungagung","district":"Ngantru","urban":"Mojoagung","postal_code":66252},{"province":"Jawa Timur","city":"Tulungagung","district":"Ngantru","urban":"Ngantru","postal_code":66252},{"province":"Jawa Timur","city":"Tulungagung","district":"Ngantru","urban":"Batokan","postal_code":66252},{"province":"Jawa Timur","city":"Tulungagung","district":"Ngantru","urban":"Bendosari","postal_code":66252},{"province":"Jawa Timur","city":"Tulungagung","district":"Ngantru","urban":"Banjarsari","postal_code":66252}]