[{"province":"Jawa Timur","city":"Tulungagung","district":"Besuki","urban":"Wateskroyo","postal_code":66275},{"province":"Jawa Timur","city":"Tulungagung","district":"Besuki","urban":"Tulungrejo","postal_code":66275},{"province":"Jawa Timur","city":"Tulungagung","district":"Besuki","urban":"Tanggulwelahan","postal_code":66275},{"province":"Jawa Timur","city":"Tulungagung","district":"Besuki","urban":"Tanggulkundung","postal_code":66275},{"province":"Jawa Timur","city":"Tulungagung","district":"Besuki","urban":"Tanggulturus","postal_code":66275},{"province":"Jawa Timur","city":"Tulungagung","district":"Besuki","urban":"Sedayugunung","postal_code":66275},{"province":"Jawa Timur","city":"Tulungagung","district":"Besuki","urban":"Siyotobagus","postal_code":66275},{"province":"Jawa Timur","city":"Tulungagung","district":"Besuki","urban":"Keboireng","postal_code":66275},{"province":"Jawa Timur","city":"Tulungagung","district":"Besuki","urban":"Besuki","postal_code":66275},{"province":"Jawa Timur","city":"Tulungagung","district":"Besuki","urban":"Besole","postal_code":66275}]