[{"province":"Jawa Timur","city":"Tulungagung","district":"Kalidawir","urban":"Winong","postal_code":66281},{"province":"Jawa Timur","city":"Tulungagung","district":"Kalidawir","urban":"Tunggangri","postal_code":66281},{"province":"Jawa Timur","city":"Tulungagung","district":"Kalidawir","urban":"Salak Kembang","postal_code":66281},{"province":"Jawa Timur","city":"Tulungagung","district":"Kalidawir","urban":"Sukorejo Kulon","postal_code":66281},{"province":"Jawa Timur","city":"Tulungagung","district":"Kalidawir","urban":"Tanjung","postal_code":66281},{"province":"Jawa Timur","city":"Tulungagung","district":"Kalidawir","urban":"Rejosari","postal_code":66281},{"province":"Jawa Timur","city":"Tulungagung","district":"Kalidawir","urban":"Pakisaji","postal_code":66281},{"province":"Jawa Timur","city":"Tulungagung","district":"Kalidawir","urban":"Ngubalan","postal_code":66281},{"province":"Jawa Timur","city":"Tulungagung","district":"Kalidawir","urban":"Pagersari","postal_code":66281},{"province":"Jawa Timur","city":"Tulungagung","district":"Kalidawir","urban":"Kalidawir","postal_code":66281},{"province":"Jawa Timur","city":"Tulungagung","district":"Kalidawir","urban":"Karangtalun","postal_code":66281},{"province":"Jawa Timur","city":"Tulungagung","district":"Kalidawir","urban":"Joho","postal_code":66281},{"province":"Jawa Timur","city":"Tulungagung","district":"Kalidawir","urban":"Kalibatur","postal_code":66281},{"province":"Jawa Timur","city":"Tulungagung","district":"Kalidawir","urban":"Jabon","postal_code":66281},{"province":"Jawa Timur","city":"Tulungagung","district":"Kalidawir","urban":"Domasan","postal_code":66281},{"province":"Jawa Timur","city":"Tulungagung","district":"Kalidawir","urban":"Betak","postal_code":66281},{"province":"Jawa Timur","city":"Tulungagung","district":"Kalidawir","urban":"Banyuurip","postal_code":66281}]