[{"province":"Jawa Timur","city":"Tulungagung","district":"Ngunut","urban":"Sumberingin Kidul","postal_code":66292},{"province":"Jawa Timur","city":"Tulungagung","district":"Ngunut","urban":"Sumberingin Kulon","postal_code":66292},{"province":"Jawa Timur","city":"Tulungagung","district":"Ngunut","urban":"Selorejo","postal_code":66292},{"province":"Jawa Timur","city":"Tulungagung","district":"Ngunut","urban":"Sumberejo Kulon","postal_code":66292},{"province":"Jawa Timur","city":"Tulungagung","district":"Ngunut","urban":"Sumberejo Wetan","postal_code":66292},{"province":"Jawa Timur","city":"Tulungagung","district":"Ngunut","urban":"Purworejo","postal_code":66292},{"province":"Jawa Timur","city":"Tulungagung","district":"Ngunut","urban":"Samir","postal_code":66292},{"province":"Jawa Timur","city":"Tulungagung","district":"Ngunut","urban":"Pulosari","postal_code":66292},{"province":"Jawa Timur","city":"Tulungagung","district":"Ngunut","urban":"Pulotondo","postal_code":66292},{"province":"Jawa Timur","city":"Tulungagung","district":"Ngunut","urban":"Kromasan","postal_code":66292},{"province":"Jawa Timur","city":"Tulungagung","district":"Ngunut","urban":"Ngunut","postal_code":66292},{"province":"Jawa Timur","city":"Tulungagung","district":"Ngunut","urban":"Pandansari","postal_code":66292},{"province":"Jawa Timur","city":"Tulungagung","district":"Ngunut","urban":"Kaliwungu","postal_code":66292},{"province":"Jawa Timur","city":"Tulungagung","district":"Ngunut","urban":"Karangsono","postal_code":66292},{"province":"Jawa Timur","city":"Tulungagung","district":"Ngunut","urban":"Gilang","postal_code":66292},{"province":"Jawa Timur","city":"Tulungagung","district":"Ngunut","urban":"Kacangan","postal_code":66292},{"province":"Jawa Timur","city":"Tulungagung","district":"Ngunut","urban":"Kalangan","postal_code":66292},{"province":"Jawa Timur","city":"Tulungagung","district":"Ngunut","urban":"Balesono","postal_code":66292}]