[{"province":"Jawa Timur","city":"Trenggalek","district":"Karangan","urban":"Sumber","postal_code":66361},{"province":"Jawa Timur","city":"Trenggalek","district":"Karangan","urban":"Sumberingin","postal_code":66361},{"province":"Jawa Timur","city":"Trenggalek","district":"Karangan","urban":"Salamrejo","postal_code":66361},{"province":"Jawa Timur","city":"Trenggalek","district":"Karangan","urban":"Sukowetan","postal_code":66361},{"province":"Jawa Timur","city":"Trenggalek","district":"Karangan","urban":"Kedungsigit","postal_code":66361},{"province":"Jawa Timur","city":"Trenggalek","district":"Karangan","urban":"Kerjo","postal_code":66361},{"province":"Jawa Timur","city":"Trenggalek","district":"Karangan","urban":"Ngentrong","postal_code":66361},{"province":"Jawa Timur","city":"Trenggalek","district":"Karangan","urban":"Karangan","postal_code":66361},{"province":"Jawa Timur","city":"Trenggalek","district":"Karangan","urban":"Kayen","postal_code":66361},{"province":"Jawa Timur","city":"Trenggalek","district":"Karangan","urban":"Jatiprahu","postal_code":66361},{"province":"Jawa Timur","city":"Trenggalek","district":"Karangan","urban":"Jati","postal_code":66361},{"province":"Jawa Timur","city":"Trenggalek","district":"Karangan","urban":"Buluagung","postal_code":66361}]