[{"province":"Jawa Timur","city":"Trenggalek","district":"Suruh","urban":"Wonokerto","postal_code":66362},{"province":"Jawa Timur","city":"Trenggalek","district":"Pule","urban":"Sukokidul","postal_code":66362},{"province":"Jawa Timur","city":"Trenggalek","district":"Pule","urban":"Tanggaran","postal_code":66362},{"province":"Jawa Timur","city":"Trenggalek","district":"Suruh","urban":"Suruh","postal_code":66362},{"province":"Jawa Timur","city":"Trenggalek","district":"Pule","urban":"Sidomulyo","postal_code":66362},{"province":"Jawa Timur","city":"Trenggalek","district":"Pule","urban":"Puyung","postal_code":66362},{"province":"Jawa Timur","city":"Trenggalek","district":"Suruh","urban":"Puru","postal_code":66362},{"province":"Jawa Timur","city":"Trenggalek","district":"Pule","urban":"Pule","postal_code":66362},{"province":"Jawa Timur","city":"Trenggalek","district":"Suruh","urban":"Ngrandu","postal_code":66362},{"province":"Jawa Timur","city":"Trenggalek","district":"Pule","urban":"Pakel","postal_code":66362},{"province":"Jawa Timur","city":"Trenggalek","district":"Suruh","urban":"Mlinjon","postal_code":66362},{"province":"Jawa Timur","city":"Trenggalek","district":"Suruh","urban":"Nglebo","postal_code":66362},{"province":"Jawa Timur","city":"Trenggalek","district":"Pule","urban":"Kembangan","postal_code":66362},{"province":"Jawa Timur","city":"Trenggalek","district":"Pule","urban":"Jombok","postal_code":66362},{"province":"Jawa Timur","city":"Trenggalek","district":"Pule","urban":"Karanganyar","postal_code":66362},{"province":"Jawa Timur","city":"Trenggalek","district":"Suruh","urban":"Gamping","postal_code":66362},{"province":"Jawa Timur","city":"Trenggalek","district":"Pule","urban":"Joho","postal_code":66362}]