[{"province":"Jawa Timur","city":"Trenggalek","district":"Pogalan","urban":"Ngulanwetan","postal_code":66371},{"province":"Jawa Timur","city":"Trenggalek","district":"Pogalan","urban":"Pogalan","postal_code":66371},{"province":"Jawa Timur","city":"Trenggalek","district":"Pogalan","urban":"Wonocoyo","postal_code":66371},{"province":"Jawa Timur","city":"Trenggalek","district":"Pogalan","urban":"Ngulankulon","postal_code":66371},{"province":"Jawa Timur","city":"Trenggalek","district":"Pogalan","urban":"Ngetal","postal_code":66371},{"province":"Jawa Timur","city":"Trenggalek","district":"Pogalan","urban":"Ngadirejo","postal_code":66371},{"province":"Jawa Timur","city":"Trenggalek","district":"Pogalan","urban":"Ngadirenggo","postal_code":66371},{"province":"Jawa Timur","city":"Trenggalek","district":"Pogalan","urban":"Bendorejo","postal_code":66371},{"province":"Jawa Timur","city":"Trenggalek","district":"Pogalan","urban":"Gembleb","postal_code":66371},{"province":"Jawa Timur","city":"Trenggalek","district":"Pogalan","urban":"Kedunglurah","postal_code":66371}]