[{"province":"Jawa Timur","city":"Pasuruan","district":"Rembang","urban":"Sumber Glagah","postal_code":67152},{"province":"Jawa Timur","city":"Pasuruan","district":"Rembang","urban":"Tampung","postal_code":67152},{"province":"Jawa Timur","city":"Pasuruan","district":"Rembang","urban":"Siyar","postal_code":67152},{"province":"Jawa Timur","city":"Pasuruan","district":"Rembang","urban":"Rembang","postal_code":67152},{"province":"Jawa Timur","city":"Pasuruan","district":"Rembang","urban":"Pekoren","postal_code":67152},{"province":"Jawa Timur","city":"Pasuruan","district":"Rembang","urban":"Pejangkungan","postal_code":67152},{"province":"Jawa Timur","city":"Pasuruan","district":"Rembang","urban":"Oroombo Wetan","postal_code":67152},{"province":"Jawa Timur","city":"Pasuruan","district":"Rembang","urban":"Pajaran","postal_code":67152},{"province":"Jawa Timur","city":"Pasuruan","district":"Rembang","urban":"Pandean","postal_code":67152},{"province":"Jawa Timur","city":"Pasuruan","district":"Rembang","urban":"Orobulu","postal_code":67152},{"province":"Jawa Timur","city":"Pasuruan","district":"Rembang","urban":"Oroombo Kulon","postal_code":67152},{"province":"Jawa Timur","city":"Pasuruan","district":"Rembang","urban":"Mojoparon","postal_code":67152},{"province":"Jawa Timur","city":"Pasuruan","district":"Rembang","urban":"Kedung Banteng","postal_code":67152},{"province":"Jawa Timur","city":"Pasuruan","district":"Rembang","urban":"Krengih","postal_code":67152},{"province":"Jawa Timur","city":"Pasuruan","district":"Rembang","urban":"Kalisat","postal_code":67152},{"province":"Jawa Timur","city":"Pasuruan","district":"Rembang","urban":"Kanigoro","postal_code":67152},{"province":"Jawa Timur","city":"Pasuruan","district":"Rembang","urban":"Geneng Waru","postal_code":67152}]