[{"province":"Jawa Timur","city":"Pasuruan","district":"Bangil","urban":"Tambakan","postal_code":67153},{"province":"Jawa Timur","city":"Pasuruan","district":"Bangil","urban":"Raci","postal_code":67153},{"province":"Jawa Timur","city":"Pasuruan","district":"Bangil","urban":"Masangan","postal_code":67153},{"province":"Jawa Timur","city":"Pasuruan","district":"Bangil","urban":"Pogar","postal_code":67153},{"province":"Jawa Timur","city":"Pasuruan","district":"Bangil","urban":"Manaruwi","postal_code":67153},{"province":"Jawa Timur","city":"Pasuruan","district":"Bangil","urban":"Kolursari","postal_code":67153},{"province":"Jawa Timur","city":"Pasuruan","district":"Bangil","urban":"Latek","postal_code":67153},{"province":"Jawa Timur","city":"Pasuruan","district":"Bangil","urban":"Kidul Dalem","postal_code":67153},{"province":"Jawa Timur","city":"Pasuruan","district":"Bangil","urban":"Kauman","postal_code":67153},{"province":"Jawa Timur","city":"Pasuruan","district":"Bangil","urban":"Kersikan","postal_code":67153},{"province":"Jawa Timur","city":"Pasuruan","district":"Bangil","urban":"Kalianyar","postal_code":67153},{"province":"Jawa Timur","city":"Pasuruan","district":"Bangil","urban":"Kalirejo","postal_code":67153},{"province":"Jawa Timur","city":"Pasuruan","district":"Bangil","urban":"Gempeng","postal_code":67153},{"province":"Jawa Timur","city":"Pasuruan","district":"Bangil","urban":"Bendo Mungal","postal_code":67153},{"province":"Jawa Timur","city":"Pasuruan","district":"Bangil","urban":"Dermo","postal_code":67153}]