[{"province":"Jawa Timur","city":"Pasuruan","district":"Sukorejo","urban":"Wonokerto","postal_code":67161},{"province":"Jawa Timur","city":"Pasuruan","district":"Sukorejo","urban":"Suwayuwo","postal_code":67161},{"province":"Jawa Timur","city":"Pasuruan","district":"Sukorejo","urban":"Tanjungarum","postal_code":67161},{"province":"Jawa Timur","city":"Pasuruan","district":"Sukorejo","urban":"Sukorame","postal_code":67161},{"province":"Jawa Timur","city":"Pasuruan","district":"Sukorejo","urban":"Sukorejo","postal_code":67161},{"province":"Jawa Timur","city":"Pasuruan","district":"Sukorejo","urban":"Pakukerto","postal_code":67161},{"province":"Jawa Timur","city":"Pasuruan","district":"Sukorejo","urban":"Sebandung","postal_code":67161},{"province":"Jawa Timur","city":"Pasuruan","district":"Sukorejo","urban":"Ngadimulyo","postal_code":67161},{"province":"Jawa Timur","city":"Pasuruan","district":"Sukorejo","urban":"Mojotengah","postal_code":67161},{"province":"Jawa Timur","city":"Pasuruan","district":"Sukorejo","urban":"Lemahbang","postal_code":67161},{"province":"Jawa Timur","city":"Pasuruan","district":"Sukorejo","urban":"Lecari","postal_code":67161},{"province":"Jawa Timur","city":"Pasuruan","district":"Sukorejo","urban":"Kenduruan","postal_code":67161},{"province":"Jawa Timur","city":"Pasuruan","district":"Sukorejo","urban":"Karangsono","postal_code":67161},{"province":"Jawa Timur","city":"Pasuruan","district":"Sukorejo","urban":"Kalirejo","postal_code":67161},{"province":"Jawa Timur","city":"Pasuruan","district":"Sukorejo","urban":"Gunting","postal_code":67161},{"province":"Jawa Timur","city":"Pasuruan","district":"Sukorejo","urban":"Glagah Sari","postal_code":67161},{"province":"Jawa Timur","city":"Pasuruan","district":"Sukorejo","urban":"Dukuh Sari","postal_code":67161},{"province":"Jawa Timur","city":"Pasuruan","district":"Sukorejo","urban":"Curah Rejo","postal_code":67161},{"province":"Jawa Timur","city":"Pasuruan","district":"Sukorejo","urban":"Candi Binangun","postal_code":67161}]