[{"province":"Jawa Timur","city":"Pasuruan","district":"Winongan","urban":"Winongan Lor","postal_code":67182},{"province":"Jawa Timur","city":"Pasuruan","district":"Winongan","urban":"Winongan Kidul","postal_code":67182},{"province":"Jawa Timur","city":"Pasuruan","district":"Winongan","urban":"Umbulan","postal_code":67182},{"province":"Jawa Timur","city":"Pasuruan","district":"Winongan","urban":"Sruwi","postal_code":67182},{"province":"Jawa Timur","city":"Pasuruan","district":"Winongan","urban":"Sumber Rejo","postal_code":67182},{"province":"Jawa Timur","city":"Pasuruan","district":"Winongan","urban":"Penataan","postal_code":67182},{"province":"Jawa Timur","city":"Pasuruan","district":"Winongan","urban":"Prodo","postal_code":67182},{"province":"Jawa Timur","city":"Pasuruan","district":"Winongan","urban":"Sidepan","postal_code":67182},{"province":"Jawa Timur","city":"Pasuruan","district":"Winongan","urban":"Menyarik","postal_code":67182},{"province":"Jawa Timur","city":"Pasuruan","district":"Winongan","urban":"Minggir","postal_code":67182},{"province":"Jawa Timur","city":"Pasuruan","district":"Winongan","urban":"Kedung Rejo","postal_code":67182},{"province":"Jawa Timur","city":"Pasuruan","district":"Winongan","urban":"Lebak","postal_code":67182},{"province":"Jawa Timur","city":"Pasuruan","district":"Winongan","urban":"Mendalan","postal_code":67182},{"province":"Jawa Timur","city":"Pasuruan","district":"Winongan","urban":"Kandung","postal_code":67182},{"province":"Jawa Timur","city":"Pasuruan","district":"Winongan","urban":"Karang Tengah","postal_code":67182},{"province":"Jawa Timur","city":"Pasuruan","district":"Winongan","urban":"Jeladri","postal_code":67182},{"province":"Jawa Timur","city":"Pasuruan","district":"Winongan","urban":"Gading","postal_code":67182},{"province":"Jawa Timur","city":"Pasuruan","district":"Winongan","urban":"Bandaran","postal_code":67182}]