[{"province":"Jawa Timur","city":"Pasuruan","district":"Lekok","urban":"Tampung","postal_code":67186},{"province":"Jawa Timur","city":"Pasuruan","district":"Lekok","urban":"Wates","postal_code":67186},{"province":"Jawa Timur","city":"Pasuruan","district":"Lekok","urban":"Tambak Lekok","postal_code":67186},{"province":"Jawa Timur","city":"Pasuruan","district":"Lekok","urban":"Semedusari","postal_code":67186},{"province":"Jawa Timur","city":"Pasuruan","district":"Lekok","urban":"Pasinan","postal_code":67186},{"province":"Jawa Timur","city":"Pasuruan","district":"Lekok","urban":"Rowo Gempol","postal_code":67186},{"province":"Jawa Timur","city":"Pasuruan","district":"Lekok","urban":"Gejug Jati","postal_code":67186},{"province":"Jawa Timur","city":"Pasuruan","district":"Lekok","urban":"Jatirejo","postal_code":67186},{"province":"Jawa Timur","city":"Pasuruan","district":"Lekok","urban":"Balung Anyar","postal_code":67186},{"province":"Jawa Timur","city":"Pasuruan","district":"Lekok","urban":"Branang","postal_code":67186},{"province":"Jawa Timur","city":"Pasuruan","district":"Lekok","urban":"Alas Tlogo","postal_code":67186}]