[{"province":"Jawa Timur","city":"Pasuruan","district":"Grati","urban":"Trewung","postal_code":67184},{"province":"Jawa Timur","city":"Pasuruan","district":"Grati","urban":"Sumber Agung","postal_code":67184},{"province":"Jawa Timur","city":"Pasuruan","district":"Grati","urban":"Sumber Dawesari","postal_code":67184},{"province":"Jawa Timur","city":"Pasuruan","district":"Grati","urban":"Ranu Klindungan","postal_code":67184},{"province":"Jawa Timur","city":"Pasuruan","district":"Grati","urban":"Rebalas","postal_code":67184},{"province":"Jawa Timur","city":"Pasuruan","district":"Grati","urban":"Kedawung Kulon","postal_code":67184},{"province":"Jawa Timur","city":"Pasuruan","district":"Grati","urban":"Kedawung Wetan","postal_code":67184},{"province":"Jawa Timur","city":"Pasuruan","district":"Grati","urban":"Plososari","postal_code":67184},{"province":"Jawa Timur","city":"Pasuruan","district":"Grati","urban":"Karang Kliwon","postal_code":67184},{"province":"Jawa Timur","city":"Pasuruan","district":"Grati","urban":"Karang Lo","postal_code":67184},{"province":"Jawa Timur","city":"Pasuruan","district":"Grati","urban":"Kebon Rejo","postal_code":67184},{"province":"Jawa Timur","city":"Pasuruan","district":"Grati","urban":"Kambingan Rejo","postal_code":67184},{"province":"Jawa Timur","city":"Pasuruan","district":"Grati","urban":"Grati Tunon","postal_code":67184},{"province":"Jawa Timur","city":"Pasuruan","district":"Grati","urban":"Kalipang","postal_code":67184},{"province":"Jawa Timur","city":"Pasuruan","district":"Grati","urban":"Cukur Gondang","postal_code":67184}]