[{"province":"Jawa Timur","city":"Probolinggo","district":"Tegal Siwalan","urban":"Tegal Sono","postal_code":67274},{"province":"Jawa Timur","city":"Probolinggo","district":"Tegal Siwalan","urban":"Tegal Siwalan","postal_code":67274},{"province":"Jawa Timur","city":"Probolinggo","district":"Tegal Siwalan","urban":"Tegal Mojo","postal_code":67274},{"province":"Jawa Timur","city":"Probolinggo","district":"Tegal Siwalan","urban":"Sumberkledung","postal_code":67274},{"province":"Jawa Timur","city":"Probolinggo","district":"Tegal Siwalan","urban":"Sumberbulu","postal_code":67274},{"province":"Jawa Timur","city":"Probolinggo","district":"Tegal Siwalan","urban":"Malasan Wetan","postal_code":67274},{"province":"Jawa Timur","city":"Probolinggo","district":"Tegal Siwalan","urban":"Paras","postal_code":67274},{"province":"Jawa Timur","city":"Probolinggo","district":"Tegal Siwalan","urban":"Gunung Bekel","postal_code":67274},{"province":"Jawa Timur","city":"Probolinggo","district":"Tegal Siwalan","urban":"Bulujaran Lor","postal_code":67274},{"province":"Jawa Timur","city":"Probolinggo","district":"Tegal Siwalan","urban":"Blado Kulon","postal_code":67274},{"province":"Jawa Timur","city":"Probolinggo","district":"Tegal Siwalan","urban":"Bulujaran Kidul","postal_code":67274},{"province":"Jawa Timur","city":"Probolinggo","district":"Tegal Siwalan","urban":"Banjarsawah","postal_code":67274}]