[{"province":"Jawa Timur","city":"Probolinggo","district":"Leces","urban":"Tigasan Wetan","postal_code":67273},{"province":"Jawa Timur","city":"Probolinggo","district":"Leces","urban":"Warujinggo","postal_code":67273},{"province":"Jawa Timur","city":"Probolinggo","district":"Leces","urban":"Tigasan Kulon","postal_code":67273},{"province":"Jawa Timur","city":"Probolinggo","district":"Leces","urban":"Sumber Kedawung","postal_code":67273},{"province":"Jawa Timur","city":"Probolinggo","district":"Leces","urban":"Pondok Wuluh","postal_code":67273},{"province":"Jawa Timur","city":"Probolinggo","district":"Leces","urban":"Malasan Kulon","postal_code":67273},{"province":"Jawa Timur","city":"Probolinggo","district":"Leces","urban":"Keprangan (Kerpangan)","postal_code":67273},{"province":"Jawa Timur","city":"Probolinggo","district":"Leces","urban":"Leces","postal_code":67273},{"province":"Jawa Timur","city":"Probolinggo","district":"Leces","urban":"Jorongan","postal_code":67273},{"province":"Jawa Timur","city":"Probolinggo","district":"Leces","urban":"Clarak","postal_code":67273}]