[{"province":"Jawa Timur","city":"Probolinggo","district":"Maron","urban":"Sumberpoh","postal_code":67276},{"province":"Jawa Timur","city":"Probolinggo","district":"Maron","urban":"Wonorejo","postal_code":67276},{"province":"Jawa Timur","city":"Probolinggo","district":"Maron","urban":"Suko","postal_code":67276},{"province":"Jawa Timur","city":"Probolinggo","district":"Maron","urban":"Sumberdawe","postal_code":67276},{"province":"Jawa Timur","city":"Probolinggo","district":"Maron","urban":"Puspan","postal_code":67276},{"province":"Jawa Timur","city":"Probolinggo","district":"Maron","urban":"Satreyan","postal_code":67276},{"province":"Jawa Timur","city":"Probolinggo","district":"Maron","urban":"Maron Wetan","postal_code":67276},{"province":"Jawa Timur","city":"Probolinggo","district":"Maron","urban":"Pegalangan Kidul","postal_code":67276},{"province":"Jawa Timur","city":"Probolinggo","district":"Maron","urban":"Maron Kidul","postal_code":67276},{"province":"Jawa Timur","city":"Probolinggo","district":"Maron","urban":"Maron Kulon","postal_code":67276},{"province":"Jawa Timur","city":"Probolinggo","district":"Maron","urban":"Gerongan","postal_code":67276},{"province":"Jawa Timur","city":"Probolinggo","district":"Maron","urban":"Kedungsari","postal_code":67276},{"province":"Jawa Timur","city":"Probolinggo","district":"Maron","urban":"Brumbungan Kidul","postal_code":67276},{"province":"Jawa Timur","city":"Probolinggo","district":"Maron","urban":"Ganting Kulon","postal_code":67276},{"province":"Jawa Timur","city":"Probolinggo","district":"Maron","urban":"Ganting Wetan","postal_code":67276},{"province":"Jawa Timur","city":"Probolinggo","district":"Maron","urban":"Brani Kulon","postal_code":67276},{"province":"Jawa Timur","city":"Probolinggo","district":"Maron","urban":"Brani Wetan","postal_code":67276},{"province":"Jawa Timur","city":"Probolinggo","district":"Maron","urban":"Brabe","postal_code":67276}]