[{"province":"Jawa Timur","city":"Probolinggo","district":"Pajarakan","urban":"Sukomulyo","postal_code":67281},{"province":"Jawa Timur","city":"Probolinggo","district":"Pajarakan","urban":"Tanjung","postal_code":67281},{"province":"Jawa Timur","city":"Probolinggo","district":"Pajarakan","urban":"Selogudig Kulon","postal_code":67281},{"province":"Jawa Timur","city":"Probolinggo","district":"Pajarakan","urban":"Selogudig Wetan","postal_code":67281},{"province":"Jawa Timur","city":"Probolinggo","district":"Pajarakan","urban":"Sukokerto","postal_code":67281},{"province":"Jawa Timur","city":"Probolinggo","district":"Pajarakan","urban":"Penambangan","postal_code":67281},{"province":"Jawa Timur","city":"Probolinggo","district":"Pajarakan","urban":"Pajarakan Kulon","postal_code":67281},{"province":"Jawa Timur","city":"Probolinggo","district":"Pajarakan","urban":"Karanggeger","postal_code":67281},{"province":"Jawa Timur","city":"Probolinggo","district":"Pajarakan","urban":"Karangpranti","postal_code":67281},{"province":"Jawa Timur","city":"Probolinggo","district":"Pajarakan","urban":"Ketompen","postal_code":67281},{"province":"Jawa Timur","city":"Probolinggo","district":"Pajarakan","urban":"Gejungan","postal_code":67281},{"province":"Jawa Timur","city":"Probolinggo","district":"Pajarakan","urban":"Karangbong","postal_code":67281}]