[{"province":"Jawa Timur","city":"Probolinggo","district":"Gading","urban":"Wangkal","postal_code":67292},{"province":"Jawa Timur","city":"Probolinggo","district":"Pakuniran","urban":"Sumber Kembar","postal_code":67292},{"province":"Jawa Timur","city":"Probolinggo","district":"Gading","urban":"Sumbersecang","postal_code":67292},{"province":"Jawa Timur","city":"Probolinggo","district":"Pakuniran","urban":"Sogaan","postal_code":67292},{"province":"Jawa Timur","city":"Probolinggo","district":"Gading","urban":"Sentul","postal_code":67292},{"province":"Jawa Timur","city":"Probolinggo","district":"Pakuniran","urban":"Ranon","postal_code":67292},{"province":"Jawa Timur","city":"Probolinggo","district":"Gading","urban":"Ranuwurung","postal_code":67292},{"province":"Jawa Timur","city":"Probolinggo","district":"Gading","urban":"Renteng","postal_code":67292},{"province":"Jawa Timur","city":"Probolinggo","district":"Pakuniran","urban":"Patemon Kulon","postal_code":67292},{"province":"Jawa Timur","city":"Probolinggo","district":"Gading","urban":"Prasi","postal_code":67292},{"province":"Jawa Timur","city":"Probolinggo","district":"Pakuniran","urban":"Pakuniran","postal_code":67292},{"province":"Jawa Timur","city":"Probolinggo","district":"Gading","urban":"Nogosaren","postal_code":67292},{"province":"Jawa Timur","city":"Probolinggo","district":"Gading","urban":"Mojolegi","postal_code":67292},{"province":"Jawa Timur","city":"Probolinggo","district":"Pakuniran","urban":"Kertonegoro","postal_code":67292},{"province":"Jawa Timur","city":"Probolinggo","district":"Gading","urban":"Kertosono","postal_code":67292},{"province":"Jawa Timur","city":"Probolinggo","district":"Pakuniran","urban":"Kedungsumur","postal_code":67292},{"province":"Jawa Timur","city":"Probolinggo","district":"Gading","urban":"Keben","postal_code":67292},{"province":"Jawa Timur","city":"Probolinggo","district":"Pakuniran","urban":"Kalidandan","postal_code":67292},{"province":"Jawa Timur","city":"Probolinggo","district":"Gading","urban":"Kaliacar","postal_code":67292},{"province":"Jawa Timur","city":"Probolinggo","district":"Pakuniran","urban":"Gunggungan Kidul","postal_code":67292},{"province":"Jawa Timur","city":"Probolinggo","district":"Pakuniran","urban":"Gunggungan Lor","postal_code":67292},{"province":"Jawa Timur","city":"Probolinggo","district":"Gading","urban":"Jurangjero","postal_code":67292},{"province":"Jawa Timur","city":"Probolinggo","district":"Pakuniran","urban":"Glagah","postal_code":67292},{"province":"Jawa Timur","city":"Probolinggo","district":"Pakuniran","urban":"Gondosuli","postal_code":67292},{"province":"Jawa Timur","city":"Probolinggo","district":"Gading","urban":"Duren","postal_code":67292},{"province":"Jawa Timur","city":"Probolinggo","district":"Gading","urban":"Gading Wetan","postal_code":67292},{"province":"Jawa Timur","city":"Probolinggo","district":"Gading","urban":"Condong","postal_code":67292},{"province":"Jawa Timur","city":"Probolinggo","district":"Gading","urban":"Dandang","postal_code":67292},{"province":"Jawa Timur","city":"Probolinggo","district":"Pakuniran","urban":"Bucor Kulon","postal_code":67292},{"province":"Jawa Timur","city":"Probolinggo","district":"Gading","urban":"Bulupandak","postal_code":67292},{"province":"Jawa Timur","city":"Probolinggo","district":"Pakuniran","urban":"Bucor Wetan","postal_code":67292},{"province":"Jawa Timur","city":"Probolinggo","district":"Pakuniran","urban":"Bimo","postal_code":67292},{"province":"Jawa Timur","city":"Probolinggo","district":"Pakuniran","urban":"Blimbing","postal_code":67292},{"province":"Jawa Timur","city":"Probolinggo","district":"Gading","urban":"Batektaman (Betektaman)","postal_code":67292},{"province":"Jawa Timur","city":"Probolinggo","district":"Gading","urban":"Batur","postal_code":67292},{"province":"Jawa Timur","city":"Probolinggo","district":"Pakuniran","urban":"Alas Pandan","postal_code":67292}]