[{"province":"Jawa Timur","city":"Lumajang","district":"Sumbersuko","urban":"Sumbersuko","postal_code":67316},{"province":"Jawa Timur","city":"Lumajang","district":"Sumbersuko","urban":"Sentul","postal_code":67316},{"province":"Jawa Timur","city":"Lumajang","district":"Lumajang","urban":"Rogotrunan","postal_code":67316},{"province":"Jawa Timur","city":"Lumajang","district":"Sumbersuko","urban":"Purwosono","postal_code":67316},{"province":"Jawa Timur","city":"Lumajang","district":"Sumbersuko","urban":"Petahunan","postal_code":67316},{"province":"Jawa Timur","city":"Lumajang","district":"Lumajang","urban":"Labruk Lor","postal_code":67316},{"province":"Jawa Timur","city":"Lumajang","district":"Sumbersuko","urban":"Mojosari","postal_code":67316},{"province":"Jawa Timur","city":"Lumajang","district":"Lumajang","urban":"Kepuharjo","postal_code":67316},{"province":"Jawa Timur","city":"Lumajang","district":"Sumbersuko","urban":"Labruk Kidul","postal_code":67316},{"province":"Jawa Timur","city":"Lumajang","district":"Sumbersuko","urban":"Grati","postal_code":67316},{"province":"Jawa Timur","city":"Lumajang","district":"Sumbersuko","urban":"Kebonsari","postal_code":67316},{"province":"Jawa Timur","city":"Lumajang","district":"Lumajang","urban":"Boreng","postal_code":67316},{"province":"Jawa Timur","city":"Lumajang","district":"Lumajang","urban":"Denok","postal_code":67316},{"province":"Jawa Timur","city":"Lumajang","district":"Lumajang","urban":"Banjarwaru","postal_code":67316},{"province":"Jawa Timur","city":"Lumajang","district":"Lumajang","urban":"Blukon","postal_code":67316}]