[{"province":"Jawa Timur","city":"Lumajang","district":"Klakah","urban":"Tegalrandu","postal_code":67356},{"province":"Jawa Timur","city":"Lumajang","district":"Klakah","urban":"Tegalciut","postal_code":67356},{"province":"Jawa Timur","city":"Lumajang","district":"Klakah","urban":"Sruni","postal_code":67356},{"province":"Jawa Timur","city":"Lumajang","district":"Klakah","urban":"Sumberwringin","postal_code":67356},{"province":"Jawa Timur","city":"Lumajang","district":"Klakah","urban":"Sawaran Lor","postal_code":67356},{"province":"Jawa Timur","city":"Lumajang","district":"Klakah","urban":"Papringan","postal_code":67356},{"province":"Jawa Timur","city":"Lumajang","district":"Klakah","urban":"Ranupakis","postal_code":67356},{"province":"Jawa Timur","city":"Lumajang","district":"Klakah","urban":"Mlawang","postal_code":67356},{"province":"Jawa Timur","city":"Lumajang","district":"Klakah","urban":"Kebonan","postal_code":67356},{"province":"Jawa Timur","city":"Lumajang","district":"Klakah","urban":"Klakah","postal_code":67356},{"province":"Jawa Timur","city":"Lumajang","district":"Klakah","urban":"Kudus","postal_code":67356},{"province":"Jawa Timur","city":"Lumajang","district":"Klakah","urban":"Duren","postal_code":67356}]