[{"province":"Jawa Timur","city":"Lumajang","district":"Sukodono","urban":"Uranggantung","postal_code":67352},{"province":"Jawa Timur","city":"Lumajang","district":"Padang","urban":"Tanggung","postal_code":67352},{"province":"Jawa Timur","city":"Lumajang","district":"Sukodono","urban":"Selokgondang","postal_code":67352},{"province":"Jawa Timur","city":"Lumajang","district":"Sukodono","urban":"Sumberejo","postal_code":67352},{"province":"Jawa Timur","city":"Lumajang","district":"Sukodono","urban":"Selokbesuki","postal_code":67352},{"province":"Jawa Timur","city":"Lumajang","district":"Padang","urban":"Padang","postal_code":67352},{"province":"Jawa Timur","city":"Lumajang","district":"Sukodono","urban":"Kutorenon","postal_code":67352},{"province":"Jawa Timur","city":"Lumajang","district":"Padang","urban":"Merakan","postal_code":67352},{"province":"Jawa Timur","city":"Lumajang","district":"Padang","urban":"Mojo","postal_code":67352},{"province":"Jawa Timur","city":"Lumajang","district":"Sukodono","urban":"Klanting","postal_code":67352},{"province":"Jawa Timur","city":"Lumajang","district":"Padang","urban":"Kedawung","postal_code":67352},{"province":"Jawa Timur","city":"Lumajang","district":"Sukodono","urban":"Kebonagung","postal_code":67352},{"province":"Jawa Timur","city":"Lumajang","district":"Sukodono","urban":"Karangsari","postal_code":67352},{"province":"Jawa Timur","city":"Lumajang","district":"Padang","urban":"Kalisemut","postal_code":67352},{"province":"Jawa Timur","city":"Lumajang","district":"Sukodono","urban":"Bondoyudo","postal_code":67352},{"province":"Jawa Timur","city":"Lumajang","district":"Sukodono","urban":"Dawuhan Lor","postal_code":67352},{"province":"Jawa Timur","city":"Lumajang","district":"Padang","urban":"Barat","postal_code":67352},{"province":"Jawa Timur","city":"Lumajang","district":"Padang","urban":"Bodang","postal_code":67352},{"province":"Jawa Timur","city":"Lumajang","district":"Padang","urban":"Babakan","postal_code":67352}]