[{"province":"Jawa Timur","city":"Lumajang","district":"Senduro","urban":"Wonocepokoayu","postal_code":67361},{"province":"Jawa Timur","city":"Lumajang","district":"Senduro","urban":"Senduro","postal_code":67361},{"province":"Jawa Timur","city":"Lumajang","district":"Pasrujambe/Pasujambe","urban":"Sukorejo","postal_code":67361},{"province":"Jawa Timur","city":"Lumajang","district":"Senduro","urban":"Ranupani","postal_code":67361},{"province":"Jawa Timur","city":"Lumajang","district":"Senduro","urban":"Sarikemuning","postal_code":67361},{"province":"Jawa Timur","city":"Lumajang","district":"Senduro","urban":"Purworejo","postal_code":67361},{"province":"Jawa Timur","city":"Lumajang","district":"Pasrujambe/Pasujambe","urban":"Pasrujambe (Pasujambe)","postal_code":67361},{"province":"Jawa Timur","city":"Lumajang","district":"Senduro","urban":"Pandansari","postal_code":67361},{"province":"Jawa Timur","city":"Lumajang","district":"Pasrujambe/Pasujambe","urban":"Kertosari","postal_code":67361},{"province":"Jawa Timur","city":"Lumajang","district":"Pasrujambe/Pasujambe","urban":"Pagowan","postal_code":67361},{"province":"Jawa Timur","city":"Lumajang","district":"Pasrujambe/Pasujambe","urban":"Karanganom","postal_code":67361},{"province":"Jawa Timur","city":"Lumajang","district":"Senduro","urban":"Kandangtepus","postal_code":67361},{"province":"Jawa Timur","city":"Lumajang","district":"Senduro","urban":"Kandangan","postal_code":67361},{"province":"Jawa Timur","city":"Lumajang","district":"Pasrujambe/Pasujambe","urban":"Jambekumbu","postal_code":67361},{"province":"Jawa Timur","city":"Lumajang","district":"Pasrujambe/Pasujambe","urban":"Jambearum","postal_code":67361},{"province":"Jawa Timur","city":"Lumajang","district":"Senduro","urban":"Burno","postal_code":67361},{"province":"Jawa Timur","city":"Lumajang","district":"Senduro","urban":"Bedayu","postal_code":67361},{"province":"Jawa Timur","city":"Lumajang","district":"Senduro","urban":"Bedayutalang","postal_code":67361},{"province":"Jawa Timur","city":"Lumajang","district":"Senduro","urban":"Argosari","postal_code":67361}]