[{"province":"Jawa Timur","city":"Lumajang","district":"Candipuro","urban":"Tumpeng","postal_code":67373},{"province":"Jawa Timur","city":"Lumajang","district":"Candipuro","urban":"Sumberwuluh","postal_code":67373},{"province":"Jawa Timur","city":"Lumajang","district":"Candipuro","urban":"Tambahrejo","postal_code":67373},{"province":"Jawa Timur","city":"Lumajang","district":"Candipuro","urban":"Sumberrejo","postal_code":67373},{"province":"Jawa Timur","city":"Lumajang","district":"Candipuro","urban":"Sumbermujur","postal_code":67373},{"province":"Jawa Timur","city":"Lumajang","district":"Candipuro","urban":"Penanggal","postal_code":67373},{"province":"Jawa Timur","city":"Lumajang","district":"Candipuro","urban":"Jugosari","postal_code":67373},{"province":"Jawa Timur","city":"Lumajang","district":"Candipuro","urban":"Kloposawit","postal_code":67373},{"province":"Jawa Timur","city":"Lumajang","district":"Candipuro","urban":"Candipuro","postal_code":67373},{"province":"Jawa Timur","city":"Lumajang","district":"Candipuro","urban":"Jarit","postal_code":67373}]