[{"province":"Jawa Timur","city":"Lumajang","district":"Pasirian","urban":"Sememu","postal_code":67372},{"province":"Jawa Timur","city":"Lumajang","district":"Pasirian","urban":"Selok Awar Awar","postal_code":67372},{"province":"Jawa Timur","city":"Lumajang","district":"Pasirian","urban":"Pasirian","postal_code":67372},{"province":"Jawa Timur","city":"Lumajang","district":"Pasirian","urban":"Selok Anyar","postal_code":67372},{"province":"Jawa Timur","city":"Lumajang","district":"Pasirian","urban":"Madurejo","postal_code":67372},{"province":"Jawa Timur","city":"Lumajang","district":"Pasirian","urban":"Nguter","postal_code":67372},{"province":"Jawa Timur","city":"Lumajang","district":"Pasirian","urban":"Kalibendo","postal_code":67372},{"province":"Jawa Timur","city":"Lumajang","district":"Pasirian","urban":"Condro","postal_code":67372},{"province":"Jawa Timur","city":"Lumajang","district":"Pasirian","urban":"Gondoruso","postal_code":67372},{"province":"Jawa Timur","city":"Lumajang","district":"Pasirian","urban":"Bago","postal_code":67372},{"province":"Jawa Timur","city":"Lumajang","district":"Pasirian","urban":"Bades","postal_code":67372}]