[{"province":"Jawa Timur","city":"Jember","district":"Bangsalsari","urban":"Tugusari","postal_code":68154},{"province":"Jawa Timur","city":"Jember","district":"Bangsalsari","urban":"Sukorejo","postal_code":68154},{"province":"Jawa Timur","city":"Jember","district":"Bangsalsari","urban":"Tisnogambar","postal_code":68154},{"province":"Jawa Timur","city":"Jember","district":"Bangsalsari","urban":"Langkap","postal_code":68154},{"province":"Jawa Timur","city":"Jember","district":"Bangsalsari","urban":"Petung","postal_code":68154},{"province":"Jawa Timur","city":"Jember","district":"Bangsalsari","urban":"Gambirono","postal_code":68154},{"province":"Jawa Timur","city":"Jember","district":"Bangsalsari","urban":"Karangsono","postal_code":68154},{"province":"Jawa Timur","city":"Jember","district":"Bangsalsari","urban":"Banjarsari","postal_code":68154},{"province":"Jawa Timur","city":"Jember","district":"Bangsalsari","urban":"Curah Kalong","postal_code":68154},{"province":"Jawa Timur","city":"Jember","district":"Bangsalsari","urban":"Badean","postal_code":68154},{"province":"Jawa Timur","city":"Jember","district":"Bangsalsari","urban":"Bangsalsari","postal_code":68154}]