[{"province":"Jawa Timur","city":"Jember","district":"Sumber Baru","urban":"Sumber Agung","postal_code":68156},{"province":"Jawa Timur","city":"Jember","district":"Sumber Baru","urban":"Yosorati","postal_code":68156},{"province":"Jawa Timur","city":"Jember","district":"Sumber Baru","urban":"Karang Bayat","postal_code":68156},{"province":"Jawa Timur","city":"Jember","district":"Sumber Baru","urban":"Pringgowirawan","postal_code":68156},{"province":"Jawa Timur","city":"Jember","district":"Sumber Baru","urban":"Rowo Tengah","postal_code":68156},{"province":"Jawa Timur","city":"Jember","district":"Sumber Baru","urban":"Jamintoro","postal_code":68156},{"province":"Jawa Timur","city":"Jember","district":"Sumber Baru","urban":"Jatiroto","postal_code":68156},{"province":"Jawa Timur","city":"Jember","district":"Sumber Baru","urban":"Kaliglagah","postal_code":68156},{"province":"Jawa Timur","city":"Jember","district":"Sumber Baru","urban":"Gelang","postal_code":68156},{"province":"Jawa Timur","city":"Jember","district":"Sumber Baru","urban":"Jambesari","postal_code":68156}]