[{"province":"Jawa Timur","city":"Jember","district":"Ledokombo","urban":"Sumber Lesung","postal_code":68196},{"province":"Jawa Timur","city":"Jember","district":"Ledokombo","urban":"Sumber Salak","postal_code":68196},{"province":"Jawa Timur","city":"Jember","district":"Ledokombo","urban":"Suren","postal_code":68196},{"province":"Jawa Timur","city":"Jember","district":"Ledokombo","urban":"Sumber Anget","postal_code":68196},{"province":"Jawa Timur","city":"Jember","district":"Ledokombo","urban":"Sumber Bulus","postal_code":68196},{"province":"Jawa Timur","city":"Jember","district":"Ledokombo","urban":"Sukogidri","postal_code":68196},{"province":"Jawa Timur","city":"Jember","district":"Ledokombo","urban":"Slateng","postal_code":68196},{"province":"Jawa Timur","city":"Jember","district":"Ledokombo","urban":"Karang Paiton","postal_code":68196},{"province":"Jawa Timur","city":"Jember","district":"Ledokombo","urban":"Ledokombo","postal_code":68196},{"province":"Jawa Timur","city":"Jember","district":"Ledokombo","urban":"Lembengan","postal_code":68196}]