[{"province":"Jawa Timur","city":"Jember","district":"Kalisat","urban":"Sumber Jeruk","postal_code":68193},{"province":"Jawa Timur","city":"Jember","district":"Kalisat","urban":"Sumber Kalong","postal_code":68193},{"province":"Jawa Timur","city":"Jember","district":"Kalisat","urban":"Sumber Ketempah","postal_code":68193},{"province":"Jawa Timur","city":"Jember","district":"Kalisat","urban":"Sebanen","postal_code":68193},{"province":"Jawa Timur","city":"Jember","district":"Kalisat","urban":"Sukoreno","postal_code":68193},{"province":"Jawa Timur","city":"Jember","district":"Kalisat","urban":"Kalisat","postal_code":68193},{"province":"Jawa Timur","city":"Jember","district":"Kalisat","urban":"Patempuran","postal_code":68193},{"province":"Jawa Timur","city":"Jember","district":"Kalisat","urban":"Glagahwero","postal_code":68193},{"province":"Jawa Timur","city":"Jember","district":"Kalisat","urban":"Gumuksari","postal_code":68193},{"province":"Jawa Timur","city":"Jember","district":"Kalisat","urban":"Ajung","postal_code":68193},{"province":"Jawa Timur","city":"Jember","district":"Kalisat","urban":"Gambiran","postal_code":68193}]