[{"province":"Jawa Timur","city":"Jember","district":"Sukowono","urban":"Sumberwaru","postal_code":68194},{"province":"Jawa Timur","city":"Jember","district":"Sukowono","urban":"Sumber Wringin","postal_code":68194},{"province":"Jawa Timur","city":"Jember","district":"Sukowono","urban":"Sumberdanti","postal_code":68194},{"province":"Jawa Timur","city":"Jember","district":"Sukowono","urban":"Sukosari","postal_code":68194},{"province":"Jawa Timur","city":"Jember","district":"Sukowono","urban":"Sukowono","postal_code":68194},{"province":"Jawa Timur","city":"Jember","district":"Sukowono","urban":"Sukokerto","postal_code":68194},{"province":"Jawa Timur","city":"Jember","district":"Sukowono","urban":"Sukorejo","postal_code":68194},{"province":"Jawa Timur","city":"Jember","district":"Sukowono","urban":"Mojogeni","postal_code":68194},{"province":"Jawa Timur","city":"Jember","district":"Sukowono","urban":"Pocangan","postal_code":68194},{"province":"Jawa Timur","city":"Jember","district":"Sukowono","urban":"Balet Baru","postal_code":68194},{"province":"Jawa Timur","city":"Jember","district":"Sukowono","urban":"Dawuhan Mangli","postal_code":68194},{"province":"Jawa Timur","city":"Jember","district":"Sukowono","urban":"Arjasa","postal_code":68194}]