[{"province":"Jawa Timur","city":"Bondowoso","district":"Binakal","urban":"Sumbertengah","postal_code":68251},{"province":"Jawa Timur","city":"Bondowoso","district":"Binakal","urban":"Sumberwaru","postal_code":68251},{"province":"Jawa Timur","city":"Bondowoso","district":"Curahdami","urban":"Sumbersuko","postal_code":68251},{"province":"Jawa Timur","city":"Bondowoso","district":"Curahdami","urban":"Silolembu","postal_code":68251},{"province":"Jawa Timur","city":"Bondowoso","district":"Curahdami","urban":"Sumber Salak","postal_code":68251},{"province":"Jawa Timur","city":"Bondowoso","district":"Curahdami","urban":"Poncogati","postal_code":68251},{"province":"Jawa Timur","city":"Bondowoso","district":"Curahdami","urban":"Pakuwesi","postal_code":68251},{"province":"Jawa Timur","city":"Bondowoso","district":"Curahdami","urban":"Penambangan","postal_code":68251},{"province":"Jawa Timur","city":"Bondowoso","district":"Curahdami","urban":"Petung","postal_code":68251},{"province":"Jawa Timur","city":"Bondowoso","district":"Curahdami","urban":"Locare","postal_code":68251},{"province":"Jawa Timur","city":"Bondowoso","district":"Binakal","urban":"Kembangan","postal_code":68251},{"province":"Jawa Timur","city":"Bondowoso","district":"Curahdami","urban":"Kupang","postal_code":68251},{"province":"Jawa Timur","city":"Bondowoso","district":"Binakal","urban":"Jeruksoksok","postal_code":68251},{"province":"Jawa Timur","city":"Bondowoso","district":"Curahdami","urban":"Jetis","postal_code":68251},{"province":"Jawa Timur","city":"Bondowoso","district":"Binakal","urban":"Gadingsari","postal_code":68251},{"province":"Jawa Timur","city":"Bondowoso","district":"Curahdami","urban":"Curahdami","postal_code":68251},{"province":"Jawa Timur","city":"Bondowoso","district":"Curahdami","urban":"Curahpoh","postal_code":68251},{"province":"Jawa Timur","city":"Bondowoso","district":"Binakal","urban":"Binakal","postal_code":68251},{"province":"Jawa Timur","city":"Bondowoso","district":"Binakal","urban":"Bendelan","postal_code":68251},{"province":"Jawa Timur","city":"Bondowoso","district":"Binakal","urban":"Baratan","postal_code":68251}]