[{"province":"Jawa Timur","city":"Bondowoso","district":"Maesan","urban":"Tanahwulan","postal_code":68262},{"province":"Jawa Timur","city":"Bondowoso","district":"Maesan","urban":"Sumber Anyar","postal_code":68262},{"province":"Jawa Timur","city":"Bondowoso","district":"Maesan","urban":"Sumberpakem","postal_code":68262},{"province":"Jawa Timur","city":"Bondowoso","district":"Maesan","urban":"Sumbersari","postal_code":68262},{"province":"Jawa Timur","city":"Bondowoso","district":"Maesan","urban":"Suger Lor","postal_code":68262},{"province":"Jawa Timur","city":"Bondowoso","district":"Maesan","urban":"Pujerbaru","postal_code":68262},{"province":"Jawa Timur","city":"Bondowoso","district":"Maesan","urban":"Sucolor","postal_code":68262},{"province":"Jawa Timur","city":"Bondowoso","district":"Maesan","urban":"Maesan","postal_code":68262},{"province":"Jawa Timur","city":"Bondowoso","district":"Maesan","urban":"Pakuniran","postal_code":68262},{"province":"Jawa Timur","city":"Bondowoso","district":"Maesan","urban":"Penanggungan","postal_code":68262},{"province":"Jawa Timur","city":"Bondowoso","district":"Maesan","urban":"Gambangan","postal_code":68262},{"province":"Jawa Timur","city":"Bondowoso","district":"Maesan","urban":"Gunung Sari","postal_code":68262}]