[{"province":"Jawa Timur","city":"Bondowoso","district":"Grujugan","urban":"Wonosari","postal_code":68261},{"province":"Jawa Timur","city":"Bondowoso","district":"Grujugan","urban":"Tegalmijin","postal_code":68261},{"province":"Jawa Timur","city":"Bondowoso","district":"Grujugan","urban":"Wanisodo","postal_code":68261},{"province":"Jawa Timur","city":"Bondowoso","district":"Grujugan","urban":"Taman","postal_code":68261},{"province":"Jawa Timur","city":"Bondowoso","district":"Grujugan","urban":"Pekauman","postal_code":68261},{"province":"Jawa Timur","city":"Bondowoso","district":"Grujugan","urban":"Sumberpandan","postal_code":68261},{"province":"Jawa Timur","city":"Bondowoso","district":"Jambe Sari Darus Sholah","urban":"Pejagan","postal_code":68261},{"province":"Jawa Timur","city":"Bondowoso","district":"Grujugan","urban":"Kejawan","postal_code":68261},{"province":"Jawa Timur","city":"Bondowoso","district":"Jambe Sari Darus Sholah","urban":"Grujugan Lor","postal_code":68261},{"province":"Jawa Timur","city":"Bondowoso","district":"Grujugan","urban":"Kabuaran","postal_code":68261},{"province":"Jawa Timur","city":"Bondowoso","district":"Cermee","urban":"Grujugan","postal_code":68261},{"province":"Jawa Timur","city":"Bondowoso","district":"Grujugan","urban":"Grujugan Kidul","postal_code":68261},{"province":"Jawa Timur","city":"Bondowoso","district":"Grujugan","urban":"Dawuhan","postal_code":68261},{"province":"Jawa Timur","city":"Bondowoso","district":"Grujugan","urban":"Dadapan","postal_code":68261}]