[{"province":"Jawa Timur","city":"Bondowoso","district":"Jambe Sari Darus Sholah","urban":"Tegalpasir","postal_code":68263},{"province":"Jawa Timur","city":"Bondowoso","district":"Tamanan","urban":"Wonosuko","postal_code":68263},{"province":"Jawa Timur","city":"Bondowoso","district":"Tamanan","urban":"Sumberkemuning","postal_code":68263},{"province":"Jawa Timur","city":"Bondowoso","district":"Tamanan","urban":"Tamanan","postal_code":68263},{"province":"Jawa Timur","city":"Bondowoso","district":"Jambe Sari Darus Sholah","urban":"Sumber Anyar","postal_code":68263},{"province":"Jawa Timur","city":"Bondowoso","district":"Jambe Sari Darus Sholah","urban":"Sumber Jeruk","postal_code":68263},{"province":"Jawa Timur","city":"Bondowoso","district":"Tamanan","urban":"Sumber Anom","postal_code":68263},{"province":"Jawa Timur","city":"Bondowoso","district":"Jambe Sari Darus Sholah","urban":"Pucang Anom","postal_code":68263},{"province":"Jawa Timur","city":"Bondowoso","district":"Tamanan","urban":"Sukosari","postal_code":68263},{"province":"Jawa Timur","city":"Bondowoso","district":"Tamanan","urban":"Kemirian","postal_code":68263},{"province":"Jawa Timur","city":"Bondowoso","district":"Tamanan","urban":"Mengen","postal_code":68263},{"province":"Jawa Timur","city":"Bondowoso","district":"Tamanan","urban":"Kalianyar","postal_code":68263},{"province":"Jawa Timur","city":"Bondowoso","district":"Tamanan","urban":"Karangmelok","postal_code":68263},{"province":"Jawa Timur","city":"Bondowoso","district":"Jambe Sari Darus Sholah","urban":"Jambe Sari","postal_code":68263},{"province":"Jawa Timur","city":"Bondowoso","district":"Jambe Sari Darus Sholah","urban":"Jambe Anom","postal_code":68263}]