[{"province":"Jawa Timur","city":"Bondowoso","district":"Tlogosari","urban":"Trotosari","postal_code":68272},{"province":"Jawa Timur","city":"Bondowoso","district":"Tlogosari","urban":"Tlogosari","postal_code":68272},{"province":"Jawa Timur","city":"Bondowoso","district":"Tlogosari","urban":"Sulek","postal_code":68272},{"province":"Jawa Timur","city":"Bondowoso","district":"Tlogosari","urban":"Patemon","postal_code":68272},{"province":"Jawa Timur","city":"Bondowoso","district":"Tlogosari","urban":"Pakisan","postal_code":68272},{"province":"Jawa Timur","city":"Bondowoso","district":"Tlogosari","urban":"Kembang","postal_code":68272},{"province":"Jawa Timur","city":"Bondowoso","district":"Tlogosari","urban":"Jebung Lor","postal_code":68272},{"province":"Jawa Timur","city":"Bondowoso","district":"Tlogosari","urban":"Jebung Kidul","postal_code":68272},{"province":"Jawa Timur","city":"Bondowoso","district":"Tlogosari","urban":"Brambang Darussolah","postal_code":68272},{"province":"Jawa Timur","city":"Bondowoso","district":"Tlogosari","urban":"Gunosari","postal_code":68272}]