[{"province":"Jawa Timur","city":"Bondowoso","district":"Pujer","urban":"Sukowono","postal_code":68271},{"province":"Jawa Timur","city":"Bondowoso","district":"Pujer","urban":"Sukokerto","postal_code":68271},{"province":"Jawa Timur","city":"Bondowoso","district":"Pujer","urban":"Sukodono","postal_code":68271},{"province":"Jawa Timur","city":"Bondowoso","district":"Pujer","urban":"Randucangkring","postal_code":68271},{"province":"Jawa Timur","city":"Bondowoso","district":"Jambe Sari Darus Sholah","urban":"Pengarang","postal_code":68271},{"province":"Jawa Timur","city":"Bondowoso","district":"Pujer","urban":"Padasan","postal_code":68271},{"province":"Jawa Timur","city":"Bondowoso","district":"Pujer","urban":"Mengok","postal_code":68271},{"province":"Jawa Timur","city":"Bondowoso","district":"Pujer","urban":"Maskuning Wetan","postal_code":68271},{"province":"Jawa Timur","city":"Bondowoso","district":"Pujer","urban":"Maskuning Kulon","postal_code":68271},{"province":"Jawa Timur","city":"Bondowoso","district":"Pujer","urban":"Mangli","postal_code":68271},{"province":"Jawa Timur","city":"Bondowoso","district":"Pujer","urban":"Alassumur","postal_code":68271},{"province":"Jawa Timur","city":"Bondowoso","district":"Pujer","urban":"Kejayan","postal_code":68271}]