[{"province":"Jawa Timur","city":"Bondowoso","district":"Sumber Wringin","urban":"Tegaljati","postal_code":68287},{"province":"Jawa Timur","city":"Bondowoso","district":"Sumber Wringin","urban":"Sumber Wringin","postal_code":68287},{"province":"Jawa Timur","city":"Bondowoso","district":"Sumber Wringin","urban":"Sumber Gading","postal_code":68287},{"province":"Jawa Timur","city":"Bondowoso","district":"Sukosari","urban":"Sukosari Lor","postal_code":68287},{"province":"Jawa Timur","city":"Bondowoso","district":"Sumber Wringin","urban":"Sukosari Kidul","postal_code":68287},{"province":"Jawa Timur","city":"Bondowoso","district":"Sumber Wringin","urban":"Sukorejo","postal_code":68287},{"province":"Jawa Timur","city":"Bondowoso","district":"Sumber Wringin","urban":"Rejoagung","postal_code":68287},{"province":"Jawa Timur","city":"Bondowoso","district":"Sukosari","urban":"Pecalongan","postal_code":68287},{"province":"Jawa Timur","city":"Bondowoso","district":"Sukosari","urban":"Nogosari","postal_code":68287},{"province":"Jawa Timur","city":"Bondowoso","district":"Sukosari","urban":"Kerang","postal_code":68287}]