[{"province":"Jawa Timur","city":"Bondowoso","district":"Prajekan","urban":"Tarum","postal_code":68285},{"province":"Jawa Timur","city":"Bondowoso","district":"Prajekan","urban":"Walidono","postal_code":68285},{"province":"Jawa Timur","city":"Bondowoso","district":"Prajekan","urban":"Prajekan Lor","postal_code":68285},{"province":"Jawa Timur","city":"Bondowoso","district":"Prajekan","urban":"Sempol","postal_code":68285},{"province":"Jawa Timur","city":"Bondowoso","district":"Botolinggo","urban":"Penang","postal_code":68285},{"province":"Jawa Timur","city":"Bondowoso","district":"Prajekan","urban":"Prajekan Kidul","postal_code":68285},{"province":"Jawa Timur","city":"Bondowoso","district":"Botolinggo","urban":"Klekehan (Klekean)","postal_code":68285},{"province":"Jawa Timur","city":"Bondowoso","district":"Botolinggo","urban":"Gayam","postal_code":68285},{"province":"Jawa Timur","city":"Bondowoso","district":"Botolinggo","urban":"Gayam Lor","postal_code":68285},{"province":"Jawa Timur","city":"Bondowoso","district":"Prajekan","urban":"Bandilan","postal_code":68285},{"province":"Jawa Timur","city":"Bondowoso","district":"Prajekan","urban":"Cangkring","postal_code":68285}]