[{"province":"Jawa Timur","city":"Bondowoso","district":"Klabang","urban":"Wonokerto","postal_code":68284},{"province":"Jawa Timur","city":"Bondowoso","district":"Klabang","urban":"Sumbersuko","postal_code":68284},{"province":"Jawa Timur","city":"Bondowoso","district":"Klabang","urban":"Wonoboyo","postal_code":68284},{"province":"Jawa Timur","city":"Bondowoso","district":"Botolinggo","urban":"Sumbercanting","postal_code":68284},{"province":"Jawa Timur","city":"Bondowoso","district":"Klabang","urban":"Pandak","postal_code":68284},{"province":"Jawa Timur","city":"Bondowoso","district":"Botolinggo","urban":"Lumutan","postal_code":68284},{"province":"Jawa Timur","city":"Bondowoso","district":"Klabang","urban":"Leprak","postal_code":68284},{"province":"Jawa Timur","city":"Bondowoso","district":"Botolinggo","urban":"Lanas","postal_code":68284},{"province":"Jawa Timur","city":"Bondowoso","district":"Klabang","urban":"Klampokan","postal_code":68284},{"province":"Jawa Timur","city":"Bondowoso","district":"Klabang","urban":"Klabang","postal_code":68284},{"province":"Jawa Timur","city":"Bondowoso","district":"Klabang","urban":"Karanganyar","postal_code":68284},{"province":"Jawa Timur","city":"Bondowoso","district":"Klabang","urban":"Karang Sengon","postal_code":68284},{"province":"Jawa Timur","city":"Bondowoso","district":"Botolinggo","urban":"Botolinggo","postal_code":68284},{"province":"Jawa Timur","city":"Bondowoso","district":"Klabang","urban":"Blimbing","postal_code":68284},{"province":"Jawa Timur","city":"Bondowoso","district":"Klabang","urban":"Besuk","postal_code":68284}]