[{"province":"Jawa Timur","city":"Bondowoso","district":"Taman Krocok","urban":"Trebungan","postal_code":68291},{"province":"Jawa Timur","city":"Bondowoso","district":"Taman Krocok","urban":"Taman","postal_code":68291},{"province":"Jawa Timur","city":"Bondowoso","district":"Tegalampel","urban":"Tanggulangin","postal_code":68291},{"province":"Jawa Timur","city":"Bondowoso","district":"Tegalampel","urban":"Tegalampel","postal_code":68291},{"province":"Jawa Timur","city":"Bondowoso","district":"Taman Krocok","urban":"Sumberkokap","postal_code":68291},{"province":"Jawa Timur","city":"Bondowoso","district":"Tegalampel","urban":"Sekarputih","postal_code":68291},{"province":"Jawa Timur","city":"Bondowoso","district":"Taman Krocok","urban":"Paguan","postal_code":68291},{"province":"Jawa Timur","city":"Bondowoso","district":"Tegalampel","urban":"Purnama","postal_code":68291},{"province":"Jawa Timur","city":"Bondowoso","district":"Taman Krocok","urban":"Kretek","postal_code":68291},{"province":"Jawa Timur","city":"Bondowoso","district":"Tegalampel","urban":"Mandiro","postal_code":68291},{"province":"Jawa Timur","city":"Bondowoso","district":"Tegalampel","urban":"Klabang Agung","postal_code":68291},{"province":"Jawa Timur","city":"Bondowoso","district":"Tegalampel","urban":"Klabang","postal_code":68291},{"province":"Jawa Timur","city":"Bondowoso","district":"Taman Krocok","urban":"Kemuningan","postal_code":68291},{"province":"Jawa Timur","city":"Bondowoso","district":"Tegalampel","urban":"Karanganyar","postal_code":68291},{"province":"Jawa Timur","city":"Bondowoso","district":"Taman Krocok","urban":"Gentong","postal_code":68291}]