[{"province":"Jawa Timur","city":"Situbondo","district":"Panji","urban":"Tenggir","postal_code":68323},{"province":"Jawa Timur","city":"Situbondo","district":"Panji","urban":"Tokelan","postal_code":68323},{"province":"Jawa Timur","city":"Situbondo","district":"Panji","urban":"Panji Lor","postal_code":68323},{"province":"Jawa Timur","city":"Situbondo","district":"Panji","urban":"Sliwung","postal_code":68323},{"province":"Jawa Timur","city":"Situbondo","district":"Panji","urban":"Klampokan","postal_code":68323},{"province":"Jawa Timur","city":"Situbondo","district":"Panji","urban":"Panji Kidul","postal_code":68323},{"province":"Jawa Timur","city":"Situbondo","district":"Panji","urban":"Curah Jeru","postal_code":68323},{"province":"Jawa Timur","city":"Situbondo","district":"Panji","urban":"Juglangan","postal_code":68323},{"province":"Jawa Timur","city":"Situbondo","district":"Panji","urban":"Kayu Putih","postal_code":68323},{"province":"Jawa Timur","city":"Situbondo","district":"Panji","urban":"Battal","postal_code":68323}]