[{"province":"Jawa Timur","city":"Situbondo","district":"Kapongan","urban":"Seletreng","postal_code":68362},{"province":"Jawa Timur","city":"Situbondo","district":"Kapongan","urban":"Wonokoyo","postal_code":68362},{"province":"Jawa Timur","city":"Situbondo","district":"Kapongan","urban":"Poka&#8217;an","postal_code":68362},{"province":"Jawa Timur","city":"Situbondo","district":"Kapongan","urban":"Landangan","postal_code":68362},{"province":"Jawa Timur","city":"Situbondo","district":"Kapongan","urban":"Peleyan","postal_code":68362},{"province":"Jawa Timur","city":"Situbondo","district":"Kapongan","urban":"Kesambi Rampak","postal_code":68362},{"province":"Jawa Timur","city":"Situbondo","district":"Kapongan","urban":"Kapongan","postal_code":68362},{"province":"Jawa Timur","city":"Situbondo","district":"Kapongan","urban":"Gebangan","postal_code":68362},{"province":"Jawa Timur","city":"Situbondo","district":"Kapongan","urban":"Kandang","postal_code":68362},{"province":"Jawa Timur","city":"Situbondo","district":"Kapongan","urban":"Corak Cotok","postal_code":68362}]