[{"province":"Jawa Timur","city":"Situbondo","district":"Asembagus","urban":"Trigonco","postal_code":68373},{"province":"Jawa Timur","city":"Situbondo","district":"Asembagus","urban":"Wringin Anom","postal_code":68373},{"province":"Jawa Timur","city":"Situbondo","district":"Asembagus","urban":"Perante","postal_code":68373},{"province":"Jawa Timur","city":"Situbondo","district":"Asembagus","urban":"Kertosari","postal_code":68373},{"province":"Jawa Timur","city":"Situbondo","district":"Asembagus","urban":"Mojosari","postal_code":68373},{"province":"Jawa Timur","city":"Situbondo","district":"Asembagus","urban":"Kedonglo","postal_code":68373},{"province":"Jawa Timur","city":"Situbondo","district":"Asembagus","urban":"Awar-Awar","postal_code":68373},{"province":"Jawa Timur","city":"Situbondo","district":"Asembagus","urban":"Bantal","postal_code":68373},{"province":"Jawa Timur","city":"Situbondo","district":"Asembagus","urban":"Gudang","postal_code":68373},{"province":"Jawa Timur","city":"Situbondo","district":"Asembagus","urban":"Asembagus","postal_code":68373}]