[{"province":"Jawa Timur","city":"Banyuwangi","district":"Kabat","urban":"Sukojati","postal_code":68461},{"province":"Jawa Timur","city":"Banyuwangi","district":"Kabat","urban":"Tambong","postal_code":68461},{"province":"Jawa Timur","city":"Banyuwangi","district":"Kabat","urban":"Pondoknongko","postal_code":68461},{"province":"Jawa Timur","city":"Banyuwangi","district":"Kabat","urban":"Pendarungan","postal_code":68461},{"province":"Jawa Timur","city":"Banyuwangi","district":"Kabat","urban":"Pakistaji","postal_code":68461},{"province":"Jawa Timur","city":"Banyuwangi","district":"Kabat","urban":"Macan Putih","postal_code":68461},{"province":"Jawa Timur","city":"Banyuwangi","district":"Kabat","urban":"Labanasem","postal_code":68461},{"province":"Jawa Timur","city":"Banyuwangi","district":"Kabat","urban":"Kedayunan","postal_code":68461},{"province":"Jawa Timur","city":"Banyuwangi","district":"Kabat","urban":"Kalirejo","postal_code":68461},{"province":"Jawa Timur","city":"Banyuwangi","district":"Kabat","urban":"Gombolirang","postal_code":68461},{"province":"Jawa Timur","city":"Banyuwangi","district":"Kabat","urban":"Kabat","postal_code":68461},{"province":"Jawa Timur","city":"Banyuwangi","district":"Kabat","urban":"Bunder","postal_code":68461},{"province":"Jawa Timur","city":"Banyuwangi","district":"Kabat","urban":"Dadapan","postal_code":68461},{"province":"Jawa Timur","city":"Banyuwangi","district":"Kabat","urban":"Bareng","postal_code":68461},{"province":"Jawa Timur","city":"Banyuwangi","district":"Kabat","urban":"Benelan Lor","postal_code":68461},{"province":"Jawa Timur","city":"Banyuwangi","district":"Kabat","urban":"Badean","postal_code":68461}]