[{"province":"Jawa Timur","city":"Banyuwangi","district":"Pesanggaran","urban":"Sumberagung","postal_code":68488},{"province":"Jawa Timur","city":"Banyuwangi","district":"Pesanggaran","urban":"Sumbermulyo","postal_code":68488},{"province":"Jawa Timur","city":"Banyuwangi","district":"Siliragung","urban":"Seneporejo","postal_code":68488},{"province":"Jawa Timur","city":"Banyuwangi","district":"Siliragung","urban":"Siliragung","postal_code":68488},{"province":"Jawa Timur","city":"Banyuwangi","district":"Siliragung","urban":"Kesilir","postal_code":68488},{"province":"Jawa Timur","city":"Banyuwangi","district":"Pesanggaran","urban":"Pesanggaran","postal_code":68488},{"province":"Jawa Timur","city":"Banyuwangi","district":"Pesanggaran","urban":"Sarongan","postal_code":68488},{"province":"Jawa Timur","city":"Banyuwangi","district":"Pesanggaran","urban":"Kandangan","postal_code":68488},{"province":"Jawa Timur","city":"Banyuwangi","district":"Siliragung","urban":"Barurejo","postal_code":68488},{"province":"Jawa Timur","city":"Banyuwangi","district":"Siliragung","urban":"Buluagung","postal_code":68488}]