[{"province":"Jawa Timur","city":"Banyuwangi","district":"Tegaldlimo","urban":"Wringinpitu","postal_code":68484},{"province":"Jawa Timur","city":"Banyuwangi","district":"Tegaldlimo","urban":"Tegaldlimo","postal_code":68484},{"province":"Jawa Timur","city":"Banyuwangi","district":"Tegaldlimo","urban":"Purwoasri","postal_code":68484},{"province":"Jawa Timur","city":"Banyuwangi","district":"Tegaldlimo","urban":"Purwoagung","postal_code":68484},{"province":"Jawa Timur","city":"Banyuwangi","district":"Tegaldlimo","urban":"Kendalrejo","postal_code":68484},{"province":"Jawa Timur","city":"Banyuwangi","district":"Tegaldlimo","urban":"Kedungwungu","postal_code":68484},{"province":"Jawa Timur","city":"Banyuwangi","district":"Tegaldlimo","urban":"Kedunggebang","postal_code":68484},{"province":"Jawa Timur","city":"Banyuwangi","district":"Tegaldlimo","urban":"Kedungasri","postal_code":68484},{"province":"Jawa Timur","city":"Banyuwangi","district":"Tegaldlimo","urban":"Kalipait","postal_code":68484}]