[{"province":"Jawa Timur","city":"Bangkalan","district":"Kwanyar","urban":"Sumur Kuning (Somor Koneng)","postal_code":69163},{"province":"Jawa Timur","city":"Bangkalan","district":"Kwanyar","urban":"Tebul","postal_code":69163},{"province":"Jawa Timur","city":"Bangkalan","district":"Labang","urban":"Sukolilo Barat","postal_code":69163},{"province":"Jawa Timur","city":"Bangkalan","district":"Labang","urban":"Sukolilo Timur","postal_code":69163},{"province":"Jawa Timur","city":"Bangkalan","district":"Labang","urban":"Sendang Daya/Dajah","postal_code":69163},{"province":"Jawa Timur","city":"Bangkalan","district":"Labang","urban":"Sendang Laok","postal_code":69163},{"province":"Jawa Timur","city":"Bangkalan","district":"Labang","urban":"Petapan","postal_code":69163},{"province":"Jawa Timur","city":"Bangkalan","district":"Kwanyar","urban":"Pasanggrahan (Pesanggrahan)","postal_code":69163},{"province":"Jawa Timur","city":"Bangkalan","district":"Labang","urban":"Pangpong","postal_code":69163},{"province":"Jawa Timur","city":"Bangkalan","district":"Kwanyar","urban":"Paoran","postal_code":69163},{"province":"Jawa Timur","city":"Bangkalan","district":"Kwanyar","urban":"Pandanan","postal_code":69163},{"province":"Jawa Timur","city":"Bangkalan","district":"Labang","urban":"Morkepek","postal_code":69163},{"province":"Jawa Timur","city":"Bangkalan","district":"Kwanyar","urban":"Morombuh","postal_code":69163},{"province":"Jawa Timur","city":"Bangkalan","district":"Labang","urban":"Labang","postal_code":69163},{"province":"Jawa Timur","city":"Bangkalan","district":"Kwanyar","urban":"Ketetang","postal_code":69163},{"province":"Jawa Timur","city":"Bangkalan","district":"Kwanyar","urban":"Kwanyar Barat","postal_code":69163},{"province":"Jawa Timur","city":"Bangkalan","district":"Labang","urban":"Kesek","postal_code":69163},{"province":"Jawa Timur","city":"Bangkalan","district":"Kwanyar","urban":"Karang Entang/Gentang","postal_code":69163},{"province":"Jawa Timur","city":"Bangkalan","district":"Labang","urban":"Jukong","postal_code":69163},{"province":"Jawa Timur","city":"Bangkalan","district":"Kwanyar","urban":"Karang Anyar","postal_code":69163},{"province":"Jawa Timur","city":"Bangkalan","district":"Kwanyar","urban":"Gunong/Gunung Sereng","postal_code":69163},{"province":"Jawa Timur","city":"Bangkalan","district":"Kwanyar","urban":"Janteh","postal_code":69163},{"province":"Jawa Timur","city":"Bangkalan","district":"Kwanyar","urban":"Duwek Buter","postal_code":69163},{"province":"Jawa Timur","city":"Bangkalan","district":"Kwanyar","urban":"Dlemer","postal_code":69163},{"province":"Jawa Timur","city":"Bangkalan","district":"Labang","urban":"Bringin (Bringen)","postal_code":69163},{"province":"Jawa Timur","city":"Bangkalan","district":"Labang","urban":"Bunajih","postal_code":69163},{"province":"Jawa Timur","city":"Bangkalan","district":"Kwanyar","urban":"Batah Barat","postal_code":69163},{"province":"Jawa Timur","city":"Bangkalan","district":"Kwanyar","urban":"Batah Timur","postal_code":69163},{"province":"Jawa Timur","city":"Bangkalan","district":"Labang","urban":"Ba&#8217;engas","postal_code":69163}]