[{"province":"Jawa Timur","city":"Sampang","district":"Robatal","urban":"Tragih","postal_code":69254},{"province":"Jawa Timur","city":"Sampang","district":"Robatal","urban":"Torjunan","postal_code":69254},{"province":"Jawa Timur","city":"Sampang","district":"Karang Penang","urban":"Tlambah","postal_code":69254},{"province":"Jawa Timur","city":"Sampang","district":"Robatal","urban":"Sawah Tengah","postal_code":69254},{"province":"Jawa Timur","city":"Sampang","district":"Robatal","urban":"Robatal","postal_code":69254},{"province":"Jawa Timur","city":"Sampang","district":"Karang Penang","urban":"Poreh","postal_code":69254},{"province":"Jawa Timur","city":"Sampang","district":"Robatal","urban":"Pandiyangan","postal_code":69254},{"province":"Jawa Timur","city":"Sampang","district":"Karang Penang","urban":"Karang Penang Onjur","postal_code":69254},{"province":"Jawa Timur","city":"Sampang","district":"Robatal","urban":"Lepelle","postal_code":69254},{"province":"Jawa Timur","city":"Sampang","district":"Karang Penang","urban":"Karang Penang Oloh","postal_code":69254},{"province":"Jawa Timur","city":"Sampang","district":"Robatal","urban":"Jelgung","postal_code":69254},{"province":"Jawa Timur","city":"Sampang","district":"Robatal","urban":"Gunung Rancak","postal_code":69254},{"province":"Jawa Timur","city":"Sampang","district":"Karang Penang","urban":"Gunung Kesan","postal_code":69254},{"province":"Jawa Timur","city":"Sampang","district":"Karang Penang","urban":"Bulmatet","postal_code":69254},{"province":"Jawa Timur","city":"Sampang","district":"Karang Penang","urban":"Bluuran (Blu Uran)","postal_code":69254},{"province":"Jawa Timur","city":"Sampang","district":"Robatal","urban":"Bapelle","postal_code":69254}]