[{"province":"Jawa Timur","city":"Sampang","district":"Tambelangan","urban":"Tambelangan","postal_code":69253},{"province":"Jawa Timur","city":"Sampang","district":"Tambelangan","urban":"Somber","postal_code":69253},{"province":"Jawa Timur","city":"Sampang","district":"Tambelangan","urban":"Mambulu Barat","postal_code":69253},{"province":"Jawa Timur","city":"Sampang","district":"Tambelangan","urban":"Samaran","postal_code":69253},{"province":"Jawa Timur","city":"Sampang","district":"Tambelangan","urban":"Karang Anyar","postal_code":69253},{"province":"Jawa Timur","city":"Sampang","district":"Tambelangan","urban":"Birem","postal_code":69253},{"province":"Jawa Timur","city":"Sampang","district":"Tambelangan","urban":"Batorasang (Baturasang)","postal_code":69253},{"province":"Jawa Timur","city":"Sampang","district":"Tambelangan","urban":"Beringin (Bringin)","postal_code":69253},{"province":"Jawa Timur","city":"Sampang","district":"Tambelangan","urban":"Banjar Billah","postal_code":69253},{"province":"Jawa Timur","city":"Sampang","district":"Tambelangan","urban":"Barung Gagah","postal_code":69253}]