[{"province":"Jawa Timur","city":"Sampang","district":"Torjun","urban":"Torjun","postal_code":69271},{"province":"Jawa Timur","city":"Sampang","district":"Torjun","urban":"Tanah Merah","postal_code":69271},{"province":"Jawa Timur","city":"Sampang","district":"Pangarengan","urban":"Ragung","postal_code":69271},{"province":"Jawa Timur","city":"Sampang","district":"Torjun","urban":"Patapan","postal_code":69271},{"province":"Jawa Timur","city":"Sampang","district":"Torjun","urban":"Patarongan","postal_code":69271},{"province":"Jawa Timur","city":"Sampang","district":"Pangarengan","urban":"Panyerangan (Panyirangan)","postal_code":69271},{"province":"Jawa Timur","city":"Sampang","district":"Torjun","urban":"Pangongsean","postal_code":69271},{"province":"Jawa Timur","city":"Sampang","district":"Pangarengan","urban":"Pangarengan","postal_code":69271},{"province":"Jawa Timur","city":"Sampang","district":"Pangarengan","urban":"Pacanggaan","postal_code":69271},{"province":"Jawa Timur","city":"Sampang","district":"Torjun","urban":"Krampon","postal_code":69271},{"province":"Jawa Timur","city":"Sampang","district":"Torjun","urban":"Kodak","postal_code":69271},{"province":"Jawa Timur","city":"Sampang","district":"Torjun","urban":"Kara","postal_code":69271},{"province":"Jawa Timur","city":"Sampang","district":"Torjun","urban":"Kanjar","postal_code":69271},{"province":"Jawa Timur","city":"Sampang","district":"Torjun","urban":"Jeruk Porot","postal_code":69271},{"province":"Jawa Timur","city":"Sampang","district":"Pangarengan","urban":"Gulbung","postal_code":69271},{"province":"Jawa Timur","city":"Sampang","district":"Torjun","urban":"Dulang","postal_code":69271},{"province":"Jawa Timur","city":"Sampang","district":"Torjun","urban":"Bringin Nonggal","postal_code":69271},{"province":"Jawa Timur","city":"Sampang","district":"Pangarengan","urban":"Apaan","postal_code":69271}]