[{"province":"Jawa Timur","city":"Sampang","district":"Camplong","urban":"Taddan","postal_code":69281},{"province":"Jawa Timur","city":"Sampang","district":"Camplong","urban":"Tambaan","postal_code":69281},{"province":"Jawa Timur","city":"Sampang","district":"Camplong","urban":"Sejati","postal_code":69281},{"province":"Jawa Timur","city":"Sampang","district":"Camplong","urban":"Rabasan","postal_code":69281},{"province":"Jawa Timur","city":"Sampang","district":"Camplong","urban":"Prajjan","postal_code":69281},{"province":"Jawa Timur","city":"Sampang","district":"Camplong","urban":"Plampaan","postal_code":69281},{"province":"Jawa Timur","city":"Sampang","district":"Camplong","urban":"Pamolaan","postal_code":69281},{"province":"Jawa Timur","city":"Sampang","district":"Camplong","urban":"Madupat","postal_code":69281},{"province":"Jawa Timur","city":"Sampang","district":"Camplong","urban":"Dharma Tanjung","postal_code":69281},{"province":"Jawa Timur","city":"Sampang","district":"Camplong","urban":"Dharma Camplong","postal_code":69281},{"province":"Jawa Timur","city":"Sampang","district":"Camplong","urban":"Batu Karang","postal_code":69281},{"province":"Jawa Timur","city":"Sampang","district":"Camplong","urban":"Banjar Talela","postal_code":69281},{"province":"Jawa Timur","city":"Sampang","district":"Camplong","urban":"Banjar Tabulu","postal_code":69281},{"province":"Jawa Timur","city":"Sampang","district":"Camplong","urban":"Anggersek","postal_code":69281}]