[{"province":"Jawa Timur","city":"Pamekasan","district":"Waru","urban":"Waru Barat","postal_code":69353},{"province":"Jawa Timur","city":"Pamekasan","district":"Waru","urban":"Waru Timur","postal_code":69353},{"province":"Jawa Timur","city":"Pamekasan","district":"Waru","urban":"Tegangser Laok (Tagangser Laok)","postal_code":69353},{"province":"Jawa Timur","city":"Pamekasan","district":"Waru","urban":"Tlonto Ares","postal_code":69353},{"province":"Jawa Timur","city":"Pamekasan","district":"Waru","urban":"Tampojung Pregi","postal_code":69353},{"province":"Jawa Timur","city":"Pamekasan","district":"Waru","urban":"Tampojung Tengah","postal_code":69353},{"province":"Jawa Timur","city":"Pamekasan","district":"Waru","urban":"Tampojung Tenggina","postal_code":69353},{"province":"Jawa Timur","city":"Pamekasan","district":"Waru","urban":"Sumber Waru","postal_code":69353},{"province":"Jawa Timur","city":"Pamekasan","district":"Waru","urban":"Tampojung Guwa","postal_code":69353},{"province":"Jawa Timur","city":"Pamekasan","district":"Waru","urban":"Ragang","postal_code":69353},{"province":"Jawa Timur","city":"Pamekasan","district":"Waru","urban":"Sana Laok","postal_code":69353},{"province":"Jawa Timur","city":"Pamekasan","district":"Waru","urban":"Bajur","postal_code":69353}]