[{"province":"Jawa Timur","city":"Pamekasan","district":"Pakong","urban":"Somalang","postal_code":69352},{"province":"Jawa Timur","city":"Pamekasan","district":"Pakong","urban":"Seddur","postal_code":69352},{"province":"Jawa Timur","city":"Pamekasan","district":"Pakong","urban":"Palalang","postal_code":69352},{"province":"Jawa Timur","city":"Pamekasan","district":"Pakong","urban":"Lebbek","postal_code":69352},{"province":"Jawa Timur","city":"Pamekasan","district":"Pakong","urban":"Pakong","postal_code":69352},{"province":"Jawa Timur","city":"Pamekasan","district":"Pakong","urban":"Klompang Barat","postal_code":69352},{"province":"Jawa Timur","city":"Pamekasan","district":"Pakong","urban":"Klompang Timur","postal_code":69352},{"province":"Jawa Timur","city":"Pamekasan","district":"Pakong","urban":"Cenlecen","postal_code":69352},{"province":"Jawa Timur","city":"Pamekasan","district":"Pakong","urban":"Bandungan","postal_code":69352},{"province":"Jawa Timur","city":"Pamekasan","district":"Pakong","urban":"Bicorong","postal_code":69352},{"province":"Jawa Timur","city":"Pamekasan","district":"Pakong","urban":"Banban","postal_code":69352},{"province":"Jawa Timur","city":"Pamekasan","district":"Pakong","urban":"Banban","postal_code":69352}]