[{"province":"Jawa Timur","city":"Pamekasan","district":"Batumarmar","urban":"Tamberu","postal_code":69354},{"province":"Jawa Timur","city":"Pamekasan","district":"Batumarmar","urban":"Ponjanan Timur","postal_code":69354},{"province":"Jawa Timur","city":"Pamekasan","district":"Batumarmar","urban":"Ponjanan Barat","postal_code":69354},{"province":"Jawa Timur","city":"Pamekasan","district":"Batumarmar","urban":"Pangereman","postal_code":69354},{"province":"Jawa Timur","city":"Pamekasan","district":"Batumarmar","urban":"Lesong Laok","postal_code":69354},{"province":"Jawa Timur","city":"Pamekasan","district":"Batumarmar","urban":"Lesong Daja","postal_code":69354},{"province":"Jawa Timur","city":"Pamekasan","district":"Batumarmar","urban":"Kapong","postal_code":69354},{"province":"Jawa Timur","city":"Pamekasan","district":"Batumarmar","urban":"Bujur Timur","postal_code":69354},{"province":"Jawa Timur","city":"Pamekasan","district":"Batumarmar","urban":"Bujur Tengah","postal_code":69354},{"province":"Jawa Timur","city":"Pamekasan","district":"Batumarmar","urban":"Blaban","postal_code":69354},{"province":"Jawa Timur","city":"Pamekasan","district":"Batumarmar","urban":"Bujur Barat","postal_code":69354},{"province":"Jawa Timur","city":"Pamekasan","district":"Batumarmar","urban":"Bangsereh","postal_code":69354},{"province":"Jawa Timur","city":"Pamekasan","district":"Batumarmar","urban":"Batu Bintang","postal_code":69354}]