[{"province":"Jawa Timur","city":"Pamekasan","district":"Proppo","urban":"Toket","postal_code":69363},{"province":"Jawa Timur","city":"Pamekasan","district":"Proppo","urban":"Tlangoh","postal_code":69363},{"province":"Jawa Timur","city":"Pamekasan","district":"Proppo","urban":"Tattangoh","postal_code":69363},{"province":"Jawa Timur","city":"Pamekasan","district":"Proppo","urban":"Srambah","postal_code":69363},{"province":"Jawa Timur","city":"Pamekasan","district":"Proppo","urban":"Samatan","postal_code":69363},{"province":"Jawa Timur","city":"Pamekasan","district":"Proppo","urban":"Samiran","postal_code":69363},{"province":"Jawa Timur","city":"Pamekasan","district":"Proppo","urban":"Rang Perang Laok","postal_code":69363},{"province":"Jawa Timur","city":"Pamekasan","district":"Proppo","urban":"Proppo","postal_code":69363},{"province":"Jawa Timur","city":"Pamekasan","district":"Proppo","urban":"Rang Perang Daya","postal_code":69363},{"province":"Jawa Timur","city":"Pamekasan","district":"Proppo","urban":"Pangurayan","postal_code":69363},{"province":"Jawa Timur","city":"Pamekasan","district":"Proppo","urban":"Pangtonggal","postal_code":69363},{"province":"Jawa Timur","city":"Pamekasan","district":"Proppo","urban":"Pangbatok","postal_code":69363},{"province":"Jawa Timur","city":"Pamekasan","district":"Proppo","urban":"Panglemah","postal_code":69363},{"province":"Jawa Timur","city":"Pamekasan","district":"Proppo","urban":"Mapper","postal_code":69363},{"province":"Jawa Timur","city":"Pamekasan","district":"Proppo","urban":"Panaguan","postal_code":69363},{"province":"Jawa Timur","city":"Pamekasan","district":"Proppo","urban":"Klampar","postal_code":69363},{"province":"Jawa Timur","city":"Pamekasan","district":"Proppo","urban":"Kodik","postal_code":69363},{"province":"Jawa Timur","city":"Pamekasan","district":"Proppo","urban":"Lenteng","postal_code":69363},{"province":"Jawa Timur","city":"Pamekasan","district":"Proppo","urban":"Karanganyar","postal_code":69363},{"province":"Jawa Timur","city":"Pamekasan","district":"Proppo","urban":"Jambringin","postal_code":69363},{"province":"Jawa Timur","city":"Pamekasan","district":"Proppo","urban":"Candi Burung","postal_code":69363},{"province":"Jawa Timur","city":"Pamekasan","district":"Proppo","urban":"Gro&#8217;om","postal_code":69363},{"province":"Jawa Timur","city":"Pamekasan","district":"Proppo","urban":"Billa&#8217;an","postal_code":69363},{"province":"Jawa Timur","city":"Pamekasan","district":"Proppo","urban":"Campor","postal_code":69363},{"province":"Jawa Timur","city":"Pamekasan","district":"Proppo","urban":"Banyu Bulu","postal_code":69363},{"province":"Jawa Timur","city":"Pamekasan","district":"Proppo","urban":"Batu Kalangan","postal_code":69363},{"province":"Jawa Timur","city":"Pamekasan","district":"Proppo","urban":"Badung","postal_code":69363}]