[{"province":"Jawa Timur","city":"Sumenep","district":"Pasongsongan","urban":"Rajun","postal_code":69457},{"province":"Jawa Timur","city":"Sumenep","district":"Pasongsongan","urban":"Soddara","postal_code":69457},{"province":"Jawa Timur","city":"Sumenep","district":"Pasongsongan","urban":"Prancak","postal_code":69457},{"province":"Jawa Timur","city":"Sumenep","district":"Pasongsongan","urban":"Padangdangan","postal_code":69457},{"province":"Jawa Timur","city":"Sumenep","district":"Pasongsongan","urban":"Panaongan","postal_code":69457},{"province":"Jawa Timur","city":"Sumenep","district":"Pasongsongan","urban":"Pasongsongan","postal_code":69457},{"province":"Jawa Timur","city":"Sumenep","district":"Pasongsongan","urban":"Montorna","postal_code":69457},{"province":"Jawa Timur","city":"Sumenep","district":"Pasongsongan","urban":"Lebeng Timur","postal_code":69457},{"province":"Jawa Timur","city":"Sumenep","district":"Pasongsongan","urban":"Lebeng Barat","postal_code":69457},{"province":"Jawa Timur","city":"Sumenep","district":"Pasongsongan","urban":"Campaka","postal_code":69457}]