[{"province":"Jawa Timur","city":"Sumenep","district":"Dungkek","urban":"Romben Rana","postal_code":69474},{"province":"Jawa Timur","city":"Sumenep","district":"Dungkek","urban":"Tamansare","postal_code":69474},{"province":"Jawa Timur","city":"Sumenep","district":"Dungkek","urban":"Romben Barat","postal_code":69474},{"province":"Jawa Timur","city":"Sumenep","district":"Dungkek","urban":"Romben Guna","postal_code":69474},{"province":"Jawa Timur","city":"Sumenep","district":"Dungkek","urban":"Lapa Taman","postal_code":69474},{"province":"Jawa Timur","city":"Sumenep","district":"Dungkek","urban":"Lapa Daya","postal_code":69474},{"province":"Jawa Timur","city":"Sumenep","district":"Dungkek","urban":"Lapa Laok","postal_code":69474},{"province":"Jawa Timur","city":"Sumenep","district":"Dungkek","urban":"Dungkek","postal_code":69474},{"province":"Jawa Timur","city":"Sumenep","district":"Dungkek","urban":"Jadung","postal_code":69474},{"province":"Jawa Timur","city":"Sumenep","district":"Dungkek","urban":"Bunpenang","postal_code":69474},{"province":"Jawa Timur","city":"Sumenep","district":"Dungkek","urban":"Candi","postal_code":69474},{"province":"Jawa Timur","city":"Sumenep","district":"Dungkek","urban":"Bungin Bungin","postal_code":69474},{"province":"Jawa Timur","city":"Sumenep","district":"Dungkek","urban":"Bicabi","postal_code":69474},{"province":"Jawa Timur","city":"Sumenep","district":"Dungkek","urban":"Banraas","postal_code":69474},{"province":"Jawa Timur","city":"Sumenep","district":"Dungkek","urban":"Bancamara","postal_code":69474}]