[{"province":"Jawa Timur","city":"Sumenep","district":"Kangayan","urban":"Timur Janjang","postal_code":69491},{"province":"Jawa Timur","city":"Sumenep","district":"Kangayan","urban":"Toerjek (Torjek)","postal_code":69491},{"province":"Jawa Timur","city":"Sumenep","district":"Kangayan","urban":"Tembayangan","postal_code":69491},{"province":"Jawa Timur","city":"Sumenep","district":"Arjasa","urban":"Sumbernangka","postal_code":69491},{"province":"Jawa Timur","city":"Sumenep","district":"Arjasa","urban":"Sawahsumur","postal_code":69491},{"province":"Jawa Timur","city":"Sumenep","district":"Kangayan","urban":"Saobi","postal_code":69491},{"province":"Jawa Timur","city":"Sumenep","district":"Arjasa","urban":"Sambakati","postal_code":69491},{"province":"Jawa Timur","city":"Sumenep","district":"Arjasa","urban":"Pandeman","postal_code":69491},{"province":"Jawa Timur","city":"Sumenep","district":"Arjasa","urban":"Paseraman","postal_code":69491},{"province":"Jawa Timur","city":"Sumenep","district":"Arjasa","urban":"Pajenangger","postal_code":69491},{"province":"Jawa Timur","city":"Sumenep","district":"Arjasa","urban":"Laok Jangjang","postal_code":69491},{"province":"Jawa Timur","city":"Sumenep","district":"Arjasa","urban":"Pabian","postal_code":69491},{"province":"Jawa Timur","city":"Sumenep","district":"Arjasa","urban":"Kolo Kolo","postal_code":69491},{"province":"Jawa Timur","city":"Sumenep","district":"Kangayan","urban":"Kangayan","postal_code":69491},{"province":"Jawa Timur","city":"Sumenep","district":"Arjasa","urban":"Kalisangka","postal_code":69491},{"province":"Jawa Timur","city":"Sumenep","district":"Arjasa","urban":"Kalikatak","postal_code":69491},{"province":"Jawa Timur","city":"Sumenep","district":"Kangayan","urban":"Jukong Jukong","postal_code":69491},{"province":"Jawa Timur","city":"Sumenep","district":"Arjasa","urban":"Kalianyar","postal_code":69491},{"province":"Jawa Timur","city":"Sumenep","district":"Arjasa","urban":"Gelaman","postal_code":69491},{"province":"Jawa Timur","city":"Sumenep","district":"Arjasa","urban":"Duko","postal_code":69491},{"province":"Jawa Timur","city":"Sumenep","district":"Kangayan","urban":"Daandung","postal_code":69491},{"province":"Jawa Timur","city":"Sumenep","district":"Arjasa","urban":"Buddi","postal_code":69491},{"province":"Jawa Timur","city":"Sumenep","district":"Kangayan","urban":"Cangkramaan (Cangkreman)","postal_code":69491},{"province":"Jawa Timur","city":"Sumenep","district":"Arjasa","urban":"Bilis Bilis","postal_code":69491},{"province":"Jawa Timur","city":"Sumenep","district":"Kangayan","urban":"Batuputih","postal_code":69491},{"province":"Jawa Timur","city":"Sumenep","district":"Arjasa","urban":"Arjasa","postal_code":69491},{"province":"Jawa Timur","city":"Sumenep","district":"Arjasa","urban":"Angkatan","postal_code":69491},{"province":"Jawa Timur","city":"Sumenep","district":"Arjasa","urban":"Angon Angon","postal_code":69491}]