[{"province":"Kalimantan Selatan","city":"Barito Kuala","district":"Bakumpai","urban":"Sei/Sungai Lirik","postal_code":70513},{"province":"Kalimantan Selatan","city":"Barito Kuala","district":"Marabahan","urban":"Ulu Benteng","postal_code":70513},{"province":"Kalimantan Selatan","city":"Barito Kuala","district":"Bakumpai","urban":"Murung Raya","postal_code":70513},{"province":"Kalimantan Selatan","city":"Barito Kuala","district":"Bakumpai","urban":"Palingkau","postal_code":70513},{"province":"Kalimantan Selatan","city":"Barito Kuala","district":"Marabahan","urban":"Karya Maju","postal_code":70513},{"province":"Kalimantan Selatan","city":"Barito Kuala","district":"Bakumpai","urban":"Benua Anyar","postal_code":70513},{"province":"Kalimantan Selatan","city":"Barito Kuala","district":"Bakumpai","urban":"Balukung","postal_code":70513},{"province":"Kalimantan Selatan","city":"Barito Kuala","district":"Bakumpai","urban":"Banitan","postal_code":70513},{"province":"Kalimantan Selatan","city":"Barito Kuala","district":"Bakumpai","urban":"Batik","postal_code":70513},{"province":"Kalimantan Selatan","city":"Barito Kuala","district":"Bakumpai","urban":"Bahalayung","postal_code":70513}]