[{"province":"Kalimantan Selatan","city":"Barito Kuala","district":"Rantau Badauh","urban":"Sinar Baru","postal_code":70561},{"province":"Kalimantan Selatan","city":"Barito Kuala","district":"Rantau Badauh","urban":"Sei/Sungai Sahurai","postal_code":70561},{"province":"Kalimantan Selatan","city":"Barito Kuala","district":"Rantau Badauh","urban":"Simpang Arja","postal_code":70561},{"province":"Kalimantan Selatan","city":"Barito Kuala","district":"Rantau Badauh","urban":"Sei/Sungai Gampa Asahi","postal_code":70561},{"province":"Kalimantan Selatan","city":"Barito Kuala","district":"Rantau Badauh","urban":"Sei/Sungai Pantai","postal_code":70561},{"province":"Kalimantan Selatan","city":"Barito Kuala","district":"Rantau Badauh","urban":"Sei/Sungai Bamban","postal_code":70561},{"province":"Kalimantan Selatan","city":"Barito Kuala","district":"Rantau Badauh","urban":"Sei/Sungai Gampa","postal_code":70561},{"province":"Kalimantan Selatan","city":"Barito Kuala","district":"Rantau Badauh","urban":"Pindahan Baru","postal_code":70561},{"province":"Kalimantan Selatan","city":"Barito Kuala","district":"Rantau Badauh","urban":"Danda Jaya","postal_code":70561}]