[{"province":"Kalimantan Selatan","city":"Banjar","district":"Martapura Kota","urban":"Tambak Baru Ulu","postal_code":70619},{"province":"Kalimantan Selatan","city":"Banjar","district":"Martapura Kota","urban":"Tungkaran","postal_code":70619},{"province":"Kalimantan Selatan","city":"Banjar","district":"Martapura Kota","urban":"Tambak Baru","postal_code":70619},{"province":"Kalimantan Selatan","city":"Banjar","district":"Martapura Kota","urban":"Tambak Baru Ilir","postal_code":70619},{"province":"Kalimantan Selatan","city":"Banjar","district":"Martapura Kota","urban":"Sekumpul","postal_code":70619},{"province":"Kalimantan Selatan","city":"Banjar","district":"Martapura Kota","urban":"Pesayangan","postal_code":70619},{"province":"Kalimantan Selatan","city":"Banjar","district":"Martapura Kota","urban":"Pasayangan Selatan","postal_code":70619},{"province":"Kalimantan Selatan","city":"Banjar","district":"Martapura Kota","urban":"Pasayangan Utara","postal_code":70619},{"province":"Kalimantan Selatan","city":"Banjar","district":"Martapura Kota","urban":"Labuan Tabu","postal_code":70619},{"province":"Kalimantan Selatan","city":"Banjar","district":"Martapura Kota","urban":"Pasayangan Barat","postal_code":70619},{"province":"Kalimantan Selatan","city":"Banjar","district":"Martapura Kota","urban":"Bincau Muara","postal_code":70619},{"province":"Kalimantan Selatan","city":"Banjar","district":"Martapura Kota","urban":"Indra Sari","postal_code":70619},{"province":"Kalimantan Selatan","city":"Banjar","district":"Martapura Kota","urban":"Bincau","postal_code":70619}]