[{"province":"Kalimantan Selatan","city":"Banjar","district":"Tatah Makmur","urban":"Tatah Layap","postal_code":70654},{"province":"Kalimantan Selatan","city":"Banjar","district":"Tatah Makmur","urban":"Taibah Raya","postal_code":70654},{"province":"Kalimantan Selatan","city":"Banjar","district":"Tatah Makmur","urban":"Tampang Awang","postal_code":70654},{"province":"Kalimantan Selatan","city":"Banjar","district":"Tatah Makmur","urban":"Tatah Bangkal","postal_code":70654},{"province":"Kalimantan Selatan","city":"Banjar","district":"Kertak Hanyar","urban":"Simpang Empat","postal_code":70654},{"province":"Kalimantan Selatan","city":"Banjar","district":"Tatah Makmur","urban":"Pemangkih Darat","postal_code":70654},{"province":"Kalimantan Selatan","city":"Banjar","district":"Tatah Makmur","urban":"Pemangkih Tengah","postal_code":70654},{"province":"Kalimantan Selatan","city":"Banjar","district":"Kertak Hanyar","urban":"Sei/Sungai Lakum","postal_code":70654},{"province":"Kalimantan Selatan","city":"Banjar","district":"Tatah Makmur","urban":"Pemangkih Baru","postal_code":70654},{"province":"Kalimantan Selatan","city":"Banjar","district":"Kertak Hanyar","urban":"Pemangkih Baru","postal_code":70654},{"province":"Kalimantan Selatan","city":"Banjar","district":"Kertak Hanyar","urban":"Pasar Kemis","postal_code":70654},{"province":"Kalimantan Selatan","city":"Banjar","district":"Tatah Makmur","urban":"Mekar Sari","postal_code":70654},{"province":"Kalimantan Selatan","city":"Banjar","district":"Tatah Makmur","urban":"Pandan Sari","postal_code":70654},{"province":"Kalimantan Selatan","city":"Banjar","district":"Kertak Hanyar","urban":"Mandar Sari","postal_code":70654},{"province":"Kalimantan Selatan","city":"Banjar","district":"Kertak Hanyar","urban":"Mekar Raya","postal_code":70654},{"province":"Kalimantan Selatan","city":"Banjar","district":"Kertak Hanyar","urban":"Manarap Baru","postal_code":70654},{"province":"Kalimantan Selatan","city":"Banjar","district":"Kertak Hanyar","urban":"Manarap Lama","postal_code":70654},{"province":"Kalimantan Selatan","city":"Banjar","district":"Kertak Hanyar","urban":"Manarap Tengah","postal_code":70654},{"province":"Kalimantan Selatan","city":"Banjar","district":"Tatah Makmur","urban":"Layap Baru","postal_code":70654},{"province":"Kalimantan Selatan","city":"Banjar","district":"Tatah Makmur","urban":"Jaruju Laut","postal_code":70654},{"province":"Kalimantan Selatan","city":"Banjar","district":"Kertak Hanyar","urban":"Kertak Hanyar I","postal_code":70654},{"province":"Kalimantan Selatan","city":"Banjar","district":"Kertak Hanyar","urban":"Kertakhanyar II","postal_code":70654},{"province":"Kalimantan Selatan","city":"Banjar","district":"Tatah Makmur","urban":"Jaruju","postal_code":70654},{"province":"Kalimantan Selatan","city":"Banjar","district":"Kertak Hanyar","urban":"Benua Hanyar (Banua Hanyar)","postal_code":70654},{"province":"Kalimantan Selatan","city":"Banjar","district":"Kertak Hanyar","urban":"Belayung Baru","postal_code":70654},{"province":"Kalimantan Selatan","city":"Banjar","district":"Tatah Makmur","urban":"Bangkal Tengah","postal_code":70654}]