[{"province":"Kalimantan Selatan","city":"Banjar","district":"Sei/Sungai Tabuk","urban":"Tajau Landung","postal_code":70653},{"province":"Kalimantan Selatan","city":"Banjar","district":"Sei/Sungai Tabuk","urban":"Sei/Sungai Tabuk Kota","postal_code":70653},{"province":"Kalimantan Selatan","city":"Banjar","district":"Sei/Sungai Tabuk","urban":"Sei/Sungai Tandipah","postal_code":70653},{"province":"Kalimantan Selatan","city":"Banjar","district":"Sei/Sungai Tabuk","urban":"Sei/Sungai Tabuk Keramat","postal_code":70653},{"province":"Kalimantan Selatan","city":"Banjar","district":"Simpang Empat","urban":"Sei/Sungai Tabuk","postal_code":70653},{"province":"Kalimantan Selatan","city":"Banjar","district":"Sei/Sungai Tabuk","urban":"Sei/Sungai Pinang Lama","postal_code":70653},{"province":"Kalimantan Selatan","city":"Banjar","district":"Sei/Sungai Tabuk","urban":"Sei/Sungai Lulut","postal_code":70653},{"province":"Kalimantan Selatan","city":"Banjar","district":"Sei/Sungai Tabuk","urban":"Sei/Sungai Pinang Baru","postal_code":70653},{"province":"Kalimantan Selatan","city":"Banjar","district":"Sei/Sungai Tabuk","urban":"Sei/Sungai Bangkal","postal_code":70653},{"province":"Kalimantan Selatan","city":"Banjar","district":"Sei/Sungai Tabuk","urban":"Pembantanan","postal_code":70653},{"province":"Kalimantan Selatan","city":"Banjar","district":"Sei/Sungai Tabuk","urban":"Sei/Sungai Bakung","postal_code":70653},{"province":"Kalimantan Selatan","city":"Banjar","district":"Sei/Sungai Tabuk","urban":"Pematang Panjang","postal_code":70653},{"province":"Kalimantan Selatan","city":"Banjar","district":"Sei/Sungai Tabuk","urban":"Pemakuan","postal_code":70653},{"province":"Kalimantan Selatan","city":"Banjar","district":"Sei/Sungai Tabuk","urban":"Paku Alam","postal_code":70653},{"province":"Kalimantan Selatan","city":"Banjar","district":"Sei/Sungai Tabuk","urban":"Pejambuan","postal_code":70653},{"province":"Kalimantan Selatan","city":"Banjar","district":"Sei/Sungai Tabuk","urban":"Lokbuntar","postal_code":70653},{"province":"Kalimantan Selatan","city":"Banjar","district":"Sei/Sungai Tabuk","urban":"Lok Baintan","postal_code":70653},{"province":"Kalimantan Selatan","city":"Banjar","district":"Sei/Sungai Tabuk","urban":"Lok Baintan Dalam","postal_code":70653},{"province":"Kalimantan Selatan","city":"Banjar","district":"Sei/Sungai Tabuk","urban":"Keliling Benteng Ilir","postal_code":70653},{"province":"Kalimantan Selatan","city":"Banjar","district":"Sei/Sungai Tabuk","urban":"Gudang Hirang","postal_code":70653},{"province":"Kalimantan Selatan","city":"Banjar","district":"Sei/Sungai Tabuk","urban":"Gudang Tengah","postal_code":70653},{"province":"Kalimantan Selatan","city":"Banjar","district":"Sei/Sungai Tabuk","urban":"Abumbun Jaya","postal_code":70653}]