[{"province":"Kalimantan Selatan","city":"Banjar","district":"Aluh-Aluh","urban":"Terapu","postal_code":70655},{"province":"Kalimantan Selatan","city":"Banjar","district":"Beruntung Baru","urban":"Tambak Padi","postal_code":70655},{"province":"Kalimantan Selatan","city":"Banjar","district":"Aluh-Aluh","urban":"Tanipah","postal_code":70655},{"province":"Kalimantan Selatan","city":"Banjar","district":"Aluh-Aluh","urban":"Simpang Warga","postal_code":70655},{"province":"Kalimantan Selatan","city":"Banjar","district":"Aluh-Aluh","urban":"Simpang Warga Dalam","postal_code":70655},{"province":"Kalimantan Selatan","city":"Banjar","district":"Beruntung Baru","urban":"Selat Makmur","postal_code":70655},{"province":"Kalimantan Selatan","city":"Banjar","district":"Aluh-Aluh","urban":"Sei/Sungai Musang","postal_code":70655},{"province":"Kalimantan Selatan","city":"Banjar","district":"Beruntung Baru","urban":"Rumpiang","postal_code":70655},{"province":"Kalimantan Selatan","city":"Banjar","district":"Aluh-Aluh","urban":"Pulantan","postal_code":70655},{"province":"Kalimantan Selatan","city":"Banjar","district":"Aluh-Aluh","urban":"Pemurus","postal_code":70655},{"province":"Kalimantan Selatan","city":"Banjar","district":"Beruntung Baru","urban":"Pindahan Baru","postal_code":70655},{"province":"Kalimantan Selatan","city":"Banjar","district":"Aluh-Aluh","urban":"Podok","postal_code":70655},{"province":"Kalimantan Selatan","city":"Banjar","district":"Beruntung Baru","urban":"Lawahan","postal_code":70655},{"province":"Kalimantan Selatan","city":"Banjar","district":"Beruntung Baru","urban":"Muara Halayung","postal_code":70655},{"province":"Kalimantan Selatan","city":"Banjar","district":"Aluh-Aluh","urban":"Labat Muara","postal_code":70655},{"province":"Kalimantan Selatan","city":"Banjar","district":"Aluh-Aluh","urban":"Kuin Besar","postal_code":70655},{"province":"Kalimantan Selatan","city":"Banjar","district":"Aluh-Aluh","urban":"Kuin Kecil","postal_code":70655},{"province":"Kalimantan Selatan","city":"Banjar","district":"Beruntung Baru","urban":"Jambu Raya","postal_code":70655},{"province":"Kalimantan Selatan","city":"Banjar","district":"Beruntung Baru","urban":"Kampung Baru","postal_code":70655},{"province":"Kalimantan Selatan","city":"Banjar","district":"Beruntung Baru","urban":"Haur Kuning","postal_code":70655},{"province":"Kalimantan Selatan","city":"Banjar","district":"Beruntung Baru","urban":"Jambu Burung","postal_code":70655},{"province":"Kalimantan Selatan","city":"Banjar","district":"Beruntung Baru","urban":"Handil Purai","postal_code":70655},{"province":"Kalimantan Selatan","city":"Banjar","district":"Aluh-Aluh","urban":"Handil Baru","postal_code":70655},{"province":"Kalimantan Selatan","city":"Banjar","district":"Aluh-Aluh","urban":"Handil Bujur","postal_code":70655},{"province":"Kalimantan Selatan","city":"Banjar","district":"Aluh-Aluh","urban":"Balimau","postal_code":70655},{"province":"Kalimantan Selatan","city":"Banjar","district":"Aluh-Aluh","urban":"Bunipah","postal_code":70655},{"province":"Kalimantan Selatan","city":"Banjar","district":"Aluh-Aluh","urban":"Bakambat","postal_code":70655},{"province":"Kalimantan Selatan","city":"Banjar","district":"Beruntung Baru","urban":"Babirik","postal_code":70655},{"province":"Kalimantan Selatan","city":"Banjar","district":"Aluh-Aluh","urban":"Aluh Aluh Kecil Muara","postal_code":70655},{"province":"Kalimantan Selatan","city":"Banjar","district":"Aluh-Aluh","urban":"Aluh-Aluh Besar","postal_code":70655},{"province":"Kalimantan Selatan","city":"Banjar","district":"Aluh-Aluh","urban":"Aluh Aluh Kecil","postal_code":70655}]