[{"province":"Kalimantan Selatan","city":"Banjar","district":"Aranio","urban":"Tiwingan Lama","postal_code":70671},{"province":"Kalimantan Selatan","city":"Banjar","district":"Astambul","urban":"Tambangan","postal_code":70671},{"province":"Kalimantan Selatan","city":"Banjar","district":"Aranio","urban":"Tiwingan Baru","postal_code":70671},{"province":"Kalimantan Selatan","city":"Banjar","district":"Astambul","urban":"Sei/Sungai Tuan Ulu","postal_code":70671},{"province":"Kalimantan Selatan","city":"Banjar","district":"Astambul","urban":"Tambak Danau","postal_code":70671},{"province":"Kalimantan Selatan","city":"Banjar","district":"Aranio","urban":"Rantau Bujur","postal_code":70671},{"province":"Kalimantan Selatan","city":"Banjar","district":"Astambul","urban":"Sei/Sungai Alat","postal_code":70671},{"province":"Kalimantan Selatan","city":"Banjar","district":"Astambul","urban":"Sei/Sungai Tuan Ilir","postal_code":70671},{"province":"Kalimantan Selatan","city":"Banjar","district":"Aranio","urban":"Rantau Balai","postal_code":70671},{"province":"Kalimantan Selatan","city":"Banjar","district":"Astambul","urban":"Pingaran Ilir","postal_code":70671},{"province":"Kalimantan Selatan","city":"Banjar","district":"Astambul","urban":"Pingaran Ulu","postal_code":70671},{"province":"Kalimantan Selatan","city":"Banjar","district":"Astambul","urban":"Pasar Jati","postal_code":70671},{"province":"Kalimantan Selatan","city":"Banjar","district":"Astambul","urban":"Pematang Hambawang","postal_code":70671},{"province":"Kalimantan Selatan","city":"Banjar","district":"Aranio","urban":"Paau","postal_code":70671},{"province":"Kalimantan Selatan","city":"Banjar","district":"Astambul","urban":"Munggu Raya","postal_code":70671},{"province":"Kalimantan Selatan","city":"Banjar","district":"Astambul","urban":"Kelampaian Ilir","postal_code":70671},{"province":"Kalimantan Selatan","city":"Banjar","district":"Astambul","urban":"Limamar","postal_code":70671},{"province":"Kalimantan Selatan","city":"Banjar","district":"Astambul","urban":"Lokgabang","postal_code":70671},{"province":"Kalimantan Selatan","city":"Banjar","district":"Astambul","urban":"Kaliukan","postal_code":70671},{"province":"Kalimantan Selatan","city":"Banjar","district":"Astambul","urban":"Kalampayan Ulu","postal_code":70671},{"province":"Kalimantan Selatan","city":"Banjar","district":"Aranio","urban":"Kalaan","postal_code":70671},{"province":"Kalimantan Selatan","city":"Banjar","district":"Astambul","urban":"Kalampayan","postal_code":70671},{"province":"Kalimantan Selatan","city":"Banjar","district":"Astambul","urban":"Danau Salak","postal_code":70671},{"province":"Kalimantan Selatan","city":"Banjar","district":"Astambul","urban":"Jati","postal_code":70671},{"province":"Kalimantan Selatan","city":"Banjar","district":"Aranio","urban":"Benua Riam","postal_code":70671},{"province":"Kalimantan Selatan","city":"Banjar","district":"Aranio","urban":"Bunglai","postal_code":70671},{"province":"Kalimantan Selatan","city":"Banjar","district":"Astambul","urban":"Banua Anyar I (Benua Anyar I)","postal_code":70671},{"province":"Kalimantan Selatan","city":"Banjar","district":"Astambul","urban":"Banua Anyar II (Benua Anyar II)","postal_code":70671},{"province":"Kalimantan Selatan","city":"Banjar","district":"Aranio","urban":"Belangian","postal_code":70671},{"province":"Kalimantan Selatan","city":"Banjar","district":"Astambul","urban":"Astambul","postal_code":70671},{"province":"Kalimantan Selatan","city":"Banjar","district":"Astambul","urban":"Astambul Seberang","postal_code":70671},{"province":"Kalimantan Selatan","city":"Banjar","district":"Aranio","urban":"Artain","postal_code":70671},{"province":"Kalimantan Selatan","city":"Banjar","district":"Aranio","urban":"Apuai","postal_code":70671},{"province":"Kalimantan Selatan","city":"Banjar","district":"Aranio","urban":"Aranio","postal_code":70671}]