[{"province":"Kalimantan Selatan","city":"Banjar","district":"Sambung Makmur","urban":"Sei/Sungai Lurus","postal_code":70674},{"province":"Kalimantan Selatan","city":"Banjar","district":"Pengaron","urban":"Pengaron","postal_code":70674},{"province":"Kalimantan Selatan","city":"Banjar","district":"Sambung Makmur","urban":"Pasar Baru","postal_code":70674},{"province":"Kalimantan Selatan","city":"Banjar","district":"Pengaron","urban":"Mangkauk","postal_code":70674},{"province":"Kalimantan Selatan","city":"Banjar","district":"Pengaron","urban":"Maniapun","postal_code":70674},{"province":"Kalimantan Selatan","city":"Banjar","district":"Pengaron","urban":"Panyiuran","postal_code":70674},{"province":"Kalimantan Selatan","city":"Banjar","district":"Sambung Makmur","urban":"Madurejo","postal_code":70674},{"province":"Kalimantan Selatan","city":"Banjar","district":"Pengaron","urban":"Lumpangi","postal_code":70674},{"province":"Kalimantan Selatan","city":"Banjar","district":"Pengaron","urban":"Loktunggul","postal_code":70674},{"province":"Kalimantan Selatan","city":"Banjar","district":"Pengaron","urban":"Kertak Empat","postal_code":70674},{"province":"Kalimantan Selatan","city":"Banjar","district":"Pengaron","urban":"Lobang Baru","postal_code":70674},{"province":"Kalimantan Selatan","city":"Banjar","district":"Sambung Makmur","urban":"Gunung Batu","postal_code":70674},{"province":"Kalimantan Selatan","city":"Banjar","district":"Pengaron","urban":"Benteng","postal_code":70674},{"province":"Kalimantan Selatan","city":"Banjar","district":"Sambung Makmur","urban":"Batang Banyu","postal_code":70674},{"province":"Kalimantan Selatan","city":"Banjar","district":"Sambung Makmur","urban":"Batu Tanam","postal_code":70674},{"province":"Kalimantan Selatan","city":"Banjar","district":"Sambung Makmur","urban":"Baliangin","postal_code":70674},{"province":"Kalimantan Selatan","city":"Banjar","district":"Pengaron","urban":"Ati Im","postal_code":70674},{"province":"Kalimantan Selatan","city":"Banjar","district":"Pengaron","urban":"Alimukim","postal_code":70674},{"province":"Kalimantan Selatan","city":"Banjar","district":"Pengaron","urban":"Antaraku","postal_code":70674}]