[{"province":"Kalimantan Selatan","city":"Banjar","district":"Telaga Bauntung","urban":"Telaga Baru","postal_code":70673},{"province":"Kalimantan Selatan","city":"Banjar","district":"Simpang Empat","urban":"Tanah Intan","postal_code":70673},{"province":"Kalimantan Selatan","city":"Banjar","district":"Simpang Empat","urban":"Sungkai Baru","postal_code":70673},{"province":"Kalimantan Selatan","city":"Banjar","district":"Simpang Empat","urban":"Surian Hanyar","postal_code":70673},{"province":"Kalimantan Selatan","city":"Banjar","district":"Simpang Empat","urban":"Sumber Sari","postal_code":70673},{"province":"Kalimantan Selatan","city":"Banjar","district":"Simpang Empat","urban":"Sungkai","postal_code":70673},{"province":"Kalimantan Selatan","city":"Banjar","district":"Simpang Empat","urban":"Simpang Lima","postal_code":70673},{"province":"Kalimantan Selatan","city":"Banjar","district":"Simpang Empat","urban":"Sindang Jaya","postal_code":70673},{"province":"Kalimantan Selatan","city":"Banjar","district":"Simpang Empat","urban":"Sei/Sungai Raya","postal_code":70673},{"province":"Kalimantan Selatan","city":"Banjar","district":"Simpang Empat","urban":"Simpang Empat","postal_code":70673},{"province":"Kalimantan Selatan","city":"Banjar","district":"Simpang Empat","urban":"Sei/Sungai Langsat","postal_code":70673},{"province":"Kalimantan Selatan","city":"Banjar","district":"Telaga Bauntung","urban":"Rantau Bujur","postal_code":70673},{"province":"Kalimantan Selatan","city":"Banjar","district":"Simpang Empat","urban":"Pasar Lama","postal_code":70673},{"province":"Kalimantan Selatan","city":"Banjar","district":"Telaga Bauntung","urban":"Rampah","postal_code":70673},{"province":"Kalimantan Selatan","city":"Banjar","district":"Simpang Empat","urban":"Makmur Karya","postal_code":70673},{"province":"Kalimantan Selatan","city":"Banjar","district":"Simpang Empat","urban":"Paku","postal_code":70673},{"province":"Kalimantan Selatan","city":"Banjar","district":"Simpang Empat","urban":"Paring Tali","postal_code":70673},{"province":"Kalimantan Selatan","city":"Banjar","district":"Telaga Bauntung","urban":"Loktanah","postal_code":70673},{"province":"Kalimantan Selatan","city":"Banjar","district":"Simpang Empat","urban":"Lawiran","postal_code":70673},{"province":"Kalimantan Selatan","city":"Banjar","district":"Simpang Empat","urban":"Lokcantung","postal_code":70673},{"province":"Kalimantan Selatan","city":"Banjar","district":"Simpang Empat","urban":"Garis Hanyar","postal_code":70673},{"province":"Kalimantan Selatan","city":"Banjar","district":"Simpang Empat","urban":"Karya Makmur","postal_code":70673},{"province":"Kalimantan Selatan","city":"Banjar","district":"Simpang Empat","urban":"Keramat Mina","postal_code":70673},{"province":"Kalimantan Selatan","city":"Banjar","district":"Simpang Empat","urban":"Cinta Puri","postal_code":70673},{"province":"Kalimantan Selatan","city":"Banjar","district":"Simpang Empat","urban":"Benua Anyar","postal_code":70673},{"province":"Kalimantan Selatan","city":"Banjar","district":"Simpang Empat","urban":"Berkat Mulya","postal_code":70673},{"province":"Kalimantan Selatan","city":"Banjar","district":"Simpang Empat","urban":"Cabi","postal_code":70673},{"province":"Kalimantan Selatan","city":"Banjar","district":"Simpang Empat","urban":"Batu Balian","postal_code":70673},{"province":"Kalimantan Selatan","city":"Banjar","district":"Simpang Empat","urban":"Alalak Padang","postal_code":70673}]