[{"province":"Kalimantan Selatan","city":"Tanah Laut","district":"Pelaihari","urban":"Ujung Batu","postal_code":70815},{"province":"Kalimantan Selatan","city":"Tanah Laut","district":"Pelaihari","urban":"Tungkaran","postal_code":70815},{"province":"Kalimantan Selatan","city":"Tanah Laut","district":"Bajuin","urban":"Tirta Jaya","postal_code":70815},{"province":"Kalimantan Selatan","city":"Tanah Laut","district":"Pelaihari","urban":"Telaga","postal_code":70815},{"province":"Kalimantan Selatan","city":"Tanah Laut","district":"Bajuin","urban":"Tebing Siring","postal_code":70815},{"province":"Kalimantan Selatan","city":"Tanah Laut","district":"Bajuin","urban":"Tanjung","postal_code":70815},{"province":"Kalimantan Selatan","city":"Tanah Laut","district":"Pelaihari","urban":"Sumber Mulia","postal_code":70815},{"province":"Kalimantan Selatan","city":"Tanah Laut","district":"Pelaihari","urban":"Tampang","postal_code":70815},{"province":"Kalimantan Selatan","city":"Tanah Laut","district":"Pelaihari","urban":"Sarang Halang","postal_code":70815},{"province":"Kalimantan Selatan","city":"Tanah Laut","district":"Pelaihari","urban":"Sei/Sungai Riam","postal_code":70815},{"province":"Kalimantan Selatan","city":"Tanah Laut","district":"Bajuin","urban":"Sei/Sungai Bakar","postal_code":70815},{"province":"Kalimantan Selatan","city":"Tanah Laut","district":"Pelaihari","urban":"Pelaihari","postal_code":70815},{"province":"Kalimantan Selatan","city":"Tanah Laut","district":"Pelaihari","urban":"Pemuda","postal_code":70815},{"province":"Kalimantan Selatan","city":"Tanah Laut","district":"Pelaihari","urban":"Panggung Baru","postal_code":70815},{"province":"Kalimantan Selatan","city":"Tanah Laut","district":"Pelaihari","urban":"Panjaratan","postal_code":70815},{"province":"Kalimantan Selatan","city":"Tanah Laut","district":"Pelaihari","urban":"Pabahanan","postal_code":70815},{"province":"Kalimantan Selatan","city":"Tanah Laut","district":"Pelaihari","urban":"Panggung","postal_code":70815},{"province":"Kalimantan Selatan","city":"Tanah Laut","district":"Bajuin","urban":"Pamalungan (Pamalongan)","postal_code":70815},{"province":"Kalimantan Selatan","city":"Tanah Laut","district":"Bajuin","urban":"Kunyit","postal_code":70815},{"province":"Kalimantan Selatan","city":"Tanah Laut","district":"Pelaihari","urban":"Kampung Baru","postal_code":70815},{"province":"Kalimantan Selatan","city":"Tanah Laut","district":"Bajuin","urban":"Ketapang","postal_code":70815},{"province":"Kalimantan Selatan","city":"Tanah Laut","district":"Pelaihari","urban":"Guntung Besar","postal_code":70815},{"province":"Kalimantan Selatan","city":"Tanah Laut","district":"Bajuin","urban":"Galam","postal_code":70815},{"province":"Kalimantan Selatan","city":"Tanah Laut","district":"Pelaihari","urban":"Bumi Jaya","postal_code":70815},{"province":"Kalimantan Selatan","city":"Tanah Laut","district":"Bajuin","urban":"Bajuin","postal_code":70815},{"province":"Kalimantan Selatan","city":"Tanah Laut","district":"Pelaihari","urban":"Ambungan","postal_code":70815},{"province":"Kalimantan Selatan","city":"Tanah Laut","district":"Pelaihari","urban":"Atu Atu","postal_code":70815}]