[{"province":"Kalimantan Selatan","city":"Tanah Laut","district":"Kurau","urban":"Tambak Sarinan/Sarinah","postal_code":70853},{"province":"Kalimantan Selatan","city":"Tanah Laut","district":"Bumi Makmur","urban":"Sei/Sungai Rasau","postal_code":70853},{"province":"Kalimantan Selatan","city":"Tanah Laut","district":"Kurau","urban":"Sei/Sungai Bakau","postal_code":70853},{"province":"Kalimantan Selatan","city":"Tanah Laut","district":"Kurau","urban":"Tambak Karya","postal_code":70853},{"province":"Kalimantan Selatan","city":"Tanah Laut","district":"Kurau","urban":"Raden","postal_code":70853},{"province":"Kalimantan Selatan","city":"Tanah Laut","district":"Kurau","urban":"Sarikandi","postal_code":70853},{"province":"Kalimantan Selatan","city":"Tanah Laut","district":"Bumi Makmur","urban":"Pantai Harapan","postal_code":70853},{"province":"Kalimantan Selatan","city":"Tanah Laut","district":"Kurau","urban":"Maluka Bualin","postal_code":70853},{"province":"Kalimantan Selatan","city":"Tanah Laut","district":"Kurau","urban":"Padang Luas","postal_code":70853},{"province":"Kalimantan Selatan","city":"Tanah Laut","district":"Kurau","urban":"Kurau","postal_code":70853},{"province":"Kalimantan Selatan","city":"Tanah Laut","district":"Bumi Makmur","urban":"Kurau Utara","postal_code":70853},{"province":"Kalimantan Selatan","city":"Tanah Laut","district":"Kurau","urban":"Handil Negara","postal_code":70853},{"province":"Kalimantan Selatan","city":"Tanah Laut","district":"Kurau","urban":"Kali Besar","postal_code":70853},{"province":"Kalimantan Selatan","city":"Tanah Laut","district":"Bumi Makmur","urban":"Handil Suruk","postal_code":70853},{"province":"Kalimantan Selatan","city":"Tanah Laut","district":"Bumi Makmur","urban":"Handil Labuan (Amas)","postal_code":70853},{"province":"Kalimantan Selatan","city":"Tanah Laut","district":"Bumi Makmur","urban":"Handil Maluka","postal_code":70853},{"province":"Kalimantan Selatan","city":"Tanah Laut","district":"Bumi Makmur","urban":"Handil Gayam","postal_code":70853},{"province":"Kalimantan Selatan","city":"Tanah Laut","district":"Bumi Makmur","urban":"Handil Birayang Atas","postal_code":70853},{"province":"Kalimantan Selatan","city":"Tanah Laut","district":"Bumi Makmur","urban":"Handil Birayang Atas","postal_code":70853},{"province":"Kalimantan Selatan","city":"Tanah Laut","district":"Bumi Makmur","urban":"Bumi Harapan","postal_code":70853},{"province":"Kalimantan Selatan","city":"Tanah Laut","district":"Bumi Makmur","urban":"Handil Babirik","postal_code":70853},{"province":"Kalimantan Selatan","city":"Tanah Laut","district":"Kurau","urban":"Bawah Layung","postal_code":70853}]