[{"province":"Kalimantan Selatan","city":"Tapin","district":"Binuang","urban":"Tungkap","postal_code":71183},{"province":"Kalimantan Selatan","city":"Tapin","district":"Binuang","urban":"Pulau Pinang Utara","postal_code":71183},{"province":"Kalimantan Selatan","city":"Tapin","district":"Binuang","urban":"Raya Belanti","postal_code":71183},{"province":"Kalimantan Selatan","city":"Tapin","district":"Binuang","urban":"Pualam Sari","postal_code":71183},{"province":"Kalimantan Selatan","city":"Tapin","district":"Binuang","urban":"Pulau Pinang","postal_code":71183},{"province":"Kalimantan Selatan","city":"Tapin","district":"Binuang","urban":"Mekarsari","postal_code":71183},{"province":"Kalimantan Selatan","city":"Tapin","district":"Binuang","urban":"Padang Sari","postal_code":71183},{"province":"Kalimantan Selatan","city":"Tapin","district":"Binuang","urban":"Binuang","postal_code":71183},{"province":"Kalimantan Selatan","city":"Tapin","district":"Binuang","urban":"Gunung Batu","postal_code":71183},{"province":"Kalimantan Selatan","city":"Tapin","district":"Binuang","urban":"Karang Putih","postal_code":71183},{"province":"Kalimantan Selatan","city":"Tapin","district":"Binuang","urban":"A Yani Pura","postal_code":71183}]