[{"province":"Kalimantan Selatan","city":"Banjar","district":"Martapura Kota","urban":"Sei/Sungai Paring","postal_code":71213},{"province":"Kalimantan Selatan","city":"Hulu Sungai Selatan","district":"Kandangan","urban":"Lungau","postal_code":71213},{"province":"Kalimantan Selatan","city":"Hulu Sungai Selatan","district":"Kandangan","urban":"Sei/Sungai Paring","postal_code":71213},{"province":"Kalimantan Selatan","city":"Hulu Sungai Selatan","district":"Kandangan","urban":"Bariang","postal_code":71213},{"province":"Kalimantan Selatan","city":"Hulu Sungai Selatan","district":"Kandangan","urban":"Kandangan Barat","postal_code":71213},{"province":"Kalimantan Selatan","city":"Hulu Sungai Selatan","district":"Kandangan","urban":"Amawang Kiri","postal_code":71213},{"province":"Kalimantan Selatan","city":"Hulu Sungai Selatan","district":"Kandangan","urban":"Amawang Kiri Muka","postal_code":71213},{"province":"Kalimantan Selatan","city":"Hulu Sungai Selatan","district":"Kandangan","urban":"Amawang Kanan","postal_code":71213}]