[{"province":"Kalimantan Selatan","city":"Hulu Sungai Selatan","district":"Daha Selatan","urban":"Tumbukan Banyu","postal_code":71252},{"province":"Kalimantan Selatan","city":"Hulu Sungai Selatan","district":"Daha Selatan","urban":"Tambangan","postal_code":71252},{"province":"Kalimantan Selatan","city":"Hulu Sungai Selatan","district":"Daha Barat","urban":"Tanjung Selor","postal_code":71252},{"province":"Kalimantan Selatan","city":"Hulu Sungai Selatan","district":"Daha Selatan","urban":"Sei/Sungai Pinang","postal_code":71252},{"province":"Kalimantan Selatan","city":"Hulu Sungai Selatan","district":"Daha Barat","urban":"Siang Gantung","postal_code":71252},{"province":"Kalimantan Selatan","city":"Hulu Sungai Selatan","district":"Daha Selatan","urban":"Parigi","postal_code":71252},{"province":"Kalimantan Selatan","city":"Hulu Sungai Selatan","district":"Daha Selatan","urban":"Pihanin Raya","postal_code":71252},{"province":"Kalimantan Selatan","city":"Hulu Sungai Selatan","district":"Daha Selatan","urban":"Samuda","postal_code":71252},{"province":"Kalimantan Selatan","city":"Hulu Sungai Selatan","district":"Daha Selatan","urban":"Muning Tengah","postal_code":71252},{"province":"Kalimantan Selatan","city":"Hulu Sungai Selatan","district":"Daha Selatan","urban":"Pandan Sari","postal_code":71252},{"province":"Kalimantan Selatan","city":"Hulu Sungai Selatan","district":"Daha Selatan","urban":"Habirau Tengah","postal_code":71252},{"province":"Kalimantan Selatan","city":"Hulu Sungai Selatan","district":"Daha Selatan","urban":"Muning Baru","postal_code":71252},{"province":"Kalimantan Selatan","city":"Hulu Sungai Selatan","district":"Daha Selatan","urban":"Muning Dalam","postal_code":71252},{"province":"Kalimantan Selatan","city":"Hulu Sungai Selatan","district":"Daha Selatan","urban":"Bayanan","postal_code":71252},{"province":"Kalimantan Selatan","city":"Hulu Sungai Selatan","district":"Daha Selatan","urban":"Habirau","postal_code":71252},{"province":"Kalimantan Selatan","city":"Hulu Sungai Selatan","district":"Daha Selatan","urban":"Baruh Jaya","postal_code":71252},{"province":"Kalimantan Selatan","city":"Hulu Sungai Selatan","district":"Daha Barat","urban":"Baru","postal_code":71252},{"province":"Kalimantan Selatan","city":"Hulu Sungai Selatan","district":"Daha Selatan","urban":"Banjar Baru","postal_code":71252},{"province":"Kalimantan Selatan","city":"Hulu Sungai Selatan","district":"Daha Selatan","urban":"Banua Hanyar","postal_code":71252},{"province":"Kalimantan Selatan","city":"Hulu Sungai Selatan","district":"Daha Barat","urban":"Bajayau Tengah","postal_code":71252},{"province":"Kalimantan Selatan","city":"Hulu Sungai Selatan","district":"Daha Barat","urban":"Badaun","postal_code":71252},{"province":"Kalimantan Selatan","city":"Hulu Sungai Selatan","district":"Daha Barat","urban":"Bajayau","postal_code":71252},{"province":"Kalimantan Selatan","city":"Hulu Sungai Selatan","district":"Daha Barat","urban":"Bajayau Lama","postal_code":71252}]