[{"province":"Kalimantan Selatan","city":"Hulu Sungai Selatan","district":"Loksado","urban":"Tumingki","postal_code":71282},{"province":"Kalimantan Selatan","city":"Hulu Sungai Selatan","district":"Loksado","urban":"Ulang (Muara Ulang)","postal_code":71282},{"province":"Kalimantan Selatan","city":"Hulu Sungai Selatan","district":"Loksado","urban":"Lumpangi","postal_code":71282},{"province":"Kalimantan Selatan","city":"Hulu Sungai Selatan","district":"Loksado","urban":"Malinau","postal_code":71282},{"province":"Kalimantan Selatan","city":"Hulu Sungai Selatan","district":"Loksado","urban":"Panggungan","postal_code":71282},{"province":"Kalimantan Selatan","city":"Hulu Sungai Selatan","district":"Loksado","urban":"Loksado","postal_code":71282},{"province":"Kalimantan Selatan","city":"Hulu Sungai Selatan","district":"Loksado","urban":"Kamawakan","postal_code":71282},{"province":"Kalimantan Selatan","city":"Hulu Sungai Selatan","district":"Loksado","urban":"Lok Lahung","postal_code":71282},{"province":"Kalimantan Selatan","city":"Hulu Sungai Selatan","district":"Loksado","urban":"Hulu Banyu","postal_code":71282},{"province":"Kalimantan Selatan","city":"Hulu Sungai Selatan","district":"Loksado","urban":"Haratai","postal_code":71282},{"province":"Kalimantan Selatan","city":"Hulu Sungai Selatan","district":"Loksado","urban":"Halunuk","postal_code":71282}]