[{"province":"Kalimantan Selatan","city":"Hulu Sungai Selatan","district":"Padang Batung","urban":"Tabihi","postal_code":71281},{"province":"Kalimantan Selatan","city":"Hulu Sungai Selatan","district":"Padang Batung","urban":"Padang Batung","postal_code":71281},{"province":"Kalimantan Selatan","city":"Hulu Sungai Selatan","district":"Padang Batung","urban":"Pahampangan","postal_code":71281},{"province":"Kalimantan Selatan","city":"Hulu Sungai Selatan","district":"Padang Batung","urban":"Pandulangan","postal_code":71281},{"province":"Kalimantan Selatan","city":"Hulu Sungai Selatan","district":"Padang Batung","urban":"Malutu","postal_code":71281},{"province":"Kalimantan Selatan","city":"Hulu Sungai Selatan","district":"Padang Batung","urban":"Mawangi","postal_code":71281},{"province":"Kalimantan Selatan","city":"Hulu Sungai Selatan","district":"Padang Batung","urban":"Malilingin","postal_code":71281},{"province":"Kalimantan Selatan","city":"Hulu Sungai Selatan","district":"Padang Batung","urban":"Karang Jawa Muka","postal_code":71281},{"province":"Kalimantan Selatan","city":"Hulu Sungai Selatan","district":"Padang Batung","urban":"Madang","postal_code":71281},{"province":"Kalimantan Selatan","city":"Hulu Sungai Selatan","district":"Padang Batung","urban":"Kaliring","postal_code":71281},{"province":"Kalimantan Selatan","city":"Hulu Sungai Selatan","district":"Padang Batung","urban":"Karang Jawa","postal_code":71281},{"province":"Kalimantan Selatan","city":"Hulu Sungai Selatan","district":"Padang Batung","urban":"Jalatang","postal_code":71281},{"province":"Kalimantan Selatan","city":"Hulu Sungai Selatan","district":"Padang Batung","urban":"Jambu Hulu","postal_code":71281},{"province":"Kalimantan Selatan","city":"Hulu Sungai Selatan","district":"Padang Batung","urban":"Jembatan Merah","postal_code":71281},{"province":"Kalimantan Selatan","city":"Hulu Sungai Selatan","district":"Padang Batung","urban":"Batu Laki","postal_code":71281},{"province":"Kalimantan Selatan","city":"Hulu Sungai Selatan","district":"Padang Batung","urban":"Durian Rabung","postal_code":71281},{"province":"Kalimantan Selatan","city":"Hulu Sungai Selatan","district":"Padang Batung","urban":"Batu Bini","postal_code":71281}]