[{"province":"Kalimantan Selatan","city":"Hulu Sungai Utara","district":"Danau Panggang","urban":"Telaga Mas","postal_code":71453},{"province":"Kalimantan Selatan","city":"Hulu Sungai Utara","district":"Paminggir","urban":"Tampakang","postal_code":71453},{"province":"Kalimantan Selatan","city":"Hulu Sungai Utara","district":"Danau Panggang","urban":"Teluk Mesjid","postal_code":71453},{"province":"Kalimantan Selatan","city":"Hulu Sungai Utara","district":"Danau Panggang","urban":"Sei/Sungai Namang","postal_code":71453},{"province":"Kalimantan Selatan","city":"Hulu Sungai Utara","district":"Danau Panggang","urban":"Sei/Sungai Panangah","postal_code":71453},{"province":"Kalimantan Selatan","city":"Hulu Sungai Utara","district":"Danau Panggang","urban":"Sarang Burung","postal_code":71453},{"province":"Kalimantan Selatan","city":"Hulu Sungai Utara","district":"Paminggir","urban":"Sapala","postal_code":71453},{"province":"Kalimantan Selatan","city":"Hulu Sungai Utara","district":"Danau Panggang","urban":"Pandamaan","postal_code":71453},{"province":"Kalimantan Selatan","city":"Hulu Sungai Utara","district":"Danau Panggang","urban":"Pararain","postal_code":71453},{"province":"Kalimantan Selatan","city":"Hulu Sungai Utara","district":"Danau Panggang","urban":"Rintisan","postal_code":71453},{"province":"Kalimantan Selatan","city":"Hulu Sungai Utara","district":"Paminggir","urban":"Paminggir","postal_code":71453},{"province":"Kalimantan Selatan","city":"Hulu Sungai Utara","district":"Paminggir","urban":"Paminggir Seberang","postal_code":71453},{"province":"Kalimantan Selatan","city":"Hulu Sungai Utara","district":"Paminggir","urban":"Pal Batu","postal_code":71453},{"province":"Kalimantan Selatan","city":"Hulu Sungai Utara","district":"Danau Panggang","urban":"Palukahan","postal_code":71453},{"province":"Kalimantan Selatan","city":"Hulu Sungai Utara","district":"Danau Panggang","urban":"Manarap Hulu","postal_code":71453},{"province":"Kalimantan Selatan","city":"Hulu Sungai Utara","district":"Danau Panggang","urban":"Long Kong","postal_code":71453},{"province":"Kalimantan Selatan","city":"Hulu Sungai Utara","district":"Danau Panggang","urban":"Manarap","postal_code":71453},{"province":"Kalimantan Selatan","city":"Hulu Sungai Utara","district":"Danau Panggang","urban":"Danau Panggang","postal_code":71453},{"province":"Kalimantan Selatan","city":"Hulu Sungai Utara","district":"Danau Panggang","urban":"Darussalam","postal_code":71453},{"province":"Kalimantan Selatan","city":"Hulu Sungai Utara","district":"Danau Panggang","urban":"Baru","postal_code":71453},{"province":"Kalimantan Selatan","city":"Hulu Sungai Utara","district":"Danau Panggang","urban":"Bitin","postal_code":71453},{"province":"Kalimantan Selatan","city":"Hulu Sungai Utara","district":"Paminggir","urban":"Ambahai","postal_code":71453},{"province":"Kalimantan Selatan","city":"Hulu Sungai Utara","district":"Paminggir","urban":"Bararawa","postal_code":71453}]