[{"province":"Kalimantan Selatan","city":"Hulu Sungai Utara","district":"Babirik","urban":"Sei/Sungai Zam Zam","postal_code":71454},{"province":"Kalimantan Selatan","city":"Hulu Sungai Utara","district":"Babirik","urban":"Teluk Limbung","postal_code":71454},{"province":"Kalimantan Selatan","city":"Hulu Sungai Utara","district":"Babirik","urban":"Sei/Sungai Luang Hulu","postal_code":71454},{"province":"Kalimantan Selatan","city":"Hulu Sungai Utara","district":"Babirik","urban":"Sei/Sungai Nyiur","postal_code":71454},{"province":"Kalimantan Selatan","city":"Hulu Sungai Utara","district":"Babirik","urban":"Sei/Sungai Papuyu","postal_code":71454},{"province":"Kalimantan Selatan","city":"Hulu Sungai Utara","district":"Babirik","urban":"Sei/Sungai Durait Tengah","postal_code":71454},{"province":"Kalimantan Selatan","city":"Hulu Sungai Utara","district":"Babirik","urban":"Sei/Sungai Luang Hilir","postal_code":71454},{"province":"Kalimantan Selatan","city":"Hulu Sungai Utara","district":"Babirik","urban":"Sei/Sungai Durait Hilir","postal_code":71454},{"province":"Kalimantan Selatan","city":"Hulu Sungai Utara","district":"Babirik","urban":"Sei/Sungai Durait Hulu","postal_code":71454},{"province":"Kalimantan Selatan","city":"Hulu Sungai Utara","district":"Babirik","urban":"Parupukan","postal_code":71454},{"province":"Kalimantan Selatan","city":"Hulu Sungai Utara","district":"Babirik","urban":"Sei/Sungai Dalam","postal_code":71454},{"province":"Kalimantan Selatan","city":"Hulu Sungai Utara","district":"Babirik","urban":"Pajukungan Hilir","postal_code":71454},{"province":"Kalimantan Selatan","city":"Hulu Sungai Utara","district":"Babirik","urban":"Pajukungan Hulu","postal_code":71454},{"province":"Kalimantan Selatan","city":"Hulu Sungai Utara","district":"Babirik","urban":"Murung Panti Hulu","postal_code":71454},{"province":"Kalimantan Selatan","city":"Hulu Sungai Utara","district":"Babirik","urban":"Kalumpang Luar","postal_code":71454},{"province":"Kalimantan Selatan","city":"Hulu Sungai Utara","district":"Babirik","urban":"Murung Kupang","postal_code":71454},{"province":"Kalimantan Selatan","city":"Hulu Sungai Utara","district":"Babirik","urban":"Murung Panti Hilir","postal_code":71454},{"province":"Kalimantan Selatan","city":"Hulu Sungai Utara","district":"Babirik","urban":"Hambuku Lima","postal_code":71454},{"province":"Kalimantan Selatan","city":"Hulu Sungai Utara","district":"Babirik","urban":"Kalumpang Dalam","postal_code":71454},{"province":"Kalimantan Selatan","city":"Hulu Sungai Utara","district":"Babirik","urban":"Hambuku Baru","postal_code":71454},{"province":"Kalimantan Selatan","city":"Hulu Sungai Utara","district":"Babirik","urban":"Hambuku Hilir","postal_code":71454},{"province":"Kalimantan Selatan","city":"Hulu Sungai Utara","district":"Babirik","urban":"Babirik Hilir","postal_code":71454},{"province":"Kalimantan Selatan","city":"Hulu Sungai Utara","district":"Babirik","urban":"Babirik Hulu","postal_code":71454}]