[{"province":"Kalimantan Selatan","city":"Hulu Sungai Utara","district":"Sungai Pandan","urban":"Teluk Sinar","postal_code":71455},{"province":"Kalimantan Selatan","city":"Hulu Sungai Utara","district":"Sungai Tabukan","urban":"Teluk Cati","postal_code":71455},{"province":"Kalimantan Selatan","city":"Hulu Sungai Utara","district":"Sungai Pandan","urban":"Teluk Mesjid","postal_code":71455},{"province":"Kalimantan Selatan","city":"Hulu Sungai Utara","district":"Sungai Pandan","urban":"Tatah Laban","postal_code":71455},{"province":"Kalimantan Selatan","city":"Hulu Sungai Utara","district":"Sungai Pandan","urban":"Teluk Betung","postal_code":71455},{"province":"Kalimantan Selatan","city":"Hulu Sungai Utara","district":"Sungai Pandan","urban":"Tambalang Tengah","postal_code":71455},{"province":"Kalimantan Selatan","city":"Hulu Sungai Utara","district":"Sungai Pandan","urban":"Tapus Dalam","postal_code":71455},{"province":"Kalimantan Selatan","city":"Hulu Sungai Utara","district":"Sungai Pandan","urban":"Tambalang Kecil","postal_code":71455},{"province":"Kalimantan Selatan","city":"Hulu Sungai Utara","district":"Sungai Tabukan","urban":"Tambalang Raya","postal_code":71455},{"province":"Kalimantan Selatan","city":"Hulu Sungai Utara","district":"Sungai Pandan","urban":"Tambalang","postal_code":71455},{"province":"Kalimantan Selatan","city":"Hulu Sungai Utara","district":"Sungai Tabukan","urban":"Sei/Sungai Tabukan","postal_code":71455},{"province":"Kalimantan Selatan","city":"Hulu Sungai Utara","district":"Sungai Pandan","urban":"Sei/Sungai Pandan Tengah","postal_code":71455},{"province":"Kalimantan Selatan","city":"Hulu Sungai Utara","district":"Sungai Pandan","urban":"Sei/Sungai Pinang","postal_code":71455},{"province":"Kalimantan Selatan","city":"Hulu Sungai Utara","district":"Sungai Pandan","urban":"Sei/Sungai Sandung","postal_code":71455},{"province":"Kalimantan Selatan","city":"Hulu Sungai Utara","district":"Sungai Pandan","urban":"Sei/Sungai Pandan Hilir","postal_code":71455},{"province":"Kalimantan Selatan","city":"Hulu Sungai Utara","district":"Sungai Pandan","urban":"Sei/Sungai Pandan Hulu","postal_code":71455},{"province":"Kalimantan Selatan","city":"Hulu Sungai Utara","district":"Sungai Pandan","urban":"Sei/Sungai Kuini","postal_code":71455},{"province":"Kalimantan Selatan","city":"Hulu Sungai Utara","district":"Sungai Tabukan","urban":"Sei/Sungai Haji","postal_code":71455},{"province":"Kalimantan Selatan","city":"Hulu Sungai Utara","district":"Sungai Pandan","urban":"Rantau Karau Tengah","postal_code":71455},{"province":"Kalimantan Selatan","city":"Hulu Sungai Utara","district":"Sungai Pandan","urban":"Rantau Karau Hulu","postal_code":71455},{"province":"Kalimantan Selatan","city":"Hulu Sungai Utara","district":"Sungai Pandan","urban":"Rantau Karau Raya","postal_code":71455},{"province":"Kalimantan Selatan","city":"Hulu Sungai Utara","district":"Sungai Tabukan","urban":"Rantau Bujur Hulu","postal_code":71455},{"province":"Kalimantan Selatan","city":"Hulu Sungai Utara","district":"Sungai Tabukan","urban":"Rantau Bujur Tengah","postal_code":71455},{"province":"Kalimantan Selatan","city":"Hulu Sungai Utara","district":"Sungai Pandan","urban":"Rantau Karau Hilir","postal_code":71455},{"province":"Kalimantan Selatan","city":"Hulu Sungai Utara","district":"Sungai Tabukan","urban":"Rantau Bujur Darat","postal_code":71455},{"province":"Kalimantan Selatan","city":"Hulu Sungai Utara","district":"Sungai Tabukan","urban":"Rantau Bujur Hilir","postal_code":71455},{"province":"Kalimantan Selatan","city":"Hulu Sungai Utara","district":"Sungai Tabukan","urban":"Pematang Benteng Hilir","postal_code":71455},{"province":"Kalimantan Selatan","city":"Hulu Sungai Utara","district":"Sungai Pandan","urban":"Pondok Babaris","postal_code":71455},{"province":"Kalimantan Selatan","city":"Hulu Sungai Utara","district":"Sungai Pandan","urban":"Putat Atas /Tatau","postal_code":71455},{"province":"Kalimantan Selatan","city":"Hulu Sungai Utara","district":"Sungai Tabukan","urban":"Pasar Sabtu","postal_code":71455},{"province":"Kalimantan Selatan","city":"Hulu Sungai Utara","district":"Sungai Tabukan","urban":"Pematang Benteng","postal_code":71455},{"province":"Kalimantan Selatan","city":"Hulu Sungai Utara","district":"Sungai Pandan","urban":"Pandulangan","postal_code":71455},{"province":"Kalimantan Selatan","city":"Hulu Sungai Utara","district":"Sungai Pandan","urban":"Pangkalan Sari","postal_code":71455},{"province":"Kalimantan Selatan","city":"Hulu Sungai Utara","district":"Sungai Tabukan","urban":"Nelayan","postal_code":71455},{"province":"Kalimantan Selatan","city":"Hulu Sungai Utara","district":"Sungai Pandan","urban":"Murung Asam","postal_code":71455},{"province":"Kalimantan Selatan","city":"Hulu Sungai Utara","district":"Sungai Pandan","urban":"Padang Bangkal","postal_code":71455},{"province":"Kalimantan Selatan","city":"Hulu Sungai Utara","district":"Sungai Tabukan","urban":"Hilir Mesjid","postal_code":71455},{"province":"Kalimantan Selatan","city":"Hulu Sungai Utara","district":"Sungai Pandan","urban":"Jalan Lurus","postal_code":71455},{"province":"Kalimantan Selatan","city":"Hulu Sungai Utara","district":"Sungai Pandan","urban":"Hambuku Raya","postal_code":71455},{"province":"Kalimantan Selatan","city":"Hulu Sungai Utara","district":"Sungai Pandan","urban":"Hambuku Tengah","postal_code":71455},{"province":"Kalimantan Selatan","city":"Hulu Sungai Utara","district":"Sungai Tabukan","urban":"Gampa Raya","postal_code":71455},{"province":"Kalimantan Selatan","city":"Hulu Sungai Utara","district":"Sungai Pandan","urban":"Hambuku Hulu","postal_code":71455},{"province":"Kalimantan Selatan","city":"Hulu Sungai Utara","district":"Sungai Pandan","urban":"Hambuku Pasar","postal_code":71455},{"province":"Kalimantan Selatan","city":"Hulu Sungai Utara","district":"Sungai Tabukan","urban":"Galagah","postal_code":71455},{"province":"Kalimantan Selatan","city":"Hulu Sungai Utara","district":"Sungai Tabukan","urban":"Galagah Hulu","postal_code":71455},{"province":"Kalimantan Selatan","city":"Hulu Sungai Utara","district":"Sungai Pandan","urban":"Banyu Tajun Hulu","postal_code":71455},{"province":"Kalimantan Selatan","city":"Hulu Sungai Utara","district":"Sungai Pandan","urban":"Banyu Tajun Pangkalan","postal_code":71455},{"province":"Kalimantan Selatan","city":"Hulu Sungai Utara","district":"Sungai Pandan","urban":"Banyu Tajun Hilir","postal_code":71455},{"province":"Kalimantan Selatan","city":"Hulu Sungai Utara","district":"Sungai Pandan","urban":"Banyu Tajun Dalam","postal_code":71455},{"province":"Kalimantan Selatan","city":"Hulu Sungai Utara","district":"Sungai Tabukan","urban":"Banua Hanyar","postal_code":71455}]