[{"province":"Kalimantan Selatan","city":"Tabalong","district":"Tanta","urban":"Warukin","postal_code":71561},{"province":"Kalimantan Selatan","city":"Tabalong","district":"Tanta","urban":"Tanta Hulu","postal_code":71561},{"province":"Kalimantan Selatan","city":"Tabalong","district":"Tanta","urban":"Walangkir","postal_code":71561},{"province":"Kalimantan Selatan","city":"Tabalong","district":"Tanta","urban":"Pulau KuU","postal_code":71561},{"province":"Kalimantan Selatan","city":"Tabalong","district":"Tanta","urban":"Tamiyang","postal_code":71561},{"province":"Kalimantan Selatan","city":"Tabalong","district":"Tanta","urban":"Tanta","postal_code":71561},{"province":"Kalimantan Selatan","city":"Tabalong","district":"Tanta","urban":"Padangin","postal_code":71561},{"province":"Kalimantan Selatan","city":"Tabalong","district":"Tanta","urban":"Pamarangan Kanan","postal_code":71561},{"province":"Kalimantan Selatan","city":"Tabalong","district":"Tanta","urban":"Puain Kanan","postal_code":71561},{"province":"Kalimantan Selatan","city":"Tabalong","district":"Tanta","urban":"Murung Baru","postal_code":71561},{"province":"Kalimantan Selatan","city":"Tabalong","district":"Tanta","urban":"Padang Panjang","postal_code":71561},{"province":"Kalimantan Selatan","city":"Tabalong","district":"Tanta","urban":"Luk Bayur","postal_code":71561},{"province":"Kalimantan Selatan","city":"Tabalong","district":"Tanta","urban":"Mangkusip","postal_code":71561},{"province":"Kalimantan Selatan","city":"Tabalong","district":"Tanta","urban":"Barimbun","postal_code":71561}]