[{"province":"Kalimantan Selatan","city":"Tabalong","district":"Haruai","urban":"Wirang","postal_code":71572},{"province":"Kalimantan Selatan","city":"Tabalong","district":"Bintang Ara","urban":"Waling","postal_code":71572},{"province":"Kalimantan Selatan","city":"Tabalong","district":"Bintang Ara","urban":"Usih","postal_code":71572},{"province":"Kalimantan Selatan","city":"Tabalong","district":"Haruai","urban":"Suriyan","postal_code":71572},{"province":"Kalimantan Selatan","city":"Tabalong","district":"Haruai","urban":"Seradang","postal_code":71572},{"province":"Kalimantan Selatan","city":"Tabalong","district":"Haruai","urban":"Suput","postal_code":71572},{"province":"Kalimantan Selatan","city":"Tabalong","district":"Bintang Ara","urban":"Panaan","postal_code":71572},{"province":"Kalimantan Selatan","city":"Tabalong","district":"Haruai","urban":"Nawin","postal_code":71572},{"province":"Kalimantan Selatan","city":"Tabalong","district":"Haruai","urban":"Mahe Pasar","postal_code":71572},{"province":"Kalimantan Selatan","city":"Tabalong","district":"Haruai","urban":"Marindi","postal_code":71572},{"province":"Kalimantan Selatan","city":"Tabalong","district":"Haruai","urban":"Kembangkuning","postal_code":71572},{"province":"Kalimantan Selatan","city":"Tabalong","district":"Haruai","urban":"Lok Batu","postal_code":71572},{"province":"Kalimantan Selatan","city":"Tabalong","district":"Bintang Ara","urban":"Hegar Manah","postal_code":71572},{"province":"Kalimantan Selatan","city":"Tabalong","district":"Haruai","urban":"Hayup","postal_code":71572},{"province":"Kalimantan Selatan","city":"Tabalong","district":"Haruai","urban":"Halong","postal_code":71572},{"province":"Kalimantan Selatan","city":"Tabalong","district":"Bintang Ara","urban":"Dambung (Raya)","postal_code":71572},{"province":"Kalimantan Selatan","city":"Tabalong","district":"Haruai","urban":"Catur Karya","postal_code":71572},{"province":"Kalimantan Selatan","city":"Tabalong","district":"Bintang Ara","urban":"Burum","postal_code":71572},{"province":"Kalimantan Selatan","city":"Tabalong","district":"Haruai","urban":"Bongkang","postal_code":71572},{"province":"Kalimantan Selatan","city":"Tabalong","district":"Bintang Ara","urban":"Bumi Makmur","postal_code":71572},{"province":"Kalimantan Selatan","city":"Tabalong","district":"Bintang Ara","urban":"Bintang Ara","postal_code":71572},{"province":"Kalimantan Selatan","city":"Tabalong","district":"Bintang Ara","urban":"Argo Mulyo","postal_code":71572}]