[{"province":"Kalimantan Selatan","city":"Tabalong","district":"Murung Pudak","urban":"Sulingan","postal_code":71571},{"province":"Kalimantan Selatan","city":"Tabalong","district":"Murung Pudak","urban":"Masukau","postal_code":71571},{"province":"Kalimantan Selatan","city":"Tabalong","district":"Murung Pudak","urban":"Pembataan","postal_code":71571},{"province":"Kalimantan Selatan","city":"Tabalong","district":"Murung Pudak","urban":"Maburai","postal_code":71571},{"province":"Kalimantan Selatan","city":"Tabalong","district":"Murung Pudak","urban":"Mabuun","postal_code":71571},{"province":"Kalimantan Selatan","city":"Tabalong","district":"Murung Pudak","urban":"Kasiau Raya","postal_code":71571},{"province":"Kalimantan Selatan","city":"Tabalong","district":"Murung Pudak","urban":"Kasiau","postal_code":71571},{"province":"Kalimantan Selatan","city":"Tabalong","district":"Murung Pudak","urban":"Belimbing Raya","postal_code":71571},{"province":"Kalimantan Selatan","city":"Tabalong","district":"Murung Pudak","urban":"Kapar","postal_code":71571},{"province":"Kalimantan Selatan","city":"Tabalong","district":"Murung Pudak","urban":"Belimbing","postal_code":71571}]