[{"province":"Kalimantan Selatan","city":"Balangan","district":"Awayan","urban":"Tundi","postal_code":71664},{"province":"Kalimantan Selatan","city":"Balangan","district":"Tebing Tinggi","urban":"Tebing Tinggi","postal_code":71664},{"province":"Kalimantan Selatan","city":"Balangan","district":"Tebing Tinggi","urban":"Tebing Tinggi","postal_code":71664},{"province":"Kalimantan Selatan","city":"Balangan","district":"Awayan","urban":"Tangalin","postal_code":71664},{"province":"Kalimantan Selatan","city":"Balangan","district":"Tebing Tinggi","urban":"Simpang Nadung/Nadong","postal_code":71664},{"province":"Kalimantan Selatan","city":"Balangan","district":"Tebing Tinggi","urban":"Sungsum","postal_code":71664},{"province":"Kalimantan Selatan","city":"Balangan","district":"Awayan","urban":"Sikontan","postal_code":71664},{"province":"Kalimantan Selatan","city":"Balangan","district":"Tebing Tinggi","urban":"Simpang Bumbuan","postal_code":71664},{"province":"Kalimantan Selatan","city":"Balangan","district":"Awayan","urban":"Putat Basiun","postal_code":71664},{"province":"Kalimantan Selatan","city":"Balangan","district":"Awayan","urban":"Sei/Sungai Pumpung","postal_code":71664},{"province":"Kalimantan Selatan","city":"Balangan","district":"Awayan","urban":"Pulantan","postal_code":71664},{"province":"Kalimantan Selatan","city":"Balangan","district":"Awayan","urban":"Piyait","postal_code":71664},{"province":"Kalimantan Selatan","city":"Balangan","district":"Awayan","urban":"Pudak","postal_code":71664},{"province":"Kalimantan Selatan","city":"Balangan","district":"Awayan","urban":"Nungka","postal_code":71664},{"province":"Kalimantan Selatan","city":"Balangan","district":"Awayan","urban":"Pematang","postal_code":71664},{"province":"Kalimantan Selatan","city":"Balangan","district":"Awayan","urban":"Merah","postal_code":71664},{"province":"Kalimantan Selatan","city":"Balangan","district":"Tebing Tinggi","urban":"Mayanau","postal_code":71664},{"province":"Kalimantan Selatan","city":"Balangan","district":"Awayan","urban":"Muara Jaya","postal_code":71664},{"province":"Kalimantan Selatan","city":"Balangan","district":"Tebing Tinggi","urban":"Kambiyain","postal_code":71664},{"province":"Kalimantan Selatan","city":"Balangan","district":"Awayan","urban":"Kedondong","postal_code":71664},{"province":"Kalimantan Selatan","city":"Balangan","district":"Tebing Tinggi","urban":"Langkap","postal_code":71664},{"province":"Kalimantan Selatan","city":"Balangan","district":"Tebing Tinggi","urban":"Gunung Batu","postal_code":71664},{"province":"Kalimantan Selatan","city":"Balangan","district":"Tebing Tinggi","urban":"Ju Uh","postal_code":71664},{"province":"Kalimantan Selatan","city":"Balangan","district":"Awayan","urban":"Bihara Hilir","postal_code":71664},{"province":"Kalimantan Selatan","city":"Balangan","district":"Tebing Tinggi","urban":"Dayak Pitap","postal_code":71664},{"province":"Kalimantan Selatan","city":"Balangan","district":"Awayan","urban":"Bihara","postal_code":71664},{"province":"Kalimantan Selatan","city":"Balangan","district":"Awayan","urban":"Baramban","postal_code":71664},{"province":"Kalimantan Selatan","city":"Balangan","district":"Awayan","urban":"Baru","postal_code":71664},{"province":"Kalimantan Selatan","city":"Balangan","district":"Awayan","urban":"Awayan Hilir","postal_code":71664},{"province":"Kalimantan Selatan","city":"Balangan","district":"Awayan","urban":"Badalungga","postal_code":71664},{"province":"Kalimantan Selatan","city":"Balangan","district":"Awayan","urban":"Badalungga Hilir","postal_code":71664},{"province":"Kalimantan Selatan","city":"Balangan","district":"Awayan","urban":"Awayan","postal_code":71664},{"province":"Kalimantan Selatan","city":"Balangan","district":"Tebing Tinggi","urban":"Auh","postal_code":71664},{"province":"Kalimantan Selatan","city":"Balangan","district":"Awayan","urban":"Ambakiang (Ambakiyang)","postal_code":71664},{"province":"Kalimantan Selatan","city":"Balangan","district":"Tebing Tinggi","urban":"Ajung","postal_code":71664}]