[{"province":"Kalimantan Selatan","city":"Balangan","district":"Juai","urban":"Tigarun","postal_code":71665},{"province":"Kalimantan Selatan","city":"Balangan","district":"Juai","urban":"Wonorejo","postal_code":71665},{"province":"Kalimantan Selatan","city":"Balangan","district":"Juai","urban":"Tawahan","postal_code":71665},{"province":"Kalimantan Selatan","city":"Balangan","district":"Juai","urban":"Teluk Bayur","postal_code":71665},{"province":"Kalimantan Selatan","city":"Balangan","district":"Juai","urban":"Sirap","postal_code":71665},{"province":"Kalimantan Selatan","city":"Balangan","district":"Juai","urban":"Sumber Rejeki","postal_code":71665},{"province":"Kalimantan Selatan","city":"Balangan","district":"Juai","urban":"Panimbaan","postal_code":71665},{"province":"Kalimantan Selatan","city":"Balangan","district":"Juai","urban":"Sei/Sungai Batung","postal_code":71665},{"province":"Kalimantan Selatan","city":"Balangan","district":"Juai","urban":"Muara Ninian","postal_code":71665},{"province":"Kalimantan Selatan","city":"Balangan","district":"Juai","urban":"Mungkur Uyam","postal_code":71665},{"province":"Kalimantan Selatan","city":"Balangan","district":"Juai","urban":"Pamurus","postal_code":71665},{"province":"Kalimantan Selatan","city":"Balangan","district":"Juai","urban":"Marias","postal_code":71665},{"province":"Kalimantan Selatan","city":"Balangan","district":"Juai","urban":"Mihu","postal_code":71665},{"province":"Kalimantan Selatan","city":"Balangan","district":"Juai","urban":"Lalayau","postal_code":71665},{"province":"Kalimantan Selatan","city":"Balangan","district":"Juai","urban":"Juai","postal_code":71665},{"province":"Kalimantan Selatan","city":"Balangan","district":"Juai","urban":"Hukai","postal_code":71665},{"province":"Kalimantan Selatan","city":"Balangan","district":"Juai","urban":"Gulinggang","postal_code":71665},{"province":"Kalimantan Selatan","city":"Balangan","district":"Juai","urban":"Hamarung","postal_code":71665},{"province":"Kalimantan Selatan","city":"Balangan","district":"Juai","urban":"Buntu Karau","postal_code":71665},{"province":"Kalimantan Selatan","city":"Balangan","district":"Juai","urban":"Galumbang","postal_code":71665},{"province":"Kalimantan Selatan","city":"Balangan","district":"Juai","urban":"Bata","postal_code":71665}]