[{"province":"Kalimantan Selatan","city":"Kotabaru","district":"Pulau Laut Utara","urban":"Sei/Sungai Taib","postal_code":72114},{"province":"Kalimantan Selatan","city":"Kotabaru","district":"Pulau Laut Utara","urban":"Stagen","postal_code":72114},{"province":"Kalimantan Selatan","city":"Kotabaru","district":"Pulau Laut Utara","urban":"Sarang Tiung","postal_code":72114},{"province":"Kalimantan Selatan","city":"Kotabaru","district":"Pulau Laut Utara","urban":"Sebelimbingan","postal_code":72114},{"province":"Kalimantan Selatan","city":"Kotabaru","district":"Pulau Laut Utara","urban":"Mega Sari","postal_code":72114},{"province":"Kalimantan Selatan","city":"Kotabaru","district":"Pulau Laut Utara","urban":"Rampa","postal_code":72114},{"province":"Kalimantan Selatan","city":"Kotabaru","district":"Pulau Laut Utara","urban":"Gunung Ulin","postal_code":72114},{"province":"Kalimantan Selatan","city":"Kotabaru","district":"Pulau Laut Utara","urban":"Kotabaru Hulu","postal_code":72114},{"province":"Kalimantan Selatan","city":"Kotabaru","district":"Pulau Laut Utara","urban":"Gunung Sari","postal_code":72114},{"province":"Kalimantan Selatan","city":"Kotabaru","district":"Pulau Laut Utara","urban":"Gedambaan","postal_code":72114}]