[{"province":"Kalimantan Selatan","city":"Kotabaru","district":"Pulau Laut Barat","urban":"Tepian Balai","postal_code":72153},{"province":"Kalimantan Selatan","city":"Kotabaru","district":"Pulau Laut Barat","urban":"Terangkih / Terangkeh","postal_code":72153},{"province":"Kalimantan Selatan","city":"Kotabaru","district":"Pulau Laut Tanjung Selayar","urban":"Teluk Tamiang / Tamiyang","postal_code":72153},{"province":"Kalimantan Selatan","city":"Kotabaru","district":"Pulau Laut Tanjung Selayar","urban":"Tata Mekar","postal_code":72153},{"province":"Kalimantan Selatan","city":"Kotabaru","district":"Pulau Laut Tanjung Selayar","urban":"Tanjung Sungkai","postal_code":72153},{"province":"Kalimantan Selatan","city":"Kotabaru","district":"Pulau Laut Tanjung Selayar","urban":"Tanjung Tengah","postal_code":72153},{"province":"Kalimantan Selatan","city":"Kotabaru","district":"Pulau Laut Tanjung Selayar","urban":"Tanjung Kunyit","postal_code":72153},{"province":"Kalimantan Selatan","city":"Kotabaru","district":"Pulau Laut Tanjung Selayar","urban":"Tanjung Pelayar","postal_code":72153},{"province":"Kalimantan Selatan","city":"Kotabaru","district":"Pulau Laut Barat","urban":"Subur Makmur (Sepagar I)","postal_code":72153},{"province":"Kalimantan Selatan","city":"Kotabaru","district":"Pulau Laut Barat","urban":"Sumber Sari (Sepagar II)","postal_code":72153},{"province":"Kalimantan Selatan","city":"Kotabaru","district":"Pulau Laut Barat","urban":"Semaras","postal_code":72153},{"province":"Kalimantan Selatan","city":"Kotabaru","district":"Pulau Laut Barat","urban":"Sepagar","postal_code":72153},{"province":"Kalimantan Selatan","city":"Kotabaru","district":"Pulau Laut Barat","urban":"Lontar Timur","postal_code":72153},{"province":"Kalimantan Selatan","city":"Kotabaru","district":"Pulau Laut Barat","urban":"Lontar Utara","postal_code":72153},{"province":"Kalimantan Selatan","city":"Kotabaru","district":"Pulau Laut Barat","urban":"Sebanti","postal_code":72153},{"province":"Kalimantan Selatan","city":"Kotabaru","district":"Pulau Laut Barat","urban":"Lontar Selatan","postal_code":72153},{"province":"Kalimantan Selatan","city":"Kotabaru","district":"Pulau Laut Tanjung Selayar","urban":"Kampung Baru","postal_code":72153},{"province":"Kalimantan Selatan","city":"Kotabaru","district":"Pulau Laut Barat","urban":"Gemuruh","postal_code":72153},{"province":"Kalimantan Selatan","city":"Kotabaru","district":"Pulau Laut Tanjung Selayar","urban":"Gosong Panjang","postal_code":72153},{"province":"Kalimantan Selatan","city":"Kotabaru","district":"Pulau Laut Tanjung Selayar","urban":"Bangun Rejo","postal_code":72153},{"province":"Kalimantan Selatan","city":"Kotabaru","district":"Pulau Laut Tanjung Selayar","urban":"Bandar Raya","postal_code":72153}]