[{"province":"Kalimantan Selatan","city":"Kotabaru","district":"Pulau Laut Selatan","urban":"Teluk Sirih","postal_code":72154},{"province":"Kalimantan Selatan","city":"Kotabaru","district":"Pulau Laut Kepulauan","urban":"Teluk Aru","postal_code":72154},{"province":"Kalimantan Selatan","city":"Kotabaru","district":"Pulau Laut Kepulauan","urban":"Teluk Kemuning","postal_code":72154},{"province":"Kalimantan Selatan","city":"Kotabaru","district":"Pulau Laut Selatan","urban":"Tanjung Serudung","postal_code":72154},{"province":"Kalimantan Selatan","city":"Kotabaru","district":"Pulau Laut Selatan","urban":"Tanjung Seloka","postal_code":72154},{"province":"Kalimantan Selatan","city":"Kotabaru","district":"Pulau Laut Selatan","urban":"Tanjung Seloka Utara","postal_code":72154},{"province":"Kalimantan Selatan","city":"Kotabaru","district":"Pulau Laut Kepulauan","urban":"Tanjung Lalak Selatan","postal_code":72154},{"province":"Kalimantan Selatan","city":"Kotabaru","district":"Pulau Laut Kepulauan","urban":"Tanjung Lalak Utara","postal_code":72154},{"province":"Kalimantan Selatan","city":"Kotabaru","district":"Pulau Laut Selatan","urban":"Sei/Sungai Bahim","postal_code":72154},{"province":"Kalimantan Selatan","city":"Kotabaru","district":"Pulau Laut Selatan","urban":"Sei/Sungai Bulan","postal_code":72154},{"province":"Kalimantan Selatan","city":"Kotabaru","district":"Pulau Laut Kepulauan","urban":"Pulau Kerumputan","postal_code":72154},{"province":"Kalimantan Selatan","city":"Kotabaru","district":"Pulau Laut Kepulauan","urban":"Pulau Kerasian","postal_code":72154},{"province":"Kalimantan Selatan","city":"Kotabaru","district":"Pulau Laut Kepulauan","urban":"Pulau Kerayaan","postal_code":72154},{"province":"Kalimantan Selatan","city":"Kotabaru","district":"Pulau Laut Selatan","urban":"Labuan Mas","postal_code":72154},{"province":"Kalimantan Selatan","city":"Kotabaru","district":"Pulau Laut Kepulauan","urban":"Oka-Oka","postal_code":72154},{"province":"Kalimantan Selatan","city":"Kotabaru","district":"Pulau Laut Kepulauan","urban":"Kerayaan Utara (Rosong Raya)","postal_code":72154},{"province":"Kalimantan Selatan","city":"Kotabaru","district":"Pulau Laut Selatan","urban":"Alle Alle","postal_code":72154}]