[{"province":"Kalimantan Selatan","city":"Kotabaru","district":"Kelumpang Hilir","urban":"Telaga Sari","postal_code":72161},{"province":"Kalimantan Selatan","city":"Kotabaru","district":"Kelumpang Hilir","urban":"Tegal Rejo","postal_code":72161},{"province":"Kalimantan Selatan","city":"Kotabaru","district":"Kelumpang Hilir","urban":"Tarjun","postal_code":72161},{"province":"Kalimantan Selatan","city":"Kotabaru","district":"Kelumpang Selatan","urban":"Tanjung Pangga","postal_code":72161},{"province":"Kalimantan Selatan","city":"Kotabaru","district":"Kelumpang Hilir","urban":"Serongga","postal_code":72161},{"province":"Kalimantan Selatan","city":"Kotabaru","district":"Kelumpang Selatan","urban":"Suka Maju","postal_code":72161},{"province":"Kalimantan Selatan","city":"Kotabaru","district":"Kelumpang Selatan","urban":"Sei/Sungai Nipah","postal_code":72161},{"province":"Kalimantan Selatan","city":"Kotabaru","district":"Kelumpang Selatan","urban":"Sangking Baru","postal_code":72161},{"province":"Kalimantan Selatan","city":"Kotabaru","district":"Kelumpang Selatan","urban":"Sei/Sungai Kupang Jaya","postal_code":72161},{"province":"Kalimantan Selatan","city":"Kotabaru","district":"Kelumpang Hilir","urban":"Sahapi","postal_code":72161},{"province":"Kalimantan Selatan","city":"Kotabaru","district":"Kelumpang Hilir","urban":"Pulau Panci","postal_code":72161},{"province":"Kalimantan Selatan","city":"Kotabaru","district":"Kelumpang Selatan","urban":"Pembelancanan","postal_code":72161},{"province":"Kalimantan Selatan","city":"Kotabaru","district":"Kelumpang Hilir","urban":"Pelaju Baru","postal_code":72161},{"province":"Kalimantan Selatan","city":"Kotabaru","district":"Kelumpang Selatan","urban":"Pantai Baru","postal_code":72161},{"province":"Kalimantan Selatan","city":"Kotabaru","district":"Kelumpang Selatan","urban":"Pantai","postal_code":72161},{"province":"Kalimantan Selatan","city":"Kotabaru","district":"Kelumpang Hilir","urban":"Mandala","postal_code":72161},{"province":"Kalimantan Selatan","city":"Kotabaru","district":"Kelumpang Hilir","urban":"Langadai","postal_code":72161},{"province":"Kalimantan Selatan","city":"Kotabaru","district":"Kelumpang Selatan","urban":"Bumi Asih","postal_code":72161}]