[{"province":"Kalimantan Selatan","city":"Kotabaru","district":"Kelumpang Hulu","urban":"Sido Mulyo","postal_code":72162},{"province":"Kalimantan Selatan","city":"Kotabaru","district":"Kelumpang Hulu","urban":"Mangkirana","postal_code":72162},{"province":"Kalimantan Selatan","city":"Kotabaru","district":"Kelumpang Hulu","urban":"Sei/Sungai Kupang","postal_code":72162},{"province":"Kalimantan Selatan","city":"Kotabaru","district":"Kelumpang Hulu","urban":"Laburan","postal_code":72162},{"province":"Kalimantan Selatan","city":"Kotabaru","district":"Kelumpang Hulu","urban":"Karang Liwar","postal_code":72162},{"province":"Kalimantan Selatan","city":"Kotabaru","district":"Kelumpang Hulu","urban":"Karang Payau","postal_code":72162},{"province":"Kalimantan Selatan","city":"Kotabaru","district":"Kelumpang Hulu","urban":"Banua Lawas","postal_code":72162},{"province":"Kalimantan Selatan","city":"Kotabaru","district":"Kelumpang Hulu","urban":"Cantung Kiri Hilir","postal_code":72162},{"province":"Kalimantan Selatan","city":"Kotabaru","district":"Kelumpang Hulu","urban":"Bangkalan/Bangkalaan Dayak","postal_code":72162},{"province":"Kalimantan Selatan","city":"Kotabaru","district":"Kelumpang Hulu","urban":"Bangkalan/Bangkalaan Melayu","postal_code":72162}]