[{"province":"Kalimantan Selatan","city":"Kotabaru","district":"Hampang","urban":"Peramasan 2X 9 (Sanga/Sembilan)","postal_code":72163},{"province":"Kalimantan Selatan","city":"Kotabaru","district":"Hampang","urban":"Limbur","postal_code":72163},{"province":"Kalimantan Selatan","city":"Kotabaru","district":"Hampang","urban":"Muara Ore","postal_code":72163},{"province":"Kalimantan Selatan","city":"Kotabaru","district":"Hampang","urban":"Lalapin","postal_code":72163},{"province":"Kalimantan Selatan","city":"Kotabaru","district":"Hampang","urban":"Limbungan","postal_code":72163},{"province":"Kalimantan Selatan","city":"Kotabaru","district":"Hampang","urban":"Hampang","postal_code":72163},{"province":"Kalimantan Selatan","city":"Kotabaru","district":"Hampang","urban":"Hulu Sampanahan","postal_code":72163},{"province":"Kalimantan Selatan","city":"Kotabaru","district":"Hampang","urban":"Cantung Kiri Hulu","postal_code":72163},{"province":"Kalimantan Selatan","city":"Kotabaru","district":"Hampang","urban":"Cantung Kanan","postal_code":72163}]