[{"province":"Kalimantan Selatan","city":"Kotabaru","district":"Sampanahan","urban":"Sukamaju","postal_code":72166},{"province":"Kalimantan Selatan","city":"Kotabaru","district":"Sampanahan","urban":"Sepapah","postal_code":72166},{"province":"Kalimantan Selatan","city":"Kotabaru","district":"Sampanahan","urban":"Sampanahan Hilir","postal_code":72166},{"province":"Kalimantan Selatan","city":"Kotabaru","district":"Sampanahan","urban":"Sei/Sungai Betung","postal_code":72166},{"province":"Kalimantan Selatan","city":"Kotabaru","district":"Sampanahan","urban":"Sampanahan","postal_code":72166},{"province":"Kalimantan Selatan","city":"Kotabaru","district":"Sampanahan","urban":"Papaan","postal_code":72166},{"province":"Kalimantan Selatan","city":"Kotabaru","district":"Sampanahan","urban":"Rampa Manunggul","postal_code":72166},{"province":"Kalimantan Selatan","city":"Kotabaru","district":"Sampanahan","urban":"Basuang","postal_code":72166},{"province":"Kalimantan Selatan","city":"Kotabaru","district":"Sampanahan","urban":"Gunung Batu Besar","postal_code":72166},{"province":"Kalimantan Selatan","city":"Kotabaru","district":"Sampanahan","urban":"Banjar Sari","postal_code":72166}]