[{"province":"Kalimantan Selatan","city":"Kotabaru","district":"Pamukan Utara","urban":"Wonorejo","postal_code":72169},{"province":"Kalimantan Selatan","city":"Kotabaru","district":"Pamukan Utara","urban":"Tamiyang","postal_code":72169},{"province":"Kalimantan Selatan","city":"Kotabaru","district":"Pamukan Barat","urban":"Sengayam","postal_code":72169},{"province":"Kalimantan Selatan","city":"Kotabaru","district":"Pamukan Utara","urban":"Sekayu Baru","postal_code":72169},{"province":"Kalimantan Selatan","city":"Kotabaru","district":"Pamukan Utara","urban":"Pamukan Indah","postal_code":72169},{"province":"Kalimantan Selatan","city":"Kotabaru","district":"Pamukan Utara","urban":"Mulyo Harjo","postal_code":72169},{"province":"Kalimantan Selatan","city":"Kotabaru","district":"Pamukan Barat","urban":"Marga Jaya","postal_code":72169},{"province":"Kalimantan Selatan","city":"Kotabaru","district":"Pamukan Barat","urban":"Mayang Sari","postal_code":72169},{"province":"Kalimantan Selatan","city":"Kotabaru","district":"Pamukan Utara","urban":"Lintang Jaya","postal_code":72169},{"province":"Kalimantan Selatan","city":"Kotabaru","district":"Pamukan Barat","urban":"Mangka","postal_code":72169},{"province":"Kalimantan Selatan","city":"Kotabaru","district":"Pamukan Utara","urban":"Harapan Baru","postal_code":72169},{"province":"Kalimantan Selatan","city":"Kotabaru","district":"Pamukan Utara","urban":"Kalian","postal_code":72169},{"province":"Kalimantan Selatan","city":"Kotabaru","district":"Pamukan Utara","urban":"Betung","postal_code":72169},{"province":"Kalimantan Selatan","city":"Kotabaru","district":"Pamukan Utara","urban":"Binturung","postal_code":72169},{"province":"Kalimantan Selatan","city":"Kotabaru","district":"Pamukan Barat","urban":"Batuah","postal_code":72169},{"province":"Kalimantan Selatan","city":"Kotabaru","district":"Pamukan Utara","urban":"Bepara","postal_code":72169},{"province":"Kalimantan Selatan","city":"Kotabaru","district":"Pamukan Utara","urban":"Balamea","postal_code":72169},{"province":"Kalimantan Selatan","city":"Kotabaru","district":"Pamukan Utara","urban":"Bakau","postal_code":72169}]