[{"province":"Kalimantan Selatan","city":"Kotabaru","district":"Sungai Durian","urban":"Terombong Sari","postal_code":72167},{"province":"Kalimantan Selatan","city":"Kotabaru","district":"Sungai Durian","urban":"Rantau Buda","postal_code":72167},{"province":"Kalimantan Selatan","city":"Kotabaru","district":"Sungai Durian","urban":"Rantau Jaya","postal_code":72167},{"province":"Kalimantan Selatan","city":"Kotabaru","district":"Sungai Durian","urban":"Manunggul Baru","postal_code":72167},{"province":"Kalimantan Selatan","city":"Kotabaru","district":"Sungai Durian","urban":"Manunggul Lama","postal_code":72167},{"province":"Kalimantan Selatan","city":"Kotabaru","district":"Kelumpang Barat","urban":"Magalau Hilir","postal_code":72167},{"province":"Kalimantan Selatan","city":"Kotabaru","district":"Kelumpang Barat","urban":"Magalau Hulu","postal_code":72167},{"province":"Kalimantan Selatan","city":"Kotabaru","district":"Sungai Durian","urban":"Buluh Kuning","postal_code":72167},{"province":"Kalimantan Selatan","city":"Kotabaru","district":"Sungai Durian","urban":"Gendang Timburu","postal_code":72167},{"province":"Kalimantan Selatan","city":"Tabalong","district":"Banua Lawas","urban":"Sei/Sungai Durian","postal_code":72167}]