[{"province":"Kalimantan Selatan","city":"Tanah Bumbu","district":"Karang Bintang","urban":"Sumber Wangi","postal_code":72211},{"province":"Kalimantan Selatan","city":"Tanah Bumbu","district":"Mantewe","urban":"Sukadamai","postal_code":72211},{"province":"Kalimantan Selatan","city":"Tanah Bumbu","district":"Mantewe","urban":"Sepakat","postal_code":72211},{"province":"Kalimantan Selatan","city":"Tanah Bumbu","district":"Mantewe","urban":"Sido Mulyo","postal_code":72211},{"province":"Kalimantan Selatan","city":"Tanah Bumbu","district":"Karang Bintang","urban":"Sela Selilau","postal_code":72211},{"province":"Kalimantan Selatan","city":"Tanah Bumbu","district":"Simpang Empat","urban":"Sei/Sungai Dua","postal_code":72211},{"province":"Kalimantan Selatan","city":"Tanah Bumbu","district":"Batulicin","urban":"Segumbang","postal_code":72211},{"province":"Kalimantan Selatan","city":"Tanah Bumbu","district":"Simpang Empat","urban":"Sari Gadung","postal_code":72211},{"province":"Kalimantan Selatan","city":"Tanah Bumbu","district":"Mantewe","urban":"Sari Mulya/Mulia","postal_code":72211},{"province":"Kalimantan Selatan","city":"Tanah Bumbu","district":"Mantewe","urban":"Rejosari","postal_code":72211},{"province":"Kalimantan Selatan","city":"Tanah Bumbu","district":"Batulicin","urban":"Pondok Butun","postal_code":72211},{"province":"Kalimantan Selatan","city":"Tanah Bumbu","district":"Karang Bintang","urban":"Rejo Winangun","postal_code":72211},{"province":"Kalimantan Selatan","city":"Tanah Bumbu","district":"Karang Bintang","urban":"Pematang Ulin","postal_code":72211},{"province":"Kalimantan Selatan","city":"Tanah Bumbu","district":"Karang Bintang","urban":"Pandan Sari","postal_code":72211},{"province":"Kalimantan Selatan","city":"Tanah Bumbu","district":"Mantewe","urban":"Mentawakan Mulya/Mulia","postal_code":72211},{"province":"Kalimantan Selatan","city":"Tanah Bumbu","district":"Karang Bintang","urban":"Manunggal","postal_code":72211},{"province":"Kalimantan Selatan","city":"Tanah Bumbu","district":"Simpang Empat","urban":"Mekar Sari","postal_code":72211},{"province":"Kalimantan Selatan","city":"Tanah Bumbu","district":"Mantewe","urban":"Maju Mulyo","postal_code":72211},{"province":"Kalimantan Selatan","city":"Tanah Bumbu","district":"Mantewe","urban":"Mantewe","postal_code":72211},{"province":"Kalimantan Selatan","city":"Tanah Bumbu","district":"Karang Bintang","urban":"Madu Retno","postal_code":72211},{"province":"Kalimantan Selatan","city":"Tanah Bumbu","district":"Karang Bintang","urban":"Karang Rejo","postal_code":72211},{"province":"Kalimantan Selatan","city":"Tanah Bumbu","district":"Karang Bintang","urban":"Harapan Maju","postal_code":72211},{"province":"Kalimantan Selatan","city":"Tanah Bumbu","district":"Karang Bintang","urban":"Karang Bintang","postal_code":72211},{"province":"Kalimantan Selatan","city":"Tanah Bumbu","district":"Mantewe","urban":"Gunung Hatalau Meratus Raya","postal_code":72211},{"province":"Kalimantan Selatan","city":"Tanah Bumbu","district":"Mantewe","urban":"Gunung Raya","postal_code":72211},{"province":"Kalimantan Selatan","city":"Tanah Bumbu","district":"Mantewe","urban":"Dukuh Rejo","postal_code":72211},{"province":"Kalimantan Selatan","city":"Tanah Bumbu","district":"Mantewe","urban":"Emil Baru","postal_code":72211},{"province":"Kalimantan Selatan","city":"Tanah Bumbu","district":"Mantewe","urban":"Bulu Rejo","postal_code":72211},{"province":"Kalimantan Selatan","city":"Tanah Bumbu","district":"Karang Bintang","urban":"Batulicin Irigasi","postal_code":72211}]