[{"province":"Kalimantan Selatan","city":"Tanah Bumbu","district":"Satui","urban":"Tegal Sari","postal_code":72275},{"province":"Kalimantan Selatan","city":"Tanah Bumbu","district":"Satui","urban":"Wonorejo","postal_code":72275},{"province":"Kalimantan Selatan","city":"Tanah Bumbu","district":"Satui","urban":"Sumber Makmur","postal_code":72275},{"province":"Kalimantan Selatan","city":"Tanah Bumbu","district":"Angsana","urban":"Sumber Baru","postal_code":72275},{"province":"Kalimantan Selatan","city":"Tanah Bumbu","district":"Satui","urban":"Sumber Arum","postal_code":72275},{"province":"Kalimantan Selatan","city":"Tanah Bumbu","district":"Satui","urban":"Sinar Bulan","postal_code":72275},{"province":"Kalimantan Selatan","city":"Tanah Bumbu","district":"Satui","urban":"Sei/Sungai Danau","postal_code":72275},{"province":"Kalimantan Selatan","city":"Tanah Bumbu","district":"Satui","urban":"Sekapuk","postal_code":72275},{"province":"Kalimantan Selatan","city":"Tanah Bumbu","district":"Satui","urban":"Setarap","postal_code":72275},{"province":"Kalimantan Selatan","city":"Tanah Bumbu","district":"Satui","urban":"Satui Timur","postal_code":72275},{"province":"Kalimantan Selatan","city":"Tanah Bumbu","district":"Satui","urban":"Sei/Sungai Cuka","postal_code":72275},{"province":"Kalimantan Selatan","city":"Tanah Bumbu","district":"Satui","urban":"Pandamaran Jaya","postal_code":72275},{"province":"Kalimantan Selatan","city":"Tanah Bumbu","district":"Satui","urban":"Satui Barat","postal_code":72275},{"province":"Kalimantan Selatan","city":"Tanah Bumbu","district":"Angsana","urban":"Purwodadi","postal_code":72275},{"province":"Kalimantan Selatan","city":"Tanah Bumbu","district":"Satui","urban":"Mulya Makmur","postal_code":72275},{"province":"Kalimantan Selatan","city":"Tanah Bumbu","district":"Angsana","urban":"Mekar Jaya","postal_code":72275},{"province":"Kalimantan Selatan","city":"Tanah Bumbu","district":"Angsana","urban":"Karang Indah","postal_code":72275},{"province":"Kalimantan Selatan","city":"Tanah Bumbu","district":"Angsana","urban":"Makmur","postal_code":72275},{"province":"Kalimantan Selatan","city":"Tanah Bumbu","district":"Satui","urban":"Jombang","postal_code":72275},{"province":"Kalimantan Selatan","city":"Tanah Bumbu","district":"Angsana","urban":"Bunati","postal_code":72275},{"province":"Kalimantan Selatan","city":"Tanah Bumbu","district":"Satui","urban":"Bukit Baru","postal_code":72275},{"province":"Kalimantan Selatan","city":"Tanah Bumbu","district":"Angsana","urban":"Banjar Sari","postal_code":72275},{"province":"Kalimantan Selatan","city":"Tanah Bumbu","district":"Angsana","urban":"Bayan Sari","postal_code":72275},{"province":"Kalimantan Selatan","city":"Tanah Bumbu","district":"Angsana","urban":"Angsana","postal_code":72275},{"province":"Kalimantan Selatan","city":"Tanah Bumbu","district":"Satui","urban":"Al Kausar","postal_code":72275}]