[{"province":"Kalimantan Tengah","city":"Kapuas","district":"Mantangai","urban":"Warga Mulya","postal_code":73553},{"province":"Kalimantan Tengah","city":"Kapuas","district":"Mantangai","urban":"Tumbang Muroi","postal_code":73553},{"province":"Kalimantan Tengah","city":"Kapuas","district":"Mantangai","urban":"Tumbang Mangkurup","postal_code":73553},{"province":"Kalimantan Tengah","city":"Kapuas","district":"Mantangai","urban":"Sumber Makmur","postal_code":73553},{"province":"Kalimantan Tengah","city":"Kapuas","district":"Mantangai","urban":"Tabore","postal_code":73553},{"province":"Kalimantan Tengah","city":"Kapuas","district":"Mantangai","urban":"Tarantang","postal_code":73553},{"province":"Kalimantan Tengah","city":"Kapuas","district":"Mantangai","urban":"Sri Widadi","postal_code":73553},{"province":"Kalimantan Tengah","city":"Kapuas","district":"Mantangai","urban":"Suka Maju","postal_code":73553},{"province":"Kalimantan Tengah","city":"Kapuas","district":"Mantangai","urban":"Sido Mulyo","postal_code":73553},{"province":"Kalimantan Tengah","city":"Kapuas","district":"Mantangai","urban":"Sekata Bangun","postal_code":73553},{"province":"Kalimantan Tengah","city":"Kapuas","district":"Mantangai","urban":"Sekata Makmur","postal_code":73553},{"province":"Kalimantan Tengah","city":"Kapuas","district":"Mantangai","urban":"Sei/Sungai Ahas","postal_code":73553},{"province":"Kalimantan Tengah","city":"Kapuas","district":"Mantangai","urban":"Sei/Sungai Kapar","postal_code":73553},{"province":"Kalimantan Tengah","city":"Kapuas","district":"Mantangai","urban":"Sei Gawing","postal_code":73553},{"province":"Kalimantan Tengah","city":"Kapuas","district":"Mantangai","urban":"Sei Gita","postal_code":73553},{"province":"Kalimantan Tengah","city":"Kapuas","district":"Mantangai","urban":"Pulau Kaladan","postal_code":73553},{"province":"Kalimantan Tengah","city":"Kapuas","district":"Mantangai","urban":"Rantau jaya","postal_code":73553},{"province":"Kalimantan Tengah","city":"Kapuas","district":"Mantangai","urban":"Sari Makmur","postal_code":73553},{"province":"Kalimantan Tengah","city":"Kapuas","district":"Mantangai","urban":"Manyahi","postal_code":73553},{"province":"Kalimantan Tengah","city":"Kapuas","district":"Mantangai","urban":"Muroi Raya","postal_code":73553},{"province":"Kalimantan Tengah","city":"Kapuas","district":"Mantangai","urban":"Manusup Hilir","postal_code":73553},{"province":"Kalimantan Tengah","city":"Kapuas","district":"Mantangai","urban":"Manusup","postal_code":73553},{"province":"Kalimantan Tengah","city":"Kapuas","district":"Mantangai","urban":"Mantangai Hulu","postal_code":73553},{"province":"Kalimantan Tengah","city":"Kapuas","district":"Mantangai","urban":"Mantangai Tengah","postal_code":73553},{"province":"Kalimantan Tengah","city":"Kapuas","district":"Mantangai","urban":"Lamunti Permai","postal_code":73553},{"province":"Kalimantan Tengah","city":"Kapuas","district":"Mantangai","urban":"Mantangai Hilir","postal_code":73553},{"province":"Kalimantan Tengah","city":"Kapuas","district":"Mantangai","urban":"Lamunti","postal_code":73553},{"province":"Kalimantan Tengah","city":"Kapuas","district":"Mantangai","urban":"Lamunti Baru","postal_code":73553},{"province":"Kalimantan Tengah","city":"Kapuas","district":"Mantangai","urban":"Lahei Mangkutup","postal_code":73553},{"province":"Kalimantan Tengah","city":"Kapuas","district":"Mantangai","urban":"Lampetan","postal_code":73553},{"province":"Kalimantan Tengah","city":"Kapuas","district":"Mantangai","urban":"Katimpun","postal_code":73553},{"province":"Kalimantan Tengah","city":"Kapuas","district":"Mantangai","urban":"Katunjung","postal_code":73553},{"province":"Kalimantan Tengah","city":"Kapuas","district":"Mantangai","urban":"Kaladan Jaya","postal_code":73553},{"province":"Kalimantan Tengah","city":"Kapuas","district":"Mantangai","urban":"Kalumpang","postal_code":73553},{"province":"Kalimantan Tengah","city":"Kapuas","district":"Mantangai","urban":"Harapan Jaya","postal_code":73553},{"province":"Kalimantan Tengah","city":"Kapuas","district":"Mantangai","urban":"Humbang Raya","postal_code":73553},{"province":"Kalimantan Tengah","city":"Kapuas","district":"Mantangai","urban":"Bukit Baru","postal_code":73553},{"province":"Kalimantan Tengah","city":"Kapuas","district":"Mantangai","urban":"Danau Tawah/Rawah","postal_code":73553}]