[{"province":"Kalimantan Tengah","city":"Kapuas","district":"Pasak Talawang","urban":"Tumbang Nusa","postal_code":73555},{"province":"Kalimantan Tengah","city":"Kapuas","district":"Pasak Talawang","urban":"Tumbang Tukun","postal_code":73555},{"province":"Kalimantan Tengah","city":"Kapuas","district":"Kapuas Tengah","urban":"Tapen","postal_code":73555},{"province":"Kalimantan Tengah","city":"Kapuas","district":"Pasak Talawang","urban":"Tumbang Diring","postal_code":73555},{"province":"Kalimantan Tengah","city":"Kapuas","district":"Pasak Talawang","urban":"Sei/Sungai Ringin","postal_code":73555},{"province":"Kalimantan Tengah","city":"Kapuas","district":"Kapuas Tengah","urban":"Pujon","postal_code":73555},{"province":"Kalimantan Tengah","city":"Kapuas","district":"Kapuas Tengah","urban":"Penda Muntei","postal_code":73555},{"province":"Kalimantan Tengah","city":"Kapuas","district":"Mandau Talawang","urban":"Masupa Ria","postal_code":73555},{"province":"Kalimantan Tengah","city":"Kapuas","district":"Kapuas Tengah","urban":"Marapit (Merapit)","postal_code":73555},{"province":"Kalimantan Tengah","city":"Kapuas","district":"Kapuas Tengah","urban":"Masaran","postal_code":73555},{"province":"Kalimantan Tengah","city":"Kapuas","district":"Kapuas Tengah","urban":"Kayu Bulan","postal_code":73555},{"province":"Kalimantan Tengah","city":"Kapuas","district":"Kapuas Tengah","urban":"Kota Baru","postal_code":73555},{"province":"Kalimantan Tengah","city":"Kapuas","district":"Kapuas Tengah","urban":"Manis","postal_code":73555},{"province":"Kalimantan Tengah","city":"Kapuas","district":"Kapuas Tengah","urban":"Karukus","postal_code":73555},{"province":"Kalimantan Tengah","city":"Kapuas","district":"Pasak Talawang","urban":"Kaburan","postal_code":73555},{"province":"Kalimantan Tengah","city":"Kapuas","district":"Pasak Talawang","urban":"Jangkang","postal_code":73555},{"province":"Kalimantan Tengah","city":"Kapuas","district":"Kapuas Tengah","urban":"Hurung Pukung","postal_code":73555},{"province":"Kalimantan Tengah","city":"Kapuas","district":"Mandau Talawang","urban":"Jakatan Masaha","postal_code":73555},{"province":"Kalimantan Tengah","city":"Kapuas","district":"Pasak Talawang","urban":"Dandang","postal_code":73555},{"province":"Kalimantan Tengah","city":"Kapuas","district":"Pasak Talawang","urban":"Hurung Kampin","postal_code":73555},{"province":"Kalimantan Tengah","city":"Kapuas","district":"Kapuas Tengah","urban":"Buhut Jaya","postal_code":73555},{"province":"Kalimantan Tengah","city":"Kapuas","district":"Pasak Talawang","urban":"Batu Sambung","postal_code":73555},{"province":"Kalimantan Tengah","city":"Kapuas","district":"Kapuas Tengah","urban":"Barunang","postal_code":73555},{"province":"Kalimantan Tengah","city":"Kapuas","district":"Pasak Talawang","urban":"Balai Banjang","postal_code":73555},{"province":"Kalimantan Tengah","city":"Kapuas","district":"Kapuas Tengah","urban":"Bajuh","postal_code":73555}]