[{"province":"Kalimantan Tengah","city":"Kapuas","district":"Pulau Petak","urban":"Teluk Palinget","postal_code":73592},{"province":"Kalimantan Tengah","city":"Kapuas","district":"Pulau Petak","urban":"Sei Tatas Hilir","postal_code":73592},{"province":"Kalimantan Tengah","city":"Kapuas","district":"Pulau Petak","urban":"Sei/Sungai Tatas","postal_code":73592},{"province":"Kalimantan Tengah","city":"Kapuas","district":"Pulau Petak","urban":"Sakalagun","postal_code":73592},{"province":"Kalimantan Tengah","city":"Kapuas","district":"Pulau Petak","urban":"Palangkai","postal_code":73592},{"province":"Kalimantan Tengah","city":"Kapuas","district":"Pulau Petak","urban":"Narahan","postal_code":73592},{"province":"Kalimantan Tengah","city":"Kapuas","district":"Pulau Petak","urban":"Narahan Baru","postal_code":73592},{"province":"Kalimantan Tengah","city":"Kapuas","district":"Pulau Petak","urban":"Handiwung","postal_code":73592},{"province":"Kalimantan Tengah","city":"Kapuas","district":"Pulau Petak","urban":"Mawar Mekar","postal_code":73592},{"province":"Kalimantan Tengah","city":"Kapuas","district":"Pulau Petak","urban":"Banama","postal_code":73592},{"province":"Kalimantan Tengah","city":"Kapuas","district":"Pulau Petak","urban":"Bunga Mawar","postal_code":73592},{"province":"Kalimantan Tengah","city":"Kapuas","district":"Pulau Petak","urban":"Anjir Palambang","postal_code":73592}]