[{"province":"Kalimantan Tengah","city":"Barito Timur","district":"Paju Epat","urban":"Tampulangit","postal_code":73617},{"province":"Kalimantan Tengah","city":"Barito Timur","district":"Paju Epat","urban":"Telang Baru","postal_code":73617},{"province":"Kalimantan Tengah","city":"Barito Timur","district":"Paju Epat","urban":"Telang Siong","postal_code":73617},{"province":"Kalimantan Tengah","city":"Barito Timur","district":"Paju Epat","urban":"Siong","postal_code":73617},{"province":"Kalimantan Tengah","city":"Barito Timur","district":"Dusun Timur","urban":"Sarapat (Ex. Harara)","postal_code":73617},{"province":"Kalimantan Tengah","city":"Barito Timur","district":"Dusun Timur","urban":"Tamiang Layang","postal_code":73617},{"province":"Kalimantan Tengah","city":"Barito Timur","district":"Paju Epat","urban":"Murutuwu","postal_code":73617},{"province":"Kalimantan Tengah","city":"Barito Timur","district":"Dusun Timur","urban":"Pulau Patai","postal_code":73617},{"province":"Kalimantan Tengah","city":"Barito Timur","district":"Dusun Timur","urban":"Karang Langit","postal_code":73617},{"province":"Kalimantan Tengah","city":"Barito Timur","district":"Paju Epat","urban":"Maipe","postal_code":73617},{"province":"Kalimantan Tengah","city":"Barito Timur","district":"Dusun Timur","urban":"Jaweten","postal_code":73617},{"province":"Kalimantan Tengah","city":"Barito Timur","district":"Paju Epat","urban":"Juru Banu","postal_code":73617},{"province":"Kalimantan Tengah","city":"Barito Timur","district":"Paju Epat","urban":"Kali Napu","postal_code":73617},{"province":"Kalimantan Tengah","city":"Barito Timur","district":"Dusun Timur","urban":"Jaar","postal_code":73617},{"province":"Kalimantan Tengah","city":"Barito Timur","district":"Dusun Timur","urban":"Didi","postal_code":73617},{"province":"Kalimantan Tengah","city":"Barito Timur","district":"Paju Epat","urban":"Balawa","postal_code":73617}]