[{"province":"Kalimantan Tengah","city":"Barito Timur","district":"Karusen Janang","urban":"Wuran","postal_code":73652},{"province":"Kalimantan Tengah","city":"Barito Timur","district":"Raren Batuah","urban":"Turan Amis","postal_code":73652},{"province":"Kalimantan Tengah","city":"Barito Timur","district":"Raren Batuah","urban":"Unsum","postal_code":73652},{"province":"Kalimantan Tengah","city":"Barito Timur","district":"Raren Batuah","urban":"Tangkum","postal_code":73652},{"province":"Kalimantan Tengah","city":"Barito Timur","district":"Paku","urban":"Taringsing","postal_code":73652},{"province":"Kalimantan Tengah","city":"Barito Timur","district":"Dusun Tengah","urban":"Sumber Garonggong","postal_code":73652},{"province":"Kalimantan Tengah","city":"Barito Timur","district":"Paku","urban":"Tampa","postal_code":73652},{"province":"Kalimantan Tengah","city":"Barito Timur","district":"Karusen Janang","urban":"Simpang Naneng","postal_code":73652},{"province":"Kalimantan Tengah","city":"Barito Timur","district":"Raren Batuah","urban":"Sibung","postal_code":73652},{"province":"Kalimantan Tengah","city":"Barito Timur","district":"Paku","urban":"Simpang Bingkuang/Bangkuang","postal_code":73652},{"province":"Kalimantan Tengah","city":"Barito Timur","district":"Dusun Tengah","urban":"Saing","postal_code":73652},{"province":"Kalimantan Tengah","city":"Barito Timur","district":"Paku","urban":"Runggu Raya","postal_code":73652},{"province":"Kalimantan Tengah","city":"Barito Timur","district":"Dusun Tengah","urban":"Rodok","postal_code":73652},{"province":"Kalimantan Tengah","city":"Barito Timur","district":"Karusen Janang","urban":"Putut Tawuluh","postal_code":73652},{"province":"Kalimantan Tengah","city":"Barito Timur","district":"Dusun Tengah","urban":"Putai","postal_code":73652},{"province":"Kalimantan Tengah","city":"Barito Timur","district":"Raren Batuah","urban":"Puri","postal_code":73652},{"province":"Kalimantan Tengah","city":"Barito Timur","district":"Paku","urban":"Patung","postal_code":73652},{"province":"Kalimantan Tengah","city":"Barito Timur","district":"Paku","urban":"Pangkan","postal_code":73652},{"province":"Kalimantan Tengah","city":"Barito Timur","district":"Paku","urban":"Paku Beto","postal_code":73652},{"province":"Kalimantan Tengah","city":"Barito Timur","district":"Dusun Tengah","urban":"Muara Awang","postal_code":73652},{"province":"Kalimantan Tengah","city":"Barito Timur","district":"Dusun Tengah","urban":"Netapin / Netampin","postal_code":73652},{"province":"Kalimantan Tengah","city":"Barito Timur","district":"Raren Batuah","urban":"Malintot","postal_code":73652},{"province":"Kalimantan Tengah","city":"Barito Timur","district":"Paku","urban":"Luau Jawuk","postal_code":73652},{"province":"Kalimantan Tengah","city":"Barito Timur","district":"Paku","urban":"Kupang Baru","postal_code":73652},{"province":"Kalimantan Tengah","city":"Barito Timur","district":"Karusen Janang","urban":"Lagan","postal_code":73652},{"province":"Kalimantan Tengah","city":"Barito Timur","district":"Raren Batuah","urban":"Lenggang","postal_code":73652},{"province":"Kalimantan Tengah","city":"Barito Timur","district":"Karusen Janang","urban":"Kandris","postal_code":73652},{"province":"Kalimantan Tengah","city":"Barito Timur","district":"Paku","urban":"Kalamus","postal_code":73652},{"province":"Kalimantan Tengah","city":"Barito Timur","district":"Karusen Janang","urban":"Ipu Mea","postal_code":73652},{"province":"Kalimantan Tengah","city":"Barito Timur","district":"Paku","urban":"Gandrung","postal_code":73652},{"province":"Kalimantan Tengah","city":"Barito Timur","district":"Karusen Janang","urban":"Dayu","postal_code":73652},{"province":"Kalimantan Tengah","city":"Barito Timur","district":"Raren Batuah","urban":"Baruyan","postal_code":73652},{"province":"Kalimantan Tengah","city":"Barito Timur","district":"Raren Batuah","urban":"Batuah","postal_code":73652},{"province":"Kalimantan Tengah","city":"Barito Timur","district":"Paku","urban":"Bantai Napu","postal_code":73652},{"province":"Kalimantan Tengah","city":"Barito Timur","district":"Dusun Tengah","urban":"Ampah Dua","postal_code":73652},{"province":"Kalimantan Tengah","city":"Barito Timur","district":"Dusun Tengah","urban":"Ampah Kota","postal_code":73652}]