[{"province":"Kalimantan Tengah","city":"Barito Timur","district":"Patangkep Tutui","urban":"Tamiang","postal_code":73671},{"province":"Kalimantan Tengah","city":"Barito Timur","district":"Patangkep Tutui","urban":"Pulau Padang","postal_code":73671},{"province":"Kalimantan Tengah","city":"Barito Timur","district":"Patangkep Tutui","urban":"Ramania","postal_code":73671},{"province":"Kalimantan Tengah","city":"Barito Timur","district":"Patangkep Tutui","urban":"Lalap","postal_code":73671},{"province":"Kalimantan Tengah","city":"Barito Timur","district":"Patangkep Tutui","urban":"Muani","postal_code":73671},{"province":"Kalimantan Tengah","city":"Barito Timur","district":"Patangkep Tutui","urban":"Kotam","postal_code":73671},{"province":"Kalimantan Tengah","city":"Barito Timur","district":"Patangkep Tutui","urban":"Kambitin","postal_code":73671},{"province":"Kalimantan Tengah","city":"Barito Timur","district":"Patangkep Tutui","urban":"Jango","postal_code":73671},{"province":"Kalimantan Tengah","city":"Barito Timur","district":"Patangkep Tutui","urban":"Betang Nalong","postal_code":73671},{"province":"Kalimantan Tengah","city":"Barito Timur","district":"Patangkep Tutui","urban":"Ampari Bora","postal_code":73671},{"province":"Kalimantan Tengah","city":"Barito Timur","district":"Patangkep Tutui","urban":"Bentot","postal_code":73671}]