[{"province":"Kalimantan Tengah","city":"Barito Selatan","district":"Dusun Selatan","urban":"Teluk Telaga","postal_code":73713},{"province":"Kalimantan Tengah","city":"Barito Selatan","district":"Dusun Selatan","urban":"Tetei Lanan","postal_code":73713},{"province":"Kalimantan Tengah","city":"Barito Selatan","district":"Dusun Selatan","urban":"Telang Andrau","postal_code":73713},{"province":"Kalimantan Tengah","city":"Barito Selatan","district":"Dusun Selatan","urban":"Teluk Mampun","postal_code":73713},{"province":"Kalimantan Tengah","city":"Barito Selatan","district":"Dusun Selatan","urban":"Pamangka","postal_code":73713},{"province":"Kalimantan Tengah","city":"Barito Selatan","district":"Dusun Selatan","urban":"Mangaris","postal_code":73713},{"province":"Kalimantan Tengah","city":"Barito Selatan","district":"Dusun Selatan","urban":"Muara Talang","postal_code":73713},{"province":"Kalimantan Tengah","city":"Barito Selatan","district":"Dusun Selatan","urban":"Murung Paken","postal_code":73713},{"province":"Kalimantan Tengah","city":"Barito Selatan","district":"Dusun Selatan","urban":"Lembeng","postal_code":73713},{"province":"Kalimantan Tengah","city":"Barito Selatan","district":"Dusun Selatan","urban":"Madara","postal_code":73713},{"province":"Kalimantan Tengah","city":"Barito Selatan","district":"Dusun Selatan","urban":"Jelapat","postal_code":73713},{"province":"Kalimantan Tengah","city":"Barito Selatan","district":"Dusun Selatan","urban":"Danau Sadar","postal_code":73713},{"province":"Kalimantan Tengah","city":"Barito Selatan","district":"Dusun Selatan","urban":"Dangka","postal_code":73713},{"province":"Kalimantan Tengah","city":"Barito Selatan","district":"Dusun Selatan","urban":"Danau Ganting","postal_code":73713},{"province":"Kalimantan Tengah","city":"Barito Selatan","district":"Dusun Selatan","urban":"Danau Masura","postal_code":73713},{"province":"Kalimantan Tengah","city":"Barito Selatan","district":"Dusun Selatan","urban":"Baru","postal_code":73713}]