[{"province":"Kalimantan Tengah","city":"Barito Selatan","district":"Dusun Selatan","urban":"Sanggu","postal_code":73751},{"province":"Kalimantan Tengah","city":"Barito Selatan","district":"Dusun Selatan","urban":"Tanjung Jawa","postal_code":73751},{"province":"Kalimantan Tengah","city":"Barito Selatan","district":"Dusun Selatan","urban":"Penda Asam","postal_code":73751},{"province":"Kalimantan Tengah","city":"Barito Selatan","district":"Dusun Selatan","urban":"Sababilah","postal_code":73751},{"province":"Kalimantan Tengah","city":"Barito Selatan","district":"Dusun Selatan","urban":"Pararapak","postal_code":73751},{"province":"Kalimantan Tengah","city":"Barito Selatan","district":"Dusun Selatan","urban":"Muara Ripung","postal_code":73751},{"province":"Kalimantan Tengah","city":"Barito Selatan","district":"Dusun Selatan","urban":"Pamait","postal_code":73751},{"province":"Kalimantan Tengah","city":"Barito Selatan","district":"Dusun Selatan","urban":"Kalahien","postal_code":73751},{"province":"Kalimantan Tengah","city":"Barito Selatan","district":"Dusun Selatan","urban":"Mabuan","postal_code":73751}]