[{"province":"Kalimantan Tengah","city":"Barito Selatan","district":"Dusun Hilir","urban":"Sei/Sungai Jaya","postal_code":73762},{"province":"Kalimantan Tengah","city":"Barito Selatan","district":"Dusun Hilir","urban":"Teluk Timbau","postal_code":73762},{"province":"Kalimantan Tengah","city":"Barito Selatan","district":"Dusun Hilir","urban":"Mahajandau/Mahanjau","postal_code":73762},{"province":"Kalimantan Tengah","city":"Barito Selatan","district":"Dusun Hilir","urban":"Mangkatir","postal_code":73762},{"province":"Kalimantan Tengah","city":"Barito Selatan","district":"Dusun Hilir","urban":"Mengkatip","postal_code":73762},{"province":"Kalimantan Tengah","city":"Barito Selatan","district":"Dusun Hilir","urban":"Damparan","postal_code":73762},{"province":"Kalimantan Tengah","city":"Barito Selatan","district":"Dusun Hilir","urban":"Kalanis","postal_code":73762},{"province":"Kalimantan Tengah","city":"Barito Selatan","district":"Dusun Hilir","urban":"Lehai","postal_code":73762},{"province":"Kalimantan Tengah","city":"Barito Selatan","district":"Dusun Hilir","urban":"Batilap","postal_code":73762},{"province":"Kalimantan Tengah","city":"Barito Selatan","district":"Dusun Hilir","urban":"Batampang","postal_code":73762}]