[{"province":"Kalimantan Tengah","city":"Barito Utara","district":"Teweh Selatan","urban":"Terinsing/Trinsing","postal_code":73814},{"province":"Kalimantan Tengah","city":"Barito Utara","district":"Teweh Selatan","urban":"Trahean","postal_code":73814},{"province":"Kalimantan Tengah","city":"Barito Utara","district":"Teweh Baru","urban":"Sikui","postal_code":73814},{"province":"Kalimantan Tengah","city":"Barito Utara","district":"Teweh Selatan","urban":"Tawan Jaya","postal_code":73814},{"province":"Kalimantan Tengah","city":"Barito Utara","district":"Teweh Tengah","urban":"Sei/Sungai Rahayu I","postal_code":73814},{"province":"Kalimantan Tengah","city":"Barito Utara","district":"Teweh Tengah","urban":"Sei/Sungai Rahayu II","postal_code":73814},{"province":"Kalimantan Tengah","city":"Barito Utara","district":"Teweh Baru","urban":"Sabuh","postal_code":73814},{"province":"Kalimantan Tengah","city":"Barito Utara","district":"Teweh Tengah","urban":"Rimba Sari","postal_code":73814},{"province":"Kalimantan Tengah","city":"Barito Utara","district":"Teweh Selatan","urban":"Pandran Raya","postal_code":73814},{"province":"Kalimantan Tengah","city":"Barito Utara","district":"Teweh Tengah","urban":"Pendreh/Pandreh","postal_code":73814},{"province":"Kalimantan Tengah","city":"Barito Utara","district":"Teweh Selatan","urban":"Pandran Permai","postal_code":73814},{"province":"Kalimantan Tengah","city":"Barito Utara","district":"Teweh Baru","urban":"Malawaken","postal_code":73814},{"province":"Kalimantan Tengah","city":"Barito Utara","district":"Teweh Baru","urban":"Liang Naga","postal_code":73814},{"province":"Kalimantan Tengah","city":"Barito Utara","district":"Teweh Tengah","urban":"Lemo II","postal_code":73814},{"province":"Kalimantan Tengah","city":"Barito Utara","district":"Teweh Baru","urban":"Hajak","postal_code":73814},{"province":"Kalimantan Tengah","city":"Barito Utara","district":"Teweh Baru","urban":"Jingah","postal_code":73814},{"province":"Kalimantan Tengah","city":"Barito Utara","district":"Teweh Tengah","urban":"Lemo I","postal_code":73814},{"province":"Kalimantan Tengah","city":"Barito Utara","district":"Teweh Selatan","urban":"Butong","postal_code":73814},{"province":"Kalimantan Tengah","city":"Barito Utara","district":"Teweh Tengah","urban":"Datai Nirui","postal_code":73814},{"province":"Kalimantan Tengah","city":"Barito Utara","district":"Teweh Selatan","urban":"Buntok Baru","postal_code":73814},{"province":"Kalimantan Tengah","city":"Barito Utara","district":"Teweh Selatan","urban":"Bintang Ninggi II (Dua)","postal_code":73814},{"province":"Kalimantan Tengah","city":"Barito Utara","district":"Teweh Selatan","urban":"Bukit Sawit","postal_code":73814},{"province":"Kalimantan Tengah","city":"Barito Utara","district":"Teweh Selatan","urban":"Bintang Ninggi I (Satu)","postal_code":73814},{"province":"Kalimantan Tengah","city":"Barito Utara","district":"Teweh Tengah","urban":"Beringin Raya","postal_code":73814}]