[{"province":"Kalimantan Tengah","city":"Barito Utara","district":"Lahei Barat","urban":"Teluk Malewai","postal_code":73852},{"province":"Kalimantan Tengah","city":"Barito Utara","district":"Lahei","urban":"Rahaden","postal_code":73852},{"province":"Kalimantan Tengah","city":"Barito Utara","district":"Lahei Barat","urban":"Papar Pujung","postal_code":73852},{"province":"Kalimantan Tengah","city":"Barito Utara","district":"Lahei Barat","urban":"Nihan Hulu","postal_code":73852},{"province":"Kalimantan Tengah","city":"Barito Utara","district":"Lahei","urban":"Mukut","postal_code":73852},{"province":"Kalimantan Tengah","city":"Barito Utara","district":"Lahei Barat","urban":"Nihan Hilir","postal_code":73852},{"province":"Kalimantan Tengah","city":"Barito Utara","district":"Lahei","urban":"Muara Inu","postal_code":73852},{"province":"Kalimantan Tengah","city":"Barito Utara","district":"Lahei","urban":"Muara Pari","postal_code":73852},{"province":"Kalimantan Tengah","city":"Barito Utara","district":"Lahei Barat","urban":"Luwe Hilir","postal_code":73852},{"province":"Kalimantan Tengah","city":"Barito Utara","district":"Lahei","urban":"Muara Bakah","postal_code":73852},{"province":"Kalimantan Tengah","city":"Barito Utara","district":"Lahei Barat","urban":"Luwe Hulu","postal_code":73852},{"province":"Kalimantan Tengah","city":"Barito Utara","district":"Lahei","urban":"Lahei II","postal_code":73852},{"province":"Kalimantan Tengah","city":"Barito Utara","district":"Lahei","urban":"Lahei I","postal_code":73852},{"province":"Kalimantan Tengah","city":"Barito Utara","district":"Lahei Barat","urban":"Karamuan","postal_code":73852},{"province":"Kalimantan Tengah","city":"Barito Utara","district":"Lahei","urban":"Karendan","postal_code":73852},{"province":"Kalimantan Tengah","city":"Barito Utara","district":"Lahei Barat","urban":"Jangkang Lama","postal_code":73852},{"province":"Kalimantan Tengah","city":"Barito Utara","district":"Lahei","urban":"Juju Baru","postal_code":73852},{"province":"Kalimantan Tengah","city":"Barito Utara","district":"Lahei Barat","urban":"Jangkang Baru","postal_code":73852},{"province":"Kalimantan Tengah","city":"Barito Utara","district":"Lahei","urban":"Ipu","postal_code":73852},{"province":"Kalimantan Tengah","city":"Barito Utara","district":"Lahei","urban":"Haragandang","postal_code":73852},{"province":"Kalimantan Tengah","city":"Barito Utara","district":"Lahei","urban":"Hurung Enep","postal_code":73852},{"province":"Kalimantan Tengah","city":"Barito Utara","district":"Lahei","urban":"Bengahon","postal_code":73852},{"province":"Kalimantan Tengah","city":"Barito Utara","district":"Lahei Barat","urban":"Benao Hulu","postal_code":73852},{"province":"Kalimantan Tengah","city":"Barito Utara","district":"Lahei Barat","urban":"Benao Hilir","postal_code":73852}]