[{"province":"Kalimantan Tengah","city":"Barito Utara","district":"Gunung Purei","urban":"Lawarang","postal_code":73871},{"province":"Kalimantan Tengah","city":"Barito Utara","district":"Gunung Purei","urban":"Lampeong II","postal_code":73871},{"province":"Kalimantan Tengah","city":"Barito Utara","district":"Gunung Purei","urban":"Tanjung Harapan","postal_code":73871},{"province":"Kalimantan Tengah","city":"Barito Utara","district":"Gunung Purei","urban":"Berong","postal_code":73871},{"province":"Kalimantan Tengah","city":"Barito Utara","district":"Gunung Purei","urban":"Payang","postal_code":73871},{"province":"Kalimantan Tengah","city":"Barito Utara","district":"Gunung Purei","urban":"Lampeong I","postal_code":73871},{"province":"Kalimantan Tengah","city":"Barito Utara","district":"Gunung Purei","urban":"Tambaba","postal_code":73871},{"province":"Kalimantan Tengah","city":"Barito Utara","district":"Gunung Purei","urban":"Linon Besi I","postal_code":73871},{"province":"Kalimantan Tengah","city":"Barito Utara","district":"Gunung Purei","urban":"Baok","postal_code":73871},{"province":"Kalimantan Tengah","city":"Barito Utara","district":"Gunung Purei","urban":"Linon Besi II","postal_code":73871},{"province":"Kalimantan Tengah","city":"Barito Utara","district":"Gunung Purei","urban":"Muara Mea","postal_code":73871}]