[{"province":"Kalimantan Tengah","city":"Barito Utara","district":"Teweh Timur","urban":"Sei/Sungai Liju","postal_code":73881},{"province":"Kalimantan Tengah","city":"Barito Utara","district":"Teweh Timur","urban":"Sampirang I","postal_code":73881},{"province":"Kalimantan Tengah","city":"Barito Utara","district":"Teweh Baru","urban":"Panaen","postal_code":73881},{"province":"Kalimantan Tengah","city":"Barito Utara","district":"Teweh Timur","urban":"Mampuak I","postal_code":73881},{"province":"Kalimantan Tengah","city":"Barito Utara","district":"Teweh Timur","urban":"Mampuak II (Pantung)","postal_code":73881},{"province":"Kalimantan Tengah","city":"Barito Utara","district":"Teweh Timur","urban":"Muara Wakat","postal_code":73881},{"province":"Kalimantan Tengah","city":"Barito Utara","district":"Teweh Timur","urban":"Liju","postal_code":73881},{"province":"Kalimantan Tengah","city":"Barito Utara","district":"Teweh Baru","urban":"Liangbuah","postal_code":73881},{"province":"Kalimantan Tengah","city":"Barito Utara","district":"Teweh Timur","urban":"Benangin V / 5","postal_code":73881},{"province":"Kalimantan Tengah","city":"Barito Utara","district":"Teweh Timur","urban":"Jamut","postal_code":73881},{"province":"Kalimantan Tengah","city":"Barito Utara","district":"Teweh Baru","urban":"Gandring","postal_code":73881},{"province":"Kalimantan Tengah","city":"Barito Utara","district":"Teweh Timur","urban":"Benangin II / 2","postal_code":73881},{"province":"Kalimantan Tengah","city":"Barito Utara","district":"Teweh Timur","urban":"Benangin III / 3","postal_code":73881},{"province":"Kalimantan Tengah","city":"Barito Utara","district":"Teweh Timur","urban":"Benangin I / I","postal_code":73881},{"province":"Kalimantan Tengah","city":"Barito Utara","district":"Teweh Timur","urban":"Sampirang II","postal_code":73881}]