[{"province":"Kalimantan Tengah","city":"Murung Raya","district":"Murung","urban":"Penyang","postal_code":73911},{"province":"Kalimantan Tengah","city":"Murung Raya","district":"Murung","urban":"Puruk Cahu","postal_code":73911},{"province":"Kalimantan Tengah","city":"Murung Raya","district":"Murung","urban":"Muara Untu","postal_code":73911},{"province":"Kalimantan Tengah","city":"Murung Raya","district":"Murung","urban":"Panuut (Panaout)","postal_code":73911},{"province":"Kalimantan Tengah","city":"Murung Raya","district":"Murung","urban":"Muara Jaan","postal_code":73911},{"province":"Kalimantan Tengah","city":"Murung Raya","district":"Murung","urban":"Muara Sumpoi","postal_code":73911},{"province":"Kalimantan Tengah","city":"Murung Raya","district":"Murung","urban":"Mangkahui","postal_code":73911},{"province":"Kalimantan Tengah","city":"Murung Raya","district":"Murung","urban":"Muara Bumban/Bamban","postal_code":73911},{"province":"Kalimantan Tengah","city":"Murung Raya","district":"Murung","urban":"Dirung","postal_code":73911},{"province":"Kalimantan Tengah","city":"Murung Raya","district":"Murung","urban":"Jangin/Juking Pajang","postal_code":73911},{"province":"Kalimantan Tengah","city":"Murung Raya","district":"Murung","urban":"Malasan/Masalan","postal_code":73911},{"province":"Kalimantan Tengah","city":"Murung Raya","district":"Murung","urban":"Beriwit","postal_code":73911},{"province":"Kalimantan Tengah","city":"Murung Raya","district":"Murung","urban":"Danau Usung","postal_code":73911},{"province":"Kalimantan Tengah","city":"Murung Raya","district":"Murung","urban":"Batu Putih","postal_code":73911},{"province":"Kalimantan Tengah","city":"Murung Raya","district":"Murung","urban":"Bahitom/Bahintom","postal_code":73911}]