[{"province":"Kalimantan Tengah","city":"Murung Raya","district":"Tanah Siang","urban":"Osom Tompok","postal_code":73961},{"province":"Kalimantan Tengah","city":"Murung Raya","district":"Tanah Siang","urban":"Olung Siron","postal_code":73961},{"province":"Kalimantan Tengah","city":"Murung Raya","district":"Tanah Siang","urban":"Olung Soloi","postal_code":73961},{"province":"Kalimantan Tengah","city":"Murung Raya","district":"Tanah Siang","urban":"Tokung","postal_code":73961},{"province":"Kalimantan Tengah","city":"Murung Raya","district":"Tanah Siang","urban":"Olung Ulu","postal_code":73961},{"province":"Kalimantan Tengah","city":"Murung Raya","district":"Tanah Siang","urban":"Tino Talih","postal_code":73961},{"province":"Kalimantan Tengah","city":"Murung Raya","district":"Tanah Siang Selatan","urban":"Olung Hanangan","postal_code":73961},{"province":"Kalimantan Tengah","city":"Murung Raya","district":"Tanah Siang Selatan","urban":"Tahujan Ontu","postal_code":73961},{"province":"Kalimantan Tengah","city":"Murung Raya","district":"Tanah Siang Selatan","urban":"Olung Muro","postal_code":73961},{"province":"Kalimantan Tengah","city":"Murung Raya","district":"Tanah Siang","urban":"Sei/Sungai Lunuk","postal_code":73961},{"province":"Kalimantan Tengah","city":"Murung Raya","district":"Tanah Siang","urban":"Olung Nango","postal_code":73961},{"province":"Kalimantan Tengah","city":"Murung Raya","district":"Tanah Siang","urban":"Tabulang","postal_code":73961},{"province":"Kalimantan Tengah","city":"Murung Raya","district":"Tanah Siang","urban":"Nonokaliwon","postal_code":73961},{"province":"Kalimantan Tengah","city":"Murung Raya","district":"Tanah Siang","urban":"Saripoi","postal_code":73961},{"province":"Kalimantan Tengah","city":"Murung Raya","district":"Tanah Siang","urban":"Olung Balo","postal_code":73961},{"province":"Kalimantan Tengah","city":"Murung Raya","district":"Tanah Siang","urban":"Saruhung","postal_code":73961},{"province":"Kalimantan Tengah","city":"Murung Raya","district":"Tanah Siang","urban":"Olung Dojou","postal_code":73961},{"province":"Kalimantan Tengah","city":"Murung Raya","district":"Tanah Siang Selatan","urban":"Puruk Kambang","postal_code":73961},{"province":"Kalimantan Tengah","city":"Murung Raya","district":"Tanah Siang","urban":"Mantiat Pari","postal_code":73961},{"province":"Kalimantan Tengah","city":"Murung Raya","district":"Tanah Siang","urban":"Puruk Batu","postal_code":73961},{"province":"Kalimantan Tengah","city":"Murung Raya","district":"Tanah Siang","urban":"Muwun","postal_code":73961},{"province":"Kalimantan Tengah","city":"Murung Raya","district":"Tanah Siang Selatan","urban":"Datah Kotou","postal_code":73961},{"province":"Kalimantan Tengah","city":"Murung Raya","district":"Tanah Siang Selatan","urban":"Oreng","postal_code":73961},{"province":"Kalimantan Tengah","city":"Murung Raya","district":"Tanah Siang","urban":"Dirung Bakung","postal_code":73961},{"province":"Kalimantan Tengah","city":"Murung Raya","district":"Tanah Siang","urban":"Konut","postal_code":73961},{"province":"Kalimantan Tengah","city":"Murung Raya","district":"Tanah Siang","urban":"Belawan","postal_code":73961},{"province":"Kalimantan Tengah","city":"Murung Raya","district":"Tanah Siang","urban":"Mahanyan","postal_code":73961},{"province":"Kalimantan Tengah","city":"Murung Raya","district":"Tanah Siang","urban":"Cangkang","postal_code":73961},{"province":"Kalimantan Tengah","city":"Murung Raya","district":"Tanah Siang","urban":"Mangkolisoi","postal_code":73961},{"province":"Kalimantan Tengah","city":"Murung Raya","district":"Tanah Siang","urban":"Kalang Kaluh","postal_code":73961},{"province":"Kalimantan Tengah","city":"Murung Raya","district":"Tanah Siang","urban":"Karali","postal_code":73961},{"province":"Kalimantan Tengah","city":"Murung Raya","district":"Tanah Siang","urban":"Kolam","postal_code":73961},{"province":"Kalimantan Tengah","city":"Murung Raya","district":"Tanah Siang Selatan","urban":"Dirung Lingkin","postal_code":73961},{"province":"Kalimantan Tengah","city":"Murung Raya","district":"Tanah Siang","urban":"Doan Arung","postal_code":73961}]