[{"province":"Kalimantan Tengah","city":"Murung Raya","district":"Permata Intan","urban":"Sei/Sungai Gula","postal_code":73971},{"province":"Kalimantan Tengah","city":"Murung Raya","district":"Permata Intan","urban":"Sei/Sungai Batang","postal_code":73971},{"province":"Kalimantan Tengah","city":"Murung Raya","district":"Permata Intan","urban":"Tumbang Salio","postal_code":73971},{"province":"Kalimantan Tengah","city":"Murung Raya","district":"Permata Intan","urban":"Purnama","postal_code":73971},{"province":"Kalimantan Tengah","city":"Murung Raya","district":"Sungai Babuat","urban":"Tumbang Saan","postal_code":73971},{"province":"Kalimantan Tengah","city":"Murung Raya","district":"Permata Intan","urban":"Sei/Sungai Bakanon","postal_code":73971},{"province":"Kalimantan Tengah","city":"Murung Raya","district":"Permata Intan","urban":"Tumbang Lahung","postal_code":73971},{"province":"Kalimantan Tengah","city":"Murung Raya","district":"Permata Intan","urban":"Muara Bakanon","postal_code":73971},{"province":"Kalimantan Tengah","city":"Murung Raya","district":"Sungai Babuat","urban":"Tumbang Kolon","postal_code":73971},{"province":"Kalimantan Tengah","city":"Murung Raya","district":"Permata Intan","urban":"Pantai Laga","postal_code":73971},{"province":"Kalimantan Tengah","city":"Murung Raya","district":"Sungai Babuat","urban":"Tumbang Apat","postal_code":73971},{"province":"Kalimantan Tengah","city":"Murung Raya","district":"Sungai Babuat","urban":"Batu Mirau","postal_code":73971},{"province":"Kalimantan Tengah","city":"Murung Raya","district":"Sungai Babuat","urban":"Tumbang Bantian","postal_code":73971},{"province":"Kalimantan Tengah","city":"Murung Raya","district":"Permata Intan","urban":"Juking Supan","postal_code":73971},{"province":"Kalimantan Tengah","city":"Murung Raya","district":"Sungai Babuat","urban":"Tambelum","postal_code":73971},{"province":"Kalimantan Tengah","city":"Murung Raya","district":"Permata Intan","urban":"Muara Babuat","postal_code":73971},{"province":"Kalimantan Tengah","city":"Murung Raya","district":"Permata Intan","urban":"Sei/Sungai Lobang","postal_code":73971},{"province":"Kalimantan Tengah","city":"Murung Raya","district":"Permata Intan","urban":"Baratu (Beratu)","postal_code":73971}]