[{"province":"Kalimantan Tengah","city":"Murung Raya","district":"Uut Murung","urban":"Tumbang Tujang","postal_code":73981},{"province":"Kalimantan Tengah","city":"Murung Raya","district":"Uut Murung","urban":"Tumbang Tupus/Topus","postal_code":73981},{"province":"Kalimantan Tengah","city":"Murung Raya","district":"Seribu Riam","urban":"Tumbang Tuhan/Tohan","postal_code":73981},{"province":"Kalimantan Tengah","city":"Murung Raya","district":"Seribu Riam","urban":"Tumbang Jojang","postal_code":73981},{"province":"Kalimantan Tengah","city":"Murung Raya","district":"Sumber Barito","urban":"Tumbang Tuan","postal_code":73981},{"province":"Kalimantan Tengah","city":"Murung Raya","district":"Sumber Barito","urban":"Teluk/Telok Jolo","postal_code":73981},{"province":"Kalimantan Tengah","city":"Murung Raya","district":"Uut Murung","urban":"Tumbang Olong","postal_code":73981},{"province":"Kalimantan Tengah","city":"Murung Raya","district":"Sumber Barito","urban":"Tumbang Kunyi","postal_code":73981},{"province":"Kalimantan Tengah","city":"Murung Raya","district":"Uut Murung","urban":"Tumbang Olong II","postal_code":73981},{"province":"Kalimantan Tengah","city":"Murung Raya","district":"Seribu Riam","urban":"Takajung","postal_code":73981},{"province":"Kalimantan Tengah","city":"Murung Raya","district":"Sumber Barito","urban":"Tumbang Mulut","postal_code":73981},{"province":"Kalimantan Tengah","city":"Murung Raya","district":"Seribu Riam","urban":"Muara Joloi II","postal_code":73981},{"province":"Kalimantan Tengah","city":"Murung Raya","district":"Seribu Riam","urban":"Tumbang Naan","postal_code":73981},{"province":"Kalimantan Tengah","city":"Murung Raya","district":"Seribu Riam","urban":"Parahau","postal_code":73981},{"province":"Kalimantan Tengah","city":"Murung Raya","district":"Sumber Barito","urban":"Tumbang Masao","postal_code":73981},{"province":"Kalimantan Tengah","city":"Murung Raya","district":"Sumber Barito","urban":"Olong Liko","postal_code":73981},{"province":"Kalimantan Tengah","city":"Murung Raya","district":"Seribu Riam","urban":"Muara Joloi I","postal_code":73981},{"province":"Kalimantan Tengah","city":"Murung Raya","district":"Uut Murung","urban":"Kalasin","postal_code":73981},{"province":"Kalimantan Tengah","city":"Murung Raya","district":"Sumber Barito","urban":"Laas Baru","postal_code":73981},{"province":"Kalimantan Tengah","city":"Murung Raya","district":"Sumber Barito","urban":"Batu Makap","postal_code":73981},{"province":"Kalimantan Tengah","city":"Murung Raya","district":"Sumber Barito","urban":"Kalapeh Baru","postal_code":73981}]