[{"province":"Kalimantan Tengah","city":"Kotawaringin Barat","district":"Arut Selatan","urban":"Umpang","postal_code":74117},{"province":"Kalimantan Tengah","city":"Kotawaringin Barat","district":"Arut Selatan","urban":"Tanjung Putri","postal_code":74117},{"province":"Kalimantan Tengah","city":"Kotawaringin Barat","district":"Arut Selatan","urban":"Tanjung Terantang","postal_code":74117},{"province":"Kalimantan Tengah","city":"Kotawaringin Barat","district":"Arut Selatan","urban":"Runtu","postal_code":74117},{"province":"Kalimantan Tengah","city":"Kotawaringin Barat","district":"Arut Selatan","urban":"Sulung Kenambui/Kanam Bui","postal_code":74117},{"province":"Kalimantan Tengah","city":"Kotawaringin Barat","district":"Arut Selatan","urban":"Natai Raya","postal_code":74117},{"province":"Kalimantan Tengah","city":"Kotawaringin Barat","district":"Arut Selatan","urban":"Natai Raya","postal_code":74117},{"province":"Kalimantan Tengah","city":"Kotawaringin Barat","district":"Arut Selatan","urban":"Pasir Panjang","postal_code":74117},{"province":"Kalimantan Tengah","city":"Kotawaringin Barat","district":"Arut Selatan","urban":"Medangsari","postal_code":74117},{"province":"Kalimantan Tengah","city":"Kotawaringin Barat","district":"Arut Selatan","urban":"Mendawai Seberang","postal_code":74117},{"province":"Kalimantan Tengah","city":"Kotawaringin Barat","district":"Arut Selatan","urban":"Natai Baru","postal_code":74117},{"province":"Kalimantan Tengah","city":"Kotawaringin Barat","district":"Arut Selatan","urban":"Kenambui","postal_code":74117},{"province":"Kalimantan Tengah","city":"Kotawaringin Barat","district":"Arut Selatan","urban":"Kumpai Batu Atas","postal_code":74117},{"province":"Kalimantan Tengah","city":"Kotawaringin Barat","district":"Arut Selatan","urban":"Kumpai Batu Bawah","postal_code":74117}]