[{"province":"Kalimantan Tengah","city":"Lamandau","district":"Sematu Jaya","urban":"Wonorejo","postal_code":74162},{"province":"Kalimantan Tengah","city":"Lamandau","district":"Menthobi Raya","urban":"Topalan","postal_code":74162},{"province":"Kalimantan Tengah","city":"Lamandau","district":"Sematu Jaya","urban":"Tri Tunggal","postal_code":74162},{"province":"Kalimantan Tengah","city":"Lamandau","district":"Bulik","urban":"Tamiang","postal_code":74162},{"province":"Kalimantan Tengah","city":"Lamandau","district":"Bulik Timur","urban":"Toka","postal_code":74162},{"province":"Kalimantan Tengah","city":"Lamandau","district":"Bulik","urban":"Sumber Mulya","postal_code":74162},{"province":"Kalimantan Tengah","city":"Lamandau","district":"Bulik Timur","urban":"Sungkup","postal_code":74162},{"province":"Kalimantan Tengah","city":"Lamandau","district":"Menthobi Raya","urban":"Sumber Jaya","postal_code":74162},{"province":"Kalimantan Tengah","city":"Lamandau","district":"Bulik Timur","urban":"Sepondam","postal_code":74162},{"province":"Kalimantan Tengah","city":"Lamandau","district":"Bulik","urban":"Sei/Sungai Mentawa","postal_code":74162},{"province":"Kalimantan Tengah","city":"Lamandau","district":"Bulik Timur","urban":"Sukamaju","postal_code":74162},{"province":"Kalimantan Tengah","city":"Lamandau","district":"Sematu Jaya","urban":"Purworejo","postal_code":74162},{"province":"Kalimantan Tengah","city":"Lamandau","district":"Bulik Timur","urban":"Nuangan","postal_code":74162},{"province":"Kalimantan Tengah","city":"Lamandau","district":"Bulik Timur","urban":"Pedongatan","postal_code":74162},{"province":"Kalimantan Tengah","city":"Lamandau","district":"Bulik Timur","urban":"Nanga Palikodan","postal_code":74162},{"province":"Kalimantan Tengah","city":"Lamandau","district":"Menthobi Raya","urban":"Nanuah","postal_code":74162},{"province":"Kalimantan Tengah","city":"Lamandau","district":"Bulik Timur","urban":"Nanga Kemujan","postal_code":74162},{"province":"Kalimantan Tengah","city":"Lamandau","district":"Bulik Timur","urban":"Nanga Koring","postal_code":74162},{"province":"Kalimantan Tengah","city":"Lamandau","district":"Menthobi Raya","urban":"Modang Mas","postal_code":74162},{"province":"Kalimantan Tengah","city":"Lamandau","district":"Menthobi Raya","urban":"Mukti Manunggal","postal_code":74162},{"province":"Kalimantan Tengah","city":"Lamandau","district":"Menthobi Raya","urban":"Melata","postal_code":74162},{"province":"Kalimantan Tengah","city":"Lamandau","district":"Bulik Timur","urban":"Merambang","postal_code":74162},{"province":"Kalimantan Tengah","city":"Lamandau","district":"Sematu Jaya","urban":"Mekar Mulya","postal_code":74162},{"province":"Kalimantan Tengah","city":"Lamandau","district":"Menthobi Raya","urban":"Lubuk Hiju","postal_code":74162},{"province":"Kalimantan Tengah","city":"Lamandau","district":"Sematu Jaya","urban":"Jangkar Prima","postal_code":74162},{"province":"Kalimantan Tengah","city":"Lamandau","district":"Bulik","urban":"Guci","postal_code":74162},{"province":"Kalimantan Tengah","city":"Lamandau","district":"Bulik","urban":"Bunut","postal_code":74162},{"province":"Kalimantan Tengah","city":"Lamandau","district":"Bulik","urban":"Bumi Agung","postal_code":74162},{"province":"Kalimantan Tengah","city":"Lamandau","district":"Menthobi Raya","urban":"Bukit Makmur","postal_code":74162},{"province":"Kalimantan Tengah","city":"Lamandau","district":"Menthobi Raya","urban":"Bukit Raya","postal_code":74162},{"province":"Kalimantan Tengah","city":"Lamandau","district":"Bulik","urban":"Bukit Indah","postal_code":74162},{"province":"Kalimantan Tengah","city":"Lamandau","district":"Bulik Timur","urban":"Bukit Jaya","postal_code":74162},{"province":"Kalimantan Tengah","city":"Lamandau","district":"Sematu Jaya","urban":"Bina Bhakti","postal_code":74162},{"province":"Kalimantan Tengah","city":"Lamandau","district":"Sematu Jaya","urban":"Bina Bhakti","postal_code":74162},{"province":"Kalimantan Tengah","city":"Lamandau","district":"Bulik Timur","urban":"Batu Tunggal","postal_code":74162},{"province":"Kalimantan Tengah","city":"Lamandau","district":"Bulik","urban":"Beruta","postal_code":74162},{"province":"Kalimantan Tengah","city":"Lamandau","district":"Bulik","urban":"Batu Kotam","postal_code":74162},{"province":"Kalimantan Tengah","city":"Lamandau","district":"Sematu Jaya","urban":"Batu Hambawang","postal_code":74162},{"province":"Kalimantan Tengah","city":"Lamandau","district":"Menthobi Raya","urban":"Batu Ampar","postal_code":74162},{"province":"Kalimantan Tengah","city":"Lamandau","district":"Bulik","urban":"Arga Mulya","postal_code":74162}]