[{"province":"Kalimantan Tengah","city":"Sukamara","district":"Pantai Lunci","urban":"Sei/Sungai Tabuk","postal_code":74171},{"province":"Kalimantan Tengah","city":"Sukamara","district":"Pantai Lunci","urban":"Sei/Sungai Pasir","postal_code":74171},{"province":"Kalimantan Tengah","city":"Sukamara","district":"Pantai Lunci","urban":"Sei/Sungai Pasir","postal_code":74171},{"province":"Kalimantan Tengah","city":"Sukamara","district":"Pantai Lunci","urban":"Sei/Sungai Cabang Barat","postal_code":74171},{"province":"Kalimantan Tengah","city":"Sukamara","district":"Pantai Lunci","urban":"Sei/Sungai Damar","postal_code":74171},{"province":"Kalimantan Tengah","city":"Sukamara","district":"Jelai","urban":"Sei/Sungai Bundung","postal_code":74171},{"province":"Kalimantan Tengah","city":"Sukamara","district":"Jelai","urban":"Sei/Sungai Baru","postal_code":74171},{"province":"Kalimantan Tengah","city":"Sukamara","district":"Jelai","urban":"Kuala Jelai","postal_code":74171},{"province":"Kalimantan Tengah","city":"Sukamara","district":"Jelai","urban":"Pulau Nibung","postal_code":74171}]