[{"province":"Kalimantan Tengah","city":"Sukamara","district":"Permata Kecubung","urban":"Sembi Kuan","postal_code":74173},{"province":"Kalimantan Tengah","city":"Sukamara","district":"Permata Kecubung","urban":"Natai Kondang","postal_code":74173},{"province":"Kalimantan Tengah","city":"Sukamara","district":"Balai Riam","urban":"Sekuningan Baru","postal_code":74173},{"province":"Kalimantan Tengah","city":"Sukamara","district":"Balai Riam","urban":"Lupu Peruca","postal_code":74173},{"province":"Kalimantan Tengah","city":"Sukamara","district":"Permata Kecubung","urban":"Semantun","postal_code":74173},{"province":"Kalimantan Tengah","city":"Sukamara","district":"Permata Kecubung","urban":"Laman Baru","postal_code":74173},{"province":"Kalimantan Tengah","city":"Sukamara","district":"Balai Riam","urban":"Pempaning","postal_code":74173},{"province":"Kalimantan Tengah","city":"Sukamara","district":"Balai Riam","urban":"Jihing","postal_code":74173},{"province":"Kalimantan Tengah","city":"Sukamara","district":"Permata Kecubung","urban":"Nibung Terjun","postal_code":74173},{"province":"Kalimantan Tengah","city":"Sukamara","district":"Permata Kecubung","urban":"Kenawan","postal_code":74173},{"province":"Kalimantan Tengah","city":"Sukamara","district":"Balai Riam","urban":"Balai Riam","postal_code":74173},{"province":"Kalimantan Tengah","city":"Sukamara","district":"Balai Riam","urban":"Bangun Jaya","postal_code":74173},{"province":"Kalimantan Tengah","city":"Sukamara","district":"Balai Riam","urban":"Bukit Sungkai","postal_code":74173},{"province":"Kalimantan Tengah","city":"Sukamara","district":"Permata Kecubung","urban":"Ajang","postal_code":74173},{"province":"Kalimantan Tengah","city":"Sukamara","district":"Balai Riam","urban":"Air Dua","postal_code":74173}]