[{"province":"Kalimantan Tengah","city":"Kotawaringin Barat","district":"Kumai","urban":"Teluk Bogam","postal_code":74181},{"province":"Kalimantan Tengah","city":"Kotawaringin Barat","district":"Kumai","urban":"Teluk Pulai","postal_code":74181},{"province":"Kalimantan Tengah","city":"Kotawaringin Barat","district":"Kumai","urban":"Sei/Sungai Sekonyer","postal_code":74181},{"province":"Kalimantan Tengah","city":"Kotawaringin Barat","district":"Kumai","urban":"Sei/Sungai Tendang","postal_code":74181},{"province":"Kalimantan Tengah","city":"Kotawaringin Barat","district":"Kumai","urban":"Sei/Sungai Bedaun","postal_code":74181},{"province":"Kalimantan Tengah","city":"Kotawaringin Barat","district":"Kumai","urban":"Sei/Sungai Cabang","postal_code":74181},{"province":"Kalimantan Tengah","city":"Kotawaringin Barat","district":"Kumai","urban":"Sei/Sungai Kapitan","postal_code":74181},{"province":"Kalimantan Tengah","city":"Kotawaringin Barat","district":"Kumai","urban":"Sebuai","postal_code":74181},{"province":"Kalimantan Tengah","city":"Kotawaringin Barat","district":"Kumai","urban":"Sei/Sungai Bakau","postal_code":74181},{"province":"Kalimantan Tengah","city":"Kotawaringin Barat","district":"Kumai","urban":"Pangkalan Satu","postal_code":74181},{"province":"Kalimantan Tengah","city":"Kotawaringin Barat","district":"Kumai","urban":"Sabuai Timur","postal_code":74181},{"province":"Kalimantan Tengah","city":"Kotawaringin Barat","district":"Kumai","urban":"Kumai Hilir","postal_code":74181},{"province":"Kalimantan Tengah","city":"Kotawaringin Barat","district":"Kumai","urban":"Kumai Hulu","postal_code":74181},{"province":"Kalimantan Tengah","city":"Kotawaringin Barat","district":"Kumai","urban":"Keraya","postal_code":74181},{"province":"Kalimantan Tengah","city":"Kotawaringin Barat","district":"Kumai","urban":"Kubu","postal_code":74181},{"province":"Kalimantan Tengah","city":"Kotawaringin Barat","district":"Kumai","urban":"Bumi Harjo","postal_code":74181},{"province":"Kalimantan Tengah","city":"Kotawaringin Barat","district":"Kumai","urban":"Candi","postal_code":74181},{"province":"Kalimantan Tengah","city":"Kotawaringin Barat","district":"Kumai","urban":"Batu Belaman","postal_code":74181}]