[{"province":"Kalimantan Tengah","city":"Kotawaringin Barat","district":"Pangkalan Lada","urban":"Sei/Sungai Rangit Jaya","postal_code":74184},{"province":"Kalimantan Tengah","city":"Kotawaringin Barat","district":"Pangkalan Lada","urban":"Sumber Agung","postal_code":74184},{"province":"Kalimantan Tengah","city":"Kotawaringin Barat","district":"Pangkalan Lada","urban":"Purbasari","postal_code":74184},{"province":"Kalimantan Tengah","city":"Kotawaringin Barat","district":"Pangkalan Lada","urban":"Sei/Sungai Melawen","postal_code":74184},{"province":"Kalimantan Tengah","city":"Kotawaringin Barat","district":"Pangkalan Lada","urban":"Pangkalan Durin","postal_code":74184},{"province":"Kalimantan Tengah","city":"Kotawaringin Barat","district":"Pangkalan Lada","urban":"Pangkalan Tiga","postal_code":74184},{"province":"Kalimantan Tengah","city":"Kotawaringin Barat","district":"Pangkalan Lada","urban":"Pandu Sanjaya","postal_code":74184},{"province":"Kalimantan Tengah","city":"Kotawaringin Barat","district":"Pangkalan Lada","urban":"Pangkalan Dewa","postal_code":74184},{"province":"Kalimantan Tengah","city":"Kotawaringin Barat","district":"Pangkalan Lada","urban":"Makarti Jaya","postal_code":74184},{"province":"Kalimantan Tengah","city":"Kotawaringin Barat","district":"Pangkalan Lada","urban":"Lada Mandala Jaya","postal_code":74184}]