[{"province":"Kalimantan Tengah","city":"Kotawaringin Barat","district":"Pangkalan Banteng","urban":"Sungai Pulau","postal_code":74183},{"province":"Kalimantan Tengah","city":"Kotawaringin Barat","district":"Pangkalan Banteng","urban":"Sungai Pulau","postal_code":74183},{"province":"Kalimantan Tengah","city":"Kotawaringin Barat","district":"Pangkalan Banteng","urban":"Sungai Kuning","postal_code":74183},{"province":"Kalimantan Tengah","city":"Kotawaringin Barat","district":"Pangkalan Banteng","urban":"Sungai Pakit","postal_code":74183},{"province":"Kalimantan Tengah","city":"Kotawaringin Barat","district":"Pangkalan Banteng","urban":"Simpang Berambai","postal_code":74183},{"province":"Kalimantan Tengah","city":"Kotawaringin Barat","district":"Pangkalan Banteng","urban":"Sungai Bengkuang","postal_code":74183},{"province":"Kalimantan Tengah","city":"Kotawaringin Barat","district":"Pangkalan Banteng","urban":"Sei/Sungai Hijau","postal_code":74183},{"province":"Kalimantan Tengah","city":"Kotawaringin Barat","district":"Pangkalan Banteng","urban":"Sido Mulyo/Ponco Mulyo","postal_code":74183},{"province":"Kalimantan Tengah","city":"Kotawaringin Barat","district":"Pangkalan Banteng","urban":"Mulia/Mulya Jadi","postal_code":74183},{"province":"Kalimantan Tengah","city":"Kotawaringin Barat","district":"Pangkalan Banteng","urban":"Natai Kerbau","postal_code":74183},{"province":"Kalimantan Tengah","city":"Kotawaringin Barat","district":"Pangkalan Banteng","urban":"Pangkalan Banteng","postal_code":74183},{"province":"Kalimantan Tengah","city":"Kotawaringin Barat","district":"Pangkalan Banteng","urban":"Kebon Agung","postal_code":74183},{"province":"Kalimantan Tengah","city":"Kotawaringin Barat","district":"Pangkalan Banteng","urban":"Marga Mulya","postal_code":74183},{"province":"Kalimantan Tengah","city":"Kotawaringin Barat","district":"Pangkalan Banteng","urban":"Karang Sari","postal_code":74183},{"province":"Kalimantan Tengah","city":"Kotawaringin Barat","district":"Pangkalan Banteng","urban":"Karangmulya","postal_code":74183},{"province":"Kalimantan Tengah","city":"Kotawaringin Barat","district":"Pangkalan Banteng","urban":"Arga Mulya","postal_code":74183},{"province":"Kalimantan Tengah","city":"Kotawaringin Barat","district":"Pangkalan Banteng","urban":"Berambai Makmur","postal_code":74183},{"province":"Kalimantan Tengah","city":"Kotawaringin Barat","district":"Pangkalan Banteng","urban":"Amin Jaya","postal_code":74183}]