[{"province":"Kalimantan Tengah","city":"Seruyan","district":"Seruyan Hilir","urban":"Sei/Sungai Urdang","postal_code":74215},{"province":"Kalimantan Tengah","city":"Seruyan","district":"Seruyan Hilir","urban":"Persit Raya","postal_code":74215},{"province":"Kalimantan Tengah","city":"Seruyan","district":"Seruyan Hilir","urban":"Sei/Sungai Perlu","postal_code":74215},{"province":"Kalimantan Tengah","city":"Seruyan","district":"Seruyan Hilir Timur","urban":"Sei/Sungai Bakau","postal_code":74215},{"province":"Kalimantan Tengah","city":"Seruyan","district":"Seruyan Hilir","urban":"Kuala Pembuang Satu (I)","postal_code":74215},{"province":"Kalimantan Tengah","city":"Seruyan","district":"Seruyan Hilir Timur","urban":"Mekar Indah","postal_code":74215},{"province":"Kalimantan Tengah","city":"Seruyan","district":"Seruyan Hilir","urban":"Kuala Pembuang Dua (II)","postal_code":74215},{"province":"Kalimantan Tengah","city":"Seruyan","district":"Seruyan Hilir Timur","urban":"Kartika Bhakti/Bakti","postal_code":74215},{"province":"Kalimantan Tengah","city":"Seruyan","district":"Seruyan Hilir","urban":"Kuala Pembuang Dua (II)","postal_code":74215},{"province":"Kalimantan Tengah","city":"Seruyan","district":"Seruyan Hilir Timur","urban":"Bangun Harja/Harjo","postal_code":74215}]