[{"province":"Kalimantan Tengah","city":"Seruyan","district":"Danau Sembuluh","urban":"Ulak Batu","postal_code":74261},{"province":"Kalimantan Tengah","city":"Seruyan","district":"Seruyan Raya","urban":"Terawan","postal_code":74261},{"province":"Kalimantan Tengah","city":"Seruyan","district":"Danau Sembuluh","urban":"Telaga Pulang","postal_code":74261},{"province":"Kalimantan Tengah","city":"Seruyan","district":"Seruyan Raya","urban":"Tabiku","postal_code":74261},{"province":"Kalimantan Tengah","city":"Seruyan","district":"Danau Sembuluh","urban":"Sembuluh I (Satu)","postal_code":74261},{"province":"Kalimantan Tengah","city":"Seruyan","district":"Danau Sembuluh","urban":"Sembuluh II (Dua)","postal_code":74261},{"province":"Kalimantan Tengah","city":"Seruyan","district":"Danau Sembuluh","urban":"Paren","postal_code":74261},{"province":"Kalimantan Tengah","city":"Seruyan","district":"Seruyan Raya","urban":"Salunuk (Selunuk)","postal_code":74261},{"province":"Kalimantan Tengah","city":"Seruyan","district":"Danau Sembuluh","urban":"Cempaka Baru","postal_code":74261},{"province":"Kalimantan Tengah","city":"Seruyan","district":"Danau Sembuluh","urban":"Palingkau","postal_code":74261},{"province":"Kalimantan Tengah","city":"Seruyan","district":"Seruyan Raya","urban":"Lanpasa","postal_code":74261},{"province":"Kalimantan Tengah","city":"Seruyan","district":"Danau Sembuluh","urban":"Banua Usang","postal_code":74261},{"province":"Kalimantan Tengah","city":"Seruyan","district":"Seruyan Raya","urban":"Bangkal","postal_code":74261}]