[{"province":"Kalimantan Tengah","city":"Seruyan","district":"Danau Seluluk","urban":"Tanjung Rangas II","postal_code":74271},{"province":"Kalimantan Tengah","city":"Seruyan","district":"Danau Seluluk","urban":"Tanjung Hara","postal_code":74271},{"province":"Kalimantan Tengah","city":"Seruyan","district":"Danau Seluluk","urban":"Tanjung Paring","postal_code":74271},{"province":"Kalimantan Tengah","city":"Seruyan","district":"Hanau","urban":"Tanjung Hanau/Hana","postal_code":74271},{"province":"Kalimantan Tengah","city":"Seruyan","district":"Danau Seluluk","urban":"Rangau Raya","postal_code":74271},{"province":"Kalimantan Tengah","city":"Seruyan","district":"Hanau","urban":"Pembuang Hulu I","postal_code":74271},{"province":"Kalimantan Tengah","city":"Seruyan","district":"Hanau","urban":"Pembuang Hulu II","postal_code":74271},{"province":"Kalimantan Tengah","city":"Seruyan","district":"Hanau","urban":"Parang Batang","postal_code":74271},{"province":"Kalimantan Tengah","city":"Seruyan","district":"Hanau","urban":"Paring Raya","postal_code":74271},{"province":"Kalimantan Tengah","city":"Seruyan","district":"Danau Seluluk","urban":"Panimba Raya","postal_code":74271},{"province":"Kalimantan Tengah","city":"Seruyan","district":"Hanau","urban":"Bahaur","postal_code":74271},{"province":"Kalimantan Tengah","city":"Seruyan","district":"Hanau","urban":"Derangga","postal_code":74271},{"province":"Kalimantan Tengah","city":"Seruyan","district":"Danau Seluluk","urban":"Asam Baru","postal_code":74271}]