[{"province":"Kalimantan Tengah","city":"Seruyan","district":"Batu Ampar","urban":"Wana Tirta","postal_code":74281},{"province":"Kalimantan Tengah","city":"Seruyan","district":"Seruyan Tengah","urban":"Teluk Bayur","postal_code":74281},{"province":"Kalimantan Tengah","city":"Seruyan","district":"Seruyan Tengah","urban":"Tumbang Bai/Bei","postal_code":74281},{"province":"Kalimantan Tengah","city":"Seruyan","district":"Seruyan Tengah","urban":"Sukorejo (Suku Rejo)","postal_code":74281},{"province":"Kalimantan Tengah","city":"Seruyan","district":"Seruyan Tengah","urban":"Tangga Batu","postal_code":74281},{"province":"Kalimantan Tengah","city":"Seruyan","district":"Batu Ampar","urban":"Suka Mulya","postal_code":74281},{"province":"Kalimantan Tengah","city":"Seruyan","district":"Seruyan Tengah","urban":"Suka Mandang","postal_code":74281},{"province":"Kalimantan Tengah","city":"Seruyan","district":"Seruyan Tengah","urban":"Suka Makmur","postal_code":74281},{"province":"Kalimantan Tengah","city":"Seruyan","district":"Seruyan Tengah","urban":"Suka Jaya (Suka Ayu)","postal_code":74281},{"province":"Kalimantan Tengah","city":"Seruyan","district":"Seruyan Tengah","urban":"Suka Maju","postal_code":74281},{"province":"Kalimantan Tengah","city":"Seruyan","district":"Batu Ampar","urban":"Sandul","postal_code":74281},{"province":"Kalimantan Tengah","city":"Seruyan","district":"Batu Ampar","urban":"Sebabi","postal_code":74281},{"province":"Kalimantan Tengah","city":"Seruyan","district":"Batu Ampar","urban":"Sehabu (Sahabu/Sebabu)","postal_code":74281},{"province":"Kalimantan Tengah","city":"Seruyan","district":"Seruyan Tengah","urban":"Ringin Agung","postal_code":74281},{"province":"Kalimantan Tengah","city":"Seruyan","district":"Seruyan Tengah","urban":"Rantau Pulut","postal_code":74281},{"province":"Kalimantan Tengah","city":"Seruyan","district":"Seruyan Tengah","urban":"Penyumpa","postal_code":74281},{"province":"Kalimantan Tengah","city":"Seruyan","district":"Seruyan Tengah","urban":"Mugi Panyahu (Mugie Panyuhu)","postal_code":74281},{"province":"Kalimantan Tengah","city":"Seruyan","district":"Seruyan Tengah","urban":"Panca Jaya","postal_code":74281},{"province":"Kalimantan Tengah","city":"Seruyan","district":"Seruyan Tengah","urban":"Pangke","postal_code":74281},{"province":"Kalimantan Tengah","city":"Seruyan","district":"Batu Ampar","urban":"Kalang","postal_code":74281},{"province":"Kalimantan Tengah","city":"Seruyan","district":"Seruyan Tengah","urban":"Durian Tunggal","postal_code":74281},{"province":"Kalimantan Tengah","city":"Seruyan","district":"Seruyan Tengah","urban":"Gantung Pengayuh","postal_code":74281},{"province":"Kalimantan Tengah","city":"Seruyan","district":"Seruyan Tengah","urban":"Bumi Jaya (Bumi Ayu)","postal_code":74281},{"province":"Kalimantan Tengah","city":"Seruyan","district":"Batu Ampar","urban":"Derawa","postal_code":74281},{"province":"Kalimantan Tengah","city":"Seruyan","district":"Batu Ampar","urban":"Durian Kait","postal_code":74281},{"province":"Kalimantan Tengah","city":"Seruyan","district":"Seruyan Tengah","urban":"Bukit Buluh/Buluk","postal_code":74281},{"province":"Kalimantan Tengah","city":"Seruyan","district":"Batu Ampar","urban":"Batu Manangis","postal_code":74281},{"province":"Kalimantan Tengah","city":"Seruyan","district":"Seruyan Tengah","urban":"Ayawan","postal_code":74281},{"province":"Kalimantan Tengah","city":"Seruyan","district":"Seruyan Tengah","urban":"Batu Agung","postal_code":74281}]