[{"province":"Kalimantan Tengah","city":"Kotawaringin Timur","district":"Bukit Santuei","urban":"Tumbang Torung/Turung","postal_code":74356},{"province":"Kalimantan Tengah","city":"Kotawaringin Timur","district":"Bukit Santuei","urban":"Tumbang Tawan","postal_code":74356},{"province":"Kalimantan Tengah","city":"Kotawaringin Timur","district":"Bukit Santuei","urban":"Tumbang Tilap","postal_code":74356},{"province":"Kalimantan Tengah","city":"Kotawaringin Timur","district":"Mentaya Hulu","urban":"Tumbang Sapiri","postal_code":74356},{"province":"Kalimantan Tengah","city":"Kotawaringin Timur","district":"Bukit Santuei","urban":"Tumbang Sapia","postal_code":74356},{"province":"Kalimantan Tengah","city":"Kotawaringin Timur","district":"Bukit Santuei","urban":"Tumbang Penyahuan","postal_code":74356},{"province":"Kalimantan Tengah","city":"Kotawaringin Timur","district":"Bukit Santuei","urban":"Tumbang Saluang","postal_code":74356},{"province":"Kalimantan Tengah","city":"Kotawaringin Timur","district":"Bukit Santuei","urban":"Tumbang Kania","postal_code":74356},{"province":"Kalimantan Tengah","city":"Kotawaringin Timur","district":"Bukit Santuei","urban":"Tumbang Payang","postal_code":74356},{"province":"Kalimantan Tengah","city":"Kotawaringin Timur","district":"Bukit Santuei","urban":"Tumbang Batu","postal_code":74356},{"province":"Kalimantan Tengah","city":"Kotawaringin Timur","district":"Bukit Santuei","urban":"Tumbang Getas","postal_code":74356},{"province":"Kalimantan Tengah","city":"Kotawaringin Timur","district":"Bukit Santuei","urban":"Tumbang Kamining/Kaminting","postal_code":74356},{"province":"Kalimantan Tengah","city":"Kotawaringin Timur","district":"Bukit Santuei","urban":"Tewei Hara","postal_code":74356},{"province":"Kalimantan Tengah","city":"Kotawaringin Timur","district":"Mentaya Hulu","urban":"Tanjung Jariangau","postal_code":74356},{"province":"Kalimantan Tengah","city":"Kotawaringin Timur","district":"Telaga Antang","urban":"Tanjung Harapan","postal_code":74356},{"province":"Kalimantan Tengah","city":"Kotawaringin Timur","district":"Mentaya Hulu","urban":"Tanjung Batur","postal_code":74356},{"province":"Kalimantan Tengah","city":"Kotawaringin Timur","district":"Mentaya Hulu","urban":"Tangar","postal_code":74356},{"province":"Kalimantan Tengah","city":"Kotawaringin Timur","district":"Mentaya Hulu","urban":"Tangka Robah","postal_code":74356},{"province":"Kalimantan Tengah","city":"Kotawaringin Timur","district":"Bukit Santuei","urban":"Tanah Haluan","postal_code":74356},{"province":"Kalimantan Tengah","city":"Kotawaringin Timur","district":"Mentaya Hulu","urban":"Sationg","postal_code":74356},{"province":"Kalimantan Tengah","city":"Kotawaringin Timur","district":"Mentaya Hulu","urban":"Penda Durian","postal_code":74356},{"province":"Kalimantan Tengah","city":"Kotawaringin Timur","district":"Mentaya Hulu","urban":"Santilik","postal_code":74356},{"province":"Kalimantan Tengah","city":"Kotawaringin Timur","district":"Bukit Santuei","urban":"Lunuk Bagantung","postal_code":74356},{"province":"Kalimantan Tengah","city":"Kotawaringin Timur","district":"Mentaya Hulu","urban":"Pahirangan","postal_code":74356},{"province":"Kalimantan Tengah","city":"Kotawaringin Timur","district":"Mentaya Hulu","urban":"Pemantang","postal_code":74356},{"province":"Kalimantan Tengah","city":"Kotawaringin Timur","district":"Mentaya Hulu","urban":"Kuala Kuayan","postal_code":74356},{"province":"Kalimantan Tengah","city":"Kotawaringin Timur","district":"Telaga Antang","urban":"Buana Mustika","postal_code":74356},{"province":"Kalimantan Tengah","city":"Kotawaringin Timur","district":"Mentaya Hulu","urban":"Kapuk","postal_code":74356},{"province":"Kalimantan Tengah","city":"Kotawaringin Timur","district":"Mentaya Hulu","urban":"Kawan Batu","postal_code":74356},{"province":"Kalimantan Tengah","city":"Kotawaringin Timur","district":"Mentaya Hulu","urban":"Baampah","postal_code":74356},{"province":"Kalimantan Tengah","city":"Kotawaringin Timur","district":"Mentaya Hulu","urban":"Bawan","postal_code":74356}]