[{"province":"Kalimantan Tengah","city":"Kotawaringin Timur","district":"Cempaga Hulu","urban":"Tumbang Koling/Kuling","postal_code":74354},{"province":"Kalimantan Tengah","city":"Kotawaringin Timur","district":"Cempaga Hulu","urban":"Sudan","postal_code":74354},{"province":"Kalimantan Tengah","city":"Kotawaringin Timur","district":"Cempaga Hulu","urban":"Sungai Ubar Mandiri","postal_code":74354},{"province":"Kalimantan Tengah","city":"Kotawaringin Timur","district":"Cempaga","urban":"Sei/Sungai Paring","postal_code":74354},{"province":"Kalimantan Tengah","city":"Kotawaringin Timur","district":"Cempaga Hulu","urban":"Selucing","postal_code":74354},{"province":"Kalimantan Tengah","city":"Kotawaringin Timur","district":"Cempaga","urban":"Rubung Buyung","postal_code":74354},{"province":"Kalimantan Tengah","city":"Kotawaringin Timur","district":"Cempaga Hulu","urban":"Pundu","postal_code":74354},{"province":"Kalimantan Tengah","city":"Kotawaringin Timur","district":"Cempaga","urban":"Patai","postal_code":74354},{"province":"Kalimantan Tengah","city":"Kotawaringin Timur","district":"Cempaga Hulu","urban":"Pelantaran","postal_code":74354},{"province":"Kalimantan Tengah","city":"Kotawaringin Timur","district":"Cempaga Hulu","urban":"Pantai Harapan","postal_code":74354},{"province":"Kalimantan Tengah","city":"Kotawaringin Timur","district":"Cempaga Hulu","urban":"Parit","postal_code":74354},{"province":"Kalimantan Tengah","city":"Kotawaringin Timur","district":"Cempaga","urban":"Lubuk Ranggan","postal_code":74354},{"province":"Kalimantan Tengah","city":"Kotawaringin Timur","district":"Cempaga","urban":"Luwuk Bunter (Lubuk Bunter)","postal_code":74354},{"province":"Kalimantan Tengah","city":"Kotawaringin Timur","district":"Cempaga Hulu","urban":"Keruing","postal_code":74354},{"province":"Kalimantan Tengah","city":"Kotawaringin Timur","district":"Cempaga","urban":"Jemaras","postal_code":74354},{"province":"Kalimantan Tengah","city":"Kotawaringin Timur","district":"Cempaga","urban":"Cempaka Mulia Barat","postal_code":74354},{"province":"Kalimantan Tengah","city":"Kotawaringin Timur","district":"Cempaga","urban":"Cempaka Mulia Timur","postal_code":74354},{"province":"Kalimantan Tengah","city":"Kotawaringin Timur","district":"Cempaga Hulu","urban":"Bukit Raya","postal_code":74354},{"province":"Kalimantan Tengah","city":"Kotawaringin Timur","district":"Cempaga Hulu","urban":"Bukit Batu","postal_code":74354}]