[{"province":"Kalimantan Tengah","city":"Kotawaringin Timur","district":"Antang Kalang","urban":"Tumbang Sepayang","postal_code":74352},{"province":"Kalimantan Tengah","city":"Kotawaringin Timur","district":"Antang Kalang","urban":"Waringin Agung","postal_code":74352},{"province":"Kalimantan Tengah","city":"Kotawaringin Timur","district":"Telaga Antang","urban":"Tumbang Sangai","postal_code":74352},{"province":"Kalimantan Tengah","city":"Kotawaringin Timur","district":"Antang Kalang","urban":"Tumbang Ramei / Ramai","postal_code":74352},{"province":"Kalimantan Tengah","city":"Kotawaringin Timur","district":"Telaga Antang","urban":"Tumbang Puan","postal_code":74352},{"province":"Kalimantan Tengah","city":"Kotawaringin Timur","district":"Antang Kalang","urban":"Tumbang Manya","postal_code":74352},{"province":"Kalimantan Tengah","city":"Kotawaringin Timur","district":"Antang Kalang","urban":"Tumbang Ngahan","postal_code":74352},{"province":"Kalimantan Tengah","city":"Kotawaringin Timur","district":"Antang Kalang","urban":"Tumbang Kalang","postal_code":74352},{"province":"Kalimantan Tengah","city":"Kotawaringin Timur","district":"Telaga Antang","urban":"Tumbang Mangkup","postal_code":74352},{"province":"Kalimantan Tengah","city":"Kotawaringin Timur","district":"Telaga Antang","urban":"Tumbang Boloi","postal_code":74352},{"province":"Kalimantan Tengah","city":"Kotawaringin Timur","district":"Antang Kalang","urban":"Tumbang Gagu","postal_code":74352},{"province":"Kalimantan Tengah","city":"Kotawaringin Timur","district":"Antang Kalang","urban":"Tumbang Hejan","postal_code":74352},{"province":"Kalimantan Tengah","city":"Kotawaringin Timur","district":"Antang Kalang","urban":"Tumbang Bajanei","postal_code":74352},{"province":"Kalimantan Tengah","city":"Kotawaringin Timur","district":"Telaga Antang","urban":"Tukang Langit","postal_code":74352},{"province":"Kalimantan Tengah","city":"Kotawaringin Timur","district":"Antang Kalang","urban":"Sei/Sungai Puring","postal_code":74352},{"province":"Kalimantan Tengah","city":"Kotawaringin Timur","district":"Telaga Antang","urban":"Tri Buana","postal_code":74352},{"province":"Kalimantan Tengah","city":"Kotawaringin Timur","district":"Antang Kalang","urban":"Sei/Sungai Hanya","postal_code":74352},{"province":"Kalimantan Tengah","city":"Kotawaringin Timur","district":"Telaga Antang","urban":"Rantau Tampang","postal_code":74352},{"province":"Kalimantan Tengah","city":"Kotawaringin Timur","district":"Telaga Antang","urban":"Rantau Sawang","postal_code":74352},{"province":"Kalimantan Tengah","city":"Kotawaringin Timur","district":"Telaga Antang","urban":"Rantau Suang","postal_code":74352},{"province":"Kalimantan Tengah","city":"Kotawaringin Timur","district":"Telaga Antang","urban":"Rantau Katang","postal_code":74352},{"province":"Kalimantan Tengah","city":"Kotawaringin Timur","district":"Antang Kalang","urban":"Mulya Agung","postal_code":74352},{"province":"Kalimantan Tengah","city":"Kotawaringin Timur","district":"Antang Kalang","urban":"Gunung Makmur","postal_code":74352},{"province":"Kalimantan Tengah","city":"Kotawaringin Timur","district":"Telaga Antang","urban":"Luwuk Kuwan","postal_code":74352},{"province":"Kalimantan Tengah","city":"Kotawaringin Timur","district":"Antang Kalang","urban":"Kuluk Telawang","postal_code":74352},{"province":"Kalimantan Tengah","city":"Kotawaringin Timur","district":"Antang Kalang","urban":"Buntut Nusa","postal_code":74352},{"province":"Kalimantan Tengah","city":"Kotawaringin Timur","district":"Telaga Antang","urban":"Bukit Indah","postal_code":74352},{"province":"Kalimantan Tengah","city":"Kotawaringin Timur","district":"Antang Kalang","urban":"Bhakti Karya","postal_code":74352},{"province":"Kalimantan Tengah","city":"Kotawaringin Timur","district":"Telaga Antang","urban":"Beringin Agung","postal_code":74352},{"province":"Kalimantan Tengah","city":"Kotawaringin Timur","district":"Telaga Antang","urban":"Agung Muya","postal_code":74352},{"province":"Kalimantan Tengah","city":"Kotawaringin Timur","district":"Telaga Antang","urban":"Batu Agung","postal_code":74352}]