[{"province":"Kalimantan Tengah","city":"Kotawaringin Timur","district":"Telawang","urban":"Tanah Putih","postal_code":74353},{"province":"Kalimantan Tengah","city":"Kotawaringin Timur","district":"Kota Besi","urban":"Soren","postal_code":74353},{"province":"Kalimantan Tengah","city":"Kotawaringin Timur","district":"Telawang","urban":"Sumber Makmur","postal_code":74353},{"province":"Kalimantan Tengah","city":"Kotawaringin Timur","district":"Kota Besi","urban":"Simpur","postal_code":74353},{"province":"Kalimantan Tengah","city":"Kotawaringin Timur","district":"Telawang","urban":"Sebabi","postal_code":74353},{"province":"Kalimantan Tengah","city":"Kotawaringin Timur","district":"Kota Besi","urban":"Rasau Tumbuh","postal_code":74353},{"province":"Kalimantan Tengah","city":"Kotawaringin Timur","district":"Telawang","urban":"Peryang","postal_code":74353},{"province":"Kalimantan Tengah","city":"Kotawaringin Timur","district":"Kota Besi","urban":"Pamalian","postal_code":74353},{"province":"Kalimantan Tengah","city":"Kotawaringin Timur","district":"Kota Besi","urban":"Kota Besi Hulu","postal_code":74353},{"province":"Kalimantan Tengah","city":"Kotawaringin Timur","district":"Kota Besi","urban":"Palangan","postal_code":74353},{"province":"Kalimantan Tengah","city":"Kotawaringin Timur","district":"Telawang","urban":"Kenyala","postal_code":74353},{"province":"Kalimantan Tengah","city":"Kotawaringin Timur","district":"Kota Besi","urban":"Kandan","postal_code":74353},{"province":"Kalimantan Tengah","city":"Kotawaringin Timur","district":"Kota Besi","urban":"Kota Besi Hilir","postal_code":74353},{"province":"Kalimantan Tengah","city":"Kotawaringin Timur","district":"Kota Besi","urban":"Camba","postal_code":74353},{"province":"Kalimantan Tengah","city":"Kotawaringin Timur","district":"Kota Besi","urban":"Hanjalipan","postal_code":74353},{"province":"Kalimantan Tengah","city":"Kotawaringin Timur","district":"Telawang","urban":"Biru Maju","postal_code":74353},{"province":"Kalimantan Tengah","city":"Kotawaringin Timur","district":"Kota Besi","urban":"Bajarum","postal_code":74353}]