[{"province":"Kalimantan Tengah","city":"Kotawaringin Timur","district":"Teluk Sampit","urban":"Ujung Pandaran","postal_code":74363},{"province":"Kalimantan Tengah","city":"Kotawaringin Timur","district":"Mentaya Hilir Selatan","urban":"Samuda Kota","postal_code":74363},{"province":"Kalimantan Tengah","city":"Kotawaringin Timur","district":"Mentaya Hilir Selatan","urban":"Sei/Sungai Ijum Raya","postal_code":74363},{"province":"Kalimantan Tengah","city":"Kotawaringin Timur","district":"Mentaya Hilir Selatan","urban":"Sabamban","postal_code":74363},{"province":"Kalimantan Tengah","city":"Kotawaringin Timur","district":"Mentaya Hilir Selatan","urban":"Samuda Besar","postal_code":74363},{"province":"Kalimantan Tengah","city":"Kotawaringin Timur","district":"Mentaya Hilir Selatan","urban":"Samuda Kecil","postal_code":74363},{"province":"Kalimantan Tengah","city":"Kotawaringin Timur","district":"Teluk Sampit","urban":"Regei Lestari","postal_code":74363},{"province":"Kalimantan Tengah","city":"Kotawaringin Timur","district":"Teluk Sampit","urban":"Parebok","postal_code":74363},{"province":"Kalimantan Tengah","city":"Kotawaringin Timur","district":"Mentaya Hilir Selatan","urban":"Jaya Kelapa","postal_code":74363},{"province":"Kalimantan Tengah","city":"Kotawaringin Timur","district":"Teluk Sampit","urban":"Kuin Permai","postal_code":74363},{"province":"Kalimantan Tengah","city":"Kotawaringin Timur","district":"Teluk Sampit","urban":"Lampuyang","postal_code":74363},{"province":"Kalimantan Tengah","city":"Kotawaringin Timur","district":"Mentaya Hilir Selatan","urban":"Basirih Hulu","postal_code":74363},{"province":"Kalimantan Tengah","city":"Kotawaringin Timur","district":"Mentaya Hilir Selatan","urban":"Handil Sohor","postal_code":74363},{"province":"Kalimantan Tengah","city":"Kotawaringin Timur","district":"Mentaya Hilir Selatan","urban":"Jaya Karet","postal_code":74363},{"province":"Kalimantan Tengah","city":"Kotawaringin Timur","district":"Mentaya Hilir Selatan","urban":"Basirih Hilir","postal_code":74363},{"province":"Kalimantan Tengah","city":"Kotawaringin Timur","district":"Teluk Sampit","urban":"Basawang","postal_code":74363}]