[{"province":"Kalimantan Tengah","city":"Katingan","district":"Katingan Hulu","urban":"Tumbang Sabetung","postal_code":74457},{"province":"Kalimantan Tengah","city":"Katingan","district":"Katingan Hulu","urban":"Tumbang Salaman","postal_code":74457},{"province":"Kalimantan Tengah","city":"Katingan","district":"Katingan Hulu","urban":"Tumbang Senamang I","postal_code":74457},{"province":"Kalimantan Tengah","city":"Katingan","district":"Katingan Hulu","urban":"Tumbang Manangei","postal_code":74457},{"province":"Kalimantan Tengah","city":"Katingan","district":"Katingan Hulu","urban":"Tumbang Mangketai","postal_code":74457},{"province":"Kalimantan Tengah","city":"Katingan","district":"Katingan Hulu","urban":"Tumbang Labaning","postal_code":74457},{"province":"Kalimantan Tengah","city":"Katingan","district":"Katingan Hulu","urban":"Tumbang Mahop/Mahup","postal_code":74457},{"province":"Kalimantan Tengah","city":"Katingan","district":"Katingan Hulu","urban":"Tumbang Kuai","postal_code":74457},{"province":"Kalimantan Tengah","city":"Katingan","district":"Bukit Raya","urban":"Tumbang Kataei","postal_code":74457},{"province":"Kalimantan Tengah","city":"Katingan","district":"Bukit Raya","urban":"Tumbang Kaburai","postal_code":74457},{"province":"Kalimantan Tengah","city":"Katingan","district":"Bukit Raya","urban":"Tumbang Kajamei","postal_code":74457},{"province":"Kalimantan Tengah","city":"Katingan","district":"Bukit Raya","urban":"Tumbang Karuei","postal_code":74457},{"province":"Kalimantan Tengah","city":"Katingan","district":"Katingan Hulu","urban":"Tumbang Jiga","postal_code":74457},{"province":"Kalimantan Tengah","city":"Katingan","district":"Katingan Hulu","urban":"Tumbang Kabayan/Kabayang","postal_code":74457},{"province":"Kalimantan Tengah","city":"Katingan","district":"Katingan Hulu","urban":"Tumbang Hangei II","postal_code":74457},{"province":"Kalimantan Tengah","city":"Katingan","district":"Bukit Raya","urban":"Tumbang Gaei","postal_code":74457},{"province":"Kalimantan Tengah","city":"Katingan","district":"Katingan Hulu","urban":"Telok Tampang","postal_code":74457},{"province":"Kalimantan Tengah","city":"Katingan","district":"Bukit Raya","urban":"Tumbang Dahuei","postal_code":74457},{"province":"Kalimantan Tengah","city":"Katingan","district":"Katingan Hulu","urban":"Sei/Sungai Nanjan","postal_code":74457},{"province":"Kalimantan Tengah","city":"Katingan","district":"Bukit Raya","urban":"Rongan Rondan","postal_code":74457},{"province":"Kalimantan Tengah","city":"Katingan","district":"Bukit Raya","urban":"Tanjung Batik","postal_code":74457},{"province":"Kalimantan Tengah","city":"Katingan","district":"Katingan Hulu","urban":"Rantau Puka","postal_code":74457},{"province":"Kalimantan Tengah","city":"Katingan","district":"Katingan Hulu","urban":"Rantau Bahai","postal_code":74457},{"province":"Kalimantan Tengah","city":"Katingan","district":"Bukit Raya","urban":"Rantau Pandan","postal_code":74457},{"province":"Kalimantan Tengah","city":"Katingan","district":"Katingan Hulu","urban":"Rangan Kawit","postal_code":74457},{"province":"Kalimantan Tengah","city":"Katingan","district":"Katingan Hulu","urban":"Rangan Ranjing","postal_code":74457},{"province":"Kalimantan Tengah","city":"Katingan","district":"Katingan Hulu","urban":"Penda Tangaring Baru","postal_code":74457},{"province":"Kalimantan Tengah","city":"Katingan","district":"Katingan Hulu","urban":"Penda Tangaring Lama","postal_code":74457},{"province":"Kalimantan Tengah","city":"Katingan","district":"Bukit Raya","urban":"Rangan Bahekang","postal_code":74457},{"province":"Kalimantan Tengah","city":"Katingan","district":"Katingan Hulu","urban":"Kuluk Sepangi/Sapangi","postal_code":74457},{"province":"Kalimantan Tengah","city":"Katingan","district":"Bukit Raya","urban":"Penda Nange","postal_code":74457},{"province":"Kalimantan Tengah","city":"Katingan","district":"Katingan Hulu","urban":"Dehes Asem","postal_code":74457},{"province":"Kalimantan Tengah","city":"Katingan","district":"Katingan Hulu","urban":"Kiham Batang","postal_code":74457},{"province":"Kalimantan Tengah","city":"Katingan","district":"Katingan Hulu","urban":"Batu Bango","postal_code":74457}]