[{"province":"Kalimantan Tengah","city":"Katingan","district":"Sanaman Mantikei (Senamang Mantikei)","urban":"Tumbang Pangka","postal_code":74455},{"province":"Kalimantan Tengah","city":"Katingan","district":"Sanaman Mantikei (Senamang Mantikei)","urban":"Tumbang Taranei/Karanei","postal_code":74455},{"province":"Kalimantan Tengah","city":"Katingan","district":"Petak Malai","urban":"Tumbang Tanggoi","postal_code":74455},{"province":"Kalimantan Tengah","city":"Katingan","district":"Sanaman Mantikei (Senamang Mantikei)","urban":"Tumbang Labehu","postal_code":74455},{"province":"Kalimantan Tengah","city":"Katingan","district":"Sanaman Mantikei (Senamang Mantikei)","urban":"Tumbang Mangara/Manggara","postal_code":74455},{"province":"Kalimantan Tengah","city":"Katingan","district":"Sanaman Mantikei (Senamang Mantikei)","urban":"Tumbang Manggo","postal_code":74455},{"province":"Kalimantan Tengah","city":"Katingan","district":"Sanaman Mantikei (Senamang Mantikei)","urban":"Tumbang Kanei/Kamei","postal_code":74455},{"province":"Kalimantan Tengah","city":"Katingan","district":"Sanaman Mantikei (Senamang Mantikei)","urban":"Tumbang Kawei","postal_code":74455},{"province":"Kalimantan Tengah","city":"Katingan","district":"Petak Malai","urban":"Tumbang Jala","postal_code":74455},{"province":"Kalimantan Tengah","city":"Katingan","district":"Sanaman Mantikei (Senamang Mantikei)","urban":"Tumbang Kaman","postal_code":74455},{"province":"Kalimantan Tengah","city":"Katingan","district":"Petak Malai","urban":"Tumbang Baraoi","postal_code":74455},{"province":"Kalimantan Tengah","city":"Katingan","district":"Petak Malai","urban":"Tumbang Habangoi/Habangei","postal_code":74455},{"province":"Kalimantan Tengah","city":"Katingan","district":"Sanaman Mantikei (Senamang Mantikei)","urban":"Rantau Bangkiang","postal_code":74455},{"province":"Kalimantan Tengah","city":"Katingan","district":"Sanaman Mantikei (Senamang Mantikei)","urban":"Tumbang Atei","postal_code":74455},{"province":"Kalimantan Tengah","city":"Katingan","district":"Petak Malai","urban":"Nusa Kutau","postal_code":74455},{"province":"Kalimantan Tengah","city":"Katingan","district":"Sanaman Mantikei (Senamang Mantikei)","urban":"Kamanto","postal_code":74455},{"province":"Kalimantan Tengah","city":"Katingan","district":"Sanaman Mantikei (Senamang Mantikei)","urban":"Kuluk Habuhus","postal_code":74455},{"province":"Kalimantan Tengah","city":"Katingan","district":"Sanaman Mantikei (Senamang Mantikei)","urban":"Daya Manunggal","postal_code":74455},{"province":"Kalimantan Tengah","city":"Katingan","district":"Sanaman Mantikei (Senamang Mantikei)","urban":"Dehes","postal_code":74455},{"province":"Kalimantan Tengah","city":"Katingan","district":"Petak Malai","urban":"Batu Badak","postal_code":74455},{"province":"Kalimantan Tengah","city":"Katingan","district":"Petak Malai","urban":"Batu Tukan","postal_code":74455}]