[{"province":"Kalimantan Tengah","city":"Katingan","district":"Tewang Sanggalang Garing (Sangalang)","urban":"Tewang Rangkang","postal_code":74452},{"province":"Kalimantan Tengah","city":"Katingan","district":"Tewang Sanggalang Garing (Sangalang)","urban":"Tumbang Terusan","postal_code":74452},{"province":"Kalimantan Tengah","city":"Katingan","district":"Tewang Sanggalang Garing (Sangalang)","urban":"Tewang Rangas","postal_code":74452},{"province":"Kalimantan Tengah","city":"Katingan","district":"Tewang Sanggalang Garing (Sangalang)","urban":"Tarusan Danum","postal_code":74452},{"province":"Kalimantan Tengah","city":"Katingan","district":"Tewang Sanggalang Garing (Sangalang)","urban":"Tewang Beringin","postal_code":74452},{"province":"Kalimantan Tengah","city":"Katingan","district":"Tewang Sanggalang Garing (Sangalang)","urban":"Tewang Manyangen","postal_code":74452},{"province":"Kalimantan Tengah","city":"Katingan","district":"Tewang Sanggalang Garing (Sangalang)","urban":"Pendahara","postal_code":74452},{"province":"Kalimantan Tengah","city":"Katingan","district":"Tewang Sanggalang Garing (Sangalang)","urban":"Sei/Sungai Keruh","postal_code":74452},{"province":"Kalimantan Tengah","city":"Katingan","district":"Tewang Sanggalang Garing (Sangalang)","urban":"Bangkuang","postal_code":74452},{"province":"Kalimantan Tengah","city":"Katingan","district":"Tewang Sanggalang Garing (Sangalang)","urban":"Hapalam","postal_code":74452}]