[{"province":"Kalimantan Tengah","city":"Gunung Mas","district":"Kahayan Hulu Utara","urban":"Tumbang Tajungan","postal_code":74553},{"province":"Kalimantan Tengah","city":"Gunung Mas","district":"Miri Manasa","urban":"Tumbang Siruk","postal_code":74553},{"province":"Kalimantan Tengah","city":"Gunung Mas","district":"Kahayan Hulu Utara","urban":"Tumbang Sian","postal_code":74553},{"province":"Kalimantan Tengah","city":"Gunung Mas","district":"Damang Batu","urban":"Tumbang Posu","postal_code":74553},{"province":"Kalimantan Tengah","city":"Gunung Mas","district":"Kahayan Hulu Utara","urban":"Tumbang Pasangon","postal_code":74553},{"province":"Kalimantan Tengah","city":"Gunung Mas","district":"Kahayan Hulu Utara","urban":"Tumbang Ponyoi","postal_code":74553},{"province":"Kalimantan Tengah","city":"Gunung Mas","district":"Miri Manasa","urban":"Tumbang Napoi","postal_code":74553},{"province":"Kalimantan Tengah","city":"Gunung Mas","district":"Kahayan Hulu Utara","urban":"Tumbang Miri","postal_code":74553},{"province":"Kalimantan Tengah","city":"Gunung Mas","district":"Miri Manasa","urban":"Tumbang Masukih","postal_code":74553},{"province":"Kalimantan Tengah","city":"Gunung Mas","district":"Damang Batu","urban":"Tumbang Marikoi","postal_code":74553},{"province":"Kalimantan Tengah","city":"Gunung Mas","district":"Miri Manasa","urban":"Tumbang Manyoi","postal_code":74553},{"province":"Kalimantan Tengah","city":"Gunung Mas","district":"Miri Manasa","urban":"Tumbang Manyoi","postal_code":74553},{"province":"Kalimantan Tengah","city":"Gunung Mas","district":"Damang Batu","urban":"Tumbang Mahuroi","postal_code":74553},{"province":"Kalimantan Tengah","city":"Gunung Mas","district":"Miri Manasa","urban":"Tumbang Lapan","postal_code":74553},{"province":"Kalimantan Tengah","city":"Gunung Mas","district":"Miri Manasa","urban":"Tumbang Koroi","postal_code":74553},{"province":"Kalimantan Tengah","city":"Gunung Mas","district":"Miri Manasa","urban":"Tumbang Hantung","postal_code":74553},{"province":"Kalimantan Tengah","city":"Gunung Mas","district":"Kahayan Hulu Utara","urban":"Tumbang Korik/Kurik","postal_code":74553},{"province":"Kalimantan Tengah","city":"Gunung Mas","district":"Damang Batu","urban":"Tumbang Anoi","postal_code":74553},{"province":"Kalimantan Tengah","city":"Gunung Mas","district":"Kahayan Hulu Utara","urban":"Tumbang Hamputung","postal_code":74553},{"province":"Kalimantan Tengah","city":"Gunung Mas","district":"Miri Manasa","urban":"Rangan Hiran","postal_code":74553},{"province":"Kalimantan Tengah","city":"Gunung Mas","district":"Kahayan Hulu Utara","urban":"Takaoi","postal_code":74553},{"province":"Kalimantan Tengah","city":"Gunung Mas","district":"Kahayan Hulu Utara","urban":"Teluk Kanduri","postal_code":74553},{"province":"Kalimantan Tengah","city":"Gunung Mas","district":"Miri Manasa","urban":"Mangkuhung","postal_code":74553},{"province":"Kalimantan Tengah","city":"Gunung Mas","district":"Kahayan Hulu Utara","urban":"Penda Rangas","postal_code":74553},{"province":"Kalimantan Tengah","city":"Gunung Mas","district":"Damang Batu","urban":"Karetau Rambangun","postal_code":74553},{"province":"Kalimantan Tengah","city":"Gunung Mas","district":"Damang Batu","urban":"Karetau Sarian","postal_code":74553},{"province":"Kalimantan Tengah","city":"Gunung Mas","district":"Damang Batu","urban":"Lawang Kanji","postal_code":74553},{"province":"Kalimantan Tengah","city":"Gunung Mas","district":"Miri Manasa","urban":"Harowu","postal_code":74553},{"province":"Kalimantan Tengah","city":"Gunung Mas","district":"Miri Manasa","urban":"Buntui (Buntoi)","postal_code":74553},{"province":"Kalimantan Tengah","city":"Gunung Mas","district":"Kahayan Hulu Utara","urban":"Dandang","postal_code":74553},{"province":"Kalimantan Tengah","city":"Gunung Mas","district":"Kahayan Hulu Utara","urban":"Batu Tangkui","postal_code":74553}]