[{"province":"Kalimantan Tengah","city":"Gunung Mas","district":"Manuhing","urban":"Tumbang Talaken","postal_code":74562},{"province":"Kalimantan Tengah","city":"Gunung Mas","district":"Manuhing","urban":"Tumbang Sepang","postal_code":74562},{"province":"Kalimantan Tengah","city":"Gunung Mas","district":"Manuhing Raya","urban":"Tumbang Mantuhe","postal_code":74562},{"province":"Kalimantan Tengah","city":"Gunung Mas","district":"Manuhing Raya","urban":"Tumbang Oroi","postal_code":74562},{"province":"Kalimantan Tengah","city":"Gunung Mas","district":"Manuhing Raya","urban":"Tumbang Samui","postal_code":74562},{"province":"Kalimantan Tengah","city":"Gunung Mas","district":"Manuhing","urban":"Tumbang Jelemu","postal_code":74562},{"province":"Kalimantan Tengah","city":"Gunung Mas","district":"Manuhing Raya","urban":"Tehang","postal_code":74562},{"province":"Kalimantan Tengah","city":"Gunung Mas","district":"Manuhing","urban":"Takaras","postal_code":74562},{"province":"Kalimantan Tengah","city":"Gunung Mas","district":"Manuhing","urban":"Tangki Dahuyan","postal_code":74562},{"province":"Kalimantan Tengah","city":"Gunung Mas","district":"Manuhing","urban":"Taringen","postal_code":74562},{"province":"Kalimantan Tengah","city":"Gunung Mas","district":"Rungan Barat","urban":"Mangkawuk","postal_code":74562},{"province":"Kalimantan Tengah","city":"Gunung Mas","district":"Manuhing Raya","urban":"Luwuk Tukau","postal_code":74562},{"province":"Kalimantan Tengah","city":"Gunung Mas","district":"Manuhing Raya","urban":"Putat Durei","postal_code":74562},{"province":"Kalimantan Tengah","city":"Gunung Mas","district":"Manuhing","urban":"Fajar Harapan","postal_code":74562},{"province":"Kalimantan Tengah","city":"Gunung Mas","district":"Manuhing","urban":"Gohong","postal_code":74562},{"province":"Kalimantan Tengah","city":"Gunung Mas","district":"Manuhing","urban":"Bereng Belawan","postal_code":74562},{"province":"Kalimantan Tengah","city":"Gunung Mas","district":"Manuhing","urban":"Bereng Jun","postal_code":74562},{"province":"Kalimantan Tengah","city":"Gunung Mas","district":"Manuhing","urban":"Bangun Sari","postal_code":74562},{"province":"Kalimantan Tengah","city":"Gunung Mas","district":"Manuhing","urban":"Belawan Mulya","postal_code":74562}]