[{"province":"Kalimantan Tengah","city":"Gunung Mas","district":"Rungan Barat","urban":"Tusang Raya","postal_code":74561},{"province":"Kalimantan Tengah","city":"Gunung Mas","district":"Rungan Hulu","urban":"Tumbang Mujai","postal_code":74561},{"province":"Kalimantan Tengah","city":"Gunung Mas","district":"Rungan Hulu","urban":"Tumbang Rahuyan","postal_code":74561},{"province":"Kalimantan Tengah","city":"Gunung Mas","district":"Rungan Hulu","urban":"Tumbang Tue / Tuwe","postal_code":74561},{"province":"Kalimantan Tengah","city":"Gunung Mas","district":"Rungan Hulu","urban":"Tumbang Lapan","postal_code":74561},{"province":"Kalimantan Tengah","city":"Gunung Mas","district":"Rungan","urban":"Tumbang Malahoi/Malahui","postal_code":74561},{"province":"Kalimantan Tengah","city":"Gunung Mas","district":"Rungan Barat","urban":"Tumbang Langgah","postal_code":74561},{"province":"Kalimantan Tengah","city":"Gunung Mas","district":"Rungan","urban":"Tumbang Jelemu Kajuei","postal_code":74561},{"province":"Kalimantan Tengah","city":"Gunung Mas","district":"Rungan Barat","urban":"Tumbang Kuayan","postal_code":74561},{"province":"Kalimantan Tengah","city":"Gunung Mas","district":"Rungan","urban":"Tumbang Jatuh/Jutuh","postal_code":74561},{"province":"Kalimantan Tengah","city":"Gunung Mas","district":"Rungan Barat","urban":"Tumbang Jalemu Kajuei","postal_code":74561},{"province":"Kalimantan Tengah","city":"Gunung Mas","district":"Rungan Barat","urban":"Tumbang Bahanei","postal_code":74561},{"province":"Kalimantan Tengah","city":"Gunung Mas","district":"Rungan","urban":"Tumbang Barengei/Baringei","postal_code":74561},{"province":"Kalimantan Tengah","city":"Gunung Mas","district":"Rungan","urban":"Tumbang Bunut","postal_code":74561},{"province":"Kalimantan Tengah","city":"Gunung Mas","district":"Rungan Barat","urban":"Tajah Antang Raya","postal_code":74561},{"province":"Kalimantan Tengah","city":"Gunung Mas","district":"Rungan","urban":"Talangkas (Talangkah)","postal_code":74561},{"province":"Kalimantan Tengah","city":"Gunung Mas","district":"Rungan Hulu","urban":"Sei/Sungai Antai","postal_code":74561},{"province":"Kalimantan Tengah","city":"Gunung Mas","district":"Rungan Hulu","urban":"Sanggal","postal_code":74561},{"province":"Kalimantan Tengah","city":"Gunung Mas","district":"Rungan Barat","urban":"Rabambang","postal_code":74561},{"province":"Kalimantan Tengah","city":"Gunung Mas","district":"Rungan","urban":"Parempei","postal_code":74561},{"province":"Kalimantan Tengah","city":"Gunung Mas","district":"Rungan","urban":"Luwuk Kantor","postal_code":74561},{"province":"Kalimantan Tengah","city":"Gunung Mas","district":"Rungan","urban":"Luwuk Langkuas","postal_code":74561},{"province":"Kalimantan Tengah","city":"Gunung Mas","district":"Rungan","urban":"Linau","postal_code":74561},{"province":"Kalimantan Tengah","city":"Gunung Mas","district":"Rungan","urban":"Karya Bakti","postal_code":74561},{"province":"Kalimantan Tengah","city":"Gunung Mas","district":"Rungan Hulu","urban":"Jangkit","postal_code":74561},{"province":"Kalimantan Tengah","city":"Gunung Mas","district":"Rungan Barat","urban":"Jalemu Masulan","postal_code":74561},{"province":"Kalimantan Tengah","city":"Gunung Mas","district":"Rungan Barat","urban":"Jalemu Raya","postal_code":74561},{"province":"Kalimantan Tengah","city":"Gunung Mas","district":"Rungan","urban":"Jakatan Raya","postal_code":74561},{"province":"Kalimantan Tengah","city":"Gunung Mas","district":"Rungan Barat","urban":"Hujung Pata","postal_code":74561},{"province":"Kalimantan Tengah","city":"Gunung Mas","district":"Rungan Hulu","urban":"Hantapang","postal_code":74561},{"province":"Kalimantan Tengah","city":"Gunung Mas","district":"Rungan","urban":"Bereng Baru","postal_code":74561},{"province":"Kalimantan Tengah","city":"Gunung Mas","district":"Rungan","urban":"Bereng Malaka","postal_code":74561},{"province":"Kalimantan Tengah","city":"Gunung Mas","district":"Rungan Hulu","urban":"Batu Puter","postal_code":74561}]