[{"province":"Kalimantan Tengah","city":"Gunung Mas","district":"Mihing Raya","urban":"Tuyun","postal_code":74571},{"province":"Kalimantan Tengah","city":"Gunung Mas","district":"Mihing Raya","urban":"Tumbang Danau","postal_code":74571},{"province":"Kalimantan Tengah","city":"Gunung Mas","district":"Mihing Raya","urban":"Tumbang Empas","postal_code":74571},{"province":"Kalimantan Tengah","city":"Gunung Mas","district":"Sepang (Sepang Simin)","urban":"Tanjung Karitak","postal_code":74571},{"province":"Kalimantan Tengah","city":"Gunung Mas","district":"Sepang (Sepang Simin)","urban":"Tewai Baru","postal_code":74571},{"province":"Kalimantan Tengah","city":"Gunung Mas","district":"Sepang (Sepang Simin)","urban":"Sepang Simin","postal_code":74571},{"province":"Kalimantan Tengah","city":"Gunung Mas","district":"Sepang (Sepang Simin)","urban":"Tampelas","postal_code":74571},{"province":"Kalimantan Tengah","city":"Gunung Mas","district":"Mihing Raya","urban":"Rangan Tate","postal_code":74571},{"province":"Kalimantan Tengah","city":"Gunung Mas","district":"Sepang (Sepang Simin)","urban":"Sepang Kota","postal_code":74571},{"province":"Kalimantan Tengah","city":"Gunung Mas","district":"Sepang (Sepang Simin)","urban":"Luwuk Andan","postal_code":74571},{"province":"Kalimantan Tengah","city":"Gunung Mas","district":"Sepang (Sepang Simin)","urban":"Pematang Limau","postal_code":74571},{"province":"Kalimantan Tengah","city":"Gunung Mas","district":"Mihing Raya","urban":"Kampuri","postal_code":74571},{"province":"Kalimantan Tengah","city":"Gunung Mas","district":"Mihing Raya","urban":"Dahian Tambuk","postal_code":74571}]