[{"province":"Kalimantan Tengah","city":"Kapuas","district":"Mandau Talawang","urban":"Tumbang Tihis","postal_code":74581},{"province":"Kalimantan Tengah","city":"Kapuas","district":"Kapuas Hulu","urban":"Tumbang Puroh/Puruh","postal_code":74581},{"province":"Kalimantan Tengah","city":"Kapuas","district":"Mandau Talawang","urban":"Tumbang Manyarung","postal_code":74581},{"province":"Kalimantan Tengah","city":"Kapuas","district":"Kapuas Hulu","urban":"Tumbang Sirat","postal_code":74581},{"province":"Kalimantan Tengah","city":"Kapuas","district":"Mandau Talawang","urban":"Tanjung Rendan","postal_code":74581},{"province":"Kalimantan Tengah","city":"Kapuas","district":"Mandau Talawang","urban":"Tumbang Bukoi/Bokoi","postal_code":74581},{"province":"Kalimantan Tengah","city":"Kapuas","district":"Mandau Talawang","urban":"Sei/Sungai Pinang","postal_code":74581},{"province":"Kalimantan Tengah","city":"Kapuas","district":"Kapuas Hulu","urban":"Supang","postal_code":74581},{"province":"Kalimantan Tengah","city":"Kapuas","district":"Kapuas Hulu","urban":"Tangirang","postal_code":74581},{"province":"Kalimantan Tengah","city":"Kapuas","district":"Kapuas Hulu","urban":"Rahung Bungai","postal_code":74581},{"province":"Kalimantan Tengah","city":"Kapuas","district":"Kapuas Hulu","urban":"Sei/Sungai Hanyo/Hanyu","postal_code":74581},{"province":"Kalimantan Tengah","city":"Kapuas","district":"Mandau Talawang","urban":"Masaha","postal_code":74581},{"province":"Kalimantan Tengah","city":"Kapuas","district":"Kapuas Hulu","urban":"Mampai Jaya","postal_code":74581},{"province":"Kalimantan Tengah","city":"Kapuas","district":"Mandau Talawang","urban":"Lawang Tamang","postal_code":74581},{"province":"Kalimantan Tengah","city":"Kapuas","district":"Kapuas Hulu","urban":"Katanjung","postal_code":74581},{"province":"Kalimantan Tengah","city":"Kapuas","district":"Mandau Talawang","urban":"Karetau Mantaa","postal_code":74581},{"province":"Kalimantan Tengah","city":"Kapuas","district":"Kapuas Hulu","urban":"Hurung Tabengan","postal_code":74581},{"province":"Kalimantan Tengah","city":"Kapuas","district":"Kapuas Hulu","urban":"Hurung Tampang","postal_code":74581},{"province":"Kalimantan Tengah","city":"Kapuas","district":"Kapuas Hulu","urban":"Jakatan Pari","postal_code":74581},{"province":"Kalimantan Tengah","city":"Kapuas","district":"Kapuas Hulu","urban":"Bulau Ngandung","postal_code":74581},{"province":"Kalimantan Tengah","city":"Kapuas","district":"Kapuas Hulu","urban":"Dirung Koram","postal_code":74581},{"province":"Kalimantan Tengah","city":"Kapuas","district":"Kapuas Hulu","urban":"Baronang II","postal_code":74581}]