[{"province":"Kalimantan Tengah","city":"Lamandau","district":"Lamandau","urban":"Tanjung Beringin","postal_code":74663},{"province":"Kalimantan Tengah","city":"Lamandau","district":"Lamandau","urban":"Tapin Bini","postal_code":74663},{"province":"Kalimantan Tengah","city":"Lamandau","district":"Belantikan Raya","urban":"Tangga Batu","postal_code":74663},{"province":"Kalimantan Tengah","city":"Lamandau","district":"Lamandau","urban":"Suja","postal_code":74663},{"province":"Kalimantan Tengah","city":"Lamandau","district":"Belantikan Raya","urban":"Sumber Cahaya","postal_code":74663},{"province":"Kalimantan Tengah","city":"Lamandau","district":"Lamandau","urban":"Sei/Sungai Tuat","postal_code":74663},{"province":"Kalimantan Tengah","city":"Lamandau","district":"Lamandau","urban":"Sekoban","postal_code":74663},{"province":"Kalimantan Tengah","city":"Lamandau","district":"Belantikan Raya","urban":"Petarikan","postal_code":74663},{"province":"Kalimantan Tengah","city":"Lamandau","district":"Belantikan Raya","urban":"Sei/Sungai Buluh","postal_code":74663},{"province":"Kalimantan Tengah","city":"Lamandau","district":"Belantikan Raya","urban":"Nanga Matu","postal_code":74663},{"province":"Kalimantan Tengah","city":"Lamandau","district":"Lamandau","urban":"Panopa","postal_code":74663},{"province":"Kalimantan Tengah","city":"Lamandau","district":"Belantikan Raya","urban":"Nanga Belantikan","postal_code":74663},{"province":"Kalimantan Tengah","city":"Lamandau","district":"Lamandau","urban":"Kawa","postal_code":74663},{"province":"Kalimantan Tengah","city":"Lamandau","district":"Lamandau","urban":"Karang Taba","postal_code":74663},{"province":"Kalimantan Tengah","city":"Lamandau","district":"Belantikan Raya","urban":"Kahingai","postal_code":74663},{"province":"Kalimantan Tengah","city":"Lamandau","district":"Belantikan Raya","urban":"Karang Besi","postal_code":74663},{"province":"Kalimantan Tengah","city":"Lamandau","district":"Lamandau","urban":"Cuhai","postal_code":74663},{"province":"Kalimantan Tengah","city":"Lamandau","district":"Belantikan Raya","urban":"Benuatan","postal_code":74663},{"province":"Kalimantan Tengah","city":"Lamandau","district":"Belantikan Raya","urban":"Bintang Mengalih","postal_code":74663},{"province":"Kalimantan Tengah","city":"Lamandau","district":"Belantikan Raya","urban":"Bayat","postal_code":74663},{"province":"Kalimantan Tengah","city":"Lamandau","district":"Belantikan Raya","urban":"Belibi (Balibi)","postal_code":74663},{"province":"Kalimantan Tengah","city":"Lamandau","district":"Lamandau","urban":"Bakonsu","postal_code":74663}]