[{"province":"Kalimantan Tengah","city":"Lamandau","district":"Delang","urban":"Sekombulan","postal_code":74664},{"province":"Kalimantan Tengah","city":"Lamandau","district":"Delang","urban":"Sepoyu","postal_code":74664},{"province":"Kalimantan Tengah","city":"Lamandau","district":"Delang","urban":"Riam Penahan","postal_code":74664},{"province":"Kalimantan Tengah","city":"Lamandau","district":"Delang","urban":"Riam Tinggi","postal_code":74664},{"province":"Kalimantan Tengah","city":"Lamandau","district":"Delang","urban":"Nyalang","postal_code":74664},{"province":"Kalimantan Tengah","city":"Lamandau","district":"Delang","urban":"Penyombaan","postal_code":74664},{"province":"Kalimantan Tengah","city":"Lamandau","district":"Delang","urban":"Lopus","postal_code":74664},{"province":"Kalimantan Tengah","city":"Lamandau","district":"Batangkawa","urban":"Liku","postal_code":74664},{"province":"Kalimantan Tengah","city":"Lamandau","district":"Batangkawa","urban":"Mengkalang","postal_code":74664},{"province":"Kalimantan Tengah","city":"Lamandau","district":"Delang","urban":"Kubung","postal_code":74664},{"province":"Kalimantan Tengah","city":"Lamandau","district":"Delang","urban":"Kudangan","postal_code":74664},{"province":"Kalimantan Tengah","city":"Lamandau","district":"Delang","urban":"Landau Kantu","postal_code":74664},{"province":"Kalimantan Tengah","city":"Lamandau","district":"Batangkawa","urban":"Kinipan","postal_code":74664},{"province":"Kalimantan Tengah","city":"Lamandau","district":"Batangkawa","urban":"Karang Mas","postal_code":74664},{"province":"Kalimantan Tengah","city":"Lamandau","district":"Batangkawa","urban":"Kina","postal_code":74664},{"province":"Kalimantan Tengah","city":"Lamandau","district":"Batangkawa","urban":"Ginih","postal_code":74664},{"province":"Kalimantan Tengah","city":"Lamandau","district":"Batangkawa","urban":"Jemuat","postal_code":74664},{"province":"Kalimantan Tengah","city":"Lamandau","district":"Batangkawa","urban":"Batu Tambun","postal_code":74664},{"province":"Kalimantan Tengah","city":"Lamandau","district":"Batangkawa","urban":"Benakitan","postal_code":74664}]