[{"province":"Kalimantan Tengah","city":"Pulang Pisau","district":"Jabiren Raya","urban":"Tumbang Nusa","postal_code":74816},{"province":"Kalimantan Tengah","city":"Pulang Pisau","district":"Jabiren Raya","urban":"Simpur","postal_code":74816},{"province":"Kalimantan Tengah","city":"Pulang Pisau","district":"Jabiren Raya","urban":"Tanjung Taruna","postal_code":74816},{"province":"Kalimantan Tengah","city":"Pulang Pisau","district":"Jabiren Raya","urban":"Pilang","postal_code":74816},{"province":"Kalimantan Tengah","city":"Pulang Pisau","district":"Jabiren Raya","urban":"Saka Kajang","postal_code":74816},{"province":"Kalimantan Tengah","city":"Pulang Pisau","district":"Kahayan Hilir","urban":"Mintin","postal_code":74816},{"province":"Kalimantan Tengah","city":"Pulang Pisau","district":"Jabiren Raya","urban":"Jabiren","postal_code":74816},{"province":"Kalimantan Tengah","city":"Pulang Pisau","district":"Jabiren Raya","urban":"Garung (Garong)","postal_code":74816},{"province":"Kalimantan Tengah","city":"Pulang Pisau","district":"Jabiren Raya","urban":"Henda","postal_code":74816}]