[{"province":"Kalimantan Tengah","city":"Pulang Pisau","district":"Sebangau Kuala","urban":"Sei/Sungai Bakau","postal_code":74874},{"province":"Kalimantan Tengah","city":"Pulang Pisau","district":"Sebangau Kuala","urban":"Sei/Sungai Hambawang","postal_code":74874},{"province":"Kalimantan Tengah","city":"Pulang Pisau","district":"Sebangau Kuala","urban":"Sebangau Jaya","postal_code":74874},{"province":"Kalimantan Tengah","city":"Pulang Pisau","district":"Sebangau Kuala","urban":"Sebangau Mulya","postal_code":74874},{"province":"Kalimantan Tengah","city":"Pulang Pisau","district":"Sebangau Kuala","urban":"Sebangau Permai","postal_code":74874},{"province":"Kalimantan Tengah","city":"Pulang Pisau","district":"Sebangau Kuala","urban":"Paduran Sabangau","postal_code":74874},{"province":"Kalimantan Tengah","city":"Pulang Pisau","district":"Sebangau Kuala","urban":"Panduran Mulya","postal_code":74874},{"province":"Kalimantan Tengah","city":"Pulang Pisau","district":"Sebangau Kuala","urban":"Mekar Jaya","postal_code":74874}]