[{"province":"Kalimantan Timur","city":"Kutai Kartanegara","district":"Samboja (Semboja)","urban":"Teluk Pemedas","postal_code":75271},{"province":"Kalimantan Timur","city":"Kutai Kartanegara","district":"Samboja (Semboja)","urban":"Sei/Sungai Seluang","postal_code":75271},{"province":"Kalimantan Timur","city":"Kutai Kartanegara","district":"Samboja (Semboja)","urban":"Tani Bakti","postal_code":75271},{"province":"Kalimantan Timur","city":"Kutai Kartanegara","district":"Samboja (Semboja)","urban":"Sei/Sungai Merdeka","postal_code":75271},{"province":"Kalimantan Timur","city":"Kutai Kartanegara","district":"Samboja (Semboja)","urban":"Salok Api Darat","postal_code":75271},{"province":"Kalimantan Timur","city":"Kutai Kartanegara","district":"Samboja (Semboja)","urban":"Salok Api Laut","postal_code":75271},{"province":"Kalimantan Timur","city":"Kutai Kartanegara","district":"Samboja (Semboja)","urban":"Sanipah","postal_code":75271},{"province":"Kalimantan Timur","city":"Kutai Kartanegara","district":"Samboja (Semboja)","urban":"Karya Jaya","postal_code":75271},{"province":"Kalimantan Timur","city":"Kutai Kartanegara","district":"Samboja (Semboja)","urban":"Karya Merdeka","postal_code":75271},{"province":"Kalimantan Timur","city":"Kutai Kartanegara","district":"Samboja (Semboja)","urban":"Bukit Merdeka","postal_code":75271},{"province":"Kalimantan Timur","city":"Kutai Kartanegara","district":"Samboja (Semboja)","urban":"Bukit Raya","postal_code":75271},{"province":"Kalimantan Timur","city":"Kutai Kartanegara","district":"Samboja (Semboja)","urban":"Argosari","postal_code":75271},{"province":"Kalimantan Timur","city":"Kutai Kartanegara","district":"Samboja (Semboja)","urban":"Beringin Agung","postal_code":75271}]