[{"province":"Kalimantan Timur","city":"Kutai Kartanegara","district":"Tenggarong","urban":"Timbau","postal_code":75511},{"province":"Kalimantan Timur","city":"Kutai Kartanegara","district":"Tenggarong","urban":"Maluhu","postal_code":75511},{"province":"Kalimantan Timur","city":"Kutai Kartanegara","district":"Tenggarong","urban":"Rapak Lambur","postal_code":75511},{"province":"Kalimantan Timur","city":"Kutai Kartanegara","district":"Tenggarong","urban":"Jahab","postal_code":75511},{"province":"Kalimantan Timur","city":"Kutai Kartanegara","district":"Tenggarong","urban":"Loa Ipuh Darat","postal_code":75511},{"province":"Kalimantan Timur","city":"Kutai Kartanegara","district":"Tenggarong","urban":"Loa Tebu","postal_code":75511},{"province":"Kalimantan Timur","city":"Kutai Kartanegara","district":"Tenggarong","urban":"Bendang Raya","postal_code":75511},{"province":"Kalimantan Timur","city":"Kutai Kartanegara","district":"Tenggarong","urban":"Bukit Biru","postal_code":75511},{"province":"Kalimantan Timur","city":"Kutai Kartanegara","district":"Tenggarong","urban":"Baru (Kampung Baru)","postal_code":75511}]