[{"province":"Kalimantan Timur","city":"Kutai Timur","district":"Kongbeng","urban":"Sri Pantun","postal_code":75555},{"province":"Kalimantan Timur","city":"Kutai Timur","district":"Kongbeng","urban":"Suka Maju","postal_code":75555},{"province":"Kalimantan Timur","city":"Kutai Timur","district":"Telen","urban":"Rantau Panjang","postal_code":75555},{"province":"Kalimantan Timur","city":"Kutai Timur","district":"Kongbeng","urban":"Sidomulyo","postal_code":75555},{"province":"Kalimantan Timur","city":"Kutai Timur","district":"Telen","urban":"Muara Pantun","postal_code":75555},{"province":"Kalimantan Timur","city":"Kutai Timur","district":"Kongbeng","urban":"Miau Baru","postal_code":75555},{"province":"Kalimantan Timur","city":"Kutai Timur","district":"Telen","urban":"Marah Haloq","postal_code":75555},{"province":"Kalimantan Timur","city":"Kutai Timur","district":"Telen","urban":"Marah Kenyah (Long Melah)","postal_code":75555},{"province":"Kalimantan Timur","city":"Kutai Timur","district":"Kongbeng","urban":"Marga Mulia","postal_code":75555},{"province":"Kalimantan Timur","city":"Kutai Timur","district":"Kongbeng","urban":"Makmur Jaya","postal_code":75555},{"province":"Kalimantan Timur","city":"Kutai Timur","district":"Telen","urban":"Long Noran","postal_code":75555},{"province":"Kalimantan Timur","city":"Kutai Timur","district":"Telen","urban":"Long Segar","postal_code":75555},{"province":"Kalimantan Timur","city":"Kutai Timur","district":"Telen","urban":"Juk Ayak","postal_code":75555},{"province":"Kalimantan Timur","city":"Kutai Timur","district":"Kongbeng","urban":"Kongbeng Indah","postal_code":75555}]