[{"province":"Kalimantan Timur","city":"Kutai Kartanegara","district":"Kenohan","urban":"Tuana Tuha","postal_code":75564},{"province":"Kalimantan Timur","city":"Kutai Kartanegara","district":"Kenohan","urban":"Tubuhan","postal_code":75564},{"province":"Kalimantan Timur","city":"Kutai Kartanegara","district":"Kenohan","urban":"Semayang","postal_code":75564},{"province":"Kalimantan Timur","city":"Kutai Kartanegara","district":"Kenohan","urban":"Teluk Bingkai","postal_code":75564},{"province":"Kalimantan Timur","city":"Kutai Kartanegara","district":"Kenohan","urban":"Teluk Muda","postal_code":75564},{"province":"Kalimantan Timur","city":"Kutai Kartanegara","district":"Kenohan","urban":"Lamin Pulut","postal_code":75564},{"province":"Kalimantan Timur","city":"Kutai Kartanegara","district":"Kenohan","urban":"Lamin Telihan","postal_code":75564},{"province":"Kalimantan Timur","city":"Kutai Kartanegara","district":"Kenohan","urban":"Kahala","postal_code":75564},{"province":"Kalimantan Timur","city":"Kutai Kartanegara","district":"Kenohan","urban":"Kahala Ilir","postal_code":75564}]