[{"province":"Kalimantan Timur","city":"Kutai Kartanegara","district":"Tenggarong Seberang","urban":"Tanjung Batu","postal_code":75572},{"province":"Kalimantan Timur","city":"Kutai Kartanegara","district":"Tenggarong Seberang","urban":"Teluk Dalam","postal_code":75572},{"province":"Kalimantan Timur","city":"Kutai Kartanegara","district":"Tenggarong Seberang","urban":"Sukamaju","postal_code":75572},{"province":"Kalimantan Timur","city":"Kutai Kartanegara","district":"Tenggarong Seberang","urban":"Mulawarman","postal_code":75572},{"province":"Kalimantan Timur","city":"Kutai Kartanegara","district":"Tenggarong Seberang","urban":"Perjiwa","postal_code":75572},{"province":"Kalimantan Timur","city":"Kutai Kartanegara","district":"Tenggarong Seberang","urban":"Separi","postal_code":75572},{"province":"Kalimantan Timur","city":"Kutai Kartanegara","district":"Tenggarong Seberang","urban":"Loa Ulung","postal_code":75572},{"province":"Kalimantan Timur","city":"Kutai Kartanegara","district":"Tenggarong Seberang","urban":"Manunggal Jaya","postal_code":75572},{"province":"Kalimantan Timur","city":"Kutai Kartanegara","district":"Tenggarong Seberang","urban":"Loa Lepu","postal_code":75572},{"province":"Kalimantan Timur","city":"Kutai Kartanegara","district":"Tenggarong Seberang","urban":"Loa Pari","postal_code":75572},{"province":"Kalimantan Timur","city":"Kutai Kartanegara","district":"Tenggarong Seberang","urban":"Loa Raya","postal_code":75572},{"province":"Kalimantan Timur","city":"Kutai Kartanegara","district":"Tenggarong Seberang","urban":"Kerta Buana","postal_code":75572},{"province":"Kalimantan Timur","city":"Kutai Kartanegara","district":"Tenggarong Seberang","urban":"Bukit Raya","postal_code":75572},{"province":"Kalimantan Timur","city":"Kutai Kartanegara","district":"Tenggarong Seberang","urban":"Embalut","postal_code":75572},{"province":"Kalimantan Timur","city":"Kutai Kartanegara","district":"Tenggarong Seberang","urban":"Karang Tunggal","postal_code":75572},{"province":"Kalimantan Timur","city":"Kutai Kartanegara","district":"Tenggarong Seberang","urban":"Bukit Pariaman","postal_code":75572},{"province":"Kalimantan Timur","city":"Kutai Kartanegara","district":"Tenggarong Seberang","urban":"Buana Jaya","postal_code":75572},{"province":"Kalimantan Timur","city":"Kutai Kartanegara","district":"Tenggarong Seberang","urban":"Bangun Rejo","postal_code":75572}]