[{"province":"Kalimantan Timur","city":"Kutai Timur","district":"Bengalon","urban":"Tepian Langsat","postal_code":75618},{"province":"Kalimantan Timur","city":"Kutai Timur","district":"Bengalon","urban":"Tepian Baru","postal_code":75618},{"province":"Kalimantan Timur","city":"Kutai Timur","district":"Bengalon","urban":"Tepian Indah","postal_code":75618},{"province":"Kalimantan Timur","city":"Kutai Timur","district":"Bengalon","urban":"Sepaso Timur","postal_code":75618},{"province":"Kalimantan Timur","city":"Kutai Timur","district":"Bengalon","urban":"Tebangan Lebak/Lembak","postal_code":75618},{"province":"Kalimantan Timur","city":"Kutai Timur","district":"Bengalon","urban":"Sepaso Induk","postal_code":75618},{"province":"Kalimantan Timur","city":"Kutai Timur","district":"Bengalon","urban":"Sepaso Selatan","postal_code":75618},{"province":"Kalimantan Timur","city":"Kutai Timur","district":"Bengalon","urban":"Sepaso Barat","postal_code":75618},{"province":"Kalimantan Timur","city":"Kutai Timur","district":"Kaliorang","urban":"Selangkau","postal_code":75618},{"province":"Kalimantan Timur","city":"Kutai Timur","district":"Bengalon","urban":"Sekerat","postal_code":75618},{"province":"Kalimantan Timur","city":"Kutai Timur","district":"Bengalon","urban":"Keraitan","postal_code":75618},{"province":"Kalimantan Timur","city":"Kutai Timur","district":"Bengalon","urban":"Muara Bengalon","postal_code":75618},{"province":"Kalimantan Timur","city":"Kutai Timur","district":"Kaliorang","urban":"Citra Manunggal Jaya","postal_code":75618},{"province":"Kalimantan Timur","city":"Kutai Timur","district":"Kaliorang","urban":"Kaliorang","postal_code":75618},{"province":"Kalimantan Timur","city":"Kutai Timur","district":"Kaliorang","urban":"Bukit Makmur","postal_code":75618},{"province":"Kalimantan Timur","city":"Kutai Timur","district":"Kaliorang","urban":"Bumi Sejahtera","postal_code":75618},{"province":"Kalimantan Timur","city":"Kutai Timur","district":"Kaliorang","urban":"Bangun Jaya","postal_code":75618},{"province":"Kalimantan Timur","city":"Kutai Timur","district":"Kaliorang","urban":"Bukit Harapan","postal_code":75618}]