[{"province":"Kalimantan Timur","city":"Kutai Timur","district":"Long Mesangat (Mesengat)","urban":"Sika Makmur","postal_code":75656},{"province":"Kalimantan Timur","city":"Kutai Timur","district":"Muara Ancalong","urban":"Senyiur","postal_code":75656},{"province":"Kalimantan Timur","city":"Kutai Timur","district":"Long Mesangat (Mesengat)","urban":"Sumber Sari","postal_code":75656},{"province":"Kalimantan Timur","city":"Kutai Timur","district":"Long Mesangat (Mesengat)","urban":"Segoi Makmur","postal_code":75656},{"province":"Kalimantan Timur","city":"Kutai Timur","district":"Long Mesangat (Mesengat)","urban":"Mukti Utama","postal_code":75656},{"province":"Kalimantan Timur","city":"Kutai Timur","district":"Muara Ancalong","urban":"Muara Dun","postal_code":75656},{"province":"Kalimantan Timur","city":"Kutai Timur","district":"Long Mesangat (Mesengat)","urban":"Melan","postal_code":75656},{"province":"Kalimantan Timur","city":"Kutai Timur","district":"Muara Ancalong","urban":"Long Nah","postal_code":75656},{"province":"Kalimantan Timur","city":"Kutai Timur","district":"Muara Ancalong","urban":"Long Tesak","postal_code":75656},{"province":"Kalimantan Timur","city":"Kutai Timur","district":"Muara Ancalong","urban":"Kelinjau Ilir","postal_code":75656},{"province":"Kalimantan Timur","city":"Kutai Timur","district":"Muara Ancalong","urban":"Long Faq/Poq Baru","postal_code":75656},{"province":"Kalimantan Timur","city":"Kutai Timur","district":"Muara Ancalong","urban":"Gemar Baru","postal_code":75656}]