[{"province":"Kalimantan Timur","city":"Kutai Timur","district":"Muara Wahau","urban":"Wana Sari","postal_code":75655},{"province":"Kalimantan Timur","city":"Kutai Timur","district":"Muara Wahau","urban":"Nehesliah Bing","postal_code":75655},{"province":"Kalimantan Timur","city":"Kutai Timur","district":"Muara Wahau","urban":"Wahau Baru","postal_code":75655},{"province":"Kalimantan Timur","city":"Kutai Timur","district":"Muara Wahau","urban":"Muara Wahau","postal_code":75655},{"province":"Kalimantan Timur","city":"Kutai Timur","district":"Muara Wahau","urban":"Long Wehea","postal_code":75655},{"province":"Kalimantan Timur","city":"Kutai Timur","district":"Muara Wahau","urban":"Karya Bakti","postal_code":75655},{"province":"Kalimantan Timur","city":"Kutai Timur","district":"Muara Wahau","urban":"Diaq Lay","postal_code":75655},{"province":"Kalimantan Timur","city":"Kutai Timur","district":"Muara Wahau","urban":"Jak Luay","postal_code":75655},{"province":"Kalimantan Timur","city":"Kutai Timur","district":"Muara Wahau","urban":"Benhes","postal_code":75655},{"province":"Kalimantan Timur","city":"Kutai Timur","district":"Muara Wahau","urban":"Dabeq","postal_code":75655}]