[{"province":"Kalimantan Timur","city":"Kutai Timur","district":"Batu Ampar","urban":"Telaga","postal_code":75654},{"province":"Kalimantan Timur","city":"Kutai Timur","district":"Long Mesangat (Mesengat)","urban":"Tanah Abang","postal_code":75654},{"province":"Kalimantan Timur","city":"Kutai Timur","district":"Long Mesangat (Mesengat)","urban":"Sumber Agung","postal_code":75654},{"province":"Kalimantan Timur","city":"Kutai Timur","district":"Muara Bengkal","urban":"Mulupan","postal_code":75654},{"province":"Kalimantan Timur","city":"Kutai Timur","district":"Muara Bengkal","urban":"Ngayau","postal_code":75654},{"province":"Kalimantan Timur","city":"Kutai Timur","district":"Muara Bengkal","urban":"Senambah","postal_code":75654},{"province":"Kalimantan Timur","city":"Kutai Timur","district":"Batu Ampar","urban":"Mugi Rahayu","postal_code":75654},{"province":"Kalimantan Timur","city":"Kutai Timur","district":"Muara Bengkal","urban":"Muara Bengkal Ilir","postal_code":75654},{"province":"Kalimantan Timur","city":"Kutai Timur","district":"Muara Bengkal","urban":"Muara Bengkal Ulu","postal_code":75654},{"province":"Kalimantan Timur","city":"Kutai Timur","district":"Batu Ampar","urban":"Mawai Indah","postal_code":75654},{"province":"Kalimantan Timur","city":"Kutai Timur","district":"Batu Ampar","urban":"Himba Lestari","postal_code":75654},{"province":"Kalimantan Timur","city":"Kutai Timur","district":"Batu Ampar","urban":"Benua Harapan","postal_code":75654},{"province":"Kalimantan Timur","city":"Kutai Timur","district":"Muara Bengkal","urban":"Benua Baru","postal_code":75654},{"province":"Kalimantan Timur","city":"Kutai Timur","district":"Batu Ampar","urban":"Batu Timbau","postal_code":75654},{"province":"Kalimantan Timur","city":"Kutai Timur","district":"Muara Bengkal","urban":"Batu Balai","postal_code":75654}]