[{"province":"Kalimantan Timur","city":"Kutai Timur","district":"Rantau Pulung","urban":"Tepian Makmur","postal_code":75683},{"province":"Kalimantan Timur","city":"Kutai Timur","district":"Sangatta Selatan","urban":"Teluk Singkam / Singkama","postal_code":75683},{"province":"Kalimantan Timur","city":"Kutai Timur","district":"Teluk Pandan","urban":"Teluk Pandan","postal_code":75683},{"province":"Kalimantan Timur","city":"Kutai Timur","district":"Sangatta Utara","urban":"Teluk Lingga","postal_code":75683},{"province":"Kalimantan Timur","city":"Kutai Timur","district":"Teluk Pandan","urban":"Suka Rahmat","postal_code":75683},{"province":"Kalimantan Timur","city":"Kutai Timur","district":"Sangatta Utara","urban":"Swarga Bara","postal_code":75683},{"province":"Kalimantan Timur","city":"Kutai Timur","district":"Rantau Pulung","urban":"Tanjung Labu","postal_code":75683},{"province":"Kalimantan Timur","city":"Kutai Timur","district":"Sangatta Selatan","urban":"Singa Geweh","postal_code":75683},{"province":"Kalimantan Timur","city":"Kutai Timur","district":"Teluk Pandan","urban":"Suka Damai","postal_code":75683},{"province":"Kalimantan Timur","city":"Kutai Timur","district":"Sangatta Selatan","urban":"Sangkima","postal_code":75683},{"province":"Kalimantan Timur","city":"Kutai Timur","district":"Sangatta Utara","urban":"Singa Gembara","postal_code":75683},{"province":"Kalimantan Timur","city":"Kutai Timur","district":"Sangatta Selatan","urban":"Sangata Selatan","postal_code":75683},{"province":"Kalimantan Timur","city":"Kutai Timur","district":"Sangatta Utara","urban":"Sangatta Utara","postal_code":75683},{"province":"Kalimantan Timur","city":"Kutai Timur","district":"Rantau Pulung","urban":"Rantau Makmur","postal_code":75683},{"province":"Kalimantan Timur","city":"Kutai Timur","district":"Rantau Pulung","urban":"Mukti Jaya","postal_code":75683},{"province":"Kalimantan Timur","city":"Kutai Timur","district":"Rantau Pulung","urban":"Pulung Sari","postal_code":75683},{"province":"Kalimantan Timur","city":"Kutai Timur","district":"Teluk Pandan","urban":"Martadinata","postal_code":75683},{"province":"Kalimantan Timur","city":"Kutai Timur","district":"Rantau Pulung","urban":"Margo Mulyo","postal_code":75683},{"province":"Kalimantan Timur","city":"Kutai Timur","district":"Rantau Pulung","urban":"Kebon Agung","postal_code":75683},{"province":"Kalimantan Timur","city":"Kutai Timur","district":"Rantau Pulung","urban":"Manunggal Jaya","postal_code":75683},{"province":"Kalimantan Timur","city":"Kutai Timur","district":"Teluk Pandan","urban":"Kandolo","postal_code":75683},{"province":"Kalimantan Timur","city":"Kutai Timur","district":"Teluk Pandan","urban":"Danau Redan","postal_code":75683}]