[{"province":"Kalimantan Timur","city":"Kutai Barat","district":"Long Bagun","urban":"Ujoh Bilang","postal_code":75767},{"province":"Kalimantan Timur","city":"Kutai Barat","district":"Long Bagun","urban":"Mamahak Ulu","postal_code":75767},{"province":"Kalimantan Timur","city":"Kutai Barat","district":"Long Bagun","urban":"Rukun Damai","postal_code":75767},{"province":"Kalimantan Timur","city":"Kutai Barat","district":"Long Bagun","urban":"Long Merah","postal_code":75767},{"province":"Kalimantan Timur","city":"Kutai Barat","district":"Long Bagun","urban":"Mamahak Ilir","postal_code":75767},{"province":"Kalimantan Timur","city":"Kutai Barat","district":"Long Bagun","urban":"Long Hurai","postal_code":75767},{"province":"Kalimantan Timur","city":"Kutai Barat","district":"Long Bagun","urban":"Long Melaham","postal_code":75767},{"province":"Kalimantan Timur","city":"Kutai Barat","district":"Long Bagun","urban":"Long Bagun Ilir","postal_code":75767},{"province":"Kalimantan Timur","city":"Kutai Barat","district":"Long Bagun","urban":"Long Bagun Ulu","postal_code":75767},{"province":"Kalimantan Timur","city":"Kutai Barat","district":"Long Bagun","urban":"Batoq Kelo (Batu Kelau)","postal_code":75767},{"province":"Kalimantan Timur","city":"Kutai Barat","district":"Long Bagun","urban":"Batu Majang","postal_code":75767}]