[{"province":"Kalimantan Timur","city":"Kutai Barat","district":"Sekolaq Darat","urban":"Sri Mulyo","postal_code":75765},{"province":"Kalimantan Timur","city":"Kutai Barat","district":"Sekolaq Darat","urban":"Sekolaq Joleq","postal_code":75765},{"province":"Kalimantan Timur","city":"Kutai Barat","district":"Sekolaq Darat","urban":"Sekolaq Muliaq","postal_code":75765},{"province":"Kalimantan Timur","city":"Kutai Barat","district":"Sekolaq Darat","urban":"Sumber Bangun","postal_code":75765},{"province":"Kalimantan Timur","city":"Kutai Barat","district":"Manor Bulatin (Mook Manaar Bulatn)","urban":"Sakaq Tada","postal_code":75765},{"province":"Kalimantan Timur","city":"Kutai Barat","district":"Sekolaq Darat","urban":"Sumber Rejo","postal_code":75765},{"province":"Kalimantan Timur","city":"Kutai Barat","district":"Sekolaq Darat","urban":"Sekolaq Darat","postal_code":75765},{"province":"Kalimantan Timur","city":"Kutai Barat","district":"Sekolaq Darat","urban":"Sekolaq Oday","postal_code":75765},{"province":"Kalimantan Timur","city":"Kutai Barat","district":"Manor Bulatin (Mook Manaar Bulatn)","urban":"Muara Kalaq","postal_code":75765},{"province":"Kalimantan Timur","city":"Kutai Barat","district":"Manor Bulatin (Mook Manaar Bulatn)","urban":"Sakaq Lotoq","postal_code":75765},{"province":"Kalimantan Timur","city":"Kutai Barat","district":"Melak","urban":"Muara Benangaq","postal_code":75765},{"province":"Kalimantan Timur","city":"Kutai Barat","district":"Melak","urban":"Muara Bunyut","postal_code":75765},{"province":"Kalimantan Timur","city":"Kutai Barat","district":"Manor Bulatin (Mook Manaar Bulatn)","urban":"Merayaq","postal_code":75765},{"province":"Kalimantan Timur","city":"Kutai Barat","district":"Manor Bulatin (Mook Manaar Bulatn)","urban":"Muara Batuq","postal_code":75765},{"province":"Kalimantan Timur","city":"Kutai Barat","district":"Melak","urban":"Melak Ilir","postal_code":75765},{"province":"Kalimantan Timur","city":"Kutai Barat","district":"Melak","urban":"Melak Ulu","postal_code":75765},{"province":"Kalimantan Timur","city":"Kutai Barat","district":"Manor Bulatin (Mook Manaar Bulatn)","urban":"Kelumpang","postal_code":75765},{"province":"Kalimantan Timur","city":"Kutai Barat","district":"Manor Bulatin (Mook Manaar Bulatn)","urban":"Linggang Marimun","postal_code":75765},{"province":"Kalimantan Timur","city":"Kutai Barat","district":"Manor Bulatin (Mook Manaar Bulatn)","urban":"Jengan","postal_code":75765},{"province":"Kalimantan Timur","city":"Kutai Barat","district":"Manor Bulatin (Mook Manaar Bulatn)","urban":"Karangan","postal_code":75765},{"province":"Kalimantan Timur","city":"Kutai Barat","district":"Manor Bulatin (Mook Manaar Bulatn)","urban":"Gunung Rampah","postal_code":75765},{"province":"Kalimantan Timur","city":"Kutai Barat","district":"Manor Bulatin (Mook Manaar Bulatn)","urban":"Gemuruh","postal_code":75765},{"province":"Kalimantan Timur","city":"Kutai Barat","district":"Manor Bulatin (Mook Manaar Bulatn)","urban":"Gadur","postal_code":75765},{"province":"Kalimantan Timur","city":"Kutai Barat","district":"Melak","urban":"Empakuq","postal_code":75765},{"province":"Kalimantan Timur","city":"Kutai Barat","district":"Melak","urban":"Empas","postal_code":75765}]