[{"province":"Kalimantan Timur","city":"Kutai Barat","district":"Long Apari","urban":"Tiong Ohang","postal_code":75769},{"province":"Kalimantan Timur","city":"Kutai Barat","district":"Long Apari","urban":"Tiong Buu","postal_code":75769},{"province":"Kalimantan Timur","city":"Kutai Barat","district":"Long Apari","urban":"Noha Tifab (Naha Tifab)","postal_code":75769},{"province":"Kalimantan Timur","city":"Kutai Barat","district":"Long Apari","urban":"Long Penaneh Tiga","postal_code":75769},{"province":"Kalimantan Timur","city":"Kutai Barat","district":"Long Apari","urban":"Naha Buan","postal_code":75769},{"province":"Kalimantan Timur","city":"Kutai Barat","district":"Long Apari","urban":"Noha Silat","postal_code":75769},{"province":"Kalimantan Timur","city":"Kutai Barat","district":"Long Apari","urban":"Long Kerioq/Keriok","postal_code":75769},{"province":"Kalimantan Timur","city":"Kutai Barat","district":"Long Apari","urban":"Long Penaneh Dua","postal_code":75769},{"province":"Kalimantan Timur","city":"Kutai Barat","district":"Long Apari","urban":"Long Penaneh Satu","postal_code":75769},{"province":"Kalimantan Timur","city":"Kutai Barat","district":"Long Apari","urban":"Long Apari","postal_code":75769}]