[{"province":"Kalimantan Timur","city":"Kutai Barat","district":"Tering","urban":"Purworejo","postal_code":75766},{"province":"Kalimantan Timur","city":"Kutai Barat","district":"Tering","urban":"Muyub/Muyup Ilir","postal_code":75766},{"province":"Kalimantan Timur","city":"Kutai Barat","district":"Long Iram","urban":"Ujoh Halang","postal_code":75766},{"province":"Kalimantan Timur","city":"Kutai Barat","district":"Tering","urban":"Muyub/Muyup Ulu","postal_code":75766},{"province":"Kalimantan Timur","city":"Kutai Barat","district":"Tering","urban":"Tukul","postal_code":75766},{"province":"Kalimantan Timur","city":"Kutai Barat","district":"Tering","urban":"Muara Mujan","postal_code":75766},{"province":"Kalimantan Timur","city":"Kutai Barat","district":"Tering","urban":"Tering Baru","postal_code":75766},{"province":"Kalimantan Timur","city":"Kutai Barat","district":"Tering","urban":"Muyub/Muyup Aket","postal_code":75766},{"province":"Kalimantan Timur","city":"Kutai Barat","district":"Tering","urban":"Tering Lama","postal_code":75766},{"province":"Kalimantan Timur","city":"Kutai Barat","district":"Long Iram","urban":"Muara Leban","postal_code":75766},{"province":"Kalimantan Timur","city":"Kutai Barat","district":"Tering","urban":"Tering Seberang","postal_code":75766},{"province":"Kalimantan Timur","city":"Kutai Barat","district":"Long Iram","urban":"Long Iram Kota","postal_code":75766},{"province":"Kalimantan Timur","city":"Kutai Barat","district":"Long Iram","urban":"Suko Mulyo","postal_code":75766},{"province":"Kalimantan Timur","city":"Kutai Barat","district":"Long Iram","urban":"Longiram Seberang","postal_code":75766},{"province":"Kalimantan Timur","city":"Kutai Barat","district":"Tering","urban":"Tering","postal_code":75766},{"province":"Kalimantan Timur","city":"Kutai Barat","district":"Long Iram","urban":"Long Daliq","postal_code":75766},{"province":"Kalimantan Timur","city":"Kutai Barat","district":"Long Iram","urban":"Long Iram Bayan","postal_code":75766},{"province":"Kalimantan Timur","city":"Kutai Barat","district":"Long Iram","urban":"Long Iram Ilir","postal_code":75766},{"province":"Kalimantan Timur","city":"Kutai Barat","district":"Tering","urban":"Kelubaq","postal_code":75766},{"province":"Kalimantan Timur","city":"Kutai Barat","district":"Tering","urban":"Kelian Dalam","postal_code":75766},{"province":"Kalimantan Timur","city":"Kutai Barat","district":"Long Iram","urban":"Keliway","postal_code":75766},{"province":"Kalimantan Timur","city":"Kutai Barat","district":"Long Iram","urban":"Kalian Luar","postal_code":75766},{"province":"Kalimantan Timur","city":"Kutai Barat","district":"Tering","urban":"Jelemuq/Jelmuq","postal_code":75766},{"province":"Kalimantan Timur","city":"Kutai Barat","district":"Long Iram","urban":"Anah","postal_code":75766}]