[{"province":"Kalimantan Timur","city":"Kutai Barat","district":"Muara Pahu","urban":"Tepian Ulaq","postal_code":75774},{"province":"Kalimantan Timur","city":"Kutai Barat","district":"Siluq Ngurai","urban":"Tendiq","postal_code":75774},{"province":"Kalimantan Timur","city":"Kutai Barat","district":"Muara Pahu","urban":"Teluk Tempudau","postal_code":75774},{"province":"Kalimantan Timur","city":"Kutai Barat","district":"Muara Pahu","urban":"Tanjung Pagar","postal_code":75774},{"province":"Kalimantan Timur","city":"Kutai Barat","district":"Siluq Ngurai","urban":"Tebisaq","postal_code":75774},{"province":"Kalimantan Timur","city":"Kutai Barat","district":"Muara Pahu","urban":"Tanjung Laong","postal_code":75774},{"province":"Kalimantan Timur","city":"Kutai Barat","district":"Siluq Ngurai","urban":"Tanah Mea (Tana Mea)","postal_code":75774},{"province":"Kalimantan Timur","city":"Kutai Barat","district":"Muara Pahu","urban":"Sebelang","postal_code":75774},{"province":"Kalimantan Timur","city":"Kutai Barat","district":"Siluq Ngurai","urban":"Rikong","postal_code":75774},{"province":"Kalimantan Timur","city":"Kutai Barat","district":"Siluq Ngurai","urban":"Sang Sang (Sansang)","postal_code":75774},{"province":"Kalimantan Timur","city":"Kutai Barat","district":"Manor Bulatin (Mook Manaar Bulatn)","urban":"Rembayan / Rambayan","postal_code":75774},{"province":"Kalimantan Timur","city":"Kutai Barat","district":"Siluq Ngurai","urban":"Penawang","postal_code":75774},{"province":"Kalimantan Timur","city":"Kutai Barat","district":"Siluq Ngurai","urban":"Muhur","postal_code":75774},{"province":"Kalimantan Timur","city":"Kutai Barat","district":"Siluq Ngurai","urban":"Muara Kelawit","postal_code":75774},{"province":"Kalimantan Timur","city":"Kutai Barat","district":"Siluq Ngurai","urban":"Muara Ponaq","postal_code":75774},{"province":"Kalimantan Timur","city":"Kutai Barat","district":"Manor Bulatin (Mook Manaar Bulatn)","urban":"Muara Jawaq","postal_code":75774},{"province":"Kalimantan Timur","city":"Kutai Barat","district":"Muara Pahu","urban":"Muara Baroh","postal_code":75774},{"province":"Kalimantan Timur","city":"Kutai Barat","district":"Muara Pahu","urban":"Muara Beloan","postal_code":75774},{"province":"Kalimantan Timur","city":"Kutai Barat","district":"Muara Pahu","urban":"Mendung","postal_code":75774},{"province":"Kalimantan Timur","city":"Kutai Barat","district":"Siluq Ngurai","urban":"Lendian Liang Nayuk/Nayung","postal_code":75774},{"province":"Kalimantan Timur","city":"Kutai Barat","district":"Siluq Ngurai","urban":"Kenyanyan","postal_code":75774},{"province":"Kalimantan Timur","city":"Kutai Barat","district":"Siluq Ngurai","urban":"Kiaq","postal_code":75774},{"province":"Kalimantan Timur","city":"Kutai Barat","district":"Siluq Ngurai","urban":"Kaliq","postal_code":75774},{"province":"Kalimantan Timur","city":"Kutai Barat","district":"Siluq Ngurai","urban":"Kendisiq","postal_code":75774},{"province":"Kalimantan Timur","city":"Kutai Barat","district":"Muara Pahu","urban":"Jerang Dayak","postal_code":75774},{"province":"Kalimantan Timur","city":"Kutai Barat","district":"Muara Pahu","urban":"Jerang Melayu","postal_code":75774},{"province":"Kalimantan Timur","city":"Kutai Barat","district":"Muara Pahu","urban":"Dasaq","postal_code":75774},{"province":"Kalimantan Timur","city":"Kutai Barat","district":"Muara Pahu","urban":"Gunung Bayan","postal_code":75774},{"province":"Kalimantan Timur","city":"Kutai Barat","district":"Siluq Ngurai","urban":"Bentas","postal_code":75774},{"province":"Kalimantan Timur","city":"Kutai Barat","district":"Siluq Ngurai","urban":"Betung","postal_code":75774},{"province":"Kalimantan Timur","city":"Kutai Barat","district":"Manor Bulatin (Mook Manaar Bulatn)","urban":"Abit","postal_code":75774}]