[{"province":"Kalimantan Timur","city":"Kutai Barat","district":"Barong Tongkok","urban":"Sumber Sari","postal_code":75776},{"province":"Kalimantan Timur","city":"Kutai Barat","district":"Nyuatan","urban":"Terajuk","postal_code":75776},{"province":"Kalimantan Timur","city":"Kutai Barat","district":"Barong Tongkok","urban":"Sendawar","postal_code":75776},{"province":"Kalimantan Timur","city":"Kutai Barat","district":"Barong Tongkok","urban":"Simpang Raya","postal_code":75776},{"province":"Kalimantan Timur","city":"Kutai Barat","district":"Nyuatan","urban":"Sentalar","postal_code":75776},{"province":"Kalimantan Timur","city":"Kutai Barat","district":"Barong Tongkok","urban":"Pepas Eheng","postal_code":75776},{"province":"Kalimantan Timur","city":"Kutai Barat","district":"Barong Tongkok","urban":"Pepas/Pepes Asa","postal_code":75776},{"province":"Kalimantan Timur","city":"Kutai Barat","district":"Barong Tongkok","urban":"Rejo Basuki","postal_code":75776},{"province":"Kalimantan Timur","city":"Kutai Barat","district":"Barong Tongkok","urban":"Ombau Asa","postal_code":75776},{"province":"Kalimantan Timur","city":"Kutai Barat","district":"Barong Tongkok","urban":"Ongko Asa","postal_code":75776},{"province":"Kalimantan Timur","city":"Kutai Barat","district":"Barong Tongkok","urban":"Muara Asa","postal_code":75776},{"province":"Kalimantan Timur","city":"Kutai Barat","district":"Barong Tongkok","urban":"Ngenyan Asa","postal_code":75776},{"province":"Kalimantan Timur","city":"Kutai Barat","district":"Nyuatan","urban":"Mu&#8217;ut","postal_code":75776},{"province":"Kalimantan Timur","city":"Kutai Barat","district":"Nyuatan","urban":"Lakan Bilem","postal_code":75776},{"province":"Kalimantan Timur","city":"Kutai Barat","district":"Barong Tongkok","urban":"Juhan Asa","postal_code":75776},{"province":"Kalimantan Timur","city":"Kutai Barat","district":"Barong Tongkok","urban":"Mencimai","postal_code":75776},{"province":"Kalimantan Timur","city":"Kutai Barat","district":"Barong Tongkok","urban":"Gemuhan Asa","postal_code":75776},{"province":"Kalimantan Timur","city":"Kutai Barat","district":"Barong Tongkok","urban":"Juaq Asa","postal_code":75776},{"province":"Kalimantan Timur","city":"Kutai Barat","district":"Barong Tongkok","urban":"Engkuni Pasek","postal_code":75776},{"province":"Kalimantan Timur","city":"Kutai Barat","district":"Barong Tongkok","urban":"Geleo Asa","postal_code":75776},{"province":"Kalimantan Timur","city":"Kutai Barat","district":"Barong Tongkok","urban":"Geleo Baru","postal_code":75776},{"province":"Kalimantan Timur","city":"Kutai Barat","district":"Barong Tongkok","urban":"Barong Tongkok","postal_code":75776},{"province":"Kalimantan Timur","city":"Kutai Barat","district":"Barong Tongkok","urban":"Belempung Ulaq","postal_code":75776},{"province":"Kalimantan Timur","city":"Kutai Barat","district":"Barong Tongkok","urban":"Balok Asa","postal_code":75776},{"province":"Kalimantan Timur","city":"Kutai Barat","district":"Nyuatan","urban":"Awai","postal_code":75776},{"province":"Kalimantan Timur","city":"Kutai Barat","district":"Barong Tongkok","urban":"Asa","postal_code":75776}]