[{"province":"Kalimantan Timur","city":"Kutai Barat","district":"Long Hubung","urban":"Tripati Makmur","postal_code":75779},{"province":"Kalimantan Timur","city":"Kutai Barat","district":"Long Hubung","urban":"Wana Pariq","postal_code":75779},{"province":"Kalimantan Timur","city":"Kutai Barat","district":"Long Hubung","urban":"Sirau","postal_code":75779},{"province":"Kalimantan Timur","city":"Kutai Barat","district":"Laham","urban":"Nyaribungan","postal_code":75779},{"province":"Kalimantan Timur","city":"Kutai Barat","district":"Long Hubung","urban":"Memahak Teboq","postal_code":75779},{"province":"Kalimantan Timur","city":"Kutai Barat","district":"Laham","urban":"Muara Ratah","postal_code":75779},{"province":"Kalimantan Timur","city":"Kutai Barat","district":"Long Hubung","urban":"Long Hubung","postal_code":75779},{"province":"Kalimantan Timur","city":"Kutai Barat","district":"Long Hubung","urban":"Lutan","postal_code":75779},{"province":"Kalimantan Timur","city":"Kutai Barat","district":"Long Hubung","urban":"Mata Libaq","postal_code":75779},{"province":"Kalimantan Timur","city":"Kutai Barat","district":"Laham","urban":"Long Gelawang","postal_code":75779},{"province":"Kalimantan Timur","city":"Kutai Barat","district":"Long Hubung","urban":"Datah Bilang Ulu","postal_code":75779},{"province":"Kalimantan Timur","city":"Kutai Barat","district":"Laham","urban":"Laham","postal_code":75779},{"province":"Kalimantan Timur","city":"Kutai Barat","district":"Long Hubung","urban":"Datah Bilang Ilir","postal_code":75779},{"province":"Kalimantan Timur","city":"Kutai Barat","district":"Long Hubung","urban":"Datah Bilang Baru","postal_code":75779},{"province":"Kalimantan Timur","city":"Kutai Barat","district":"Laham","urban":"Danum Paroy/Paroi","postal_code":75779}]