[{"province":"Kalimantan Timur","city":"Paser","district":"Muara Samu","urban":"Tanjung Pinang","postal_code":76252},{"province":"Kalimantan Timur","city":"Paser","district":"Muara Samu","urban":"Suweto","postal_code":76252},{"province":"Kalimantan Timur","city":"Paser","district":"Batu Sopang","urban":"Songka","postal_code":76252},{"province":"Kalimantan Timur","city":"Paser","district":"Batu Sopang","urban":"Samurangau","postal_code":76252},{"province":"Kalimantan Timur","city":"Paser","district":"Batu Sopang","urban":"Sei/Sungai Terik","postal_code":76252},{"province":"Kalimantan Timur","city":"Paser","district":"Batu Sopang","urban":"Rantau Layung","postal_code":76252},{"province":"Kalimantan Timur","city":"Paser","district":"Batu Sopang","urban":"Rantau Buta","postal_code":76252},{"province":"Kalimantan Timur","city":"Paser","district":"Muara Samu","urban":"Rantau Atas","postal_code":76252},{"province":"Kalimantan Timur","city":"Paser","district":"Muara Samu","urban":"Rantau Bintungan","postal_code":76252},{"province":"Kalimantan Timur","city":"Paser","district":"Muara Samu","urban":"Muser","postal_code":76252},{"province":"Kalimantan Timur","city":"Paser","district":"Muara Samu","urban":"Luan (Dilibinti)","postal_code":76252},{"province":"Kalimantan Timur","city":"Paser","district":"Muara Samu","urban":"Muara Andeh","postal_code":76252},{"province":"Kalimantan Timur","city":"Paser","district":"Muara Samu","urban":"Libur Dinding","postal_code":76252},{"province":"Kalimantan Timur","city":"Paser","district":"Batu Sopang","urban":"Kasungai","postal_code":76252},{"province":"Kalimantan Timur","city":"Paser","district":"Batu Sopang","urban":"Legai","postal_code":76252},{"province":"Kalimantan Timur","city":"Paser","district":"Batu Sopang","urban":"Busui","postal_code":76252},{"province":"Kalimantan Timur","city":"Paser","district":"Muara Samu","urban":"Biu","postal_code":76252},{"province":"Kalimantan Timur","city":"Paser","district":"Batu Sopang","urban":"Batu Sopang","postal_code":76252}]