[{"province":"Kalimantan Timur","city":"Paser","district":"Tanjung Harapan","urban":"Tanjung Aru","postal_code":76261},{"province":"Kalimantan Timur","city":"Paser","district":"Batu Engau","urban":"Tampakan","postal_code":76261},{"province":"Kalimantan Timur","city":"Paser","district":"Batu Engau","urban":"Tebru Paser Damai","postal_code":76261},{"province":"Kalimantan Timur","city":"Paser","district":"Tanjung Harapan","urban":"Selengot","postal_code":76261},{"province":"Kalimantan Timur","city":"Paser","district":"Tanjung Harapan","urban":"Senipah","postal_code":76261},{"province":"Kalimantan Timur","city":"Paser","district":"Batu Engau","urban":"Saing Prupuk","postal_code":76261},{"province":"Kalimantan Timur","city":"Paser","district":"Batu Engau","urban":"Segendang","postal_code":76261},{"province":"Kalimantan Timur","city":"Paser","district":"Tanjung Harapan","urban":"Random","postal_code":76261},{"province":"Kalimantan Timur","city":"Paser","district":"Batu Engau","urban":"Riwang","postal_code":76261},{"province":"Kalimantan Timur","city":"Paser","district":"Batu Engau","urban":"Pengguren Jaya","postal_code":76261},{"province":"Kalimantan Timur","city":"Paser","district":"Batu Engau","urban":"Petangis","postal_code":76261},{"province":"Kalimantan Timur","city":"Paser","district":"Tanjung Harapan","urban":"Lori","postal_code":76261},{"province":"Kalimantan Timur","city":"Paser","district":"Batu Engau","urban":"Lomu","postal_code":76261},{"province":"Kalimantan Timur","city":"Paser","district":"Batu Engau","urban":"Mengkudu","postal_code":76261},{"province":"Kalimantan Timur","city":"Paser","district":"Batu Engau","urban":"Langgai","postal_code":76261},{"province":"Kalimantan Timur","city":"Paser","district":"Tanjung Harapan","urban":"Labuangkalo","postal_code":76261},{"province":"Kalimantan Timur","city":"Paser","district":"Batu Engau","urban":"Kerang","postal_code":76261},{"province":"Kalimantan Timur","city":"Paser","district":"Batu Engau","urban":"Kerang Dayo","postal_code":76261},{"province":"Kalimantan Timur","city":"Paser","district":"Batu Engau","urban":"Bai Jaya","postal_code":76261},{"province":"Kalimantan Timur","city":"Paser","district":"Tanjung Harapan","urban":"Keladen","postal_code":76261}]