[{"province":"Kalimantan Timur","city":"Paser","district":"Long Ikis","urban":"Tiwei","postal_code":76282},{"province":"Kalimantan Timur","city":"Paser","district":"Long Ikis","urban":"Tajur","postal_code":76282},{"province":"Kalimantan Timur","city":"Paser","district":"Long Ikis","urban":"Teluk Waru","postal_code":76282},{"province":"Kalimantan Timur","city":"Paser","district":"Long Ikis","urban":"Sawit Jaya","postal_code":76282},{"province":"Kalimantan Timur","city":"Paser","district":"Long Ikis","urban":"Sekurou Jaya","postal_code":76282},{"province":"Kalimantan Timur","city":"Paser","district":"Long Ikis","urban":"Tajer Mulya","postal_code":76282},{"province":"Kalimantan Timur","city":"Paser","district":"Long Ikis","urban":"Pait","postal_code":76282},{"province":"Kalimantan Timur","city":"Paser","district":"Long Ikis","urban":"Samuntai","postal_code":76282},{"province":"Kalimantan Timur","city":"Paser","district":"Long Ikis","urban":"Muara Adang I","postal_code":76282},{"province":"Kalimantan Timur","city":"Paser","district":"Long Ikis","urban":"Olung","postal_code":76282},{"province":"Kalimantan Timur","city":"Paser","district":"Long Ikis","urban":"Muara Adang","postal_code":76282},{"province":"Kalimantan Timur","city":"Paser","district":"Long Ikis","urban":"Long Gelang","postal_code":76282},{"province":"Kalimantan Timur","city":"Paser","district":"Long Ikis","urban":"Long Ikis","postal_code":76282},{"province":"Kalimantan Timur","city":"Paser","district":"Long Ikis","urban":"Krayan Makmur","postal_code":76282},{"province":"Kalimantan Timur","city":"Paser","district":"Long Ikis","urban":"Krayan Sentosa","postal_code":76282},{"province":"Kalimantan Timur","city":"Paser","district":"Long Ikis","urban":"Lombok","postal_code":76282},{"province":"Kalimantan Timur","city":"Paser","district":"Long Ikis","urban":"Kerta Bakti","postal_code":76282},{"province":"Kalimantan Timur","city":"Paser","district":"Long Ikis","urban":"Krayan Bahagia","postal_code":76282},{"province":"Kalimantan Timur","city":"Paser","district":"Long Ikis","urban":"Krayan Jaya","postal_code":76282},{"province":"Kalimantan Timur","city":"Paser","district":"Long Ikis","urban":"Kayungo","postal_code":76282},{"province":"Kalimantan Timur","city":"Paser","district":"Long Ikis","urban":"Kayungo Sari","postal_code":76282},{"province":"Kalimantan Timur","city":"Paser","district":"Long Ikis","urban":"Brewe","postal_code":76282},{"province":"Kalimantan Timur","city":"Paser","district":"Long Ikis","urban":"Bukit Seloka","postal_code":76282},{"province":"Kalimantan Timur","city":"Paser","district":"Long Ikis","urban":"Jemparing","postal_code":76282},{"province":"Kalimantan Timur","city":"Paser","district":"Long Ikis","urban":"Atang Pait","postal_code":76282},{"province":"Kalimantan Timur","city":"Paser","district":"Long Ikis","urban":"Belimbing","postal_code":76282}]