[{"province":"Kalimantan Utara","city":"Tana Tidung","district":"Sesayap","urban":"Tideng Pale Timur","postal_code":77152},{"province":"Kalimantan Utara","city":"Tana Tidung","district":"Sesayap","urban":"Tideng Pale","postal_code":77152},{"province":"Kalimantan Utara","city":"Tana Tidung","district":"Sesayap","urban":"Seputuk","postal_code":77152},{"province":"Kalimantan Utara","city":"Tana Tidung","district":"Sesayap Hilir","urban":"Sepala Dalung (Sesayap Dalung)","postal_code":77152},{"province":"Kalimantan Utara","city":"Tana Tidung","district":"Sesayap Hilir","urban":"Sesayap/Sepala","postal_code":77152},{"province":"Kalimantan Utara","city":"Tana Tidung","district":"Sesayap Hilir","urban":"Seludau","postal_code":77152},{"province":"Kalimantan Utara","city":"Tana Tidung","district":"Sesayap Hilir","urban":"Sengkong","postal_code":77152},{"province":"Kalimantan Utara","city":"Tana Tidung","district":"Sesayap","urban":"Sebidai/Sebiday","postal_code":77152},{"province":"Kalimantan Utara","city":"Tana Tidung","district":"Sesayap","urban":"Sedulun","postal_code":77152},{"province":"Kalimantan Utara","city":"Tana Tidung","district":"Sesayap","urban":"Rian","postal_code":77152},{"province":"Kalimantan Utara","city":"Tana Tidung","district":"Sesayap","urban":"Sebawang","postal_code":77152},{"province":"Kalimantan Utara","city":"Tana Tidung","district":"Betayau","urban":"Mendupe/Mendopu","postal_code":77152},{"province":"Kalimantan Utara","city":"Tana Tidung","district":"Betayau","urban":"Periuk","postal_code":77152},{"province":"Kalimantan Utara","city":"Tana Tidung","district":"Betayau","urban":"Maning","postal_code":77152},{"province":"Kalimantan Utara","city":"Tana Tidung","district":"Sesayap Hilir","urban":"Mendelutung (Menjelutung)","postal_code":77152},{"province":"Kalimantan Utara","city":"Tana Tidung","district":"Betayau","urban":"Kujau","postal_code":77152},{"province":"Kalimantan Utara","city":"Tana Tidung","district":"Sesayap","urban":"Limbu Sedulun/Sidulun","postal_code":77152},{"province":"Kalimantan Utara","city":"Tana Tidung","district":"Betayau","urban":"Buang Baru (Buong Baru)","postal_code":77152},{"province":"Kalimantan Utara","city":"Tana Tidung","district":"Sesayap","urban":"Gunawan","postal_code":77152},{"province":"Kalimantan Utara","city":"Tana Tidung","district":"Sesayap Hilir","urban":"Bebatu","postal_code":77152},{"province":"Kalimantan Utara","city":"Tana Tidung","district":"Betayau","urban":"Bebakung","postal_code":77152},{"province":"Kalimantan Utara","city":"Tana Tidung","district":"Sesayap Hilir","urban":"Badan Bikis","postal_code":77152}]