[{"province":"Kalimantan Utara","city":"Bulungan (Bulongan)","district":"Tanjung Palas Timur","urban":"Wono Mulyo","postal_code":77215},{"province":"Kalimantan Utara","city":"Bulungan (Bulongan)","district":"Tanjung Palas","urban":"Tanjung Palas Ulu/Hulu","postal_code":77215},{"province":"Kalimantan Utara","city":"Bulungan (Bulongan)","district":"Tanjung Palas Timur","urban":"Tanah Kuning","postal_code":77215},{"province":"Kalimantan Utara","city":"Bulungan (Bulongan)","district":"Tanjung Palas Timur","urban":"Tanjung Agung","postal_code":77215},{"province":"Kalimantan Utara","city":"Bulungan (Bulongan)","district":"Tanjung Palas Timur","urban":"Sajau","postal_code":77215},{"province":"Kalimantan Utara","city":"Bulungan (Bulongan)","district":"Tanjung Palas Timur","urban":"Sajau Timur","postal_code":77215},{"province":"Kalimantan Utara","city":"Bulungan (Bulongan)","district":"Tanjung Palas Utara","urban":"Ruhui Rahayu","postal_code":77215},{"province":"Kalimantan Utara","city":"Bulungan (Bulongan)","district":"Tanjung Palas Timur","urban":"Pura Sajau","postal_code":77215},{"province":"Kalimantan Utara","city":"Bulungan (Bulongan)","district":"Tanjung Palas Utara","urban":"Pimping","postal_code":77215},{"province":"Kalimantan Utara","city":"Bulungan (Bulongan)","district":"Tanjung Palas Utara","urban":"Panca Agung","postal_code":77215},{"province":"Kalimantan Utara","city":"Bulungan (Bulongan)","district":"Tanjung Palas Utara","urban":"Kelubir","postal_code":77215},{"province":"Kalimantan Utara","city":"Bulungan (Bulongan)","district":"Tanjung Palas Timur","urban":"Mangkupadi","postal_code":77215},{"province":"Kalimantan Utara","city":"Bulungan (Bulongan)","district":"Tanjung Palas Utara","urban":"Karang Agung","postal_code":77215},{"province":"Kalimantan Utara","city":"Bulungan (Bulongan)","district":"Tanjung Palas Timur","urban":"Binai","postal_code":77215},{"province":"Kalimantan Utara","city":"Bulungan (Bulongan)","district":"Tanjung Palas Utara","urban":"Ardi Mulya","postal_code":77215}]