[{"province":"Kalimantan Utara","city":"Bulungan (Bulongan)","district":"Peso Hilir/Ilir","urban":"Naha Aya","postal_code":77261},{"province":"Kalimantan Utara","city":"Bulungan (Bulongan)","district":"Peso","urban":"Long Yiin/Pelaah","postal_code":77261},{"province":"Kalimantan Utara","city":"Bulungan (Bulongan)","district":"Peso","urban":"Muara Pengean","postal_code":77261},{"province":"Kalimantan Utara","city":"Bulungan (Bulongan)","district":"Peso","urban":"Long Peso","postal_code":77261},{"province":"Kalimantan Utara","city":"Bulungan (Bulongan)","district":"Peso Hilir/Ilir","urban":"Long Telenjau","postal_code":77261},{"province":"Kalimantan Utara","city":"Bulungan (Bulongan)","district":"Peso Hilir/Ilir","urban":"Long Tungu","postal_code":77261},{"province":"Kalimantan Utara","city":"Bulungan (Bulongan)","district":"Peso","urban":"Long Lian","postal_code":77261},{"province":"Kalimantan Utara","city":"Bulungan (Bulongan)","district":"Peso","urban":"Long Peleban","postal_code":77261},{"province":"Kalimantan Utara","city":"Bulungan (Bulongan)","district":"Peso","urban":"Long Leju","postal_code":77261},{"province":"Kalimantan Utara","city":"Bulungan (Bulongan)","district":"Peso Hilir/Ilir","urban":"Long Lembu","postal_code":77261},{"province":"Kalimantan Utara","city":"Bulungan (Bulongan)","district":"Peso","urban":"Long Buang","postal_code":77261},{"province":"Kalimantan Utara","city":"Bulungan (Bulongan)","district":"Peso","urban":"Long Lasan","postal_code":77261},{"province":"Kalimantan Utara","city":"Bulungan (Bulongan)","district":"Peso","urban":"Long Bia","postal_code":77261},{"province":"Kalimantan Utara","city":"Bulungan (Bulongan)","district":"Peso Hilir/Ilir","urban":"Long Bang Hulu","postal_code":77261},{"province":"Kalimantan Utara","city":"Bulungan (Bulongan)","district":"Peso Hilir/Ilir","urban":"Long Bang","postal_code":77261},{"province":"Kalimantan Utara","city":"Bulungan (Bulongan)","district":"Peso","urban":"Lepak Aru","postal_code":77261}]