[{"province":"Kalimantan Timur","city":"Berau","district":"Biduk-Biduk","urban":"Teluk Sumbang","postal_code":77373},{"province":"Kalimantan Timur","city":"Berau","district":"Biduk-Biduk","urban":"Tanjung Perepat","postal_code":77373},{"province":"Kalimantan Timur","city":"Berau","district":"Biduk-Biduk","urban":"Teluk Sulaiman","postal_code":77373},{"province":"Kalimantan Timur","city":"Berau","district":"Batu Putih","urban":"Lobang Kelatak","postal_code":77373},{"province":"Kalimantan Timur","city":"Berau","district":"Biduk-Biduk","urban":"Pantai Harapan","postal_code":77373},{"province":"Kalimantan Timur","city":"Berau","district":"Biduk-Biduk","urban":"Giring-Giring","postal_code":77373},{"province":"Kalimantan Timur","city":"Berau","district":"Batu Putih","urban":"Batu Putih","postal_code":77373},{"province":"Kalimantan Timur","city":"Berau","district":"Biduk-Biduk","urban":"Biduk-Biduk","postal_code":77373},{"province":"Kalimantan Timur","city":"Berau","district":"Batu Putih","urban":"Ampen Medang","postal_code":77373},{"province":"Kalimantan Timur","city":"Berau","district":"Batu Putih","urban":"Balik Kukuk (Balikukup)","postal_code":77373}]