[{"province":"Kalimantan Timur","city":"Berau","district":"Talisayan","urban":"Tunggal Bumi","postal_code":77372},{"province":"Kalimantan Timur","city":"Berau","district":"Tabalar","urban":"Tubaan","postal_code":77372},{"province":"Kalimantan Timur","city":"Berau","district":"Batu Putih","urban":"Tembudan","postal_code":77372},{"province":"Kalimantan Timur","city":"Berau","district":"Tabalar","urban":"Tabalar Ulu","postal_code":77372},{"province":"Kalimantan Timur","city":"Berau","district":"Talisayan","urban":"Talisayan","postal_code":77372},{"province":"Kalimantan Timur","city":"Berau","district":"Tabalar","urban":"Tabalar Muara","postal_code":77372},{"province":"Kalimantan Timur","city":"Berau","district":"Talisayan","urban":"Sumber Mulia","postal_code":77372},{"province":"Kalimantan Timur","city":"Berau","district":"Batu Putih","urban":"Sumber Agung","postal_code":77372},{"province":"Kalimantan Timur","city":"Berau","district":"Talisayan","urban":"Suka Murya","postal_code":77372},{"province":"Kalimantan Timur","city":"Berau","district":"Tabalar","urban":"Semurut","postal_code":77372},{"province":"Kalimantan Timur","city":"Berau","district":"Talisayan","urban":"Purna Sari Jaya","postal_code":77372},{"province":"Kalimantan Timur","city":"Berau","district":"Biatan","urban":"Manunggal Jaya","postal_code":77372},{"province":"Kalimantan Timur","city":"Berau","district":"Batu Putih","urban":"Kayu Indah","postal_code":77372},{"province":"Kalimantan Timur","city":"Berau","district":"Tabalar","urban":"Harapan Maju","postal_code":77372},{"province":"Kalimantan Timur","city":"Berau","district":"Biatan","urban":"Karangan","postal_code":77372},{"province":"Kalimantan Timur","city":"Berau","district":"Talisayan","urban":"Dumaring","postal_code":77372},{"province":"Kalimantan Timur","city":"Berau","district":"Talisayan","urban":"Eka Sapta","postal_code":77372},{"province":"Kalimantan Timur","city":"Berau","district":"Tabalar","urban":"Buyung-Buyung (Radak)","postal_code":77372},{"province":"Kalimantan Timur","city":"Berau","district":"Talisayan","urban":"Campur Sari","postal_code":77372},{"province":"Kalimantan Timur","city":"Berau","district":"Talisayan","urban":"Bumi Jaya","postal_code":77372},{"province":"Kalimantan Timur","city":"Berau","district":"Biatan","urban":"Biatan Ulu","postal_code":77372},{"province":"Kalimantan Timur","city":"Berau","district":"Biatan","urban":"Bukit Makmur Jaya","postal_code":77372},{"province":"Kalimantan Timur","city":"Berau","district":"Biatan","urban":"Biatan Ilir","postal_code":77372},{"province":"Kalimantan Timur","city":"Berau","district":"Biatan","urban":"Biatan Lempake","postal_code":77372},{"province":"Kalimantan Timur","city":"Berau","district":"Biatan","urban":"Biatan Bapinang","postal_code":77372},{"province":"Kalimantan Timur","city":"Berau","district":"Biatan","urban":"Biatan Baru","postal_code":77372}]