[{"province":"Kalimantan Timur","city":"Berau","district":"Derawan (Pulau Derawan)","urban":"Teluk Semanting","postal_code":77381},{"province":"Kalimantan Timur","city":"Berau","district":"Derawan (Pulau Derawan)","urban":"Pulau Derawan","postal_code":77381},{"province":"Kalimantan Timur","city":"Berau","district":"Derawan (Pulau Derawan)","urban":"Tanjung Batu","postal_code":77381},{"province":"Kalimantan Timur","city":"Berau","district":"Derawan (Pulau Derawan)","urban":"Pegat Bertumbuk","postal_code":77381},{"province":"Kalimantan Timur","city":"Berau","district":"Maratua","urban":"Maratua Teluk Alulu","postal_code":77381},{"province":"Kalimantan Timur","city":"Berau","district":"Maratua","urban":"Maratua Teluk Harapan","postal_code":77381},{"province":"Kalimantan Timur","city":"Berau","district":"Maratua","urban":"Maratua Payung-Payung","postal_code":77381},{"province":"Kalimantan Timur","city":"Berau","district":"Maratua","urban":"Maratua Bohesilian","postal_code":77381},{"province":"Kalimantan Timur","city":"Berau","district":"Derawan (Pulau Derawan)","urban":"Kasai","postal_code":77381}]