[{"province":"Kalimantan Utara","city":"Nunukan","district":"Lumbis Ogong","urban":"Ubel Sulok","postal_code":77457},{"province":"Kalimantan Utara","city":"Nunukan","district":"Lumbis Ogong","urban":"Tukulen (Tukulon)","postal_code":77457},{"province":"Kalimantan Utara","city":"Nunukan","district":"Lumbis Ogong","urban":"Tumatalas","postal_code":77457},{"province":"Kalimantan Utara","city":"Nunukan","district":"Lumbis","urban":"Tubus","postal_code":77457},{"province":"Kalimantan Utara","city":"Nunukan","district":"Lumbis","urban":"Tubus","postal_code":77457},{"province":"Kalimantan Utara","city":"Nunukan","district":"Lumbis Ogong","urban":"Tau Lumbis","postal_code":77457},{"province":"Kalimantan Utara","city":"Nunukan","district":"Lumbis Ogong","urban":"Tetagas","postal_code":77457},{"province":"Kalimantan Utara","city":"Nunukan","district":"Lumbis Ogong","urban":"Tantalujuk","postal_code":77457},{"province":"Kalimantan Utara","city":"Nunukan","district":"Lumbis Ogong","urban":"Tantu Libing","postal_code":77457},{"province":"Kalimantan Utara","city":"Nunukan","district":"Lumbis","urban":"Tanjung Hulu","postal_code":77457},{"province":"Kalimantan Utara","city":"Nunukan","district":"Lumbis Ogong","urban":"Tambalang Ulu","postal_code":77457},{"province":"Kalimantan Utara","city":"Nunukan","district":"Lumbis","urban":"Tanjung Hilir","postal_code":77457},{"province":"Kalimantan Utara","city":"Nunukan","district":"Lumbis Ogong","urban":"Suyadon","postal_code":77457},{"province":"Kalimantan Utara","city":"Nunukan","district":"Lumbis Ogong","urban":"Tambalang Hilir","postal_code":77457},{"province":"Kalimantan Utara","city":"Nunukan","district":"Lumbis","urban":"Taluan","postal_code":77457},{"province":"Kalimantan Utara","city":"Nunukan","district":"Lumbis Ogong","urban":"Sungoi","postal_code":77457},{"province":"Kalimantan Utara","city":"Nunukan","district":"Lumbis Ogong","urban":"Sumantipal","postal_code":77457},{"province":"Kalimantan Utara","city":"Nunukan","district":"Lumbis Ogong","urban":"Sumentobol","postal_code":77457},{"province":"Kalimantan Utara","city":"Nunukan","district":"Lumbis Ogong","urban":"Sinampala Satu","postal_code":77457},{"province":"Kalimantan Utara","city":"Nunukan","district":"Lumbis","urban":"Sumalumung","postal_code":77457},{"province":"Kalimantan Utara","city":"Nunukan","district":"Lumbis Ogong","urban":"Sibalu","postal_code":77457},{"province":"Kalimantan Utara","city":"Nunukan","district":"Lumbis Ogong","urban":"Sinampala Dua","postal_code":77457},{"province":"Kalimantan Utara","city":"Nunukan","district":"Lumbis Ogong","urban":"Semata","postal_code":77457},{"province":"Kalimantan Utara","city":"Nunukan","district":"Lumbis","urban":"Siawang","postal_code":77457},{"province":"Kalimantan Utara","city":"Nunukan","district":"Lumbis Ogong","urban":"Sedalit","postal_code":77457},{"province":"Kalimantan Utara","city":"Nunukan","district":"Lumbis","urban":"Sedongon","postal_code":77457},{"province":"Kalimantan Utara","city":"Nunukan","district":"Lumbis","urban":"Semalat","postal_code":77457},{"province":"Kalimantan Utara","city":"Nunukan","district":"Lumbis","urban":"Sapuyan","postal_code":77457},{"province":"Kalimantan Utara","city":"Nunukan","district":"Lumbis","urban":"Sasibu","postal_code":77457},{"province":"Kalimantan Utara","city":"Nunukan","district":"Lumbis Ogong","urban":"Sanal","postal_code":77457},{"province":"Kalimantan Utara","city":"Nunukan","district":"Lumbis","urban":"Sangkup","postal_code":77457},{"province":"Kalimantan Utara","city":"Nunukan","district":"Lumbis Ogong","urban":"Samunti","postal_code":77457},{"province":"Kalimantan Utara","city":"Nunukan","district":"Lumbis","urban":"Saludan","postal_code":77457},{"province":"Kalimantan Utara","city":"Nunukan","district":"Lumbis Ogong","urban":"Salan","postal_code":77457},{"province":"Kalimantan Utara","city":"Nunukan","district":"Lumbis","urban":"Podong","postal_code":77457},{"province":"Kalimantan Utara","city":"Nunukan","district":"Lumbis","urban":"Pulu Bulawan","postal_code":77457},{"province":"Kalimantan Utara","city":"Nunukan","district":"Lumbis Ogong","urban":"Payang","postal_code":77457},{"province":"Kalimantan Utara","city":"Nunukan","district":"Lumbis","urban":"Patal II (Dua)","postal_code":77457},{"province":"Kalimantan Utara","city":"Nunukan","district":"Lumbis","urban":"Patal I (Satu)","postal_code":77457},{"province":"Kalimantan Utara","city":"Nunukan","district":"Lumbis","urban":"Pa Loo","postal_code":77457},{"province":"Kalimantan Utara","city":"Nunukan","district":"Lumbis Ogong","urban":"Paluan","postal_code":77457},{"province":"Kalimantan Utara","city":"Nunukan","district":"Lumbis Ogong","urban":"Panas","postal_code":77457},{"province":"Kalimantan Utara","city":"Nunukan","district":"Lumbis","urban":"Pa Lemumut","postal_code":77457},{"province":"Kalimantan Utara","city":"Nunukan","district":"Lumbis Ogong","urban":"Ngawol","postal_code":77457},{"province":"Kalimantan Utara","city":"Nunukan","district":"Lumbis Ogong","urban":"Nan Sapan","postal_code":77457},{"province":"Kalimantan Utara","city":"Nunukan","district":"Lumbis Ogong","urban":"Nantukidan","postal_code":77457},{"province":"Kalimantan Utara","city":"Nunukan","district":"Lumbis","urban":"Mansalong","postal_code":77457},{"province":"Kalimantan Utara","city":"Nunukan","district":"Lumbis","urban":"Nainsid","postal_code":77457},{"province":"Kalimantan Utara","city":"Nunukan","district":"Lumbis Ogong","urban":"Mamanis","postal_code":77457},{"province":"Kalimantan Utara","city":"Nunukan","district":"Lumbis Ogong","urban":"Long Bulu","postal_code":77457},{"province":"Kalimantan Utara","city":"Nunukan","district":"Lumbis","urban":"Lintong","postal_code":77457},{"province":"Kalimantan Utara","city":"Nunukan","district":"Lumbis Ogong","urban":"Linsayung","postal_code":77457},{"province":"Kalimantan Utara","city":"Nunukan","district":"Lumbis","urban":"Likos","postal_code":77457},{"province":"Kalimantan Utara","city":"Nunukan","district":"Lumbis Ogong","urban":"Limpakon","postal_code":77457},{"province":"Kalimantan Utara","city":"Nunukan","district":"Lumbis","urban":"Liang","postal_code":77457},{"province":"Kalimantan Utara","city":"Nunukan","district":"Lumbis","urban":"Libang","postal_code":77457},{"province":"Kalimantan Utara","city":"Nunukan","district":"Lumbis Ogong","urban":"Langgason","postal_code":77457},{"province":"Kalimantan Utara","city":"Nunukan","district":"Lumbis Ogong","urban":"Lepaga","postal_code":77457},{"province":"Kalimantan Utara","city":"Nunukan","district":"Lumbis Ogong","urban":"Labuk","postal_code":77457},{"province":"Kalimantan Utara","city":"Nunukan","district":"Lumbis Ogong","urban":"Lagas","postal_code":77457},{"province":"Kalimantan Utara","city":"Nunukan","district":"Lumbis Ogong","urban":"Kuyo","postal_code":77457},{"province":"Kalimantan Utara","city":"Nunukan","district":"Lumbis Ogong","urban":"Labang","postal_code":77457},{"province":"Kalimantan Utara","city":"Nunukan","district":"Lumbis","urban":"Kalampising","postal_code":77457},{"province":"Kalimantan Utara","city":"Nunukan","district":"Lumbis Ogong","urban":"Kalisun","postal_code":77457},{"province":"Kalimantan Utara","city":"Nunukan","district":"Lumbis Ogong","urban":"Jukup","postal_code":77457},{"province":"Kalimantan Utara","city":"Nunukan","district":"Lumbis Ogong","urban":"Kabungalor","postal_code":77457},{"province":"Kalimantan Utara","city":"Nunukan","district":"Lumbis Ogong","urban":"Kalam Buku","postal_code":77457},{"province":"Kalimantan Utara","city":"Nunukan","district":"Lumbis","urban":"Deralon","postal_code":77457},{"province":"Kalimantan Utara","city":"Nunukan","district":"Lumbis Ogong","urban":"Duyan","postal_code":77457},{"province":"Kalimantan Utara","city":"Nunukan","district":"Lumbis","urban":"Dabulon (Dubulon)","postal_code":77457},{"province":"Kalimantan Utara","city":"Nunukan","district":"Lumbis Ogong","urban":"Bulu Luan Hulu","postal_code":77457},{"province":"Kalimantan Utara","city":"Nunukan","district":"Lumbis Ogong","urban":"Bulu Mengelom","postal_code":77457},{"province":"Kalimantan Utara","city":"Nunukan","district":"Lumbis Ogong","urban":"Bulu Laun Hulu","postal_code":77457},{"province":"Kalimantan Utara","city":"Nunukan","district":"Lumbis","urban":"Bulan Bulan","postal_code":77457},{"province":"Kalimantan Utara","city":"Nunukan","district":"Lumbis Ogong","urban":"Bulu Laun Hilir","postal_code":77457},{"province":"Kalimantan Utara","city":"Nunukan","district":"Lumbis Ogong","urban":"Batung","postal_code":77457},{"province":"Kalimantan Utara","city":"Nunukan","district":"Lumbis Ogong","urban":"Bokok","postal_code":77457}]