[{"province":"Kalimantan Utara","city":"Nunukan","district":"Tulin Onsoi","urban":"Tinampak I","postal_code":77482},{"province":"Kalimantan Utara","city":"Nunukan","district":"Tulin Onsoi","urban":"Tinampak II","postal_code":77482},{"province":"Kalimantan Utara","city":"Nunukan","district":"Tulin Onsoi","urban":"Tembalang","postal_code":77482},{"province":"Kalimantan Utara","city":"Nunukan","district":"Sebuku","urban":"Tetaban","postal_code":77482},{"province":"Kalimantan Utara","city":"Nunukan","district":"Nunukan Selatan","urban":"Tanjung Harapan","postal_code":77482},{"province":"Kalimantan Utara","city":"Nunukan","district":"Tulin Onsoi","urban":"Tau Baru","postal_code":77482},{"province":"Kalimantan Utara","city":"Nunukan","district":"Sei Menggaris","urban":"Tabur Lestari","postal_code":77482},{"province":"Kalimantan Utara","city":"Nunukan","district":"Sei Menggaris","urban":"Srinanti","postal_code":77482},{"province":"Kalimantan Utara","city":"Nunukan","district":"Sebuku","urban":"Sujau","postal_code":77482},{"province":"Kalimantan Utara","city":"Nunukan","district":"Nunukan Selatan","urban":"Selisun","postal_code":77482},{"province":"Kalimantan Utara","city":"Nunukan","district":"Tulin Onsoi","urban":"Semunad","postal_code":77482},{"province":"Kalimantan Utara","city":"Nunukan","district":"Sei Menggaris","urban":"Sekaduyan Taka","postal_code":77482},{"province":"Kalimantan Utara","city":"Nunukan","district":"Tulin Onsoi","urban":"Sekikilan","postal_code":77482},{"province":"Kalimantan Utara","city":"Nunukan","district":"Tulin Onsoi","urban":"Sebuku I (Sanur)","postal_code":77482},{"province":"Kalimantan Utara","city":"Nunukan","district":"Tulin Onsoi","urban":"Sebuku II (Makmur)","postal_code":77482},{"province":"Kalimantan Utara","city":"Nunukan","district":"Sei Menggaris","urban":"Samaenre Semaja","postal_code":77482},{"province":"Kalimantan Utara","city":"Nunukan","district":"Tulin Onsoi","urban":"Salang","postal_code":77482},{"province":"Kalimantan Utara","city":"Nunukan","district":"Nunukan","urban":"Nunukan Utara","postal_code":77482},{"province":"Kalimantan Utara","city":"Nunukan","district":"Sebuku","urban":"Pembeliangan","postal_code":77482},{"province":"Kalimantan Utara","city":"Nunukan","district":"Nunukan","urban":"Nunukan Tengah","postal_code":77482},{"province":"Kalimantan Utara","city":"Nunukan","district":"Nunukan","urban":"Nunukan Timur","postal_code":77482},{"province":"Kalimantan Utara","city":"Nunukan","district":"Nunukan","urban":"Nunukan Barat","postal_code":77482},{"province":"Kalimantan Utara","city":"Nunukan","district":"Nunukan Selatan","urban":"Nunukan Selatan","postal_code":77482},{"province":"Kalimantan Utara","city":"Nunukan","district":"Tulin Onsoi","urban":"Naputi","postal_code":77482},{"province":"Kalimantan Utara","city":"Nunukan","district":"Sebuku","urban":"Melasu Baru","postal_code":77482},{"province":"Kalimantan Utara","city":"Nunukan","district":"Nunukan Selatan","urban":"Mansapa","postal_code":77482},{"province":"Kalimantan Utara","city":"Nunukan","district":"Sebuku","urban":"Lulu","postal_code":77482},{"province":"Kalimantan Utara","city":"Nunukan","district":"Sebuku","urban":"Kunyit","postal_code":77482},{"province":"Kalimantan Utara","city":"Nunukan","district":"Tulin Onsoi","urban":"Kulunsayan (Kalun Sayan)","postal_code":77482},{"province":"Kalimantan Utara","city":"Nunukan","district":"Sebuku","urban":"Harapan","postal_code":77482},{"province":"Kalimantan Utara","city":"Nunukan","district":"Sebuku","urban":"Kekayap","postal_code":77482},{"province":"Kalimantan Utara","city":"Nunukan","district":"Tulin Onsoi","urban":"Blatikon (Belatikan)","postal_code":77482},{"province":"Kalimantan Utara","city":"Nunukan","district":"Nunukan","urban":"Binusan","postal_code":77482},{"province":"Kalimantan Utara","city":"Nunukan","district":"Sebuku","urban":"Bebanas","postal_code":77482},{"province":"Kalimantan Utara","city":"Nunukan","district":"Sebuku","urban":"Apas","postal_code":77482}]