[{"province":"Kalimantan Utara","city":"Nunukan","district":"Sebatik","urban":"Tanjung Karang","postal_code":77483},{"province":"Kalimantan Utara","city":"Nunukan","district":"Sebatik Timur","urban":"Tanjung Aru","postal_code":77483},{"province":"Kalimantan Utara","city":"Nunukan","district":"Sebatik Timur","urban":"Tanjung Harapan","postal_code":77483},{"province":"Kalimantan Utara","city":"Nunukan","district":"Sebatik","urban":"Sungai Manurung","postal_code":77483},{"province":"Kalimantan Utara","city":"Nunukan","district":"Sebatik Barat","urban":"Setabu","postal_code":77483},{"province":"Kalimantan Utara","city":"Nunukan","district":"Sebatik Utara","urban":"Sei/Sungai Pancang","postal_code":77483},{"province":"Kalimantan Utara","city":"Nunukan","district":"Sebatik Timur","urban":"Sei/Sungai Nyamuk","postal_code":77483},{"province":"Kalimantan Utara","city":"Nunukan","district":"Sebatik Tengah","urban":"Sei Limau","postal_code":77483},{"province":"Kalimantan Utara","city":"Nunukan","district":"Sebatik Utara","urban":"Seberang","postal_code":77483},{"province":"Kalimantan Utara","city":"Nunukan","district":"Sebatik","urban":"Padaidi","postal_code":77483},{"province":"Kalimantan Utara","city":"Nunukan","district":"Sebatik Tengah","urban":"Maspul","postal_code":77483},{"province":"Kalimantan Utara","city":"Nunukan","district":"Sebatik Barat","urban":"Liang Bunyu","postal_code":77483},{"province":"Kalimantan Utara","city":"Nunukan","district":"Sebatik Utara","urban":"Lapri","postal_code":77483},{"province":"Kalimantan Utara","city":"Nunukan","district":"Sebatik Tengah","urban":"Bukit Harapan","postal_code":77483},{"province":"Kalimantan Utara","city":"Nunukan","district":"Sebatik Barat","urban":"Binalawan","postal_code":77483},{"province":"Kalimantan Utara","city":"Nunukan","district":"Sebatik Timur","urban":"Bukit Aru Indah","postal_code":77483},{"province":"Kalimantan Utara","city":"Nunukan","district":"Sebatik Barat","urban":"Bambangan","postal_code":77483},{"province":"Kalimantan Utara","city":"Nunukan","district":"Sebatik","urban":"Balansiku","postal_code":77483},{"province":"Kalimantan Utara","city":"Nunukan","district":"Sebatik","urban":"Balansiku","postal_code":77483}]