[{"province":"Kalimantan Utara","city":"Malinau","district":"Sungai Tubu","urban":"Rian Tubu","postal_code":77555},{"province":"Kalimantan Utara","city":"Malinau","district":"Mentarang","urban":"Temalang","postal_code":77555},{"province":"Kalimantan Utara","city":"Malinau","district":"Mentarang","urban":"Paking","postal_code":77555},{"province":"Kalimantan Utara","city":"Malinau","district":"Mentarang","urban":"Pulau Sapi","postal_code":77555},{"province":"Kalimantan Utara","city":"Malinau","district":"Sungai Tubu","urban":"Long Titi","postal_code":77555},{"province":"Kalimantan Utara","city":"Malinau","district":"Mentarang","urban":"Mentarang Baru","postal_code":77555},{"province":"Kalimantan Utara","city":"Malinau","district":"Sungai Tubu","urban":"Long Pada","postal_code":77555},{"province":"Kalimantan Utara","city":"Malinau","district":"Sungai Tubu","urban":"Long Ranau","postal_code":77555},{"province":"Kalimantan Utara","city":"Malinau","district":"Sungai Tubu","urban":"Long Nyau","postal_code":77555},{"province":"Kalimantan Utara","city":"Malinau","district":"Mentarang","urban":"Long Liku","postal_code":77555},{"province":"Kalimantan Utara","city":"Malinau","district":"Mentarang","urban":"Long Bisai","postal_code":77555},{"province":"Kalimantan Utara","city":"Malinau","district":"Mentarang","urban":"Long Gafid","postal_code":77555},{"province":"Kalimantan Utara","city":"Malinau","district":"Mentarang","urban":"Lidung Kemenci","postal_code":77555},{"province":"Kalimantan Utara","city":"Malinau","district":"Mentarang","urban":"Harapan Maju","postal_code":77555}]