[{"province":"Kalimantan Utara","city":"Malinau","district":"Malinau Barat","urban":"Taras","postal_code":77554},{"province":"Kalimantan Utara","city":"Malinau","district":"Malinau Barat","urban":"Tanjung Lapang","postal_code":77554},{"province":"Kalimantan Utara","city":"Malinau","district":"Malinau Selatan Hulu","urban":"Tanjung Nanga","postal_code":77554},{"province":"Kalimantan Utara","city":"Malinau","district":"Malinau Selatan Hilir","urban":"Setulang","postal_code":77554},{"province":"Kalimantan Utara","city":"Malinau","district":"Malinau Kota","urban":"Tanjung Keranjang","postal_code":77554},{"province":"Kalimantan Utara","city":"Malinau","district":"Malinau Barat","urban":"Sesua","postal_code":77554},{"province":"Kalimantan Utara","city":"Malinau","district":"Malinau Selatan Hilir","urban":"Setarap","postal_code":77554},{"province":"Kalimantan Utara","city":"Malinau","district":"Malinau Utara","urban":"Seruyung","postal_code":77554},{"province":"Kalimantan Utara","city":"Malinau","district":"Malinau Barat","urban":"Sentaban","postal_code":77554},{"province":"Kalimantan Utara","city":"Malinau","district":"Malinau Selatan","urban":"Sengayan","postal_code":77554},{"province":"Kalimantan Utara","city":"Malinau","district":"Malinau Barat","urban":"Sempayang","postal_code":77554},{"province":"Kalimantan Utara","city":"Malinau","district":"Malinau Utara","urban":"Sembuak Warot/Warod","postal_code":77554},{"province":"Kalimantan Utara","city":"Malinau","district":"Malinau Utara","urban":"Respen Tubu","postal_code":77554},{"province":"Kalimantan Utara","city":"Malinau","district":"Malinau Utara","urban":"Salap","postal_code":77554},{"province":"Kalimantan Utara","city":"Malinau","district":"Malinau Utara","urban":"Semanggaris","postal_code":77554},{"province":"Kalimantan Utara","city":"Malinau","district":"Malinau Selatan","urban":"Punan Rian","postal_code":77554},{"province":"Kalimantan Utara","city":"Malinau","district":"Malinau Utara","urban":"Putat","postal_code":77554},{"province":"Kalimantan Utara","city":"Malinau","district":"Malinau Selatan Hilir","urban":"Punan Setarap","postal_code":77554},{"province":"Kalimantan Utara","city":"Malinau","district":"Malinau Selatan Hilir","urban":"Punan Long Adiu","postal_code":77554},{"province":"Kalimantan Utara","city":"Malinau","district":"Malinau Selatan Hulu","urban":"Punan Mirau","postal_code":77554},{"province":"Kalimantan Utara","city":"Malinau","district":"Malinau Barat","urban":"Punan Bengalun","postal_code":77554},{"province":"Kalimantan Utara","city":"Malinau","district":"Malinau Selatan Hilir","urban":"Punan Gong Solok","postal_code":77554},{"province":"Kalimantan Utara","city":"Malinau","district":"Malinau Kota","urban":"Pelita Kanaan","postal_code":77554},{"province":"Kalimantan Utara","city":"Malinau","district":"Malinau Selatan","urban":"Pelencau","postal_code":77554},{"province":"Kalimantan Utara","city":"Malinau","district":"Malinau Selatan","urban":"Nunuk Tanah Kibang","postal_code":77554},{"province":"Kalimantan Utara","city":"Malinau","district":"Malinau Selatan","urban":"Paya Seturan","postal_code":77554},{"province":"Kalimantan Utara","city":"Malinau","district":"Malinau Selatan Hulu","urban":"Metut","postal_code":77554},{"province":"Kalimantan Utara","city":"Malinau","district":"Malinau Selatan Hulu","urban":"Nahakramo Baru","postal_code":77554},{"province":"Kalimantan Utara","city":"Malinau","district":"Malinau Kota","urban":"Malinau Kota","postal_code":77554},{"province":"Kalimantan Utara","city":"Malinau","district":"Malinau Utara","urban":"Malinau Seberang","postal_code":77554},{"province":"Kalimantan Utara","city":"Malinau","district":"Malinau Kota","urban":"Malinau Hilir","postal_code":77554},{"province":"Kalimantan Utara","city":"Malinau","district":"Malinau Kota","urban":"Malinau Hulu","postal_code":77554},{"province":"Kalimantan Utara","city":"Malinau","district":"Malinau Utara","urban":"Lubok Manis","postal_code":77554},{"province":"Kalimantan Utara","city":"Malinau","district":"Malinau Utara","urban":"Luso","postal_code":77554},{"province":"Kalimantan Utara","city":"Malinau","district":"Malinau Selatan","urban":"Long Loreh","postal_code":77554},{"province":"Kalimantan Utara","city":"Malinau","district":"Malinau Selatan Hulu","urban":"Long Rat","postal_code":77554},{"province":"Kalimantan Utara","city":"Malinau","district":"Malinau Barat","urban":"Long Kenipe","postal_code":77554},{"province":"Kalimantan Utara","city":"Malinau","district":"Malinau Selatan Hulu","urban":"Long Lake","postal_code":77554},{"province":"Kalimantan Utara","city":"Malinau","district":"Malinau Barat","urban":"Long Bila","postal_code":77554},{"province":"Kalimantan Utara","city":"Malinau","district":"Malinau Selatan Hulu","urban":"Long Jalan","postal_code":77554},{"province":"Kalimantan Utara","city":"Malinau","district":"Malinau Selatan","urban":"Laban Nyarit","postal_code":77554},{"province":"Kalimantan Utara","city":"Malinau","district":"Malinau Selatan","urban":"Langap","postal_code":77554},{"province":"Kalimantan Utara","city":"Malinau","district":"Malinau Selatan Hilir","urban":"Long Adiu","postal_code":77554},{"province":"Kalimantan Utara","city":"Malinau","district":"Malinau Barat","urban":"Kuala Lapang","postal_code":77554},{"province":"Kalimantan Utara","city":"Malinau","district":"Malinau Utara","urban":"Kaliamok","postal_code":77554},{"province":"Kalimantan Utara","city":"Malinau","district":"Malinau Utara","urban":"Kelapis","postal_code":77554},{"province":"Kalimantan Utara","city":"Malinau","district":"Malinau Selatan Hulu","urban":"Halanga","postal_code":77554},{"province":"Kalimantan Utara","city":"Malinau","district":"Malinau Selatan","urban":"Bila Bekayuk","postal_code":77554},{"province":"Kalimantan Utara","city":"Malinau","district":"Malinau Selatan Hilir","urban":"Gong Solok","postal_code":77554},{"province":"Kalimantan Utara","city":"Malinau","district":"Malinau Utara","urban":"Belayan","postal_code":77554},{"province":"Kalimantan Utara","city":"Malinau","district":"Malinau Kota","urban":"Batu Lidung","postal_code":77554},{"province":"Kalimantan Utara","city":"Malinau","district":"Malinau Selatan Hilir","urban":"Batu Kajang","postal_code":77554}]