[{"province":"Kalimantan Utara","city":"Malinau","district":"Bahau Hulu","urban":"Long Uli","postal_code":77562},{"province":"Kalimantan Utara","city":"Malinau","district":"Bahau Hulu","urban":"Long Tabulo/Tebulo","postal_code":77562},{"province":"Kalimantan Utara","city":"Malinau","district":"Pujungan","urban":"Long Pujungan","postal_code":77562},{"province":"Kalimantan Utara","city":"Malinau","district":"Pujungan","urban":"Long Paliran","postal_code":77562},{"province":"Kalimantan Utara","city":"Malinau","district":"Pujungan","urban":"Long Pua","postal_code":77562},{"province":"Kalimantan Utara","city":"Malinau","district":"Bahau Hulu","urban":"Long Berini Mararian","postal_code":77562},{"province":"Kalimantan Utara","city":"Malinau","district":"Pujungan","urban":"Long Jelet","postal_code":77562},{"province":"Kalimantan Utara","city":"Malinau","district":"Pujungan","urban":"Long Ketaman","postal_code":77562},{"province":"Kalimantan Utara","city":"Malinau","district":"Pujungan","urban":"Long Belaka Pitau","postal_code":77562},{"province":"Kalimantan Utara","city":"Malinau","district":"Pujungan","urban":"Long Bena","postal_code":77562},{"province":"Kalimantan Utara","city":"Malinau","district":"Bahau Hulu","urban":"Long Atua/Long Kemuat","postal_code":77562},{"province":"Kalimantan Utara","city":"Malinau","district":"Pujungan","urban":"Long Aran","postal_code":77562},{"province":"Kalimantan Utara","city":"Malinau","district":"Bahau Hulu","urban":"Long Alango","postal_code":77562},{"province":"Kalimantan Utara","city":"Malinau","district":"Pujungan","urban":"Lame","postal_code":77562},{"province":"Kalimantan Utara","city":"Malinau","district":"Bahau Hulu","urban":"Apau Ping Mading","postal_code":77562}]