[{"province":"Kalimantan Utara","city":"Malinau","district":"Kayan Selatan","urban":"Metulang","postal_code":77573},{"province":"Kalimantan Utara","city":"Malinau","district":"Kayan Selatan","urban":"Sungai Barang","postal_code":77573},{"province":"Kalimantan Utara","city":"Malinau","district":"Sungai Boh","urban":"Mahak Baru","postal_code":77573},{"province":"Kalimantan Utara","city":"Malinau","district":"Kayan Selatan","urban":"Long Uro","postal_code":77573},{"province":"Kalimantan Utara","city":"Malinau","district":"Sungai Boh","urban":"Long Lebusan","postal_code":77573},{"province":"Kalimantan Utara","city":"Malinau","district":"Sungai Boh","urban":"Long Top","postal_code":77573},{"province":"Kalimantan Utara","city":"Malinau","district":"Kayan Selatan","urban":"Long Ampung","postal_code":77573},{"province":"Kalimantan Utara","city":"Malinau","district":"Kayan Selatan","urban":"Lidung Payau","postal_code":77573},{"province":"Kalimantan Utara","city":"Malinau","district":"Sungai Boh","urban":"Data Baru","postal_code":77573},{"province":"Kalimantan Utara","city":"Malinau","district":"Sungai Boh","urban":"Dumu Mahak","postal_code":77573},{"province":"Kalimantan Utara","city":"Malinau","district":"Sungai Boh","urban":"Agung Baru","postal_code":77573}]