[{"province":"Kalimantan Barat","city":"Pontianak","district":"Siantan","urban":"Wajo Hulu","postal_code":78351},{"province":"Kalimantan Barat","city":"Pontianak","district":"Siantan","urban":"Wajo Hilir","postal_code":78351},{"province":"Kalimantan Barat","city":"Pontianak","district":"Segedong","urban":"Sei/Sungai Burung","postal_code":78351},{"province":"Kalimantan Barat","city":"Pontianak","district":"Siantan","urban":"Sei/Sungai Nipah","postal_code":78351},{"province":"Kalimantan Barat","city":"Pontianak","district":"Segedong","urban":"Purun Besar (Sungai Purun Besar)","postal_code":78351},{"province":"Kalimantan Barat","city":"Pontianak","district":"Segedong","urban":"Peniti Dalam II (Dua)","postal_code":78351},{"province":"Kalimantan Barat","city":"Pontianak","district":"Siantan","urban":"Peniti Luar","postal_code":78351},{"province":"Kalimantan Barat","city":"Pontianak","district":"Segedong","urban":"Peniti Besar","postal_code":78351},{"province":"Kalimantan Barat","city":"Pontianak","district":"Segedong","urban":"Peniti Dalam I (Satu)","postal_code":78351},{"province":"Kalimantan Barat","city":"Pontianak","district":"Segedong","urban":"Parit Bugis","postal_code":78351},{"province":"Kalimantan Barat","city":"Pontianak","district":"Siantan","urban":"Jungkat","postal_code":78351}]