[{"province":"Kalimantan Barat","city":"Pontianak","district":"Sei/Sungai Pinyuh","urban":"Sei/Sungai Purun Kecil","postal_code":78353},{"province":"Kalimantan Barat","city":"Pontianak","district":"Sei/Sungai Pinyuh","urban":"Sei/Sungai Rasau","postal_code":78353},{"province":"Kalimantan Barat","city":"Pontianak","district":"Sei/Sungai Pinyuh","urban":"Sei/Sungai Pinyuh","postal_code":78353},{"province":"Kalimantan Barat","city":"Pontianak","district":"Sei/Sungai Pinyuh","urban":"Sei/Sungai Batang","postal_code":78353},{"province":"Kalimantan Barat","city":"Pontianak","district":"Sei/Sungai Pinyuh","urban":"Sei/Sungai Bakau Besar Laut","postal_code":78353},{"province":"Kalimantan Barat","city":"Pontianak","district":"Sei/Sungai Pinyuh","urban":"Sei/Sungai Bakau Besar Darat","postal_code":78353},{"province":"Kalimantan Barat","city":"Pontianak","district":"Anjongan","urban":"Pak Bulu","postal_code":78353},{"province":"Kalimantan Barat","city":"Pontianak","district":"Sei/Sungai Pinyuh","urban":"Peniraman","postal_code":78353},{"province":"Kalimantan Barat","city":"Pontianak","district":"Sei/Sungai Pinyuh","urban":"Nusapati","postal_code":78353},{"province":"Kalimantan Barat","city":"Pontianak","district":"Anjongan","urban":"Kepayang","postal_code":78353},{"province":"Kalimantan Barat","city":"Pontianak","district":"Sei/Sungai Pinyuh","urban":"Jalan Galang","postal_code":78353},{"province":"Kalimantan Barat","city":"Pontianak","district":"Anjongan","urban":"Dema","postal_code":78353},{"province":"Kalimantan Barat","city":"Pontianak","district":"Anjongan","urban":"Anjungan Dalam","postal_code":78353},{"province":"Kalimantan Barat","city":"Pontianak","district":"Anjongan","urban":"Anjungan Melancar","postal_code":78353}]