[{"province":"Kalimantan Barat","city":"Pontianak","district":"Toho","urban":"Terap","postal_code":78361},{"province":"Kalimantan Barat","city":"Pontianak","district":"Toho","urban":"Toho Ilir","postal_code":78361},{"province":"Kalimantan Barat","city":"Pontianak","district":"Sadaniang","urban":"Suak Berangan/Barangan","postal_code":78361},{"province":"Kalimantan Barat","city":"Pontianak","district":"Toho","urban":"Sembora/Samboro","postal_code":78361},{"province":"Kalimantan Barat","city":"Pontianak","district":"Toho","urban":"Sepang","postal_code":78361},{"province":"Kalimantan Barat","city":"Pontianak","district":"Sadaniang","urban":"Pentek","postal_code":78361},{"province":"Kalimantan Barat","city":"Pontianak","district":"Sadaniang","urban":"Sekabuk","postal_code":78361},{"province":"Kalimantan Barat","city":"Pontianak","district":"Toho","urban":"Pak Laheng","postal_code":78361},{"province":"Kalimantan Barat","city":"Pontianak","district":"Toho","urban":"Pakutan","postal_code":78361},{"province":"Kalimantan Barat","city":"Pontianak","district":"Toho","urban":"Kecurit","postal_code":78361},{"province":"Kalimantan Barat","city":"Pontianak","district":"Sadaniang","urban":"Bumbun/Bunbun","postal_code":78361},{"province":"Kalimantan Barat","city":"Pontianak","district":"Toho","urban":"Benuang","postal_code":78361},{"province":"Kalimantan Barat","city":"Pontianak","district":"Sadaniang","urban":"Ansiap","postal_code":78361},{"province":"Kalimantan Barat","city":"Pontianak","district":"Sadaniang","urban":"Amawang/Amawaking","postal_code":78361}]