[{"province":"Kalimantan Barat","city":"Kubu Raya","district":"Teluk/Telok Pakedai","urban":"Teluk Pakedai I (Satu)","postal_code":78383},{"province":"Kalimantan Barat","city":"Kubu Raya","district":"Teluk/Telok Pakedai","urban":"Teluk Pakedai II (Dua)","postal_code":78383},{"province":"Kalimantan Barat","city":"Kubu Raya","district":"Teluk/Telok Pakedai","urban":"Teluk Gelam","postal_code":78383},{"province":"Kalimantan Barat","city":"Kubu Raya","district":"Teluk/Telok Pakedai","urban":"Teluk Pakedai Hulu","postal_code":78383},{"province":"Kalimantan Barat","city":"Kubu Raya","district":"Teluk/Telok Pakedai","urban":"Selat Remis","postal_code":78383},{"province":"Kalimantan Barat","city":"Kubu Raya","district":"Teluk/Telok Pakedai","urban":"Seruat I","postal_code":78383},{"province":"Kalimantan Barat","city":"Kubu Raya","district":"Teluk/Telok Pakedai","urban":"Tanjung Bunga","postal_code":78383},{"province":"Kalimantan Barat","city":"Kubu Raya","district":"Teluk/Telok Pakedai","urban":"Sei/Sungai Nibung","postal_code":78383},{"province":"Kalimantan Barat","city":"Kubu Raya","district":"Teluk/Telok Pakedai","urban":"Sei/Sungai Nipah","postal_code":78383},{"province":"Kalimantan Barat","city":"Kubu Raya","district":"Teluk/Telok Pakedai","urban":"Sei/Sungai Deras","postal_code":78383},{"province":"Kalimantan Barat","city":"Kubu Raya","district":"Teluk/Telok Pakedai","urban":"Pasir Putih","postal_code":78383},{"province":"Kalimantan Barat","city":"Kubu Raya","district":"Teluk/Telok Pakedai","urban":"Kuala Karang","postal_code":78383},{"province":"Kalimantan Barat","city":"Kubu Raya","district":"Teluk/Telok Pakedai","urban":"Madura","postal_code":78383},{"province":"Kalimantan Barat","city":"Kubu Raya","district":"Teluk/Telok Pakedai","urban":"Arus Deras","postal_code":78383}]