[{"province":"Kalimantan Barat","city":"Kubu Raya","district":"Sei/Sungai Kakap","urban":"Sepuk Laut","postal_code":78381},{"province":"Kalimantan Barat","city":"Kubu Raya","district":"Sei/Sungai Kakap","urban":"Tanjung Saleh","postal_code":78381},{"province":"Kalimantan Barat","city":"Kubu Raya","district":"Sei/Sungai Kakap","urban":"Sei/Sungai Kupah","postal_code":78381},{"province":"Kalimantan Barat","city":"Kubu Raya","district":"Sei/Sungai Kakap","urban":"Sei/Sungai Rengas","postal_code":78381},{"province":"Kalimantan Barat","city":"Kubu Raya","district":"Sei/Sungai Kakap","urban":"Sei/Sungai Itik","postal_code":78381},{"province":"Kalimantan Barat","city":"Kubu Raya","district":"Sei/Sungai Kakap","urban":"Sei/Sungai Kakap","postal_code":78381},{"province":"Kalimantan Barat","city":"Kubu Raya","district":"Rasau Jaya","urban":"Rasau Jaya I (Satu)","postal_code":78381},{"province":"Kalimantan Barat","city":"Kubu Raya","district":"Sei/Sungai Kakap","urban":"Sei/Sungai Belidak","postal_code":78381},{"province":"Kalimantan Barat","city":"Kubu Raya","district":"Sei/Sungai Kakap","urban":"Punggur Kapuas","postal_code":78381},{"province":"Kalimantan Barat","city":"Kubu Raya","district":"Sei/Sungai Kakap","urban":"Punggur Kecil","postal_code":78381},{"province":"Kalimantan Barat","city":"Kubu Raya","district":"Sei/Sungai Kakap","urban":"Punggur Besar","postal_code":78381},{"province":"Kalimantan Barat","city":"Kubu Raya","district":"Sei/Sungai Kakap","urban":"Pal Sembilan","postal_code":78381},{"province":"Kalimantan Barat","city":"Kubu Raya","district":"Sei/Sungai Kakap","urban":"Jeruju Besar","postal_code":78381},{"province":"Kalimantan Barat","city":"Kubu Raya","district":"Sei/Sungai Kakap","urban":"Kalimas","postal_code":78381}]