[{"province":"Kalimantan Barat","city":"Kubu Raya","district":"Sei/Sungai Raya","urban":"Teluk Kapuas","postal_code":78391},{"province":"Kalimantan Barat","city":"Kubu Raya","district":"Sei/Sungai Raya","urban":"Sungai Raya Dalam","postal_code":78391},{"province":"Kalimantan Barat","city":"Kubu Raya","district":"Sei/Sungai Raya","urban":"Tebang Kacang","postal_code":78391},{"province":"Kalimantan Barat","city":"Kubu Raya","district":"Sei/Sungai Raya","urban":"Sei/Sungai Bulan","postal_code":78391},{"province":"Kalimantan Barat","city":"Kubu Raya","district":"Sei/Sungai Raya","urban":"Sei/Sungai Raya","postal_code":78391},{"province":"Kalimantan Barat","city":"Kubu Raya","district":"Sei/Sungai Raya","urban":"Sei/Sungai Ambangah","postal_code":78391},{"province":"Kalimantan Barat","city":"Kubu Raya","district":"Sei/Sungai Raya","urban":"Sei/Sungai Asam","postal_code":78391},{"province":"Kalimantan Barat","city":"Kubu Raya","district":"Sei/Sungai Raya","urban":"Pulau Jambu","postal_code":78391},{"province":"Kalimantan Barat","city":"Kubu Raya","district":"Sei/Sungai Raya","urban":"Pulau Limbung","postal_code":78391},{"province":"Kalimantan Barat","city":"Kubu Raya","district":"Sei/Sungai Raya","urban":"Parit Dalam","postal_code":78391},{"province":"Kalimantan Barat","city":"Kubu Raya","district":"Sei/Sungai Raya","urban":"Mekar Sari","postal_code":78391},{"province":"Kalimantan Barat","city":"Kubu Raya","district":"Sei/Sungai Raya","urban":"Muara Baru","postal_code":78391},{"province":"Kalimantan Barat","city":"Kubu Raya","district":"Sei/Sungai Raya","urban":"Madu Sari","postal_code":78391},{"province":"Kalimantan Barat","city":"Kubu Raya","district":"Sei/Sungai Raya","urban":"Mekar Baru","postal_code":78391},{"province":"Kalimantan Barat","city":"Kubu Raya","district":"Sei/Sungai Raya","urban":"Kuala Dua","postal_code":78391},{"province":"Kalimantan Barat","city":"Kubu Raya","district":"Sei/Sungai Raya","urban":"Limbung","postal_code":78391},{"province":"Kalimantan Barat","city":"Kubu Raya","district":"Sei/Sungai Raya","urban":"Gunung Tamang","postal_code":78391},{"province":"Kalimantan Barat","city":"Kubu Raya","district":"Sei/Sungai Raya","urban":"Kali Bandung","postal_code":78391},{"province":"Kalimantan Barat","city":"Kubu Raya","district":"Sei/Sungai Raya","urban":"Arang Limbung","postal_code":78391}]