[{"province":"Kalimantan Barat","city":"Kubu Raya","district":"Terentang","urban":"Terentang Hulu","postal_code":78392},{"province":"Kalimantan Barat","city":"Kubu Raya","district":"Terentang","urban":"Teluk Bayur","postal_code":78392},{"province":"Kalimantan Barat","city":"Kubu Raya","district":"Terentang","urban":"Teluk Empening","postal_code":78392},{"province":"Kalimantan Barat","city":"Kubu Raya","district":"Terentang","urban":"Terentang Hilir","postal_code":78392},{"province":"Kalimantan Barat","city":"Kubu Raya","district":"Terentang","urban":"Sei/Sungai Radak I","postal_code":78392},{"province":"Kalimantan Barat","city":"Kubu Raya","district":"Terentang","urban":"Sei/Sungai Radak II","postal_code":78392},{"province":"Kalimantan Barat","city":"Kubu Raya","district":"Terentang","urban":"Sei/Sungai Dungun","postal_code":78392},{"province":"Kalimantan Barat","city":"Kubu Raya","district":"Terentang","urban":"Permata","postal_code":78392},{"province":"Kalimantan Barat","city":"Kubu Raya","district":"Terentang","urban":"Betuah","postal_code":78392}]