[{"province":"Kalimantan Barat","city":"Sanggau","district":"Kapuas (Sanggau Kapuas)","urban":"Tanjung Kapuas","postal_code":78516},{"province":"Kalimantan Barat","city":"Sanggau","district":"Kapuas (Sanggau Kapuas)","urban":"Tapang Dulang","postal_code":78516},{"province":"Kalimantan Barat","city":"Sanggau","district":"Kapuas (Sanggau Kapuas)","urban":"Semerangkai","postal_code":78516},{"province":"Kalimantan Barat","city":"Sanggau","district":"Kapuas (Sanggau Kapuas)","urban":"Sei/Sungai Batu","postal_code":78516},{"province":"Kalimantan Barat","city":"Sanggau","district":"Kapuas (Sanggau Kapuas)","urban":"Sei/Sungai Mawang","postal_code":78516},{"province":"Kalimantan Barat","city":"Sanggau","district":"Kapuas (Sanggau Kapuas)","urban":"Sei/Sungai Muntik","postal_code":78516},{"province":"Kalimantan Barat","city":"Sanggau","district":"Kapuas (Sanggau Kapuas)","urban":"Rambin","postal_code":78516},{"province":"Kalimantan Barat","city":"Sanggau","district":"Kapuas (Sanggau Kapuas)","urban":"Sei/Sungai Alai","postal_code":78516},{"province":"Kalimantan Barat","city":"Sanggau","district":"Kapuas (Sanggau Kapuas)","urban":"Penyelimau Hilir","postal_code":78516},{"province":"Kalimantan Barat","city":"Sanggau","district":"Kapuas (Sanggau Kapuas)","urban":"Penyelimau Jaya","postal_code":78516},{"province":"Kalimantan Barat","city":"Sanggau","district":"Kapuas (Sanggau Kapuas)","urban":"Pana","postal_code":78516},{"province":"Kalimantan Barat","city":"Sanggau","district":"Kapuas (Sanggau Kapuas)","urban":"Penyeladi","postal_code":78516},{"province":"Kalimantan Barat","city":"Sanggau","district":"Kapuas (Sanggau Kapuas)","urban":"Mengkiang","postal_code":78516},{"province":"Kalimantan Barat","city":"Sanggau","district":"Kapuas (Sanggau Kapuas)","urban":"Nanga Biang","postal_code":78516},{"province":"Kalimantan Barat","city":"Sanggau","district":"Kapuas (Sanggau Kapuas)","urban":"Lintang Kapuas","postal_code":78516},{"province":"Kalimantan Barat","city":"Sanggau","district":"Kapuas (Sanggau Kapuas)","urban":"Lintang Pelaman","postal_code":78516},{"province":"Kalimantan Barat","city":"Sanggau","district":"Kapuas (Sanggau Kapuas)","urban":"Entakai","postal_code":78516},{"province":"Kalimantan Barat","city":"Sanggau","district":"Kapuas (Sanggau Kapuas)","urban":"Kambong","postal_code":78516},{"province":"Kalimantan Barat","city":"Sanggau","district":"Kapuas (Sanggau Kapuas)","urban":"Lape","postal_code":78516},{"province":"Kalimantan Barat","city":"Sanggau","district":"Kapuas (Sanggau Kapuas)","urban":"Belangin","postal_code":78516},{"province":"Kalimantan Barat","city":"Sanggau","district":"Kapuas (Sanggau Kapuas)","urban":"Botuh Lintang","postal_code":78516}]