[{"province":"Kalimantan Barat","city":"Sanggau","district":"Jangkang","urban":"Tanggung","postal_code":78591},{"province":"Kalimantan Barat","city":"Sanggau","district":"Jangkang","urban":"Terati","postal_code":78591},{"province":"Kalimantan Barat","city":"Sanggau","district":"Jangkang","urban":"Semirau","postal_code":78591},{"province":"Kalimantan Barat","city":"Sanggau","district":"Jangkang","urban":"Semombat","postal_code":78591},{"province":"Kalimantan Barat","city":"Sanggau","district":"Jangkang","urban":"Pisang","postal_code":78591},{"province":"Kalimantan Barat","city":"Sanggau","district":"Jangkang","urban":"Sape","postal_code":78591},{"province":"Kalimantan Barat","city":"Sanggau","district":"Jangkang","urban":"Selampung","postal_code":78591},{"province":"Kalimantan Barat","city":"Sanggau","district":"Jangkang","urban":"Ketori","postal_code":78591},{"province":"Kalimantan Barat","city":"Sanggau","district":"Jangkang","urban":"Empiyang","postal_code":78591},{"province":"Kalimantan Barat","city":"Sanggau","district":"Jangkang","urban":"Jangkang Benua","postal_code":78591},{"province":"Kalimantan Barat","city":"Sanggau","district":"Jangkang","urban":"Balai Sebut","postal_code":78591}]