[{"province":"Kalimantan Barat","city":"Sintang","district":"Ketungau Tengah","urban":"Terta Karya","postal_code":78653},{"province":"Kalimantan Barat","city":"Sintang","district":"Ketungau Tengah","urban":"Wana Bhakti","postal_code":78653},{"province":"Kalimantan Barat","city":"Sintang","district":"Ketungau Tengah","urban":"Wirayuda","postal_code":78653},{"province":"Kalimantan Barat","city":"Sintang","district":"Ketungau Tengah","urban":"Tanjung Sari","postal_code":78653},{"province":"Kalimantan Barat","city":"Sintang","district":"Ketungau Tengah","urban":"Swadaya","postal_code":78653},{"province":"Kalimantan Barat","city":"Sintang","district":"Ketungau Tengah","urban":"Senangan Kecil","postal_code":78653},{"province":"Kalimantan Barat","city":"Sintang","district":"Ketungau Tengah","urban":"Sumber Sari","postal_code":78653},{"province":"Kalimantan Barat","city":"Sintang","district":"Ketungau Tengah","urban":"Sungai Areh","postal_code":78653},{"province":"Kalimantan Barat","city":"Sintang","district":"Ketungau Tengah","urban":"Panggi Agung","postal_code":78653},{"province":"Kalimantan Barat","city":"Sintang","district":"Ketungau Tengah","urban":"Mungguk Lawang","postal_code":78653},{"province":"Kalimantan Barat","city":"Sintang","district":"Ketungau Tengah","urban":"Nanga Kelapan","postal_code":78653},{"province":"Kalimantan Barat","city":"Sintang","district":"Ketungau Tengah","urban":"Panding Jaya","postal_code":78653},{"province":"Kalimantan Barat","city":"Sintang","district":"Ketungau Tengah","urban":"Marga Hayu","postal_code":78653},{"province":"Kalimantan Barat","city":"Sintang","district":"Ketungau Tengah","urban":"Mungguk Gelombang","postal_code":78653},{"province":"Kalimantan Barat","city":"Sintang","district":"Ketungau Tengah","urban":"Kayu Dujung","postal_code":78653},{"province":"Kalimantan Barat","city":"Sintang","district":"Ketungau Tengah","urban":"Kerta Sari","postal_code":78653},{"province":"Kalimantan Barat","city":"Sintang","district":"Ketungau Tengah","urban":"Landau Buaya","postal_code":78653},{"province":"Kalimantan Barat","city":"Sintang","district":"Ketungau Tengah","urban":"Begelang Jaya","postal_code":78653},{"province":"Kalimantan Barat","city":"Sintang","district":"Ketungau Tengah","urban":"Gut Jaya Bakti","postal_code":78653},{"province":"Kalimantan Barat","city":"Sintang","district":"Ketungau Tengah","urban":"Argo Mulyo","postal_code":78653}]