[{"province":"Kalimantan Barat","city":"Kapuas Hulu","district":"Embaloh Hilir","urban":"Pala Pintas","postal_code":78754},{"province":"Kalimantan Barat","city":"Kapuas Hulu","district":"Embaloh Hilir","urban":"Ujung Bayur","postal_code":78754},{"province":"Kalimantan Barat","city":"Kapuas Hulu","district":"Embaloh Hilir","urban":"Nanga Lauk","postal_code":78754},{"province":"Kalimantan Barat","city":"Kapuas Hulu","district":"Embaloh Hilir","urban":"Nanga Palin","postal_code":78754},{"province":"Kalimantan Barat","city":"Kapuas Hulu","district":"Embaloh Hilir","urban":"Lawik","postal_code":78754},{"province":"Kalimantan Barat","city":"Kapuas Hulu","district":"Embaloh Hilir","urban":"Nanga Embaloh","postal_code":78754},{"province":"Kalimantan Barat","city":"Kapuas Hulu","district":"Embaloh Hilir","urban":"Keliling Semulung","postal_code":78754},{"province":"Kalimantan Barat","city":"Kapuas Hulu","district":"Embaloh Hilir","urban":"Kirin Nangka","postal_code":78754},{"province":"Kalimantan Barat","city":"Kapuas Hulu","district":"Embaloh Hilir","urban":"Belatung","postal_code":78754}]