[{"province":"Kalimantan Barat","city":"Kapuas Hulu","district":"Bunut Hulu","urban":"Temuyuk","postal_code":78762},{"province":"Kalimantan Barat","city":"Kapuas Hulu","district":"Bunut Hulu","urban":"Selaup","postal_code":78762},{"province":"Kalimantan Barat","city":"Kapuas Hulu","district":"Bunut Hulu","urban":"Semangut Utara","postal_code":78762},{"province":"Kalimantan Barat","city":"Kapuas Hulu","district":"Bunut Hulu","urban":"Sungai Besar","postal_code":78762},{"province":"Kalimantan Barat","city":"Kapuas Hulu","district":"Bunut Hulu","urban":"Riam Piyang","postal_code":78762},{"province":"Kalimantan Barat","city":"Kapuas Hulu","district":"Bunut Hulu","urban":"Segitak","postal_code":78762},{"province":"Kalimantan Barat","city":"Kapuas Hulu","district":"Bunut Hulu","urban":"Nanga Suruk","postal_code":78762},{"province":"Kalimantan Barat","city":"Kapuas Hulu","district":"Bunut Hulu","urban":"Pantas Bersatu","postal_code":78762},{"province":"Kalimantan Barat","city":"Kapuas Hulu","district":"Bunut Hulu","urban":"Nanga Semangut","postal_code":78762},{"province":"Kalimantan Barat","city":"Kapuas Hulu","district":"Bunut Hulu","urban":"Nanga Kelibang","postal_code":78762},{"province":"Kalimantan Barat","city":"Kapuas Hulu","district":"Bunut Hulu","urban":"Nanga Payang","postal_code":78762},{"province":"Kalimantan Barat","city":"Kapuas Hulu","district":"Bunut Hilir","urban":"Bunut Hulu","postal_code":78762},{"province":"Kalimantan Barat","city":"Kapuas Hulu","district":"Bunut Hulu","urban":"Nanga Dua","postal_code":78762},{"province":"Kalimantan Barat","city":"Kapuas Hulu","district":"Bunut Hulu","urban":"Batu Tiga","postal_code":78762},{"province":"Kalimantan Barat","city":"Kapuas Hulu","district":"Bunut Hulu","urban":"Beringin","postal_code":78762},{"province":"Kalimantan Barat","city":"Kapuas Hulu","district":"Bunut Hulu","urban":"Bakong Permai","postal_code":78762}]