[{"province":"Kalimantan Barat","city":"Kapuas Hulu","district":"Batang Lupar","urban":"Setulang","postal_code":78766},{"province":"Kalimantan Barat","city":"Kapuas Hulu","district":"Batang Lupar","urban":"Sungai Senunuk","postal_code":78766},{"province":"Kalimantan Barat","city":"Kapuas Hulu","district":"Batang Lupar","urban":"Sei/Sungai Ajung","postal_code":78766},{"province":"Kalimantan Barat","city":"Kapuas Hulu","district":"Batang Lupar","urban":"Sepandan","postal_code":78766},{"province":"Kalimantan Barat","city":"Kapuas Hulu","district":"Batang Lupar","urban":"Melemba","postal_code":78766},{"province":"Kalimantan Barat","city":"Kapuas Hulu","district":"Batang Lupar","urban":"Mensiau","postal_code":78766},{"province":"Kalimantan Barat","city":"Kapuas Hulu","district":"Batang Lupar","urban":"Sei/Sungai Abau","postal_code":78766},{"province":"Kalimantan Barat","city":"Kapuas Hulu","district":"Batang Lupar","urban":"Labian Ira&#8217;ang","postal_code":78766},{"province":"Kalimantan Barat","city":"Kapuas Hulu","district":"Batang Lupar","urban":"Lanjak Deras","postal_code":78766},{"province":"Kalimantan Barat","city":"Kapuas Hulu","district":"Batang Lupar","urban":"Labian","postal_code":78766}]