[{"province":"Kalimantan Barat","city":"Kapuas Hulu","district":"Semitau","urban":"Tua Abang","postal_code":78771},{"province":"Kalimantan Barat","city":"Kapuas Hulu","district":"Semitau","urban":"Semitau Hilir","postal_code":78771},{"province":"Kalimantan Barat","city":"Kapuas Hulu","district":"Semitau","urban":"Semitau Hulu","postal_code":78771},{"province":"Kalimantan Barat","city":"Kapuas Hulu","district":"Semitau","urban":"Sekedau","postal_code":78771},{"province":"Kalimantan Barat","city":"Kapuas Hulu","district":"Semitau","urban":"Padung Kumang","postal_code":78771},{"province":"Kalimantan Barat","city":"Kapuas Hulu","district":"Semitau","urban":"Nanga Seberuang","postal_code":78771},{"province":"Kalimantan Barat","city":"Kapuas Hulu","district":"Semitau","urban":"Nanga Kenepai","postal_code":78771},{"province":"Kalimantan Barat","city":"Kapuas Hulu","district":"Semitau","urban":"Nanga Lemedak","postal_code":78771},{"province":"Kalimantan Barat","city":"Kapuas Hulu","district":"Semitau","urban":"Marsedan Raya","postal_code":78771},{"province":"Kalimantan Barat","city":"Kapuas Hulu","district":"Semitau","urban":"Kenepai Komplek","postal_code":78771},{"province":"Kalimantan Barat","city":"Kapuas Hulu","district":"Semitau","urban":"Kenerak","postal_code":78771},{"province":"Kalimantan Barat","city":"Kapuas Hulu","district":"Semitau","urban":"Entipan","postal_code":78771}]