[{"province":"Kalimantan Barat","city":"Ketapang","district":"Muara Pawan","urban":"Ulak Medang","postal_code":78813},{"province":"Kalimantan Barat","city":"Ketapang","district":"Muara Pawan","urban":"Tanjung Pura","postal_code":78813},{"province":"Kalimantan Barat","city":"Ketapang","district":"Muara Pawan","urban":"Tempurukan","postal_code":78813},{"province":"Kalimantan Barat","city":"Ketapang","district":"Matan Hilir Utara","urban":"Tanjung Baik Budi","postal_code":78813},{"province":"Kalimantan Barat","city":"Ketapang","district":"Muara Pawan","urban":"Tanjung Pasar","postal_code":78813},{"province":"Kalimantan Barat","city":"Ketapang","district":"Delta Pawan","urban":"Sukaharja","postal_code":78813},{"province":"Kalimantan Barat","city":"Ketapang","district":"Muara Pawan","urban":"Suka Maju","postal_code":78813},{"province":"Kalimantan Barat","city":"Ketapang","district":"Delta Pawan","urban":"Suka Bangun","postal_code":78813},{"province":"Kalimantan Barat","city":"Ketapang","district":"Delta Pawan","urban":"Suka Bangun Dalam","postal_code":78813},{"province":"Kalimantan Barat","city":"Ketapang","district":"Matan Hilir Utara","urban":"Sei/Sungai Putri","postal_code":78813},{"province":"Kalimantan Barat","city":"Ketapang","district":"Muara Pawan","urban":"Sei/Sungai Awan Kiri","postal_code":78813},{"province":"Kalimantan Barat","city":"Ketapang","district":"Muara Pawan","urban":"Sei/Sungai Awan Kanan","postal_code":78813},{"province":"Kalimantan Barat","city":"Ketapang","district":"Delta Pawan","urban":"Sampit","postal_code":78813},{"province":"Kalimantan Barat","city":"Ketapang","district":"Delta Pawan","urban":"Mulia Baru","postal_code":78813},{"province":"Kalimantan Barat","city":"Ketapang","district":"Delta Pawan","urban":"Payak Kumang (Paya Kumang)","postal_code":78813},{"province":"Kalimantan Barat","city":"Ketapang","district":"Matan Hilir Utara","urban":"Laman Satong","postal_code":78813},{"province":"Kalimantan Barat","city":"Ketapang","district":"Muara Pawan","urban":"Mayak","postal_code":78813},{"province":"Kalimantan Barat","city":"Ketapang","district":"Matan Hilir Utara","urban":"Kuala Satong","postal_code":78813},{"province":"Kalimantan Barat","city":"Ketapang","district":"Matan Hilir Utara","urban":"Kuala Tolak","postal_code":78813},{"province":"Kalimantan Barat","city":"Ketapang","district":"Delta Pawan","urban":"Kali Nilam","postal_code":78813}]