[{"province":"Kalimantan Barat","city":"Ketapang","district":"Benua Kayong","urban":"Suka Baru","postal_code":78822},{"province":"Kalimantan Barat","city":"Ketapang","district":"Benua Kayong","urban":"Tuan Tuan","postal_code":78822},{"province":"Kalimantan Barat","city":"Ketapang","district":"Matan Hilir Selatan","urban":"Sei/Sungai Pelang","postal_code":78822},{"province":"Kalimantan Barat","city":"Ketapang","district":"Matan Hilir Selatan","urban":"Sei/Sungai Nanjung","postal_code":78822},{"province":"Kalimantan Barat","city":"Ketapang","district":"Benua Kayong","urban":"Sei/Sungai Kinjil","postal_code":78822},{"province":"Kalimantan Barat","city":"Ketapang","district":"Matan Hilir Selatan","urban":"Sei/Sungai Besar","postal_code":78822},{"province":"Kalimantan Barat","city":"Ketapang","district":"Matan Hilir Selatan","urban":"Sei/Sungai Jawi","postal_code":78822},{"province":"Kalimantan Barat","city":"Ketapang","district":"Matan Hilir Selatan","urban":"Pesaguan Kanan","postal_code":78822},{"province":"Kalimantan Barat","city":"Ketapang","district":"Matan Hilir Selatan","urban":"Pesaguan Kiri","postal_code":78822},{"province":"Kalimantan Barat","city":"Ketapang","district":"Matan Hilir Selatan","urban":"Sei/Sungai Bakau","postal_code":78822},{"province":"Kalimantan Barat","city":"Ketapang","district":"Matan Hilir Selatan","urban":"Pematang Gadung","postal_code":78822},{"province":"Kalimantan Barat","city":"Ketapang","district":"Benua Kayong","urban":"Padang","postal_code":78822},{"province":"Kalimantan Barat","city":"Ketapang","district":"Matan Hilir Selatan","urban":"Pagar Mentimun","postal_code":78822},{"province":"Kalimantan Barat","city":"Ketapang","district":"Benua Kayong","urban":"Mulia Kerta","postal_code":78822},{"province":"Kalimantan Barat","city":"Ketapang","district":"Benua Kayong","urban":"Negeri Baru","postal_code":78822},{"province":"Kalimantan Barat","city":"Ketapang","district":"Benua Kayong","urban":"Kinjil Pesisir","postal_code":78822},{"province":"Kalimantan Barat","city":"Ketapang","district":"Benua Kayong","urban":"Mekar Sari","postal_code":78822},{"province":"Kalimantan Barat","city":"Ketapang","district":"Matan Hilir Selatan","urban":"Kemuning Biutak","postal_code":78822},{"province":"Kalimantan Barat","city":"Ketapang","district":"Matan Hilir Selatan","urban":"Harapan Baru","postal_code":78822},{"province":"Kalimantan Barat","city":"Ketapang","district":"Benua Kayong","urban":"Baru","postal_code":78822},{"province":"Kalimantan Barat","city":"Ketapang","district":"Benua Kayong","urban":"Banjar","postal_code":78822}]