[{"province":"Kalimantan Barat","city":"Ketapang","district":"Simpang Hulu","urban":"Semandang Kiri","postal_code":78854},{"province":"Kalimantan Barat","city":"Ketapang","district":"Simpang Dua","urban":"Semandang Kanan","postal_code":78854},{"province":"Kalimantan Barat","city":"Ketapang","district":"Simpang Hulu","urban":"Sekucing Labai","postal_code":78854},{"province":"Kalimantan Barat","city":"Ketapang","district":"Simpang Hulu","urban":"Semandang Hulu","postal_code":78854},{"province":"Kalimantan Barat","city":"Ketapang","district":"Simpang Hulu","urban":"Paoh Concong","postal_code":78854},{"province":"Kalimantan Barat","city":"Ketapang","district":"Simpang Hulu","urban":"Sekucing Kualan","postal_code":78854},{"province":"Kalimantan Barat","city":"Ketapang","district":"Simpang Hulu","urban":"Legong","postal_code":78854},{"province":"Kalimantan Barat","city":"Ketapang","district":"Simpang Hulu","urban":"Merawa","postal_code":78854},{"province":"Kalimantan Barat","city":"Ketapang","district":"Simpang Dua","urban":"Mekar Raya","postal_code":78854},{"province":"Kalimantan Barat","city":"Ketapang","district":"Simpang Hulu","urban":"Kualan Tengah","postal_code":78854},{"province":"Kalimantan Barat","city":"Ketapang","district":"Simpang Hulu","urban":"Labai Hilir","postal_code":78854},{"province":"Kalimantan Barat","city":"Ketapang","district":"Simpang Hulu","urban":"Kualan Hilir","postal_code":78854},{"province":"Kalimantan Barat","city":"Ketapang","district":"Simpang Hulu","urban":"Kualan Hulu","postal_code":78854},{"province":"Kalimantan Barat","city":"Ketapang","district":"Simpang Dua","urban":"Gema","postal_code":78854},{"province":"Kalimantan Barat","city":"Ketapang","district":"Simpang Dua","urban":"Kampar Sebomban","postal_code":78854},{"province":"Kalimantan Barat","city":"Ketapang","district":"Simpang Hulu","urban":"Kenanga","postal_code":78854},{"province":"Kalimantan Barat","city":"Ketapang","district":"Simpang Dua","urban":"Batu Daya","postal_code":78854},{"province":"Kalimantan Barat","city":"Ketapang","district":"Simpang Hulu","urban":"Balai Pinang Hulu","postal_code":78854},{"province":"Kalimantan Barat","city":"Ketapang","district":"Simpang Hulu","urban":"Balai Pinang","postal_code":78854}]