[{"province":"Kalimantan Barat","city":"Kayong Utara","district":"Pulau Maya (Pulau Maya Karimata)","urban":"Tanjung Satai","postal_code":78855},{"province":"Kalimantan Barat","city":"Kayong Utara","district":"Kepulauan Karimata","urban":"Pelapis","postal_code":78855},{"province":"Kalimantan Barat","city":"Kayong Utara","district":"Pulau Maya (Pulau Maya Karimata)","urban":"Satai Lestari","postal_code":78855},{"province":"Kalimantan Barat","city":"Kayong Utara","district":"Pulau Maya (Pulau Maya Karimata)","urban":"Kemboja (Kamboja)","postal_code":78855},{"province":"Kalimantan Barat","city":"Kayong Utara","district":"Kepulauan Karimata","urban":"Padang","postal_code":78855},{"province":"Kalimantan Barat","city":"Kayong Utara","district":"Pulau Maya (Pulau Maya Karimata)","urban":"Dusun Besar","postal_code":78855},{"province":"Kalimantan Barat","city":"Kayong Utara","district":"Pulau Maya (Pulau Maya Karimata)","urban":"Dusun Kecil","postal_code":78855},{"province":"Kalimantan Barat","city":"Kayong Utara","district":"Kepulauan Karimata","urban":"Betok Jaya","postal_code":78855}]