[{"province":"Kalimantan Barat","city":"Ketapang","district":"Singkup","urban":"Sukasari","postal_code":78863},{"province":"Kalimantan Barat","city":"Ketapang","district":"Singkup","urban":"Tanah Hitam","postal_code":78863},{"province":"Kalimantan Barat","city":"Ketapang","district":"Air Upas","urban":"Sukaria","postal_code":78863},{"province":"Kalimantan Barat","city":"Ketapang","district":"Singkup","urban":"Sukaraja","postal_code":78863},{"province":"Kalimantan Barat","city":"Ketapang","district":"Marau","urban":"Suka Karya","postal_code":78863},{"province":"Kalimantan Barat","city":"Ketapang","district":"Singkup","urban":"Sukaharja","postal_code":78863},{"province":"Kalimantan Barat","city":"Ketapang","district":"Singkup","urban":"Sukamulya","postal_code":78863},{"province":"Kalimantan Barat","city":"Ketapang","district":"Marau","urban":"Runjai Jaya","postal_code":78863},{"province":"Kalimantan Barat","city":"Ketapang","district":"Air Upas","urban":"Sari Bekayas","postal_code":78863},{"province":"Kalimantan Barat","city":"Ketapang","district":"Marau","urban":"Rangkong","postal_code":78863},{"province":"Kalimantan Barat","city":"Ketapang","district":"Marau","urban":"Riam Batu Gadig","postal_code":78863},{"province":"Kalimantan Barat","city":"Ketapang","district":"Marau","urban":"Planjau Jaya","postal_code":78863},{"province":"Kalimantan Barat","city":"Ketapang","district":"Marau","urban":"Randai","postal_code":78863},{"province":"Kalimantan Barat","city":"Ketapang","district":"Singkup","urban":"Pantai Ketikal","postal_code":78863},{"province":"Kalimantan Barat","city":"Ketapang","district":"Singkup","urban":"Muntai","postal_code":78863},{"province":"Kalimantan Barat","city":"Ketapang","district":"Air Upas","urban":"Mekar Jaya","postal_code":78863},{"province":"Kalimantan Barat","city":"Ketapang","district":"Air Upas","urban":"Membuluh Baru","postal_code":78863},{"province":"Kalimantan Barat","city":"Ketapang","district":"Marau","urban":"Karya Baru","postal_code":78863},{"province":"Kalimantan Barat","city":"Ketapang","district":"Air Upas","urban":"Harapan Baru","postal_code":78863},{"province":"Kalimantan Barat","city":"Ketapang","district":"Air Upas","urban":"Gahang","postal_code":78863},{"province":"Kalimantan Barat","city":"Ketapang","district":"Singkup","urban":"Bukit Kelambing","postal_code":78863},{"province":"Kalimantan Barat","city":"Ketapang","district":"Marau","urban":"Batu Payung","postal_code":78863},{"province":"Kalimantan Barat","city":"Ketapang","district":"Marau","urban":"Belaban","postal_code":78863},{"province":"Kalimantan Barat","city":"Ketapang","district":"Air Upas","urban":"Banda Sari","postal_code":78863},{"province":"Kalimantan Barat","city":"Ketapang","district":"Marau","urban":"Bantan Sari","postal_code":78863},{"province":"Kalimantan Barat","city":"Ketapang","district":"Air Upas","urban":"Air Durian Jaya","postal_code":78863},{"province":"Kalimantan Barat","city":"Ketapang","district":"Air Upas","urban":"Air Upas","postal_code":78863}]