[{"province":"Kalimantan Barat","city":"Ketapang","district":"Jelai Hulu","urban":"Tebing Beseri","postal_code":78876},{"province":"Kalimantan Barat","city":"Ketapang","district":"Jelai Hulu","urban":"Teluk Runjai","postal_code":78876},{"province":"Kalimantan Barat","city":"Ketapang","district":"Jelai Hulu","urban":"Semantun","postal_code":78876},{"province":"Kalimantan Barat","city":"Ketapang","district":"Jelai Hulu","urban":"Sidahari","postal_code":78876},{"province":"Kalimantan Barat","city":"Ketapang","district":"Jelai Hulu","urban":"Tanggerang","postal_code":78876},{"province":"Kalimantan Barat","city":"Ketapang","district":"Jelai Hulu","urban":"Rangga Intan","postal_code":78876},{"province":"Kalimantan Barat","city":"Ketapang","district":"Jelai Hulu","urban":"Riam Danau Kanan","postal_code":78876},{"province":"Kalimantan Barat","city":"Ketapang","district":"Jelai Hulu","urban":"Penyarang","postal_code":78876},{"province":"Kalimantan Barat","city":"Ketapang","district":"Jelai Hulu","urban":"Periangan","postal_code":78876},{"province":"Kalimantan Barat","city":"Ketapang","district":"Jelai Hulu","urban":"Pangkaln Suka","postal_code":78876},{"province":"Kalimantan Barat","city":"Ketapang","district":"Jelai Hulu","urban":"Pasir Mayang","postal_code":78876},{"province":"Kalimantan Barat","city":"Ketapang","district":"Jelai Hulu","urban":"Kusik Batu Lapu","postal_code":78876},{"province":"Kalimantan Barat","city":"Ketapang","district":"Jelai Hulu","urban":"Limpang","postal_code":78876},{"province":"Kalimantan Barat","city":"Ketapang","district":"Jelai Hulu","urban":"Kesuma Jaya","postal_code":78876},{"province":"Kalimantan Barat","city":"Ketapang","district":"Jelai Hulu","urban":"Karang Dangin","postal_code":78876},{"province":"Kalimantan Barat","city":"Ketapang","district":"Jelai Hulu","urban":"Biku Sarana","postal_code":78876},{"province":"Kalimantan Barat","city":"Ketapang","district":"Jelai Hulu","urban":"Deranuk","postal_code":78876},{"province":"Kalimantan Barat","city":"Ketapang","district":"Jelai Hulu","urban":"Air Dua","postal_code":78876},{"province":"Kalimantan Barat","city":"Ketapang","district":"Jelai Hulu","urban":"Asam Jelai","postal_code":78876}]