[{"province":"Kalimantan Barat","city":"Ketapang","district":"Hulu Sungai","urban":"Senduruhan","postal_code":78871},{"province":"Kalimantan Barat","city":"Ketapang","district":"Hulu Sungai","urban":"Sungai Bengaras","postal_code":78871},{"province":"Kalimantan Barat","city":"Ketapang","district":"Sandai","urban":"Sandai Kiri","postal_code":78871},{"province":"Kalimantan Barat","city":"Ketapang","district":"Hulu Sungai","urban":"Sekunkun","postal_code":78871},{"province":"Kalimantan Barat","city":"Ketapang","district":"Hulu Sungai","urban":"Riam Dadap","postal_code":78871},{"province":"Kalimantan Barat","city":"Ketapang","district":"Sandai","urban":"Sandai Kanan","postal_code":78871},{"province":"Kalimantan Barat","city":"Ketapang","district":"Sandai","urban":"Randau","postal_code":78871},{"province":"Kalimantan Barat","city":"Ketapang","district":"Sandai","urban":"Randau Jungkal","postal_code":78871},{"province":"Kalimantan Barat","city":"Ketapang","district":"Sandai","urban":"Penjawaan","postal_code":78871},{"province":"Kalimantan Barat","city":"Ketapang","district":"Sandai","urban":"Petai Patah","postal_code":78871},{"province":"Kalimantan Barat","city":"Ketapang","district":"Sandai","urban":"Muara Jekak","postal_code":78871},{"province":"Kalimantan Barat","city":"Ketapang","district":"Sandai","urban":"Pendamaran Indah","postal_code":78871},{"province":"Kalimantan Barat","city":"Ketapang","district":"Sandai","urban":"Merimbang Jaya","postal_code":78871},{"province":"Kalimantan Barat","city":"Ketapang","district":"Hulu Sungai","urban":"Menyumbung","postal_code":78871},{"province":"Kalimantan Barat","city":"Ketapang","district":"Hulu Sungai","urban":"Krio Hulu","postal_code":78871},{"province":"Kalimantan Barat","city":"Ketapang","district":"Hulu Sungai","urban":"Lubuk Kakap","postal_code":78871},{"province":"Kalimantan Barat","city":"Ketapang","district":"Hulu Sungai","urban":"Kenyabur","postal_code":78871},{"province":"Kalimantan Barat","city":"Ketapang","district":"Sandai","urban":"Jago Bersatu","postal_code":78871},{"province":"Kalimantan Barat","city":"Ketapang","district":"Hulu Sungai","urban":"Cinta Manis","postal_code":78871},{"province":"Kalimantan Barat","city":"Ketapang","district":"Sandai","urban":"Demit","postal_code":78871},{"province":"Kalimantan Barat","city":"Ketapang","district":"Hulu Sungai","urban":"Beginci Darat","postal_code":78871},{"province":"Kalimantan Barat","city":"Ketapang","district":"Hulu Sungai","urban":"Benua Krio","postal_code":78871},{"province":"Kalimantan Barat","city":"Ketapang","district":"Hulu Sungai","urban":"Batu Lapis","postal_code":78871},{"province":"Kalimantan Barat","city":"Ketapang","district":"Sandai","urban":"Alam Pakuan","postal_code":78871}]