[{"province":"Kalimantan Barat","city":"Ketapang","district":"Pemahan","urban":"Usaha Baru","postal_code":78874},{"province":"Kalimantan Barat","city":"Ketapang","district":"Tumbang Titi","urban":"Titi Baru","postal_code":78874},{"province":"Kalimantan Barat","city":"Ketapang","district":"Tumbang Titi","urban":"Tumbang Titi","postal_code":78874},{"province":"Kalimantan Barat","city":"Ketapang","district":"Sungai Melayu Rayak","urban":"Suka Mulia/Mulya","postal_code":78874},{"province":"Kalimantan Barat","city":"Ketapang","district":"Tumbang Titi","urban":"Tanjung Beulang","postal_code":78874},{"province":"Kalimantan Barat","city":"Ketapang","district":"Tumbang Titi","urban":"Tanjung Maloi","postal_code":78874},{"province":"Kalimantan Barat","city":"Ketapang","district":"Tumbang Titi","urban":"Serengkah Kanan","postal_code":78874},{"province":"Kalimantan Barat","city":"Ketapang","district":"Tumbang Titi","urban":"Suka Damai","postal_code":78874},{"province":"Kalimantan Barat","city":"Ketapang","district":"Tumbang Titi","urban":"Sepauhan Jaya","postal_code":78874},{"province":"Kalimantan Barat","city":"Ketapang","district":"Tumbang Titi","urban":"Serengkah","postal_code":78874},{"province":"Kalimantan Barat","city":"Ketapang","district":"Tumbang Titi","urban":"Sengkaharak","postal_code":78874},{"province":"Kalimantan Barat","city":"Ketapang","district":"Pemahan","urban":"Semayok Baru","postal_code":78874},{"province":"Kalimantan Barat","city":"Ketapang","district":"Sungai Melayu Rayak","urban":"Sei/Sungai Melayu Baru","postal_code":78874},{"province":"Kalimantan Barat","city":"Ketapang","district":"Sungai Melayu Rayak","urban":"Sei/Sungai Melayu Jaya","postal_code":78874},{"province":"Kalimantan Barat","city":"Ketapang","district":"Sungai Melayu Rayak","urban":"Sei/Sungai Melayu","postal_code":78874},{"province":"Kalimantan Barat","city":"Ketapang","district":"Tumbang Titi","urban":"Segar Wangi","postal_code":78874},{"province":"Kalimantan Barat","city":"Ketapang","district":"Tumbang Titi","urban":"Petebang Jaya","postal_code":78874},{"province":"Kalimantan Barat","city":"Ketapang","district":"Sungai Melayu Rayak","urban":"Piansak","postal_code":78874},{"province":"Kalimantan Barat","city":"Ketapang","district":"Tumbang Titi","urban":"Pemuatan Jaya","postal_code":78874},{"province":"Kalimantan Barat","city":"Ketapang","district":"Tumbang Titi","urban":"Pengatapan Raya","postal_code":78874},{"province":"Kalimantan Barat","city":"Ketapang","district":"Pemahan","urban":"Pebihingan","postal_code":78874},{"province":"Kalimantan Barat","city":"Ketapang","district":"Tumbang Titi","urban":"Nanga Kelampai","postal_code":78874},{"province":"Kalimantan Barat","city":"Ketapang","district":"Tumbang Titi","urban":"Natai Panjang","postal_code":78874},{"province":"Kalimantan Barat","city":"Ketapang","district":"Pemahan","urban":"Muara Gerunggang","postal_code":78874},{"province":"Kalimantan Barat","city":"Ketapang","district":"Tumbang Titi","urban":"Mahawa","postal_code":78874},{"province":"Kalimantan Barat","city":"Ketapang","district":"Sungai Melayu Rayak","urban":"Makmur Abadi","postal_code":78874},{"province":"Kalimantan Barat","city":"Ketapang","district":"Sungai Melayu Rayak","urban":"Mekar Jaya","postal_code":78874},{"province":"Kalimantan Barat","city":"Ketapang","district":"Pemahan","urban":"Lalang Panjang","postal_code":78874},{"province":"Kalimantan Barat","city":"Ketapang","district":"Sungai Melayu Rayak","urban":"Karya Mukti","postal_code":78874},{"province":"Kalimantan Barat","city":"Ketapang","district":"Sungai Melayu Rayak","urban":"Kepuluk","postal_code":78874},{"province":"Kalimantan Barat","city":"Ketapang","district":"Tumbang Titi","urban":"Jelayan","postal_code":78874},{"province":"Kalimantan Barat","city":"Ketapang","district":"Tumbang Titi","urban":"Jungkal","postal_code":78874},{"province":"Kalimantan Barat","city":"Ketapang","district":"Tumbang Titi","urban":"Kalimas Baru","postal_code":78874},{"province":"Kalimantan Barat","city":"Ketapang","district":"Tumbang Titi","urban":"Beringin Rayo","postal_code":78874},{"province":"Kalimantan Barat","city":"Ketapang","district":"Sungai Melayu Rayak","urban":"Jairan Jaya","postal_code":78874},{"province":"Kalimantan Barat","city":"Ketapang","district":"Tumbang Titi","urban":"Belaban Tujuh","postal_code":78874},{"province":"Kalimantan Barat","city":"Ketapang","district":"Sungai Melayu Rayak","urban":"Beringin Jaya","postal_code":78874},{"province":"Kalimantan Barat","city":"Ketapang","district":"Tumbang Titi","urban":"Batu Tajam","postal_code":78874},{"province":"Kalimantan Barat","city":"Ketapang","district":"Tumbang Titi","urban":"Aur Gading","postal_code":78874},{"province":"Kalimantan Barat","city":"Ketapang","district":"Tumbang Titi","urban":"Batu Beransah","postal_code":78874}]