[{"province":"Kalimantan Barat","city":"Sambas","district":"Jawai Selatan","urban":"Semperiuk B","postal_code":79154},{"province":"Kalimantan Barat","city":"Sambas","district":"Jawai Selatan","urban":"Suah Api","postal_code":79154},{"province":"Kalimantan Barat","city":"Sambas","district":"Jawai Selatan","urban":"Sarilaba B","postal_code":79154},{"province":"Kalimantan Barat","city":"Sambas","district":"Jawai Selatan","urban":"Semperiuk A","postal_code":79154},{"province":"Kalimantan Barat","city":"Sambas","district":"Jawai Selatan","urban":"Sabaran","postal_code":79154},{"province":"Kalimantan Barat","city":"Sambas","district":"Jawai Selatan","urban":"Sarilaba A","postal_code":79154},{"province":"Kalimantan Barat","city":"Sambas","district":"Jawai Selatan","urban":"Jawai Laut","postal_code":79154},{"province":"Kalimantan Barat","city":"Sambas","district":"Jawai Selatan","urban":"Jelu Air","postal_code":79154},{"province":"Kalimantan Barat","city":"Sambas","district":"Jawai Selatan","urban":"Matang Terap","postal_code":79154}]