[{"province":"Kalimantan Barat","city":"Bengkayang","district":"Tujuh Belas","urban":"Sinar Tebudak","postal_code":79251},{"province":"Kalimantan Barat","city":"Bengkayang","district":"Tujuh Belas","urban":"Pisak","postal_code":79251},{"province":"Kalimantan Barat","city":"Bengkayang","district":"Tujuh Belas","urban":"Kamuh","postal_code":79251},{"province":"Kalimantan Barat","city":"Bengkayang","district":"Tujuh Belas","urban":"Bengkilu","postal_code":79251},{"province":"Kalimantan Barat","city":"Singkawang","district":"Singkawang Timur","urban":"Sanggau Kolor","postal_code":79251},{"province":"Kalimantan Barat","city":"Singkawang","district":"Singkawang Timur","urban":"Nyarungkop","postal_code":79251},{"province":"Kalimantan Barat","city":"Singkawang","district":"Singkawang Timur","urban":"Pajintan","postal_code":79251},{"province":"Kalimantan Barat","city":"Singkawang","district":"Singkawang Timur","urban":"Mayasopa","postal_code":79251},{"province":"Kalimantan Barat","city":"Singkawang","district":"Singkawang Timur","urban":"Bagak Sahwa","postal_code":79251}]