[{"province":"Kalimantan Barat","city":"Bengkayang","district":"Sungai Raya Kepulauan","urban":"Sei/Sungai Raya","postal_code":79271},{"province":"Kalimantan Barat","city":"Bengkayang","district":"Sungai Raya","urban":"Sei/Sungai Pangkalan II","postal_code":79271},{"province":"Kalimantan Barat","city":"Bengkayang","district":"Capkala","urban":"Setanduk","postal_code":79271},{"province":"Kalimantan Barat","city":"Bengkayang","district":"Sungai Raya Kepulauan","urban":"Sei/Sungai Keran","postal_code":79271},{"province":"Kalimantan Barat","city":"Bengkayang","district":"Sungai Raya","urban":"Sei/Sungai Pangkalan I","postal_code":79271},{"province":"Kalimantan Barat","city":"Bengkayang","district":"Sungai Raya","urban":"Sei/Sungai Jaga A","postal_code":79271},{"province":"Kalimantan Barat","city":"Bengkayang","district":"Sungai Raya","urban":"Sei/Sungai Jaga B","postal_code":79271},{"province":"Kalimantan Barat","city":"Bengkayang","district":"Sungai Raya","urban":"Sei/Sungai Duri","postal_code":79271},{"province":"Kalimantan Barat","city":"Bengkayang","district":"Sungai Raya Kepulauan","urban":"Rukma Jaya","postal_code":79271},{"province":"Kalimantan Barat","city":"Bengkayang","district":"Capkala","urban":"Sabandut","postal_code":79271},{"province":"Kalimantan Barat","city":"Bengkayang","district":"Sungai Raya Kepulauan","urban":"Pulau Lemukutan","postal_code":79271},{"province":"Kalimantan Barat","city":"Bengkayang","district":"Capkala","urban":"Pawangi","postal_code":79271},{"province":"Kalimantan Barat","city":"Bengkayang","district":"Capkala","urban":"Mandor","postal_code":79271},{"province":"Kalimantan Barat","city":"Bengkayang","district":"Sungai Raya Kepulauan","urban":"Karimunting","postal_code":79271},{"province":"Kalimantan Barat","city":"Bengkayang","district":"Capkala","urban":"Capkala","postal_code":79271},{"province":"Kalimantan Barat","city":"Bengkayang","district":"Capkala","urban":"Aris","postal_code":79271}]