[{"province":"Kalimantan Barat","city":"Bengkayang","district":"Samalantan","urban":"Tumiang","postal_code":79281},{"province":"Kalimantan Barat","city":"Bengkayang","district":"Lembah Bawang","urban":"Tempapan","postal_code":79281},{"province":"Kalimantan Barat","city":"Bengkayang","district":"Samalantan","urban":"Samalantan","postal_code":79281},{"province":"Kalimantan Barat","city":"Bengkayang","district":"Lembah Bawang","urban":"Saka Taru","postal_code":79281},{"province":"Kalimantan Barat","city":"Bengkayang","district":"Samalantan","urban":"Pasti Jaya","postal_code":79281},{"province":"Kalimantan Barat","city":"Bengkayang","district":"Samalantan","urban":"Saba&#8217;u","postal_code":79281},{"province":"Kalimantan Barat","city":"Bengkayang","district":"Lembah Bawang","urban":"Papan Tembawang","postal_code":79281},{"province":"Kalimantan Barat","city":"Bengkayang","district":"Lembah Bawang","urban":"Papan Uduk","postal_code":79281},{"province":"Kalimantan Barat","city":"Bengkayang","district":"Lembah Bawang","urban":"Lembah Bawang","postal_code":79281},{"province":"Kalimantan Barat","city":"Bengkayang","district":"Samalantan","urban":"Marunsu","postal_code":79281},{"province":"Kalimantan Barat","city":"Bengkayang","district":"Lembah Bawang","urban":"Janyat","postal_code":79281},{"province":"Kalimantan Barat","city":"Bengkayang","district":"Lembah Bawang","urban":"Kinande","postal_code":79281},{"province":"Kalimantan Barat","city":"Bengkayang","district":"Lembah Bawang","urban":"Godang Damar","postal_code":79281},{"province":"Kalimantan Barat","city":"Bengkayang","district":"Samalantan","urban":"Bukit Serayan","postal_code":79281},{"province":"Kalimantan Barat","city":"Bengkayang","district":"Samalantan","urban":"Babane","postal_code":79281}]