[{"province":"Kalimantan Barat","city":"Bengkayang","district":"Ledo","urban":"Tebuah Marong (Trans)","postal_code":79283},{"province":"Kalimantan Barat","city":"Bengkayang","district":"Lumar","urban":"Tiga Berkat","postal_code":79283},{"province":"Kalimantan Barat","city":"Bengkayang","district":"Suti Semarang","urban":"Suti Semarang","postal_code":79283},{"province":"Kalimantan Barat","city":"Bengkayang","district":"Suti Semarang","urban":"Tapen","postal_code":79283},{"province":"Kalimantan Barat","city":"Bengkayang","district":"Ledo","urban":"Suka Jaya","postal_code":79283},{"province":"Kalimantan Barat","city":"Bengkayang","district":"Suti Semarang","urban":"Suka Maju","postal_code":79283},{"province":"Kalimantan Barat","city":"Bengkayang","district":"Ledo","urban":"Sidai","postal_code":79283},{"province":"Kalimantan Barat","city":"Bengkayang","district":"Ledo","urban":"Suka Damai","postal_code":79283},{"province":"Kalimantan Barat","city":"Bengkayang","district":"Lumar","urban":"Seren Selimbau","postal_code":79283},{"province":"Kalimantan Barat","city":"Bengkayang","district":"Ledo","urban":"Serangkat","postal_code":79283},{"province":"Kalimantan Barat","city":"Bengkayang","district":"Ledo","urban":"Seles","postal_code":79283},{"province":"Kalimantan Barat","city":"Bengkayang","district":"Ledo","urban":"Semangat","postal_code":79283},{"province":"Kalimantan Barat","city":"Bengkayang","district":"Suti Semarang","urban":"Muhi Bersatu","postal_code":79283},{"province":"Kalimantan Barat","city":"Bengkayang","district":"Suti Semarang","urban":"Nangka","postal_code":79283},{"province":"Kalimantan Barat","city":"Bengkayang","district":"Ledo","urban":"Rodaya","postal_code":79283},{"province":"Kalimantan Barat","city":"Bengkayang","district":"Ledo","urban":"Lesabela","postal_code":79283},{"province":"Kalimantan Barat","city":"Bengkayang","district":"Ledo","urban":"Lomba Karya","postal_code":79283},{"province":"Kalimantan Barat","city":"Bengkayang","district":"Lumar","urban":"Magmagan Karya","postal_code":79283},{"province":"Kalimantan Barat","city":"Bengkayang","district":"Suti Semarang","urban":"Kiung","postal_code":79283},{"province":"Kalimantan Barat","city":"Bengkayang","district":"Lumar","urban":"Lamolda","postal_code":79283},{"province":"Kalimantan Barat","city":"Bengkayang","district":"Suti Semarang","urban":"Kelayu (Kelayuk)","postal_code":79283},{"province":"Kalimantan Barat","city":"Bengkayang","district":"Ledo","urban":"Jesape","postal_code":79283},{"province":"Kalimantan Barat","city":"Bengkayang","district":"Ledo","urban":"Dayung","postal_code":79283},{"province":"Kalimantan Barat","city":"Bengkayang","district":"Suti Semarang","urban":"Cempaka Putih","postal_code":79283},{"province":"Kalimantan Barat","city":"Bengkayang","district":"Lumar","urban":"Belimbing","postal_code":79283}]