[{"province":"Kalimantan Barat","city":"Bengkayang","district":"Siding","urban":"Tangguh","postal_code":79286},{"province":"Kalimantan Barat","city":"Bengkayang","district":"Siding","urban":"Tawang","postal_code":79286},{"province":"Kalimantan Barat","city":"Bengkayang","district":"Siding","urban":"Sungkung III","postal_code":79286},{"province":"Kalimantan Barat","city":"Bengkayang","district":"Siding","urban":"Tamong","postal_code":79286},{"province":"Kalimantan Barat","city":"Bengkayang","district":"Siding","urban":"Sungkung I","postal_code":79286},{"province":"Kalimantan Barat","city":"Bengkayang","district":"Siding","urban":"Sungkung II","postal_code":79286},{"province":"Kalimantan Barat","city":"Bengkayang","district":"Jagoi Babang","urban":"Sinar Baru","postal_code":79286},{"province":"Kalimantan Barat","city":"Bengkayang","district":"Siding","urban":"Siding","postal_code":79286},{"province":"Kalimantan Barat","city":"Bengkayang","district":"Jagoi Babang","urban":"Sekida (Jagoi Sekida)","postal_code":79286},{"province":"Kalimantan Barat","city":"Bengkayang","district":"Jagoi Babang","urban":"Semunyin Jaya","postal_code":79286},{"province":"Kalimantan Barat","city":"Bengkayang","district":"Jagoi Babang","urban":"Kumba","postal_code":79286},{"province":"Kalimantan Barat","city":"Bengkayang","district":"Siding","urban":"Lhi Bui/Lhibuie","postal_code":79286},{"province":"Kalimantan Barat","city":"Bengkayang","district":"Jagoi Babang","urban":"Gersik","postal_code":79286},{"province":"Kalimantan Barat","city":"Bengkayang","district":"Jagoi Babang","urban":"Jagoi","postal_code":79286}]