[{"province":"Kalimantan Barat","city":"Landak","district":"Banyuke Hulu","urban":"Tembawang Bale","postal_code":79364},{"province":"Kalimantan Barat","city":"Landak","district":"Banyuke Hulu","urban":"Untang","postal_code":79364},{"province":"Kalimantan Barat","city":"Landak","district":"Menyuke","urban":"Tolok","postal_code":79364},{"province":"Kalimantan Barat","city":"Landak","district":"Menyuke","urban":"Songga","postal_code":79364},{"province":"Kalimantan Barat","city":"Landak","district":"Menyuke","urban":"Ta As","postal_code":79364},{"province":"Kalimantan Barat","city":"Landak","district":"Banyuke Hulu","urban":"Semade","postal_code":79364},{"province":"Kalimantan Barat","city":"Landak","district":"Menyuke","urban":"Sidan","postal_code":79364},{"province":"Kalimantan Barat","city":"Landak","district":"Banyuke Hulu","urban":"Ringo Lojok","postal_code":79364},{"province":"Kalimantan Barat","city":"Landak","district":"Menyuke","urban":"Sei/Sungai Lubang","postal_code":79364},{"province":"Kalimantan Barat","city":"Landak","district":"Banyuke Hulu","urban":"Padang Pio","postal_code":79364},{"province":"Kalimantan Barat","city":"Landak","district":"Menyuke","urban":"Mamek","postal_code":79364},{"province":"Kalimantan Barat","city":"Landak","district":"Menyuke","urban":"Ongkol Padang","postal_code":79364},{"province":"Kalimantan Barat","city":"Landak","district":"Menyuke","urban":"Ladangan","postal_code":79364},{"province":"Kalimantan Barat","city":"Landak","district":"Menyuke","urban":"Lintah Betung","postal_code":79364},{"province":"Kalimantan Barat","city":"Landak","district":"Banyuke Hulu","urban":"Kampet","postal_code":79364},{"province":"Kalimantan Barat","city":"Landak","district":"Menyuke","urban":"Kayuara","postal_code":79364},{"province":"Kalimantan Barat","city":"Landak","district":"Banyuke Hulu","urban":"Gamang","postal_code":79364},{"province":"Kalimantan Barat","city":"Landak","district":"Menyuke","urban":"Bagak","postal_code":79364},{"province":"Kalimantan Barat","city":"Landak","district":"Menyuke","urban":"Berinang Mayun","postal_code":79364},{"province":"Kalimantan Barat","city":"Landak","district":"Menyuke","urban":"Darit","postal_code":79364},{"province":"Kalimantan Barat","city":"Landak","district":"Menyuke","urban":"Anik Dingir","postal_code":79364},{"province":"Kalimantan Barat","city":"Landak","district":"Menyuke","urban":"Ansang","postal_code":79364},{"province":"Kalimantan Barat","city":"Landak","district":"Menyuke","urban":"Angkaras","postal_code":79364}]