[{"province":"Kalimantan Barat","city":"Sambas","district":"Subah","urban":"Tebuah Elok","postal_code":79417},{"province":"Kalimantan Barat","city":"Sambas","district":"Subah","urban":"Sei/Sungai Sapak","postal_code":79417},{"province":"Kalimantan Barat","city":"Sambas","district":"Subah","urban":"Sempurna","postal_code":79417},{"province":"Kalimantan Barat","city":"Sambas","district":"Subah","urban":"Mukti Raharja","postal_code":79417},{"province":"Kalimantan Barat","city":"Sambas","district":"Subah","urban":"Sabung","postal_code":79417},{"province":"Kalimantan Barat","city":"Sambas","district":"Subah","urban":"Sei/Sungai Deden","postal_code":79417},{"province":"Kalimantan Barat","city":"Sambas","district":"Subah","urban":"Mensade","postal_code":79417},{"province":"Kalimantan Barat","city":"Sambas","district":"Subah","urban":"Bukit Mulya","postal_code":79417},{"province":"Kalimantan Barat","city":"Sambas","district":"Subah","urban":"Madak","postal_code":79417},{"province":"Kalimantan Barat","city":"Sambas","district":"Subah","urban":"Balai Gemuruh","postal_code":79417}]