[{"province":"Kalimantan Barat","city":"Sambas","district":"Selakau","urban":"Twi Mentibar","postal_code":79452},{"province":"Kalimantan Barat","city":"Sambas","district":"Selakau","urban":"Semelagi Besar","postal_code":79452},{"province":"Kalimantan Barat","city":"Sambas","district":"Selakau Timur","urban":"Seranggam","postal_code":79452},{"province":"Kalimantan Barat","city":"Sambas","district":"Selakau","urban":"Sei/Sungai Rusa","postal_code":79452},{"province":"Kalimantan Barat","city":"Sambas","district":"Selakau Timur","urban":"Selakau Tua","postal_code":79452},{"province":"Kalimantan Barat","city":"Sambas","district":"Selakau","urban":"Sei/Sungai Nyirih","postal_code":79452},{"province":"Kalimantan Barat","city":"Sambas","district":"Selakau","urban":"Sei/Sungai Daun","postal_code":79452},{"province":"Kalimantan Barat","city":"Sambas","district":"Selakau","urban":"Pangkalan Bemban","postal_code":79452},{"province":"Kalimantan Barat","city":"Sambas","district":"Selakau","urban":"Parit Baru","postal_code":79452},{"province":"Kalimantan Barat","city":"Sambas","district":"Selakau Timur","urban":"Gelik","postal_code":79452},{"province":"Kalimantan Barat","city":"Sambas","district":"Selakau","urban":"Kuala","postal_code":79452},{"province":"Kalimantan Barat","city":"Sambas","district":"Selakau Timur","urban":"Buduk Sempadang","postal_code":79452},{"province":"Kalimantan Barat","city":"Sambas","district":"Selakau","urban":"Bentunai","postal_code":79452}]