[{"province":"Kalimantan Barat","city":"Sambas","district":"Jawai","urban":"Sentebang","postal_code":79454},{"province":"Kalimantan Barat","city":"Sambas","district":"Jawai","urban":"Sei/Sungai Nyirih","postal_code":79454},{"province":"Kalimantan Barat","city":"Sambas","district":"Jawai","urban":"Sarang Burung Usrat","postal_code":79454},{"province":"Kalimantan Barat","city":"Sambas","district":"Jawai","urban":"Sei/Sungai Nilam","postal_code":79454},{"province":"Kalimantan Barat","city":"Sambas","district":"Jawai","urban":"Sarang Burung Kolam","postal_code":79454},{"province":"Kalimantan Barat","city":"Sambas","district":"Jawai","urban":"Sarang Burung Kuala","postal_code":79454},{"province":"Kalimantan Barat","city":"Sambas","district":"Jawai","urban":"Pelimpaan","postal_code":79454},{"province":"Kalimantan Barat","city":"Sambas","district":"Jawai","urban":"Sarang Burung Danau","postal_code":79454},{"province":"Kalimantan Barat","city":"Sambas","district":"Jawai","urban":"Bakau","postal_code":79454},{"province":"Kalimantan Barat","city":"Sambas","district":"Jawai","urban":"Dungun Laut","postal_code":79454},{"province":"Kalimantan Barat","city":"Sambas","district":"Jawai","urban":"Parit Setia","postal_code":79454}]