[{"province":"Kalimantan Barat","city":"Sambas","district":"Galing","urban":"Tri Kembang","postal_code":79453},{"province":"Kalimantan Barat","city":"Sambas","district":"Galing","urban":"Tempapan Kuala","postal_code":79453},{"province":"Kalimantan Barat","city":"Sambas","district":"Galing","urban":"Tri Gaduh","postal_code":79453},{"province":"Kalimantan Barat","city":"Sambas","district":"Galing","urban":"Teluk Pandan","postal_code":79453},{"province":"Kalimantan Barat","city":"Sambas","district":"Galing","urban":"Tempapan Hulu","postal_code":79453},{"province":"Kalimantan Barat","city":"Sambas","district":"Semparuk","urban":"Singaraya","postal_code":79453},{"province":"Kalimantan Barat","city":"Sambas","district":"Salatiga","urban":"Serumpun","postal_code":79453},{"province":"Kalimantan Barat","city":"Sambas","district":"Salatiga","urban":"Serunai","postal_code":79453},{"province":"Kalimantan Barat","city":"Sambas","district":"Galing","urban":"Sijang","postal_code":79453},{"province":"Kalimantan Barat","city":"Sambas","district":"Semparuk","urban":"Sepadu","postal_code":79453},{"province":"Kalimantan Barat","city":"Sambas","district":"Semparuk","urban":"Sepinggan","postal_code":79453},{"province":"Kalimantan Barat","city":"Sambas","district":"Salatiga","urban":"Sei/Sungai Toman","postal_code":79453},{"province":"Kalimantan Barat","city":"Sambas","district":"Semparuk","urban":"Semparuk","postal_code":79453},{"province":"Kalimantan Barat","city":"Sambas","district":"Galing","urban":"Sei/Sungai Palah","postal_code":79453},{"province":"Kalimantan Barat","city":"Sambas","district":"Semparuk","urban":"Seburing","postal_code":79453},{"province":"Kalimantan Barat","city":"Sambas","district":"Salatiga","urban":"Salatiga","postal_code":79453},{"province":"Kalimantan Barat","city":"Sambas","district":"Galing","urban":"Sagu","postal_code":79453},{"province":"Kalimantan Barat","city":"Sambas","district":"Pemangkat","urban":"Perapakan","postal_code":79453},{"province":"Kalimantan Barat","city":"Sambas","district":"Galing","urban":"Ratu Sepudak","postal_code":79453},{"province":"Kalimantan Barat","city":"Sambas","district":"Pemangkat","urban":"Pemangkat Kota","postal_code":79453},{"province":"Kalimantan Barat","city":"Sambas","district":"Pemangkat","urban":"Penjajap","postal_code":79453},{"province":"Kalimantan Barat","city":"Sambas","district":"Salatiga","urban":"Parit Baru","postal_code":79453},{"province":"Kalimantan Barat","city":"Sambas","district":"Pemangkat","urban":"Jelutung","postal_code":79453},{"province":"Kalimantan Barat","city":"Sambas","district":"Pemangkat","urban":"Harapan","postal_code":79453},{"province":"Kalimantan Barat","city":"Sambas","district":"Galing","urban":"Galing","postal_code":79453}]