[{"province":"Kalimantan Barat","city":"Sambas","district":"Sambas","urban":"Tumuk/Tumok Manggis","postal_code":79462},{"province":"Kalimantan Barat","city":"Sambas","district":"Sebawi","urban":"Tempatan","postal_code":79462},{"province":"Kalimantan Barat","city":"Sambas","district":"Sajad","urban":"Tengguli","postal_code":79462},{"province":"Kalimantan Barat","city":"Sambas","district":"Sebawi","urban":"Tebing Batu","postal_code":79462},{"province":"Kalimantan Barat","city":"Sambas","district":"Sambas","urban":"Tanjung Mekar","postal_code":79462},{"province":"Kalimantan Barat","city":"Sambas","district":"Sambas","urban":"Sumber Harapan","postal_code":79462},{"province":"Kalimantan Barat","city":"Sambas","district":"Sambas","urban":"Tanjung Bugis","postal_code":79462},{"province":"Kalimantan Barat","city":"Sambas","district":"Sebawi","urban":"Sempelai Sebedang","postal_code":79462},{"province":"Kalimantan Barat","city":"Sambas","district":"Sebawi","urban":"Sepuk Tanjung","postal_code":79462},{"province":"Kalimantan Barat","city":"Sambas","district":"Sambas","urban":"Sei/Sungai Rambah","postal_code":79462},{"province":"Kalimantan Barat","city":"Sambas","district":"Sambas","urban":"Semangau","postal_code":79462},{"province":"Kalimantan Barat","city":"Sambas","district":"Sebawi","urban":"Sebawi","postal_code":79462},{"province":"Kalimantan Barat","city":"Sambas","district":"Sambas","urban":"Sebayan","postal_code":79462},{"province":"Kalimantan Barat","city":"Sambas","district":"Sambas","urban":"Saing Rambi","postal_code":79462},{"province":"Kalimantan Barat","city":"Sambas","district":"Sebawi","urban":"Sebangun","postal_code":79462},{"province":"Kalimantan Barat","city":"Sambas","district":"Sambas","urban":"Pendawan","postal_code":79462},{"province":"Kalimantan Barat","city":"Sambas","district":"Sebawi","urban":"Rantau Panjang","postal_code":79462},{"province":"Kalimantan Barat","city":"Sambas","district":"Sambas","urban":"Pasar Melayu","postal_code":79462},{"province":"Kalimantan Barat","city":"Sambas","district":"Sajad","urban":"Mekar Jaya","postal_code":79462},{"province":"Kalimantan Barat","city":"Sambas","district":"Sambas","urban":"Lubuk Dagang","postal_code":79462},{"province":"Kalimantan Barat","city":"Sambas","district":"Sambas","urban":"Lumbang","postal_code":79462},{"province":"Kalimantan Barat","city":"Sambas","district":"Sambas","urban":"Kartiasa","postal_code":79462},{"province":"Kalimantan Barat","city":"Sambas","district":"Sambas","urban":"Lorong","postal_code":79462},{"province":"Kalimantan Barat","city":"Sambas","district":"Sambas","urban":"Jagur","postal_code":79462},{"province":"Kalimantan Barat","city":"Sambas","district":"Sajad","urban":"Jirak","postal_code":79462},{"province":"Kalimantan Barat","city":"Sambas","district":"Sambas","urban":"Gapura","postal_code":79462},{"province":"Kalimantan Barat","city":"Sambas","district":"Sambas","urban":"Durian","postal_code":79462},{"province":"Kalimantan Barat","city":"Sambas","district":"Sajad","urban":"Beringin","postal_code":79462},{"province":"Kalimantan Barat","city":"Sambas","district":"Sambas","urban":"Dalam Kaum","postal_code":79462}]