[{"province":"Kalimantan Barat","city":"Sekadau","district":"Belitang Hilir","urban":"Tapang Pulau","postal_code":79586},{"province":"Kalimantan Barat","city":"Sekadau","district":"Belitang Hilir","urban":"Sei/Sungai Ayak III","postal_code":79586},{"province":"Kalimantan Barat","city":"Sekadau","district":"Belitang Hilir","urban":"Semadu","postal_code":79586},{"province":"Kalimantan Barat","city":"Sekadau","district":"Belitang Hilir","urban":"Merbang","postal_code":79586},{"province":"Kalimantan Barat","city":"Sekadau","district":"Belitang Hilir","urban":"Sei/Sungai Ayak I","postal_code":79586},{"province":"Kalimantan Barat","city":"Sekadau","district":"Belitang Hilir","urban":"Menawai Tekam","postal_code":79586},{"province":"Kalimantan Barat","city":"Sekadau","district":"Belitang Hilir","urban":"Kumpang Bis","postal_code":79586},{"province":"Kalimantan Barat","city":"Sekadau","district":"Belitang Hilir","urban":"Empajak","postal_code":79586},{"province":"Kalimantan Barat","city":"Sekadau","district":"Belitang Hilir","urban":"Entabuk","postal_code":79586}]