[{"province":"Kalimantan Barat","city":"Melawi","district":"Tanah Pinoh Barat","urban":"Ulak Muid","postal_code":79674},{"province":"Kalimantan Barat","city":"Melawi","district":"Tanah Pinoh Barat","urban":"Togan Baru","postal_code":79674},{"province":"Kalimantan Barat","city":"Melawi","district":"Tanah Pinoh","urban":"Tanjung Beringin Raya","postal_code":79674},{"province":"Kalimantan Barat","city":"Melawi","district":"Tanah Pinoh","urban":"Tanjung Gunung","postal_code":79674},{"province":"Kalimantan Barat","city":"Melawi","district":"Tanah Pinoh","urban":"Pelita Kanaya","postal_code":79674},{"province":"Kalimantan Barat","city":"Melawi","district":"Tanah Pinoh","urban":"Suka Maju","postal_code":79674},{"province":"Kalimantan Barat","city":"Melawi","district":"Tanah Pinoh Barat","urban":"Pelita Jaya","postal_code":79674},{"province":"Kalimantan Barat","city":"Melawi","district":"Tanah Pinoh","urban":"Madong Raya","postal_code":79674},{"province":"Kalimantan Barat","city":"Melawi","district":"Tanah Pinoh","urban":"Maris Permai","postal_code":79674},{"province":"Kalimantan Barat","city":"Melawi","district":"Tanah Pinoh Barat","urban":"Lintah Taum","postal_code":79674},{"province":"Kalimantan Barat","city":"Melawi","district":"Tanah Pinoh","urban":"Loka Jaya","postal_code":79674},{"province":"Kalimantan Barat","city":"Melawi","district":"Tanah Pinoh Barat","urban":"Laja","postal_code":79674},{"province":"Kalimantan Barat","city":"Melawi","district":"Tanah Pinoh","urban":"Keranjik","postal_code":79674},{"province":"Kalimantan Barat","city":"Melawi","district":"Tanah Pinoh Barat","urban":"Keluas Hulu","postal_code":79674},{"province":"Kalimantan Barat","city":"Melawi","district":"Tanah Pinoh Barat","urban":"Harapan Jaya","postal_code":79674},{"province":"Kalimantan Barat","city":"Melawi","district":"Tanah Pinoh Barat","urban":"Ganjang","postal_code":79674},{"province":"Kalimantan Barat","city":"Melawi","district":"Tanah Pinoh Barat","urban":"Bukit Raya","postal_code":79674},{"province":"Kalimantan Barat","city":"Melawi","district":"Tanah Pinoh Barat","urban":"Durian Jaya","postal_code":79674},{"province":"Kalimantan Barat","city":"Melawi","district":"Tanah Pinoh","urban":"Bina Jaya","postal_code":79674},{"province":"Kalimantan Barat","city":"Melawi","district":"Tanah Pinoh","urban":"Bina Karya","postal_code":79674},{"province":"Kalimantan Barat","city":"Melawi","district":"Tanah Pinoh","urban":"Batu Begigi","postal_code":79674},{"province":"Kalimantan Barat","city":"Melawi","district":"Tanah Pinoh","urban":"Bata Luar","postal_code":79674}]