[{"province":"Kalimantan Barat","city":"Melawi","district":"Pinoh Utara","urban":"Tengkajau","postal_code":79672},{"province":"Kalimantan Barat","city":"Melawi","district":"Nanga Pinoh","urban":"Tembawang Panjang","postal_code":79672},{"province":"Kalimantan Barat","city":"Melawi","district":"Nanga Pinoh","urban":"Tanjung Tengang","postal_code":79672},{"province":"Kalimantan Barat","city":"Melawi","district":"Pinoh Utara","urban":"Tekelak","postal_code":79672},{"province":"Kalimantan Barat","city":"Melawi","district":"Nanga Pinoh","urban":"Tebing Karangan","postal_code":79672},{"province":"Kalimantan Barat","city":"Melawi","district":"Nanga Pinoh","urban":"Tanjung Sari","postal_code":79672},{"province":"Kalimantan Barat","city":"Melawi","district":"Nanga Pinoh","urban":"Tanjung Lay","postal_code":79672},{"province":"Kalimantan Barat","city":"Melawi","district":"Nanga Pinoh","urban":"Tanjung Niaga","postal_code":79672},{"province":"Kalimantan Barat","city":"Melawi","district":"Pinoh Utara","urban":"Tanjung Paoh","postal_code":79672},{"province":"Kalimantan Barat","city":"Melawi","district":"Pinoh Utara","urban":"Suka Damai","postal_code":79672},{"province":"Kalimantan Barat","city":"Melawi","district":"Pinoh Utara","urban":"Tanjung Arak","postal_code":79672},{"province":"Kalimantan Barat","city":"Melawi","district":"Nanga Pinoh","urban":"Sido Mulyo","postal_code":79672},{"province":"Kalimantan Barat","city":"Melawi","district":"Pinoh Utara","urban":"Senibung","postal_code":79672},{"province":"Kalimantan Barat","city":"Melawi","district":"Pinoh Selatan","urban":"Senempak","postal_code":79672},{"province":"Kalimantan Barat","city":"Melawi","district":"Pinoh Utara","urban":"Sei/Sungai Pinang","postal_code":79672},{"province":"Kalimantan Barat","city":"Melawi","district":"Nanga Pinoh","urban":"Semadin Lengkong","postal_code":79672},{"province":"Kalimantan Barat","city":"Melawi","district":"Pinoh Utara","urban":"Sei/Sungai Raya","postal_code":79672},{"province":"Kalimantan Barat","city":"Melawi","district":"Pinoh Selatan","urban":"Sei/Sungai Bakah","postal_code":79672},{"province":"Kalimantan Barat","city":"Melawi","district":"Nanga Pinoh","urban":"Poring","postal_code":79672},{"province":"Kalimantan Barat","city":"Melawi","district":"Pinoh Selatan","urban":"Pelinggang","postal_code":79672},{"province":"Kalimantan Barat","city":"Melawi","district":"Nanga Pinoh","urban":"Paal","postal_code":79672},{"province":"Kalimantan Barat","city":"Melawi","district":"Pinoh Selatan","urban":"Nyanggai","postal_code":79672},{"province":"Kalimantan Barat","city":"Melawi","district":"Nanga Pinoh","urban":"Nusa Pandau","postal_code":79672},{"province":"Kalimantan Barat","city":"Melawi","district":"Pinoh Utara","urban":"Natai Panjang","postal_code":79672},{"province":"Kalimantan Barat","city":"Melawi","district":"Pinoh Utara","urban":"Nanga Man","postal_code":79672},{"province":"Kalimantan Barat","city":"Melawi","district":"Pinoh Selatan","urban":"Nanga Kelawai","postal_code":79672},{"province":"Kalimantan Barat","city":"Melawi","district":"Pinoh Selatan","urban":"Nanga Pintas","postal_code":79672},{"province":"Kalimantan Barat","city":"Melawi","district":"Nanga Pinoh","urban":"Nanga Kayan","postal_code":79672},{"province":"Kalimantan Barat","city":"Melawi","district":"Nanga Pinoh","urban":"Nanga Kebebu","postal_code":79672},{"province":"Kalimantan Barat","city":"Melawi","district":"Pinoh Utara","urban":"Merpak","postal_code":79672},{"province":"Kalimantan Barat","city":"Melawi","district":"Pinoh Utara","urban":"Nanga Belimbing","postal_code":79672},{"province":"Kalimantan Barat","city":"Melawi","district":"Pinoh Utara","urban":"Melamut Bersatu","postal_code":79672},{"province":"Kalimantan Barat","city":"Melawi","district":"Pinoh Utara","urban":"Melawi Kiri Hilir","postal_code":79672},{"province":"Kalimantan Barat","city":"Melawi","district":"Pinoh Utara","urban":"Merah Atas","postal_code":79672},{"province":"Kalimantan Barat","city":"Melawi","district":"Pinoh Utara","urban":"Manding","postal_code":79672},{"province":"Kalimantan Barat","city":"Melawi","district":"Pinoh Selatan","urban":"Manggala","postal_code":79672},{"province":"Kalimantan Barat","city":"Melawi","district":"Pinoh Selatan","urban":"Landau Tubun","postal_code":79672},{"province":"Kalimantan Barat","city":"Melawi","district":"Pinoh Selatan","urban":"Mandau Baru","postal_code":79672},{"province":"Kalimantan Barat","city":"Melawi","district":"Pinoh Utara","urban":"Kompas Raya","postal_code":79672},{"province":"Kalimantan Barat","city":"Melawi","district":"Nanga Pinoh","urban":"Labai Mandiri","postal_code":79672},{"province":"Kalimantan Barat","city":"Melawi","district":"Pinoh Selatan","urban":"Landau Garong","postal_code":79672},{"province":"Kalimantan Barat","city":"Melawi","district":"Nanga Pinoh","urban":"Kelakik","postal_code":79672},{"province":"Kalimantan Barat","city":"Melawi","district":"Nanga Pinoh","urban":"Kenual","postal_code":79672},{"province":"Kalimantan Barat","city":"Melawi","district":"Pinoh Utara","urban":"Engkurai","postal_code":79672},{"province":"Kalimantan Barat","city":"Melawi","district":"Pinoh Utara","urban":"Kayan Semapau","postal_code":79672},{"province":"Kalimantan Barat","city":"Melawi","district":"Pinoh Selatan","urban":"Bina Jaya","postal_code":79672},{"province":"Kalimantan Barat","city":"Melawi","district":"Pinoh Selatan","urban":"Bayur Raya","postal_code":79672},{"province":"Kalimantan Barat","city":"Melawi","district":"Nanga Pinoh","urban":"Baru","postal_code":79672}]