[{"province":"Kalimantan Barat","city":"Melawi","district":"Menukung","urban":"Tanjung Beringin","postal_code":79682},{"province":"Kalimantan Barat","city":"Melawi","district":"Menukung","urban":"Pelaik Keruap","postal_code":79682},{"province":"Kalimantan Barat","city":"Melawi","district":"Menukung","urban":"Sei/Sungai Sampak","postal_code":79682},{"province":"Kalimantan Barat","city":"Melawi","district":"Menukung","urban":"Sei/Sungai Sampuk","postal_code":79682},{"province":"Kalimantan Barat","city":"Melawi","district":"Menukung","urban":"Nanga Siyai","postal_code":79682},{"province":"Kalimantan Barat","city":"Melawi","district":"Menukung","urban":"Nusa Poring","postal_code":79682},{"province":"Kalimantan Barat","city":"Melawi","district":"Menukung","urban":"Oyah","postal_code":79682},{"province":"Kalimantan Barat","city":"Melawi","district":"Menukung","urban":"Nanga Keruap","postal_code":79682},{"province":"Kalimantan Barat","city":"Melawi","district":"Menukung","urban":"Menukung Kota","postal_code":79682},{"province":"Kalimantan Barat","city":"Melawi","district":"Menukung","urban":"Lihai","postal_code":79682},{"province":"Kalimantan Barat","city":"Melawi","district":"Menukung","urban":"Mawang Mentatai","postal_code":79682},{"province":"Kalimantan Barat","city":"Melawi","district":"Menukung","urban":"Melona","postal_code":79682},{"province":"Kalimantan Barat","city":"Melawi","district":"Menukung","urban":"Ella Hulu (Nanga Ella Hulu)","postal_code":79682},{"province":"Kalimantan Barat","city":"Melawi","district":"Menukung","urban":"Laman Mumbung","postal_code":79682},{"province":"Kalimantan Barat","city":"Melawi","district":"Menukung","urban":"Landau Leban","postal_code":79682},{"province":"Kalimantan Barat","city":"Melawi","district":"Menukung","urban":"Batu Onap","postal_code":79682},{"province":"Kalimantan Barat","city":"Melawi","district":"Menukung","urban":"Belaban Ella","postal_code":79682},{"province":"Kalimantan Barat","city":"Melawi","district":"Menukung","urban":"Batu Badak","postal_code":79682},{"province":"Kalimantan Barat","city":"Melawi","district":"Menukung","urban":"Batas nangka","postal_code":79682}]