[{"province":"Kalimantan Barat","city":"Melawi","district":"Ella Hilir","urban":"Sungai Labu","postal_code":79681},{"province":"Kalimantan Barat","city":"Melawi","district":"Ella Hilir","urban":"Sungai Mentoba","postal_code":79681},{"province":"Kalimantan Barat","city":"Melawi","district":"Ella Hilir","urban":"Popai","postal_code":79681},{"province":"Kalimantan Barat","city":"Melawi","district":"Ella Hilir","urban":"Penyuguk","postal_code":79681},{"province":"Kalimantan Barat","city":"Melawi","district":"Ella Hilir","urban":"Perembang Nyuruh","postal_code":79681},{"province":"Kalimantan Barat","city":"Melawi","district":"Ella Hilir","urban":"Nyangau","postal_code":79681},{"province":"Kalimantan Barat","city":"Melawi","district":"Ella Hilir","urban":"Pelempai Jaya","postal_code":79681},{"province":"Kalimantan Barat","city":"Melawi","district":"Ella Hilir","urban":"Nanga Nyuruh","postal_code":79681},{"province":"Kalimantan Barat","city":"Melawi","district":"Ella Hilir","urban":"Nantai Compa","postal_code":79681},{"province":"Kalimantan Barat","city":"Melawi","district":"Ella Hilir","urban":"Nanga Kempangai","postal_code":79681},{"province":"Kalimantan Barat","city":"Melawi","district":"Ella Hilir","urban":"Nanga Nuak","postal_code":79681},{"province":"Kalimantan Barat","city":"Melawi","district":"Ella Hilir","urban":"Nanga Ella Hilir","postal_code":79681},{"province":"Kalimantan Barat","city":"Melawi","district":"Ella Hilir","urban":"Nanga Kalan","postal_code":79681},{"province":"Kalimantan Barat","city":"Melawi","district":"Ella Hilir","urban":"Kerangan Kora","postal_code":79681},{"province":"Kalimantan Barat","city":"Melawi","district":"Ella Hilir","urban":"Lengkong Nyadom","postal_code":79681},{"province":"Kalimantan Barat","city":"Melawi","district":"Ella Hilir","urban":"Jabai","postal_code":79681},{"province":"Kalimantan Barat","city":"Melawi","district":"Ella Hilir","urban":"Kahiya","postal_code":79681},{"province":"Kalimantan Barat","city":"Melawi","district":"Ella Hilir","urban":"Bemban Permai","postal_code":79681},{"province":"Kalimantan Barat","city":"Melawi","district":"Ella Hilir","urban":"Domet Permai","postal_code":79681}]