[{"province":"Bali","city":"Badung","district":"Abiansemal","urban":"Sibang Kaja","postal_code":80352},{"province":"Bali","city":"Badung","district":"Abiansemal","urban":"Taman","postal_code":80352},{"province":"Bali","city":"Badung","district":"Abiansemal","urban":"Selat","postal_code":80352},{"province":"Bali","city":"Badung","district":"Abiansemal","urban":"Sibang Gede","postal_code":80352},{"province":"Bali","city":"Badung","district":"Abiansemal","urban":"Mambal","postal_code":80352},{"province":"Bali","city":"Badung","district":"Abiansemal","urban":"Punggul","postal_code":80352},{"province":"Bali","city":"Badung","district":"Abiansemal","urban":"Mekar Bhuwana","postal_code":80352},{"province":"Bali","city":"Badung","district":"Abiansemal","urban":"Sangeh","postal_code":80352},{"province":"Bali","city":"Badung","district":"Abiansemal","urban":"Dauh Yeh Cani","postal_code":80352},{"province":"Bali","city":"Badung","district":"Abiansemal","urban":"Sedang","postal_code":80352},{"province":"Bali","city":"Badung","district":"Abiansemal","urban":"Jagapati","postal_code":80352},{"province":"Bali","city":"Badung","district":"Abiansemal","urban":"Bongkasa","postal_code":80352},{"province":"Bali","city":"Badung","district":"Abiansemal","urban":"Bongkasa Pertiwi","postal_code":80352},{"province":"Bali","city":"Badung","district":"Abiansemal","urban":"Darmasaba","postal_code":80352},{"province":"Bali","city":"Badung","district":"Abiansemal","urban":"Ayunan","postal_code":80352},{"province":"Bali","city":"Badung","district":"Abiansemal","urban":"Blahkiuh","postal_code":80352},{"province":"Bali","city":"Badung","district":"Abiansemal","urban":"Abiansemal","postal_code":80352},{"province":"Bali","city":"Badung","district":"Abiansemal","urban":"Angantaka","postal_code":80352}]