[{"province":"Bali","city":"Badung","district":"Kuta Selatan","urban":"Ungasan","postal_code":80361},{"province":"Bali","city":"Badung","district":"Kuta","urban":"Tuban","postal_code":80361},{"province":"Bali","city":"Badung","district":"Kuta Utara","urban":"Tibubeneng","postal_code":80361},{"province":"Bali","city":"Badung","district":"Kuta Selatan","urban":"Tanjung Benoa","postal_code":80361},{"province":"Bali","city":"Badung","district":"Kuta","urban":"Legian","postal_code":80361},{"province":"Bali","city":"Badung","district":"Kuta","urban":"Seminyak","postal_code":80361},{"province":"Bali","city":"Badung","district":"Kuta Selatan","urban":"Pecatu","postal_code":80361},{"province":"Bali","city":"Badung","district":"Kuta","urban":"Kuta","postal_code":80361},{"province":"Bali","city":"Badung","district":"Kuta Selatan","urban":"Kutuh","postal_code":80361},{"province":"Bali","city":"Badung","district":"Kuta Utara","urban":"Kerobokan Kelod","postal_code":80361},{"province":"Bali","city":"Badung","district":"Kuta Utara","urban":"Kerobokan Kaja","postal_code":80361},{"province":"Bali","city":"Badung","district":"Kuta Utara","urban":"Kerobokan Kaja","postal_code":80361},{"province":"Bali","city":"Badung","district":"Kuta","urban":"Kedonganan","postal_code":80361},{"province":"Bali","city":"Badung","district":"Kuta Selatan","urban":"Jimbaran","postal_code":80361},{"province":"Bali","city":"Badung","district":"Kuta Utara","urban":"Canggu","postal_code":80361},{"province":"Bali","city":"Badung","district":"Kuta Utara","urban":"Dalung","postal_code":80361},{"province":"Bali","city":"Badung","district":"Kuta Selatan","urban":"Benoa","postal_code":80361}]