[{"province":"Bali","city":"Klungkung","district":"Nusapenida","urban":"Suana","postal_code":80771},{"province":"Bali","city":"Klungkung","district":"Nusapenida","urban":"Tanglad","postal_code":80771},{"province":"Bali","city":"Klungkung","district":"Nusapenida","urban":"Sekartaji","postal_code":80771},{"province":"Bali","city":"Klungkung","district":"Nusapenida","urban":"Sakti","postal_code":80771},{"province":"Bali","city":"Klungkung","district":"Nusapenida","urban":"Ped","postal_code":80771},{"province":"Bali","city":"Klungkung","district":"Nusapenida","urban":"Pejukutan","postal_code":80771},{"province":"Bali","city":"Klungkung","district":"Nusapenida","urban":"Lembongan","postal_code":80771},{"province":"Bali","city":"Klungkung","district":"Nusapenida","urban":"Kutampi Kaler","postal_code":80771},{"province":"Bali","city":"Klungkung","district":"Nusapenida","urban":"Klumpu","postal_code":80771},{"province":"Bali","city":"Klungkung","district":"Nusapenida","urban":"Kutampi","postal_code":80771},{"province":"Bali","city":"Klungkung","district":"Nusapenida","urban":"Kampung Toyapakeh","postal_code":80771},{"province":"Bali","city":"Klungkung","district":"Nusapenida","urban":"Jungutbatu","postal_code":80771},{"province":"Bali","city":"Klungkung","district":"Nusapenida","urban":"Batununggul","postal_code":80771},{"province":"Bali","city":"Klungkung","district":"Nusapenida","urban":"Bunga Mekar","postal_code":80771},{"province":"Bali","city":"Klungkung","district":"Nusapenida","urban":"Batukandik","postal_code":80771},{"province":"Bali","city":"Klungkung","district":"Nusapenida","urban":"Batumadeg","postal_code":80771}]