[{"province":"Bali","city":"Karangasem","district":"Sidemen","urban":"Wisma Kerta","postal_code":80864},{"province":"Bali","city":"Karangasem","district":"Sidemen","urban":"Telaga Tawang","postal_code":80864},{"province":"Bali","city":"Karangasem","district":"Sidemen","urban":"Tri Eka Buana","postal_code":80864},{"province":"Bali","city":"Karangasem","district":"Sidemen","urban":"Sindu Wati","postal_code":80864},{"province":"Bali","city":"Karangasem","district":"Sidemen","urban":"Talibeng","postal_code":80864},{"province":"Bali","city":"Karangasem","district":"Sidemen","urban":"Tangkup","postal_code":80864},{"province":"Bali","city":"Karangasem","district":"Sidemen","urban":"Sangkan Gunung","postal_code":80864},{"province":"Bali","city":"Karangasem","district":"Sidemen","urban":"Sidemen","postal_code":80864},{"province":"Bali","city":"Karangasem","district":"Sidemen","urban":"Lokasari","postal_code":80864},{"province":"Bali","city":"Karangasem","district":"Sidemen","urban":"Kertha Buana","postal_code":80864}]