[{"province":"Bali","city":"Karangasem","district":"Manggis","urban":"Sengkidu","postal_code":80871},{"province":"Bali","city":"Karangasem","district":"Manggis","urban":"Tenganan","postal_code":80871},{"province":"Bali","city":"Karangasem","district":"Manggis","urban":"Ulakan","postal_code":80871},{"province":"Bali","city":"Karangasem","district":"Manggis","urban":"Padangbai","postal_code":80871},{"province":"Bali","city":"Karangasem","district":"Manggis","urban":"Pesedahan","postal_code":80871},{"province":"Bali","city":"Karangasem","district":"Manggis","urban":"Selumbung","postal_code":80871},{"province":"Bali","city":"Karangasem","district":"Manggis","urban":"Manggis","postal_code":80871},{"province":"Bali","city":"Karangasem","district":"Manggis","urban":"Antiga Kelod","postal_code":80871},{"province":"Bali","city":"Karangasem","district":"Manggis","urban":"Ngis","postal_code":80871},{"province":"Bali","city":"Karangasem","district":"Manggis","urban":"Nyuh Tebel","postal_code":80871},{"province":"Bali","city":"Karangasem","district":"Manggis","urban":"Antiga","postal_code":80871},{"province":"Bali","city":"Karangasem","district":"Manggis","urban":"Antiga Kelod","postal_code":80871}]