[{"province":"Bali","city":"Buleleng","district":"Buleleng","urban":"Tukadmungga","postal_code":81119},{"province":"Bali","city":"Buleleng","district":"Buleleng","urban":"Petandakan","postal_code":81119},{"province":"Bali","city":"Buleleng","district":"Buleleng","urban":"Poh Bergong","postal_code":81119},{"province":"Bali","city":"Buleleng","district":"Buleleng","urban":"Sari Mekar","postal_code":81119},{"province":"Bali","city":"Buleleng","district":"Buleleng","urban":"Penarukan","postal_code":81119},{"province":"Bali","city":"Buleleng","district":"Buleleng","urban":"Penglatan","postal_code":81119},{"province":"Bali","city":"Buleleng","district":"Buleleng","urban":"Liligundi","postal_code":81119},{"province":"Bali","city":"Buleleng","district":"Buleleng","urban":"Nagasepaha","postal_code":81119},{"province":"Bali","city":"Buleleng","district":"Buleleng","urban":"Pemaron","postal_code":81119},{"province":"Bali","city":"Buleleng","district":"Buleleng","urban":"Jinengdalem","postal_code":81119},{"province":"Bali","city":"Buleleng","district":"Buleleng","urban":"Kalibukbuk","postal_code":81119},{"province":"Bali","city":"Buleleng","district":"Buleleng","urban":"Beratan","postal_code":81119},{"province":"Bali","city":"Buleleng","district":"Buleleng","urban":"Bhakti Seraga (Baktiseraga)","postal_code":81119},{"province":"Bali","city":"Buleleng","district":"Buleleng","urban":"Banyuning","postal_code":81119},{"province":"Bali","city":"Buleleng","district":"Buleleng","urban":"Alasangker","postal_code":81119},{"province":"Bali","city":"Buleleng","district":"Buleleng","urban":"Anturan","postal_code":81119}]