[{"province":"Bali","city":"Buleleng","district":"Seririt","urban":"Unggahan","postal_code":81153},{"province":"Bali","city":"Buleleng","district":"Seririt","urban":"Ularan","postal_code":81153},{"province":"Bali","city":"Buleleng","district":"Seririt","urban":"Umeanyar","postal_code":81153},{"province":"Bali","city":"Buleleng","district":"Seririt","urban":"Tangguwisia","postal_code":81153},{"province":"Bali","city":"Buleleng","district":"Seririt","urban":"Seririt","postal_code":81153},{"province":"Bali","city":"Buleleng","district":"Seririt","urban":"Sulanyah","postal_code":81153},{"province":"Bali","city":"Buleleng","district":"Seririt","urban":"Rangdu","postal_code":81153},{"province":"Bali","city":"Buleleng","district":"Seririt","urban":"Ringdikit","postal_code":81153},{"province":"Bali","city":"Buleleng","district":"Seririt","urban":"Pangkungparuk","postal_code":81153},{"province":"Bali","city":"Buleleng","district":"Seririt","urban":"Patemoh (Patemon)","postal_code":81153},{"province":"Bali","city":"Buleleng","district":"Seririt","urban":"Pengastulan","postal_code":81153},{"province":"Bali","city":"Buleleng","district":"Seririt","urban":"Mayong","postal_code":81153},{"province":"Bali","city":"Buleleng","district":"Seririt","urban":"Munduk Bestala","postal_code":81153},{"province":"Bali","city":"Buleleng","district":"Seririt","urban":"Kalianget","postal_code":81153},{"province":"Bali","city":"Buleleng","district":"Seririt","urban":"Kalisada","postal_code":81153},{"province":"Bali","city":"Buleleng","district":"Seririt","urban":"Bubunan","postal_code":81153},{"province":"Bali","city":"Buleleng","district":"Seririt","urban":"Lokapaksa","postal_code":81153},{"province":"Bali","city":"Buleleng","district":"Seririt","urban":"Banjar Asem","postal_code":81153},{"province":"Bali","city":"Buleleng","district":"Seririt","urban":"Gunungsari","postal_code":81153},{"province":"Bali","city":"Buleleng","district":"Seririt","urban":"Bestala","postal_code":81153},{"province":"Bali","city":"Buleleng","district":"Seririt","urban":"Joanyar","postal_code":81153}]