[{"province":"Bali","city":"Tabanan","district":"Kediri","urban":"Pangkung Tibah","postal_code":82121},{"province":"Bali","city":"Tabanan","district":"Kediri","urban":"Pejaten","postal_code":82121},{"province":"Bali","city":"Tabanan","district":"Kediri","urban":"Pandak Bandung","postal_code":82121},{"province":"Bali","city":"Tabanan","district":"Kediri","urban":"Pandak Gede","postal_code":82121},{"province":"Bali","city":"Tabanan","district":"Kediri","urban":"Nyambu","postal_code":82121},{"province":"Bali","city":"Tabanan","district":"Kediri","urban":"Nyitdah","postal_code":82121},{"province":"Bali","city":"Tabanan","district":"Kediri","urban":"Kaba-Kaba","postal_code":82121},{"province":"Bali","city":"Tabanan","district":"Kediri","urban":"Kediri","postal_code":82121},{"province":"Bali","city":"Tabanan","district":"Kediri","urban":"Buwit","postal_code":82121},{"province":"Bali","city":"Tabanan","district":"Kediri","urban":"Cepaka","postal_code":82121},{"province":"Bali","city":"Tabanan","district":"Kediri","urban":"Bengkel","postal_code":82121},{"province":"Bali","city":"Tabanan","district":"Kediri","urban":"Beraban","postal_code":82121},{"province":"Bali","city":"Tabanan","district":"Kediri","urban":"Abian Tuwung","postal_code":82121},{"province":"Bali","city":"Tabanan","district":"Kediri","urban":"Belalang","postal_code":82121}]