[{"province":"Bali","city":"Tabanan","district":"Penebel","urban":"Tegalinggah","postal_code":82152},{"province":"Bali","city":"Tabanan","district":"Penebel","urban":"Tengkudak","postal_code":82152},{"province":"Bali","city":"Tabanan","district":"Penebel","urban":"Wongaya Gede","postal_code":82152},{"province":"Bali","city":"Tabanan","district":"Penebel","urban":"Senganan","postal_code":82152},{"province":"Bali","city":"Tabanan","district":"Penebel","urban":"Tajen","postal_code":82152},{"province":"Bali","city":"Tabanan","district":"Penebel","urban":"Sangketan","postal_code":82152},{"province":"Bali","city":"Tabanan","district":"Penebel","urban":"Rejasa","postal_code":82152},{"province":"Bali","city":"Tabanan","district":"Penebel","urban":"Riang Gede","postal_code":82152},{"province":"Bali","city":"Tabanan","district":"Penebel","urban":"Pesagi","postal_code":82152},{"province":"Bali","city":"Tabanan","district":"Penebel","urban":"Pitra","postal_code":82152},{"province":"Bali","city":"Tabanan","district":"Penebel","urban":"Penatahan","postal_code":82152},{"province":"Bali","city":"Tabanan","district":"Penebel","urban":"Penebel","postal_code":82152},{"province":"Bali","city":"Tabanan","district":"Penebel","urban":"Jatiluwih","postal_code":82152},{"province":"Bali","city":"Tabanan","district":"Penebel","urban":"Jegu","postal_code":82152},{"province":"Bali","city":"Tabanan","district":"Penebel","urban":"Mengeste","postal_code":82152},{"province":"Bali","city":"Tabanan","district":"Penebel","urban":"Buruan","postal_code":82152},{"province":"Bali","city":"Tabanan","district":"Penebel","urban":"Babahan","postal_code":82152},{"province":"Bali","city":"Tabanan","district":"Penebel","urban":"Biaung","postal_code":82152}]