[{"province":"Bali","city":"Tabanan","district":"Selemadeg","urban":"Wanagiri Kauh","postal_code":82162},{"province":"Bali","city":"Tabanan","district":"Selemadeg","urban":"Wanagiri","postal_code":82162},{"province":"Bali","city":"Tabanan","district":"Selemadeg / Salemadeg Barat","urban":"Tiying Gading","postal_code":82162},{"province":"Bali","city":"Tabanan","district":"Selemadeg / Salamadeg Timur","urban":"Tangguntiti","postal_code":82162},{"province":"Bali","city":"Tabanan","district":"Selemadeg / Salamadeg Timur","urban":"Tegal Mengkeb","postal_code":82162},{"province":"Bali","city":"Tabanan","district":"Selemadeg","urban":"Selemadeg","postal_code":82162},{"province":"Bali","city":"Tabanan","district":"Selemadeg","urban":"Serampingan","postal_code":82162},{"province":"Bali","city":"Tabanan","district":"Selemadeg","urban":"Pupuan Sawah","postal_code":82162},{"province":"Bali","city":"Tabanan","district":"Selemadeg / Salemadeg Barat","urban":"Selabih","postal_code":82162},{"province":"Bali","city":"Tabanan","district":"Selemadeg / Salemadeg Barat","urban":"Mundeh","postal_code":82162},{"province":"Bali","city":"Tabanan","district":"Selemadeg / Salemadeg Barat","urban":"Mundeh Kangin","postal_code":82162},{"province":"Bali","city":"Tabanan","district":"Selemadeg / Salemadeg Barat","urban":"Mundeh Kauh","postal_code":82162},{"province":"Bali","city":"Tabanan","district":"Selemadeg / Salamadeg Timur","urban":"Megati","postal_code":82162},{"province":"Bali","city":"Tabanan","district":"Selemadeg","urban":"Manikyang","postal_code":82162},{"province":"Bali","city":"Tabanan","district":"Selemadeg / Salamadeg Timur","urban":"Mambang","postal_code":82162},{"province":"Bali","city":"Tabanan","district":"Selemadeg / Salemadeg Barat","urban":"Lumbung Kauh","postal_code":82162},{"province":"Bali","city":"Tabanan","district":"Selemadeg / Salemadeg Barat","urban":"Lumbung","postal_code":82162},{"province":"Bali","city":"Tabanan","district":"Selemadeg / Salamadeg Timur","urban":"Gunung Salak","postal_code":82162},{"province":"Bali","city":"Tabanan","district":"Selemadeg / Salemadeg Barat","urban":"Lalang Linggah","postal_code":82162},{"province":"Bali","city":"Tabanan","district":"Selemadeg / Salamadeg Timur","urban":"Gadung Sari","postal_code":82162},{"province":"Bali","city":"Tabanan","district":"Selemadeg / Salamadeg Timur","urban":"Gadungan","postal_code":82162},{"province":"Bali","city":"Tabanan","district":"Selemadeg / Salamadeg Timur","urban":"Beraban","postal_code":82162},{"province":"Bali","city":"Tabanan","district":"Selemadeg / Salamadeg Timur","urban":"Dalang","postal_code":82162},{"province":"Bali","city":"Tabanan","district":"Selemadeg","urban":"Berembeng","postal_code":82162},{"province":"Bali","city":"Tabanan","district":"Selemadeg / Salemadeg Barat","urban":"Bengkel Sari","postal_code":82162},{"province":"Bali","city":"Tabanan","district":"Selemadeg","urban":"Bajera Utara","postal_code":82162},{"province":"Bali","city":"Tabanan","district":"Selemadeg / Salamadeg Timur","urban":"Bantas","postal_code":82162},{"province":"Bali","city":"Tabanan","district":"Selemadeg","urban":"Bajera","postal_code":82162},{"province":"Bali","city":"Tabanan","district":"Selemadeg / Salemadeg Barat","urban":"Antosari","postal_code":82162},{"province":"Bali","city":"Tabanan","district":"Selemadeg","urban":"Antap","postal_code":82162},{"province":"Bali","city":"Tabanan","district":"Selemadeg / Salemadeg Barat","urban":"Angkah","postal_code":82162}]