[{"province":"Bali","city":"Tabanan","district":"Marga","urban":"Tegaljadi","postal_code":82181},{"province":"Bali","city":"Tabanan","district":"Marga","urban":"Tua","postal_code":82181},{"province":"Bali","city":"Tabanan","district":"Marga","urban":"Peken Belayu","postal_code":82181},{"province":"Bali","city":"Tabanan","district":"Marga","urban":"Petiga","postal_code":82181},{"province":"Bali","city":"Tabanan","district":"Marga","urban":"Selanbawak","postal_code":82181},{"province":"Bali","city":"Tabanan","district":"Marga","urban":"Marga Dauh Puri","postal_code":82181},{"province":"Bali","city":"Tabanan","district":"Marga","urban":"Payangan","postal_code":82181},{"province":"Bali","city":"Tabanan","district":"Marga","urban":"Marga","postal_code":82181},{"province":"Bali","city":"Tabanan","district":"Marga","urban":"Marga Dajan Puri","postal_code":82181},{"province":"Bali","city":"Tabanan","district":"Marga","urban":"Kukuh","postal_code":82181},{"province":"Bali","city":"Tabanan","district":"Marga","urban":"Kuwum","postal_code":82181},{"province":"Bali","city":"Tabanan","district":"Marga","urban":"Beringkit","postal_code":82181},{"province":"Bali","city":"Tabanan","district":"Marga","urban":"Caubelayu","postal_code":82181},{"province":"Bali","city":"Tabanan","district":"Marga","urban":"Geluntung","postal_code":82181},{"province":"Bali","city":"Tabanan","district":"Marga","urban":"Batannyuh","postal_code":82181}]