[{"province":"Bali","city":"Jembrana","district":"Negara","urban":"Tegal Badeng Timur","postal_code":82218},{"province":"Bali","city":"Jembrana","district":"Jembrana","urban":"Yeh Kuning","postal_code":82218},{"province":"Bali","city":"Jembrana","district":"Negara","urban":"Tegal Badeng Barat","postal_code":82218},{"province":"Bali","city":"Jembrana","district":"Negara","urban":"Pengambengan","postal_code":82218},{"province":"Bali","city":"Jembrana","district":"Jembrana","urban":"Perancak","postal_code":82218},{"province":"Bali","city":"Jembrana","district":"Jembrana","urban":"Sangkaragung","postal_code":82218},{"province":"Bali","city":"Jembrana","district":"Negara","urban":"Kaliakah","postal_code":82218},{"province":"Bali","city":"Jembrana","district":"Jembrana","urban":"Dauhwaru","postal_code":82218},{"province":"Bali","city":"Jembrana","district":"Negara","urban":"Cupel","postal_code":82218},{"province":"Bali","city":"Jembrana","district":"Jembrana","urban":"Budeng","postal_code":82218},{"province":"Bali","city":"Jembrana","district":"Jembrana","urban":"Dangin Tukadaya","postal_code":82218},{"province":"Bali","city":"Jembrana","district":"Negara","urban":"Banyubiru","postal_code":82218},{"province":"Bali","city":"Jembrana","district":"Negara","urban":"Berangbang","postal_code":82218},{"province":"Bali","city":"Jembrana","district":"Jembrana","urban":"Batuagung","postal_code":82218},{"province":"Bali","city":"Jembrana","district":"Negara","urban":"Baluk","postal_code":82218},{"province":"Bali","city":"Jembrana","district":"Jembrana","urban":"Air Kuning","postal_code":82218}]