[{"province":"Nusa Tenggara Barat","city":"Lombok Utara","district":"Kayangan","urban":"Selengen","postal_code":83353},{"province":"Nusa Tenggara Barat","city":"Lombok Utara","district":"Kayangan","urban":"Sesait","postal_code":83353},{"province":"Nusa Tenggara Barat","city":"Lombok Utara","district":"Gangga","urban":"Sambik Bangkol","postal_code":83353},{"province":"Nusa Tenggara Barat","city":"Lombok Utara","district":"Kayangan","urban":"Santong","postal_code":83353},{"province":"Nusa Tenggara Barat","city":"Lombok Utara","district":"Gangga","urban":"Rempek","postal_code":83353},{"province":"Nusa Tenggara Barat","city":"Lombok Utara","district":"Kayangan","urban":"Salut","postal_code":83353},{"province":"Nusa Tenggara Barat","city":"Lombok Utara","district":"Kayangan","urban":"Kayangan","postal_code":83353},{"province":"Nusa Tenggara Barat","city":"Lombok Utara","district":"Kayangan","urban":"Pendua","postal_code":83353},{"province":"Nusa Tenggara Barat","city":"Lombok Utara","district":"Gangga","urban":"Gondang","postal_code":83353},{"province":"Nusa Tenggara Barat","city":"Lombok Utara","district":"Kayangan","urban":"Gumantar","postal_code":83353},{"province":"Nusa Tenggara Barat","city":"Lombok Utara","district":"Kayangan","urban":"Dangiang","postal_code":83353},{"province":"Nusa Tenggara Barat","city":"Lombok Utara","district":"Gangga","urban":"Genggelang","postal_code":83353},{"province":"Nusa Tenggara Barat","city":"Lombok Utara","district":"Gangga","urban":"Bentek","postal_code":83353}]