[{"province":"Nusa Tenggara Barat","city":"Lombok Utara","district":"Tanjung","urban":"Tegal Maja","postal_code":83352},{"province":"Nusa Tenggara Barat","city":"Lombok Utara","district":"Tanjung","urban":"Teniga","postal_code":83352},{"province":"Nusa Tenggara Barat","city":"Lombok Utara","district":"Tanjung","urban":"Tanjung","postal_code":83352},{"province":"Nusa Tenggara Barat","city":"Lombok Utara","district":"Pemenang","urban":"Pemenang Timur","postal_code":83352},{"province":"Nusa Tenggara Barat","city":"Lombok Utara","district":"Tanjung","urban":"Sigar Penjalin (Pinjalin)","postal_code":83352},{"province":"Nusa Tenggara Barat","city":"Lombok Utara","district":"Tanjung","urban":"Sokong","postal_code":83352},{"province":"Nusa Tenggara Barat","city":"Lombok Utara","district":"Pemenang","urban":"Pemenang Barat","postal_code":83352},{"province":"Nusa Tenggara Barat","city":"Lombok Utara","district":"Tanjung","urban":"Medana","postal_code":83352},{"province":"Nusa Tenggara Barat","city":"Lombok Utara","district":"Pemenang","urban":"Malaka","postal_code":83352},{"province":"Nusa Tenggara Barat","city":"Lombok Utara","district":"Tanjung","urban":"Jenggala","postal_code":83352},{"province":"Nusa Tenggara Barat","city":"Lombok Utara","district":"Pemenang","urban":"Gili Indah","postal_code":83352}]