[{"province":"Nusa Tenggara Barat","city":"Lombok Tengah","district":"Batukliang Utara","urban":"Tanak Beak","postal_code":83552},{"province":"Nusa Tenggara Barat","city":"Lombok Tengah","district":"Batukliang Utara","urban":"Teratak","postal_code":83552},{"province":"Nusa Tenggara Barat","city":"Lombok Tengah","district":"Batukliang","urban":"Tampak Siring","postal_code":83552},{"province":"Nusa Tenggara Barat","city":"Lombok Tengah","district":"Batukliang Utara","urban":"Setiling","postal_code":83552},{"province":"Nusa Tenggara Barat","city":"Lombok Tengah","district":"Batukliang","urban":"Peresak","postal_code":83552},{"province":"Nusa Tenggara Barat","city":"Lombok Tengah","district":"Batukliang","urban":"Selebung","postal_code":83552},{"province":"Nusa Tenggara Barat","city":"Lombok Tengah","district":"Batukliang","urban":"Pagutan","postal_code":83552},{"province":"Nusa Tenggara Barat","city":"Lombok Tengah","district":"Batukliang Utara","urban":"Mas-Mas","postal_code":83552},{"province":"Nusa Tenggara Barat","city":"Lombok Tengah","district":"Batukliang","urban":"Mantang","postal_code":83552},{"province":"Nusa Tenggara Barat","city":"Lombok Tengah","district":"Batukliang Utara","urban":"Lantan","postal_code":83552},{"province":"Nusa Tenggara Barat","city":"Lombok Tengah","district":"Batukliang Utara","urban":"Karang Sidemen","postal_code":83552},{"province":"Nusa Tenggara Barat","city":"Lombok Tengah","district":"Batukliang","urban":"Bujak","postal_code":83552},{"province":"Nusa Tenggara Barat","city":"Lombok Tengah","district":"Batukliang","urban":"Barabali","postal_code":83552},{"province":"Nusa Tenggara Barat","city":"Lombok Tengah","district":"Batukliang","urban":"Beber","postal_code":83552},{"province":"Nusa Tenggara Barat","city":"Lombok Tengah","district":"Batukliang","urban":"Aik Darek (Aiq Dareq)","postal_code":83552},{"province":"Nusa Tenggara Barat","city":"Lombok Tengah","district":"Batukliang Utara","urban":"Aik Berik","postal_code":83552},{"province":"Nusa Tenggara Barat","city":"Lombok Tengah","district":"Batukliang Utara","urban":"Aik Bukak (Bukaq)","postal_code":83552}]