[{"province":"Nusa Tenggara Barat","city":"Lombok Tengah","district":"Janapria","urban":"Saba","postal_code":83554},{"province":"Nusa Tenggara Barat","city":"Lombok Tengah","district":"Janapria","urban":"Selebung Rembiga","postal_code":83554},{"province":"Nusa Tenggara Barat","city":"Lombok Tengah","district":"Janapria","urban":"Loangmaka","postal_code":83554},{"province":"Nusa Tenggara Barat","city":"Lombok Tengah","district":"Janapria","urban":"Pendem","postal_code":83554},{"province":"Nusa Tenggara Barat","city":"Lombok Tengah","district":"Janapria","urban":"Langko","postal_code":83554},{"province":"Nusa Tenggara Barat","city":"Lombok Tengah","district":"Janapria","urban":"Lekor","postal_code":83554},{"province":"Nusa Tenggara Barat","city":"Lombok Tengah","district":"Janapria","urban":"Janapria","postal_code":83554},{"province":"Nusa Tenggara Barat","city":"Lombok Tengah","district":"Janapria","urban":"Kerembong","postal_code":83554},{"province":"Nusa Tenggara Barat","city":"Lombok Tengah","district":"Janapria","urban":"Durian","postal_code":83554},{"province":"Nusa Tenggara Barat","city":"Lombok Tengah","district":"Janapria","urban":"Bakan","postal_code":83554}]