[{"province":"Nusa Tenggara Barat","city":"Lombok Tengah","district":"Kopang","urban":"Waja Geseng","postal_code":83553},{"province":"Nusa Tenggara Barat","city":"Lombok Tengah","district":"Kopang","urban":"Montong Gamang","postal_code":83553},{"province":"Nusa Tenggara Barat","city":"Lombok Tengah","district":"Kopang","urban":"Muncan","postal_code":83553},{"province":"Nusa Tenggara Barat","city":"Lombok Tengah","district":"Kopang","urban":"Kopang Rembiga","postal_code":83553},{"province":"Nusa Tenggara Barat","city":"Lombok Tengah","district":"Kopang","urban":"Lendang Ara","postal_code":83553},{"province":"Nusa Tenggara Barat","city":"Lombok Tengah","district":"Kopang","urban":"Monggas","postal_code":83553},{"province":"Nusa Tenggara Barat","city":"Lombok Tengah","district":"Kopang","urban":"Darmaji","postal_code":83553},{"province":"Nusa Tenggara Barat","city":"Lombok Tengah","district":"Kopang","urban":"Dasan Baru","postal_code":83553},{"province":"Nusa Tenggara Barat","city":"Lombok Tengah","district":"Kopang","urban":"Bebuak","postal_code":83553}]