[{"province":"Nusa Tenggara Barat","city":"Lombok Tengah","district":"Jonggat","urban":"Sukarara","postal_code":83561},{"province":"Nusa Tenggara Barat","city":"Lombok Tengah","district":"Jonggat","urban":"Ubung","postal_code":83561},{"province":"Nusa Tenggara Barat","city":"Lombok Tengah","district":"Jonggat","urban":"Pengenjek","postal_code":83561},{"province":"Nusa Tenggara Barat","city":"Lombok Tengah","district":"Jonggat","urban":"Perina","postal_code":83561},{"province":"Nusa Tenggara Barat","city":"Lombok Tengah","district":"Jonggat","urban":"Puyung","postal_code":83561},{"province":"Nusa Tenggara Barat","city":"Lombok Tengah","district":"Jonggat","urban":"Labulia","postal_code":83561},{"province":"Nusa Tenggara Barat","city":"Lombok Tengah","district":"Jonggat","urban":"Labulia","postal_code":83561},{"province":"Nusa Tenggara Barat","city":"Lombok Tengah","district":"Jonggat","urban":"Gemel","postal_code":83561},{"province":"Nusa Tenggara Barat","city":"Lombok Tengah","district":"Jonggat","urban":"Jelantik","postal_code":83561},{"province":"Nusa Tenggara Barat","city":"Lombok Tengah","district":"Jonggat","urban":"Bonjeruk","postal_code":83561},{"province":"Nusa Tenggara Barat","city":"Lombok Tengah","district":"Jonggat","urban":"Bunkate","postal_code":83561},{"province":"Nusa Tenggara Barat","city":"Lombok Tengah","district":"Jonggat","urban":"Barejulat","postal_code":83561},{"province":"Nusa Tenggara Barat","city":"Lombok Tengah","district":"Jonggat","urban":"Batutulis","postal_code":83561}]