[{"province":"Nusa Tenggara Barat","city":"Lombok Tengah","district":"Pujut","urban":"Tumpak","postal_code":83573},{"province":"Nusa Tenggara Barat","city":"Lombok Tengah","district":"Pujut","urban":"Tanak Awu","postal_code":83573},{"province":"Nusa Tenggara Barat","city":"Lombok Tengah","district":"Pujut","urban":"Teruwai","postal_code":83573},{"province":"Nusa Tenggara Barat","city":"Lombok Tengah","district":"Pujut","urban":"Segale Anyar","postal_code":83573},{"province":"Nusa Tenggara Barat","city":"Lombok Tengah","district":"Pujut","urban":"Sengkol","postal_code":83573},{"province":"Nusa Tenggara Barat","city":"Lombok Tengah","district":"Pujut","urban":"Sukadana","postal_code":83573},{"province":"Nusa Tenggara Barat","city":"Lombok Tengah","district":"Pujut","urban":"Prabu","postal_code":83573},{"province":"Nusa Tenggara Barat","city":"Lombok Tengah","district":"Pujut","urban":"Rembitan","postal_code":83573},{"province":"Nusa Tenggara Barat","city":"Lombok Tengah","district":"Pujut","urban":"Pengembur","postal_code":83573},{"province":"Nusa Tenggara Barat","city":"Lombok Tengah","district":"Pujut","urban":"Pengengat","postal_code":83573},{"province":"Nusa Tenggara Barat","city":"Lombok Tengah","district":"Pujut","urban":"Kuta (Kute)","postal_code":83573},{"province":"Nusa Tenggara Barat","city":"Lombok Tengah","district":"Pujut","urban":"Mertak","postal_code":83573},{"province":"Nusa Tenggara Barat","city":"Lombok Tengah","district":"Pujut","urban":"Kawo","postal_code":83573},{"province":"Nusa Tenggara Barat","city":"Lombok Tengah","district":"Pujut","urban":"Ketara","postal_code":83573},{"province":"Nusa Tenggara Barat","city":"Lombok Tengah","district":"Pujut","urban":"Gapura","postal_code":83573}]