[{"province":"Nusa Tenggara Barat","city":"Lombok Tengah","district":"Praya Barat Daya","urban":"Ungga","postal_code":83571},{"province":"Nusa Tenggara Barat","city":"Lombok Tengah","district":"Praya Barat Daya","urban":"Ranggagata","postal_code":83571},{"province":"Nusa Tenggara Barat","city":"Lombok Tengah","district":"Praya Barat Daya","urban":"Serage","postal_code":83571},{"province":"Nusa Tenggara Barat","city":"Lombok Tengah","district":"Praya Barat Daya","urban":"Pandan Indah","postal_code":83571},{"province":"Nusa Tenggara Barat","city":"Lombok Tengah","district":"Praya Barat Daya","urban":"Pelambik (Plambik)","postal_code":83571},{"province":"Nusa Tenggara Barat","city":"Lombok Tengah","district":"Praya Barat Daya","urban":"Kabul (Kabol)","postal_code":83571},{"province":"Nusa Tenggara Barat","city":"Lombok Tengah","district":"Praya Barat Daya","urban":"Montong Ajan","postal_code":83571},{"province":"Nusa Tenggara Barat","city":"Lombok Tengah","district":"Praya Barat Daya","urban":"Montong Sapah","postal_code":83571},{"province":"Nusa Tenggara Barat","city":"Lombok Tengah","district":"Praya Barat Daya","urban":"Batu Jangkih","postal_code":83571},{"province":"Nusa Tenggara Barat","city":"Lombok Tengah","district":"Praya Barat Daya","urban":"Darek","postal_code":83571}]