[{"province":"Nusa Tenggara Barat","city":"Lombok Tengah","district":"Praya Timur","urban":"Semoyang","postal_code":83581},{"province":"Nusa Tenggara Barat","city":"Lombok Tengah","district":"Praya Timur","urban":"Sengkerang","postal_code":83581},{"province":"Nusa Tenggara Barat","city":"Lombok Tengah","district":"Praya Timur","urban":"Sukaraja","postal_code":83581},{"province":"Nusa Tenggara Barat","city":"Lombok Tengah","district":"Praya Timur","urban":"Landah","postal_code":83581},{"province":"Nusa Tenggara Barat","city":"Lombok Tengah","district":"Praya Timur","urban":"Marong","postal_code":83581},{"province":"Nusa Tenggara Barat","city":"Lombok Tengah","district":"Praya Timur","urban":"Mujur","postal_code":83581},{"province":"Nusa Tenggara Barat","city":"Lombok Tengah","district":"Praya Timur","urban":"Ganti","postal_code":83581},{"province":"Nusa Tenggara Barat","city":"Lombok Tengah","district":"Praya Timur","urban":"Kidang","postal_code":83581},{"province":"Nusa Tenggara Barat","city":"Lombok Tengah","district":"Praya Timur","urban":"Bilelando","postal_code":83581},{"province":"Nusa Tenggara Barat","city":"Lombok Tengah","district":"Praya Timur","urban":"Beleka","postal_code":83581}]