[{"province":"Nusa Tenggara Barat","city":"Lombok Timur","district":"Sambalia (Sambelia)","urban":"Sugian","postal_code":83656},{"province":"Nusa Tenggara Barat","city":"Lombok Timur","district":"Sambalia (Sambelia)","urban":"Senanggalih","postal_code":83656},{"province":"Nusa Tenggara Barat","city":"Lombok Timur","district":"Sembalun","urban":"Sembalun Bumbung","postal_code":83656},{"province":"Nusa Tenggara Barat","city":"Lombok Timur","district":"Sembalun","urban":"Sembalun Lawang","postal_code":83656},{"province":"Nusa Tenggara Barat","city":"Lombok Timur","district":"Sembalun","urban":"Sembalun Timba Gading","postal_code":83656},{"province":"Nusa Tenggara Barat","city":"Lombok Timur","district":"Sembalun","urban":"Sembalun","postal_code":83656},{"province":"Nusa Tenggara Barat","city":"Lombok Timur","district":"Sambalia (Sambelia)","urban":"Sambelia","postal_code":83656},{"province":"Nusa Tenggara Barat","city":"Lombok Timur","district":"Sembalun","urban":"Sajang","postal_code":83656},{"province":"Nusa Tenggara Barat","city":"Lombok Timur","district":"Sambalia (Sambelia)","urban":"Madayin","postal_code":83656},{"province":"Nusa Tenggara Barat","city":"Lombok Timur","district":"Sambalia (Sambelia)","urban":"Obel Obel","postal_code":83656},{"province":"Nusa Tenggara Barat","city":"Lombok Timur","district":"Sambalia (Sambelia)","urban":"Padak Guar","postal_code":83656},{"province":"Nusa Tenggara Barat","city":"Lombok Timur","district":"Sambalia (Sambelia)","urban":"Labuhan Pandan","postal_code":83656},{"province":"Nusa Tenggara Barat","city":"Lombok Timur","district":"Sambalia (Sambelia)","urban":"Darakunci","postal_code":83656},{"province":"Nusa Tenggara Barat","city":"Lombok Timur","district":"Sembalun","urban":"Bilok Petung","postal_code":83656},{"province":"Nusa Tenggara Barat","city":"Lombok Timur","district":"Sambalia (Sambelia)","urban":"Dadap","postal_code":83656},{"province":"Nusa Tenggara Barat","city":"Lombok Timur","district":"Sambalia (Sambelia)","urban":"Belanting","postal_code":83656},{"province":"Nusa Tenggara Barat","city":"Lombok Timur","district":"Sambalia (Sambelia)","urban":"Bagik Manis","postal_code":83656}]