[{"province":"Nusa Tenggara Barat","city":"Lombok Timur","district":"Suralaga","urban":"Tumbuh Mulia","postal_code":83652},{"province":"Nusa Tenggara Barat","city":"Lombok Timur","district":"Suralaga","urban":"Waringin","postal_code":83652},{"province":"Nusa Tenggara Barat","city":"Lombok Timur","district":"Suralaga","urban":"Suralaga","postal_code":83652},{"province":"Nusa Tenggara Barat","city":"Lombok Timur","district":"Suralaga","urban":"Tebaban","postal_code":83652},{"province":"Nusa Tenggara Barat","city":"Lombok Timur","district":"Sukamulia","urban":"Sukamulia","postal_code":83652},{"province":"Nusa Tenggara Barat","city":"Lombok Timur","district":"Sukamulia","urban":"Sukamulia Timur","postal_code":83652},{"province":"Nusa Tenggara Barat","city":"Lombok Timur","district":"Sukamulia","urban":"Paok Pampang","postal_code":83652},{"province":"Nusa Tenggara Barat","city":"Lombok Timur","district":"Sukamulia","urban":"Setanggor","postal_code":83652},{"province":"Nusa Tenggara Barat","city":"Lombok Timur","district":"Sukamulia","urban":"Setanggor Selatan","postal_code":83652},{"province":"Nusa Tenggara Barat","city":"Lombok Timur","district":"Suralaga","urban":"Paok Lombok","postal_code":83652},{"province":"Nusa Tenggara Barat","city":"Lombok Timur","district":"Sukamulia","urban":"Padamara","postal_code":83652},{"province":"Nusa Tenggara Barat","city":"Lombok Timur","district":"Suralaga","urban":"Kerongkong","postal_code":83652},{"province":"Nusa Tenggara Barat","city":"Lombok Timur","district":"Sukamulia","urban":"Nyiur Tebel","postal_code":83652},{"province":"Nusa Tenggara Barat","city":"Lombok Timur","district":"Suralaga","urban":"Gapuk","postal_code":83652},{"province":"Nusa Tenggara Barat","city":"Lombok Timur","district":"Suralaga","urban":"Gerung Permai","postal_code":83652},{"province":"Nusa Tenggara Barat","city":"Lombok Timur","district":"Sukamulia","urban":"Jantuk","postal_code":83652},{"province":"Nusa Tenggara Barat","city":"Lombok Timur","district":"Sukamulia","urban":"Dasan Lekong","postal_code":83652},{"province":"Nusa Tenggara Barat","city":"Lombok Timur","district":"Suralaga","urban":"Dames Damai","postal_code":83652},{"province":"Nusa Tenggara Barat","city":"Lombok Timur","district":"Suralaga","urban":"Dasan Borok","postal_code":83652},{"province":"Nusa Tenggara Barat","city":"Lombok Timur","district":"Suralaga","urban":"Bagik Payung Timur","postal_code":83652},{"province":"Nusa Tenggara Barat","city":"Lombok Timur","district":"Suralaga","urban":"Bintang Rinjani","postal_code":83652},{"province":"Nusa Tenggara Barat","city":"Lombok Timur","district":"Suralaga","urban":"Bagik Payung","postal_code":83652},{"province":"Nusa Tenggara Barat","city":"Lombok Timur","district":"Suralaga","urban":"Bagik Payung Selatan","postal_code":83652},{"province":"Nusa Tenggara Barat","city":"Lombok Timur","district":"Suralaga","urban":"Anjani","postal_code":83652}]