[{"province":"Nusa Tenggara Barat","city":"Lombok Timur","district":"Sikur","urban":"Tetebatu Selatan","postal_code":83662},{"province":"Nusa Tenggara Barat","city":"Lombok Timur","district":"Sikur","urban":"Sikur Selatan","postal_code":83662},{"province":"Nusa Tenggara Barat","city":"Lombok Timur","district":"Sikur","urban":"Tetebatu","postal_code":83662},{"province":"Nusa Tenggara Barat","city":"Lombok Timur","district":"Sikur","urban":"Sikur","postal_code":83662},{"province":"Nusa Tenggara Barat","city":"Lombok Timur","district":"Sikur","urban":"Sikur Barat","postal_code":83662},{"province":"Nusa Tenggara Barat","city":"Lombok Timur","district":"Sikur","urban":"Montongbaan","postal_code":83662},{"province":"Nusa Tenggara Barat","city":"Lombok Timur","district":"Sikur","urban":"Semaya","postal_code":83662},{"province":"Nusa Tenggara Barat","city":"Lombok Timur","district":"Sikur","urban":"Montong Baan Selatan","postal_code":83662},{"province":"Nusa Tenggara Barat","city":"Lombok Timur","district":"Sikur","urban":"Kembang Kuning","postal_code":83662},{"province":"Nusa Tenggara Barat","city":"Lombok Timur","district":"Sikur","urban":"Kotaraja","postal_code":83662},{"province":"Nusa Tenggara Barat","city":"Lombok Timur","district":"Sikur","urban":"Loyok","postal_code":83662},{"province":"Nusa Tenggara Barat","city":"Lombok Timur","district":"Sikur","urban":"Gelora","postal_code":83662},{"province":"Nusa Tenggara Barat","city":"Lombok Timur","district":"Sikur","urban":"Jeruk Manis","postal_code":83662},{"province":"Nusa Tenggara Barat","city":"Lombok Timur","district":"Sikur","urban":"Darmasari","postal_code":83662}]