[{"province":"Nusa Tenggara Barat","city":"Lombok Timur","district":"Pringgasela","urban":"Rempung","postal_code":83661},{"province":"Nusa Tenggara Barat","city":"Lombok Timur","district":"Pringgasela","urban":"Timbanuh","postal_code":83661},{"province":"Nusa Tenggara Barat","city":"Lombok Timur","district":"Pringgasela","urban":"Pringgasela Selatan","postal_code":83661},{"province":"Nusa Tenggara Barat","city":"Lombok Timur","district":"Pringgasela","urban":"Pringgasela Timur","postal_code":83661},{"province":"Nusa Tenggara Barat","city":"Lombok Timur","district":"Pringgasela","urban":"Pengadangan","postal_code":83661},{"province":"Nusa Tenggara Barat","city":"Lombok Timur","district":"Pringgasela","urban":"Pengadangan Barat","postal_code":83661},{"province":"Nusa Tenggara Barat","city":"Lombok Timur","district":"Pringgasela","urban":"Pringgasela","postal_code":83661},{"province":"Nusa Tenggara Barat","city":"Lombok Timur","district":"Masbagik","urban":"Masbagik Utara Baru","postal_code":83661},{"province":"Nusa Tenggara Barat","city":"Lombok Timur","district":"Masbagik","urban":"Paok Motong","postal_code":83661},{"province":"Nusa Tenggara Barat","city":"Lombok Timur","district":"Masbagik","urban":"Masbagik Timur","postal_code":83661},{"province":"Nusa Tenggara Barat","city":"Lombok Timur","district":"Masbagik","urban":"Masbagik Utara","postal_code":83661},{"province":"Nusa Tenggara Barat","city":"Lombok Timur","district":"Masbagik","urban":"Lendang Nangka Utara","postal_code":83661},{"province":"Nusa Tenggara Barat","city":"Lombok Timur","district":"Masbagik","urban":"Masbagik Selatan","postal_code":83661},{"province":"Nusa Tenggara Barat","city":"Lombok Timur","district":"Masbagik","urban":"Kumbang","postal_code":83661},{"province":"Nusa Tenggara Barat","city":"Lombok Timur","district":"Masbagik","urban":"Lendang Nangka","postal_code":83661},{"province":"Nusa Tenggara Barat","city":"Lombok Timur","district":"Masbagik","urban":"Kesik","postal_code":83661},{"province":"Nusa Tenggara Barat","city":"Lombok Timur","district":"Pringgasela","urban":"Jurit Baru","postal_code":83661},{"province":"Nusa Tenggara Barat","city":"Lombok Timur","district":"Masbagik","urban":"Danger","postal_code":83661},{"province":"Nusa Tenggara Barat","city":"Lombok Timur","district":"Pringgasela","urban":"Jurit","postal_code":83661},{"province":"Nusa Tenggara Barat","city":"Lombok Timur","district":"Pringgasela","urban":"Aik Dewa","postal_code":83661}]