[{"province":"Nusa Tenggara Barat","city":"Lombok Timur","district":"Sakra Barat","urban":"Tanak Kaken","postal_code":83671},{"province":"Nusa Tenggara Barat","city":"Lombok Timur","district":"Sakra","urban":"Suwangi Timur","postal_code":83671},{"province":"Nusa Tenggara Barat","city":"Lombok Timur","district":"Sakra Timur","urban":"Surabaya Utara","postal_code":83671},{"province":"Nusa Tenggara Barat","city":"Lombok Timur","district":"Sakra Barat","urban":"Sukarara","postal_code":83671},{"province":"Nusa Tenggara Barat","city":"Lombok Timur","district":"Sakra","urban":"Suangi","postal_code":83671},{"province":"Nusa Tenggara Barat","city":"Lombok Timur","district":"Sakra Timur","urban":"Surabaya","postal_code":83671},{"province":"Nusa Tenggara Barat","city":"Lombok Timur","district":"Sakra","urban":"Songak","postal_code":83671},{"province":"Nusa Tenggara Barat","city":"Lombok Timur","district":"Sakra","urban":"Sakra","postal_code":83671},{"province":"Nusa Tenggara Barat","city":"Lombok Timur","district":"Sakra","urban":"Sakra Selatan","postal_code":83671},{"province":"Nusa Tenggara Barat","city":"Lombok Timur","district":"Sakra","urban":"Rumbuk","postal_code":83671},{"province":"Nusa Tenggara Barat","city":"Lombok Timur","district":"Sakra","urban":"Rumbuk Timur","postal_code":83671},{"province":"Nusa Tenggara Barat","city":"Lombok Timur","district":"Sakra Barat","urban":"Rensing Bat","postal_code":83671},{"province":"Nusa Tenggara Barat","city":"Lombok Timur","district":"Sakra Barat","urban":"Rensing Raya","postal_code":83671},{"province":"Nusa Tenggara Barat","city":"Lombok Timur","district":"Sakra Barat","urban":"Rensing","postal_code":83671},{"province":"Nusa Tenggara Barat","city":"Lombok Timur","district":"Sakra","urban":"Peresak","postal_code":83671},{"province":"Nusa Tenggara Barat","city":"Lombok Timur","district":"Sakra Barat","urban":"Pematung","postal_code":83671},{"province":"Nusa Tenggara Barat","city":"Lombok Timur","district":"Sakra Barat","urban":"Pengkelakmas","postal_code":83671},{"province":"Nusa Tenggara Barat","city":"Lombok Timur","district":"Sakra Barat","urban":"Pejaring","postal_code":83671},{"province":"Nusa Tenggara Barat","city":"Lombok Timur","district":"Sakra","urban":"Moyot","postal_code":83671},{"province":"Nusa Tenggara Barat","city":"Lombok Timur","district":"Sakra Barat","urban":"Montong Beter","postal_code":83671},{"province":"Nusa Tenggara Barat","city":"Lombok Timur","district":"Sakra Timur","urban":"Montongtangi","postal_code":83671},{"province":"Nusa Tenggara Barat","city":"Lombok Timur","district":"Sakra Barat","urban":"Mengkuru","postal_code":83671},{"province":"Nusa Tenggara Barat","city":"Lombok Timur","district":"Sakra Timur","urban":"Lepak Timur","postal_code":83671},{"province":"Nusa Tenggara Barat","city":"Lombok Timur","district":"Sakra Timur","urban":"Menceh","postal_code":83671},{"province":"Nusa Tenggara Barat","city":"Lombok Timur","district":"Sakra Timur","urban":"Lepak","postal_code":83671},{"province":"Nusa Tenggara Barat","city":"Lombok Timur","district":"Sakra","urban":"Keselet","postal_code":83671},{"province":"Nusa Tenggara Barat","city":"Lombok Timur","district":"Sakra","urban":"Kuang Baru","postal_code":83671},{"province":"Nusa Tenggara Barat","city":"Lombok Timur","district":"Sakra Timur","urban":"Lenting","postal_code":83671},{"province":"Nusa Tenggara Barat","city":"Lombok Timur","district":"Sakra Barat","urban":"Kembang Are Sampai","postal_code":83671},{"province":"Nusa Tenggara Barat","city":"Lombok Timur","district":"Sakra Barat","urban":"Jerogunung","postal_code":83671},{"province":"Nusa Tenggara Barat","city":"Lombok Timur","district":"Sakra","urban":"Kabar","postal_code":83671},{"province":"Nusa Tenggara Barat","city":"Lombok Timur","district":"Sakra Barat","urban":"Gunung Rajak","postal_code":83671},{"province":"Nusa Tenggara Barat","city":"Lombok Timur","district":"Sakra Barat","urban":"Gerisak Semanggelen","postal_code":83671},{"province":"Nusa Tenggara Barat","city":"Lombok Timur","district":"Sakra Timur","urban":"Gelanggang","postal_code":83671},{"province":"Nusa Tenggara Barat","city":"Lombok Timur","district":"Sakra Timur","urban":"Gereneng","postal_code":83671},{"province":"Nusa Tenggara Barat","city":"Lombok Timur","district":"Sakra Timur","urban":"Gereneng Timur","postal_code":83671},{"province":"Nusa Tenggara Barat","city":"Lombok Timur","district":"Sakra Barat","urban":"Bungtiang","postal_code":83671},{"province":"Nusa Tenggara Barat","city":"Lombok Timur","district":"Sakra Barat","urban":"Gadungmas","postal_code":83671},{"province":"Nusa Tenggara Barat","city":"Lombok Timur","district":"Sakra Barat","urban":"Borok Toyang","postal_code":83671},{"province":"Nusa Tenggara Barat","city":"Lombok Timur","district":"Sakra Barat","urban":"Boyemare","postal_code":83671}]