[{"province":"Nusa Tenggara Barat","city":"Bima","district":"Mpunda","urban":"Sambinae","postal_code":84119},{"province":"Nusa Tenggara Barat","city":"Bima","district":"Mpunda","urban":"Santi","postal_code":84119},{"province":"Nusa Tenggara Barat","city":"Bima","district":"Raba","urban":"Rite","postal_code":84119},{"province":"Nusa Tenggara Barat","city":"Bima","district":"Raba","urban":"Rontu","postal_code":84119},{"province":"Nusa Tenggara Barat","city":"Bima","district":"Mpunda","urban":"Panggi","postal_code":84119},{"province":"Nusa Tenggara Barat","city":"Bima","district":"Raba","urban":"Penanae","postal_code":84119},{"province":"Nusa Tenggara Barat","city":"Bima","district":"Rasanae Barat","urban":"Pane","postal_code":84119},{"province":"Nusa Tenggara Barat","city":"Bima","district":"Rasanae Timur","urban":"Oi Fo&#8217;o","postal_code":84119},{"province":"Nusa Tenggara Barat","city":"Bima","district":"Raba","urban":"Nitu","postal_code":84119},{"province":"Nusa Tenggara Barat","city":"Bima","district":"Raba","urban":"Ntobo","postal_code":84119},{"province":"Nusa Tenggara Barat","city":"Bima","district":"Rasanae Timur","urban":"Nungga","postal_code":84119},{"province":"Nusa Tenggara Barat","city":"Bima","district":"Asakota","urban":"Melayu","postal_code":84119},{"province":"Nusa Tenggara Barat","city":"Bima","district":"Mpunda","urban":"Matakando","postal_code":84119},{"province":"Nusa Tenggara Barat","city":"Bima","district":"Mpunda","urban":"Mande","postal_code":84119},{"province":"Nusa Tenggara Barat","city":"Bima","district":"Mpunda","urban":"Manggemaci","postal_code":84119},{"province":"Nusa Tenggara Barat","city":"Bima","district":"Mpunda","urban":"Lewirato","postal_code":84119},{"province":"Nusa Tenggara Barat","city":"Bima","district":"Rasanae Timur","urban":"Lampe","postal_code":84119},{"province":"Nusa Tenggara Barat","city":"Bima","district":"Rasanae Timur","urban":"Lelamase","postal_code":84119},{"province":"Nusa Tenggara Barat","city":"Bima","district":"Asakota","urban":"Kolo","postal_code":84119},{"province":"Nusa Tenggara Barat","city":"Bima","district":"Rasanae Timur","urban":"Kodo","postal_code":84119},{"province":"Nusa Tenggara Barat","city":"Bima","district":"Asakota","urban":"Jatiwangi","postal_code":84119},{"province":"Nusa Tenggara Barat","city":"Bima","district":"Raba","urban":"Kendo","postal_code":84119},{"province":"Nusa Tenggara Barat","city":"Bima","district":"Asakota","urban":"Jatibaru","postal_code":84119},{"province":"Nusa Tenggara Barat","city":"Bima","district":"Rasanae Timur","urban":"Dodu","postal_code":84119},{"province":"Nusa Tenggara Barat","city":"Bima","district":"Rasanae Barat","urban":"Dara (Dora)","postal_code":84119}]