[{"province":"Nusa Tenggara Barat","city":"Bima","district":"Madapangga","urban":"Woro","postal_code":84111},{"province":"Nusa Tenggara Barat","city":"Bima","district":"Madapangga","urban":"Tonda","postal_code":84111},{"province":"Nusa Tenggara Barat","city":"Bima","district":"Rasanae Barat","urban":"Paruga","postal_code":84111},{"province":"Nusa Tenggara Barat","city":"Bima","district":"Madapangga","urban":"Rade","postal_code":84111},{"province":"Nusa Tenggara Barat","city":"Bima","district":"Madapangga","urban":"Mpuri","postal_code":84111},{"province":"Nusa Tenggara Barat","city":"Bima","district":"Madapangga","urban":"Ndano","postal_code":84111},{"province":"Nusa Tenggara Barat","city":"Bima","district":"Mpunda","urban":"Monggonao","postal_code":84111},{"province":"Nusa Tenggara Barat","city":"Bima","district":"Madapangga","urban":"Mandawau","postal_code":84111},{"province":"Nusa Tenggara Barat","city":"Bima","district":"Madapangga","urban":"Monggo","postal_code":84111},{"province":"Nusa Tenggara Barat","city":"Bima","district":"Madapangga","urban":"Dena","postal_code":84111},{"province":"Nusa Tenggara Barat","city":"Bima","district":"Madapangga","urban":"Bolo","postal_code":84111},{"province":"Nusa Tenggara Barat","city":"Bima","district":"Madapangga","urban":"Campa","postal_code":84111}]