[{"province":"Nusa Tenggara Barat","city":"Bima","district":"Wera","urban":"Wora","postal_code":84152},{"province":"Nusa Tenggara Barat","city":"Bima","district":"Wera","urban":"Tadewa","postal_code":84152},{"province":"Nusa Tenggara Barat","city":"Bima","district":"Wera","urban":"Tawali","postal_code":84152},{"province":"Nusa Tenggara Barat","city":"Bima","district":"Wera","urban":"Pai","postal_code":84152},{"province":"Nusa Tenggara Barat","city":"Bima","district":"Wera","urban":"Sangiang","postal_code":84152},{"province":"Nusa Tenggara Barat","city":"Bima","district":"Wera","urban":"Nunggi","postal_code":84152},{"province":"Nusa Tenggara Barat","city":"Bima","district":"Wera","urban":"Oitui","postal_code":84152},{"province":"Nusa Tenggara Barat","city":"Bima","district":"Wera","urban":"Hidirasa (Hadirasa)","postal_code":84152},{"province":"Nusa Tenggara Barat","city":"Bima","district":"Wera","urban":"Nanga Wera","postal_code":84152},{"province":"Nusa Tenggara Barat","city":"Bima","district":"Wera","urban":"Ntoke","postal_code":84152},{"province":"Nusa Tenggara Barat","city":"Bima","district":"Wera","urban":"Bala","postal_code":84152}]