[{"province":"Nusa Tenggara Barat","city":"Bima","district":"Soromandi","urban":"Sai","postal_code":84162},{"province":"Nusa Tenggara Barat","city":"Bima","district":"Soromandi","urban":"Sampungu","postal_code":84162},{"province":"Nusa Tenggara Barat","city":"Bima","district":"Soromandi","urban":"Wadukopa","postal_code":84162},{"province":"Nusa Tenggara Barat","city":"Bima","district":"Soromandi","urban":"Punti","postal_code":84162},{"province":"Nusa Tenggara Barat","city":"Bima","district":"Donggo","urban":"Rora","postal_code":84162},{"province":"Nusa Tenggara Barat","city":"Bima","district":"Donggo","urban":"Mpili","postal_code":84162},{"province":"Nusa Tenggara Barat","city":"Bima","district":"Donggo","urban":"O&#8217;o","postal_code":84162},{"province":"Nusa Tenggara Barat","city":"Bima","district":"Donggo","urban":"Palama","postal_code":84162},{"province":"Nusa Tenggara Barat","city":"Bima","district":"Soromandi","urban":"Kananta","postal_code":84162},{"province":"Nusa Tenggara Barat","city":"Bima","district":"Donggo","urban":"Kala","postal_code":84162},{"province":"Nusa Tenggara Barat","city":"Bima","district":"Donggo","urban":"Mbawa","postal_code":84162},{"province":"Nusa Tenggara Barat","city":"Bima","district":"Donggo","urban":"Bumi Pajo","postal_code":84162},{"province":"Nusa Tenggara Barat","city":"Bima","district":"Donggo","urban":"Doridungga","postal_code":84162},{"province":"Nusa Tenggara Barat","city":"Bima","district":"Soromandi","urban":"Bajo","postal_code":84162}]