[{"province":"Nusa Tenggara Barat","city":"Bima","district":"Bolo","urban":"Tumpu","postal_code":84161},{"province":"Nusa Tenggara Barat","city":"Bima","district":"Bolo","urban":"Timu","postal_code":84161},{"province":"Nusa Tenggara Barat","city":"Bima","district":"Bolo","urban":"Sanolo","postal_code":84161},{"province":"Nusa Tenggara Barat","city":"Bima","district":"Bolo","urban":"Sondosia","postal_code":84161},{"province":"Nusa Tenggara Barat","city":"Bima","district":"Bolo","urban":"Tambe","postal_code":84161},{"province":"Nusa Tenggara Barat","city":"Bima","district":"Bolo","urban":"Rato","postal_code":84161},{"province":"Nusa Tenggara Barat","city":"Bima","district":"Bolo","urban":"Rada","postal_code":84161},{"province":"Nusa Tenggara Barat","city":"Bima","district":"Bolo","urban":"Rasabou","postal_code":84161},{"province":"Nusa Tenggara Barat","city":"Bima","district":"Bolo","urban":"Leu","postal_code":84161},{"province":"Nusa Tenggara Barat","city":"Bima","district":"Bolo","urban":"Nggembe","postal_code":84161},{"province":"Nusa Tenggara Barat","city":"Bima","district":"Bolo","urban":"Bontokape","postal_code":84161},{"province":"Nusa Tenggara Barat","city":"Bima","district":"Bolo","urban":"Kananga","postal_code":84161}]