[{"province":"Nusa Tenggara Barat","city":"Bima","district":"Monta","urban":"Tolouwi","postal_code":84172},{"province":"Nusa Tenggara Barat","city":"Bima","district":"Monta","urban":"Tangga Baru","postal_code":84172},{"province":"Nusa Tenggara Barat","city":"Bima","district":"Monta","urban":"Willamaci","postal_code":84172},{"province":"Nusa Tenggara Barat","city":"Bima","district":"Monta","urban":"Tolotangga","postal_code":84172},{"province":"Nusa Tenggara Barat","city":"Bima","district":"Monta","urban":"Simpasai","postal_code":84172},{"province":"Nusa Tenggara Barat","city":"Bima","district":"Monta","urban":"Sondo","postal_code":84172},{"province":"Nusa Tenggara Barat","city":"Bima","district":"Monta","urban":"Tangga","postal_code":84172},{"province":"Nusa Tenggara Barat","city":"Bima","district":"Monta","urban":"Sekuru","postal_code":84172},{"province":"Nusa Tenggara Barat","city":"Bima","district":"Monta","urban":"Sie","postal_code":84172},{"province":"Nusa Tenggara Barat","city":"Bima","district":"Parado","urban":"Paradowane","postal_code":84172},{"province":"Nusa Tenggara Barat","city":"Bima","district":"Monta","urban":"Pela","postal_code":84172},{"province":"Nusa Tenggara Barat","city":"Bima","district":"Parado","urban":"Paradorato","postal_code":84172},{"province":"Nusa Tenggara Barat","city":"Bima","district":"Monta","urban":"Monta","postal_code":84172},{"province":"Nusa Tenggara Barat","city":"Bima","district":"Parado","urban":"Kuta","postal_code":84172},{"province":"Nusa Tenggara Barat","city":"Bima","district":"Parado","urban":"Lere","postal_code":84172},{"province":"Nusa Tenggara Barat","city":"Bima","district":"Parado","urban":"Kanca","postal_code":84172},{"province":"Nusa Tenggara Barat","city":"Bima","district":"Monta","urban":"Baralau","postal_code":84172}]