[{"province":"Nusa Tenggara Barat","city":"Bima","district":"Palibelo","urban":"Tonggorisa","postal_code":84173},{"province":"Nusa Tenggara Barat","city":"Bima","district":"Palibelo","urban":"Tonggorisa","postal_code":84173},{"province":"Nusa Tenggara Barat","city":"Bima","district":"Belo","urban":"Soki","postal_code":84173},{"province":"Nusa Tenggara Barat","city":"Bima","district":"Palibelo","urban":"Teke","postal_code":84173},{"province":"Nusa Tenggara Barat","city":"Bima","district":"Belo","urban":"Roka","postal_code":84173},{"province":"Nusa Tenggara Barat","city":"Bima","district":"Belo","urban":"Runggu","postal_code":84173},{"province":"Nusa Tenggara Barat","city":"Bima","district":"Belo","urban":"Renda","postal_code":84173},{"province":"Nusa Tenggara Barat","city":"Bima","district":"Palibelo","urban":"Roi","postal_code":84173},{"province":"Nusa Tenggara Barat","city":"Bima","district":"Belo","urban":"Panda","postal_code":84173},{"province":"Nusa Tenggara Barat","city":"Bima","district":"Palibelo","urban":"Panda","postal_code":84173},{"province":"Nusa Tenggara Barat","city":"Bima","district":"Belo","urban":"Ngali","postal_code":84173},{"province":"Nusa Tenggara Barat","city":"Bima","district":"Palibelo","urban":"Ntonggu","postal_code":84173},{"province":"Nusa Tenggara Barat","city":"Bima","district":"Belo","urban":"Lido","postal_code":84173},{"province":"Nusa Tenggara Barat","city":"Bima","district":"Belo","urban":"Ncera","postal_code":84173},{"province":"Nusa Tenggara Barat","city":"Bima","district":"Palibelo","urban":"Nata","postal_code":84173},{"province":"Nusa Tenggara Barat","city":"Bima","district":"Palibelo","urban":"Doie","postal_code":84173},{"province":"Nusa Tenggara Barat","city":"Bima","district":"Palibelo","urban":"Dore","postal_code":84173},{"province":"Nusa Tenggara Barat","city":"Bima","district":"Belo","urban":"Cenggu","postal_code":84173},{"province":"Nusa Tenggara Barat","city":"Bima","district":"Palibelo","urban":"Belo","postal_code":84173}]