[{"province":"Nusa Tenggara Barat","city":"Bima","district":"Langgudu","urban":"Waworada","postal_code":84181},{"province":"Nusa Tenggara Barat","city":"Bima","district":"Lambitu","urban":"Teta","postal_code":84181},{"province":"Nusa Tenggara Barat","city":"Bima","district":"Langgudu","urban":"Wadu Ruka","postal_code":84181},{"province":"Nusa Tenggara Barat","city":"Bima","district":"Lambitu","urban":"Sambori","postal_code":84181},{"province":"Nusa Tenggara Barat","city":"Bima","district":"Langgudu","urban":"Rupe","postal_code":84181},{"province":"Nusa Tenggara Barat","city":"Bima","district":"Wawo","urban":"Tarlawi","postal_code":84181},{"province":"Nusa Tenggara Barat","city":"Bima","district":"Langgudu","urban":"Rompo","postal_code":84181},{"province":"Nusa Tenggara Barat","city":"Bima","district":"Wawo","urban":"Riamau (Rianmau)","postal_code":84181},{"province":"Nusa Tenggara Barat","city":"Bima","district":"Wawo","urban":"Ntori","postal_code":84181},{"province":"Nusa Tenggara Barat","city":"Bima","district":"Wawo","urban":"Pesa","postal_code":84181},{"province":"Nusa Tenggara Barat","city":"Bima","district":"Wawo","urban":"Raba","postal_code":84181},{"province":"Nusa Tenggara Barat","city":"Bima","district":"Langgudu","urban":"Laju","postal_code":84181},{"province":"Nusa Tenggara Barat","city":"Bima","district":"Wawo","urban":"Maria","postal_code":84181},{"province":"Nusa Tenggara Barat","city":"Bima","district":"Wawo","urban":"Maria Utara","postal_code":84181},{"province":"Nusa Tenggara Barat","city":"Bima","district":"Lambitu","urban":"Kuta","postal_code":84181},{"province":"Nusa Tenggara Barat","city":"Bima","district":"Langgudu","urban":"Kawuwu","postal_code":84181},{"province":"Nusa Tenggara Barat","city":"Bima","district":"Wawo","urban":"Koboro","postal_code":84181},{"province":"Nusa Tenggara Barat","city":"Bima","district":"Wawo","urban":"Kombo","postal_code":84181},{"province":"Nusa Tenggara Barat","city":"Bima","district":"Lambitu","urban":"Kaowa","postal_code":84181},{"province":"Nusa Tenggara Barat","city":"Bima","district":"Langgudu","urban":"Karampi","postal_code":84181},{"province":"Nusa Tenggara Barat","city":"Bima","district":"Langgudu","urban":"Karumbu","postal_code":84181},{"province":"Nusa Tenggara Barat","city":"Bima","district":"Wawo","urban":"Kambilo","postal_code":84181},{"province":"Nusa Tenggara Barat","city":"Bima","district":"Langgudu","urban":"Kangga","postal_code":84181},{"province":"Nusa Tenggara Barat","city":"Bima","district":"Langgudu","urban":"Kalodu","postal_code":84181},{"province":"Nusa Tenggara Barat","city":"Bima","district":"Lambitu","urban":"Kaboro (Kabaro)","postal_code":84181},{"province":"Nusa Tenggara Barat","city":"Bima","district":"Langgudu","urban":"Dumu","postal_code":84181},{"province":"Nusa Tenggara Barat","city":"Bima","district":"Langgudu","urban":"Doro O&#8217;o","postal_code":84181}]