[{"province":"Nusa Tenggara Barat","city":"Bima","district":"Sanggar","urban":"Taloko","postal_code":84191},{"province":"Nusa Tenggara Barat","city":"Bima","district":"Sanggar","urban":"Oi Saro","postal_code":84191},{"province":"Nusa Tenggara Barat","city":"Bima","district":"Sanggar","urban":"Piong","postal_code":84191},{"province":"Nusa Tenggara Barat","city":"Bima","district":"Sanggar","urban":"Sandue","postal_code":84191},{"province":"Nusa Tenggara Barat","city":"Bima","district":"Tambora","urban":"Oi Panihi","postal_code":84191},{"province":"Nusa Tenggara Barat","city":"Bima","district":"Tambora","urban":"Labuhan Kananga","postal_code":84191},{"province":"Nusa Tenggara Barat","city":"Bima","district":"Tambora","urban":"Oi Bura","postal_code":84191},{"province":"Nusa Tenggara Barat","city":"Bima","district":"Sanggar","urban":"Kore","postal_code":84191},{"province":"Nusa Tenggara Barat","city":"Bima","district":"Tambora","urban":"Kawinda Nae","postal_code":84191},{"province":"Nusa Tenggara Barat","city":"Bima","district":"Tambora","urban":"Kawinda Toi","postal_code":84191},{"province":"Nusa Tenggara Barat","city":"Bima","district":"Sanggar","urban":"Boro","postal_code":84191}]