[{"province":"Nusa Tenggara Barat","city":"Dompu","district":"Woja","urban":"Montabaru","postal_code":84219},{"province":"Nusa Tenggara Barat","city":"Dompu","district":"Dompu","urban":"Sorisakolo","postal_code":84219},{"province":"Nusa Tenggara Barat","city":"Dompu","district":"Dompu","urban":"Mbawi","postal_code":84219},{"province":"Nusa Tenggara Barat","city":"Dompu","district":"Dompu","urban":"Menggeasi (Mangge Asi)","postal_code":84219},{"province":"Nusa Tenggara Barat","city":"Dompu","district":"Dompu","urban":"Kareke","postal_code":84219},{"province":"Nusa Tenggara Barat","city":"Dompu","district":"Dompu","urban":"Katua","postal_code":84219},{"province":"Nusa Tenggara Barat","city":"Dompu","district":"Dompu","urban":"Mangge Nae","postal_code":84219},{"province":"Nusa Tenggara Barat","city":"Dompu","district":"Dompu","urban":"Kandai Satu","postal_code":84219},{"province":"Nusa Tenggara Barat","city":"Dompu","district":"Dompu","urban":"Karamabura","postal_code":84219},{"province":"Nusa Tenggara Barat","city":"Dompu","district":"Dompu","urban":"Dorebara","postal_code":84219}]