[{"province":"Nusa Tenggara Barat","city":"Dompu","district":"Menggelewa (Manggelewa)","urban":"Soriutu","postal_code":84253},{"province":"Nusa Tenggara Barat","city":"Dompu","district":"Menggelewa (Manggelewa)","urban":"Suka Damai","postal_code":84253},{"province":"Nusa Tenggara Barat","city":"Dompu","district":"Menggelewa (Manggelewa)","urban":"Nangatumpu","postal_code":84253},{"province":"Nusa Tenggara Barat","city":"Dompu","district":"Menggelewa (Manggelewa)","urban":"Nusa Jaya","postal_code":84253},{"province":"Nusa Tenggara Barat","city":"Dompu","district":"Menggelewa (Manggelewa)","urban":"Kwangko","postal_code":84253},{"province":"Nusa Tenggara Barat","city":"Dompu","district":"Menggelewa (Manggelewa)","urban":"Lanci Jaya","postal_code":84253},{"province":"Nusa Tenggara Barat","city":"Dompu","district":"Menggelewa (Manggelewa)","urban":"Banggo","postal_code":84253},{"province":"Nusa Tenggara Barat","city":"Dompu","district":"Menggelewa (Manggelewa)","urban":"Doromelo","postal_code":84253}]