[{"province":"Nusa Tenggara Barat","city":"Dompu","district":"Kempo","urban":"Tolo Kalo","postal_code":84261},{"province":"Nusa Tenggara Barat","city":"Dompu","district":"Pekat","urban":"Tambora","postal_code":84261},{"province":"Nusa Tenggara Barat","city":"Dompu","district":"Kempo","urban":"Ta&#8217;a","postal_code":84261},{"province":"Nusa Tenggara Barat","city":"Dompu","district":"Pekat","urban":"Sorinomo","postal_code":84261},{"province":"Nusa Tenggara Barat","city":"Dompu","district":"Kempo","urban":"Soro","postal_code":84261},{"province":"Nusa Tenggara Barat","city":"Dompu","district":"Pekat","urban":"Peti","postal_code":84261},{"province":"Nusa Tenggara Barat","city":"Dompu","district":"Kempo","urban":"Songgaja (Songgajah)","postal_code":84261},{"province":"Nusa Tenggara Barat","city":"Dompu","district":"Pekat","urban":"Nangamiro","postal_code":84261},{"province":"Nusa Tenggara Barat","city":"Dompu","district":"Pekat","urban":"Pekat","postal_code":84261},{"province":"Nusa Tenggara Barat","city":"Dompu","district":"Kempo","urban":"Kempo","postal_code":84261},{"province":"Nusa Tenggara Barat","city":"Dompu","district":"Kempo","urban":"Konte","postal_code":84261},{"province":"Nusa Tenggara Barat","city":"Dompu","district":"Kempo","urban":"Doro Kobo","postal_code":84261},{"province":"Nusa Tenggara Barat","city":"Dompu","district":"Pekat","urban":"Kadindi","postal_code":84261},{"province":"Nusa Tenggara Barat","city":"Dompu","district":"Pekat","urban":"Beringin Jaya","postal_code":84261}]