[{"province":"Nusa Tenggara Barat","city":"Sumbawa","district":"Labuhan Badas","urban":"Sebotok","postal_code":84316},{"province":"Nusa Tenggara Barat","city":"Sumbawa","district":"Unter Iwes (Unterwiris)","urban":"Uma Beringin","postal_code":84316},{"province":"Nusa Tenggara Barat","city":"Sumbawa","district":"Sumbawa","urban":"Samapuin","postal_code":84316},{"province":"Nusa Tenggara Barat","city":"Sumbawa","district":"Unter Iwes (Unterwiris)","urban":"Pungka","postal_code":84316},{"province":"Nusa Tenggara Barat","city":"Sumbawa","district":"Unter Iwes (Unterwiris)","urban":"Pelat","postal_code":84316},{"province":"Nusa Tenggara Barat","city":"Sumbawa","district":"Labuhan Badas","urban":"Labuhan Badas","postal_code":84316},{"province":"Nusa Tenggara Barat","city":"Sumbawa","district":"Unter Iwes (Unterwiris)","urban":"Nijang","postal_code":84316},{"province":"Nusa Tenggara Barat","city":"Sumbawa","district":"Labuhan Badas","urban":"Labuan Aji","postal_code":84316},{"province":"Nusa Tenggara Barat","city":"Sumbawa","district":"Labuhan Badas","urban":"Labuan Sumbawa","postal_code":84316},{"province":"Nusa Tenggara Barat","city":"Sumbawa","district":"Unter Iwes (Unterwiris)","urban":"Kerato","postal_code":84316},{"province":"Nusa Tenggara Barat","city":"Sumbawa","district":"Unter Iwes (Unterwiris)","urban":"Kerekeh","postal_code":84316},{"province":"Nusa Tenggara Barat","city":"Sumbawa","district":"Labuhan Badas","urban":"Bugis Medang","postal_code":84316},{"province":"Nusa Tenggara Barat","city":"Sumbawa","district":"Labuhan Badas","urban":"Karang Dima","postal_code":84316},{"province":"Nusa Tenggara Barat","city":"Sumbawa","district":"Unter Iwes (Unterwiris)","urban":"Jorok","postal_code":84316},{"province":"Nusa Tenggara Barat","city":"Sumbawa","district":"Unter Iwes (Unterwiris)","urban":"Boak","postal_code":84316},{"province":"Nusa Tenggara Barat","city":"Sumbawa","district":"Labuhan Badas","urban":"Bajo Medang","postal_code":84316}]