[{"province":"Nusa Tenggara Barat","city":"Sumbawa","district":"Alas Barat","urban":"Usar Mapin","postal_code":84353},{"province":"Nusa Tenggara Barat","city":"Sumbawa","district":"Buer","urban":"Tarusa","postal_code":84353},{"province":"Nusa Tenggara Barat","city":"Sumbawa","district":"Alas","urban":"Pulau Bungin","postal_code":84353},{"province":"Nusa Tenggara Barat","city":"Sumbawa","district":"Buer","urban":"Pulau Kaung","postal_code":84353},{"province":"Nusa Tenggara Barat","city":"Sumbawa","district":"Alas Barat","urban":"Mapin Rea","postal_code":84353},{"province":"Nusa Tenggara Barat","city":"Sumbawa","district":"Alas","urban":"Marenteh","postal_code":84353},{"province":"Nusa Tenggara Barat","city":"Sumbawa","district":"Alas Barat","urban":"Mapin Baru","postal_code":84353},{"province":"Nusa Tenggara Barat","city":"Sumbawa","district":"Alas Barat","urban":"Mapin Kebak","postal_code":84353},{"province":"Nusa Tenggara Barat","city":"Sumbawa","district":"Alas","urban":"Luar","postal_code":84353},{"province":"Nusa Tenggara Barat","city":"Sumbawa","district":"Buer","urban":"Labuhan Burung","postal_code":84353},{"province":"Nusa Tenggara Barat","city":"Sumbawa","district":"Alas Barat","urban":"Lekong","postal_code":84353},{"province":"Nusa Tenggara Barat","city":"Sumbawa","district":"Alas Barat","urban":"Labuan Mapin","postal_code":84353},{"province":"Nusa Tenggara Barat","city":"Sumbawa","district":"Alas","urban":"Labuhan Alas","postal_code":84353},{"province":"Nusa Tenggara Barat","city":"Sumbawa","district":"Buer","urban":"Kalabeso","postal_code":84353},{"province":"Nusa Tenggara Barat","city":"Sumbawa","district":"Alas","urban":"Kalimango","postal_code":84353},{"province":"Nusa Tenggara Barat","city":"Sumbawa","district":"Alas Barat","urban":"Gontar Baru","postal_code":84353},{"province":"Nusa Tenggara Barat","city":"Sumbawa","district":"Alas","urban":"Juranalas","postal_code":84353},{"province":"Nusa Tenggara Barat","city":"Sumbawa","district":"Buer","urban":"Juru Mapin","postal_code":84353},{"province":"Nusa Tenggara Barat","city":"Sumbawa","district":"Alas Barat","urban":"Gontar","postal_code":84353},{"province":"Nusa Tenggara Barat","city":"Sumbawa","district":"Alas","urban":"Dalam","postal_code":84353},{"province":"Nusa Tenggara Barat","city":"Sumbawa","district":"Buer","urban":"Buin Baru","postal_code":84353},{"province":"Nusa Tenggara Barat","city":"Sumbawa","district":"Alas","urban":"Baru","postal_code":84353}]