[{"province":"Nusa Tenggara Barat","city":"Sumbawa","district":"Moyo Hulu","urban":"Semamung","postal_code":84371},{"province":"Nusa Tenggara Barat","city":"Sumbawa","district":"Moyo Hulu","urban":"Sempe","postal_code":84371},{"province":"Nusa Tenggara Barat","city":"Sumbawa","district":"Moyo Hulu","urban":"Sebasang","postal_code":84371},{"province":"Nusa Tenggara Barat","city":"Sumbawa","district":"Moyo Hulu","urban":"Pernek","postal_code":84371},{"province":"Nusa Tenggara Barat","city":"Sumbawa","district":"Moyo Hulu","urban":"Marga Karya","postal_code":84371},{"province":"Nusa Tenggara Barat","city":"Sumbawa","district":"Moyo Hulu","urban":"Mokong","postal_code":84371},{"province":"Nusa Tenggara Barat","city":"Sumbawa","district":"Moyo Hulu","urban":"Leseng","postal_code":84371},{"province":"Nusa Tenggara Barat","city":"Sumbawa","district":"Moyo Hulu","urban":"Lito","postal_code":84371},{"province":"Nusa Tenggara Barat","city":"Sumbawa","district":"Moyo Hulu","urban":"Maman","postal_code":84371},{"province":"Nusa Tenggara Barat","city":"Sumbawa","district":"Moyo Hulu","urban":"Batutering","postal_code":84371},{"province":"Nusa Tenggara Barat","city":"Sumbawa","district":"Moyo Hulu","urban":"Berang Rea","postal_code":84371},{"province":"Nusa Tenggara Barat","city":"Sumbawa","district":"Moyo Hulu","urban":"Batubulan","postal_code":84371}]