[{"province":"Nusa Tenggara Barat","city":"Sumbawa","district":"Lunyuk","urban":"Suka Maju","postal_code":84373},{"province":"Nusa Tenggara Barat","city":"Sumbawa","district":"Orong Telu","urban":"Senawang","postal_code":84373},{"province":"Nusa Tenggara Barat","city":"Sumbawa","district":"Lunyuk","urban":"Pada Suka","postal_code":84373},{"province":"Nusa Tenggara Barat","city":"Sumbawa","district":"Lunyuk","urban":"Perung","postal_code":84373},{"province":"Nusa Tenggara Barat","city":"Sumbawa","district":"Orong Telu","urban":"Sebeok","postal_code":84373},{"province":"Nusa Tenggara Barat","city":"Sumbawa","district":"Lunyuk","urban":"Lunyuk Ode","postal_code":84373},{"province":"Nusa Tenggara Barat","city":"Sumbawa","district":"Lunyuk","urban":"Lunyuk Rea","postal_code":84373},{"province":"Nusa Tenggara Barat","city":"Sumbawa","district":"Orong Telu","urban":"Mungkin","postal_code":84373},{"province":"Nusa Tenggara Barat","city":"Sumbawa","district":"Lunyuk","urban":"Jamu","postal_code":84373},{"province":"Nusa Tenggara Barat","city":"Sumbawa","district":"Orong Telu","urban":"Kelawis","postal_code":84373},{"province":"Nusa Tenggara Barat","city":"Sumbawa","district":"Lunyuk","urban":"Emang Lestari","postal_code":84373}]