[{"province":"Nusa Tenggara Barat","city":"Sumbawa","district":"Lenangguar","urban":"Tatebal","postal_code":84372},{"province":"Nusa Tenggara Barat","city":"Sumbawa","district":"Lenangguar","urban":"Telaga","postal_code":84372},{"province":"Nusa Tenggara Barat","city":"Sumbawa","district":"Lantung","urban":"Sepukur","postal_code":84372},{"province":"Nusa Tenggara Barat","city":"Sumbawa","district":"Ropang","urban":"Ropang","postal_code":84372},{"province":"Nusa Tenggara Barat","city":"Sumbawa","district":"Lantung","urban":"Padesa","postal_code":84372},{"province":"Nusa Tenggara Barat","city":"Sumbawa","district":"Ropang","urban":"Ranan","postal_code":84372},{"province":"Nusa Tenggara Barat","city":"Sumbawa","district":"Lenangguar","urban":"Ledang","postal_code":84372},{"province":"Nusa Tenggara Barat","city":"Sumbawa","district":"Lenangguar","urban":"Lenangguar","postal_code":84372},{"province":"Nusa Tenggara Barat","city":"Sumbawa","district":"Ropang","urban":"Lebin","postal_code":84372},{"province":"Nusa Tenggara Barat","city":"Sumbawa","district":"Ropang","urban":"Lawin","postal_code":84372},{"province":"Nusa Tenggara Barat","city":"Sumbawa","district":"Ropang","urban":"Lebangkar","postal_code":84372},{"province":"Nusa Tenggara Barat","city":"Sumbawa","district":"Lantung","urban":"Ai Mual","postal_code":84372},{"province":"Nusa Tenggara Barat","city":"Sumbawa","district":"Lantung","urban":"Lantung","postal_code":84372}]