[{"province":"Nusa Tenggara Barat","city":"Sumbawa","district":"Lopok","urban":"Pungkit","postal_code":84382},{"province":"Nusa Tenggara Barat","city":"Sumbawa","district":"Lopok","urban":"Tatede","postal_code":84382},{"province":"Nusa Tenggara Barat","city":"Sumbawa","district":"Lopok","urban":"Mama","postal_code":84382},{"province":"Nusa Tenggara Barat","city":"Sumbawa","district":"Lopok","urban":"Lopok Beru","postal_code":84382},{"province":"Nusa Tenggara Barat","city":"Sumbawa","district":"Lopok","urban":"Lopok","postal_code":84382},{"province":"Nusa Tenggara Barat","city":"Sumbawa","district":"Lape (Lape Lopok)","urban":"Lape","postal_code":84382},{"province":"Nusa Tenggara Barat","city":"Sumbawa","district":"Lopok","urban":"Langam","postal_code":84382},{"province":"Nusa Tenggara Barat","city":"Sumbawa","district":"Lape (Lape Lopok)","urban":"Hijrah","postal_code":84382},{"province":"Nusa Tenggara Barat","city":"Sumbawa","district":"Lape (Lape Lopok)","urban":"Labuan Kuris","postal_code":84382},{"province":"Nusa Tenggara Barat","city":"Sumbawa","district":"Lape (Lape Lopok)","urban":"Dete","postal_code":84382},{"province":"Nusa Tenggara Barat","city":"Sumbawa","district":"Lopok","urban":"Berora","postal_code":84382}]