[{"province":"Nusa Tenggara Barat","city":"Sumbawa","district":"Moyo Utara","urban":"Songkar","postal_code":84381},{"province":"Nusa Tenggara Barat","city":"Sumbawa","district":"Moyo Hilir","urban":"Serading","postal_code":84381},{"province":"Nusa Tenggara Barat","city":"Sumbawa","district":"Moyo Utara","urban":"Sebewe","postal_code":84381},{"province":"Nusa Tenggara Barat","city":"Sumbawa","district":"Moyo Hilir","urban":"Poto","postal_code":84381},{"province":"Nusa Tenggara Barat","city":"Sumbawa","district":"Moyo Utara","urban":"Penyaring","postal_code":84381},{"province":"Nusa Tenggara Barat","city":"Sumbawa","district":"Moyo Utara","urban":"Pungkit","postal_code":84381},{"province":"Nusa Tenggara Barat","city":"Sumbawa","district":"Moyo Hilir","urban":"Ngeru","postal_code":84381},{"province":"Nusa Tenggara Barat","city":"Sumbawa","district":"Moyo Hilir","urban":"Olat Rawa","postal_code":84381},{"province":"Nusa Tenggara Barat","city":"Sumbawa","district":"Moyo Hilir","urban":"Labuhan Ijuk","postal_code":84381},{"province":"Nusa Tenggara Barat","city":"Sumbawa","district":"Moyo Hilir","urban":"Moyo","postal_code":84381},{"province":"Nusa Tenggara Barat","city":"Sumbawa","district":"Moyo Hilir","urban":"Moyo Mekar","postal_code":84381},{"province":"Nusa Tenggara Barat","city":"Sumbawa","district":"Moyo Hilir","urban":"Kakiang","postal_code":84381},{"province":"Nusa Tenggara Barat","city":"Sumbawa","district":"Moyo Utara","urban":"Kukin","postal_code":84381},{"province":"Nusa Tenggara Barat","city":"Sumbawa","district":"Moyo Hilir","urban":"Batu Bangka","postal_code":84381},{"province":"Nusa Tenggara Barat","city":"Sumbawa","district":"Moyo Hilir","urban":"Berare","postal_code":84381},{"province":"Nusa Tenggara Barat","city":"Sumbawa","district":"Moyo Utara","urban":"Baru Tahan","postal_code":84381}]