[{"province":"Nusa Tenggara Barat","city":"Sumbawa","district":"Plampang","urban":"Teluk Santong","postal_code":84383},{"province":"Nusa Tenggara Barat","city":"Sumbawa","district":"Plampang","urban":"Usar","postal_code":84383},{"province":"Nusa Tenggara Barat","city":"Sumbawa","district":"Labangka","urban":"Suka Damai","postal_code":84383},{"province":"Nusa Tenggara Barat","city":"Sumbawa","district":"Labangka","urban":"Suka Mulya","postal_code":84383},{"province":"Nusa Tenggara Barat","city":"Sumbawa","district":"Plampang","urban":"Sp II Prode/Perode","postal_code":84383},{"province":"Nusa Tenggara Barat","city":"Sumbawa","district":"Plampang","urban":"Sp III Prode/Perode","postal_code":84383},{"province":"Nusa Tenggara Barat","city":"Sumbawa","district":"Maronge","urban":"Simu","postal_code":84383},{"province":"Nusa Tenggara Barat","city":"Sumbawa","district":"Plampang","urban":"Sp I Prode/Perode","postal_code":84383},{"province":"Nusa Tenggara Barat","city":"Sumbawa","district":"Plampang","urban":"Sepayung","postal_code":84383},{"province":"Nusa Tenggara Barat","city":"Sumbawa","district":"Plampang","urban":"Selante","postal_code":84383},{"province":"Nusa Tenggara Barat","city":"Sumbawa","district":"Plampang","urban":"Sepakat","postal_code":84383},{"province":"Nusa Tenggara Barat","city":"Sumbawa","district":"Plampang","urban":"Plampang","postal_code":84383},{"province":"Nusa Tenggara Barat","city":"Sumbawa","district":"Labangka","urban":"Sekokat","postal_code":84383},{"province":"Nusa Tenggara Barat","city":"Sumbawa","district":"Plampang","urban":"Muer","postal_code":84383},{"province":"Nusa Tenggara Barat","city":"Sumbawa","district":"Maronge","urban":"Maronge","postal_code":84383},{"province":"Nusa Tenggara Barat","city":"Sumbawa","district":"Maronge","urban":"Pemasar","postal_code":84383},{"province":"Nusa Tenggara Barat","city":"Sumbawa","district":"Maronge","urban":"Labuhan Sangoro","postal_code":84383},{"province":"Nusa Tenggara Barat","city":"Sumbawa","district":"Labangka","urban":"Jaya Makmur","postal_code":84383},{"province":"Nusa Tenggara Barat","city":"Sumbawa","district":"Labangka","urban":"Labangka","postal_code":84383},{"province":"Nusa Tenggara Barat","city":"Sumbawa","district":"Plampang","urban":"Brang Kolong","postal_code":84383}]