[{"province":"Nusa Tenggara Barat","city":"Sumbawa","district":"Empang","urban":"Pamanto","postal_code":84384},{"province":"Nusa Tenggara Barat","city":"Sumbawa","district":"Tarano","urban":"Tolo Oi","postal_code":84384},{"province":"Nusa Tenggara Barat","city":"Sumbawa","district":"Empang","urban":"Ongko","postal_code":84384},{"province":"Nusa Tenggara Barat","city":"Sumbawa","district":"Tarano","urban":"Mata","postal_code":84384},{"province":"Nusa Tenggara Barat","city":"Sumbawa","district":"Empang","urban":"Lamenta","postal_code":84384},{"province":"Nusa Tenggara Barat","city":"Sumbawa","district":"Tarano","urban":"Labuhan Jambu","postal_code":84384},{"province":"Nusa Tenggara Barat","city":"Sumbawa","district":"Tarano","urban":"Labuhan Pidang","postal_code":84384},{"province":"Nusa Tenggara Barat","city":"Sumbawa","district":"Empang","urban":"Jotang Beru","postal_code":84384},{"province":"Nusa Tenggara Barat","city":"Sumbawa","district":"Tarano","urban":"Labuhan Aji","postal_code":84384},{"province":"Nusa Tenggara Barat","city":"Sumbawa","district":"Tarano","urban":"Labuhan Bontong","postal_code":84384},{"province":"Nusa Tenggara Barat","city":"Sumbawa","district":"Empang","urban":"Empang Bawah","postal_code":84384},{"province":"Nusa Tenggara Barat","city":"Sumbawa","district":"Empang","urban":"Gapit","postal_code":84384},{"province":"Nusa Tenggara Barat","city":"Sumbawa","district":"Empang","urban":"Jotang","postal_code":84384},{"province":"Nusa Tenggara Barat","city":"Sumbawa","district":"Empang","urban":"Bunga Eja","postal_code":84384},{"province":"Nusa Tenggara Barat","city":"Sumbawa","district":"Empang","urban":"Empang Atas","postal_code":84384},{"province":"Nusa Tenggara Barat","city":"Sumbawa","district":"Tarano","urban":"Bantulante","postal_code":84384},{"province":"Nusa Tenggara Barat","city":"Sumbawa","district":"Empang","urban":"Boal","postal_code":84384},{"province":"Nusa Tenggara Barat","city":"Sumbawa","district":"Tarano","urban":"Banda","postal_code":84384}]