[{"province":"Nusa Tenggara Barat","city":"Sumbawa Barat","district":"Brang Ene","urban":"Tepas Sepakat","postal_code":84455},{"province":"Nusa Tenggara Barat","city":"Sumbawa Barat","district":"Taliwang","urban":"Sermong","postal_code":84455},{"province":"Nusa Tenggara Barat","city":"Sumbawa Barat","district":"Taliwang","urban":"Tamekan","postal_code":84455},{"province":"Nusa Tenggara Barat","city":"Sumbawa Barat","district":"Taliwang","urban":"Telaga Bertong","postal_code":84455},{"province":"Nusa Tenggara Barat","city":"Sumbawa Barat","district":"Brang Ene","urban":"Seminar Salit","postal_code":84455},{"province":"Nusa Tenggara Barat","city":"Sumbawa Barat","district":"Taliwang","urban":"Seloto","postal_code":84455},{"province":"Nusa Tenggara Barat","city":"Sumbawa Barat","district":"Taliwang","urban":"Sampir","postal_code":84455},{"province":"Nusa Tenggara Barat","city":"Sumbawa Barat","district":"Brang Ene","urban":"Mujahiddin","postal_code":84455},{"province":"Nusa Tenggara Barat","city":"Sumbawa Barat","district":"Brang Ene","urban":"Mura","postal_code":84455},{"province":"Nusa Tenggara Barat","city":"Sumbawa Barat","district":"Brang Ene","urban":"Rarak Ronges","postal_code":84455},{"province":"Nusa Tenggara Barat","city":"Sumbawa Barat","district":"Brang Ene","urban":"Moteng","postal_code":84455},{"province":"Nusa Tenggara Barat","city":"Sumbawa Barat","district":"Brang Ene","urban":"Mataiyang","postal_code":84455},{"province":"Nusa Tenggara Barat","city":"Sumbawa Barat","district":"Taliwang","urban":"Menala","postal_code":84455},{"province":"Nusa Tenggara Barat","city":"Sumbawa Barat","district":"Brang Ene","urban":"Manemeng","postal_code":84455},{"province":"Nusa Tenggara Barat","city":"Sumbawa Barat","district":"Brang Ene","urban":"Lampok","postal_code":84455},{"province":"Nusa Tenggara Barat","city":"Sumbawa Barat","district":"Brang Ene","urban":"Lamuntet","postal_code":84455},{"province":"Nusa Tenggara Barat","city":"Sumbawa Barat","district":"Taliwang","urban":"Labuan Lalar","postal_code":84455},{"province":"Nusa Tenggara Barat","city":"Sumbawa Barat","district":"Taliwang","urban":"Lalang Liang (Lalar Liang)","postal_code":84455},{"province":"Nusa Tenggara Barat","city":"Sumbawa Barat","district":"Taliwang","urban":"Kertasari (Labuan Kertasari)","postal_code":84455},{"province":"Nusa Tenggara Barat","city":"Sumbawa Barat","district":"Taliwang","urban":"Kuang","postal_code":84455},{"province":"Nusa Tenggara Barat","city":"Sumbawa Barat","district":"Brang Ene","urban":"Kalimantong","postal_code":84455},{"province":"Nusa Tenggara Barat","city":"Sumbawa Barat","district":"Taliwang","urban":"Dalam","postal_code":84455},{"province":"Nusa Tenggara Barat","city":"Sumbawa Barat","district":"Taliwang","urban":"Bugis","postal_code":84455},{"province":"Nusa Tenggara Barat","city":"Sumbawa Barat","district":"Taliwang","urban":"Banjar","postal_code":84455},{"province":"Nusa Tenggara Barat","city":"Sumbawa Barat","district":"Taliwang","urban":"Batu Putih","postal_code":84455},{"province":"Nusa Tenggara Barat","city":"Sumbawa Barat","district":"Taliwang","urban":"Arab Kenangan","postal_code":84455}]