[{"province":"Nusa Tenggara Barat","city":"Sumbawa Barat","district":"Maluk","urban":"Pasir Putih","postal_code":84456},{"province":"Nusa Tenggara Barat","city":"Sumbawa Barat","district":"Maluk","urban":"Mantun","postal_code":84456},{"province":"Nusa Tenggara Barat","city":"Sumbawa Barat","district":"Maluk","urban":"Maluk","postal_code":84456},{"province":"Nusa Tenggara Barat","city":"Sumbawa Barat","district":"Jereweh","urban":"Dasan Anyar","postal_code":84456},{"province":"Nusa Tenggara Barat","city":"Sumbawa Barat","district":"Jereweh","urban":"Goa","postal_code":84456},{"province":"Nusa Tenggara Barat","city":"Sumbawa Barat","district":"Jereweh","urban":"Beru","postal_code":84456},{"province":"Nusa Tenggara Barat","city":"Sumbawa Barat","district":"Maluk","urban":"Bukit Damai","postal_code":84456},{"province":"Nusa Tenggara Barat","city":"Sumbawa Barat","district":"Jereweh","urban":"Belo","postal_code":84456},{"province":"Nusa Tenggara Barat","city":"Sumbawa Barat","district":"Maluk","urban":"Benete","postal_code":84456}]