[{"province":"Nusa Tenggara Barat","city":"Sumbawa Barat","district":"Poto Tano","urban":"Tebo","postal_code":84454},{"province":"Nusa Tenggara Barat","city":"Sumbawa Barat","district":"Poto Tano","urban":"Tuananga","postal_code":84454},{"province":"Nusa Tenggara Barat","city":"Sumbawa Barat","district":"Sateluk (Seteluk)","urban":"Tapir","postal_code":84454},{"province":"Nusa Tenggara Barat","city":"Sumbawa Barat","district":"Poto Tano","urban":"Tambak Sari","postal_code":84454},{"province":"Nusa Tenggara Barat","city":"Sumbawa Barat","district":"Sateluk (Seteluk)","urban":"Seteluk Tengah","postal_code":84454},{"province":"Nusa Tenggara Barat","city":"Sumbawa Barat","district":"Sateluk (Seteluk)","urban":"Seteluk Atas","postal_code":84454},{"province":"Nusa Tenggara Barat","city":"Sumbawa Barat","district":"Sateluk (Seteluk)","urban":"Seran","postal_code":84454},{"province":"Nusa Tenggara Barat","city":"Sumbawa Barat","district":"Poto Tano","urban":"Senayan","postal_code":84454},{"province":"Nusa Tenggara Barat","city":"Sumbawa Barat","district":"Sateluk (Seteluk)","urban":"Rempe","postal_code":84454},{"province":"Nusa Tenggara Barat","city":"Sumbawa Barat","district":"Poto Tano","urban":"Poto Tano","postal_code":84454},{"province":"Nusa Tenggara Barat","city":"Sumbawa Barat","district":"Sateluk (Seteluk)","urban":"Meraran","postal_code":84454},{"province":"Nusa Tenggara Barat","city":"Sumbawa Barat","district":"Poto Tano","urban":"Mantar","postal_code":84454},{"province":"Nusa Tenggara Barat","city":"Sumbawa Barat","district":"Sateluk (Seteluk)","urban":"Lamusung","postal_code":84454},{"province":"Nusa Tenggara Barat","city":"Sumbawa Barat","district":"Poto Tano","urban":"Kiantar","postal_code":84454},{"province":"Nusa Tenggara Barat","city":"Sumbawa Barat","district":"Poto Tano","urban":"Kokarlian","postal_code":84454},{"province":"Nusa Tenggara Barat","city":"Sumbawa Barat","district":"Sateluk (Seteluk)","urban":"Kelanir","postal_code":84454},{"province":"Nusa Tenggara Barat","city":"Sumbawa Barat","district":"Sateluk (Seteluk)","urban":"Air Suning","postal_code":84454},{"province":"Nusa Tenggara Barat","city":"Sumbawa Barat","district":"Sateluk (Seteluk)","urban":"Desaloka","postal_code":84454}]