[{"province":"Nusa Tenggara Timur","city":"Kupang","district":"Fatuleu Barat","urban":"Poto","postal_code":85223},{"province":"Nusa Tenggara Timur","city":"Kupang","district":"Fatuleu Barat","urban":"Tuakau","postal_code":85223},{"province":"Nusa Tenggara Timur","city":"Kupang","district":"Fatuleu Tengah","urban":"Passi","postal_code":85223},{"province":"Nusa Tenggara Timur","city":"Kupang","district":"Fatuleu Tengah","urban":"Nunsaen","postal_code":85223},{"province":"Nusa Tenggara Timur","city":"Kupang","district":"Fatuleu Tengah","urban":"Oelbiteno","postal_code":85223},{"province":"Nusa Tenggara Timur","city":"Kupang","district":"Fatuleu Barat","urban":"Nuataus","postal_code":85223},{"province":"Nusa Tenggara Timur","city":"Kupang","district":"Fatuleu Tengah","urban":"Nonbaun","postal_code":85223},{"province":"Nusa Tenggara Timur","city":"Kupang","district":"Fatuleu Barat","urban":"Kalali","postal_code":85223},{"province":"Nusa Tenggara Timur","city":"Kupang","district":"Fatuleu Barat","urban":"Naitae","postal_code":85223}]