[{"province":"Nusa Tenggara Timur","city":"Kupang","district":"Kupang Tengah","urban":"Tarus","postal_code":85361},{"province":"Nusa Tenggara Timur","city":"Kupang","district":"Taebenu","urban":"Oeltua","postal_code":85361},{"province":"Nusa Tenggara Timur","city":"Kupang","district":"Kupang Tengah","urban":"Penfui Timur","postal_code":85361},{"province":"Nusa Tenggara Timur","city":"Kupang","district":"Kupang Tengah","urban":"Tanah Merah","postal_code":85361},{"province":"Nusa Tenggara Timur","city":"Kupang","district":"Kupang Tengah","urban":"Oelpuah","postal_code":85361},{"province":"Nusa Tenggara Timur","city":"Kupang","district":"Kupang Tengah","urban":"Oelnasi","postal_code":85361},{"province":"Nusa Tenggara Timur","city":"Kupang","district":"Taebenu","urban":"Oeletsala","postal_code":85361},{"province":"Nusa Tenggara Timur","city":"Kupang","district":"Kupang Tengah","urban":"Oebelo","postal_code":85361},{"province":"Nusa Tenggara Timur","city":"Kupang","district":"Kupang Tengah","urban":"Noelbaki","postal_code":85361},{"province":"Nusa Tenggara Timur","city":"Kupang","district":"Kupang Tengah","urban":"Mata Air","postal_code":85361},{"province":"Nusa Tenggara Timur","city":"Kupang","district":"Taebenu","urban":"Bokong","postal_code":85361},{"province":"Nusa Tenggara Timur","city":"Kupang","district":"Taebenu","urban":"Kuaklalo","postal_code":85361},{"province":"Nusa Tenggara Timur","city":"Kupang","district":"Taebenu","urban":"Baumata Utara","postal_code":85361},{"province":"Nusa Tenggara Timur","city":"Kupang","district":"Taebenu","urban":"Baumata Barat","postal_code":85361},{"province":"Nusa Tenggara Timur","city":"Kupang","district":"Taebenu","urban":"Baumata Timur","postal_code":85361},{"province":"Nusa Tenggara Timur","city":"Kupang","district":"Taebenu","urban":"Baumata","postal_code":85361}]