[{"province":"Nusa Tenggara Timur","city":"Kupang","district":"Fatuleu","urban":"Sillu","postal_code":85363},{"province":"Nusa Tenggara Timur","city":"Kupang","district":"Fatuleu","urban":"Tulnaku","postal_code":85363},{"province":"Nusa Tenggara Timur","city":"Kupang","district":"Amabi Oefeto Timur","urban":"Seki","postal_code":85363},{"province":"Nusa Tenggara Timur","city":"Kupang","district":"Amabi Oefeto Timur","urban":"Oenuntono (Oenunutono)","postal_code":85363},{"province":"Nusa Tenggara Timur","city":"Kupang","district":"Amabi Oefeto Timur","urban":"Pathau","postal_code":85363},{"province":"Nusa Tenggara Timur","city":"Kupang","district":"Amabi Oefeto Timur","urban":"Oenaunu","postal_code":85363},{"province":"Nusa Tenggara Timur","city":"Kupang","district":"Amabi Oefeto Timur","urban":"Oeniko","postal_code":85363},{"province":"Nusa Tenggara Timur","city":"Kupang","district":"Amabi Oefeto Timur","urban":"Oemofa","postal_code":85363},{"province":"Nusa Tenggara Timur","city":"Kupang","district":"Amabi Oefeto Timur","urban":"Oemolo","postal_code":85363},{"province":"Nusa Tenggara Timur","city":"Kupang","district":"Fatuleu","urban":"Oebola Dalam","postal_code":85363},{"province":"Nusa Tenggara Timur","city":"Kupang","district":"Amabi Oefeto","urban":"Oeleto (Oefeto)","postal_code":85363},{"province":"Nusa Tenggara Timur","city":"Kupang","district":"Fatuleu","urban":"Oebola","postal_code":85363},{"province":"Nusa Tenggara Timur","city":"Kupang","district":"Amabi Oefeto Timur","urban":"Nunmafo","postal_code":85363},{"province":"Nusa Tenggara Timur","city":"Kupang","district":"Fatuleu","urban":"Naunu","postal_code":85363},{"province":"Nusa Tenggara Timur","city":"Kupang","district":"Amabi Oefeto Timur","urban":"Muke","postal_code":85363},{"province":"Nusa Tenggara Timur","city":"Kupang","district":"Amabi Oefeto","urban":"Niunbaun","postal_code":85363},{"province":"Nusa Tenggara Timur","city":"Kupang","district":"Fatuleu","urban":"Kuimasi","postal_code":85363},{"province":"Nusa Tenggara Timur","city":"Kupang","district":"Fatuleu","urban":"Kiuoni","postal_code":85363},{"province":"Nusa Tenggara Timur","city":"Kupang","district":"Amabi Oefeto Timur","urban":"Enolanan","postal_code":85363},{"province":"Nusa Tenggara Timur","city":"Kupang","district":"Fatuleu","urban":"Camplong II","postal_code":85363},{"province":"Nusa Tenggara Timur","city":"Kupang","district":"Fatuleu","urban":"Ekateta","postal_code":85363},{"province":"Nusa Tenggara Timur","city":"Kupang","district":"Fatuleu","urban":"Camplong I","postal_code":85363}]