[{"province":"Nusa Tenggara Timur","city":"Kupang","district":"Amarasi Barat","urban":"Tunbaun","postal_code":85367},{"province":"Nusa Tenggara Timur","city":"Kupang","district":"Amarasi Barat","urban":"Teunbaun","postal_code":85367},{"province":"Nusa Tenggara Timur","city":"Kupang","district":"Amarasi","urban":"Tesbatan II","postal_code":85367},{"province":"Nusa Tenggara Timur","city":"Kupang","district":"Amarasi Barat","urban":"Toobaun","postal_code":85367},{"province":"Nusa Tenggara Timur","city":"Kupang","district":"Amarasi Selatan","urban":"Sonraen","postal_code":85367},{"province":"Nusa Tenggara Timur","city":"Kupang","district":"Amarasi","urban":"Tesbatan","postal_code":85367},{"province":"Nusa Tenggara Timur","city":"Kupang","district":"Amarasi Barat","urban":"Soba","postal_code":85367},{"province":"Nusa Tenggara Timur","city":"Kupang","district":"Amarasi Selatan","urban":"Retraen","postal_code":85367},{"province":"Nusa Tenggara Timur","city":"Kupang","district":"Amarasi Selatan","urban":"Sahraen","postal_code":85367},{"province":"Nusa Tenggara Timur","city":"Kupang","district":"Amarasi Timur","urban":"Pakubaun","postal_code":85367},{"province":"Nusa Tenggara Timur","city":"Kupang","district":"Amarasi Timur","urban":"Rabeka","postal_code":85367},{"province":"Nusa Tenggara Timur","city":"Kupang","district":"Amarasi","urban":"Ponain","postal_code":85367},{"province":"Nusa Tenggara Timur","city":"Kupang","district":"Amarasi","urban":"Oenoni Dua","postal_code":85367},{"province":"Nusa Tenggara Timur","city":"Kupang","district":"Amarasi","urban":"Oesena","postal_code":85367},{"province":"Nusa Tenggara Timur","city":"Kupang","district":"Amarasi Timur","urban":"Oebesi","postal_code":85367},{"province":"Nusa Tenggara Timur","city":"Kupang","district":"Amarasi","urban":"Oenoni","postal_code":85367},{"province":"Nusa Tenggara Timur","city":"Kupang","district":"Amarasi","urban":"Nonbes","postal_code":85367},{"province":"Nusa Tenggara Timur","city":"Kupang","district":"Amarasi Barat","urban":"Niukbaun","postal_code":85367},{"province":"Nusa Tenggara Timur","city":"Kupang","district":"Amarasi Selatan","urban":"Nekmese","postal_code":85367},{"province":"Nusa Tenggara Timur","city":"Kupang","district":"Amarasi Barat","urban":"Merbaun","postal_code":85367},{"province":"Nusa Tenggara Timur","city":"Kupang","district":"Amarasi Barat","urban":"Nekbaun","postal_code":85367},{"province":"Nusa Tenggara Timur","city":"Kupang","district":"Amarasi","urban":"Kotabes","postal_code":85367},{"province":"Nusa Tenggara Timur","city":"Kupang","district":"Amarasi Barat","urban":"Erbaun","postal_code":85367},{"province":"Nusa Tenggara Timur","city":"Kupang","district":"Amarasi Timur","urban":"Enoraen","postal_code":85367},{"province":"Nusa Tenggara Timur","city":"Kupang","district":"Amarasi","urban":"Apren","postal_code":85367},{"province":"Nusa Tenggara Timur","city":"Kupang","district":"Amarasi Selatan","urban":"Buraen","postal_code":85367}]