[{"province":"Nusa Tenggara Timur","city":"Kupang","district":"Amfoang Barat Laut","urban":"Timau","postal_code":85364},{"province":"Nusa Tenggara Timur","city":"Kupang","district":"Amfoang Barat Laut","urban":"Saukibe","postal_code":85364},{"province":"Nusa Tenggara Timur","city":"Kupang","district":"Amfoang Barat Laut","urban":"Soliu","postal_code":85364},{"province":"Nusa Tenggara Timur","city":"Kupang","district":"Amfoang Selatan","urban":"Ohaem","postal_code":85364},{"province":"Nusa Tenggara Timur","city":"Kupang","district":"Amfoang Selatan","urban":"Ohaem Dua","postal_code":85364},{"province":"Nusa Tenggara Timur","city":"Kupang","district":"Amfoang Timur","urban":"Nunuanah","postal_code":85364},{"province":"Nusa Tenggara Timur","city":"Kupang","district":"Amfoang Selatan","urban":"Oelbanu","postal_code":85364},{"province":"Nusa Tenggara Timur","city":"Kupang","district":"Amfoang Barat Laut","urban":"Oelfatu","postal_code":85364},{"province":"Nusa Tenggara Timur","city":"Kupang","district":"Amfoang Timur","urban":"Netemnanu Selatan","postal_code":85364},{"province":"Nusa Tenggara Timur","city":"Kupang","district":"Amfoang Timur","urban":"Netemnanu Utara","postal_code":85364},{"province":"Nusa Tenggara Timur","city":"Kupang","district":"Amfoang Barat Daya","urban":"Nefoneut","postal_code":85364},{"province":"Nusa Tenggara Timur","city":"Kupang","district":"Amfoang Timur","urban":"Natemnanu (Natummanu)","postal_code":85364},{"province":"Nusa Tenggara Timur","city":"Kupang","district":"Amfoang Barat Daya","urban":"Letkole","postal_code":85364},{"province":"Nusa Tenggara Timur","city":"Kupang","district":"Amfoang Barat Daya","urban":"Manubelon","postal_code":85364},{"province":"Nusa Tenggara Timur","city":"Kupang","district":"Amfoang Selatan","urban":"Leloboko","postal_code":85364},{"province":"Nusa Tenggara Timur","city":"Kupang","district":"Amfoang Selatan","urban":"Lelogama","postal_code":85364},{"province":"Nusa Tenggara Timur","city":"Kupang","district":"Amfoang Timur","urban":"Kifu","postal_code":85364},{"province":"Nusa Tenggara Timur","city":"Kupang","district":"Amfoang Barat Laut","urban":"Honuk","postal_code":85364},{"province":"Nusa Tenggara Timur","city":"Kupang","district":"Amfoang Barat Laut","urban":"Faumes","postal_code":85364},{"province":"Nusa Tenggara Timur","city":"Kupang","district":"Amfoang Selatan","urban":"Fatusuki","postal_code":85364},{"province":"Nusa Tenggara Timur","city":"Kupang","district":"Amfoang Tengah","urban":"Fatumonas","postal_code":85364},{"province":"Nusa Tenggara Timur","city":"Kupang","district":"Amfoang Selatan","urban":"Fatumetan","postal_code":85364},{"province":"Nusa Tenggara Timur","city":"Kupang","district":"Amfoang Tengah","urban":"Bonmuti","postal_code":85364},{"province":"Nusa Tenggara Timur","city":"Kupang","district":"Amfoang Tengah","urban":"Bitobe","postal_code":85364},{"province":"Nusa Tenggara Timur","city":"Kupang","district":"Amfoang Barat Daya","urban":"Bioba Baru (Barutaen)","postal_code":85364},{"province":"Nusa Tenggara Timur","city":"Kupang","district":"Amfoang Tengah","urban":"Binafun","postal_code":85364}]