[{"province":"Nusa Tenggara Timur","city":"Kupang","district":"Nekamese","urban":"Tunfeu","postal_code":85391},{"province":"Nusa Tenggara Timur","city":"Kupang","district":"Nekamese","urban":"Usapisonbai","postal_code":85391},{"province":"Nusa Tenggara Timur","city":"Kupang","district":"Nekamese","urban":"Tasikona","postal_code":85391},{"province":"Nusa Tenggara Timur","city":"Kupang","district":"Nekamese","urban":"Taloitan (Taloetan)","postal_code":85391},{"province":"Nusa Tenggara Timur","city":"Kupang","district":"Nekamese","urban":"Oemasi","postal_code":85391},{"province":"Nusa Tenggara Timur","city":"Kupang","district":"Nekamese","urban":"Oenif","postal_code":85391},{"province":"Nusa Tenggara Timur","city":"Kupang","district":"Nekamese","urban":"Oepaha","postal_code":85391},{"province":"Nusa Tenggara Timur","city":"Kupang","district":"Nekamese","urban":"Oben","postal_code":85391},{"province":"Nusa Tenggara Timur","city":"Kupang","district":"Nekamese","urban":"Oelomin","postal_code":85391},{"province":"Nusa Tenggara Timur","city":"Kupang","district":"Nekamese","urban":"Bismark (Bismarak)","postal_code":85391},{"province":"Nusa Tenggara Timur","city":"Kupang","district":"Nekamese","urban":"Bone","postal_code":85391},{"province":"Nusa Tenggara Timur","city":"Sabu Raijua","district":"Hawu Mehara","urban":"Wadumedi (Wadumeddi)","postal_code":85391},{"province":"Nusa Tenggara Timur","city":"Sabu Raijua","district":"Sabu Liae","urban":"Waduwala","postal_code":85391},{"province":"Nusa Tenggara Timur","city":"Sabu Raijua","district":"Sabu Barat","urban":"Teriwu","postal_code":85391},{"province":"Nusa Tenggara Timur","city":"Sabu Raijua","district":"Sabu Barat","urban":"Titinalede","postal_code":85391},{"province":"Nusa Tenggara Timur","city":"Sabu Raijua","district":"Hawu Mehara","urban":"Tanajawa","postal_code":85391},{"province":"Nusa Tenggara Timur","city":"Sabu Raijua","district":"Sabu Liae","urban":"Raerobo","postal_code":85391},{"province":"Nusa Tenggara Timur","city":"Sabu Raijua","district":"Sabu Barat","urban":"Roboaba","postal_code":85391},{"province":"Nusa Tenggara Timur","city":"Sabu Raijua","district":"Sabu Barat","urban":"Raemude","postal_code":85391},{"province":"Nusa Tenggara Timur","city":"Sabu Raijua","district":"Sabu Barat","urban":"Raenalulu","postal_code":85391},{"province":"Nusa Tenggara Timur","city":"Sabu Raijua","district":"Sabu Barat","urban":"Raenyale","postal_code":85391},{"province":"Nusa Tenggara Timur","city":"Sabu Raijua","district":"Sabu Barat","urban":"Raemadia","postal_code":85391},{"province":"Nusa Tenggara Timur","city":"Sabu Raijua","district":"Sabu Barat","urban":"Raemadia","postal_code":85391},{"province":"Nusa Tenggara Timur","city":"Sabu Raijua","district":"Sabu Barat","urban":"Raedewa","postal_code":85391},{"province":"Nusa Tenggara Timur","city":"Sabu Raijua","district":"Sabu Barat","urban":"Raeloro","postal_code":85391},{"province":"Nusa Tenggara Timur","city":"Sabu Raijua","district":"Sabu Barat","urban":"Raeloro","postal_code":85391},{"province":"Nusa Tenggara Timur","city":"Sabu Raijua","district":"Hawu Mehara","urban":"Pedarro (Pedaro)","postal_code":85391},{"province":"Nusa Tenggara Timur","city":"Sabu Raijua","district":"Sabu Barat","urban":"Naawawi","postal_code":85391},{"province":"Nusa Tenggara Timur","city":"Sabu Raijua","district":"Hawu Mehara","urban":"Molie (Mole)","postal_code":85391},{"province":"Nusa Tenggara Timur","city":"Sabu Raijua","district":"Sabu Barat","urban":"Menia","postal_code":85391},{"province":"Nusa Tenggara Timur","city":"Sabu Raijua","district":"Sabu Barat","urban":"Mebba","postal_code":85391},{"province":"Nusa Tenggara Timur","city":"Sabu Raijua","district":"Sabu Liae","urban":"Loboroi","postal_code":85391},{"province":"Nusa Tenggara Timur","city":"Sabu Raijua","district":"Sabu Liae","urban":"Mehona","postal_code":85391},{"province":"Nusa Tenggara Timur","city":"Sabu Raijua","district":"Hawu Mehara","urban":"Lobohede","postal_code":85391},{"province":"Nusa Tenggara Timur","city":"Sabu Raijua","district":"Sabu Barat","urban":"Ledekepaka","postal_code":85391},{"province":"Nusa Tenggara Timur","city":"Sabu Raijua","district":"Hawu Mehara","urban":"Lederaga","postal_code":85391},{"province":"Nusa Tenggara Timur","city":"Sabu Raijua","district":"Sabu Liae","urban":"Ledeke","postal_code":85391},{"province":"Nusa Tenggara Timur","city":"Sabu Raijua","district":"Hawu Mehara","urban":"Ledeae","postal_code":85391},{"province":"Nusa Tenggara Timur","city":"Sabu Raijua","district":"Sabu Barat","urban":"Ledeana","postal_code":85391},{"province":"Nusa Tenggara Timur","city":"Sabu Raijua","district":"Sabu Liae","urban":"Halapadji","postal_code":85391},{"province":"Nusa Tenggara Timur","city":"Sabu Raijua","district":"Sabu Liae","urban":"Kotahawu","postal_code":85391},{"province":"Nusa Tenggara Timur","city":"Sabu Raijua","district":"Sabu Liae","urban":"Lede Talo","postal_code":85391},{"province":"Nusa Tenggara Timur","city":"Sabu Raijua","district":"Sabu Liae","urban":"Eilogo","postal_code":85391},{"province":"Nusa Tenggara Timur","city":"Sabu Raijua","district":"Hawu Mehara","urban":"Gurimonearu","postal_code":85391},{"province":"Nusa Tenggara Timur","city":"Sabu Raijua","district":"Sabu Liae","urban":"Eikare","postal_code":85391},{"province":"Nusa Tenggara Timur","city":"Sabu Raijua","district":"Sabu Barat","urban":"Depe","postal_code":85391},{"province":"Nusa Tenggara Timur","city":"Sabu Raijua","district":"Sabu Barat","urban":"Djadu","postal_code":85391},{"province":"Nusa Tenggara Timur","city":"Sabu Raijua","district":"Sabu Liae","urban":"Deme","postal_code":85391},{"province":"Nusa Tenggara Timur","city":"Sabu Raijua","district":"Sabu Barat","urban":"Delo","postal_code":85391},{"province":"Nusa Tenggara Timur","city":"Sabu Raijua","district":"Sabu Liae","urban":"Dainao","postal_code":85391},{"province":"Nusa Tenggara Timur","city":"Sabu Raijua","district":"Hawu Mehara","urban":"Daieko","postal_code":85391}]