[{"province":"Nusa Tenggara Timur","city":"Sabu Raijua","district":"Sabu Tengah","urban":"Tada","postal_code":85392},{"province":"Nusa Tenggara Timur","city":"Sabu Raijua","district":"Sabu Timur","urban":"Loborai","postal_code":85392},{"province":"Nusa Tenggara Timur","city":"Sabu Raijua","district":"Sabu Tengah","urban":"Matei","postal_code":85392},{"province":"Nusa Tenggara Timur","city":"Sabu Raijua","district":"Sabu Timur","urban":"Lobodei","postal_code":85392},{"province":"Nusa Tenggara Timur","city":"Sabu Raijua","district":"Sabu Tengah","urban":"Loboaju","postal_code":85392},{"province":"Nusa Tenggara Timur","city":"Sabu Raijua","district":"Sabu Timur","urban":"Kujiratu","postal_code":85392},{"province":"Nusa Tenggara Timur","city":"Sabu Raijua","district":"Sabu Timur","urban":"Limagu (Limaggu)","postal_code":85392},{"province":"Nusa Tenggara Timur","city":"Sabu Raijua","district":"Sabu Timur","urban":"Keduru","postal_code":85392},{"province":"Nusa Tenggara Timur","city":"Sabu Raijua","district":"Sabu Timur","urban":"Keliha","postal_code":85392},{"province":"Nusa Tenggara Timur","city":"Sabu Raijua","district":"Sabu Tengah","urban":"Jiwuwu","postal_code":85392},{"province":"Nusa Tenggara Timur","city":"Sabu Raijua","district":"Sabu Tengah","urban":"Eimau","postal_code":85392},{"province":"Nusa Tenggara Timur","city":"Sabu Raijua","district":"Sabu Timur","urban":"Huwaga","postal_code":85392},{"province":"Nusa Tenggara Timur","city":"Sabu Raijua","district":"Sabu Tengah","urban":"Eilode","postal_code":85392},{"province":"Nusa Tenggara Timur","city":"Sabu Raijua","district":"Sabu Tengah","urban":"Eimadake (Eimmadake)","postal_code":85392},{"province":"Nusa Tenggara Timur","city":"Sabu Raijua","district":"Sabu Timur","urban":"Bodae","postal_code":85392},{"province":"Nusa Tenggara Timur","city":"Sabu Raijua","district":"Sabu Timur","urban":"Bolou","postal_code":85392},{"province":"Nusa Tenggara Timur","city":"Sabu Raijua","district":"Sabu Timur","urban":"Eiada","postal_code":85392},{"province":"Nusa Tenggara Timur","city":"Sabu Raijua","district":"Sabu Tengah","urban":"Bebae","postal_code":85392}]