[{"province":"Nusa Tenggara Timur","city":"Timor Tengah Selatan","district":"Tobu","urban":"Tutem","postal_code":85552},{"province":"Nusa Tenggara Timur","city":"Timor Tengah Selatan","district":"Mollo Utara","urban":"To&#8217;manat","postal_code":85552},{"province":"Nusa Tenggara Timur","city":"Timor Tengah Selatan","district":"Mollo Utara","urban":"Tunua","postal_code":85552},{"province":"Nusa Tenggara Timur","city":"Timor Tengah Selatan","district":"Tobu","urban":"Tobu","postal_code":85552},{"province":"Nusa Tenggara Timur","city":"Timor Tengah Selatan","district":"Mollo Utara","urban":"Taiftob","postal_code":85552},{"province":"Nusa Tenggara Timur","city":"Timor Tengah Selatan","district":"Mollo Utara","urban":"To&#8217;fen","postal_code":85552},{"province":"Nusa Tenggara Timur","city":"Timor Tengah Selatan","district":"Mollo Utara","urban":"Sebot","postal_code":85552},{"province":"Nusa Tenggara Timur","city":"Timor Tengah Selatan","district":"Tobu","urban":"Saubalan","postal_code":85552},{"province":"Nusa Tenggara Timur","city":"Timor Tengah Selatan","district":"Tobu","urban":"Pubasu","postal_code":85552},{"province":"Nusa Tenggara Timur","city":"Timor Tengah Selatan","district":"Mollo Utara","urban":"Obesi","postal_code":85552},{"province":"Nusa Tenggara Timur","city":"Timor Tengah Selatan","district":"Mollo Utara","urban":"Nefokoko","postal_code":85552},{"province":"Nusa Tenggara Timur","city":"Timor Tengah Selatan","district":"Mollo Utara","urban":"Netpala","postal_code":85552},{"province":"Nusa Tenggara Timur","city":"Timor Tengah Selatan","district":"Mollo Utara","urban":"Lelobatan","postal_code":85552},{"province":"Nusa Tenggara Timur","city":"Timor Tengah Selatan","district":"Mollo Utara","urban":"Leloboko","postal_code":85552},{"province":"Nusa Tenggara Timur","city":"Timor Tengah Selatan","district":"Mollo Utara","urban":"Iusmolo","postal_code":85552},{"province":"Nusa Tenggara Timur","city":"Timor Tengah Selatan","district":"Mollo Utara","urban":"Kokfe&#8217;u","postal_code":85552},{"province":"Nusa Tenggara Timur","city":"Timor Tengah Selatan","district":"Tobu","urban":"Huetalan","postal_code":85552},{"province":"Nusa Tenggara Timur","city":"Timor Tengah Selatan","district":"Mollo Utara","urban":"Halme","postal_code":85552},{"province":"Nusa Tenggara Timur","city":"Timor Tengah Selatan","district":"Mollo Utara","urban":"Eon Besi","postal_code":85552},{"province":"Nusa Tenggara Timur","city":"Timor Tengah Selatan","district":"Mollo Utara","urban":"Fatukoto","postal_code":85552},{"province":"Nusa Tenggara Timur","city":"Timor Tengah Selatan","district":"Mollo Utara","urban":"Bijaepunu","postal_code":85552},{"province":"Nusa Tenggara Timur","city":"Timor Tengah Selatan","district":"Mollo Utara","urban":"Bosen","postal_code":85552},{"province":"Nusa Tenggara Timur","city":"Timor Tengah Selatan","district":"Tobu","urban":"Bestobe","postal_code":85552},{"province":"Nusa Tenggara Timur","city":"Timor Tengah Selatan","district":"Mollo Utara","urban":"Ajaobaki","postal_code":85552}]