[{"province":"Nusa Tenggara Timur","city":"Timor Tengah Selatan","district":"Amanuban Barat","urban":"Tubuhue","postal_code":85551},{"province":"Nusa Tenggara Timur","city":"Timor Tengah Selatan","district":"Kuatnana","urban":"Tubmonas","postal_code":85551},{"province":"Nusa Tenggara Timur","city":"Timor Tengah Selatan","district":"Amanuban Barat","urban":"Tublopo (Meometan)","postal_code":85551},{"province":"Nusa Tenggara Timur","city":"Timor Tengah Selatan","district":"Kuatnana","urban":"Tetaf","postal_code":85551},{"province":"Nusa Tenggara Timur","city":"Timor Tengah Selatan","district":"Kuatnana","urban":"Supul","postal_code":85551},{"province":"Nusa Tenggara Timur","city":"Timor Tengah Selatan","district":"Amanuban Barat","urban":"Pusu","postal_code":85551},{"province":"Nusa Tenggara Timur","city":"Timor Tengah Selatan","district":"Kuatnana","urban":"Oof","postal_code":85551},{"province":"Nusa Tenggara Timur","city":"Timor Tengah Selatan","district":"Amanuban Barat","urban":"Nusa","postal_code":85551},{"province":"Nusa Tenggara Timur","city":"Timor Tengah Selatan","district":"Kuatnana","urban":"Oe Oe","postal_code":85551},{"province":"Nusa Tenggara Timur","city":"Timor Tengah Selatan","district":"Amanuban Barat","urban":"Nulle","postal_code":85551},{"province":"Nusa Tenggara Timur","city":"Timor Tengah Selatan","district":"Amanuban Barat","urban":"Nifukani","postal_code":85551},{"province":"Nusa Tenggara Timur","city":"Timor Tengah Selatan","district":"Kuatnana","urban":"Naukae","postal_code":85551},{"province":"Nusa Tenggara Timur","city":"Timor Tengah Selatan","district":"Amanuban Barat","urban":"Haumenibaki","postal_code":85551},{"province":"Nusa Tenggara Timur","city":"Timor Tengah Selatan","district":"Kuatnana","urban":"Enoneontes","postal_code":85551},{"province":"Nusa Tenggara Timur","city":"Timor Tengah Selatan","district":"Kuatnana","urban":"Lakat","postal_code":85551}]