[{"province":"Nusa Tenggara Timur","city":"Timor Tengah Selatan","district":"Kuanfatu","urban":"Taupi","postal_code":85563},{"province":"Nusa Tenggara Timur","city":"Timor Tengah Selatan","district":"Kolbano","urban":"Spaha","postal_code":85563},{"province":"Nusa Tenggara Timur","city":"Timor Tengah Selatan","district":"Kolbano","urban":"Pene Selatan","postal_code":85563},{"province":"Nusa Tenggara Timur","city":"Timor Tengah Selatan","district":"Kolbano","urban":"Sei","postal_code":85563},{"province":"Nusa Tenggara Timur","city":"Timor Tengah Selatan","district":"Kolbano","urban":"Ofu","postal_code":85563},{"province":"Nusa Tenggara Timur","city":"Timor Tengah Selatan","district":"Kuanfatu","urban":"Olais","postal_code":85563},{"province":"Nusa Tenggara Timur","city":"Timor Tengah Selatan","district":"Kuanfatu","urban":"Oebo","postal_code":85563},{"province":"Nusa Tenggara Timur","city":"Timor Tengah Selatan","district":"Kolbano","urban":"Pana","postal_code":85563},{"province":"Nusa Tenggara Timur","city":"Timor Tengah Selatan","district":"Kuanfatu","urban":"Oehan","postal_code":85563},{"province":"Nusa Tenggara Timur","city":"Timor Tengah Selatan","district":"Kolbano","urban":"Oeleu","postal_code":85563},{"province":"Nusa Tenggara Timur","city":"Timor Tengah Selatan","district":"Kolbano","urban":"Noesiu","postal_code":85563},{"province":"Nusa Tenggara Timur","city":"Timor Tengah Selatan","district":"Kolbano","urban":"Oetuke","postal_code":85563},{"province":"Nusa Tenggara Timur","city":"Timor Tengah Selatan","district":"Kuanfatu","urban":"Lasi","postal_code":85563},{"province":"Nusa Tenggara Timur","city":"Timor Tengah Selatan","district":"Kolbano","urban":"Nununamat","postal_code":85563},{"province":"Nusa Tenggara Timur","city":"Timor Tengah Selatan","district":"Kuanfatu","urban":"Noebeba","postal_code":85563},{"province":"Nusa Tenggara Timur","city":"Timor Tengah Selatan","district":"Kuanfatu","urban":"Kusi","postal_code":85563},{"province":"Nusa Tenggara Timur","city":"Timor Tengah Selatan","district":"Kuanfatu","urban":"Kusi Utara","postal_code":85563},{"province":"Nusa Tenggara Timur","city":"Timor Tengah Selatan","district":"Kuanfatu","urban":"Kuanfatu","postal_code":85563},{"province":"Nusa Tenggara Timur","city":"Timor Tengah Selatan","district":"Kolbano","urban":"Kolbano","postal_code":85563},{"province":"Nusa Tenggara Timur","city":"Timor Tengah Selatan","district":"Kuanfatu","urban":"Kelle","postal_code":85563},{"province":"Nusa Tenggara Timur","city":"Timor Tengah Selatan","district":"Kuanfatu","urban":"Kelle Tunan","postal_code":85563},{"province":"Nusa Tenggara Timur","city":"Timor Tengah Selatan","district":"Kuanfatu","urban":"Kakan","postal_code":85563},{"province":"Nusa Tenggara Timur","city":"Timor Tengah Selatan","district":"Kolbano","urban":"Haunobenak","postal_code":85563},{"province":"Nusa Tenggara Timur","city":"Timor Tengah Selatan","district":"Kuanfatu","urban":"Basmuti","postal_code":85563},{"province":"Nusa Tenggara Timur","city":"Timor Tengah Selatan","district":"Kolbano","urban":"Babuin","postal_code":85563}]