[{"province":"Nusa Tenggara Timur","city":"Timor Tengah Selatan","district":"Polen","urban":"Usapimnasi","postal_code":85561},{"province":"Nusa Tenggara Timur","city":"Timor Tengah Selatan","district":"Mollo Selatan","urban":"Tuasene","postal_code":85561},{"province":"Nusa Tenggara Timur","city":"Timor Tengah Selatan","district":"Nunbena","urban":"Tunbes","postal_code":85561},{"province":"Nusa Tenggara Timur","city":"Timor Tengah Selatan","district":"Tobu","urban":"Tune","postal_code":85561},{"province":"Nusa Tenggara Timur","city":"Timor Tengah Selatan","district":"Nunbena","urban":"Taneotob","postal_code":85561},{"province":"Nusa Tenggara Timur","city":"Timor Tengah Selatan","district":"Mollo Barat","urban":"Salbait","postal_code":85561},{"province":"Nusa Tenggara Timur","city":"Timor Tengah Selatan","district":"Polen","urban":"Puna","postal_code":85561},{"province":"Nusa Tenggara Timur","city":"Timor Tengah Selatan","district":"Polen","urban":"Sainoni","postal_code":85561},{"province":"Nusa Tenggara Timur","city":"Timor Tengah Selatan","district":"Mollo Tengah","urban":"Pika","postal_code":85561},{"province":"Nusa Tenggara Timur","city":"Timor Tengah Selatan","district":"Mollo Selatan","urban":"Oinlasi","postal_code":85561},{"province":"Nusa Tenggara Timur","city":"Timor Tengah Selatan","district":"Polen","urban":"Oelnunuh","postal_code":85561},{"province":"Nusa Tenggara Timur","city":"Timor Tengah Selatan","district":"Mollo Tengah","urban":"Oel&#8217;ekam","postal_code":85561},{"province":"Nusa Tenggara Timur","city":"Timor Tengah Selatan","district":"Mollo Tengah","urban":"Oelbubuk","postal_code":85561},{"province":"Nusa Tenggara Timur","city":"Timor Tengah Selatan","district":"Nunbena","urban":"Nunbena","postal_code":85561},{"province":"Nusa Tenggara Timur","city":"Timor Tengah Selatan","district":"Mollo Barat","urban":"Oel Uban (Oeuban)","postal_code":85561},{"province":"Nusa Tenggara Timur","city":"Timor Tengah Selatan","district":"Fatumnasi","urban":"Nuapin","postal_code":85561},{"province":"Nusa Tenggara Timur","city":"Timor Tengah Selatan","district":"Mollo Selatan","urban":"Noinbila","postal_code":85561},{"province":"Nusa Tenggara Timur","city":"Timor Tengah Selatan","district":"Nunbena","urban":"Noebesi","postal_code":85561},{"province":"Nusa Tenggara Timur","city":"Timor Tengah Selatan","district":"Mollo Tengah","urban":"Neke Manifeto","postal_code":85561},{"province":"Nusa Tenggara Timur","city":"Timor Tengah Selatan","district":"Fatumnasi","urban":"Nenas","postal_code":85561},{"province":"Nusa Tenggara Timur","city":"Timor Tengah Selatan","district":"Polen","urban":"Mnesatbubak","postal_code":85561},{"province":"Nusa Tenggara Timur","city":"Timor Tengah Selatan","district":"Fatumnasi","urban":"Mutis","postal_code":85561},{"province":"Nusa Tenggara Timur","city":"Timor Tengah Selatan","district":"Polen","urban":"Loli","postal_code":85561},{"province":"Nusa Tenggara Timur","city":"Timor Tengah Selatan","district":"Nunbena","urban":"Liliana","postal_code":85561},{"province":"Nusa Tenggara Timur","city":"Timor Tengah Selatan","district":"Polen","urban":"Laob","postal_code":85561},{"province":"Nusa Tenggara Timur","city":"Timor Tengah Selatan","district":"Fatumnasi","urban":"Kuanoel","postal_code":85561},{"province":"Nusa Tenggara Timur","city":"Timor Tengah Selatan","district":"Mollo Tengah","urban":"Kualeu","postal_code":85561},{"province":"Nusa Tenggara Timur","city":"Timor Tengah Selatan","district":"Mollo Barat","urban":"Koa","postal_code":85561},{"province":"Nusa Tenggara Timur","city":"Timor Tengah Selatan","district":"Polen","urban":"Konbaki","postal_code":85561},{"province":"Nusa Tenggara Timur","city":"Timor Tengah Selatan","district":"Nunbena","urban":"Feto Mone","postal_code":85561},{"province":"Nusa Tenggara Timur","city":"Timor Tengah Selatan","district":"Mollo Selatan","urban":"Kesetnana","postal_code":85561},{"province":"Nusa Tenggara Timur","city":"Timor Tengah Selatan","district":"Fatumnasi","urban":"Fatumnasi","postal_code":85561},{"province":"Nusa Tenggara Timur","city":"Timor Tengah Selatan","district":"Polen","urban":"Fatumnutu","postal_code":85561},{"province":"Nusa Tenggara Timur","city":"Timor Tengah Selatan","district":"Mollo Barat","urban":"Fatukoko","postal_code":85561},{"province":"Nusa Tenggara Timur","city":"Timor Tengah Selatan","district":"Tobu","urban":"Bonleu","postal_code":85561},{"province":"Nusa Tenggara Timur","city":"Timor Tengah Selatan","district":"Mollo Selatan","urban":"Bisene","postal_code":85561},{"province":"Nusa Tenggara Timur","city":"Timor Tengah Selatan","district":"Mollo Tengah","urban":"Binaus","postal_code":85561},{"province":"Nusa Tenggara Timur","city":"Timor Tengah Selatan","district":"Mollo Selatan","urban":"Biloto","postal_code":85561},{"province":"Nusa Tenggara Timur","city":"Timor Tengah Selatan","district":"Mollo Selatan","urban":"Bikekneno","postal_code":85561},{"province":"Nusa Tenggara Timur","city":"Timor Tengah Selatan","district":"Polen","urban":"Bijeli","postal_code":85561},{"province":"Nusa Tenggara Timur","city":"Timor Tengah Selatan","district":"Mollo Barat","urban":"Besana","postal_code":85561},{"province":"Nusa Tenggara Timur","city":"Timor Tengah Selatan","district":"Polen","urban":"Balu","postal_code":85561}]