[{"province":"Nusa Tenggara Timur","city":"Timor Tengah Selatan","district":"Batu Putih","urban":"Tuppan","postal_code":85562},{"province":"Nusa Tenggara Timur","city":"Timor Tengah Selatan","district":"Batu Putih","urban":"Tuakole","postal_code":85562},{"province":"Nusa Tenggara Timur","city":"Timor Tengah Selatan","district":"Kualin","urban":"Tuapakas","postal_code":85562},{"province":"Nusa Tenggara Timur","city":"Timor Tengah Selatan","district":"Kualin","urban":"Toineke","postal_code":85562},{"province":"Nusa Tenggara Timur","city":"Timor Tengah Selatan","district":"Kualin","urban":"Tuafanu","postal_code":85562},{"province":"Nusa Tenggara Timur","city":"Timor Tengah Selatan","district":"Noebeba","urban":"Teas","postal_code":85562},{"province":"Nusa Tenggara Timur","city":"Timor Tengah Selatan","district":"Amanuban Selatan","urban":"Pollo","postal_code":85562},{"province":"Nusa Tenggara Timur","city":"Timor Tengah Selatan","district":"Kualin","urban":"Oni","postal_code":85562},{"province":"Nusa Tenggara Timur","city":"Timor Tengah Selatan","district":"Noebeba","urban":"Oepliki","postal_code":85562},{"province":"Nusa Tenggara Timur","city":"Timor Tengah Selatan","district":"Amanuban Selatan","urban":"Oekiu","postal_code":85562},{"province":"Nusa Tenggara Timur","city":"Timor Tengah Selatan","district":"Kualin","urban":"Oemaman","postal_code":85562},{"province":"Nusa Tenggara Timur","city":"Timor Tengah Selatan","district":"Batu Putih","urban":"Oebobo","postal_code":85562},{"province":"Nusa Tenggara Timur","city":"Timor Tengah Selatan","district":"Batu Putih","urban":"Oehela","postal_code":85562},{"province":"Nusa Tenggara Timur","city":"Timor Tengah Selatan","district":"Amanuban Selatan","urban":"Oebelo","postal_code":85562},{"province":"Nusa Tenggara Timur","city":"Timor Tengah Selatan","district":"Noebeba","urban":"Oe Ekam (Oelekam)","postal_code":85562},{"province":"Nusa Tenggara Timur","city":"Timor Tengah Selatan","district":"Noebeba","urban":"Oebaki","postal_code":85562},{"province":"Nusa Tenggara Timur","city":"Timor Tengah Selatan","district":"Amanuban Selatan","urban":"Noemuke","postal_code":85562},{"province":"Nusa Tenggara Timur","city":"Timor Tengah Selatan","district":"Kualin","urban":"Nunusunu","postal_code":85562},{"province":"Nusa Tenggara Timur","city":"Timor Tengah Selatan","district":"Noebeba","urban":"Naip","postal_code":85562},{"province":"Nusa Tenggara Timur","city":"Timor Tengah Selatan","district":"Amanuban Selatan","urban":"Mio","postal_code":85562},{"province":"Nusa Tenggara Timur","city":"Timor Tengah Selatan","district":"Amanuban Selatan","urban":"Linamnutu","postal_code":85562},{"province":"Nusa Tenggara Timur","city":"Timor Tengah Selatan","district":"Kualin","urban":"Kualin","postal_code":85562},{"province":"Nusa Tenggara Timur","city":"Timor Tengah Selatan","district":"Amanuban Selatan","urban":"Kiubaat","postal_code":85562},{"province":"Nusa Tenggara Timur","city":"Timor Tengah Selatan","district":"Kualin","urban":"Kiufatu","postal_code":85562},{"province":"Nusa Tenggara Timur","city":"Timor Tengah Selatan","district":"Batu Putih","urban":"Hane","postal_code":85562},{"province":"Nusa Tenggara Timur","city":"Timor Tengah Selatan","district":"Noebeba","urban":"Fatutnana","postal_code":85562},{"province":"Nusa Tenggara Timur","city":"Timor Tengah Selatan","district":"Noebeba","urban":"Eno Nabuasa","postal_code":85562},{"province":"Nusa Tenggara Timur","city":"Timor Tengah Selatan","district":"Amanuban Selatan","urban":"Enoneten","postal_code":85562},{"province":"Nusa Tenggara Timur","city":"Timor Tengah Selatan","district":"Batu Putih","urban":"Benlutu","postal_code":85562},{"province":"Nusa Tenggara Timur","city":"Timor Tengah Selatan","district":"Batu Putih","urban":"Boentuka","postal_code":85562},{"province":"Nusa Tenggara Timur","city":"Timor Tengah Selatan","district":"Amanuban Selatan","urban":"Batnun","postal_code":85562},{"province":"Nusa Tenggara Timur","city":"Timor Tengah Selatan","district":"Amanuban Selatan","urban":"Bena","postal_code":85562}]