[{"province":"Nusa Tenggara Timur","city":"Timor Tengah Selatan","district":"Amanatun Utara","urban":"Tumu","postal_code":85574},{"province":"Nusa Tenggara Timur","city":"Timor Tengah Selatan","district":"Toianas","urban":"Toianas","postal_code":85574},{"province":"Nusa Tenggara Timur","city":"Timor Tengah Selatan","district":"Toianas","urban":"Tuataum","postal_code":85574},{"province":"Nusa Tenggara Timur","city":"Timor Tengah Selatan","district":"Amanatun Utara","urban":"Sono","postal_code":85574},{"province":"Nusa Tenggara Timur","city":"Timor Tengah Selatan","district":"Amanatun Utara","urban":"Tauanas","postal_code":85574},{"province":"Nusa Tenggara Timur","city":"Timor Tengah Selatan","district":"Amanatun Utara","urban":"Snok","postal_code":85574},{"province":"Nusa Tenggara Timur","city":"Timor Tengah Selatan","district":"Toianas","urban":"Skinu","postal_code":85574},{"province":"Nusa Tenggara Timur","city":"Timor Tengah Selatan","district":"Kok Baun","urban":"Sapnala","postal_code":85574},{"province":"Nusa Tenggara Timur","city":"Timor Tengah Selatan","district":"Toianas","urban":"Oeleu","postal_code":85574},{"province":"Nusa Tenggara Timur","city":"Timor Tengah Selatan","district":"Toianas","urban":"Sambet","postal_code":85574},{"province":"Nusa Tenggara Timur","city":"Timor Tengah Selatan","district":"Kok Baun","urban":"Obaki","postal_code":85574},{"province":"Nusa Tenggara Timur","city":"Timor Tengah Selatan","district":"Toianas","urban":"Noeolin","postal_code":85574},{"province":"Nusa Tenggara Timur","city":"Timor Tengah Selatan","district":"Kok Baun","urban":"Niti","postal_code":85574},{"province":"Nusa Tenggara Timur","city":"Timor Tengah Selatan","district":"Amanatun Utara","urban":"Nasi","postal_code":85574},{"province":"Nusa Tenggara Timur","city":"Timor Tengah Selatan","district":"Kok Baun","urban":"Lotas","postal_code":85574},{"province":"Nusa Tenggara Timur","city":"Timor Tengah Selatan","district":"Amanatun Utara","urban":"Muna","postal_code":85574},{"province":"Nusa Tenggara Timur","city":"Timor Tengah Selatan","district":"Toianas","urban":"Milli","postal_code":85574},{"province":"Nusa Tenggara Timur","city":"Timor Tengah Selatan","district":"Amanatun Utara","urban":"Lilo","postal_code":85574},{"province":"Nusa Tenggara Timur","city":"Timor Tengah Selatan","district":"Toianas","urban":"Lobus","postal_code":85574},{"province":"Nusa Tenggara Timur","city":"Timor Tengah Selatan","district":"Amanatun Utara","urban":"Fatuoni","postal_code":85574},{"province":"Nusa Tenggara Timur","city":"Timor Tengah Selatan","district":"Kok Baun","urban":"Koloto","postal_code":85574},{"province":"Nusa Tenggara Timur","city":"Timor Tengah Selatan","district":"Amanatun Utara","urban":"Fatilo","postal_code":85574},{"province":"Nusa Tenggara Timur","city":"Timor Tengah Selatan","district":"Toianas","urban":"Bokong","postal_code":85574},{"province":"Nusa Tenggara Timur","city":"Timor Tengah Selatan","district":"Kok Baun","urban":"Benahe (Benehe)","postal_code":85574}]