[{"province":"Nusa Tenggara Timur","city":"Timor Tengah Selatan","district":"Fautmolo","urban":"Tunis","postal_code":85572},{"province":"Nusa Tenggara Timur","city":"Timor Tengah Selatan","district":"Amanuban Timur","urban":"Telukh","postal_code":85572},{"province":"Nusa Tenggara Timur","city":"Timor Tengah Selatan","district":"Amanuban Timur","urban":"Tliu","postal_code":85572},{"province":"Nusa Tenggara Timur","city":"Timor Tengah Selatan","district":"Fatukopa","urban":"Taebone","postal_code":85572},{"province":"Nusa Tenggara Timur","city":"Timor Tengah Selatan","district":"Fautmolo","urban":"Sillu","postal_code":85572},{"province":"Nusa Tenggara Timur","city":"Timor Tengah Selatan","district":"Amanuban Timur","urban":"Sini","postal_code":85572},{"province":"Nusa Tenggara Timur","city":"Timor Tengah Selatan","district":"Amanuban Timur","urban":"Pisan","postal_code":85572},{"province":"Nusa Tenggara Timur","city":"Timor Tengah Selatan","district":"Oenino","urban":"Pene Utara","postal_code":85572},{"province":"Nusa Tenggara Timur","city":"Timor Tengah Selatan","district":"Amanuban Timur","urban":"Oelet","postal_code":85572},{"province":"Nusa Tenggara Timur","city":"Timor Tengah Selatan","district":"Oenino","urban":"Oenino","postal_code":85572},{"province":"Nusa Tenggara Timur","city":"Timor Tengah Selatan","district":"Amanuban Timur","urban":"Oe Ekam","postal_code":85572},{"province":"Nusa Tenggara Timur","city":"Timor Tengah Selatan","district":"Fautmolo","urban":"Oeleon","postal_code":85572},{"province":"Nusa Tenggara Timur","city":"Timor Tengah Selatan","district":"Fautmolo","urban":"Nunuhakniti","postal_code":85572},{"province":"Nusa Tenggara Timur","city":"Timor Tengah Selatan","district":"Fatukopa","urban":"Nunfutu","postal_code":85572},{"province":"Nusa Tenggara Timur","city":"Timor Tengah Selatan","district":"Oenino","urban":"Noe Noni","postal_code":85572},{"province":"Nusa Tenggara Timur","city":"Timor Tengah Selatan","district":"Fatukopa","urban":"Nifulinah","postal_code":85572},{"province":"Nusa Tenggara Timur","city":"Timor Tengah Selatan","district":"Oenino","urban":"Niki Niki Un","postal_code":85572},{"province":"Nusa Tenggara Timur","city":"Timor Tengah Selatan","district":"Amanuban Timur","urban":"Nifukiu","postal_code":85572},{"province":"Nusa Tenggara Timur","city":"Timor Tengah Selatan","district":"Oenino","urban":"Neke","postal_code":85572},{"province":"Nusa Tenggara Timur","city":"Timor Tengah Selatan","district":"Amanuban Timur","urban":"Mauleum","postal_code":85572},{"province":"Nusa Tenggara Timur","city":"Timor Tengah Selatan","district":"Amanuban Timur","urban":"Mnelaanen","postal_code":85572},{"province":"Nusa Tenggara Timur","city":"Timor Tengah Selatan","district":"Fautmolo","urban":"Kaeneno","postal_code":85572},{"province":"Nusa Tenggara Timur","city":"Timor Tengah Selatan","district":"Oenino","urban":"Hoi","postal_code":85572},{"province":"Nusa Tenggara Timur","city":"Timor Tengah Selatan","district":"Fatukopa","urban":"Kiki","postal_code":85572},{"province":"Nusa Tenggara Timur","city":"Timor Tengah Selatan","district":"Fatukopa","urban":"Ello","postal_code":85572},{"province":"Nusa Tenggara Timur","city":"Timor Tengah Selatan","district":"Fatukopa","urban":"Fatukopa","postal_code":85572},{"province":"Nusa Tenggara Timur","city":"Timor Tengah Selatan","district":"Amanuban Timur","urban":"Billa","postal_code":85572},{"province":"Nusa Tenggara Timur","city":"Timor Tengah Selatan","district":"Fautmolo","urban":"Bileon","postal_code":85572},{"province":"Nusa Tenggara Timur","city":"Timor Tengah Selatan","district":"Fatukopa","urban":"Besnam","postal_code":85572},{"province":"Nusa Tenggara Timur","city":"Timor Tengah Selatan","district":"Fautmolo","urban":"Besle&#8217;u","postal_code":85572},{"province":"Nusa Tenggara Timur","city":"Timor Tengah Selatan","district":"Oenino","urban":"Abi","postal_code":85572}]