[{"province":"Nusa Tenggara Timur","city":"Timor Tengah Selatan","district":"Amanatun Selatan","urban":"Toi","postal_code":85573},{"province":"Nusa Tenggara Timur","city":"Timor Tengah Selatan","district":"Amanatun Selatan","urban":"Sunu","postal_code":85573},{"province":"Nusa Tenggara Timur","city":"Timor Tengah Selatan","district":"Noebana","urban":"Suni","postal_code":85573},{"province":"Nusa Tenggara Timur","city":"Timor Tengah Selatan","district":"Santian","urban":"Santian","postal_code":85573},{"province":"Nusa Tenggara Timur","city":"Timor Tengah Selatan","district":"Nunkolo","urban":"Saenam","postal_code":85573},{"province":"Nusa Tenggara Timur","city":"Timor Tengah Selatan","district":"Nunkolo","urban":"Sahan","postal_code":85573},{"province":"Nusa Tenggara Timur","city":"Timor Tengah Selatan","district":"Boking","urban":"Sabun","postal_code":85573},{"province":"Nusa Tenggara Timur","city":"Timor Tengah Selatan","district":"Nunkolo","urban":"Putun","postal_code":85573},{"province":"Nusa Tenggara Timur","city":"Timor Tengah Selatan","district":"Santian","urban":"Poli","postal_code":85573},{"province":"Nusa Tenggara Timur","city":"Timor Tengah Selatan","district":"Nunkolo","urban":"Op","postal_code":85573},{"province":"Nusa Tenggara Timur","city":"Timor Tengah Selatan","district":"Amanatun Selatan","urban":"Nunleu","postal_code":85573},{"province":"Nusa Tenggara Timur","city":"Timor Tengah Selatan","district":"Amanatun Selatan","urban":"Oinlasi","postal_code":85573},{"province":"Nusa Tenggara Timur","city":"Timor Tengah Selatan","district":"Noebana","urban":"Noebana","postal_code":85573},{"province":"Nusa Tenggara Timur","city":"Timor Tengah Selatan","district":"Nunkolo","urban":"Nunkolo","postal_code":85573},{"province":"Nusa Tenggara Timur","city":"Timor Tengah Selatan","district":"Amanatun Selatan","urban":"Nifuleo","postal_code":85573},{"province":"Nusa Tenggara Timur","city":"Timor Tengah Selatan","district":"Amanatun Selatan","urban":"Netutnana","postal_code":85573},{"province":"Nusa Tenggara Timur","city":"Timor Tengah Selatan","district":"Santian","urban":"Nenotes","postal_code":85573},{"province":"Nusa Tenggara Timur","city":"Timor Tengah Selatan","district":"Nunkolo","urban":"Nenoat","postal_code":85573},{"province":"Nusa Tenggara Timur","city":"Timor Tengah Selatan","district":"Boking","urban":"Nano","postal_code":85573},{"province":"Nusa Tenggara Timur","city":"Timor Tengah Selatan","district":"Santian","urban":"Naifatu","postal_code":85573},{"province":"Nusa Tenggara Timur","city":"Timor Tengah Selatan","district":"Noebana","urban":"Mnelapetu","postal_code":85573},{"province":"Nusa Tenggara Timur","city":"Timor Tengah Selatan","district":"Boking","urban":"Meusin","postal_code":85573},{"province":"Nusa Tenggara Timur","city":"Timor Tengah Selatan","district":"Santian","urban":"Manufui","postal_code":85573},{"province":"Nusa Tenggara Timur","city":"Timor Tengah Selatan","district":"Noebana","urban":"Mella","postal_code":85573},{"province":"Nusa Tenggara Timur","city":"Timor Tengah Selatan","district":"Boking","urban":"Leonani (Leonmeni)","postal_code":85573},{"province":"Nusa Tenggara Timur","city":"Timor Tengah Selatan","district":"Amanatun Selatan","urban":"Lanu","postal_code":85573},{"province":"Nusa Tenggara Timur","city":"Timor Tengah Selatan","district":"Amanatun Selatan","urban":"Kualeu","postal_code":85573},{"province":"Nusa Tenggara Timur","city":"Timor Tengah Selatan","district":"Amanatun Selatan","urban":"Kokoi","postal_code":85573},{"province":"Nusa Tenggara Timur","city":"Timor Tengah Selatan","district":"Nunkolo","urban":"Hoineno","postal_code":85573},{"province":"Nusa Tenggara Timur","city":"Timor Tengah Selatan","district":"Nunkolo","urban":"Haumeni","postal_code":85573},{"province":"Nusa Tenggara Timur","city":"Timor Tengah Selatan","district":"Amanatun Selatan","urban":"Fenun","postal_code":85573},{"province":"Nusa Tenggara Timur","city":"Timor Tengah Selatan","district":"Noebana","urban":"Fatumnasi","postal_code":85573},{"province":"Nusa Tenggara Timur","city":"Timor Tengah Selatan","district":"Boking","urban":"Fatu Manufui","postal_code":85573},{"province":"Nusa Tenggara Timur","city":"Timor Tengah Selatan","district":"Amanatun Selatan","urban":"Fatulunu","postal_code":85573},{"province":"Nusa Tenggara Timur","city":"Timor Tengah Selatan","district":"Nunkolo","urban":"Fat","postal_code":85573},{"province":"Nusa Tenggara Timur","city":"Timor Tengah Selatan","district":"Boking","urban":"Boking","postal_code":85573},{"province":"Nusa Tenggara Timur","city":"Timor Tengah Selatan","district":"Amanatun Selatan","urban":"Fae","postal_code":85573},{"province":"Nusa Tenggara Timur","city":"Timor Tengah Selatan","district":"Boking","urban":"Baus","postal_code":85573},{"province":"Nusa Tenggara Timur","city":"Timor Tengah Selatan","district":"Amanatun Selatan","urban":"Anin","postal_code":85573}]