[{"province":"Nusa Tenggara Timur","city":"Timor Tengah Selatan","district":"Kie (Ki'e)","urban":"Pili","postal_code":85575},{"province":"Nusa Tenggara Timur","city":"Timor Tengah Selatan","district":"Kie (Ki'e)","urban":"Tesi Ayofanu","postal_code":85575},{"province":"Nusa Tenggara Timur","city":"Timor Tengah Selatan","district":"Kot Olin","urban":"Panite","postal_code":85575},{"province":"Nusa Tenggara Timur","city":"Timor Tengah Selatan","district":"Kie (Ki'e)","urban":"Oinlasi","postal_code":85575},{"province":"Nusa Tenggara Timur","city":"Timor Tengah Selatan","district":"Kot Olin","urban":"O Obibi","postal_code":85575},{"province":"Nusa Tenggara Timur","city":"Timor Tengah Selatan","district":"Kie (Ki'e)","urban":"Oenai","postal_code":85575},{"province":"Nusa Tenggara Timur","city":"Timor Tengah Selatan","district":"Kot Olin","urban":"Nualunat","postal_code":85575},{"province":"Nusa Tenggara Timur","city":"Timor Tengah Selatan","district":"Kot Olin","urban":"Nunbena","postal_code":85575},{"province":"Nusa Tenggara Timur","city":"Timor Tengah Selatan","district":"Kie (Ki'e)","urban":"Napi","postal_code":85575},{"province":"Nusa Tenggara Timur","city":"Timor Tengah Selatan","district":"Kie (Ki'e)","urban":"Nekmese","postal_code":85575},{"province":"Nusa Tenggara Timur","city":"Timor Tengah Selatan","district":"Kie (Ki'e)","urban":"Naile&#8217;u","postal_code":85575},{"province":"Nusa Tenggara Timur","city":"Timor Tengah Selatan","district":"Kot Olin","urban":"Kot Olin","postal_code":85575},{"province":"Nusa Tenggara Timur","city":"Timor Tengah Selatan","district":"Kie (Ki'e)","urban":"Fatuulan","postal_code":85575},{"province":"Nusa Tenggara Timur","city":"Timor Tengah Selatan","district":"Kot Olin","urban":"Hoibeti","postal_code":85575},{"province":"Nusa Tenggara Timur","city":"Timor Tengah Selatan","district":"Kie (Ki'e)","urban":"Fallas","postal_code":85575},{"province":"Nusa Tenggara Timur","city":"Timor Tengah Selatan","district":"Kie (Ki'e)","urban":"Fatukusi","postal_code":85575},{"province":"Nusa Tenggara Timur","city":"Timor Tengah Selatan","district":"Kie (Ki'e)","urban":"Fatukusi","postal_code":85575},{"province":"Nusa Tenggara Timur","city":"Timor Tengah Selatan","district":"Kie (Ki'e)","urban":"Boti","postal_code":85575},{"province":"Nusa Tenggara Timur","city":"Timor Tengah Selatan","district":"Kie (Ki'e)","urban":"Enonapi","postal_code":85575},{"province":"Nusa Tenggara Timur","city":"Timor Tengah Selatan","district":"Kot Olin","urban":"Binenok","postal_code":85575},{"province":"Nusa Tenggara Timur","city":"Timor Tengah Selatan","district":"Kie (Ki'e)","urban":"Belle","postal_code":85575}]