[{"province":"Nusa Tenggara Timur","city":"Timor Tengah Selatan","district":"Amanuban Tengah","urban":"Tumu","postal_code":85571},{"province":"Nusa Tenggara Timur","city":"Timor Tengah Selatan","district":"Amanuban Tengah","urban":"Sopo","postal_code":85571},{"province":"Nusa Tenggara Timur","city":"Timor Tengah Selatan","district":"Amanuban Tengah","urban":"Taebesa","postal_code":85571},{"province":"Nusa Tenggara Timur","city":"Timor Tengah Selatan","district":"Amanuban Tengah","urban":"Noebesa","postal_code":85571},{"province":"Nusa Tenggara Timur","city":"Timor Tengah Selatan","district":"Amanuban Tengah","urban":"Oeekam","postal_code":85571},{"province":"Nusa Tenggara Timur","city":"Timor Tengah Selatan","district":"Amanuban Tengah","urban":"Niki Niki","postal_code":85571},{"province":"Nusa Tenggara Timur","city":"Timor Tengah Selatan","district":"Amanuban Tengah","urban":"Nobi Nobi","postal_code":85571},{"province":"Nusa Tenggara Timur","city":"Timor Tengah Selatan","district":"Amanuban Tengah","urban":"Nakfunu","postal_code":85571},{"province":"Nusa Tenggara Timur","city":"Timor Tengah Selatan","district":"Amanuban Tengah","urban":"Maunum Niki Niki","postal_code":85571},{"province":"Nusa Tenggara Timur","city":"Timor Tengah Selatan","district":"Amanuban Tengah","urban":"Baki","postal_code":85571},{"province":"Nusa Tenggara Timur","city":"Timor Tengah Selatan","district":"Amanuban Tengah","urban":"Bone","postal_code":85571}]