[{"province":"Nusa Tenggara Timur","city":"Timor Tengah Utara","district":"Miomaffo Timur","urban":"Tuntun","postal_code":85651},{"province":"Nusa Tenggara Timur","city":"Timor Tengah Utara","district":"Miomaffo Timur","urban":"Tunoe","postal_code":85651},{"province":"Nusa Tenggara Timur","city":"Timor Tengah Utara","district":"Bikomi Utara","urban":"Tes","postal_code":85651},{"province":"Nusa Tenggara Timur","city":"Timor Tengah Utara","district":"Bikomi Nilulat","urban":"Tubu","postal_code":85651},{"province":"Nusa Tenggara Timur","city":"Timor Tengah Utara","district":"Naibenu","urban":"Sunsea","postal_code":85651},{"province":"Nusa Tenggara Timur","city":"Timor Tengah Utara","district":"Miomaffo Timur","urban":"Taekas","postal_code":85651},{"province":"Nusa Tenggara Timur","city":"Timor Tengah Utara","district":"Bikomi Utara","urban":"Sainoni","postal_code":85651},{"province":"Nusa Tenggara Timur","city":"Timor Tengah Utara","district":"Bikomi Nilulat","urban":"Sunkaen","postal_code":85651},{"province":"Nusa Tenggara Timur","city":"Timor Tengah Utara","district":"Bikomi Selatan","urban":"Oetalus","postal_code":85651},{"province":"Nusa Tenggara Timur","city":"Timor Tengah Utara","district":"Miomaffo Timur","urban":"Oesena","postal_code":85651},{"province":"Nusa Tenggara Timur","city":"Timor Tengah Utara","district":"Bikomi Tengah","urban":"Oenenu Utara","postal_code":85651},{"province":"Nusa Tenggara Timur","city":"Timor Tengah Utara","district":"Bikomi Tengah","urban":"Oenino","postal_code":85651},{"province":"Nusa Tenggara Timur","city":"Timor Tengah Utara","district":"Bikomi Tengah","urban":"Oenenu","postal_code":85651},{"province":"Nusa Tenggara Timur","city":"Timor Tengah Utara","district":"Bikomi Tengah","urban":"Oenenu Selatan","postal_code":85651},{"province":"Nusa Tenggara Timur","city":"Timor Tengah Utara","district":"Bikomi Tengah","urban":"Oelbonak","postal_code":85651},{"province":"Nusa Tenggara Timur","city":"Timor Tengah Utara","district":"Bikomi Selatan","urban":"Oelami","postal_code":85651},{"province":"Nusa Tenggara Timur","city":"Timor Tengah Utara","district":"Bikomi Tengah","urban":"Nimasi","postal_code":85651},{"province":"Nusa Tenggara Timur","city":"Timor Tengah Utara","district":"Bikomi Utara","urban":"Napan","postal_code":85651},{"province":"Nusa Tenggara Timur","city":"Timor Tengah Utara","district":"Bikomi Nilulat","urban":"Nilulat","postal_code":85651},{"province":"Nusa Tenggara Timur","city":"Timor Tengah Utara","district":"Bikomi Selatan","urban":"Naiola","postal_code":85651},{"province":"Nusa Tenggara Timur","city":"Timor Tengah Utara","district":"Bikomi Selatan","urban":"Maurisu Selatan","postal_code":85651},{"province":"Nusa Tenggara Timur","city":"Timor Tengah Utara","district":"Bikomi Selatan","urban":"Maurisu Utara","postal_code":85651},{"province":"Nusa Tenggara Timur","city":"Timor Tengah Utara","district":"Bikomi Nilulat","urban":"Nainaban","postal_code":85651},{"province":"Nusa Tenggara Timur","city":"Timor Tengah Utara","district":"Naibenu","urban":"Manamas","postal_code":85651},{"province":"Nusa Tenggara Timur","city":"Timor Tengah Utara","district":"Bikomi Selatan","urban":"Maurisu","postal_code":85651},{"province":"Nusa Tenggara Timur","city":"Timor Tengah Utara","district":"Miomaffo Timur","urban":"Kaenbaun","postal_code":85651},{"province":"Nusa Tenggara Timur","city":"Timor Tengah Utara","district":"Bikomi Selatan","urban":"Kiusili","postal_code":85651},{"province":"Nusa Tenggara Timur","city":"Timor Tengah Utara","district":"Bikomi Tengah","urban":"Kuanek/Kuenak","postal_code":85651},{"province":"Nusa Tenggara Timur","city":"Timor Tengah Utara","district":"Miomaffo Timur","urban":"Jak","postal_code":85651},{"province":"Nusa Tenggara Timur","city":"Timor Tengah Utara","district":"Bikomi Nilulat","urban":"Haumeni Ana","postal_code":85651},{"province":"Nusa Tenggara Timur","city":"Timor Tengah Utara","district":"Bikomi Nilulat","urban":"Inbate","postal_code":85651},{"province":"Nusa Tenggara Timur","city":"Timor Tengah Utara","district":"Bikomi Utara","urban":"Haumeni","postal_code":85651},{"province":"Nusa Tenggara Timur","city":"Timor Tengah Utara","district":"Miomaffo Timur","urban":"Femnasi","postal_code":85651},{"province":"Nusa Tenggara Timur","city":"Timor Tengah Utara","district":"Bikomi Utara","urban":"Faennake","postal_code":85651},{"province":"Nusa Tenggara Timur","city":"Timor Tengah Utara","district":"Miomaffo Timur","urban":"Fatusene","postal_code":85651},{"province":"Nusa Tenggara Timur","city":"Timor Tengah Utara","district":"Bikomi Tengah","urban":"Buk","postal_code":85651},{"province":"Nusa Tenggara Timur","city":"Timor Tengah Utara","district":"Naibenu","urban":"Benus","postal_code":85651},{"province":"Nusa Tenggara Timur","city":"Timor Tengah Utara","district":"Miomaffo Timur","urban":"Bitefa","postal_code":85651},{"province":"Nusa Tenggara Timur","city":"Timor Tengah Utara","district":"Miomaffo Timur","urban":"Bokon","postal_code":85651},{"province":"Nusa Tenggara Timur","city":"Timor Tengah Utara","district":"Bikomi Utara","urban":"Banain B","postal_code":85651},{"province":"Nusa Tenggara Timur","city":"Timor Tengah Utara","district":"Bikomi Utara","urban":"Banain C","postal_code":85651},{"province":"Nusa Tenggara Timur","city":"Timor Tengah Utara","district":"Bikomi Utara","urban":"Banain A","postal_code":85651},{"province":"Nusa Tenggara Timur","city":"Timor Tengah Utara","district":"Naibenu","urban":"Bakitolas","postal_code":85651},{"province":"Nusa Tenggara Timur","city":"Timor Tengah Utara","district":"Bikomi Utara","urban":"Baas","postal_code":85651},{"province":"Nusa Tenggara Timur","city":"Timor Tengah Utara","district":"Miomaffo Timur","urban":"Amol","postal_code":85651}]