[{"province":"Nusa Tenggara Timur","city":"Timor Tengah Utara","district":"Miomaffo Tengah","urban":"Tuabatan","postal_code":85661},{"province":"Nusa Tenggara Timur","city":"Timor Tengah Utara","district":"Noemuti","urban":"Seo","postal_code":85661},{"province":"Nusa Tenggara Timur","city":"Timor Tengah Utara","district":"Mutis","urban":"Tasinifu","postal_code":85661},{"province":"Nusa Tenggara Timur","city":"Timor Tengah Utara","district":"Miomaffo Barat","urban":"Suanae","postal_code":85661},{"province":"Nusa Tenggara Timur","city":"Timor Tengah Utara","district":"Miomaffo Barat","urban":"Saenam","postal_code":85661},{"province":"Nusa Tenggara Timur","city":"Timor Tengah Utara","district":"Miomaffo Barat","urban":"Sallu","postal_code":85661},{"province":"Nusa Tenggara Timur","city":"Timor Tengah Utara","district":"Musi","urban":"Oetulu","postal_code":85661},{"province":"Nusa Tenggara Timur","city":"Timor Tengah Utara","district":"Noemuti","urban":"Popnam","postal_code":85661},{"province":"Nusa Tenggara Timur","city":"Timor Tengah Utara","district":"Musi","urban":"Oeolo","postal_code":85661},{"province":"Nusa Tenggara Timur","city":"Timor Tengah Utara","district":"Noemuti","urban":"Oeperigi","postal_code":85661},{"province":"Nusa Tenggara Timur","city":"Timor Tengah Utara","district":"Musi","urban":"Oelneke","postal_code":85661},{"province":"Nusa Tenggara Timur","city":"Timor Tengah Utara","district":"Noemuti","urban":"Oenak","postal_code":85661},{"province":"Nusa Tenggara Timur","city":"Timor Tengah Utara","district":"Miomaffo Tengah","urban":"Noenasi","postal_code":85661},{"province":"Nusa Tenggara Timur","city":"Timor Tengah Utara","district":"Miomaffo Barat","urban":"Noepesu","postal_code":85661},{"province":"Nusa Tenggara Timur","city":"Timor Tengah Utara","district":"Noemuti","urban":"Noemuti","postal_code":85661},{"province":"Nusa Tenggara Timur","city":"Timor Tengah Utara","district":"Mutis","urban":"Noelelo","postal_code":85661},{"province":"Nusa Tenggara Timur","city":"Timor Tengah Utara","district":"Miomaffo Barat","urban":"Noeltoko","postal_code":85661},{"province":"Nusa Tenggara Timur","city":"Timor Tengah Utara","district":"Noemuti","urban":"Nifuboke","postal_code":85661},{"province":"Nusa Tenggara Timur","city":"Timor Tengah Utara","district":"Noemuti","urban":"Noebaun","postal_code":85661},{"province":"Nusa Tenggara Timur","city":"Timor Tengah Utara","district":"Miomaffo Tengah","urban":"Nian","postal_code":85661},{"province":"Nusa Tenggara Timur","city":"Timor Tengah Utara","district":"Noemuti","urban":"Nibaaf","postal_code":85661},{"province":"Nusa Tenggara Timur","city":"Timor Tengah Utara","district":"Noemuti Timur","urban":"Naob","postal_code":85661},{"province":"Nusa Tenggara Timur","city":"Timor Tengah Utara","district":"Mutis","urban":"Naekake B","postal_code":85661},{"province":"Nusa Tenggara Timur","city":"Timor Tengah Utara","district":"Mutis","urban":"Naekake A","postal_code":85661},{"province":"Nusa Tenggara Timur","city":"Timor Tengah Utara","district":"Noemuti Timur","urban":"Manikin","postal_code":85661},{"province":"Nusa Tenggara Timur","city":"Timor Tengah Utara","district":"Miomaffo Barat","urban":"Manusasi","postal_code":85661},{"province":"Nusa Tenggara Timur","city":"Timor Tengah Utara","district":"Miomaffo Barat","urban":"Lemon","postal_code":85661},{"province":"Nusa Tenggara Timur","city":"Timor Tengah Utara","district":"Noemuti Timur","urban":"Kuaken","postal_code":85661},{"province":"Nusa Tenggara Timur","city":"Timor Tengah Utara","district":"Miomaffo Barat","urban":"Haulasi","postal_code":85661},{"province":"Nusa Tenggara Timur","city":"Timor Tengah Utara","district":"Noemuti","urban":"Kiuola","postal_code":85661},{"province":"Nusa Tenggara Timur","city":"Timor Tengah Utara","district":"Miomaffo Barat","urban":"Fatutasu","postal_code":85661},{"province":"Nusa Tenggara Timur","city":"Timor Tengah Utara","district":"Noemuti Timur","urban":"Haekto","postal_code":85661},{"province":"Nusa Tenggara Timur","city":"Timor Tengah Utara","district":"Miomaffo Barat","urban":"Fatunisuan","postal_code":85661},{"province":"Nusa Tenggara Timur","city":"Timor Tengah Utara","district":"Miomaffo Barat","urban":"Eban","postal_code":85661},{"province":"Nusa Tenggara Timur","city":"Timor Tengah Utara","district":"Miomaffo Barat","urban":"Fatuneno","postal_code":85661},{"province":"Nusa Tenggara Timur","city":"Timor Tengah Utara","district":"Noemuti","urban":"Fatumuti","postal_code":85661},{"province":"Nusa Tenggara Timur","city":"Timor Tengah Utara","district":"Noemuti","urban":"Bijeli","postal_code":85661},{"province":"Nusa Tenggara Timur","city":"Timor Tengah Utara","district":"Musi","urban":"Bisafe","postal_code":85661},{"province":"Nusa Tenggara Timur","city":"Timor Tengah Utara","district":"Miomaffo Tengah","urban":"Bijaepasu","postal_code":85661},{"province":"Nusa Tenggara Timur","city":"Timor Tengah Utara","district":"Noemuti","urban":"Banfanu","postal_code":85661},{"province":"Nusa Tenggara Timur","city":"Timor Tengah Utara","district":"Musi","urban":"Batnes","postal_code":85661},{"province":"Nusa Tenggara Timur","city":"Timor Tengah Utara","district":"Miomaffo Tengah","urban":"Akomi","postal_code":85661},{"province":"Nusa Tenggara Timur","city":"Timor Tengah Utara","district":"Musi","urban":"Ainan","postal_code":85661}]