[{"province":"Nusa Tenggara Timur","city":"Timor Tengah Utara","district":"Insana Barat","urban":"Usapinonot","postal_code":85671},{"province":"Nusa Tenggara Timur","city":"Timor Tengah Utara","district":"Insana","urban":"Tapenpah","postal_code":85671},{"province":"Nusa Tenggara Timur","city":"Timor Tengah Utara","district":"Insana Tengah","urban":"Tainsala","postal_code":85671},{"province":"Nusa Tenggara Timur","city":"Timor Tengah Utara","district":"Insana","urban":"Susulaku A","postal_code":85671},{"province":"Nusa Tenggara Timur","city":"Timor Tengah Utara","district":"Insana","urban":"Susulaku B","postal_code":85671},{"province":"Nusa Tenggara Timur","city":"Timor Tengah Utara","district":"Insana Barat","urban":"Subun","postal_code":85671},{"province":"Nusa Tenggara Timur","city":"Timor Tengah Utara","district":"Insana Tengah","urban":"Sone","postal_code":85671},{"province":"Nusa Tenggara Timur","city":"Timor Tengah Utara","district":"Insana","urban":"Sekon","postal_code":85671},{"province":"Nusa Tenggara Timur","city":"Timor Tengah Utara","district":"Insana","urban":"Oinbit","postal_code":85671},{"province":"Nusa Tenggara Timur","city":"Timor Tengah Utara","district":"Insana Fafinesu","urban":"Oenain","postal_code":85671},{"province":"Nusa Tenggara Timur","city":"Timor Tengah Utara","district":"Insana Utara","urban":"Oesoko","postal_code":85671},{"province":"Nusa Tenggara Timur","city":"Timor Tengah Utara","district":"Insana","urban":"Nunmafo","postal_code":85671},{"province":"Nusa Tenggara Timur","city":"Timor Tengah Utara","district":"Insana Tengah","urban":"Maubesi","postal_code":85671},{"province":"Nusa Tenggara Timur","city":"Timor Tengah Utara","district":"Insana","urban":"Nansean","postal_code":85671},{"province":"Nusa Tenggara Timur","city":"Timor Tengah Utara","district":"Insana","urban":"Manunain A","postal_code":85671},{"province":"Nusa Tenggara Timur","city":"Timor Tengah Utara","district":"Insana","urban":"Manunain B","postal_code":85671},{"province":"Nusa Tenggara Timur","city":"Timor Tengah Utara","district":"Insana","urban":"Loeram","postal_code":85671},{"province":"Nusa Tenggara Timur","city":"Timor Tengah Utara","district":"Insana Tengah","urban":"Letmafo","postal_code":85671},{"province":"Nusa Tenggara Timur","city":"Timor Tengah Utara","district":"Insana Barat","urban":"Letneo","postal_code":85671},{"province":"Nusa Tenggara Timur","city":"Timor Tengah Utara","district":"Insana Tengah","urban":"Lanaus","postal_code":85671},{"province":"Nusa Tenggara Timur","city":"Timor Tengah Utara","district":"Insana Barat","urban":"Lapeom","postal_code":85671},{"province":"Nusa Tenggara Timur","city":"Timor Tengah Utara","district":"Insana Utara","urban":"Humusu C","postal_code":85671},{"province":"Nusa Tenggara Timur","city":"Timor Tengah Utara","district":"Insana","urban":"Keun","postal_code":85671},{"province":"Nusa Tenggara Timur","city":"Timor Tengah Utara","district":"Insana Utara","urban":"Humusu A","postal_code":85671},{"province":"Nusa Tenggara Timur","city":"Timor Tengah Utara","district":"Insana Utara","urban":"Humusu B","postal_code":85671},{"province":"Nusa Tenggara Timur","city":"Timor Tengah Utara","district":"Insana Utara","urban":"Fatumtasa","postal_code":85671},{"province":"Nusa Tenggara Timur","city":"Timor Tengah Utara","district":"Insana","urban":"Fatoin","postal_code":85671},{"province":"Nusa Tenggara Timur","city":"Timor Tengah Utara","district":"Insana Fafinesu","urban":"Fafinesu B","postal_code":85671},{"province":"Nusa Tenggara Timur","city":"Timor Tengah Utara","district":"Insana Fafinesu","urban":"Fafinesu C","postal_code":85671},{"province":"Nusa Tenggara Timur","city":"Timor Tengah Utara","district":"Insana Fafinesu","urban":"Fafinesu","postal_code":85671},{"province":"Nusa Tenggara Timur","city":"Timor Tengah Utara","district":"Insana Fafinesu","urban":"Fafinesu A","postal_code":85671},{"province":"Nusa Tenggara Timur","city":"Timor Tengah Utara","district":"Insana Barat","urban":"Banae/Bannae","postal_code":85671},{"province":"Nusa Tenggara Timur","city":"Timor Tengah Utara","district":"Insana Fafinesu","urban":"Banuan/Baunuan","postal_code":85671},{"province":"Nusa Tenggara Timur","city":"Timor Tengah Utara","district":"Insana Barat","urban":"Atmen","postal_code":85671},{"province":"Nusa Tenggara Timur","city":"Timor Tengah Utara","district":"Insana Barat","urban":"Atmen I","postal_code":85671},{"province":"Nusa Tenggara Timur","city":"Timor Tengah Utara","district":"Insana","urban":"Ainiut","postal_code":85671}]