[{"province":"Nusa Tenggara Timur","city":"Timor Tengah Utara","district":"Biboki Utara","urban":"Tualene/Tualena","postal_code":85682},{"province":"Nusa Tenggara Timur","city":"Timor Tengah Utara","district":"Biboki Utara","urban":"Sapaen","postal_code":85682},{"province":"Nusa Tenggara Timur","city":"Timor Tengah Utara","district":"Biboki Utara","urban":"Taunbaen","postal_code":85682},{"province":"Nusa Tenggara Timur","city":"Timor Tengah Utara","district":"Biboki Feotleu","urban":"Manumean","postal_code":85682},{"province":"Nusa Tenggara Timur","city":"Timor Tengah Utara","district":"Biboki Feotleu","urban":"Naku","postal_code":85682},{"province":"Nusa Tenggara Timur","city":"Timor Tengah Utara","district":"Biboki Utara","urban":"Lokomea","postal_code":85682},{"province":"Nusa Tenggara Timur","city":"Timor Tengah Utara","district":"Biboki Feotleu","urban":"Makun","postal_code":85682},{"province":"Nusa Tenggara Timur","city":"Timor Tengah Utara","district":"Biboki Utara","urban":"Hauteas","postal_code":85682},{"province":"Nusa Tenggara Timur","city":"Timor Tengah Utara","district":"Biboki Feotleu","urban":"Kuluan","postal_code":85682},{"province":"Nusa Tenggara Timur","city":"Timor Tengah Utara","district":"Biboki Utara","urban":"Boronubaen","postal_code":85682},{"province":"Nusa Tenggara Timur","city":"Timor Tengah Utara","district":"Biboki Utara","urban":"Boronubaen","postal_code":85682},{"province":"Nusa Tenggara Timur","city":"Timor Tengah Utara","district":"Biboki Utara","urban":"Biloe","postal_code":85682}]