[{"province":"Nusa Tenggara Timur","city":"Timor Tengah Utara","district":"Biboki Selatan","urban":"Upfaon","postal_code":85681},{"province":"Nusa Tenggara Timur","city":"Timor Tengah Utara","district":"Biboki Moenleu","urban":"Tunbes","postal_code":85681},{"province":"Nusa Tenggara Timur","city":"Timor Tengah Utara","district":"Biboki Selatan","urban":"Tunbaen","postal_code":85681},{"province":"Nusa Tenggara Timur","city":"Timor Tengah Utara","district":"Biboki Tan Pah","urban":"Teba Timur","postal_code":85681},{"province":"Nusa Tenggara Timur","city":"Timor Tengah Utara","district":"Biboki Selatan","urban":"Tokbesi","postal_code":85681},{"province":"Nusa Tenggara Timur","city":"Timor Tengah Utara","district":"Biboki Tan Pah","urban":"Teba","postal_code":85681},{"province":"Nusa Tenggara Timur","city":"Timor Tengah Utara","district":"Biboki Selatan","urban":"Tautpah","postal_code":85681},{"province":"Nusa Tenggara Timur","city":"Timor Tengah Utara","district":"Biboki Selatan","urban":"Sainiup","postal_code":85681},{"province":"Nusa Tenggara Timur","city":"Timor Tengah Utara","district":"Biboki Selatan","urban":"Supun","postal_code":85681},{"province":"Nusa Tenggara Timur","city":"Timor Tengah Utara","district":"Biboki Tan Pah","urban":"Oerinbesi","postal_code":85681},{"province":"Nusa Tenggara Timur","city":"Timor Tengah Utara","district":"Biboki Selatan","urban":"Pantae","postal_code":85681},{"province":"Nusa Tenggara Timur","city":"Timor Tengah Utara","district":"Biboki Moenleu","urban":"Oepuah Selatan","postal_code":85681},{"province":"Nusa Tenggara Timur","city":"Timor Tengah Utara","district":"Biboki Moenleu","urban":"Oepuah Utara","postal_code":85681},{"province":"Nusa Tenggara Timur","city":"Timor Tengah Utara","district":"Biboki Selatan","urban":"Oenaem","postal_code":85681},{"province":"Nusa Tenggara Timur","city":"Timor Tengah Utara","district":"Biboki Moenleu","urban":"Oepuah","postal_code":85681},{"province":"Nusa Tenggara Timur","city":"Timor Tengah Utara","district":"Biboki Tan Pah","urban":"Oekopa","postal_code":85681},{"province":"Nusa Tenggara Timur","city":"Timor Tengah Utara","district":"Biboki Moenleu","urban":"Matabesi","postal_code":85681},{"province":"Nusa Tenggara Timur","city":"Timor Tengah Utara","district":"Biboki Moenleu","urban":"Kaubele","postal_code":85681},{"province":"Nusa Tenggara Timur","city":"Timor Tengah Utara","district":"Biboki Moenleu","urban":"Luniup","postal_code":85681}]