[{"province":"Nusa Tenggara Timur","city":"Belu","district":"Laen Manen","urban":"Tniumanu","postal_code":85718},{"province":"Nusa Tenggara Timur","city":"Belu","district":"Laen Manen","urban":"Uabau","postal_code":85718},{"province":"Nusa Tenggara Timur","city":"Belu","district":"Atambua Selatan","urban":"Rinbesi","postal_code":85718},{"province":"Nusa Tenggara Timur","city":"Belu","district":"Laen Manen","urban":"Tesa","postal_code":85718},{"province":"Nusa Tenggara Timur","city":"Belu","district":"Laen Manen","urban":"Naekekusa","postal_code":85718},{"province":"Nusa Tenggara Timur","city":"Belu","district":"Laen Manen","urban":"Oenaek","postal_code":85718},{"province":"Nusa Tenggara Timur","city":"Belu","district":"Laen Manen","urban":"Meotroy","postal_code":85718},{"province":"Nusa Tenggara Timur","city":"Belu","district":"Atambua Selatan","urban":"Manuaman","postal_code":85718},{"province":"Nusa Tenggara Timur","city":"Belu","district":"Laen Manen","urban":"Kapitanmeo","postal_code":85718},{"province":"Nusa Tenggara Timur","city":"Belu","district":"Laen Manen","urban":"Bonibais","postal_code":85718},{"province":"Nusa Tenggara Timur","city":"Belu","district":"Atambua Kota","urban":"Fatubenao","postal_code":85718},{"province":"Nusa Tenggara Timur","city":"Belu","district":"Laen Manen","urban":"Besesmus/Bisesmus","postal_code":85718},{"province":"Nusa Tenggara Timur","city":"Belu","district":"Laen Manen","urban":"Besesmus/Bisesmus","postal_code":85718}]