[{"province":"Nusa Tenggara Timur","city":"Belu","district":"Tasifeto Barat","urban":"Tukuneno","postal_code":85752},{"province":"Nusa Tenggara Timur","city":"Belu","district":"Tasifeto Barat","urban":"Rinbesihat","postal_code":85752},{"province":"Nusa Tenggara Timur","city":"Belu","district":"Nanaet Duabesi","urban":"Nanaet","postal_code":85752},{"province":"Nusa Tenggara Timur","city":"Belu","district":"Nanaet Duabesi","urban":"Nanaenoe","postal_code":85752},{"province":"Nusa Tenggara Timur","city":"Belu","district":"Tasifeto Barat","urban":"Naekasa","postal_code":85752},{"province":"Nusa Tenggara Timur","city":"Belu","district":"Tasifeto Barat","urban":"Naitimu","postal_code":85752},{"province":"Nusa Tenggara Timur","city":"Belu","district":"Kakuluk Mesak","urban":"Leosama","postal_code":85752},{"province":"Nusa Tenggara Timur","city":"Belu","district":"Tasifeto Barat","urban":"Lookeu","postal_code":85752},{"province":"Nusa Tenggara Timur","city":"Belu","district":"Kakuluk Mesak","urban":"Kabuna","postal_code":85752},{"province":"Nusa Tenggara Timur","city":"Belu","district":"Kakuluk Mesak","urban":"Kenebibi","postal_code":85752},{"province":"Nusa Tenggara Timur","city":"Belu","district":"Tasifeto Barat","urban":"Lawalutolus","postal_code":85752},{"province":"Nusa Tenggara Timur","city":"Belu","district":"Kakuluk Mesak","urban":"Jenilu","postal_code":85752},{"province":"Nusa Tenggara Timur","city":"Belu","district":"Nanaet Duabesi","urban":"Fohoeka","postal_code":85752},{"province":"Nusa Tenggara Timur","city":"Belu","district":"Kakuluk Mesak","urban":"Fatuketi","postal_code":85752},{"province":"Nusa Tenggara Timur","city":"Belu","district":"Nanaet Duabesi","urban":"Dubesi","postal_code":85752},{"province":"Nusa Tenggara Timur","city":"Belu","district":"Kakuluk Mesak","urban":"Dua Laus","postal_code":85752},{"province":"Nusa Tenggara Timur","city":"Belu","district":"Tasifeto Barat","urban":"Bakustulama","postal_code":85752},{"province":"Nusa Tenggara Timur","city":"Belu","district":"Tasifeto Barat","urban":"Derok Faturene","postal_code":85752}]