[{"province":"Nusa Tenggara Timur","city":"Belu","district":"Malaka Timur","urban":"Wemeda","postal_code":85761},{"province":"Nusa Tenggara Timur","city":"Belu","district":"Raimanuk","urban":"Tasain","postal_code":85761},{"province":"Nusa Tenggara Timur","city":"Belu","district":"Raimanuk","urban":"Teun","postal_code":85761},{"province":"Nusa Tenggara Timur","city":"Belu","district":"Malaka Timur","urban":"Sanleo","postal_code":85761},{"province":"Nusa Tenggara Timur","city":"Belu","district":"Raimanuk","urban":"Renrua","postal_code":85761},{"province":"Nusa Tenggara Timur","city":"Belu","district":"Raimanuk","urban":"Raimanus","postal_code":85761},{"province":"Nusa Tenggara Timur","city":"Belu","district":"Malaka Timur","urban":"Raiulun","postal_code":85761},{"province":"Nusa Tenggara Timur","city":"Belu","district":"Raimanuk","urban":"Rafae","postal_code":85761},{"province":"Nusa Tenggara Timur","city":"Belu","district":"Malaka Timur","urban":"Numponi","postal_code":85761},{"province":"Nusa Tenggara Timur","city":"Belu","district":"Raimanuk","urban":"Leuntolu","postal_code":85761},{"province":"Nusa Tenggara Timur","city":"Belu","district":"Raimanuk","urban":"Mandeu","postal_code":85761},{"province":"Nusa Tenggara Timur","city":"Belu","district":"Malaka Timur","urban":"Kusa","postal_code":85761},{"province":"Nusa Tenggara Timur","city":"Belu","district":"Raimanuk","urban":"Duakoran","postal_code":85761},{"province":"Nusa Tenggara Timur","city":"Belu","district":"Raimanuk","urban":"Faturika","postal_code":85761},{"province":"Nusa Tenggara Timur","city":"Belu","district":"Malaka Timur","urban":"Dirma","postal_code":85761}]