[{"province":"Nusa Tenggara Timur","city":"Belu","district":"Sasitamean","urban":"Umutnana","postal_code":85765},{"province":"Nusa Tenggara Timur","city":"Belu","district":"Io Kufeu","urban":"Tunmat","postal_code":85765},{"province":"Nusa Tenggara Timur","city":"Belu","district":"Botin Leo Bele","urban":"Takarai","postal_code":85765},{"province":"Nusa Tenggara Timur","city":"Belu","district":"Io Kufeu","urban":"Tunabesi","postal_code":85765},{"province":"Nusa Tenggara Timur","city":"Belu","district":"Sasitamean","urban":"Naibone","postal_code":85765},{"province":"Nusa Tenggara Timur","city":"Belu","district":"Sasitamean","urban":"Naisau","postal_code":85765},{"province":"Nusa Tenggara Timur","city":"Belu","district":"Sasitamean","urban":"Manumutin Silole","postal_code":85765},{"province":"Nusa Tenggara Timur","city":"Belu","district":"Sasitamean","urban":"Manulea","postal_code":85765},{"province":"Nusa Tenggara Timur","city":"Belu","district":"Botin Leo Bele","urban":"Kereana","postal_code":85765},{"province":"Nusa Tenggara Timur","city":"Belu","district":"Io Kufeu","urban":"Kufeu","postal_code":85765},{"province":"Nusa Tenggara Timur","city":"Belu","district":"Io Kufeu","urban":"Ikan Tuanbeis","postal_code":85765},{"province":"Nusa Tenggara Timur","city":"Belu","district":"Sasitamean","urban":"Fatuaruin","postal_code":85765},{"province":"Nusa Tenggara Timur","city":"Belu","district":"Io Kufeu","urban":"Fatoin","postal_code":85765},{"province":"Nusa Tenggara Timur","city":"Belu","district":"Sasitamean","urban":"Builaran","postal_code":85765},{"province":"Nusa Tenggara Timur","city":"Belu","district":"Io Kufeu","urban":"Biau","postal_code":85765},{"province":"Nusa Tenggara Timur","city":"Belu","district":"Sasitamean","urban":"Beaneno","postal_code":85765},{"province":"Nusa Tenggara Timur","city":"Belu","district":"Io Kufeu","urban":"Bani Bani","postal_code":85765},{"province":"Nusa Tenggara Timur","city":"Belu","district":"Botin Leo Bele","urban":"Babotin Selatan","postal_code":85765},{"province":"Nusa Tenggara Timur","city":"Belu","district":"Botin Leo Bele","urban":"Babotin Maemina","postal_code":85765},{"province":"Nusa Tenggara Timur","city":"Belu","district":"Botin Leo Bele","urban":"Babotin","postal_code":85765},{"province":"Nusa Tenggara Timur","city":"Belu","district":"Sasitamean","urban":"As Manulea","postal_code":85765}]