[{"province":"Nusa Tenggara Timur","city":"Belu","district":"Kobalima","urban":"Sisi","postal_code":85766},{"province":"Nusa Tenggara Timur","city":"Belu","district":"Kobalima","urban":"Rainawe","postal_code":85766},{"province":"Nusa Tenggara Timur","city":"Belu","district":"Kobalima","urban":"Lakekun Barat","postal_code":85766},{"province":"Nusa Tenggara Timur","city":"Belu","district":"Kobalima","urban":"Lakekun Utara","postal_code":85766},{"province":"Nusa Tenggara Timur","city":"Belu","district":"Kobalima","urban":"Litamali","postal_code":85766},{"province":"Nusa Tenggara Timur","city":"Belu","district":"Kobalima Timur","urban":"Kotabiru","postal_code":85766},{"province":"Nusa Tenggara Timur","city":"Belu","district":"Kobalima","urban":"Lakekun","postal_code":85766},{"province":"Nusa Tenggara Timur","city":"Belu","district":"Kobalima","urban":"Babulu","postal_code":85766},{"province":"Nusa Tenggara Timur","city":"Belu","district":"Kobalima","urban":"Babulu Selatan","postal_code":85766},{"province":"Nusa Tenggara Timur","city":"Belu","district":"Kobalima Timur","urban":"Alas Utara","postal_code":85766},{"province":"Nusa Tenggara Timur","city":"Belu","district":"Kobalima Timur","urban":"Alas Selatan","postal_code":85766},{"province":"Nusa Tenggara Timur","city":"Belu","district":"Kobalima Timur","urban":"Alas","postal_code":85766}]