[{"province":"Nusa Tenggara Timur","city":"Belu","district":"Wewiku","urban":"Weulun","postal_code":85763},{"province":"Nusa Tenggara Timur","city":"Belu","district":"Weliman","urban":"Wesey","postal_code":85763},{"province":"Nusa Tenggara Timur","city":"Belu","district":"Weliman","urban":"Wederok","postal_code":85763},{"province":"Nusa Tenggara Timur","city":"Belu","district":"Wewiku","urban":"Weoe","postal_code":85763},{"province":"Nusa Tenggara Timur","city":"Belu","district":"Wewiku","urban":"Weseben","postal_code":85763},{"province":"Nusa Tenggara Timur","city":"Belu","district":"Wewiku","urban":"Webriamata","postal_code":85763},{"province":"Nusa Tenggara Timur","city":"Belu","district":"Malaka Barat","urban":"Umalor","postal_code":85763},{"province":"Nusa Tenggara Timur","city":"Belu","district":"Malaka Barat","urban":"Umatoos","postal_code":85763},{"province":"Nusa Tenggara Timur","city":"Belu","district":"Weliman","urban":"Umalawain","postal_code":85763},{"province":"Nusa Tenggara Timur","city":"Belu","district":"Weliman","urban":"Taaba","postal_code":85763},{"province":"Nusa Tenggara Timur","city":"Belu","district":"Malaka Barat","urban":"Sikun","postal_code":85763},{"province":"Nusa Tenggara Timur","city":"Belu","district":"Malaka Barat","urban":"Raimataus","postal_code":85763},{"province":"Nusa Tenggara Timur","city":"Belu","district":"Wewiku","urban":"Seserai","postal_code":85763},{"province":"Nusa Tenggara Timur","city":"Belu","district":"Malaka Barat","urban":"Rabasahain","postal_code":85763},{"province":"Nusa Tenggara Timur","city":"Belu","district":"Malaka Barat","urban":"Rabasa Haerain","postal_code":85763},{"province":"Nusa Tenggara Timur","city":"Belu","district":"Wewiku","urban":"Rabasa Biris","postal_code":85763},{"province":"Nusa Tenggara Timur","city":"Belu","district":"Malaka Barat","urban":"Rabasa","postal_code":85763},{"province":"Nusa Tenggara Timur","city":"Belu","district":"Malaka Barat","urban":"Motaulun","postal_code":85763},{"province":"Nusa Tenggara Timur","city":"Belu","district":"Malaka Barat","urban":"Naas","postal_code":85763},{"province":"Nusa Tenggara Timur","city":"Belu","district":"Malaka Barat","urban":"Oan Mane","postal_code":85763},{"province":"Nusa Tenggara Timur","city":"Belu","district":"Malaka Barat","urban":"Maktihan","postal_code":85763},{"province":"Nusa Tenggara Timur","city":"Belu","district":"Malaka Barat","urban":"Motaain","postal_code":85763},{"province":"Nusa Tenggara Timur","city":"Belu","district":"Wewiku","urban":"Lorotolus","postal_code":85763},{"province":"Nusa Tenggara Timur","city":"Belu","district":"Malaka Barat","urban":"Loofoun","postal_code":85763},{"province":"Nusa Tenggara Timur","city":"Belu","district":"Weliman","urban":"Lamudur","postal_code":85763},{"province":"Nusa Tenggara Timur","city":"Belu","district":"Weliman","urban":"Leunklot","postal_code":85763},{"province":"Nusa Tenggara Timur","city":"Belu","district":"Malaka Barat","urban":"Lasaen","postal_code":85763},{"province":"Nusa Tenggara Timur","city":"Belu","district":"Weliman","urban":"Laleten","postal_code":85763},{"province":"Nusa Tenggara Timur","city":"Belu","district":"Wewiku","urban":"Lamea","postal_code":85763},{"province":"Nusa Tenggara Timur","city":"Belu","district":"Weliman","urban":"Kleseleon","postal_code":85763},{"province":"Nusa Tenggara Timur","city":"Belu","district":"Weliman","urban":"Lakulo","postal_code":85763},{"province":"Nusa Tenggara Timur","city":"Belu","district":"Weliman","urban":"Haliklaran (Hauklaran)","postal_code":85763},{"province":"Nusa Tenggara Timur","city":"Belu","district":"Weliman","urban":"Forekmodok","postal_code":85763},{"province":"Nusa Tenggara Timur","city":"Belu","district":"Weliman","urban":"Haitimuk","postal_code":85763},{"province":"Nusa Tenggara Timur","city":"Belu","district":"Wewiku","urban":"Halibasar","postal_code":85763},{"province":"Nusa Tenggara Timur","city":"Belu","district":"Weliman","urban":"Bone Tasea","postal_code":85763},{"province":"Nusa Tenggara Timur","city":"Belu","district":"Malaka Barat","urban":"Fafoe","postal_code":85763},{"province":"Nusa Tenggara Timur","city":"Belu","district":"Wewiku","urban":"Biris","postal_code":85763},{"province":"Nusa Tenggara Timur","city":"Belu","district":"Malaka Barat","urban":"Besikama","postal_code":85763},{"province":"Nusa Tenggara Timur","city":"Belu","district":"Wewiku","urban":"Badarai","postal_code":85763},{"province":"Nusa Tenggara Timur","city":"Belu","district":"Weliman","urban":"Angkaes","postal_code":85763},{"province":"Nusa Tenggara Timur","city":"Belu","district":"Wewiku","urban":"Alkani","postal_code":85763}]