[{"province":"Nusa Tenggara Timur","city":"Belu","district":"Tasifeto Timur","urban":"Tulakadi","postal_code":85771},{"province":"Nusa Tenggara Timur","city":"Belu","district":"Tasifeto Timur","urban":"Umaklaran","postal_code":85771},{"province":"Nusa Tenggara Timur","city":"Belu","district":"Tasifeto Timur","urban":"Takirin","postal_code":85771},{"province":"Nusa Tenggara Timur","city":"Belu","district":"Tasifeto Timur","urban":"Tialai","postal_code":85771},{"province":"Nusa Tenggara Timur","city":"Belu","district":"Tasifeto Timur","urban":"Sabarau/Saraban","postal_code":85771},{"province":"Nusa Tenggara Timur","city":"Belu","district":"Tasifeto Timur","urban":"Silawan","postal_code":85771},{"province":"Nusa Tenggara Timur","city":"Belu","district":"Lasiolat","urban":"Raiulun","postal_code":85771},{"province":"Nusa Tenggara Timur","city":"Belu","district":"Tasifeto Timur","urban":"Manleten","postal_code":85771},{"province":"Nusa Tenggara Timur","city":"Belu","district":"Lasiolat","urban":"Maneikun","postal_code":85771},{"province":"Nusa Tenggara Timur","city":"Belu","district":"Lasiolat","urban":"Lasiolat","postal_code":85771},{"province":"Nusa Tenggara Timur","city":"Belu","district":"Tasifeto Timur","urban":"Halimodok","postal_code":85771},{"province":"Nusa Tenggara Timur","city":"Belu","district":"Lasiolat","urban":"Lakanmau","postal_code":85771},{"province":"Nusa Tenggara Timur","city":"Belu","district":"Tasifeto Timur","urban":"Fatuba&#8217;a","postal_code":85771},{"province":"Nusa Tenggara Timur","city":"Belu","district":"Lasiolat","urban":"Dualasi","postal_code":85771},{"province":"Nusa Tenggara Timur","city":"Belu","district":"Lasiolat","urban":"Fatulotu","postal_code":85771},{"province":"Nusa Tenggara Timur","city":"Belu","district":"Tasifeto Timur","urban":"Bauho","postal_code":85771},{"province":"Nusa Tenggara Timur","city":"Belu","district":"Tasifeto Timur","urban":"Dafala","postal_code":85771},{"province":"Nusa Tenggara Timur","city":"Belu","district":"Lasiolat","urban":"Baudaok","postal_code":85771}]