[{"province":"Nusa Tenggara Timur","city":"Belu","district":"Lamaknen Selatan","urban":"Sisi Fatuberal","postal_code":85772},{"province":"Nusa Tenggara Timur","city":"Belu","district":"Lamaknen","urban":"Makir","postal_code":85772},{"province":"Nusa Tenggara Timur","city":"Belu","district":"Lamaknen","urban":"Maudemu","postal_code":85772},{"province":"Nusa Tenggara Timur","city":"Belu","district":"Lamaknen Selatan","urban":"Nualain","postal_code":85772},{"province":"Nusa Tenggara Timur","city":"Belu","district":"Lamaknen","urban":"Mahuitas","postal_code":85772},{"province":"Nusa Tenggara Timur","city":"Belu","district":"Lamaknen Selatan","urban":"Loonuna","postal_code":85772},{"province":"Nusa Tenggara Timur","city":"Belu","district":"Lamaknen Selatan","urban":"Lutarato","postal_code":85772},{"province":"Nusa Tenggara Timur","city":"Belu","district":"Lamaknen","urban":"Lamaksenulu","postal_code":85772},{"province":"Nusa Tenggara Timur","city":"Belu","district":"Lamaknen","urban":"Leowalu","postal_code":85772},{"province":"Nusa Tenggara Timur","city":"Belu","district":"Lamaknen","urban":"Kewar","postal_code":85772},{"province":"Nusa Tenggara Timur","city":"Belu","district":"Lamaknen Selatan","urban":"Henes","postal_code":85772},{"province":"Nusa Tenggara Timur","city":"Belu","district":"Lamaknen Selatan","urban":"Lakmaras","postal_code":85772},{"province":"Nusa Tenggara Timur","city":"Belu","district":"Lamaknen Selatan","urban":"Ekin","postal_code":85772},{"province":"Nusa Tenggara Timur","city":"Belu","district":"Lamaknen","urban":"Fulur","postal_code":85772},{"province":"Nusa Tenggara Timur","city":"Belu","district":"Lamaknen","urban":"Dirun","postal_code":85772},{"province":"Nusa Tenggara Timur","city":"Belu","district":"Lamaknen","urban":"Duarato","postal_code":85772},{"province":"Nusa Tenggara Timur","city":"Belu","district":"Lamaknen Selatan","urban":"Debululik","postal_code":85772}]