[{"province":"Nusa Tenggara Timur","city":"Alor","district":"Teluk Mutiara","urban":"Teluk Kenari","postal_code":85819},{"province":"Nusa Tenggara Timur","city":"Alor","district":"Teluk Mutiara","urban":"Wetabua","postal_code":85819},{"province":"Nusa Tenggara Timur","city":"Alor","district":"Teluk Mutiara","urban":"Nusa Kenari","postal_code":85819},{"province":"Nusa Tenggara Timur","city":"Alor","district":"Kabola","urban":"Pante Deera","postal_code":85819},{"province":"Nusa Tenggara Timur","city":"Alor","district":"Teluk Mutiara","urban":"Motongbang","postal_code":85819},{"province":"Nusa Tenggara Timur","city":"Alor","district":"Teluk Mutiara","urban":"Mutiara","postal_code":85819},{"province":"Nusa Tenggara Timur","city":"Alor","district":"Teluk Mutiara","urban":"Lendola","postal_code":85819},{"province":"Nusa Tenggara Timur","city":"Alor","district":"Kabola","urban":"Kabola","postal_code":85819},{"province":"Nusa Tenggara Timur","city":"Alor","district":"Kabola","urban":"Kopidil","postal_code":85819},{"province":"Nusa Tenggara Timur","city":"Alor","district":"Teluk Mutiara","urban":"Fanating","postal_code":85819},{"province":"Nusa Tenggara Timur","city":"Alor","district":"Teluk Mutiara","urban":"Adang Buom","postal_code":85819},{"province":"Nusa Tenggara Timur","city":"Alor","district":"Teluk Mutiara","urban":"Air Kenari","postal_code":85819}]