[{"province":"Nusa Tenggara Timur","city":"Alor","district":"Alor Tengah Utara","urban":"Welai Selatan","postal_code":85871},{"province":"Nusa Tenggara Timur","city":"Alor","district":"Lembur","urban":"Tulleng","postal_code":85871},{"province":"Nusa Tenggara Timur","city":"Alor","district":"Lembur","urban":"Waimi","postal_code":85871},{"province":"Nusa Tenggara Timur","city":"Alor","district":"Lembur","urban":"Tasi","postal_code":85871},{"province":"Nusa Tenggara Timur","city":"Alor","district":"Alor Tengah Utara","urban":"Tominuku","postal_code":85871},{"province":"Nusa Tenggara Timur","city":"Alor","district":"Lembur","urban":"Talwai","postal_code":85871},{"province":"Nusa Tenggara Timur","city":"Alor","district":"Alor Selatan","urban":"Tamanapui","postal_code":85871},{"province":"Nusa Tenggara Timur","city":"Alor","district":"Alor Selatan","urban":"Silaipui","postal_code":85871},{"province":"Nusa Tenggara Timur","city":"Alor","district":"Alor Selatan","urban":"Subo","postal_code":85871},{"province":"Nusa Tenggara Timur","city":"Alor","district":"Alor Selatan","urban":"Padang Alang","postal_code":85871},{"province":"Nusa Tenggara Timur","city":"Alor","district":"Alor Selatan","urban":"Sidabui","postal_code":85871},{"province":"Nusa Tenggara Timur","city":"Alor","district":"Alor Tengah Utara","urban":"Petleng","postal_code":85871},{"province":"Nusa Tenggara Timur","city":"Alor","district":"Alor Selatan","urban":"Manmas","postal_code":85871},{"province":"Nusa Tenggara Timur","city":"Alor","district":"Alor Tengah Utara","urban":"Manetwati","postal_code":85871},{"province":"Nusa Tenggara Timur","city":"Alor","district":"Alor Tengah Utara","urban":"Nurbenlelang","postal_code":85871},{"province":"Nusa Tenggara Timur","city":"Alor","district":"Alor Selatan","urban":"Malaipea","postal_code":85871},{"province":"Nusa Tenggara Timur","city":"Alor","district":"Alor Selatan","urban":"Maikang","postal_code":85871},{"province":"Nusa Tenggara Timur","city":"Alor","district":"Lembur","urban":"Luba","postal_code":85871},{"province":"Nusa Tenggara Timur","city":"Alor","district":"Alor Tengah Utara","urban":"Likwatang (Likuwatang)","postal_code":85871},{"province":"Nusa Tenggara Timur","city":"Alor","district":"Lembur","urban":"Lembur Timur","postal_code":85871},{"province":"Nusa Tenggara Timur","city":"Alor","district":"Alor Tengah Utara","urban":"Lembur Barat","postal_code":85871},{"province":"Nusa Tenggara Timur","city":"Alor","district":"Alor Tengah Utara","urban":"Lembur Tengah","postal_code":85871},{"province":"Nusa Tenggara Timur","city":"Alor","district":"Alor Selatan","urban":"Kuneman","postal_code":85871},{"province":"Nusa Tenggara Timur","city":"Alor","district":"Alor Selatan","urban":"Lella","postal_code":85871},{"province":"Nusa Tenggara Timur","city":"Alor","district":"Alor Tengah Utara","urban":"Lakwati","postal_code":85871},{"province":"Nusa Tenggara Timur","city":"Alor","district":"Alor Selatan","urban":"Kelaisi Timur","postal_code":85871},{"province":"Nusa Tenggara Timur","city":"Alor","district":"Alor Selatan","urban":"Kiraman","postal_code":85871},{"province":"Nusa Tenggara Timur","city":"Alor","district":"Alor Selatan","urban":"Kalaisi Tengah","postal_code":85871},{"province":"Nusa Tenggara Timur","city":"Alor","district":"Alor Selatan","urban":"Kelaisi Barat","postal_code":85871},{"province":"Nusa Tenggara Timur","city":"Alor","district":"Alor Tengah Utara","urban":"Fungafeng","postal_code":85871},{"province":"Nusa Tenggara Timur","city":"Alor","district":"Alor Tengah Utara","urban":"Kafakbeka","postal_code":85871},{"province":"Nusa Tenggara Timur","city":"Alor","district":"Alor Tengah Utara","urban":"Alimebung (Alim Mebung)","postal_code":85871},{"province":"Nusa Tenggara Timur","city":"Alor","district":"Alor Tengah Utara","urban":"Dapitau","postal_code":85871},{"province":"Nusa Tenggara Timur","city":"Alor","district":"Alor Tengah Utara","urban":"Fuisama","postal_code":85871}]