[{"province":"Nusa Tenggara Timur","city":"Alor","district":"Alor Timur Laut","urban":"Taramana","postal_code":85872},{"province":"Nusa Tenggara Timur","city":"Alor","district":"Alor Timur Laut","urban":"Waisika","postal_code":85872},{"province":"Nusa Tenggara Timur","city":"Alor","district":"Alor Timur","urban":"Tanglapui","postal_code":85872},{"province":"Nusa Tenggara Timur","city":"Alor","district":"Alor Timur","urban":"Tanglapui Timur","postal_code":85872},{"province":"Nusa Tenggara Timur","city":"Alor","district":"Alor Timur Laut","urban":"Pido","postal_code":85872},{"province":"Nusa Tenggara Timur","city":"Alor","district":"Pureman","urban":"Purnama","postal_code":85872},{"province":"Nusa Tenggara Timur","city":"Alor","district":"Alor Timur","urban":"Mausamang","postal_code":85872},{"province":"Nusa Tenggara Timur","city":"Alor","district":"Alor Timur","urban":"Padang Panjang","postal_code":85872},{"province":"Nusa Tenggara Timur","city":"Alor","district":"Alor Timur Laut","urban":"Nailang","postal_code":85872},{"province":"Nusa Tenggara Timur","city":"Alor","district":"Alor Timur","urban":"Maritaing","postal_code":85872},{"province":"Nusa Tenggara Timur","city":"Alor","district":"Alor Timur","urban":"Maukuru","postal_code":85872},{"province":"Nusa Tenggara Timur","city":"Alor","district":"Alor Timur Laut","urban":"Lippang","postal_code":85872},{"province":"Nusa Tenggara Timur","city":"Alor","district":"Pureman","urban":"Langkuru Utara","postal_code":85872},{"province":"Nusa Tenggara Timur","city":"Alor","district":"Pureman","urban":"Langkuru","postal_code":85872},{"province":"Nusa Tenggara Timur","city":"Alor","district":"Alor Timur","urban":"Kolana Utara","postal_code":85872},{"province":"Nusa Tenggara Timur","city":"Alor","district":"Alor Timur Laut","urban":"Kenarimbala","postal_code":85872},{"province":"Nusa Tenggara Timur","city":"Alor","district":"Alor Timur","urban":"Kolana Selatan","postal_code":85872},{"province":"Nusa Tenggara Timur","city":"Alor","district":"Alor Timur Laut","urban":"Kamot","postal_code":85872},{"province":"Nusa Tenggara Timur","city":"Alor","district":"Pureman","urban":"Kailesa","postal_code":85872},{"province":"Nusa Tenggara Timur","city":"Alor","district":"Alor Timur","urban":"Elok","postal_code":85872},{"province":"Nusa Tenggara Timur","city":"Alor","district":"Alor Timur","urban":"Belemana","postal_code":85872},{"province":"Nusa Tenggara Timur","city":"Alor","district":"Alor Timur Laut","urban":"Air Mancur","postal_code":85872}]