[{"province":"Nusa Tenggara Timur","city":"Alor","district":"Pantar","urban":"Wailawar","postal_code":85881},{"province":"Nusa Tenggara Timur","city":"Alor","district":"Pantar Tengah","urban":"Tubbe (Tube)","postal_code":85881},{"province":"Nusa Tenggara Timur","city":"Alor","district":"Pantar Tengah","urban":"Tude","postal_code":85881},{"province":"Nusa Tenggara Timur","city":"Alor","district":"Pantar Timur","urban":"Treweng/Tereweng","postal_code":85881},{"province":"Nusa Tenggara Timur","city":"Alor","district":"Pantar Tengah","urban":"Toang","postal_code":85881},{"province":"Nusa Tenggara Timur","city":"Alor","district":"Pantar Barat","urban":"Piringsina","postal_code":85881},{"province":"Nusa Tenggara Timur","city":"Alor","district":"Pantar Tengah","urban":"Tamak","postal_code":85881},{"province":"Nusa Tenggara Timur","city":"Alor","district":"Pantar","urban":"Pandai","postal_code":85881},{"province":"Nusa Tenggara Timur","city":"Alor","district":"Pantar Timur","urban":"Ombay","postal_code":85881},{"province":"Nusa Tenggara Timur","city":"Alor","district":"Pantar Timur","urban":"Nule","postal_code":85881},{"province":"Nusa Tenggara Timur","city":"Alor","district":"Pantar Tengah","urban":"Muriabang","postal_code":85881},{"province":"Nusa Tenggara Timur","city":"Alor","district":"Pantar","urban":"Munaseli","postal_code":85881},{"province":"Nusa Tenggara Timur","city":"Alor","district":"Pantar Timur","urban":"Merdeka","postal_code":85881},{"province":"Nusa Tenggara Timur","city":"Alor","district":"Pantar Timur","urban":"Mawar","postal_code":85881},{"province":"Nusa Tenggara Timur","city":"Alor","district":"Pantar Tengah","urban":"Mauta","postal_code":85881},{"province":"Nusa Tenggara Timur","city":"Alor","district":"Pantar Barat Laut","urban":"Marisa","postal_code":85881},{"province":"Nusa Tenggara Timur","city":"Alor","district":"Pantar","urban":"Madar","postal_code":85881},{"province":"Nusa Tenggara Timur","city":"Alor","district":"Pantar Timur","urban":"Lekom","postal_code":85881},{"province":"Nusa Tenggara Timur","city":"Alor","district":"Pantar Barat","urban":"Leer","postal_code":85881},{"province":"Nusa Tenggara Timur","city":"Alor","district":"Pantar Timur","urban":"Lalafang","postal_code":85881},{"province":"Nusa Tenggara Timur","city":"Alor","district":"Pantar Barat Laut","urban":"Lamma","postal_code":85881},{"province":"Nusa Tenggara Timur","city":"Alor","district":"Pantar Barat Laut","urban":"Kalondama Tengah","postal_code":85881},{"province":"Nusa Tenggara Timur","city":"Alor","district":"Pantar Barat Laut","urban":"Kayang","postal_code":85881},{"province":"Nusa Tenggara Timur","city":"Alor","district":"Pantar Barat","urban":"Kalondama","postal_code":85881},{"province":"Nusa Tenggara Timur","city":"Alor","district":"Pantar Barat Laut","urban":"Kalondama Barat","postal_code":85881},{"province":"Nusa Tenggara Timur","city":"Alor","district":"Pantar Timur","urban":"Kaleb","postal_code":85881},{"province":"Nusa Tenggara Timur","city":"Alor","district":"Pantar","urban":"Kabir","postal_code":85881},{"province":"Nusa Tenggara Timur","city":"Alor","district":"Pantar Timur","urban":"Kaera","postal_code":85881},{"province":"Nusa Tenggara Timur","city":"Alor","district":"Pantar","urban":"Helandohi","postal_code":85881},{"province":"Nusa Tenggara Timur","city":"Alor","district":"Pantar Barat","urban":"Illu","postal_code":85881},{"province":"Nusa Tenggara Timur","city":"Alor","district":"Pantar Tengah","urban":"Delaki","postal_code":85881},{"province":"Nusa Tenggara Timur","city":"Alor","district":"Pantar Tengah","urban":"Eka Jaya","postal_code":85881},{"province":"Nusa Tenggara Timur","city":"Alor","district":"Pantar","urban":"Bouweli","postal_code":85881},{"province":"Nusa Tenggara Timur","city":"Alor","district":"Pantar Timur","urban":"Bunga Bali","postal_code":85881},{"province":"Nusa Tenggara Timur","city":"Alor","district":"Pantar","urban":"Bukit Mas","postal_code":85881},{"province":"Nusa Tenggara Timur","city":"Alor","district":"Pantar Barat","urban":"Blang Merang","postal_code":85881},{"province":"Nusa Tenggara Timur","city":"Alor","district":"Pantar Barat Laut","urban":"Beangonong","postal_code":85881},{"province":"Nusa Tenggara Timur","city":"Alor","district":"Pantar Barat","urban":"Baranusa","postal_code":85881},{"province":"Nusa Tenggara Timur","city":"Alor","district":"Pantar Timur","urban":"Batu","postal_code":85881},{"province":"Nusa Tenggara Timur","city":"Alor","district":"Pantar Barat","urban":"Baraler","postal_code":85881},{"province":"Nusa Tenggara Timur","city":"Alor","district":"Pantar","urban":"Baolang","postal_code":85881},{"province":"Nusa Tenggara Timur","city":"Alor","district":"Pantar","urban":"Bana","postal_code":85881},{"province":"Nusa Tenggara Timur","city":"Alor","district":"Pantar","urban":"Bandar","postal_code":85881},{"province":"Nusa Tenggara Timur","city":"Alor","district":"Pantar Tengah","urban":"Bagang","postal_code":85881},{"province":"Nusa Tenggara Timur","city":"Alor","district":"Pantar Tengah","urban":"Aramaba","postal_code":85881},{"province":"Nusa Tenggara Timur","city":"Alor","district":"Pantar Barat Laut","urban":"Allumang","postal_code":85881}]