[{"province":"Nusa Tenggara Timur","city":"Rote Ndao","district":"Lobalain","urban":"Suelain","postal_code":85918},{"province":"Nusa Tenggara Timur","city":"Rote Ndao","district":"Lobalain","urban":"Namodale","postal_code":85918},{"province":"Nusa Tenggara Timur","city":"Rote Ndao","district":"Lobalain","urban":"Oematamboli","postal_code":85918},{"province":"Nusa Tenggara Timur","city":"Rote Ndao","district":"Lobalain","urban":"Kolobolon","postal_code":85918},{"province":"Nusa Tenggara Timur","city":"Rote Ndao","district":"Lobalain","urban":"Kuli","postal_code":85918},{"province":"Nusa Tenggara Timur","city":"Rote Ndao","district":"Lobalain","urban":"Metina","postal_code":85918},{"province":"Nusa Tenggara Timur","city":"Rote Ndao","district":"Lobalain","urban":"Helebeik","postal_code":85918},{"province":"Nusa Tenggara Timur","city":"Rote Ndao","district":"Lobalain","urban":"Holoama","postal_code":85918},{"province":"Nusa Tenggara Timur","city":"Rote Ndao","district":"Lobalain","urban":"Bebalain","postal_code":85918}]