[{"province":"Nusa Tenggara Timur","city":"Rote Ndao","district":"Rote Selatan","urban":"Tebole","postal_code":85972},{"province":"Nusa Tenggara Timur","city":"Rote Ndao","district":"Rote Tengah","urban":"Onotali","postal_code":85972},{"province":"Nusa Tenggara Timur","city":"Rote Ndao","district":"Rote Tengah","urban":"Suebela","postal_code":85972},{"province":"Nusa Tenggara Timur","city":"Rote Ndao","district":"Rote Tengah","urban":"Maubesi","postal_code":85972},{"province":"Nusa Tenggara Timur","city":"Rote Ndao","district":"Rote Tengah","urban":"Nggodimeda","postal_code":85972},{"province":"Nusa Tenggara Timur","city":"Rote Ndao","district":"Rote Tengah","urban":"Lidamanu","postal_code":85972},{"province":"Nusa Tenggara Timur","city":"Rote Ndao","district":"Rote Tengah","urban":"Limakoli","postal_code":85972},{"province":"Nusa Tenggara Timur","city":"Rote Ndao","district":"Rote Tengah","urban":"Lidabesi","postal_code":85972},{"province":"Nusa Tenggara Timur","city":"Rote Ndao","district":"Rote Selatan","urban":"Inaoe","postal_code":85972},{"province":"Nusa Tenggara Timur","city":"Rote Ndao","district":"Rote Selatan","urban":"Lenguselu","postal_code":85972},{"province":"Nusa Tenggara Timur","city":"Rote Ndao","district":"Rote Selatan","urban":"Daleholu","postal_code":85972},{"province":"Nusa Tenggara Timur","city":"Rote Ndao","district":"Rote Selatan","urban":"Dodaek","postal_code":85972}]