[{"province":"Nusa Tenggara Timur","city":"Rote Ndao","district":"Rote Timur","urban":"Serubeba","postal_code":85974},{"province":"Nusa Tenggara Timur","city":"Rote Ndao","district":"Landu Leko","urban":"Pukuafu","postal_code":85974},{"province":"Nusa Tenggara Timur","city":"Rote Ndao","district":"Landu Leko","urban":"Sotimori","postal_code":85974},{"province":"Nusa Tenggara Timur","city":"Rote Ndao","district":"Rote Timur","urban":"Matasio","postal_code":85974},{"province":"Nusa Tenggara Timur","city":"Rote Ndao","district":"Rote Timur","urban":"Mukekuku","postal_code":85974},{"province":"Nusa Tenggara Timur","city":"Rote Ndao","district":"Landu Leko","urban":"Lifuleo","postal_code":85974},{"province":"Nusa Tenggara Timur","city":"Rote Ndao","district":"Rote Timur","urban":"Londalusi","postal_code":85974},{"province":"Nusa Tenggara Timur","city":"Rote Ndao","district":"Rote Timur","urban":"Hundi Hopo","postal_code":85974},{"province":"Nusa Tenggara Timur","city":"Rote Ndao","district":"Rote Timur","urban":"Lakamola","postal_code":85974},{"province":"Nusa Tenggara Timur","city":"Rote Ndao","district":"Rote Timur","urban":"Faifua","postal_code":85974},{"province":"Nusa Tenggara Timur","city":"Rote Ndao","district":"Landu Leko","urban":"Daeurendale","postal_code":85974},{"province":"Nusa Tenggara Timur","city":"Rote Ndao","district":"Landu Leko","urban":"Daiama","postal_code":85974},{"province":"Nusa Tenggara Timur","city":"Rote Ndao","district":"Landu Leko","urban":"Bolatena","postal_code":85974}]