[{"province":"Nusa Tenggara Timur","city":"Rote Ndao","district":"Rote Barat Daya","urban":"Oeteffu","postal_code":85982},{"province":"Nusa Tenggara Timur","city":"Rote Ndao","district":"Rote Barat","urban":"Sedeoen","postal_code":85982},{"province":"Nusa Tenggara Timur","city":"Rote Ndao","district":"Rote Barat Daya","urban":"Oeseli","postal_code":85982},{"province":"Nusa Tenggara Timur","city":"Rote Ndao","district":"Rote Barat Daya","urban":"Oelasin","postal_code":85982},{"province":"Nusa Tenggara Timur","city":"Rote Ndao","district":"Rote Barat","urban":"Oenggaut","postal_code":85982},{"province":"Nusa Tenggara Timur","city":"Rote Ndao","district":"Rote Barat Daya","urban":"Oebatu","postal_code":85982},{"province":"Nusa Tenggara Timur","city":"Rote Ndao","district":"Rote Barat Daya","urban":"Oebou","postal_code":85982},{"province":"Nusa Tenggara Timur","city":"Rote Ndao","district":"Rote Barat Daya","urban":"Oehandi","postal_code":85982},{"province":"Nusa Tenggara Timur","city":"Rote Ndao","district":"Rote Barat Daya","urban":"Oebaffok","postal_code":85982},{"province":"Nusa Tenggara Timur","city":"Rote Ndao","district":"Rote Barat","urban":"Nemberala","postal_code":85982},{"province":"Nusa Tenggara Timur","city":"Rote Ndao","district":"Rote Barat Daya","urban":"Mbokak","postal_code":85982},{"province":"Nusa Tenggara Timur","city":"Rote Ndao","district":"Rote Barat Daya","urban":"Meoain","postal_code":85982},{"province":"Nusa Tenggara Timur","city":"Rote Ndao","district":"Rote Barat Daya","urban":"Lekik","postal_code":85982},{"province":"Nusa Tenggara Timur","city":"Rote Ndao","district":"Rote Barat Daya","urban":"Lalukoen","postal_code":85982},{"province":"Nusa Tenggara Timur","city":"Rote Ndao","district":"Rote Barat Daya","urban":"Landu","postal_code":85982},{"province":"Nusa Tenggara Timur","city":"Rote Ndao","district":"Rote Barat Daya","urban":"Dolasi","postal_code":85982},{"province":"Nusa Tenggara Timur","city":"Rote Ndao","district":"Rote Barat","urban":"Bo&#8217;a (Boa)","postal_code":85982},{"province":"Nusa Tenggara Timur","city":"Rote Ndao","district":"Rote Barat Daya","urban":"Batutua","postal_code":85982}]