[{"province":"Nusa Tenggara Timur","city":"Rote Ndao","district":"Rote Barat Laut","urban":"Tualima","postal_code":85981},{"province":"Nusa Tenggara Timur","city":"Rote Ndao","district":"Rote Barat Laut","urban":"Temas","postal_code":85981},{"province":"Nusa Tenggara Timur","city":"Rote Ndao","district":"Rote Barat Laut","urban":"Tolama","postal_code":85981},{"province":"Nusa Tenggara Timur","city":"Rote Ndao","district":"Rote Barat","urban":"Oenitas","postal_code":85981},{"province":"Nusa Tenggara Timur","city":"Rote Ndao","district":"Rote Barat Laut","urban":"Oetutulu","postal_code":85981},{"province":"Nusa Tenggara Timur","city":"Rote Ndao","district":"Rote Barat Laut","urban":"Oelua","postal_code":85981},{"province":"Nusa Tenggara Timur","city":"Rote Ndao","district":"Rote Barat","urban":"Oelolot","postal_code":85981},{"province":"Nusa Tenggara Timur","city":"Rote Ndao","district":"Rote Barat Laut","urban":"Netenaen","postal_code":85981},{"province":"Nusa Tenggara Timur","city":"Rote Ndao","district":"Rote Barat Laut","urban":"Oebela","postal_code":85981},{"province":"Nusa Tenggara Timur","city":"Rote Ndao","district":"Rote Barat Laut","urban":"Modosinal","postal_code":85981},{"province":"Nusa Tenggara Timur","city":"Rote Ndao","district":"Rote Barat","urban":"Mbueain","postal_code":85981},{"province":"Nusa Tenggara Timur","city":"Rote Ndao","district":"Rote Barat Laut","urban":"Ingguinak","postal_code":85981},{"province":"Nusa Tenggara Timur","city":"Rote Ndao","district":"Rote Barat Laut","urban":"Lidor","postal_code":85981},{"province":"Nusa Tenggara Timur","city":"Rote Ndao","district":"Rote Barat Laut","urban":"Busalangga","postal_code":85981},{"province":"Nusa Tenggara Timur","city":"Rote Ndao","district":"Rote Barat Laut","urban":"Daudolu","postal_code":85981},{"province":"Nusa Tenggara Timur","city":"Rote Ndao","district":"Rote Barat Laut","urban":"Boni","postal_code":85981}]