[{"province":"Nusa Tenggara Timur","city":"Sikka","district":"Alok Timur","urban":"Watugong","postal_code":86116},{"province":"Nusa Tenggara Timur","city":"Sikka","district":"Alok","urban":"Samparong","postal_code":86116},{"province":"Nusa Tenggara Timur","city":"Sikka","district":"Koting","urban":"Ribang","postal_code":86116},{"province":"Nusa Tenggara Timur","city":"Sikka","district":"Alok","urban":"Pemana","postal_code":86116},{"province":"Nusa Tenggara Timur","city":"Sikka","district":"Koting","urban":"Paubekor","postal_code":86116},{"province":"Nusa Tenggara Timur","city":"Sikka","district":"Alok Timur","urban":"Parumaan","postal_code":86116},{"province":"Nusa Tenggara Timur","city":"Sikka","district":"Nelle (Maumerei)","urban":"Nelle Wutung","postal_code":86116},{"province":"Nusa Tenggara Timur","city":"Sikka","district":"Nelle (Maumerei)","urban":"Nelle Urung","postal_code":86116},{"province":"Nusa Tenggara Timur","city":"Sikka","district":"Nelle (Maumerei)","urban":"Nelle Lorang","postal_code":86116},{"province":"Nusa Tenggara Timur","city":"Sikka","district":"Nelle (Maumerei)","urban":"Manubura","postal_code":86116},{"province":"Nusa Tenggara Timur","city":"Sikka","district":"Nelle (Maumerei)","urban":"Nelle Barat","postal_code":86116},{"province":"Nusa Tenggara Timur","city":"Sikka","district":"Alok Timur","urban":"Lepolima","postal_code":86116},{"province":"Nusa Tenggara Timur","city":"Sikka","district":"Koting","urban":"Koting D","postal_code":86116},{"province":"Nusa Tenggara Timur","city":"Sikka","district":"Koting","urban":"Koting A","postal_code":86116},{"province":"Nusa Tenggara Timur","city":"Sikka","district":"Koting","urban":"Koting B","postal_code":86116},{"province":"Nusa Tenggara Timur","city":"Sikka","district":"Koting","urban":"Koting C","postal_code":86116},{"province":"Nusa Tenggara Timur","city":"Sikka","district":"Alok Timur","urban":"Kojagete","postal_code":86116},{"province":"Nusa Tenggara Timur","city":"Sikka","district":"Alok","urban":"Gunung Sari","postal_code":86116},{"province":"Nusa Tenggara Timur","city":"Sikka","district":"Alok Timur","urban":"Kojadoi","postal_code":86116}]