[{"province":"Nusa Tenggara Timur","city":"Ende","district":"Kotabaru","urban":"Tou Timur","postal_code":86111},{"province":"Nusa Tenggara Timur","city":"Ende","district":"Kotabaru","urban":"Tou","postal_code":86111},{"province":"Nusa Tenggara Timur","city":"Ende","district":"Kotabaru","urban":"Niopanda","postal_code":86111},{"province":"Nusa Tenggara Timur","city":"Ende","district":"Kotabaru","urban":"Rangalaka","postal_code":86111},{"province":"Nusa Tenggara Timur","city":"Ende","district":"Kotabaru","urban":"Ndondo","postal_code":86111},{"province":"Nusa Tenggara Timur","city":"Ende","district":"Kotabaru","urban":"Liselande","postal_code":86111},{"province":"Nusa Tenggara Timur","city":"Ende","district":"Kotabaru","urban":"Loboniki","postal_code":86111},{"province":"Nusa Tenggara Timur","city":"Ende","district":"Kotabaru","urban":"Kotabaru","postal_code":86111},{"province":"Nusa Tenggara Timur","city":"Ende","district":"Kotabaru","urban":"Hangalande","postal_code":86111},{"province":"Nusa Tenggara Timur","city":"Sikka","district":"Alok Timur","urban":"Wairotang","postal_code":86111},{"province":"Nusa Tenggara Timur","city":"Sikka","district":"Palue","urban":"Tuanggeo","postal_code":86111},{"province":"Nusa Tenggara Timur","city":"Sikka","district":"Palue","urban":"Tuanggeo","postal_code":86111},{"province":"Nusa Tenggara Timur","city":"Sikka","district":"Palue","urban":"Rokirole","postal_code":86111},{"province":"Nusa Tenggara Timur","city":"Sikka","district":"Palue","urban":"Reruwairere","postal_code":86111},{"province":"Nusa Tenggara Timur","city":"Sikka","district":"Palue","urban":"Nitunglea","postal_code":86111},{"province":"Nusa Tenggara Timur","city":"Sikka","district":"Palue","urban":"Maluriwu","postal_code":86111},{"province":"Nusa Tenggara Timur","city":"Sikka","district":"Palue","urban":"Lidi","postal_code":86111},{"province":"Nusa Tenggara Timur","city":"Sikka","district":"Palue","urban":"Kesokoja","postal_code":86111},{"province":"Nusa Tenggara Timur","city":"Sikka","district":"Palue","urban":"Ladolaka","postal_code":86111},{"province":"Nusa Tenggara Timur","city":"Sikka","district":"Alok Timur","urban":"Beru","postal_code":86111}]