[{"province":"Nusa Tenggara Timur","city":"Sikka","district":"Doreng","urban":"Wolomotong","postal_code":86171},{"province":"Nusa Tenggara Timur","city":"Sikka","district":"Doreng","urban":"Wolonterang","postal_code":86171},{"province":"Nusa Tenggara Timur","city":"Sikka","district":"Bola","urban":"Wolokoli","postal_code":86171},{"province":"Nusa Tenggara Timur","city":"Sikka","district":"Doreng","urban":"Watumerak","postal_code":86171},{"province":"Nusa Tenggara Timur","city":"Sikka","district":"Doreng","urban":"Wogalirit","postal_code":86171},{"province":"Nusa Tenggara Timur","city":"Sikka","district":"Bola","urban":"Umauta","postal_code":86171},{"province":"Nusa Tenggara Timur","city":"Sikka","district":"Doreng","urban":"Waihawa","postal_code":86171},{"province":"Nusa Tenggara Timur","city":"Sikka","district":"Mapitara","urban":"Natakoli","postal_code":86171},{"province":"Nusa Tenggara Timur","city":"Sikka","district":"Doreng","urban":"Nenbura","postal_code":86171},{"province":"Nusa Tenggara Timur","city":"Sikka","district":"Bola","urban":"Ipir","postal_code":86171},{"province":"Nusa Tenggara Timur","city":"Sikka","district":"Doreng","urban":"Kloangpopot","postal_code":86171},{"province":"Nusa Tenggara Timur","city":"Sikka","district":"Bola","urban":"Hokor","postal_code":86171},{"province":"Nusa Tenggara Timur","city":"Sikka","district":"Mapitara","urban":"Egon Gahar","postal_code":86171},{"province":"Nusa Tenggara Timur","city":"Sikka","district":"Mapitara","urban":"Hale","postal_code":86171},{"province":"Nusa Tenggara Timur","city":"Sikka","district":"Mapitara","urban":"Hebing","postal_code":86171},{"province":"Nusa Tenggara Timur","city":"Sikka","district":"Bola","urban":"Bola","postal_code":86171}]