[{"province":"Nusa Tenggara Timur","city":"Sikka","district":"Kangae","urban":"Watumilok","postal_code":86181},{"province":"Nusa Tenggara Timur","city":"Sikka","district":"Hewokloang","urban":"Wolomapa","postal_code":86181},{"province":"Nusa Tenggara Timur","city":"Sikka","district":"Kangae","urban":"Watuliwung","postal_code":86181},{"province":"Nusa Tenggara Timur","city":"Sikka","district":"Kewapante","urban":"Wairkoja","postal_code":86181},{"province":"Nusa Tenggara Timur","city":"Sikka","district":"Kewapante","urban":"Waiara","postal_code":86181},{"province":"Nusa Tenggara Timur","city":"Sikka","district":"Kangae","urban":"Tekaiku","postal_code":86181},{"province":"Nusa Tenggara Timur","city":"Sikka","district":"Kewapante","urban":"Umagera","postal_code":86181},{"province":"Nusa Tenggara Timur","city":"Sikka","district":"Kangae","urban":"Tanaduen","postal_code":86181},{"province":"Nusa Tenggara Timur","city":"Sikka","district":"Kewapante","urban":"Seusina","postal_code":86181},{"province":"Nusa Tenggara Timur","city":"Sikka","district":"Hewokloang","urban":"Rubit","postal_code":86181},{"province":"Nusa Tenggara Timur","city":"Sikka","district":"Kewapante","urban":"Namangkewa","postal_code":86181},{"province":"Nusa Tenggara Timur","city":"Sikka","district":"Kangae","urban":"Mekendetung","postal_code":86181},{"province":"Nusa Tenggara Timur","city":"Sikka","district":"Hewokloang","urban":"Munerana","postal_code":86181},{"province":"Nusa Tenggara Timur","city":"Sikka","district":"Kangae","urban":"Kokowahor","postal_code":86181},{"province":"Nusa Tenggara Timur","city":"Sikka","district":"Kangae","urban":"Langir","postal_code":86181},{"province":"Nusa Tenggara Timur","city":"Sikka","district":"Kewapante","urban":"Kopong","postal_code":86181},{"province":"Nusa Tenggara Timur","city":"Sikka","district":"Kewapante","urban":"Ian Tena","postal_code":86181},{"province":"Nusa Tenggara Timur","city":"Sikka","district":"Hewokloang","urban":"Kajowair","postal_code":86181},{"province":"Nusa Tenggara Timur","city":"Sikka","district":"Kangae","urban":"Habi","postal_code":86181},{"province":"Nusa Tenggara Timur","city":"Sikka","district":"Hewokloang","urban":"Heopuat","postal_code":86181},{"province":"Nusa Tenggara Timur","city":"Sikka","district":"Hewokloang","urban":"Hewokloang","postal_code":86181},{"province":"Nusa Tenggara Timur","city":"Sikka","district":"Kewapante","urban":"Geliting","postal_code":86181},{"province":"Nusa Tenggara Timur","city":"Sikka","district":"Kangae","urban":"Blatatatin","postal_code":86181},{"province":"Nusa Tenggara Timur","city":"Sikka","district":"Hewokloang","urban":"Baomekot","postal_code":86181},{"province":"Nusa Tenggara Timur","city":"Sikka","district":"Hewokloang","urban":"Baomekot","postal_code":86181}]