[{"province":"Nusa Tenggara Timur","city":"Sikka","district":"Waigete","urban":"Watudiran","postal_code":86183},{"province":"Nusa Tenggara Timur","city":"Sikka","district":"Waiblama","urban":"Werang","postal_code":86183},{"province":"Nusa Tenggara Timur","city":"Sikka","district":"Talibura","urban":"Wailamung","postal_code":86183},{"province":"Nusa Tenggara Timur","city":"Sikka","district":"Waigete","urban":"Wairbleler","postal_code":86183},{"province":"Nusa Tenggara Timur","city":"Sikka","district":"Waigete","urban":"Wairterang","postal_code":86183},{"province":"Nusa Tenggara Timur","city":"Sikka","district":"Waiblama","urban":"Tua Bao","postal_code":86183},{"province":"Nusa Tenggara Timur","city":"Sikka","district":"Talibura","urban":"Timutawa","postal_code":86183},{"province":"Nusa Tenggara Timur","city":"Sikka","district":"Waiblama","urban":"Tanarawa","postal_code":86183},{"province":"Nusa Tenggara Timur","city":"Sikka","district":"Talibura","urban":"Talibura","postal_code":86183},{"province":"Nusa Tenggara Timur","city":"Sikka","district":"Waigete","urban":"Pogon","postal_code":86183},{"province":"Nusa Tenggara Timur","city":"Sikka","district":"Waiblama","urban":"Pruda","postal_code":86183},{"province":"Nusa Tenggara Timur","city":"Sikka","district":"Waigete","urban":"Runut","postal_code":86183},{"province":"Nusa Tenggara Timur","city":"Sikka","district":"Talibura","urban":"Ojang","postal_code":86183},{"province":"Nusa Tenggara Timur","city":"Sikka","district":"Talibura","urban":"Nebe","postal_code":86183},{"province":"Nusa Tenggara Timur","city":"Sikka","district":"Waiblama","urban":"Natarmage","postal_code":86183},{"province":"Nusa Tenggara Timur","city":"Sikka","district":"Waigete","urban":"Nangatobong","postal_code":86183},{"province":"Nusa Tenggara Timur","city":"Sikka","district":"Talibura","urban":"Nangahale","postal_code":86183},{"province":"Nusa Tenggara Timur","city":"Sikka","district":"Waiblama","urban":"Ilinmedo","postal_code":86183},{"province":"Nusa Tenggara Timur","city":"Sikka","district":"Talibura","urban":"Kringa","postal_code":86183},{"province":"Nusa Tenggara Timur","city":"Sikka","district":"Talibura","urban":"Lewomada","postal_code":86183},{"province":"Nusa Tenggara Timur","city":"Sikka","district":"Waigete","urban":"Hoder","postal_code":86183},{"province":"Nusa Tenggara Timur","city":"Sikka","district":"Talibura","urban":"Hikong","postal_code":86183},{"province":"Nusa Tenggara Timur","city":"Sikka","district":"Waigete","urban":"Egon","postal_code":86183},{"province":"Nusa Tenggara Timur","city":"Sikka","district":"Talibura","urban":"Darat Pantai","postal_code":86183},{"province":"Nusa Tenggara Timur","city":"Sikka","district":"Talibura","urban":"Baang Koor","postal_code":86183},{"province":"Nusa Tenggara Timur","city":"Sikka","district":"Talibura","urban":"Darat Gunung","postal_code":86183},{"province":"Nusa Tenggara Timur","city":"Sikka","district":"Waigete","urban":"Aibura","postal_code":86183}]