[{"province":"Nusa Tenggara Timur","city":"Flores Timur","district":"Larantuka","urban":"Weri","postal_code":86219},{"province":"Nusa Tenggara Timur","city":"Flores Timur","district":"Demon Pagong","urban":"Watotika Ile","postal_code":86219},{"province":"Nusa Tenggara Timur","city":"Flores Timur","district":"Larantuka","urban":"Sarotari Timur","postal_code":86219},{"province":"Nusa Tenggara Timur","city":"Flores Timur","district":"Larantuka","urban":"Waihali","postal_code":86219},{"province":"Nusa Tenggara Timur","city":"Flores Timur","district":"Larantuka","urban":"Sarotari","postal_code":86219},{"province":"Nusa Tenggara Timur","city":"Flores Timur","district":"Larantuka","urban":"Sarotari Tengah","postal_code":86219},{"province":"Nusa Tenggara Timur","city":"Flores Timur","district":"Larantuka","urban":"Puken Tobi Wangi Bao","postal_code":86219},{"province":"Nusa Tenggara Timur","city":"Flores Timur","district":"Larantuka","urban":"Mokantarak","postal_code":86219},{"province":"Nusa Tenggara Timur","city":"Flores Timur","district":"Larantuka","urban":"Pohon Bao","postal_code":86219},{"province":"Nusa Tenggara Timur","city":"Flores Timur","district":"Demon Pagong","urban":"Lewokluok","postal_code":86219},{"province":"Nusa Tenggara Timur","city":"Flores Timur","district":"Demon Pagong","urban":"Lewomuda","postal_code":86219},{"province":"Nusa Tenggara Timur","city":"Flores Timur","district":"Demon Pagong","urban":"Lamika","postal_code":86219},{"province":"Nusa Tenggara Timur","city":"Flores Timur","district":"Larantuka","urban":"Lamawalang","postal_code":86219},{"province":"Nusa Tenggara Timur","city":"Flores Timur","district":"Demon Pagong","urban":"Kawalelo","postal_code":86219},{"province":"Nusa Tenggara Timur","city":"Flores Timur","district":"Demon Pagong","urban":"Bama","postal_code":86219},{"province":"Nusa Tenggara Timur","city":"Flores Timur","district":"Demon Pagong","urban":"Blepanawa","postal_code":86219},{"province":"Nusa Tenggara Timur","city":"Flores Timur","district":"Larantuka","urban":"Amagarapati","postal_code":86219}]