[{"province":"Nusa Tenggara Timur","city":"Flores Timur","district":"Lewolema","urban":"Sinar Hading","postal_code":86252},{"province":"Nusa Tenggara Timur","city":"Flores Timur","district":"Tanjung Bunga","urban":"Waibao","postal_code":86252},{"province":"Nusa Tenggara Timur","city":"Flores Timur","district":"Tanjung Bunga","urban":"Sina Hadigala","postal_code":86252},{"province":"Nusa Tenggara Timur","city":"Flores Timur","district":"Tanjung Bunga","urban":"Sinamalaka","postal_code":86252},{"province":"Nusa Tenggara Timur","city":"Flores Timur","district":"Lewolema","urban":"Riangkotek","postal_code":86252},{"province":"Nusa Tenggara Timur","city":"Flores Timur","district":"Tanjung Bunga","urban":"Ratu Lodong","postal_code":86252},{"province":"Nusa Tenggara Timur","city":"Flores Timur","district":"Lewolema","urban":"Painapang","postal_code":86252},{"province":"Nusa Tenggara Timur","city":"Flores Timur","district":"Tanjung Bunga","urban":"Patisirawalang","postal_code":86252},{"province":"Nusa Tenggara Timur","city":"Flores Timur","district":"Tanjung Bunga","urban":"Lewobunga","postal_code":86252},{"province":"Nusa Tenggara Timur","city":"Flores Timur","district":"Tanjung Bunga","urban":"Nusanipa","postal_code":86252},{"province":"Nusa Tenggara Timur","city":"Flores Timur","district":"Lewolema","urban":"Lewobelen","postal_code":86252},{"province":"Nusa Tenggara Timur","city":"Flores Timur","district":"Tanjung Bunga","urban":"Latonliwo Dua","postal_code":86252},{"province":"Nusa Tenggara Timur","city":"Flores Timur","district":"Tanjung Bunga","urban":"Lamatutu","postal_code":86252},{"province":"Nusa Tenggara Timur","city":"Flores Timur","district":"Tanjung Bunga","urban":"Laton Liwo","postal_code":86252},{"province":"Nusa Tenggara Timur","city":"Flores Timur","district":"Tanjung Bunga","urban":"Kolaka","postal_code":86252},{"province":"Nusa Tenggara Timur","city":"Flores Timur","district":"Tanjung Bunga","urban":"Lamanabi","postal_code":86252},{"province":"Nusa Tenggara Timur","city":"Flores Timur","district":"Lewolema","urban":"Bantala","postal_code":86252},{"province":"Nusa Tenggara Timur","city":"Flores Timur","district":"Lewolema","urban":"Ile Padung","postal_code":86252},{"province":"Nusa Tenggara Timur","city":"Flores Timur","district":"Tanjung Bunga","urban":"Gekengderan","postal_code":86252},{"province":"Nusa Tenggara Timur","city":"Flores Timur","district":"Lewolema","urban":"Balukhering","postal_code":86252},{"province":"Nusa Tenggara Timur","city":"Flores Timur","district":"Tanjung Bunga","urban":"Bandona","postal_code":86252},{"province":"Nusa Tenggara Timur","city":"Flores Timur","district":"Tanjung Bunga","urban":"Aransina","postal_code":86252},{"province":"Nusa Tenggara Timur","city":"Flores Timur","district":"Tanjung Bunga","urban":"Bahinga","postal_code":86252}]