[{"province":"Nusa Tenggara Timur","city":"Flores Timur","district":"Wotan Ulumado","urban":"Wotanulumado","postal_code":86261},{"province":"Nusa Tenggara Timur","city":"Flores Timur","district":"Adonara Timur","urban":"Waiwerang Kota","postal_code":86261},{"province":"Nusa Tenggara Timur","city":"Flores Timur","district":"Adonara Timur","urban":"Watanpao","postal_code":86261},{"province":"Nusa Tenggara Timur","city":"Flores Timur","district":"Wotan Ulumado","urban":"Wailebe","postal_code":86261},{"province":"Nusa Tenggara Timur","city":"Flores Timur","district":"Adonara Timur","urban":"Waiburak","postal_code":86261},{"province":"Nusa Tenggara Timur","city":"Flores Timur","district":"Wotan Ulumado","urban":"Tobilota","postal_code":86261},{"province":"Nusa Tenggara Timur","city":"Flores Timur","district":"Adonara Timur","urban":"Tuawolo","postal_code":86261},{"province":"Nusa Tenggara Timur","city":"Flores Timur","district":"Adonara Timur","urban":"Tapobali","postal_code":86261},{"province":"Nusa Tenggara Timur","city":"Flores Timur","district":"Adonara Timur","urban":"Terong","postal_code":86261},{"province":"Nusa Tenggara Timur","city":"Flores Timur","district":"Wotan Ulumado","urban":"Samasoge","postal_code":86261},{"province":"Nusa Tenggara Timur","city":"Flores Timur","district":"Wotan Ulumado","urban":"Tanah Tukan","postal_code":86261},{"province":"Nusa Tenggara Timur","city":"Flores Timur","district":"Wotan Ulumado","urban":"Pandai","postal_code":86261},{"province":"Nusa Tenggara Timur","city":"Flores Timur","district":"Adonara Timur","urban":"Puhu","postal_code":86261},{"province":"Nusa Tenggara Timur","city":"Flores Timur","district":"Wotan Ulumado","urban":"Nayubaya","postal_code":86261},{"province":"Nusa Tenggara Timur","city":"Flores Timur","district":"Wotan Ulumado","urban":"Oyangbarang","postal_code":86261},{"province":"Nusa Tenggara Timur","city":"Flores Timur","district":"Adonara Timur","urban":"Narasaosina","postal_code":86261},{"province":"Nusa Tenggara Timur","city":"Flores Timur","district":"Adonara Timur","urban":"Lewobunga","postal_code":86261},{"province":"Nusa Tenggara Timur","city":"Flores Timur","district":"Adonara Timur","urban":"Libubaru","postal_code":86261},{"province":"Nusa Tenggara Timur","city":"Flores Timur","district":"Adonara Timur","urban":"Lamalata","postal_code":86261},{"province":"Nusa Tenggara Timur","city":"Flores Timur","district":"Adonara Timur","urban":"Lamatewelu","postal_code":86261},{"province":"Nusa Tenggara Timur","city":"Flores Timur","district":"Adonara Timur","urban":"Kwaelaga Lamawato","postal_code":86261},{"province":"Nusa Tenggara Timur","city":"Flores Timur","district":"Adonara Timur","urban":"Lamahala Jaya","postal_code":86261},{"province":"Nusa Tenggara Timur","city":"Flores Timur","district":"Wotan Ulumado","urban":"Klukengnuking","postal_code":86261},{"province":"Nusa Tenggara Timur","city":"Flores Timur","district":"Adonara Timur","urban":"Kiwang Ona","postal_code":86261},{"province":"Nusa Tenggara Timur","city":"Flores Timur","district":"Wotan Ulumado","urban":"Kawela","postal_code":86261},{"province":"Nusa Tenggara Timur","city":"Flores Timur","district":"Adonara Timur","urban":"Gelong","postal_code":86261},{"province":"Nusa Tenggara Timur","city":"Flores Timur","district":"Adonara Timur","urban":"Ipiebang","postal_code":86261},{"province":"Nusa Tenggara Timur","city":"Flores Timur","district":"Adonara Timur","urban":"Karinglamalouk","postal_code":86261},{"province":"Nusa Tenggara Timur","city":"Flores Timur","district":"Adonara Timur","urban":"Bilal","postal_code":86261},{"province":"Nusa Tenggara Timur","city":"Flores Timur","district":"Adonara Timur","urban":"Dawataa","postal_code":86261},{"province":"Nusa Tenggara Timur","city":"Flores Timur","district":"Adonara Timur","urban":"Belota","postal_code":86261},{"province":"Nusa Tenggara Timur","city":"Flores Timur","district":"Wotan Ulumado","urban":"Beliko (Bliko)","postal_code":86261}]