[{"province":"Nusa Tenggara Timur","city":"Flores Timur","district":"Adonara Barat","urban":"Wolokibang","postal_code":86262},{"province":"Nusa Tenggara Timur","city":"Flores Timur","district":"Adonara Barat","urban":"Wureh","postal_code":86262},{"province":"Nusa Tenggara Timur","city":"Flores Timur","district":"Witihama (Watihama)","urban":"Watololong","postal_code":86262},{"province":"Nusa Tenggara Timur","city":"Flores Timur","district":"Adonara Tengah","urban":"Wewit","postal_code":86262},{"province":"Nusa Tenggara Timur","city":"Flores Timur","district":"Witihama (Watihama)","urban":"Waiwuring","postal_code":86262},{"province":"Nusa Tenggara Timur","city":"Flores Timur","district":"Witihama (Watihama)","urban":"Weranggere","postal_code":86262},{"province":"Nusa Tenggara Timur","city":"Flores Timur","district":"Adonara Barat","urban":"Wai Tukan","postal_code":86262},{"province":"Nusa Tenggara Timur","city":"Flores Timur","district":"Adonara Barat","urban":"Wato Baya","postal_code":86262},{"province":"Nusa Tenggara Timur","city":"Flores Timur","district":"Adonara Barat","urban":"Waiwadan","postal_code":86262},{"province":"Nusa Tenggara Timur","city":"Flores Timur","district":"Witihama (Watihama)","urban":"Watololong","postal_code":86262},{"province":"Nusa Tenggara Timur","city":"Flores Timur","district":"Adonara Barat","urban":"Tonuwotan","postal_code":86262},{"province":"Nusa Tenggara Timur","city":"Flores Timur","district":"Witihama (Watihama)","urban":"Tuwagoetobi","postal_code":86262},{"province":"Nusa Tenggara Timur","city":"Flores Timur","district":"Adonara","urban":"Tikatukang","postal_code":86262},{"province":"Nusa Tenggara Timur","city":"Flores Timur","district":"Witihama (Watihama)","urban":"Tobitika","postal_code":86262},{"province":"Nusa Tenggara Timur","city":"Flores Timur","district":"Kelubagolit (Klubagolit)","urban":"Sukutokan","postal_code":86262},{"province":"Nusa Tenggara Timur","city":"Flores Timur","district":"Adonara Tengah","urban":"Nubalema","postal_code":86262},{"province":"Nusa Tenggara Timur","city":"Flores Timur","district":"Witihama (Watihama)","urban":"Sandosi","postal_code":86262},{"province":"Nusa Tenggara Timur","city":"Flores Timur","district":"Adonara","urban":"Nisanulan","postal_code":86262},{"province":"Nusa Tenggara Timur","city":"Flores Timur","district":"Adonara","urban":"Sagu","postal_code":86262},{"province":"Nusa Tenggara Timur","city":"Flores Timur","district":"Kelubagolit (Klubagolit)","urban":"Nisakarang","postal_code":86262},{"province":"Nusa Tenggara Timur","city":"Flores Timur","district":"Witihama (Watihama)","urban":"Riangduli","postal_code":86262},{"province":"Nusa Tenggara Timur","city":"Flores Timur","district":"Adonara Barat","urban":"Nimun Dani Bao","postal_code":86262},{"province":"Nusa Tenggara Timur","city":"Flores Timur","district":"Adonara Barat","urban":"Riangpadu","postal_code":86262},{"province":"Nusa Tenggara Timur","city":"Flores Timur","district":"Kelubagolit (Klubagolit)","urban":"Mangaaleng","postal_code":86262},{"province":"Nusa Tenggara Timur","city":"Flores Timur","district":"Kelubagolit (Klubagolit)","urban":"Redontena","postal_code":86262},{"province":"Nusa Tenggara Timur","city":"Flores Timur","district":"Kelubagolit (Klubagolit)","urban":"Muda","postal_code":86262},{"province":"Nusa Tenggara Timur","city":"Flores Timur","district":"Witihama (Watihama)","urban":"Pledo","postal_code":86262},{"province":"Nusa Tenggara Timur","city":"Flores Timur","district":"Adonara Tengah","urban":"Lite","postal_code":86262},{"province":"Nusa Tenggara Timur","city":"Flores Timur","district":"Kelubagolit (Klubagolit)","urban":"Pepak Kelu","postal_code":86262},{"province":"Nusa Tenggara Timur","city":"Flores Timur","district":"Witihama (Watihama)","urban":"Lewopulo","postal_code":86262},{"province":"Nusa Tenggara Timur","city":"Flores Timur","district":"Witihama (Watihama)","urban":"Oringbele","postal_code":86262},{"province":"Nusa Tenggara Timur","city":"Flores Timur","district":"Adonara Tengah","urban":"Kenotan","postal_code":86262},{"province":"Nusa Tenggara Timur","city":"Flores Timur","district":"Adonara Tengah","urban":"Lewopao","postal_code":86262},{"province":"Nusa Tenggara Timur","city":"Flores Timur","district":"Adonara Barat","urban":"Pajinian","postal_code":86262},{"province":"Nusa Tenggara Timur","city":"Flores Timur","district":"Kelubagolit (Klubagolit)","urban":"Keluwain","postal_code":86262},{"province":"Nusa Tenggara Timur","city":"Flores Timur","district":"Kelubagolit (Klubagolit)","urban":"Lamapaha","postal_code":86262},{"province":"Nusa Tenggara Timur","city":"Flores Timur","district":"Adonara Tengah","urban":"Nubalema Dua","postal_code":86262},{"province":"Nusa Tenggara Timur","city":"Flores Timur","district":"Adonara Barat","urban":"Ilepati","postal_code":86262},{"province":"Nusa Tenggara Timur","city":"Flores Timur","district":"Witihama (Watihama)","urban":"Lamaleka","postal_code":86262},{"province":"Nusa Tenggara Timur","city":"Flores Timur","district":"Adonara Tengah","urban":"Oe Sayang","postal_code":86262},{"province":"Nusa Tenggara Timur","city":"Flores Timur","district":"Adonara Barat","urban":"Hurung","postal_code":86262},{"province":"Nusa Tenggara Timur","city":"Flores Timur","district":"Adonara Tengah","urban":"Lewobele","postal_code":86262},{"province":"Nusa Tenggara Timur","city":"Flores Timur","district":"Kelubagolit (Klubagolit)","urban":"Horinara","postal_code":86262},{"province":"Nusa Tenggara Timur","city":"Flores Timur","district":"Kelubagolit (Klubagolit)","urban":"Lamabunga","postal_code":86262},{"province":"Nusa Tenggara Timur","city":"Flores Timur","district":"Adonara Barat","urban":"Homa","postal_code":86262},{"province":"Nusa Tenggara Timur","city":"Flores Timur","district":"Adonara","urban":"Lamahoda","postal_code":86262},{"province":"Nusa Tenggara Timur","city":"Flores Timur","district":"Adonara Tengah","urban":"Horowura","postal_code":86262},{"province":"Nusa Tenggara Timur","city":"Flores Timur","district":"Witihama (Watihama)","urban":"Lamablawa","postal_code":86262},{"province":"Nusa Tenggara Timur","city":"Flores Timur","district":"Adonara Tengah","urban":"Hoko Horowura","postal_code":86262},{"province":"Nusa Tenggara Timur","city":"Flores Timur","district":"Adonara","urban":"Kolipetung","postal_code":86262},{"province":"Nusa Tenggara Timur","city":"Flores Timur","district":"Kelubagolit (Klubagolit)","urban":"Hinga","postal_code":86262},{"province":"Nusa Tenggara Timur","city":"Flores Timur","district":"Adonara","urban":"Kolilanang","postal_code":86262},{"province":"Nusa Tenggara Timur","city":"Flores Timur","district":"Adonara Barat","urban":"Duanur (Duwanur)","postal_code":86262},{"province":"Nusa Tenggara Timur","city":"Flores Timur","district":"Adonara","urban":"Kolimasang","postal_code":86262},{"province":"Nusa Tenggara Timur","city":"Flores Timur","district":"Adonara Barat","urban":"Bukit Seburi II","postal_code":86262},{"province":"Nusa Tenggara Timur","city":"Flores Timur","district":"Adonara Tengah","urban":"Kokotobo","postal_code":86262},{"province":"Nusa Tenggara Timur","city":"Flores Timur","district":"Adonara Barat","urban":"Danibao","postal_code":86262},{"province":"Nusa Tenggara Timur","city":"Flores Timur","district":"Adonara Barat","urban":"Kima Kamak","postal_code":86262},{"province":"Nusa Tenggara Timur","city":"Flores Timur","district":"Adonara Barat","urban":"Bugalima","postal_code":86262},{"province":"Nusa Tenggara Timur","city":"Flores Timur","district":"Adonara Barat","urban":"Bukit Seburi I","postal_code":86262},{"province":"Nusa Tenggara Timur","city":"Flores Timur","district":"Adonara Tengah","urban":"Bidara","postal_code":86262},{"province":"Nusa Tenggara Timur","city":"Flores Timur","district":"Adonara Tengah","urban":"Baya","postal_code":86262},{"province":"Nusa Tenggara Timur","city":"Flores Timur","district":"Witihama (Watihama)","urban":"Balaweling Noten","postal_code":86262},{"province":"Nusa Tenggara Timur","city":"Flores Timur","district":"Witihama (Watihama)","urban":"Baobage","postal_code":86262},{"province":"Nusa Tenggara Timur","city":"Flores Timur","district":"Witihama (Watihama)","urban":"Balaweling","postal_code":86262},{"province":"Nusa Tenggara Timur","city":"Flores Timur","district":"Adonara","urban":"Adonara","postal_code":86262},{"province":"Nusa Tenggara Timur","city":"Flores Timur","district":"Kelubagolit (Klubagolit)","urban":"Adobala","postal_code":86262}]