[{"province":"Nusa Tenggara Timur","city":"Flores Timur","district":"Solor Timur","urban":"Wulublolong","postal_code":86271},{"province":"Nusa Tenggara Timur","city":"Flores Timur","district":"Solor Timur","urban":"Watanhura II","postal_code":86271},{"province":"Nusa Tenggara Timur","city":"Flores Timur","district":"Solor Timur","urban":"Watobuku","postal_code":86271},{"province":"Nusa Tenggara Timur","city":"Flores Timur","district":"Solor Timur","urban":"Watohari","postal_code":86271},{"province":"Nusa Tenggara Timur","city":"Flores Timur","district":"Solor Timur","urban":"Tanah Werang","postal_code":86271},{"province":"Nusa Tenggara Timur","city":"Flores Timur","district":"Solor Timur","urban":"Watanhura","postal_code":86271},{"province":"Nusa Tenggara Timur","city":"Flores Timur","district":"Solor Timur","urban":"Menanga","postal_code":86271},{"province":"Nusa Tenggara Timur","city":"Flores Timur","district":"Solor Timur","urban":"Motonwutun","postal_code":86271},{"province":"Nusa Tenggara Timur","city":"Flores Timur","district":"Solor Timur","urban":"Liwo","postal_code":86271},{"province":"Nusa Tenggara Timur","city":"Flores Timur","district":"Solor Timur","urban":"Lohayong I","postal_code":86271},{"province":"Nusa Tenggara Timur","city":"Flores Timur","district":"Solor Timur","urban":"Lohayong II","postal_code":86271},{"province":"Nusa Tenggara Timur","city":"Flores Timur","district":"Solor Timur","urban":"Lewohedo","postal_code":86271},{"province":"Nusa Tenggara Timur","city":"Flores Timur","district":"Solor Selatan","urban":"Lewograran","postal_code":86271},{"province":"Nusa Tenggara Timur","city":"Flores Timur","district":"Solor Timur","urban":"Lamawai","postal_code":86271},{"province":"Nusa Tenggara Timur","city":"Flores Timur","district":"Solor Timur","urban":"Lebao","postal_code":86271},{"province":"Nusa Tenggara Timur","city":"Flores Timur","district":"Solor Timur","urban":"Lewogeka","postal_code":86271},{"province":"Nusa Tenggara Timur","city":"Flores Timur","district":"Solor Timur","urban":"Kwuta (Kawuta)","postal_code":86271},{"province":"Nusa Tenggara Timur","city":"Flores Timur","district":"Solor Timur","urban":"Labelen","postal_code":86271},{"province":"Nusa Tenggara Timur","city":"Flores Timur","district":"Solor Selatan","urban":"Bubu Atagamu","postal_code":86271}]