[{"province":"Nusa Tenggara Timur","city":"Flores Timur","district":"Solor Barat","urban":"Titehena","postal_code":86272},{"province":"Nusa Tenggara Timur","city":"Flores Timur","district":"Solor Barat","urban":"Tanah Lein","postal_code":86272},{"province":"Nusa Tenggara Timur","city":"Flores Timur","district":"Solor Selatan","urban":"Sulengwaseng","postal_code":86272},{"province":"Nusa Tenggara Timur","city":"Flores Timur","district":"Solor Barat","urban":"Ongalereng","postal_code":86272},{"province":"Nusa Tenggara Timur","city":"Flores Timur","district":"Solor Barat","urban":"Pamakayo","postal_code":86272},{"province":"Nusa Tenggara Timur","city":"Flores Timur","district":"Solor Barat","urban":"Ritaebang","postal_code":86272},{"province":"Nusa Tenggara Timur","city":"Flores Timur","district":"Solor Barat","urban":"Lewotanah Ole","postal_code":86272},{"province":"Nusa Tenggara Timur","city":"Flores Timur","district":"Solor Barat","urban":"Nusadani","postal_code":86272},{"province":"Nusa Tenggara Timur","city":"Flores Timur","district":"Solor Barat","urban":"Lewonama","postal_code":86272},{"province":"Nusa Tenggara Timur","city":"Flores Timur","district":"Solor Selatan","urban":"Lemanu","postal_code":86272},{"province":"Nusa Tenggara Timur","city":"Flores Timur","district":"Solor Barat","urban":"Lamaole","postal_code":86272},{"province":"Nusa Tenggara Timur","city":"Flores Timur","district":"Solor Barat","urban":"Lamawalang (Lamawohong)","postal_code":86272},{"province":"Nusa Tenggara Timur","city":"Flores Timur","district":"Solor Selatan","urban":"Kenere","postal_code":86272},{"province":"Nusa Tenggara Timur","city":"Flores Timur","district":"Solor Barat","urban":"Karawatung","postal_code":86272},{"province":"Nusa Tenggara Timur","city":"Flores Timur","district":"Solor Selatan","urban":"Kalike / Kelike","postal_code":86272},{"province":"Nusa Tenggara Timur","city":"Flores Timur","district":"Solor Selatan","urban":"Kalike / Kelike Aimatan","postal_code":86272},{"province":"Nusa Tenggara Timur","city":"Flores Timur","district":"Solor Barat","urban":"Kalelu","postal_code":86272},{"province":"Nusa Tenggara Timur","city":"Flores Timur","district":"Solor Barat","urban":"Balaweling II","postal_code":86272},{"province":"Nusa Tenggara Timur","city":"Flores Timur","district":"Solor Barat","urban":"Dani Wato","postal_code":86272},{"province":"Nusa Tenggara Timur","city":"Flores Timur","district":"Solor Barat","urban":"Balaweling I","postal_code":86272}]