[{"province":"Nusa Tenggara Timur","city":"Ende","district":"Ende","urban":"Worhopapa","postal_code":86319},{"province":"Nusa Tenggara Timur","city":"Ende","district":"Ende","urban":"Wologai Dua","postal_code":86319},{"province":"Nusa Tenggara Timur","city":"Ende","district":"Ende","urban":"Wolokaro","postal_code":86319},{"province":"Nusa Tenggara Timur","city":"Ende","district":"Ende","urban":"Wologai","postal_code":86319},{"province":"Nusa Tenggara Timur","city":"Ende","district":"Ende","urban":"Wawonato","postal_code":86319},{"province":"Nusa Tenggara Timur","city":"Ende","district":"Ende Utara","urban":"Watusipi","postal_code":86319},{"province":"Nusa Tenggara Timur","city":"Ende","district":"Ende","urban":"Wajakea Jaya","postal_code":86319},{"province":"Nusa Tenggara Timur","city":"Ende","district":"Ende","urban":"Uzuramba Barat","postal_code":86319},{"province":"Nusa Tenggara Timur","city":"Ende","district":"Ende","urban":"Uzuramba","postal_code":86319},{"province":"Nusa Tenggara Timur","city":"Ende","district":"Ende","urban":"Tomberabu II","postal_code":86319},{"province":"Nusa Tenggara Timur","city":"Ende","district":"Ende","urban":"Tonggopajoa","postal_code":86319},{"province":"Nusa Tenggara Timur","city":"Ende","district":"Ende","urban":"Tomberabu 1","postal_code":86319},{"province":"Nusa Tenggara Timur","city":"Ende","district":"Ende","urban":"Tendambonggi","postal_code":86319},{"province":"Nusa Tenggara Timur","city":"Ende","district":"Ende","urban":"Tinabani","postal_code":86319},{"province":"Nusa Tenggara Timur","city":"Ende","district":"Ende","urban":"Ruku Ramba","postal_code":86319},{"province":"Nusa Tenggara Timur","city":"Ende","district":"Ende Utara","urban":"Roworena","postal_code":86319},{"province":"Nusa Tenggara Timur","city":"Ende","district":"Ende Utara","urban":"Roworena Barat","postal_code":86319},{"province":"Nusa Tenggara Timur","city":"Ende","district":"Ende Timur","urban":"Rewarangga","postal_code":86319},{"province":"Nusa Tenggara Timur","city":"Ende","district":"Ende","urban":"Riaraja","postal_code":86319},{"province":"Nusa Tenggara Timur","city":"Ende","district":"Ende Utara","urban":"Rateru","postal_code":86319},{"province":"Nusa Tenggara Timur","city":"Ende","district":"Ende","urban":"Ranoramba","postal_code":86319},{"province":"Nusa Tenggara Timur","city":"Ende","district":"Ende","urban":"Randotonda","postal_code":86319},{"province":"Nusa Tenggara Timur","city":"Ende","district":"Ende","urban":"Randorama","postal_code":86319},{"province":"Nusa Tenggara Timur","city":"Ende","district":"Ende","urban":"Peozakaramba","postal_code":86319},{"province":"Nusa Tenggara Timur","city":"Ende","district":"Ende","urban":"Raburia","postal_code":86319},{"province":"Nusa Tenggara Timur","city":"Ende","district":"Ende","urban":"Ndetundora III","postal_code":86319},{"province":"Nusa Tenggara Timur","city":"Ende","district":"Ende","urban":"Nemboramba","postal_code":86319},{"province":"Nusa Tenggara Timur","city":"Ende","district":"Ende","urban":"Nuaja","postal_code":86319},{"province":"Nusa Tenggara Timur","city":"Ende","district":"Ende","urban":"Ndetundora I","postal_code":86319},{"province":"Nusa Tenggara Timur","city":"Ende","district":"Ende","urban":"Ndetundora II","postal_code":86319},{"province":"Nusa Tenggara Timur","city":"Ende","district":"Ende","urban":"Mbotutenda","postal_code":86319},{"province":"Nusa Tenggara Timur","city":"Ende","district":"Ende","urban":"Nakuramba","postal_code":86319},{"province":"Nusa Tenggara Timur","city":"Ende","district":"Ende Utara","urban":"Kota Ratu","postal_code":86319},{"province":"Nusa Tenggara Timur","city":"Ende","district":"Ende Utara","urban":"Mbomba","postal_code":86319},{"province":"Nusa Tenggara Timur","city":"Ende","district":"Ende Tengah","urban":"Kelimutu","postal_code":86319},{"province":"Nusa Tenggara Timur","city":"Ende","district":"Ende Utara","urban":"Kota Raja","postal_code":86319},{"province":"Nusa Tenggara Timur","city":"Ende","district":"Ende","urban":"Ja Moke Asa","postal_code":86319},{"province":"Nusa Tenggara Timur","city":"Ende","district":"Ende","urban":"Jejaraja","postal_code":86319},{"province":"Nusa Tenggara Timur","city":"Ende","district":"Ende Utara","urban":"Gheoghoma","postal_code":86319},{"province":"Nusa Tenggara Timur","city":"Ende","district":"Ende","urban":"Emburia","postal_code":86319},{"province":"Nusa Tenggara Timur","city":"Ende","district":"Ende","urban":"Embutheru","postal_code":86319},{"province":"Nusa Tenggara Timur","city":"Ende","district":"Ende Utara","urban":"Embundoa","postal_code":86319},{"province":"Nusa Tenggara Timur","city":"Ende","district":"Ende","urban":"Embu Ngena","postal_code":86319},{"province":"Nusa Tenggara Timur","city":"Ende","district":"Ende Utara","urban":"Borokanda","postal_code":86319}]