[{"province":"Nusa Tenggara Timur","city":"Ende","district":"Wewaria","urban":"Wewaria","postal_code":86353},{"province":"Nusa Tenggara Timur","city":"Ende","district":"Wewaria","urban":"Wolooja","postal_code":86353},{"province":"Nusa Tenggara Timur","city":"Ende","district":"Wewaria","urban":"Tanali","postal_code":86353},{"province":"Nusa Tenggara Timur","city":"Ende","district":"Wewaria","urban":"Waka","postal_code":86353},{"province":"Nusa Tenggara Timur","city":"Ende","district":"Wewaria","urban":"Welamosa","postal_code":86353},{"province":"Nusa Tenggara Timur","city":"Ende","district":"Wewaria","urban":"Ratewati Selatan","postal_code":86353},{"province":"Nusa Tenggara Timur","city":"Ende","district":"Wewaria","urban":"Ratewati Selatan","postal_code":86353},{"province":"Nusa Tenggara Timur","city":"Ende","district":"Wewaria","urban":"Nuangenda","postal_code":86353},{"province":"Nusa Tenggara Timur","city":"Ende","district":"Wewaria","urban":"Numba","postal_code":86353},{"province":"Nusa Tenggara Timur","city":"Ende","district":"Wewaria","urban":"Mbotulaka","postal_code":86353},{"province":"Nusa Tenggara Timur","city":"Ende","district":"Wewaria","urban":"Mukusaki","postal_code":86353},{"province":"Nusa Tenggara Timur","city":"Ende","district":"Wewaria","urban":"Mautenda","postal_code":86353},{"province":"Nusa Tenggara Timur","city":"Ende","district":"Wewaria","urban":"Mautenda Barat","postal_code":86353},{"province":"Nusa Tenggara Timur","city":"Ende","district":"Wewaria","urban":"Fataatu Timur","postal_code":86353},{"province":"Nusa Tenggara Timur","city":"Ende","district":"Wewaria","urban":"Kelitembu","postal_code":86353},{"province":"Nusa Tenggara Timur","city":"Ende","district":"Wewaria","urban":"Detubela","postal_code":86353},{"province":"Nusa Tenggara Timur","city":"Ende","district":"Wewaria","urban":"Ekoae","postal_code":86353},{"province":"Nusa Tenggara Timur","city":"Ende","district":"Wewaria","urban":"Fataatu","postal_code":86353},{"province":"Nusa Tenggara Timur","city":"Ende","district":"Wewaria","urban":"Aelipo I","postal_code":86353},{"province":"Nusa Tenggara Timur","city":"Ende","district":"Wewaria","urban":"Aemuri","postal_code":86353},{"province":"Nusa Tenggara Timur","city":"Ende","district":"Wewaria","urban":"Ae Ndoko","postal_code":86353},{"province":"Nusa Tenggara Timur","city":"Ende","district":"Wewaria","urban":"Aelipo","postal_code":86353}]