[{"province":"Nusa Tenggara Timur","city":"Ende","district":"Nangapanda","urban":"Zozozea","postal_code":86352},{"province":"Nusa Tenggara Timur","city":"Ende","district":"Nangapanda","urban":"Uzuzozo","postal_code":86352},{"province":"Nusa Tenggara Timur","city":"Ende","district":"Nangapanda","urban":"Titwerea","postal_code":86352},{"province":"Nusa Tenggara Timur","city":"Ende","district":"Nangapanda","urban":"Watumite","postal_code":86352},{"province":"Nusa Tenggara Timur","city":"Ende","district":"Nangapanda","urban":"Tendambepa","postal_code":86352},{"province":"Nusa Tenggara Timur","city":"Ende","district":"Nangapanda","urban":"Timbaria","postal_code":86352},{"province":"Nusa Tenggara Timur","city":"Ende","district":"Nangapanda","urban":"Tendarea","postal_code":86352},{"province":"Nusa Tenggara Timur","city":"Ende","district":"Nangapanda","urban":"Tanazozo","postal_code":86352},{"province":"Nusa Tenggara Timur","city":"Ende","district":"Nangapanda","urban":"Tenda Ondo","postal_code":86352},{"province":"Nusa Tenggara Timur","city":"Ende","district":"Nangapanda","urban":"Rapowawo","postal_code":86352},{"province":"Nusa Tenggara Timur","city":"Ende","district":"Nangapanda","urban":"Romarea","postal_code":86352},{"province":"Nusa Tenggara Timur","city":"Ende","district":"Nangapanda","urban":"Sanggarhorho","postal_code":86352},{"province":"Nusa Tenggara Timur","city":"Ende","district":"Nangapanda","urban":"Penggajawa","postal_code":86352},{"province":"Nusa Tenggara Timur","city":"Ende","district":"Nangapanda","urban":"Raporendu","postal_code":86352},{"province":"Nusa Tenggara Timur","city":"Ende","district":"Nangapanda","urban":"Ondorea","postal_code":86352},{"province":"Nusa Tenggara Timur","city":"Ende","district":"Nangapanda","urban":"Ondorea Barat","postal_code":86352},{"province":"Nusa Tenggara Timur","city":"Ende","district":"Nangapanda","urban":"Ndorurea I","postal_code":86352},{"province":"Nusa Tenggara Timur","city":"Ende","district":"Nangapanda","urban":"Nggorea","postal_code":86352},{"province":"Nusa Tenggara Timur","city":"Ende","district":"Nangapanda","urban":"Ndeturea","postal_code":86352},{"province":"Nusa Tenggara Timur","city":"Ende","district":"Nangapanda","urban":"Ndorurea","postal_code":86352},{"province":"Nusa Tenggara Timur","city":"Ende","district":"Maukaro","urban":"Nabe","postal_code":86352},{"province":"Nusa Tenggara Timur","city":"Ende","district":"Maukaro","urban":"Natanangge","postal_code":86352},{"province":"Nusa Tenggara Timur","city":"Ende","district":"Maukaro","urban":"Mundinggasa","postal_code":86352},{"province":"Nusa Tenggara Timur","city":"Ende","district":"Nangapanda","urban":"Mbobhenga","postal_code":86352},{"province":"Nusa Tenggara Timur","city":"Ende","district":"Maukaro","urban":"Magekapa","postal_code":86352},{"province":"Nusa Tenggara Timur","city":"Ende","district":"Nangapanda","urban":"Malawaru","postal_code":86352},{"province":"Nusa Tenggara Timur","city":"Ende","district":"Maukaro","urban":"Kobaleba","postal_code":86352},{"province":"Nusa Tenggara Timur","city":"Ende","district":"Maukaro","urban":"Kolipaka","postal_code":86352},{"province":"Nusa Tenggara Timur","city":"Ende","district":"Nangapanda","urban":"Kerirea","postal_code":86352},{"province":"Nusa Tenggara Timur","city":"Ende","district":"Nangapanda","urban":"Kekandere","postal_code":86352},{"province":"Nusa Tenggara Timur","city":"Ende","district":"Maukaro","urban":"Kebirangga Selatan","postal_code":86352},{"province":"Nusa Tenggara Timur","city":"Ende","district":"Maukaro","urban":"Kebirangga Tengah","postal_code":86352},{"province":"Nusa Tenggara Timur","city":"Ende","district":"Maukaro","urban":"Kamumbheka/Kamubheka","postal_code":86352},{"province":"Nusa Tenggara Timur","city":"Ende","district":"Maukaro","urban":"Kebirangga","postal_code":86352},{"province":"Nusa Tenggara Timur","city":"Ende","district":"Nangapanda","urban":"Jemburea","postal_code":86352},{"province":"Nusa Tenggara Timur","city":"Ende","district":"Nangapanda","urban":"Jegharonggo","postal_code":86352},{"province":"Nusa Tenggara Timur","city":"Ende","district":"Maukaro","urban":"Boafeo","postal_code":86352},{"province":"Nusa Tenggara Timur","city":"Ende","district":"Nangapanda","urban":"Embuzozo","postal_code":86352},{"province":"Nusa Tenggara Timur","city":"Ende","district":"Nangapanda","urban":"Bheramari","postal_code":86352},{"province":"Nusa Tenggara Timur","city":"Ende","district":"Nangapanda","urban":"Anaraja","postal_code":86352}]