[{"province":"Nusa Tenggara Timur","city":"Ende","district":"Ndona","urban":"Wolotopo Timur","postal_code":86361},{"province":"Nusa Tenggara Timur","city":"Ende","district":"Lio Timur","urban":"Wolosambi","postal_code":86361},{"province":"Nusa Tenggara Timur","city":"Ende","district":"Ndona","urban":"Wolotopo","postal_code":86361},{"province":"Nusa Tenggara Timur","city":"Ende","district":"Lio Timur","urban":"Woloaro/Woloara","postal_code":86361},{"province":"Nusa Tenggara Timur","city":"Ende","district":"Ndona","urban":"Wolokota","postal_code":86361},{"province":"Nusa Tenggara Timur","city":"Ende","district":"Lio Timur","urban":"Woloaro/Woloara","postal_code":86361},{"province":"Nusa Tenggara Timur","city":"Ende","district":"Ende Timur","urban":"Tiwutewa","postal_code":86361},{"province":"Nusa Tenggara Timur","city":"Ende","district":"Lio Timur","urban":"Watuneso","postal_code":86361},{"province":"Nusa Tenggara Timur","city":"Ende","district":"Ndona Timur","urban":"Sokoria","postal_code":86361},{"province":"Nusa Tenggara Timur","city":"Ende","district":"Lio Timur","urban":"Tanaroga","postal_code":86361},{"province":"Nusa Tenggara Timur","city":"Ende","district":"Ndona","urban":"Reka","postal_code":86361},{"province":"Nusa Tenggara Timur","city":"Ende","district":"Ende Timur","urban":"Rewarangga Selatan","postal_code":86361},{"province":"Nusa Tenggara Timur","city":"Ende","district":"Ndona Timur","urban":"Roga","postal_code":86361},{"province":"Nusa Tenggara Timur","city":"Ende","district":"Ndona","urban":"Puutuga","postal_code":86361},{"province":"Nusa Tenggara Timur","city":"Ende","district":"Lio Timur","urban":"Ranggatalo","postal_code":86361},{"province":"Nusa Tenggara Timur","city":"Ende","district":"Ndona","urban":"Nila","postal_code":86361},{"province":"Nusa Tenggara Timur","city":"Ende","district":"Ndona","urban":"Onelako","postal_code":86361},{"province":"Nusa Tenggara Timur","city":"Ende","district":"Lio Timur","urban":"Nua Lima","postal_code":86361},{"province":"Nusa Tenggara Timur","city":"Ende","district":"Ndona Timur","urban":"Ngguwa","postal_code":86361},{"province":"Nusa Tenggara Timur","city":"Ende","district":"Ndona","urban":"Ngauroga/Ngaluroga","postal_code":86361},{"province":"Nusa Tenggara Timur","city":"Ende","district":"Ndona Timur","urban":"Ngalupolo/Naglupolo","postal_code":86361},{"province":"Nusa Tenggara Timur","city":"Ende","district":"Ndona","urban":"Ngalupolo","postal_code":86361},{"province":"Nusa Tenggara Timur","city":"Ende","district":"Ende Timur","urban":"Ndungga","postal_code":86361},{"province":"Nusa Tenggara Timur","city":"Ende","district":"Ndona","urban":"Nanganesa","postal_code":86361},{"province":"Nusa Tenggara Timur","city":"Ende","district":"Lio Timur","urban":"Mbewawora","postal_code":86361},{"province":"Nusa Tenggara Timur","city":"Ende","district":"Ndona","urban":"Lokoboko","postal_code":86361},{"province":"Nusa Tenggara Timur","city":"Ende","district":"Ndona","urban":"Manulondo (Manulando)","postal_code":86361},{"province":"Nusa Tenggara Timur","city":"Ende","district":"Ndona Timur","urban":"Kurulimbu Selatan","postal_code":86361},{"province":"Nusa Tenggara Timur","city":"Ende","district":"Lio Timur","urban":"Liabeke","postal_code":86361},{"province":"Nusa Tenggara Timur","city":"Ende","district":"Ndona Timur","urban":"Kurulimbu","postal_code":86361},{"province":"Nusa Tenggara Timur","city":"Ende","district":"Ndona","urban":"Kelikiku","postal_code":86361},{"province":"Nusa Tenggara Timur","city":"Ende","district":"Ende Timur","urban":"Kedebodu","postal_code":86361},{"province":"Nusa Tenggara Timur","city":"Ende","district":"Ndona","urban":"Kekasewa","postal_code":86361},{"province":"Nusa Tenggara Timur","city":"Ende","district":"Lio Timur","urban":"Fatamari","postal_code":86361},{"province":"Nusa Tenggara Timur","city":"Ende","district":"Lio Timur","urban":"Hubatuwa/Hobatua","postal_code":86361},{"province":"Nusa Tenggara Timur","city":"Ende","district":"Ndona Timur","urban":"Demulaka","postal_code":86361},{"province":"Nusa Tenggara Timur","city":"Ende","district":"Lio Timur","urban":"Detupera","postal_code":86361},{"province":"Nusa Tenggara Timur","city":"Ende","district":"Lio Timur","urban":"Bu Tanalagu","postal_code":86361}]