[{"province":"Nusa Tenggara Timur","city":"Ende","district":"Pulau Ende","urban":"Rorurangga (Rendo Ranga)","postal_code":86362},{"province":"Nusa Tenggara Timur","city":"Ende","district":"Pulau Ende","urban":"Rendo Raterua","postal_code":86362},{"province":"Nusa Tenggara Timur","city":"Ende","district":"Pulau Ende","urban":"Renga Menge","postal_code":86362},{"province":"Nusa Tenggara Timur","city":"Ende","district":"Pulau Ende","urban":"Puutara","postal_code":86362},{"province":"Nusa Tenggara Timur","city":"Ende","district":"Pulau Ende","urban":"Redodori","postal_code":86362},{"province":"Nusa Tenggara Timur","city":"Ende","district":"Pulau Ende","urban":"Paderape","postal_code":86362},{"province":"Nusa Tenggara Timur","city":"Ende","district":"Pulau Ende","urban":"Kazo Kapo","postal_code":86362},{"province":"Nusa Tenggara Timur","city":"Ende","district":"Pulau Ende","urban":"Ndoriwoi","postal_code":86362},{"province":"Nusa Tenggara Timur","city":"Ende","district":"Pulau Ende","urban":"Aejeti","postal_code":86362}]