[{"province":"Nusa Tenggara Timur","city":"Ende","district":"Ndori","urban":"Wonda","postal_code":86372},{"province":"Nusa Tenggara Timur","city":"Ende","district":"Wolowaru","urban":"Wolosoko","postal_code":86372},{"province":"Nusa Tenggara Timur","city":"Ende","district":"Wolowaru","urban":"Tana Lo&#8217;o","postal_code":86372},{"province":"Nusa Tenggara Timur","city":"Ende","district":"Wolowaru","urban":"Wolokoli","postal_code":86372},{"province":"Nusa Tenggara Timur","city":"Ende","district":"Ndori","urban":"Serandori","postal_code":86372},{"province":"Nusa Tenggara Timur","city":"Ende","district":"Ndori","urban":"Ratemangga","postal_code":86372},{"province":"Nusa Tenggara Timur","city":"Ende","district":"Wolowaru","urban":"Rindiwawo","postal_code":86372},{"province":"Nusa Tenggara Timur","city":"Ende","district":"Wolowaru","urban":"Niromesi","postal_code":86372},{"province":"Nusa Tenggara Timur","city":"Ende","district":"Wolowaru","urban":"Nualise","postal_code":86372},{"province":"Nusa Tenggara Timur","city":"Ende","district":"Wolowaru","urban":"Nakambara","postal_code":86372},{"province":"Nusa Tenggara Timur","city":"Ende","district":"Ndori","urban":"Mole","postal_code":86372},{"province":"Nusa Tenggara Timur","city":"Ende","district":"Wolowaru","urban":"Mbuliwaralau Utara","postal_code":86372},{"province":"Nusa Tenggara Timur","city":"Ende","district":"Wolowaru","urban":"Mbuliwaralau","postal_code":86372},{"province":"Nusa Tenggara Timur","city":"Ende","district":"Wolowaru","urban":"Mbuli Loo","postal_code":86372},{"province":"Nusa Tenggara Timur","city":"Ende","district":"Ndori","urban":"Maubasa Timur","postal_code":86372},{"province":"Nusa Tenggara Timur","city":"Ende","district":"Ndori","urban":"Maubasa","postal_code":86372},{"province":"Nusa Tenggara Timur","city":"Ende","district":"Ndori","urban":"Maubasa Barat","postal_code":86372},{"province":"Nusa Tenggara Timur","city":"Ende","district":"Wolowaru","urban":"Lise Pu&#8217;u","postal_code":86372},{"province":"Nusa Tenggara Timur","city":"Ende","district":"Wolowaru","urban":"Lisedetu","postal_code":86372},{"province":"Nusa Tenggara Timur","city":"Ende","district":"Ndori","urban":"Lungaria","postal_code":86372},{"province":"Nusa Tenggara Timur","city":"Ende","district":"Wolowaru","urban":"Lise Lowobora","postal_code":86372},{"province":"Nusa Tenggara Timur","city":"Ende","district":"Wolowaru","urban":"Likanaka","postal_code":86372},{"province":"Nusa Tenggara Timur","city":"Ende","district":"Ndori","urban":"Kelisamba","postal_code":86372},{"province":"Nusa Tenggara Timur","city":"Ende","district":"Wolowaru","urban":"Jopu","postal_code":86372},{"province":"Nusa Tenggara Timur","city":"Ende","district":"Wolowaru","urban":"Bokasape","postal_code":86372},{"province":"Nusa Tenggara Timur","city":"Ende","district":"Wolowaru","urban":"Bokasape Timur","postal_code":86372},{"province":"Nusa Tenggara Timur","city":"Ende","district":"Ndori","urban":"Aebara","postal_code":86372}]