[{"province":"Nusa Tenggara Timur","city":"Ngada","district":"Wolomeze (Riung Selatan)","urban":"Wue","postal_code":86419},{"province":"Nusa Tenggara Timur","city":"Ngada","district":"Riung Barat","urban":"Wolomeze I","postal_code":86419},{"province":"Nusa Tenggara Timur","city":"Ngada","district":"Riung Barat","urban":"Wolomese Dua","postal_code":86419},{"province":"Nusa Tenggara Timur","city":"Ngada","district":"Riung Barat","urban":"Wolomeze","postal_code":86419},{"province":"Nusa Tenggara Timur","city":"Ngada","district":"Riung","urban":"Wangka","postal_code":86419},{"province":"Nusa Tenggara Timur","city":"Ngada","district":"Riung","urban":"Wangka Selatan","postal_code":86419},{"province":"Nusa Tenggara Timur","city":"Ngada","district":"Wolomeze (Riung Selatan)","urban":"Turaloa","postal_code":86419},{"province":"Nusa Tenggara Timur","city":"Ngada","district":"Soa","urban":"Waepana","postal_code":86419},{"province":"Nusa Tenggara Timur","city":"Ngada","district":"Soa","urban":"Tarawaja","postal_code":86419},{"province":"Nusa Tenggara Timur","city":"Ngada","district":"Soa","urban":"Tarawali","postal_code":86419},{"province":"Nusa Tenggara Timur","city":"Ngada","district":"Riung","urban":"Taen Terong","postal_code":86419},{"province":"Nusa Tenggara Timur","city":"Ngada","district":"Riung","urban":"Taen Terong Dua","postal_code":86419},{"province":"Nusa Tenggara Timur","city":"Ngada","district":"Riung","urban":"Taen Terong Satu","postal_code":86419},{"province":"Nusa Tenggara Timur","city":"Ngada","district":"Riung","urban":"Tadho","postal_code":86419},{"province":"Nusa Tenggara Timur","city":"Ngada","district":"Soa","urban":"Seso","postal_code":86419},{"province":"Nusa Tenggara Timur","city":"Ngada","district":"Riung","urban":"Sambinasi","postal_code":86419},{"province":"Nusa Tenggara Timur","city":"Ngada","district":"Riung","urban":"Sambinasi Barat","postal_code":86419},{"province":"Nusa Tenggara Timur","city":"Ngada","district":"Riung Barat","urban":"Ria","postal_code":86419},{"province":"Nusa Tenggara Timur","city":"Ngada","district":"Riung Barat","urban":"Ria I","postal_code":86419},{"province":"Nusa Tenggara Timur","city":"Ngada","district":"Riung","urban":"Rawangkalo","postal_code":86419},{"province":"Nusa Tenggara Timur","city":"Ngada","district":"Soa","urban":"Piga I","postal_code":86419},{"province":"Nusa Tenggara Timur","city":"Ngada","district":"Wolomeze (Riung Selatan)","urban":"Nginamanu Selatan","postal_code":86419},{"province":"Nusa Tenggara Timur","city":"Ngada","district":"Soa","urban":"Piga","postal_code":86419},{"province":"Nusa Tenggara Timur","city":"Ngada","district":"Wolomeze (Riung Selatan)","urban":"Nginamanu","postal_code":86419},{"province":"Nusa Tenggara Timur","city":"Ngada","district":"Wolomeze (Riung Selatan)","urban":"Nginamanu Barat","postal_code":86419},{"province":"Nusa Tenggara Timur","city":"Ngada","district":"Riung","urban":"Nangamese","postal_code":86419},{"province":"Nusa Tenggara Timur","city":"Ngada","district":"Soa","urban":"Ngabheo","postal_code":86419},{"province":"Nusa Tenggara Timur","city":"Ngada","district":"Riung Barat","urban":"Ngara","postal_code":86419},{"province":"Nusa Tenggara Timur","city":"Ngada","district":"Soa","urban":"Meli Waru","postal_code":86419},{"province":"Nusa Tenggara Timur","city":"Ngada","district":"Soa","urban":"Mengeruda","postal_code":86419},{"province":"Nusa Tenggara Timur","city":"Ngada","district":"Soa","urban":"Masu","postal_code":86419},{"province":"Nusa Tenggara Timur","city":"Ngada","district":"Soa","urban":"Masu Kedhi","postal_code":86419},{"province":"Nusa Tenggara Timur","city":"Ngada","district":"Soa","urban":"Loa","postal_code":86419},{"province":"Nusa Tenggara Timur","city":"Ngada","district":"Wolomeze (Riung Selatan)","urban":"Mainai","postal_code":86419},{"province":"Nusa Tenggara Timur","city":"Ngada","district":"Soa","urban":"Libunio","postal_code":86419},{"province":"Nusa Tenggara Timur","city":"Ngada","district":"Riung","urban":"Lengkosambi Barat","postal_code":86419},{"province":"Nusa Tenggara Timur","city":"Ngada","district":"Riung","urban":"Lengkosambi Timur","postal_code":86419},{"province":"Nusa Tenggara Timur","city":"Ngada","district":"Riung","urban":"Lengkosambi Utara","postal_code":86419},{"province":"Nusa Tenggara Timur","city":"Ngada","district":"Riung","urban":"Lengkosambi","postal_code":86419},{"province":"Nusa Tenggara Timur","city":"Ngada","district":"Riung","urban":"Latung","postal_code":86419},{"province":"Nusa Tenggara Timur","city":"Ngada","district":"Riung Barat","urban":"Lanamai","postal_code":86419},{"province":"Nusa Tenggara Timur","city":"Ngada","district":"Riung Barat","urban":"Lanamai I","postal_code":86419},{"province":"Nusa Tenggara Timur","city":"Ngada","district":"Bajawa","urban":"Faobata","postal_code":86419},{"province":"Nusa Tenggara Timur","city":"Ngada","district":"Wolomeze (Riung Selatan)","urban":"Denatana","postal_code":86419},{"province":"Nusa Tenggara Timur","city":"Ngada","district":"Wolomeze (Riung Selatan)","urban":"Denatana Timur","postal_code":86419},{"province":"Nusa Tenggara Timur","city":"Ngada","district":"Soa","urban":"Bogoboa","postal_code":86419},{"province":"Nusa Tenggara Timur","city":"Ngada","district":"Riung","urban":"Benteng Tengah","postal_code":86419},{"province":"Nusa Tenggara Timur","city":"Ngada","district":"Riung Barat","urban":"Benteng Tawa I","postal_code":86419},{"province":"Nusa Tenggara Timur","city":"Ngada","district":"Riung Barat","urban":"Benteng Tawa","postal_code":86419}]