[{"province":"Nusa Tenggara Timur","city":"Ngada","district":"Bajawa Utara","urban":"Wololika","postal_code":86413},{"province":"Nusa Tenggara Timur","city":"Ngada","district":"Bajawa","urban":"Wawowae","postal_code":86413},{"province":"Nusa Tenggara Timur","city":"Ngada","district":"Bajawa Utara","urban":"Watukapu","postal_code":86413},{"province":"Nusa Tenggara Timur","city":"Ngada","district":"Bajawa Utara","urban":"Uluwae II","postal_code":86413},{"province":"Nusa Tenggara Timur","city":"Ngada","district":"Bajawa Utara","urban":"Waewea","postal_code":86413},{"province":"Nusa Tenggara Timur","city":"Ngada","district":"Bajawa Utara","urban":"Uluwae","postal_code":86413},{"province":"Nusa Tenggara Timur","city":"Ngada","district":"Bajawa Utara","urban":"Uluwae I","postal_code":86413},{"province":"Nusa Tenggara Timur","city":"Ngada","district":"Bajawa","urban":"Ubedolumolo","postal_code":86413},{"province":"Nusa Tenggara Timur","city":"Ngada","district":"Bajawa","urban":"Ubedolumolo Satu","postal_code":86413},{"province":"Nusa Tenggara Timur","city":"Ngada","district":"Bajawa Utara","urban":"Tura Muri","postal_code":86413},{"province":"Nusa Tenggara Timur","city":"Ngada","district":"Bajawa","urban":"Pape","postal_code":86413},{"province":"Nusa Tenggara Timur","city":"Ngada","district":"Bajawa","urban":"Naru (Natu)","postal_code":86413},{"province":"Nusa Tenggara Timur","city":"Ngada","district":"Bajawa","urban":"Ngoranale","postal_code":86413},{"province":"Nusa Tenggara Timur","city":"Ngada","district":"Bajawa Utara","urban":"Inelika","postal_code":86413},{"province":"Nusa Tenggara Timur","city":"Ngada","district":"Bajawa Utara","urban":"Nabelena","postal_code":86413},{"province":"Nusa Tenggara Timur","city":"Ngada","district":"Bajawa Utara","urban":"Inegena","postal_code":86413},{"province":"Nusa Tenggara Timur","city":"Ngada","district":"Bajawa Utara","urban":"Genamere","postal_code":86413},{"province":"Nusa Tenggara Timur","city":"Ngada","district":"Bajawa","urban":"Borani","postal_code":86413},{"province":"Nusa Tenggara Timur","city":"Ngada","district":"Bajawa","urban":"Bowali","postal_code":86413},{"province":"Nusa Tenggara Timur","city":"Ngada","district":"Bajawa","urban":"Bomari","postal_code":86413},{"province":"Nusa Tenggara Timur","city":"Ngada","district":"Bajawa","urban":"Bela","postal_code":86413},{"province":"Nusa Tenggara Timur","city":"Ngada","district":"Bajawa","urban":"Beiwali","postal_code":86413},{"province":"Nusa Tenggara Timur","city":"Ngada","district":"Bajawa","urban":"Beja","postal_code":86413},{"province":"Nusa Tenggara Timur","city":"Ngada","district":"Bajawa","urban":"Bajawa","postal_code":86413}]