[{"province":"Nusa Tenggara Timur","city":"Ngada","district":"Jerebuu","urban":"Watumanu","postal_code":86452},{"province":"Nusa Tenggara Timur","city":"Ngada","district":"Inerie","urban":"Warupele I","postal_code":86452},{"province":"Nusa Tenggara Timur","city":"Ngada","district":"Inerie","urban":"Warupele II","postal_code":86452},{"province":"Nusa Tenggara Timur","city":"Ngada","district":"Aimere","urban":"Waesae","postal_code":86452},{"province":"Nusa Tenggara Timur","city":"Ngada","district":"Inerie","urban":"Waebela","postal_code":86452},{"province":"Nusa Tenggara Timur","city":"Ngada","district":"Jerebuu","urban":"Tiworiwu I","postal_code":86452},{"province":"Nusa Tenggara Timur","city":"Ngada","district":"Jerebuu","urban":"Tiworiwu II","postal_code":86452},{"province":"Nusa Tenggara Timur","city":"Ngada","district":"Inerie","urban":"Tiwurana","postal_code":86452},{"province":"Nusa Tenggara Timur","city":"Ngada","district":"Jerebuu","urban":"Tiworiwu","postal_code":86452},{"province":"Nusa Tenggara Timur","city":"Ngada","district":"Inerie","urban":"Sebowuli","postal_code":86452},{"province":"Nusa Tenggara Timur","city":"Ngada","district":"Jerebuu","urban":"Nio Lewa","postal_code":86452},{"province":"Nusa Tenggara Timur","city":"Ngada","district":"Inerie","urban":"Paupaga","postal_code":86452},{"province":"Nusa Tenggara Timur","city":"Ngada","district":"Jerebuu","urban":"Naruwolo II","postal_code":86452},{"province":"Nusa Tenggara Timur","city":"Ngada","district":"Jerebuu","urban":"Nenowea","postal_code":86452},{"province":"Nusa Tenggara Timur","city":"Ngada","district":"Jerebuu","urban":"Naruwolo","postal_code":86452},{"province":"Nusa Tenggara Timur","city":"Ngada","district":"Jerebuu","urban":"Naruwolo I","postal_code":86452},{"province":"Nusa Tenggara Timur","city":"Ngada","district":"Aimere","urban":"Lekogoko / Lekogoku","postal_code":86452},{"province":"Nusa Tenggara Timur","city":"Ngada","district":"Inerie","urban":"Manubhara","postal_code":86452},{"province":"Nusa Tenggara Timur","city":"Ngada","district":"Jerebuu","urban":"Manubhara","postal_code":86452},{"province":"Nusa Tenggara Timur","city":"Ngada","district":"Aimere","urban":"Legelapu","postal_code":86452},{"province":"Nusa Tenggara Timur","city":"Ngada","district":"Inerie","urban":"Legariwu","postal_code":86452},{"province":"Nusa Tenggara Timur","city":"Ngada","district":"Aimere","urban":"Kila","postal_code":86452},{"province":"Nusa Tenggara Timur","city":"Ngada","district":"Inerie","urban":"Kelitei / Kelitey","postal_code":86452},{"province":"Nusa Tenggara Timur","city":"Ngada","district":"Aimere","urban":"Keligejo","postal_code":86452},{"province":"Nusa Tenggara Timur","city":"Ngada","district":"Inerie","urban":"Inerie","postal_code":86452},{"province":"Nusa Tenggara Timur","city":"Ngada","district":"Aimere","urban":"F O A (Foa)","postal_code":86452},{"province":"Nusa Tenggara Timur","city":"Ngada","district":"Aimere","urban":"Heawea","postal_code":86452},{"province":"Nusa Tenggara Timur","city":"Ngada","district":"Jerebuu","urban":"Dariwali","postal_code":86452},{"province":"Nusa Tenggara Timur","city":"Ngada","district":"Aimere","urban":"Binawali","postal_code":86452},{"province":"Nusa Tenggara Timur","city":"Ngada","district":"Jerebuu","urban":"Batajawa","postal_code":86452},{"province":"Nusa Tenggara Timur","city":"Ngada","district":"Aimere","urban":"Aimere","postal_code":86452},{"province":"Nusa Tenggara Timur","city":"Ngada","district":"Aimere","urban":"Aimere Timur","postal_code":86452}]