[{"province":"Nusa Tenggara Timur","city":"Ngada","district":"Golewa","urban":"Were IV","postal_code":86461},{"province":"Nusa Tenggara Timur","city":"Ngada","district":"Golewa","urban":"Were I","postal_code":86461},{"province":"Nusa Tenggara Timur","city":"Ngada","district":"Golewa Selatan","urban":"Were II","postal_code":86461},{"province":"Nusa Tenggara Timur","city":"Ngada","district":"Golewa Selatan","urban":"Were III","postal_code":86461},{"province":"Nusa Tenggara Timur","city":"Ngada","district":"Golewa","urban":"Were","postal_code":86461},{"province":"Nusa Tenggara Timur","city":"Ngada","district":"Golewa Selatan","urban":"Watusipi","postal_code":86461},{"province":"Nusa Tenggara Timur","city":"Ngada","district":"Golewa","urban":"Wae Ia","postal_code":86461},{"province":"Nusa Tenggara Timur","city":"Ngada","district":"Golewa Barat","urban":"Watunay","postal_code":86461},{"province":"Nusa Tenggara Timur","city":"Ngada","district":"Golewa Selatan","urban":"Wagowela","postal_code":86461},{"province":"Nusa Tenggara Timur","city":"Ngada","district":"Golewa Barat","urban":"Turekisa","postal_code":86461},{"province":"Nusa Tenggara Timur","city":"Ngada","district":"Golewa","urban":"Ulubelu","postal_code":86461},{"province":"Nusa Tenggara Timur","city":"Ngada","district":"Golewa Selatan","urban":"Takatunga","postal_code":86461},{"province":"Nusa Tenggara Timur","city":"Ngada","district":"Golewa","urban":"Todabelu","postal_code":86461},{"province":"Nusa Tenggara Timur","city":"Ngada","district":"Golewa Barat","urban":"Sobo I","postal_code":86461},{"province":"Nusa Tenggara Timur","city":"Ngada","district":"Golewa Barat","urban":"Sobo","postal_code":86461},{"province":"Nusa Tenggara Timur","city":"Ngada","district":"Golewa","urban":"Sarasedu","postal_code":86461},{"province":"Nusa Tenggara Timur","city":"Ngada","district":"Golewa","urban":"Sarasedu I","postal_code":86461},{"province":"Nusa Tenggara Timur","city":"Ngada","district":"Golewa","urban":"Sangadeto","postal_code":86461},{"province":"Nusa Tenggara Timur","city":"Ngada","district":"Golewa Selatan","urban":"Sadha","postal_code":86461},{"province":"Nusa Tenggara Timur","city":"Ngada","district":"Golewa","urban":"Ratogesa","postal_code":86461},{"province":"Nusa Tenggara Timur","city":"Ngada","district":"Golewa Barat","urban":"Rakateda II","postal_code":86461},{"province":"Nusa Tenggara Timur","city":"Ngada","district":"Golewa Barat","urban":"Rakateda I","postal_code":86461},{"province":"Nusa Tenggara Timur","city":"Ngada","district":"Golewa Barat","urban":"Rakalaba","postal_code":86461},{"province":"Nusa Tenggara Timur","city":"Ngada","district":"Golewa Selatan","urban":"Radamasa","postal_code":86461},{"province":"Nusa Tenggara Timur","city":"Ngada","district":"Golewa","urban":"Radabata","postal_code":86461},{"province":"Nusa Tenggara Timur","city":"Ngada","district":"Golewa Selatan","urban":"Nirmala","postal_code":86461},{"province":"Nusa Tenggara Timur","city":"Ngada","district":"Golewa","urban":"Mataloko","postal_code":86461},{"province":"Nusa Tenggara Timur","city":"Ngada","district":"Golewa Barat","urban":"Mangulewa","postal_code":86461},{"province":"Nusa Tenggara Timur","city":"Ngada","district":"Golewa","urban":"Malanuza I","postal_code":86461},{"province":"Nusa Tenggara Timur","city":"Ngada","district":"Golewa Selatan","urban":"Kezewea","postal_code":86461},{"province":"Nusa Tenggara Timur","city":"Ngada","district":"Golewa","urban":"Malanuza","postal_code":86461},{"province":"Nusa Tenggara Timur","city":"Ngada","district":"Golewa Barat","urban":"Dizi gedha","postal_code":86461},{"province":"Nusa Tenggara Timur","city":"Ngada","district":"Golewa","urban":"Eko Roka","postal_code":86461},{"province":"Nusa Tenggara Timur","city":"Ngada","district":"Golewa","urban":"Dadawea","postal_code":86461},{"province":"Nusa Tenggara Timur","city":"Ngada","district":"Golewa Barat","urban":"Bea Pawe","postal_code":86461},{"province":"Nusa Tenggara Timur","city":"Ngada","district":"Golewa Selatan","urban":"Boba","postal_code":86461},{"province":"Nusa Tenggara Timur","city":"Ngada","district":"Golewa Selatan","urban":"Boba I","postal_code":86461},{"province":"Nusa Tenggara Timur","city":"Ngada","district":"Golewa Selatan","urban":"Bawarani","postal_code":86461}]