[{"province":"Nusa Tenggara Timur","city":"Nagekeo","district":"Nangaroro","urban":"Wokodekororo","postal_code":86464},{"province":"Nusa Tenggara Timur","city":"Nagekeo","district":"Nangaroro","urban":"Wokowoe","postal_code":86464},{"province":"Nusa Tenggara Timur","city":"Nagekeo","district":"Nangaroro","urban":"Woedoa","postal_code":86464},{"province":"Nusa Tenggara Timur","city":"Nagekeo","district":"Nangaroro","urban":"Woewutu","postal_code":86464},{"province":"Nusa Tenggara Timur","city":"Nagekeo","district":"Keo Tengah","urban":"Wajo Timur","postal_code":86464},{"province":"Nusa Tenggara Timur","city":"Nagekeo","district":"Keo Tengah","urban":"Witurombaua","postal_code":86464},{"province":"Nusa Tenggara Timur","city":"Nagekeo","district":"Nangaroro","urban":"Ulupulu I","postal_code":86464},{"province":"Nusa Tenggara Timur","city":"Nagekeo","district":"Nangaroro","urban":"Utetoto","postal_code":86464},{"province":"Nusa Tenggara Timur","city":"Nagekeo","district":"Keo Tengah","urban":"Wajo","postal_code":86464},{"province":"Nusa Tenggara Timur","city":"Nagekeo","district":"Nangaroro","urban":"Ulupulu","postal_code":86464},{"province":"Nusa Tenggara Timur","city":"Nagekeo","district":"Keo Tengah","urban":"Udiworowatu","postal_code":86464},{"province":"Nusa Tenggara Timur","city":"Nagekeo","district":"Nangaroro","urban":"Tonggo","postal_code":86464},{"province":"Nusa Tenggara Timur","city":"Nagekeo","district":"Nangaroro","urban":"Podenura","postal_code":86464},{"province":"Nusa Tenggara Timur","city":"Nagekeo","district":"Nangaroro","urban":"Riti","postal_code":86464},{"province":"Nusa Tenggara Timur","city":"Nagekeo","district":"Keo Tengah","urban":"Paumali","postal_code":86464},{"province":"Nusa Tenggara Timur","city":"Nagekeo","district":"Keo Tengah","urban":"Pautola","postal_code":86464},{"province":"Nusa Tenggara Timur","city":"Nagekeo","district":"Nangaroro","urban":"Pagomogo","postal_code":86464},{"province":"Nusa Tenggara Timur","city":"Nagekeo","district":"Keo Tengah","urban":"Ngera","postal_code":86464},{"province":"Nusa Tenggara Timur","city":"Nagekeo","district":"Nangaroro","urban":"Nangaroro","postal_code":86464},{"province":"Nusa Tenggara Timur","city":"Nagekeo","district":"Nangaroro","urban":"Nataute","postal_code":86464},{"province":"Nusa Tenggara Timur","city":"Nagekeo","district":"Keo Tengah","urban":"Mbaenuamuri","postal_code":86464},{"province":"Nusa Tenggara Timur","city":"Nagekeo","district":"Keo Tengah","urban":"Lewangera","postal_code":86464},{"province":"Nusa Tenggara Timur","city":"Nagekeo","district":"Keo Tengah","urban":"Ladolima Barat","postal_code":86464},{"province":"Nusa Tenggara Timur","city":"Nagekeo","district":"Keo Tengah","urban":"Ladolima Timur","postal_code":86464},{"province":"Nusa Tenggara Timur","city":"Nagekeo","district":"Keo Tengah","urban":"Ladolima","postal_code":86464},{"province":"Nusa Tenggara Timur","city":"Nagekeo","district":"Nangaroro","urban":"Kotakeo Satu","postal_code":86464},{"province":"Nusa Tenggara Timur","city":"Nagekeo","district":"Keo Tengah","urban":"Kotawuji Barat","postal_code":86464},{"province":"Nusa Tenggara Timur","city":"Nagekeo","district":"Keo Tengah","urban":"Kotawuji Timur","postal_code":86464},{"province":"Nusa Tenggara Timur","city":"Nagekeo","district":"Nangaroro","urban":"Kotakeo","postal_code":86464},{"province":"Nusa Tenggara Timur","city":"Nagekeo","district":"Nangaroro","urban":"Kotakeo Dua","postal_code":86464},{"province":"Nusa Tenggara Timur","city":"Nagekeo","district":"Keo Tengah","urban":"Kotadirumali","postal_code":86464},{"province":"Nusa Tenggara Timur","city":"Nagekeo","district":"Nangaroro","urban":"Kodaute","postal_code":86464},{"province":"Nusa Tenggara Timur","city":"Nagekeo","district":"Keo Tengah","urban":"Keli","postal_code":86464},{"province":"Nusa Tenggara Timur","city":"Nagekeo","district":"Nangaroro","urban":"Degalea","postal_code":86464},{"province":"Nusa Tenggara Timur","city":"Nagekeo","district":"Nangaroro","urban":"Bidoa","postal_code":86464}]