[{"province":"Nusa Tenggara Timur","city":"Nagekeo","district":"Aesesa Selatan","urban":"Wajomara","postal_code":86472},{"province":"Nusa Tenggara Timur","city":"Nagekeo","district":"Aesesa","urban":"Waekokak","postal_code":86472},{"province":"Nusa Tenggara Timur","city":"Nagekeo","district":"Wolowae","urban":"Totomala","postal_code":86472},{"province":"Nusa Tenggara Timur","city":"Nagekeo","district":"Aesesa","urban":"Towak","postal_code":86472},{"province":"Nusa Tenggara Timur","city":"Nagekeo","district":"Aesesa","urban":"Tonggu Rambang","postal_code":86472},{"province":"Nusa Tenggara Timur","city":"Nagekeo","district":"Wolowae","urban":"Tenda Kinde","postal_code":86472},{"province":"Nusa Tenggara Timur","city":"Nagekeo","district":"Wolowae","urban":"Tendatoto","postal_code":86472},{"province":"Nusa Tenggara Timur","city":"Nagekeo","district":"Aesesa Selatan","urban":"Tengatiba","postal_code":86472},{"province":"Nusa Tenggara Timur","city":"Nagekeo","district":"Aesesa Selatan","urban":"Renduwawo","postal_code":86472},{"province":"Nusa Tenggara Timur","city":"Nagekeo","district":"Aesesa","urban":"Tedakisa","postal_code":86472},{"province":"Nusa Tenggara Timur","city":"Nagekeo","district":"Aesesa","urban":"Tedamude","postal_code":86472},{"province":"Nusa Tenggara Timur","city":"Nagekeo","district":"Aesesa Selatan","urban":"Rendut Tutubhada","postal_code":86472},{"province":"Nusa Tenggara Timur","city":"Nagekeo","district":"Aesesa Selatan","urban":"Rendutenoe","postal_code":86472},{"province":"Nusa Tenggara Timur","city":"Nagekeo","district":"Aesesa Selatan","urban":"Rendu Butowe","postal_code":86472},{"province":"Nusa Tenggara Timur","city":"Nagekeo","district":"Aesesa","urban":"Olaia","postal_code":86472},{"province":"Nusa Tenggara Timur","city":"Nagekeo","district":"Aesesa","urban":"Nggolonio","postal_code":86472},{"province":"Nusa Tenggara Timur","city":"Nagekeo","district":"Aesesa","urban":"Nggolo Mbay","postal_code":86472},{"province":"Nusa Tenggara Timur","city":"Nagekeo","district":"Aesesa","urban":"Nangadhero","postal_code":86472},{"province":"Nusa Tenggara Timur","city":"Nagekeo","district":"Aesesa","urban":"Ngegedhawe","postal_code":86472},{"province":"Nusa Tenggara Timur","city":"Nagekeo","district":"Wolowae","urban":"Natatoto","postal_code":86472},{"province":"Nusa Tenggara Timur","city":"Nagekeo","district":"Aesesa","urban":"Mbay I","postal_code":86472},{"province":"Nusa Tenggara Timur","city":"Nagekeo","district":"Aesesa","urban":"Mbay II","postal_code":86472},{"province":"Nusa Tenggara Timur","city":"Nagekeo","district":"Aesesa","urban":"Lape","postal_code":86472},{"province":"Nusa Tenggara Timur","city":"Nagekeo","district":"Aesesa","urban":"Marapokot","postal_code":86472},{"province":"Nusa Tenggara Timur","city":"Nagekeo","district":"Aesesa Selatan","urban":"Langedhawe","postal_code":86472},{"province":"Nusa Tenggara Timur","city":"Nagekeo","district":"Aesesa","urban":"Dhawe","postal_code":86472},{"province":"Nusa Tenggara Timur","city":"Nagekeo","district":"Aesesa","urban":"Labolewa","postal_code":86472},{"province":"Nusa Tenggara Timur","city":"Nagekeo","district":"Aesesa","urban":"Danga","postal_code":86472},{"province":"Nusa Tenggara Timur","city":"Nagekeo","district":"Wolowae","urban":"Anakoli","postal_code":86472},{"province":"Nusa Tenggara Timur","city":"Nagekeo","district":"Aesesa","urban":"Aeramo","postal_code":86472}]