[{"province":"Nusa Tenggara Timur","city":"Manggarai","district":"Rahong Utara","urban":"Wae Mantang","postal_code":86516},{"province":"Nusa Tenggara Timur","city":"Manggarai","district":"Lelak","urban":"Urang","postal_code":86516},{"province":"Nusa Tenggara Timur","city":"Manggarai","district":"Ruteng","urban":"Wae Belang","postal_code":86516},{"province":"Nusa Tenggara Timur","city":"Manggarai","district":"Rahong Utara","urban":"Tengku Lese","postal_code":86516},{"province":"Nusa Tenggara Timur","city":"Manggarai","district":"Lelak","urban":"Pong Ompu","postal_code":86516},{"province":"Nusa Tenggara Timur","city":"Manggarai","district":"Ruteng","urban":"Pong Murung","postal_code":86516},{"province":"Nusa Tenggara Timur","city":"Manggarai","district":"Ruteng","urban":"Rai","postal_code":86516},{"province":"Nusa Tenggara Timur","city":"Manggarai","district":"Ruteng","urban":"Pong Leko","postal_code":86516},{"province":"Nusa Tenggara Timur","city":"Manggarai","district":"Rahong Utara","urban":"Pong Lengor","postal_code":86516},{"province":"Nusa Tenggara Timur","city":"Manggarai","district":"Ruteng","urban":"Pong Lao","postal_code":86516},{"province":"Nusa Tenggara Timur","city":"Manggarai","district":"Ruteng","urban":"Poco Liking","postal_code":86516},{"province":"Nusa Tenggara Timur","city":"Manggarai","district":"Ruteng","urban":"Pong Lale","postal_code":86516},{"province":"Nusa Tenggara Timur","city":"Manggarai","district":"Lelak","urban":"Ndiwar","postal_code":86516},{"province":"Nusa Tenggara Timur","city":"Manggarai","district":"Langke Rembong","urban":"Pau","postal_code":86516},{"province":"Nusa Tenggara Timur","city":"Manggarai","district":"Ruteng","urban":"Meler","postal_code":86516},{"province":"Nusa Tenggara Timur","city":"Manggarai","district":"Lelak","urban":"Ketang","postal_code":86516},{"province":"Nusa Tenggara Timur","city":"Manggarai","district":"Lelak","urban":"Nati","postal_code":86516},{"province":"Nusa Tenggara Timur","city":"Manggarai","district":"Ruteng","urban":"Kakor","postal_code":86516},{"province":"Nusa Tenggara Timur","city":"Manggarai","district":"Rahong Utara","urban":"Manong","postal_code":86516},{"province":"Nusa Tenggara Timur","city":"Manggarai","district":"Langke Rembong","urban":"Lawir","postal_code":86516},{"province":"Nusa Tenggara Timur","city":"Manggarai","district":"Lelak","urban":"Lentang","postal_code":86516},{"province":"Nusa Tenggara Timur","city":"Manggarai","district":"Ruteng","urban":"Golo Worok","postal_code":86516},{"province":"Nusa Tenggara Timur","city":"Manggarai","district":"Rahong Utara","urban":"Liang Bua","postal_code":86516},{"province":"Nusa Tenggara Timur","city":"Manggarai","district":"Rahong Utara","urban":"Golo Langkok","postal_code":86516},{"province":"Nusa Tenggara Timur","city":"Manggarai","district":"Lelak","urban":"Gelong","postal_code":86516},{"province":"Nusa Tenggara Timur","city":"Manggarai","district":"Rahong Utara","urban":"Dimpong","postal_code":86516},{"province":"Nusa Tenggara Timur","city":"Manggarai","district":"Ruteng","urban":"Cumbi","postal_code":86516},{"province":"Nusa Tenggara Timur","city":"Manggarai","district":"Ruteng","urban":"Compang Namut","postal_code":86516},{"province":"Nusa Tenggara Timur","city":"Manggarai","district":"Rahong Utara","urban":"Compang Dari","postal_code":86516},{"province":"Nusa Tenggara Timur","city":"Manggarai","district":"Ruteng","urban":"Compang Dalo","postal_code":86516},{"province":"Nusa Tenggara Timur","city":"Manggarai","district":"Rahong Utara","urban":"Buar","postal_code":86516},{"province":"Nusa Tenggara Timur","city":"Manggarai","district":"Ruteng","urban":"Bulan","postal_code":86516},{"province":"Nusa Tenggara Timur","city":"Manggarai","district":"Ruteng","urban":"Beokakor","postal_code":86516},{"province":"Nusa Tenggara Timur","city":"Manggarai","district":"Rahong Utara","urban":"Bangka Ruang","postal_code":86516},{"province":"Nusa Tenggara Timur","city":"Manggarai","district":"Rahong Utara","urban":"Benteng Tubi","postal_code":86516},{"province":"Nusa Tenggara Timur","city":"Manggarai","district":"Ruteng","urban":"Bangka Lao","postal_code":86516},{"province":"Nusa Tenggara Timur","city":"Manggarai","district":"Ruteng","urban":"Beo Rahong","postal_code":86516},{"province":"Nusa Tenggara Timur","city":"Manggarai","district":"Lelak","urban":"Bangka Dese","postal_code":86516},{"province":"Nusa Tenggara Timur","city":"Manggarai","district":"Ruteng","urban":"Belang Turi","postal_code":86516},{"province":"Nusa Tenggara Timur","city":"Manggarai","district":"Rahong Utara","urban":"Bangka Ajang","postal_code":86516},{"province":"Nusa Tenggara Timur","city":"Manggarai","district":"Ruteng","urban":"Benteng Kuwu","postal_code":86516},{"province":"Nusa Tenggara Timur","city":"Manggarai","district":"Rahong Utara","urban":"Bangka Ruang","postal_code":86516},{"province":"Nusa Tenggara Timur","city":"Manggarai","district":"Lelak","urban":"Bangka Lelak","postal_code":86516}]