[{"province":"Nusa Tenggara Timur","city":"Manggarai","district":"Satar Mese","urban":"Wewo","postal_code":86561},{"province":"Nusa Tenggara Timur","city":"Manggarai","district":"Satar Mese Barat","urban":"Wongka","postal_code":86561},{"province":"Nusa Tenggara Timur","city":"Manggarai","district":"Satar Mese","urban":"Wae Ajang","postal_code":86561},{"province":"Nusa Tenggara Timur","city":"Manggarai","district":"Satar Mese","urban":"Ulu Belang","postal_code":86561},{"province":"Nusa Tenggara Timur","city":"Manggarai","district":"Satar Mese","urban":"Tado","postal_code":86561},{"province":"Nusa Tenggara Timur","city":"Manggarai","district":"Satar Mese","urban":"Umung","postal_code":86561},{"province":"Nusa Tenggara Timur","city":"Manggarai","district":"Satar Mese Barat","urban":"Satar Ruwuk","postal_code":86561},{"province":"Nusa Tenggara Timur","city":"Manggarai","district":"Satar Mese Barat","urban":"Todo","postal_code":86561},{"province":"Nusa Tenggara Timur","city":"Manggarai","district":"Satar Mese","urban":"Satar Loung","postal_code":86561},{"province":"Nusa Tenggara Timur","city":"Manggarai","district":"Satar Mese","urban":"Tal","postal_code":86561},{"province":"Nusa Tenggara Timur","city":"Manggarai","district":"Satar Mese Barat","urban":"Satar Luju","postal_code":86561},{"province":"Nusa Tenggara Timur","city":"Manggarai","district":"Satar Mese Barat","urban":"Terong","postal_code":86561},{"province":"Nusa Tenggara Timur","city":"Manggarai","district":"Satar Mese Barat","urban":"Ruang","postal_code":86561},{"province":"Nusa Tenggara Timur","city":"Manggarai","district":"Satar Mese Barat","urban":"Satar Lenda","postal_code":86561},{"province":"Nusa Tenggara Timur","city":"Manggarai","district":"Satar Mese Barat","urban":"Popo","postal_code":86561},{"province":"Nusa Tenggara Timur","city":"Manggarai","district":"Satar Mese Barat","urban":"Renda","postal_code":86561},{"province":"Nusa Tenggara Timur","city":"Manggarai","district":"Satar Mese","urban":"Ponggeok","postal_code":86561},{"province":"Nusa Tenggara Timur","city":"Manggarai","district":"Satar Mese","urban":"Pongkor","postal_code":86561},{"province":"Nusa Tenggara Timur","city":"Manggarai","district":"Satar Mese","urban":"Paka","postal_code":86561},{"province":"Nusa Tenggara Timur","city":"Manggarai","district":"Satar Mese","urban":"Papang","postal_code":86561},{"province":"Nusa Tenggara Timur","city":"Manggarai","district":"Satar Mese Barat","urban":"Nuca Molas","postal_code":86561},{"province":"Nusa Tenggara Timur","city":"Manggarai","district":"Satar Mese","urban":"Ngkaer","postal_code":86561},{"province":"Nusa Tenggara Timur","city":"Manggarai","district":"Satar Mese Barat","urban":"Lia","postal_code":86561},{"province":"Nusa Tenggara Timur","city":"Manggarai","district":"Satar Mese Barat","urban":"Nao","postal_code":86561},{"province":"Nusa Tenggara Timur","city":"Manggarai","district":"Satar Mese","urban":"Legu","postal_code":86561},{"province":"Nusa Tenggara Timur","city":"Manggarai","district":"Satar Mese","urban":"Mocok","postal_code":86561},{"province":"Nusa Tenggara Timur","city":"Manggarai","district":"Satar Mese Barat","urban":"Kole","postal_code":86561},{"province":"Nusa Tenggara Timur","city":"Manggarai","district":"Satar Mese Barat","urban":"Mata Wae","postal_code":86561},{"province":"Nusa Tenggara Timur","city":"Manggarai","district":"Satar Mese","urban":"Langgo","postal_code":86561},{"province":"Nusa Tenggara Timur","city":"Manggarai","district":"Satar Mese","urban":"Lungar","postal_code":86561},{"province":"Nusa Tenggara Timur","city":"Manggarai","district":"Satar Mese","urban":"Jaong","postal_code":86561},{"province":"Nusa Tenggara Timur","city":"Manggarai","district":"Satar Mese Barat","urban":"Ling","postal_code":86561},{"province":"Nusa Tenggara Timur","city":"Manggarai","district":"Satar Mese","urban":"Koak","postal_code":86561},{"province":"Nusa Tenggara Timur","city":"Manggarai","district":"Satar Mese","urban":"Lolang","postal_code":86561},{"province":"Nusa Tenggara Timur","city":"Manggarai","district":"Satar Mese Barat","urban":"Hilihintir","postal_code":86561},{"province":"Nusa Tenggara Timur","city":"Manggarai","district":"Satar Mese","urban":"Iteng","postal_code":86561},{"province":"Nusa Tenggara Timur","city":"Manggarai","district":"Satar Mese Barat","urban":"Gulung","postal_code":86561},{"province":"Nusa Tenggara Timur","city":"Manggarai","district":"Satar Mese Barat","urban":"Golo Ropong","postal_code":86561},{"province":"Nusa Tenggara Timur","city":"Manggarai","district":"Satar Mese","urban":"Golo Lambo","postal_code":86561},{"province":"Nusa Tenggara Timur","city":"Manggarai","district":"Satar Mese","urban":"Golo Muntas","postal_code":86561},{"province":"Nusa Tenggara Timur","city":"Manggarai","district":"Satar Mese","urban":"Gara","postal_code":86561},{"province":"Nusa Tenggara Timur","city":"Manggarai","district":"Satar Mese Barat","urban":"Cireng","postal_code":86561},{"province":"Nusa Tenggara Timur","city":"Manggarai","district":"Satar Mese Barat","urban":"Ceka Luju","postal_code":86561},{"province":"Nusa Tenggara Timur","city":"Manggarai","district":"Satar Mese Barat","urban":"Cambir Leca","postal_code":86561},{"province":"Nusa Tenggara Timur","city":"Manggarai","district":"Satar Mese Barat","urban":"Bea Kondo","postal_code":86561},{"province":"Nusa Tenggara Timur","city":"Manggarai","district":"Satar Mese Barat","urban":"Borik","postal_code":86561}]