[{"province":"Nusa Tenggara Timur","city":"Manggarai Timur","district":"Rana Mese","urban":"Watu Mori","postal_code":86571},{"province":"Nusa Tenggara Timur","city":"Manggarai Timur","district":"Rana Mese","urban":"Torok Golo","postal_code":86571},{"province":"Nusa Tenggara Timur","city":"Manggarai Timur","district":"Rana Mese","urban":"Wae Nggori","postal_code":86571},{"province":"Nusa Tenggara Timur","city":"Manggarai Timur","district":"Rana Mese","urban":"Sita","postal_code":86571},{"province":"Nusa Tenggara Timur","city":"Manggarai Timur","district":"Rana Mese","urban":"Satar Lahing","postal_code":86571},{"province":"Nusa Tenggara Timur","city":"Manggarai Timur","district":"Rana Mese","urban":"Satar Lenda","postal_code":86571},{"province":"Nusa Tenggara Timur","city":"Manggarai Timur","district":"Borong","urban":"Sano Lokom/Lokon","postal_code":86571},{"province":"Nusa Tenggara Timur","city":"Manggarai Timur","district":"Rana Mese","urban":"Sano Lokom/Lokon","postal_code":86571},{"province":"Nusa Tenggara Timur","city":"Manggarai Timur","district":"Borong","urban":"Rondo Woing","postal_code":86571},{"province":"Nusa Tenggara Timur","city":"Manggarai Timur","district":"Rana Mese","urban":"Rondo Woing","postal_code":86571},{"province":"Nusa Tenggara Timur","city":"Manggarai Timur","district":"Borong","urban":"Rana Loba","postal_code":86571},{"province":"Nusa Tenggara Timur","city":"Manggarai Timur","district":"Borong","urban":"Rana Masak","postal_code":86571},{"province":"Nusa Tenggara Timur","city":"Manggarai Timur","district":"Borong","urban":"Ngampang Mas","postal_code":86571},{"province":"Nusa Tenggara Timur","city":"Manggarai Timur","district":"Borong","urban":"Poco Rii","postal_code":86571},{"province":"Nusa Tenggara Timur","city":"Manggarai Timur","district":"Borong","urban":"Nanga Labang","postal_code":86571},{"province":"Nusa Tenggara Timur","city":"Manggarai Timur","district":"Rana Mese","urban":"Lalang","postal_code":86571},{"province":"Nusa Tenggara Timur","city":"Manggarai Timur","district":"Rana Mese","urban":"Lidi","postal_code":86571},{"province":"Nusa Tenggara Timur","city":"Manggarai Timur","district":"Borong","urban":"Gurung Liwut","postal_code":86571},{"province":"Nusa Tenggara Timur","city":"Manggarai Timur","district":"Borong","urban":"Kota Ndora","postal_code":86571},{"province":"Nusa Tenggara Timur","city":"Manggarai Timur","district":"Rana Mese","urban":"Golo Rutuk","postal_code":86571},{"province":"Nusa Tenggara Timur","city":"Manggarai Timur","district":"Borong","urban":"Golo Rutuk","postal_code":86571},{"province":"Nusa Tenggara Timur","city":"Manggarai Timur","district":"Rana Mese","urban":"Golo Ros","postal_code":86571},{"province":"Nusa Tenggara Timur","city":"Manggarai Timur","district":"Borong","urban":"Golo Ros","postal_code":86571},{"province":"Nusa Tenggara Timur","city":"Manggarai Timur","district":"Rana Mese","urban":"Golo Meleng","postal_code":86571},{"province":"Nusa Tenggara Timur","city":"Manggarai Timur","district":"Borong","urban":"Golo Meleng","postal_code":86571},{"province":"Nusa Tenggara Timur","city":"Manggarai Timur","district":"Rana Mese","urban":"Golo Loni","postal_code":86571},{"province":"Nusa Tenggara Timur","city":"Manggarai Timur","district":"Borong","urban":"Golo Lalong","postal_code":86571},{"province":"Nusa Tenggara Timur","city":"Manggarai Timur","district":"Borong","urban":"Golo Loni","postal_code":86571},{"province":"Nusa Tenggara Timur","city":"Manggarai Timur","district":"Borong","urban":"Golo Kantar","postal_code":86571},{"province":"Nusa Tenggara Timur","city":"Manggarai Timur","district":"Rana Mese","urban":"Compang Loni","postal_code":86571},{"province":"Nusa Tenggara Timur","city":"Manggarai Timur","district":"Rana Mese","urban":"Compang Teber","postal_code":86571},{"province":"Nusa Tenggara Timur","city":"Manggarai Timur","district":"Rana Mese","urban":"Compang Kempo","postal_code":86571},{"province":"Nusa Tenggara Timur","city":"Manggarai Timur","district":"Rana Mese","urban":"Compang Kantar","postal_code":86571},{"province":"Nusa Tenggara Timur","city":"Manggarai Timur","district":"Borong","urban":"Benteng Raja","postal_code":86571},{"province":"Nusa Tenggara Timur","city":"Manggarai Timur","district":"Borong","urban":"Benteng Riwu","postal_code":86571},{"province":"Nusa Tenggara Timur","city":"Manggarai Timur","district":"Rana Mese","urban":"Bea Ngencung","postal_code":86571},{"province":"Nusa Tenggara Timur","city":"Manggarai Timur","district":"Borong","urban":"Bea Ngencung","postal_code":86571},{"province":"Nusa Tenggara Timur","city":"Manggarai Timur","district":"Rana Mese","urban":"Bangka Kempo","postal_code":86571},{"province":"Nusa Tenggara Timur","city":"Manggarai Timur","district":"Rana Mese","urban":"Bangka Masa","postal_code":86571}]