[{"province":"Nusa Tenggara Timur","city":"Manggarai Timur","district":"Poco Ranaka Timur","urban":"Wejang Wae","postal_code":86583},{"province":"Nusa Tenggara Timur","city":"Manggarai Timur","district":"Poco Ranaka","urban":"Watu Lanur","postal_code":86583},{"province":"Nusa Tenggara Timur","city":"Manggarai Timur","district":"Poco Ranaka Timur","urban":"Wejang Mali","postal_code":86583},{"province":"Nusa Tenggara Timur","city":"Manggarai Timur","district":"Poco Ranaka Timur","urban":"Ulu Wae","postal_code":86583},{"province":"Nusa Tenggara Timur","city":"Manggarai Timur","district":"Poco Ranaka Timur","urban":"Urung Dora","postal_code":86583},{"province":"Nusa Tenggara Timur","city":"Manggarai Timur","district":"Poco Ranaka Timur","urban":"Watu Arus","postal_code":86583},{"province":"Nusa Tenggara Timur","city":"Manggarai Timur","district":"Poco Ranaka Timur","urban":"Tango Molas","postal_code":86583},{"province":"Nusa Tenggara Timur","city":"Manggarai Timur","district":"Poco Ranaka Timur","urban":"Tango Molas","postal_code":86583},{"province":"Nusa Tenggara Timur","city":"Manggarai Timur","district":"Poco Ranaka","urban":"Satar Tesem","postal_code":86583},{"province":"Nusa Tenggara Timur","city":"Manggarai Timur","district":"Poco Ranaka Timur","urban":"Rengkam","postal_code":86583},{"province":"Nusa Tenggara Timur","city":"Manggarai Timur","district":"Poco Ranaka","urban":"Poco Lia","postal_code":86583},{"province":"Nusa Tenggara Timur","city":"Manggarai Timur","district":"Poco Ranaka","urban":"Pocong","postal_code":86583},{"province":"Nusa Tenggara Timur","city":"Manggarai Timur","district":"Poco Ranaka Timur","urban":"Rende Nao","postal_code":86583},{"province":"Nusa Tenggara Timur","city":"Manggarai Timur","district":"Poco Ranaka","urban":"Nggalak Leleng","postal_code":86583},{"province":"Nusa Tenggara Timur","city":"Manggarai Timur","district":"Poco Ranaka Timur","urban":"Ngkiong Dora","postal_code":86583},{"province":"Nusa Tenggara Timur","city":"Manggarai Timur","district":"Poco Ranaka","urban":"Mando Sawu","postal_code":86583},{"province":"Nusa Tenggara Timur","city":"Manggarai Timur","district":"Poco Ranaka","urban":"Melo","postal_code":86583},{"province":"Nusa Tenggara Timur","city":"Manggarai Timur","district":"Poco Ranaka","urban":"Leong","postal_code":86583},{"province":"Nusa Tenggara Timur","city":"Manggarai Timur","district":"Poco Ranaka","urban":"Lento","postal_code":86583},{"province":"Nusa Tenggara Timur","city":"Manggarai Timur","district":"Poco Ranaka","urban":"Golo Wune","postal_code":86583},{"province":"Nusa Tenggara Timur","city":"Manggarai Timur","district":"Poco Ranaka","urban":"Gurung Turi","postal_code":86583},{"province":"Nusa Tenggara Timur","city":"Manggarai Timur","district":"Poco Ranaka","urban":"Lenang","postal_code":86583},{"province":"Nusa Tenggara Timur","city":"Manggarai Timur","district":"Poco Ranaka","urban":"Golo Nderu","postal_code":86583},{"province":"Nusa Tenggara Timur","city":"Manggarai Timur","district":"Poco Ranaka","urban":"Golo Rengket","postal_code":86583},{"province":"Nusa Tenggara Timur","city":"Manggarai Timur","district":"Poco Ranaka","urban":"Golo Ndari","postal_code":86583},{"province":"Nusa Tenggara Timur","city":"Manggarai Timur","district":"Poco Ranaka Timur","urban":"Golo Lero","postal_code":86583},{"province":"Nusa Tenggara Timur","city":"Manggarai Timur","district":"Poco Ranaka","urban":"Golo Lobos","postal_code":86583},{"province":"Nusa Tenggara Timur","city":"Manggarai Timur","district":"Poco Ranaka","urban":"Deno","postal_code":86583},{"province":"Nusa Tenggara Timur","city":"Manggarai Timur","district":"Poco Ranaka Timur","urban":"Compang Wunis","postal_code":86583},{"province":"Nusa Tenggara Timur","city":"Manggarai Timur","district":"Poco Ranaka","urban":"Compang Weluk","postal_code":86583},{"province":"Nusa Tenggara Timur","city":"Manggarai Timur","district":"Poco Ranaka","urban":"Compang Wesang","postal_code":86583},{"province":"Nusa Tenggara Timur","city":"Manggarai Timur","district":"Poco Ranaka Timur","urban":"Compang Raci","postal_code":86583},{"province":"Nusa Tenggara Timur","city":"Manggarai Timur","district":"Poco Ranaka Timur","urban":"Colol","postal_code":86583},{"province":"Nusa Tenggara Timur","city":"Manggarai Timur","district":"Poco Ranaka","urban":"Compang Laho","postal_code":86583},{"province":"Nusa Tenggara Timur","city":"Manggarai Timur","district":"Poco Ranaka Timur","urban":"Benteng Rampas","postal_code":86583},{"province":"Nusa Tenggara Timur","city":"Manggarai Timur","district":"Poco Ranaka Timur","urban":"Benteng Wunis","postal_code":86583},{"province":"Nusa Tenggara Timur","city":"Manggarai Timur","district":"Poco Ranaka","urban":"Bangka Pau","postal_code":86583},{"province":"Nusa Tenggara Timur","city":"Manggarai Timur","district":"Poco Ranaka","urban":"Bea Waek","postal_code":86583},{"province":"Nusa Tenggara Timur","city":"Manggarai Timur","district":"Poco Ranaka","urban":"Bangka Kuleng","postal_code":86583},{"province":"Nusa Tenggara Timur","city":"Manggarai Timur","district":"Poco Ranaka","urban":"Bangka Leleng","postal_code":86583},{"province":"Nusa Tenggara Timur","city":"Manggarai Timur","district":"Poco Ranaka Timur","urban":"Arus","postal_code":86583},{"province":"Nusa Tenggara Timur","city":"Manggarai Timur","district":"Poco Ranaka Timur","urban":"Bangka Arus","postal_code":86583}]