[{"province":"Nusa Tenggara Timur","city":"Manggarai","district":"Wae Rii","urban":"Wae Rii","postal_code":86591},{"province":"Nusa Tenggara Timur","city":"Manggarai","district":"Cibal","urban":"Welu","postal_code":86591},{"province":"Nusa Tenggara Timur","city":"Manggarai","district":"Cibal","urban":"Wudi","postal_code":86591},{"province":"Nusa Tenggara Timur","city":"Manggarai","district":"Cibal Barat","urban":"Wae Renca","postal_code":86591},{"province":"Nusa Tenggara Timur","city":"Manggarai","district":"Wae Rii","urban":"Wae Mulu","postal_code":86591},{"province":"Nusa Tenggara Timur","city":"Manggarai","district":"Cibal Barat","urban":"Timbu","postal_code":86591},{"province":"Nusa Tenggara Timur","city":"Manggarai","district":"Cibal Barat","urban":"Wae Codi","postal_code":86591},{"province":"Nusa Tenggara Timur","city":"Manggarai","district":"Wae Rii","urban":"Satar Ngkeling","postal_code":86591},{"province":"Nusa Tenggara Timur","city":"Manggarai","district":"Cibal","urban":"Riung","postal_code":86591},{"province":"Nusa Tenggara Timur","city":"Manggarai","district":"Wae Rii","urban":"Ranggi","postal_code":86591},{"province":"Nusa Tenggara Timur","city":"Manggarai","district":"Cibal","urban":"Rado","postal_code":86591},{"province":"Nusa Tenggara Timur","city":"Manggarai","district":"Wae Rii","urban":"Ranaka/Renaka","postal_code":86591},{"province":"Nusa Tenggara Timur","city":"Manggarai","district":"Wae Rii","urban":"Poco","postal_code":86591},{"province":"Nusa Tenggara Timur","city":"Manggarai","district":"Cibal","urban":"Perak","postal_code":86591},{"province":"Nusa Tenggara Timur","city":"Manggarai","district":"Cibal","urban":"Pinggang","postal_code":86591},{"province":"Nusa Tenggara Timur","city":"Manggarai","district":"Cibal","urban":"Nenu","postal_code":86591},{"province":"Nusa Tenggara Timur","city":"Manggarai","district":"Cibal","urban":"Pagal","postal_code":86591},{"province":"Nusa Tenggara Timur","city":"Manggarai","district":"Wae Rii","urban":"Longko","postal_code":86591},{"province":"Nusa Tenggara Timur","city":"Manggarai","district":"Wae Rii","urban":"Ndehes","postal_code":86591},{"province":"Nusa Tenggara Timur","city":"Manggarai","district":"Cibal Barat","urban":"Lenda","postal_code":86591},{"province":"Nusa Tenggara Timur","city":"Manggarai","district":"Cibal","urban":"Langkas","postal_code":86591},{"province":"Nusa Tenggara Timur","city":"Manggarai","district":"Cibal Barat","urban":"Latung","postal_code":86591},{"province":"Nusa Tenggara Timur","city":"Manggarai","district":"Cibal","urban":"Ladur","postal_code":86591},{"province":"Nusa Tenggara Timur","city":"Manggarai","district":"Wae Rii","urban":"Lalong","postal_code":86591},{"province":"Nusa Tenggara Timur","city":"Manggarai","district":"Cibal","urban":"Lando","postal_code":86591},{"province":"Nusa Tenggara Timur","city":"Manggarai","district":"Cibal","urban":"Kentol","postal_code":86591},{"province":"Nusa Tenggara Timur","city":"Manggarai","district":"Wae Rii","urban":"Golo Wua (Golo Wuas)","postal_code":86591},{"province":"Nusa Tenggara Timur","city":"Manggarai","district":"Wae Rii","urban":"Golo Nejang","postal_code":86591},{"province":"Nusa Tenggara Timur","city":"Manggarai","district":"Wae Rii","urban":"Golo Watu/Wutu","postal_code":86591},{"province":"Nusa Tenggara Timur","city":"Manggarai","district":"Cibal Barat","urban":"Golo Woi","postal_code":86591},{"province":"Nusa Tenggara Timur","city":"Manggarai","district":"Cibal","urban":"Golo Ncuang","postal_code":86591},{"province":"Nusa Tenggara Timur","city":"Manggarai","district":"Wae Rii","urban":"Golo Mendo","postal_code":86591},{"province":"Nusa Tenggara Timur","city":"Manggarai","district":"Cibal Barat","urban":"Golo Lanak","postal_code":86591},{"province":"Nusa Tenggara Timur","city":"Manggarai","district":"Wae Rii","urban":"Golo Cador","postal_code":86591},{"province":"Nusa Tenggara Timur","city":"Manggarai","district":"Cibal","urban":"Gapong","postal_code":86591},{"province":"Nusa Tenggara Timur","city":"Manggarai","district":"Cibal","urban":"Golo","postal_code":86591},{"province":"Nusa Tenggara Timur","city":"Manggarai","district":"Wae Rii","urban":"Compang Ndehes","postal_code":86591},{"province":"Nusa Tenggara Timur","city":"Manggarai","district":"Cibal Barat","urban":"Compang Cibal","postal_code":86591},{"province":"Nusa Tenggara Timur","city":"Manggarai","district":"Cibal","urban":"Bea Mese","postal_code":86591},{"province":"Nusa Tenggara Timur","city":"Manggarai","district":"Cibal Barat","urban":"Bere","postal_code":86591},{"province":"Nusa Tenggara Timur","city":"Manggarai","district":"Cibal","urban":"Barang","postal_code":86591},{"province":"Nusa Tenggara Timur","city":"Manggarai","district":"Wae Rii","urban":"Bangka Kenda","postal_code":86591},{"province":"Nusa Tenggara Timur","city":"Manggarai","district":"Wae Rii","urban":"Bangkajong","postal_code":86591},{"province":"Nusa Tenggara Timur","city":"Manggarai","district":"Cibal Barat","urban":"Bangka Ara","postal_code":86591}]