[{"province":"Nusa Tenggara Timur","city":"Manggarai","district":"Reok","urban":"Watu Baur","postal_code":86592},{"province":"Nusa Tenggara Timur","city":"Manggarai","district":"Reok","urban":"Watu Tango","postal_code":86592},{"province":"Nusa Tenggara Timur","city":"Manggarai","district":"Reok","urban":"Wangkung","postal_code":86592},{"province":"Nusa Tenggara Timur","city":"Manggarai","district":"Reok Barat","urban":"Torong Koe","postal_code":86592},{"province":"Nusa Tenggara Timur","city":"Manggarai","district":"Reok Barat","urban":"Wae Kajong","postal_code":86592},{"province":"Nusa Tenggara Timur","city":"Manggarai","district":"Reok Barat","urban":"Toe","postal_code":86592},{"province":"Nusa Tenggara Timur","city":"Manggarai","district":"Reok Barat","urban":"Sambi","postal_code":86592},{"province":"Nusa Tenggara Timur","city":"Manggarai","district":"Reok Barat","urban":"Rura","postal_code":86592},{"province":"Nusa Tenggara Timur","city":"Manggarai","district":"Reok","urban":"Salama","postal_code":86592},{"province":"Nusa Tenggara Timur","city":"Manggarai","district":"Reok","urban":"Reo","postal_code":86592},{"province":"Nusa Tenggara Timur","city":"Manggarai","district":"Reok","urban":"Robek","postal_code":86592},{"province":"Nusa Tenggara Timur","city":"Manggarai","district":"Reok","urban":"Ruis","postal_code":86592},{"province":"Nusa Tenggara Timur","city":"Manggarai","district":"Reok Barat","urban":"Nggalak","postal_code":86592},{"province":"Nusa Tenggara Timur","city":"Manggarai","district":"Reok Barat","urban":"Para Lando","postal_code":86592},{"province":"Nusa Tenggara Timur","city":"Manggarai","district":"Reok Barat","urban":"Lemarang","postal_code":86592},{"province":"Nusa Tenggara Timur","city":"Manggarai","district":"Reok Barat","urban":"Loce","postal_code":86592},{"province":"Nusa Tenggara Timur","city":"Manggarai","district":"Reok","urban":"Mata Air","postal_code":86592},{"province":"Nusa Tenggara Timur","city":"Manggarai","district":"Reok Barat","urban":"Lante","postal_code":86592},{"province":"Nusa Tenggara Timur","city":"Manggarai","district":"Reok","urban":"Baru","postal_code":86592},{"province":"Nusa Tenggara Timur","city":"Manggarai","district":"Reok","urban":"Bajak","postal_code":86592}]