[{"province":"Nusa Tenggara Timur","city":"Lembata","district":"Nagawutung","urban":"Penikene","postal_code":86684},{"province":"Nusa Tenggara Timur","city":"Lembata","district":"Nagawutung","urban":"Penikene","postal_code":86684},{"province":"Nusa Tenggara Timur","city":"Lembata","district":"Nagawutung","urban":"Tewaowutung","postal_code":86684},{"province":"Nusa Tenggara Timur","city":"Lembata","district":"Nagawutung","urban":"Lusiduawutun","postal_code":86684},{"province":"Nusa Tenggara Timur","city":"Lembata","district":"Nagawutung","urban":"Pasir Putih","postal_code":86684},{"province":"Nusa Tenggara Timur","city":"Lembata","district":"Nagawutung","urban":"Labalimut","postal_code":86684},{"province":"Nusa Tenggara Timur","city":"Lembata","district":"Nagawutung","urban":"Lolong","postal_code":86684},{"province":"Nusa Tenggara Timur","city":"Lembata","district":"Nagawutung","urban":"Boli Bean","postal_code":86684},{"province":"Nusa Tenggara Timur","city":"Lembata","district":"Nagawutung","urban":"Duawutun","postal_code":86684},{"province":"Nusa Tenggara Timur","city":"Lembata","district":"Nagawutung","urban":"Ile Boli","postal_code":86684},{"province":"Nusa Tenggara Timur","city":"Lembata","district":"Nagawutung","urban":"Baobolak","postal_code":86684},{"province":"Nusa Tenggara Timur","city":"Lembata","district":"Nagawutung","urban":"Belabaja","postal_code":86684},{"province":"Nusa Tenggara Timur","city":"Lembata","district":"Nagawutung","urban":"Babokerong","postal_code":86684},{"province":"Nusa Tenggara Timur","city":"Lembata","district":"Nagawutung","urban":"Atawai","postal_code":86684}]