[{"province":"Nusa Tenggara Timur","city":"Lembata","district":"Nubatukan","urban":"Waijarang","postal_code":86682},{"province":"Nusa Tenggara Timur","city":"Lembata","district":"Nubatukan","urban":"Watokobu","postal_code":86682},{"province":"Nusa Tenggara Timur","city":"Lembata","district":"Nubatukan","urban":"Selandoro","postal_code":86682},{"province":"Nusa Tenggara Timur","city":"Lembata","district":"Nubatukan","urban":"Udak Melomata","postal_code":86682},{"province":"Nusa Tenggara Timur","city":"Lembata","district":"Nubatukan","urban":"Pada","postal_code":86682},{"province":"Nusa Tenggara Timur","city":"Lembata","district":"Nubatukan","urban":"Paubokol (Paobokol)","postal_code":86682},{"province":"Nusa Tenggara Timur","city":"Lembata","district":"Nubatukan","urban":"Lewoleba Selatan","postal_code":86682},{"province":"Nusa Tenggara Timur","city":"Lembata","district":"Nubatukan","urban":"Nuba Mado","postal_code":86682},{"province":"Nusa Tenggara Timur","city":"Lembata","district":"Nubatukan","urban":"Belobatang","postal_code":86682},{"province":"Nusa Tenggara Timur","city":"Lembata","district":"Nubatukan","urban":"Baolangu","postal_code":86682},{"province":"Nusa Tenggara Timur","city":"Lembata","district":"Nubatukan","urban":"Bakalerek","postal_code":86682}]