[{"province":"Nusa Tenggara Timur","city":"Manggarai Barat","district":"Macang Pacar","urban":"Wontong","postal_code":86756},{"province":"Nusa Tenggara Timur","city":"Manggarai Barat","district":"Macang Pacar","urban":"Raba","postal_code":86756},{"province":"Nusa Tenggara Timur","city":"Manggarai Barat","district":"Macang Pacar","urban":"Rego","postal_code":86756},{"province":"Nusa Tenggara Timur","city":"Manggarai Barat","district":"Macang Pacar","urban":"Rokap","postal_code":86756},{"province":"Nusa Tenggara Timur","city":"Manggarai Barat","district":"Macang Pacar","urban":"Nggilat","postal_code":86756},{"province":"Nusa Tenggara Timur","city":"Manggarai Barat","district":"Macang Pacar","urban":"Pacar","postal_code":86756},{"province":"Nusa Tenggara Timur","city":"Manggarai Barat","district":"Macang Pacar","urban":"Mbakung","postal_code":86756},{"province":"Nusa Tenggara Timur","city":"Manggarai Barat","district":"Macang Pacar","urban":"Nanga Kantor","postal_code":86756},{"province":"Nusa Tenggara Timur","city":"Manggarai Barat","district":"Macang Pacar","urban":"Loha","postal_code":86756},{"province":"Nusa Tenggara Timur","city":"Manggarai Barat","district":"Macang Pacar","urban":"Loha","postal_code":86756},{"province":"Nusa Tenggara Timur","city":"Manggarai Barat","district":"Macang Pacar","urban":"Compang","postal_code":86756},{"province":"Nusa Tenggara Timur","city":"Manggarai Barat","district":"Macang Pacar","urban":"Golo Lajang","postal_code":86756},{"province":"Nusa Tenggara Timur","city":"Manggarai Barat","district":"Macang Pacar","urban":"Bari","postal_code":86756}]