[{"province":"Nusa Tenggara Timur","city":"Manggarai Barat","district":"Ndoso","urban":"Wae Buka","postal_code":86752},{"province":"Nusa Tenggara Timur","city":"Manggarai Barat","district":"Ndoso","urban":"Waning","postal_code":86752},{"province":"Nusa Tenggara Timur","city":"Manggarai Barat","district":"Kuwus","urban":"Tueng","postal_code":86752},{"province":"Nusa Tenggara Timur","city":"Manggarai Barat","district":"Ndoso","urban":"Tentang","postal_code":86752},{"province":"Nusa Tenggara Timur","city":"Manggarai Barat","district":"Kuwus","urban":"Sama","postal_code":86752},{"province":"Nusa Tenggara Timur","city":"Manggarai Barat","district":"Kuwus","urban":"Tengku","postal_code":86752},{"province":"Nusa Tenggara Timur","city":"Manggarai Barat","district":"Ndoso","urban":"Raka","postal_code":86752},{"province":"Nusa Tenggara Timur","city":"Manggarai Barat","district":"Kuwus","urban":"Ranggu","postal_code":86752},{"province":"Nusa Tenggara Timur","city":"Manggarai Barat","district":"Ndoso","urban":"Pong Narang","postal_code":86752},{"province":"Nusa Tenggara Timur","city":"Manggarai Barat","district":"Ndoso","urban":"Ndoso","postal_code":86752},{"province":"Nusa Tenggara Timur","city":"Manggarai Barat","district":"Kuwus","urban":"Pangga","postal_code":86752},{"province":"Nusa Tenggara Timur","city":"Manggarai Barat","district":"Ndoso","urban":"Momol","postal_code":86752},{"province":"Nusa Tenggara Timur","city":"Manggarai Barat","district":"Kuwus","urban":"Nantal","postal_code":86752},{"province":"Nusa Tenggara Timur","city":"Manggarai Barat","district":"Ndoso","urban":"Lumut","postal_code":86752},{"province":"Nusa Tenggara Timur","city":"Manggarai Barat","district":"Kuwus","urban":"Lewur","postal_code":86752},{"province":"Nusa Tenggara Timur","city":"Manggarai Barat","district":"Kuwus","urban":"Kolang","postal_code":86752},{"province":"Nusa Tenggara Timur","city":"Manggarai Barat","district":"Kuwus","urban":"Lawi","postal_code":86752},{"province":"Nusa Tenggara Timur","city":"Manggarai Barat","district":"Ndoso","urban":"Kasong","postal_code":86752},{"province":"Nusa Tenggara Timur","city":"Manggarai Barat","district":"Kuwus","urban":"Golo Ruu","postal_code":86752},{"province":"Nusa Tenggara Timur","city":"Manggarai Barat","district":"Kuwus","urban":"Golo Wedong","postal_code":86752},{"province":"Nusa Tenggara Timur","city":"Manggarai Barat","district":"Kuwus","urban":"Golo Riwu","postal_code":86752},{"province":"Nusa Tenggara Timur","city":"Manggarai Barat","district":"Ndoso","urban":"Golo Poleng","postal_code":86752},{"province":"Nusa Tenggara Timur","city":"Manggarai Barat","district":"Kuwus","urban":"Compang Suka","postal_code":86752},{"province":"Nusa Tenggara Timur","city":"Manggarai Barat","district":"Kuwus","urban":"Golo Lewe","postal_code":86752},{"province":"Nusa Tenggara Timur","city":"Manggarai Barat","district":"Kuwus","urban":"Coal","postal_code":86752},{"province":"Nusa Tenggara Timur","city":"Manggarai Barat","district":"Kuwus","urban":"Compang Kules","postal_code":86752},{"province":"Nusa Tenggara Timur","city":"Manggarai Barat","district":"Kuwus","urban":"Benteng Curu","postal_code":86752}]