[{"province":"Nusa Tenggara Timur","city":"Manggarai Barat","district":"Lembor Selatan","urban":"Watu Waja","postal_code":86753},{"province":"Nusa Tenggara Timur","city":"Manggarai Barat","district":"Welak","urban":"Watu Umpu","postal_code":86753},{"province":"Nusa Tenggara Timur","city":"Manggarai Barat","district":"Lembor","urban":"Wae Wako","postal_code":86753},{"province":"Nusa Tenggara Timur","city":"Manggarai Barat","district":"Lembor Selatan","urban":"Wae Mose","postal_code":86753},{"province":"Nusa Tenggara Timur","city":"Manggarai Barat","district":"Lembor","urban":"Wae Bangka","postal_code":86753},{"province":"Nusa Tenggara Timur","city":"Manggarai Barat","district":"Lembor","urban":"Wae Kanta","postal_code":86753},{"province":"Nusa Tenggara Timur","city":"Manggarai Barat","district":"Lembor","urban":"Tangge","postal_code":86753},{"province":"Nusa Tenggara Timur","city":"Manggarai Barat","district":"Lembor Selatan","urban":"Surunumbeng","postal_code":86753},{"province":"Nusa Tenggara Timur","city":"Manggarai Barat","district":"Welak","urban":"Semang","postal_code":86753},{"province":"Nusa Tenggara Timur","city":"Manggarai Barat","district":"Lembor","urban":"Siru","postal_code":86753},{"province":"Nusa Tenggara Timur","city":"Manggarai Barat","district":"Lembor Selatan","urban":"Repi","postal_code":86753},{"province":"Nusa Tenggara Timur","city":"Manggarai Barat","district":"Lembor","urban":"Ponto Ara","postal_code":86753},{"province":"Nusa Tenggara Timur","city":"Manggarai Barat","district":"Welak","urban":"Rehak","postal_code":86753},{"province":"Nusa Tenggara Timur","city":"Manggarai Barat","district":"Lembor","urban":"Pong Majok","postal_code":86753},{"province":"Nusa Tenggara Timur","city":"Manggarai Barat","district":"Welak","urban":"Pong Welak","postal_code":86753},{"province":"Nusa Tenggara Timur","city":"Manggarai Barat","district":"Lembor","urban":"Poco Rutang","postal_code":86753},{"province":"Nusa Tenggara Timur","city":"Manggarai Barat","district":"Lembor","urban":"Pondo","postal_code":86753},{"province":"Nusa Tenggara Timur","city":"Manggarai Barat","district":"Welak","urban":"Orong","postal_code":86753},{"province":"Nusa Tenggara Timur","city":"Manggarai Barat","district":"Welak","urban":"Pengka","postal_code":86753},{"province":"Nusa Tenggara Timur","city":"Manggarai Barat","district":"Lembor Selatan","urban":"Nanga Lili","postal_code":86753},{"province":"Nusa Tenggara Timur","city":"Manggarai Barat","district":"Lembor","urban":"Ngancar","postal_code":86753},{"province":"Nusa Tenggara Timur","city":"Manggarai Barat","district":"Lembor Selatan","urban":"Munting","postal_code":86753},{"province":"Nusa Tenggara Timur","city":"Manggarai Barat","district":"Lembor Selatan","urban":"Nanga Bere","postal_code":86753},{"province":"Nusa Tenggara Timur","city":"Manggarai Barat","district":"Lembor Selatan","urban":"Lalong","postal_code":86753},{"province":"Nusa Tenggara Timur","city":"Manggarai Barat","district":"Welak","urban":"Lale","postal_code":86753},{"province":"Nusa Tenggara Timur","city":"Manggarai Barat","district":"Lembor Selatan","urban":"Kakor","postal_code":86753},{"province":"Nusa Tenggara Timur","city":"Manggarai Barat","district":"Welak","urban":"Gurung","postal_code":86753},{"province":"Nusa Tenggara Timur","city":"Manggarai Barat","district":"Welak","urban":"Galang","postal_code":86753},{"province":"Nusa Tenggara Timur","city":"Manggarai Barat","district":"Welak","urban":"Golo Ronggot","postal_code":86753},{"province":"Nusa Tenggara Timur","city":"Manggarai Barat","district":"Welak","urban":"Dunta","postal_code":86753},{"province":"Nusa Tenggara Timur","city":"Manggarai Barat","district":"Lembor Selatan","urban":"Benteng Dewa","postal_code":86753},{"province":"Nusa Tenggara Timur","city":"Manggarai Barat","district":"Lembor Selatan","urban":"Benteng Dewa","postal_code":86753}]