[{"province":"Nusa Tenggara Timur","city":"Manggarai Barat","district":"Komodo","urban":"Warloka","postal_code":86754},{"province":"Nusa Tenggara Timur","city":"Manggarai Barat","district":"Komodo","urban":"Watu Nggelek","postal_code":86754},{"province":"Nusa Tenggara Timur","city":"Manggarai Barat","district":"Komodo","urban":"Wae Kelambu","postal_code":86754},{"province":"Nusa Tenggara Timur","city":"Manggarai Barat","district":"Boleng","urban":"Tanjung Boleng","postal_code":86754},{"province":"Nusa Tenggara Timur","city":"Manggarai Barat","district":"Komodo","urban":"Tiwu Nampar","postal_code":86754},{"province":"Nusa Tenggara Timur","city":"Manggarai Barat","district":"Boleng","urban":"Pota Wangka","postal_code":86754},{"province":"Nusa Tenggara Timur","city":"Manggarai Barat","district":"Boleng","urban":"Sepang","postal_code":86754},{"province":"Nusa Tenggara Timur","city":"Manggarai Barat","district":"Boleng","urban":"Pontianak (Tanjung Pontianak)","postal_code":86754},{"province":"Nusa Tenggara Timur","city":"Manggarai Barat","district":"Komodo","urban":"Pasir Putih","postal_code":86754},{"province":"Nusa Tenggara Timur","city":"Manggarai Barat","district":"Komodo","urban":"Papa Garang","postal_code":86754},{"province":"Nusa Tenggara Timur","city":"Manggarai Barat","district":"Komodo","urban":"Pasir Panjang","postal_code":86754},{"province":"Nusa Tenggara Timur","city":"Manggarai Barat","district":"Boleng","urban":"Mbuit","postal_code":86754},{"province":"Nusa Tenggara Timur","city":"Manggarai Barat","district":"Komodo","urban":"Nggorang","postal_code":86754},{"province":"Nusa Tenggara Timur","city":"Manggarai Barat","district":"Komodo","urban":"Labuan Bajo","postal_code":86754},{"province":"Nusa Tenggara Timur","city":"Manggarai Barat","district":"Komodo","urban":"Macang Tanggar","postal_code":86754},{"province":"Nusa Tenggara Timur","city":"Manggarai Barat","district":"Komodo","urban":"Gorontalo","postal_code":86754},{"province":"Nusa Tenggara Timur","city":"Manggarai Barat","district":"Komodo","urban":"Komodo","postal_code":86754},{"province":"Nusa Tenggara Timur","city":"Manggarai Barat","district":"Komodo","urban":"Golo Pongkor","postal_code":86754},{"province":"Nusa Tenggara Timur","city":"Manggarai Barat","district":"Boleng","urban":"Golo Sepang","postal_code":86754},{"province":"Nusa Tenggara Timur","city":"Manggarai Barat","district":"Komodo","urban":"Golo Mori","postal_code":86754},{"province":"Nusa Tenggara Timur","city":"Manggarai Barat","district":"Boleng","urban":"Golo Lujang","postal_code":86754},{"province":"Nusa Tenggara Timur","city":"Manggarai Barat","district":"Boleng","urban":"Batu Tiga","postal_code":86754},{"province":"Nusa Tenggara Timur","city":"Manggarai Barat","district":"Komodo","urban":"Golo Bilas","postal_code":86754},{"province":"Nusa Tenggara Timur","city":"Manggarai Barat","district":"Boleng","urban":"Golo Ketak","postal_code":86754},{"province":"Nusa Tenggara Timur","city":"Manggarai Barat","district":"Komodo","urban":"Batu Cermin","postal_code":86754}]