[{"province":"Nusa Tenggara Timur","city":"Sumba Timur","district":"Kambera","urban":"Wangga","postal_code":87116},{"province":"Nusa Tenggara Timur","city":"Sumba Timur","district":"Kota Waingapu","urban":"Mbata Kapidu","postal_code":87116},{"province":"Nusa Tenggara Timur","city":"Sumba Timur","district":"Kota Waingapu","urban":"Pambola Njara (Pambotanjara)","postal_code":87116},{"province":"Nusa Tenggara Timur","city":"Sumba Timur","district":"Kambera","urban":"Mauliru","postal_code":87116},{"province":"Nusa Tenggara Timur","city":"Sumba Timur","district":"Kota Waingapu","urban":"Matawai","postal_code":87116},{"province":"Nusa Tenggara Timur","city":"Sumba Timur","district":"Kambera","urban":"Mauhau","postal_code":87116},{"province":"Nusa Tenggara Timur","city":"Sumba Timur","district":"Kota Waingapu","urban":"Lukukamaru","postal_code":87116},{"province":"Nusa Tenggara Timur","city":"Sumba Timur","district":"Kambera","urban":"Malumbi","postal_code":87116},{"province":"Nusa Tenggara Timur","city":"Sumba Timur","district":"Kambata Mapambuhang","urban":"Luku Wingir (Wikir)","postal_code":87116},{"province":"Nusa Tenggara Timur","city":"Sumba Timur","district":"Kota Waingapu","urban":"Kambajawa","postal_code":87116}]