[{"province":"Nusa Tenggara Timur","city":"Sumba Timur","district":"Haharu","urban":"Wunga","postal_code":87153},{"province":"Nusa Tenggara Timur","city":"Sumba Timur","district":"Kanatang","urban":"Temu","postal_code":87153},{"province":"Nusa Tenggara Timur","city":"Sumba Timur","district":"Haharu","urban":"Rambangaru","postal_code":87153},{"province":"Nusa Tenggara Timur","city":"Sumba Timur","district":"Haharu","urban":"Praibakul","postal_code":87153},{"province":"Nusa Tenggara Timur","city":"Sumba Timur","district":"Kanatang","urban":"Mondu","postal_code":87153},{"province":"Nusa Tenggara Timur","city":"Sumba Timur","district":"Kanatang","urban":"Ndapayami","postal_code":87153},{"province":"Nusa Tenggara Timur","city":"Sumba Timur","district":"Haharu","urban":"Napu","postal_code":87153},{"province":"Nusa Tenggara Timur","city":"Sumba Timur","district":"Kanatang","urban":"Kuta","postal_code":87153},{"province":"Nusa Tenggara Timur","city":"Sumba Timur","district":"Haharu","urban":"Mbata Puhu","postal_code":87153},{"province":"Nusa Tenggara Timur","city":"Sumba Timur","district":"Haharu","urban":"Kadahang","postal_code":87153},{"province":"Nusa Tenggara Timur","city":"Sumba Timur","district":"Haharu","urban":"Kalamba","postal_code":87153},{"province":"Nusa Tenggara Timur","city":"Sumba Timur","district":"Kanatang","urban":"Hamba Praing","postal_code":87153}]