[{"province":"Nusa Tenggara Timur","city":"Sumba Timur","district":"Lewa Tidahu","urban":"Watumbelar","postal_code":87152},{"province":"Nusa Tenggara Timur","city":"Sumba Timur","district":"Lewa Tidahu","urban":"Umamanu","postal_code":87152},{"province":"Nusa Tenggara Timur","city":"Sumba Timur","district":"Nggaha Oriangu","urban":"Tanatuku","postal_code":87152},{"province":"Nusa Tenggara Timur","city":"Sumba Timur","district":"Nggaha Oriangu","urban":"Tandula Jangga","postal_code":87152},{"province":"Nusa Tenggara Timur","city":"Sumba Timur","district":"Lewa","urban":"Tanarara","postal_code":87152},{"province":"Nusa Tenggara Timur","city":"Sumba Timur","district":"Nggaha Oriangu","urban":"Prai Paha","postal_code":87152},{"province":"Nusa Tenggara Timur","city":"Sumba Timur","district":"Nggaha Oriangu","urban":"Pulu Panjang","postal_code":87152},{"province":"Nusa Tenggara Timur","city":"Sumba Timur","district":"Lewa","urban":"Rakawatu","postal_code":87152},{"province":"Nusa Tenggara Timur","city":"Sumba Timur","district":"Katala Hamu Lingu","urban":"Prai Bakul","postal_code":87152},{"province":"Nusa Tenggara Timur","city":"Sumba Timur","district":"Nggaha Oriangu","urban":"Prai Karang","postal_code":87152},{"province":"Nusa Tenggara Timur","city":"Sumba Timur","district":"Lewa Tidahu","urban":"Mondu Lambi","postal_code":87152},{"province":"Nusa Tenggara Timur","city":"Sumba Timur","district":"Nggaha Oriangu","urban":"Ngadulangi","postal_code":87152},{"province":"Nusa Tenggara Timur","city":"Sumba Timur","district":"Lewa","urban":"Matawai Pawali","postal_code":87152},{"province":"Nusa Tenggara Timur","city":"Sumba Timur","district":"Katala Hamu Lingu","urban":"Matawai Amahu","postal_code":87152},{"province":"Nusa Tenggara Timur","city":"Sumba Timur","district":"Nggaha Oriangu","urban":"Makamenggit","postal_code":87152},{"province":"Nusa Tenggara Timur","city":"Sumba Timur","district":"Katala Hamu Lingu","urban":"Mandahu","postal_code":87152},{"province":"Nusa Tenggara Timur","city":"Sumba Timur","district":"Lewa","urban":"Lewapaku","postal_code":87152},{"province":"Nusa Tenggara Timur","city":"Sumba Timur","district":"Lewa Tidahu","urban":"Laihawu","postal_code":87152},{"province":"Nusa Tenggara Timur","city":"Sumba Timur","district":"Lewa","urban":"Kondamara","postal_code":87152},{"province":"Nusa Tenggara Timur","city":"Sumba Timur","district":"Katala Hamu Lingu","urban":"Lai Lara","postal_code":87152},{"province":"Nusa Tenggara Timur","city":"Sumba Timur","district":"Katala Hamu Lingu","urban":"Kompa Pari (Kombapari)","postal_code":87152},{"province":"Nusa Tenggara Timur","city":"Sumba Timur","district":"Lewa","urban":"Kambu Hapang","postal_code":87152},{"province":"Nusa Tenggara Timur","city":"Sumba Timur","district":"Lewa Tidahu","urban":"Kangeli","postal_code":87152},{"province":"Nusa Tenggara Timur","city":"Sumba Timur","district":"Nggaha Oriangu","urban":"Kahiri","postal_code":87152},{"province":"Nusa Tenggara Timur","city":"Sumba Timur","district":"Lewa","urban":"Kambata Wundut","postal_code":87152},{"province":"Nusa Tenggara Timur","city":"Sumba Timur","district":"Lewa Tidahu","urban":"BidiPraing","postal_code":87152},{"province":"Nusa Tenggara Timur","city":"Sumba Timur","district":"Lewa","urban":"Bidi Hunga","postal_code":87152}]