[{"province":"Nusa Tenggara Timur","city":"Sumba Timur","district":"Tabundung","urban":"Wudi Pandak","postal_code":87161},{"province":"Nusa Tenggara Timur","city":"Sumba Timur","district":"Tabundung","urban":"Waikanabu","postal_code":87161},{"province":"Nusa Tenggara Timur","city":"Sumba Timur","district":"Pinupahar (Pirapahar)","urban":"Wangga Mbewa","postal_code":87161},{"province":"Nusa Tenggara Timur","city":"Sumba Timur","district":"Pinupahar (Pirapahar)","urban":"Tawui","postal_code":87161},{"province":"Nusa Tenggara Timur","city":"Sumba Timur","district":"Pinupahar (Pirapahar)","urban":"Tawui","postal_code":87161},{"province":"Nusa Tenggara Timur","city":"Sumba Timur","district":"Tabundung","urban":"Tapil","postal_code":87161},{"province":"Nusa Tenggara Timur","city":"Sumba Timur","district":"Tabundung","urban":"Tarimbang","postal_code":87161},{"province":"Nusa Tenggara Timur","city":"Sumba Timur","district":"Tabundung","urban":"Praing Kareha","postal_code":87161},{"province":"Nusa Tenggara Timur","city":"Sumba Timur","district":"Pinupahar (Pirapahar)","urban":"Ramuk","postal_code":87161},{"province":"Nusa Tenggara Timur","city":"Sumba Timur","district":"Tabundung","urban":"Pindu Horomi (Hurani)","postal_code":87161},{"province":"Nusa Tenggara Timur","city":"Sumba Timur","district":"Pinupahar (Pirapahar)","urban":"Mahaniwa","postal_code":87161},{"province":"Nusa Tenggara Timur","city":"Sumba Timur","district":"Pinupahar (Pirapahar)","urban":"Lailunggi","postal_code":87161},{"province":"Nusa Tenggara Timur","city":"Sumba Timur","district":"Tabundung","urban":"Billa","postal_code":87161},{"province":"Nusa Tenggara Timur","city":"Sumba Timur","district":"Tabundung","urban":"Karita","postal_code":87161},{"province":"Nusa Tenggara Timur","city":"Sumba Timur","district":"Tabundung","urban":"Kuki Talu","postal_code":87161},{"province":"Nusa Tenggara Timur","city":"Sumba Timur","district":"Tabundung","urban":"Bangga Watu","postal_code":87161}]