[{"province":"Nusa Tenggara Timur","city":"Sumba Timur","district":"Karera","urban":"Tandula Jangga","postal_code":87172},{"province":"Nusa Tenggara Timur","city":"Sumba Timur","district":"Karera","urban":"Praisalura","postal_code":87172},{"province":"Nusa Tenggara Timur","city":"Sumba Timur","district":"Ngadu Ngala","urban":"Prauraming","postal_code":87172},{"province":"Nusa Tenggara Timur","city":"Sumba Timur","district":"Karera","urban":"Nggongi","postal_code":87172},{"province":"Nusa Tenggara Timur","city":"Sumba Timur","district":"Karera","urban":"Praimadita","postal_code":87172},{"province":"Nusa Tenggara Timur","city":"Sumba Timur","district":"Ngadu Ngala","urban":"Prai Witu","postal_code":87172},{"province":"Nusa Tenggara Timur","city":"Sumba Timur","district":"Karera","urban":"Nangga","postal_code":87172},{"province":"Nusa Tenggara Timur","city":"Sumba Timur","district":"Ngadu Ngala","urban":"Kabanda","postal_code":87172},{"province":"Nusa Tenggara Timur","city":"Sumba Timur","district":"Ngadu Ngala","urban":"Kakaha","postal_code":87172},{"province":"Nusa Tenggara Timur","city":"Sumba Timur","district":"Karera","urban":"Jangga Mangu","postal_code":87172},{"province":"Nusa Tenggara Timur","city":"Sumba Timur","district":"Karera","urban":"Ananjaki","postal_code":87172},{"province":"Nusa Tenggara Timur","city":"Sumba Timur","district":"Ngadu Ngala","urban":"Hambautang (Hamba Wutang)","postal_code":87172}]