[{"province":"Nusa Tenggara Timur","city":"Sumba Timur","district":"Pandawai","urban":"Watumbaka","postal_code":87171},{"province":"Nusa Tenggara Timur","city":"Sumba Timur","district":"Paberiwai","urban":"Winumuru","postal_code":87171},{"province":"Nusa Tenggara Timur","city":"Sumba Timur","district":"Matawai Lappau (La Pawu)","urban":"Wangga Meti","postal_code":87171},{"province":"Nusa Tenggara Timur","city":"Sumba Timur","district":"Mahu","urban":"Wairara","postal_code":87171},{"province":"Nusa Tenggara Timur","city":"Sumba Timur","district":"Kambata Mapambuhang","urban":"Waibidi (Waimbidi)","postal_code":87171},{"province":"Nusa Tenggara Timur","city":"Sumba Timur","district":"Mahu","urban":"Praikalala","postal_code":87171},{"province":"Nusa Tenggara Timur","city":"Sumba Timur","district":"Paberiwai","urban":"Prai Mbana","postal_code":87171},{"province":"Nusa Tenggara Timur","city":"Sumba Timur","district":"Matawai Lappau (La Pawu)","urban":"Prai Bokul/Bakul","postal_code":87171},{"province":"Nusa Tenggara Timur","city":"Sumba Timur","district":"Pandawai","urban":"Palakahembi","postal_code":87171},{"province":"Nusa Tenggara Timur","city":"Sumba Timur","district":"Mahu","urban":"Patamawai","postal_code":87171},{"province":"Nusa Tenggara Timur","city":"Sumba Timur","district":"Kahaunguweti (Kahaungu Eti)","urban":"Meurumba (Meorumba)","postal_code":87171},{"province":"Nusa Tenggara Timur","city":"Sumba Timur","district":"Paberiwai","urban":"Pabera Tanera/Manera","postal_code":87171},{"province":"Nusa Tenggara Timur","city":"Sumba Timur","district":"Kahaunguweti (Kahaungu Eti)","urban":"Mau Ramba","postal_code":87171},{"province":"Nusa Tenggara Timur","city":"Sumba Timur","district":"Pandawai","urban":"Maubokul","postal_code":87171},{"province":"Nusa Tenggara Timur","city":"Sumba Timur","district":"Kahaunguweti (Kahaungu Eti)","urban":"Matawai Katingga","postal_code":87171},{"province":"Nusa Tenggara Timur","city":"Sumba Timur","district":"Kahaunguweti (Kahaungu Eti)","urban":"Matawai Maringu","postal_code":87171},{"province":"Nusa Tenggara Timur","city":"Sumba Timur","district":"Kambata Mapambuhang","urban":"Maidang","postal_code":87171},{"province":"Nusa Tenggara Timur","city":"Sumba Timur","district":"Kambata Mapambuhang","urban":"Marada Mundi","postal_code":87171},{"province":"Nusa Tenggara Timur","city":"Sumba Timur","district":"Kambata Mapambuhang","urban":"Mahu Bokul","postal_code":87171},{"province":"Nusa Tenggara Timur","city":"Sumba Timur","district":"Paberiwai","urban":"Mahangwatu (Mehang Mata)","postal_code":87171},{"province":"Nusa Tenggara Timur","city":"Sumba Timur","district":"Paberiwai","urban":"Laitaku","postal_code":87171},{"province":"Nusa Tenggara Timur","city":"Sumba Timur","district":"Mahu","urban":"Lujundilu","postal_code":87171},{"province":"Nusa Tenggara Timur","city":"Sumba Timur","district":"Kambata Mapambuhang","urban":"Lai Meta","postal_code":87171},{"province":"Nusa Tenggara Timur","city":"Sumba Timur","district":"Pandawai","urban":"Laindeha","postal_code":87171},{"province":"Nusa Tenggara Timur","city":"Sumba Timur","district":"Kahaunguweti (Kahaungu Eti)","urban":"Lai Mbonga","postal_code":87171},{"province":"Nusa Tenggara Timur","city":"Sumba Timur","district":"Kahaunguweti (Kahaungu Eti)","urban":"Kotak Kawau","postal_code":87171},{"province":"Nusa Tenggara Timur","city":"Sumba Timur","district":"Mahu","urban":"La Hiru","postal_code":87171},{"province":"Nusa Tenggara Timur","city":"Sumba Timur","district":"Pandawai","urban":"Kawangu","postal_code":87171},{"province":"Nusa Tenggara Timur","city":"Sumba Timur","district":"Matawai Lappau (La Pawu)","urban":"Katiku Wai","postal_code":87171},{"province":"Nusa Tenggara Timur","city":"Sumba Timur","district":"Matawai Lappau (La Pawu)","urban":"Katiku Tana","postal_code":87171},{"province":"Nusa Tenggara Timur","city":"Sumba Timur","district":"Matawai Lappau (La Pawu)","urban":"Karipi","postal_code":87171},{"province":"Nusa Tenggara Timur","city":"Sumba Timur","district":"Matawai Lappau (La Pawu)","urban":"Katiku Luku","postal_code":87171},{"province":"Nusa Tenggara Timur","city":"Sumba Timur","district":"Kahaunguweti (Kahaungu Eti)","urban":"Kataka","postal_code":87171},{"province":"Nusa Tenggara Timur","city":"Sumba Timur","district":"Paberiwai","urban":"Karera Jangga","postal_code":87171},{"province":"Nusa Tenggara Timur","city":"Sumba Timur","district":"Paberiwai","urban":"Kananggar","postal_code":87171},{"province":"Nusa Tenggara Timur","city":"Sumba Timur","district":"Pandawai","urban":"Kambata Tana","postal_code":87171},{"province":"Nusa Tenggara Timur","city":"Sumba Timur","district":"Kahaunguweti (Kahaungu Eti)","urban":"Kamanggih","postal_code":87171},{"province":"Nusa Tenggara Timur","city":"Sumba Timur","district":"Kahaunguweti (Kahaungu Eti)","urban":"Kambata Bundung","postal_code":87171},{"province":"Nusa Tenggara Timur","city":"Sumba Timur","district":"Pandawai","urban":"Kadumbul","postal_code":87171},{"province":"Nusa Tenggara Timur","city":"Sumba Timur","district":"Mahu","urban":"Haray (Harai)","postal_code":87171}]