[{"province":"Nusa Tenggara Timur","city":"Sumba Timur","district":"Pahunga Lodu","urban":"Tanamanang","postal_code":87182},{"province":"Nusa Tenggara Timur","city":"Sumba Timur","district":"Wula Waijelu","urban":"Wulla (Wula)","postal_code":87182},{"province":"Nusa Tenggara Timur","city":"Sumba Timur","district":"Pahunga Lodu","urban":"Tamma","postal_code":87182},{"province":"Nusa Tenggara Timur","city":"Sumba Timur","district":"Wula Waijelu","urban":"Paranda","postal_code":87182},{"province":"Nusa Tenggara Timur","city":"Sumba Timur","district":"Pahunga Lodu","urban":"Pamburu","postal_code":87182},{"province":"Nusa Tenggara Timur","city":"Sumba Timur","district":"Pahunga Lodu","urban":"Mburukulu","postal_code":87182},{"province":"Nusa Tenggara Timur","city":"Sumba Timur","district":"Pahunga Lodu","urban":"Palanggai","postal_code":87182},{"province":"Nusa Tenggara Timur","city":"Sumba Timur","district":"Wula Waijelu","urban":"Lumbu Manggit","postal_code":87182},{"province":"Nusa Tenggara Timur","city":"Sumba Timur","district":"Pahunga Lodu","urban":"Lambakara","postal_code":87182},{"province":"Nusa Tenggara Timur","city":"Sumba Timur","district":"Wula Waijelu","urban":"Lainjanji","postal_code":87182},{"province":"Nusa Tenggara Timur","city":"Sumba Timur","district":"Wula Waijelu","urban":"Laipandak","postal_code":87182},{"province":"Nusa Tenggara Timur","city":"Sumba Timur","district":"Wula Waijelu","urban":"La Tena","postal_code":87182},{"province":"Nusa Tenggara Timur","city":"Sumba Timur","district":"Pahunga Lodu","urban":"Kuruwaki","postal_code":87182},{"province":"Nusa Tenggara Timur","city":"Sumba Timur","district":"Pahunga Lodu","urban":"Kaliuda","postal_code":87182},{"province":"Nusa Tenggara Timur","city":"Sumba Timur","district":"Wula Waijelu","urban":"Hadakamali","postal_code":87182}]