[{"province":"Nusa Tenggara Timur","city":"Sumba Timur","district":"Umalulu","urban":"Watukuda (Watu Puda)","postal_code":87181},{"province":"Nusa Tenggara Timur","city":"Sumba Timur","district":"Umalulu","urban":"Watu Hadang","postal_code":87181},{"province":"Nusa Tenggara Timur","city":"Sumba Timur","district":"Umalulu","urban":"Umalulu","postal_code":87181},{"province":"Nusa Tenggara Timur","city":"Sumba Timur","district":"Umalulu","urban":"Wanga","postal_code":87181},{"province":"Nusa Tenggara Timur","city":"Sumba Timur","district":"Rindi","urban":"Tanaraing","postal_code":87181},{"province":"Nusa Tenggara Timur","city":"Sumba Timur","district":"Rindi","urban":"Rindi","postal_code":87181},{"province":"Nusa Tenggara Timur","city":"Sumba Timur","district":"Rindi","urban":"Tamburi","postal_code":87181},{"province":"Nusa Tenggara Timur","city":"Sumba Timur","district":"Umalulu","urban":"Ngaru Kanoru","postal_code":87181},{"province":"Nusa Tenggara Timur","city":"Sumba Timur","district":"Umalulu","urban":"Patawang","postal_code":87181},{"province":"Nusa Tenggara Timur","city":"Sumba Timur","district":"Umalulu","urban":"Mutunggeding","postal_code":87181},{"province":"Nusa Tenggara Timur","city":"Sumba Timur","district":"Umalulu","urban":"Lumbukore","postal_code":87181},{"province":"Nusa Tenggara Timur","city":"Sumba Timur","district":"Umalulu","urban":"Matawai Atu","postal_code":87181},{"province":"Nusa Tenggara Timur","city":"Sumba Timur","district":"Umalulu","urban":"Lairuru","postal_code":87181},{"province":"Nusa Tenggara Timur","city":"Sumba Timur","district":"Rindi","urban":"Kayuri","postal_code":87181},{"province":"Nusa Tenggara Timur","city":"Sumba Timur","district":"Rindi","urban":"Kayuri","postal_code":87181},{"province":"Nusa Tenggara Timur","city":"Sumba Timur","district":"Rindi","urban":"Hanggaroru","postal_code":87181},{"province":"Nusa Tenggara Timur","city":"Sumba Timur","district":"Rindi","urban":"Kabaru","postal_code":87181},{"province":"Nusa Tenggara Timur","city":"Sumba Timur","district":"Rindi","urban":"Haikatapu (Heikatapu)","postal_code":87181}]