[{"province":"Nusa Tenggara Timur","city":"Sumba Barat Daya","district":"Wewewa Tengah (Wewera Tengah)","urban":"Wee Rame","postal_code":87252},{"province":"Nusa Tenggara Timur","city":"Sumba Barat Daya","district":"Wewewa Tengah (Wewera Tengah)","urban":"Wee Patando","postal_code":87252},{"province":"Nusa Tenggara Timur","city":"Sumba Barat Daya","district":"Wewewa Utara","urban":"Wee Paboba","postal_code":87252},{"province":"Nusa Tenggara Timur","city":"Sumba Barat Daya","district":"Wewewa Timur","urban":"Wee Limbu","postal_code":87252},{"province":"Nusa Tenggara Timur","city":"Sumba Barat Daya","district":"Wewewa Utara","urban":"Wee Namba","postal_code":87252},{"province":"Nusa Tenggara Timur","city":"Sumba Barat Daya","district":"Wewewa Timur","urban":"Wee Lima","postal_code":87252},{"province":"Nusa Tenggara Timur","city":"Sumba Barat Daya","district":"Wewewa Tengah (Wewera Tengah)","urban":"Wee Kokora","postal_code":87252},{"province":"Nusa Tenggara Timur","city":"Sumba Barat Daya","district":"Wewewa Utara","urban":"Wano Talla","postal_code":87252},{"province":"Nusa Tenggara Timur","city":"Sumba Barat Daya","district":"Wewewa Timur","urban":"Tema Tana","postal_code":87252},{"province":"Nusa Tenggara Timur","city":"Sumba Barat Daya","district":"Wewewa Tengah (Wewera Tengah)","urban":"Tanggaba","postal_code":87252},{"province":"Nusa Tenggara Timur","city":"Sumba Barat Daya","district":"Wewewa Utara","urban":"Puu Potto","postal_code":87252},{"province":"Nusa Tenggara Timur","city":"Sumba Barat Daya","district":"Wewewa Timur","urban":"Pada Eweta","postal_code":87252},{"province":"Nusa Tenggara Timur","city":"Sumba Barat Daya","district":"Wewewa Tengah (Wewera Tengah)","urban":"Omba Rade","postal_code":87252},{"province":"Nusa Tenggara Timur","city":"Sumba Barat Daya","district":"Wewewa Timur","urban":"Mata Pyawu","postal_code":87252},{"province":"Nusa Tenggara Timur","city":"Sumba Barat Daya","district":"Wewewa Utara","urban":"Mataloko","postal_code":87252},{"province":"Nusa Tenggara Timur","city":"Sumba Barat Daya","district":"Wewewa Timur","urban":"Mareda Kalada","postal_code":87252},{"province":"Nusa Tenggara Timur","city":"Sumba Barat Daya","district":"Wewewa Utara","urban":"Mali Mada","postal_code":87252},{"province":"Nusa Tenggara Timur","city":"Sumba Barat Daya","district":"Wewewa Tengah (Wewera Tengah)","urban":"Lombu","postal_code":87252},{"province":"Nusa Tenggara Timur","city":"Sumba Barat Daya","district":"Wewewa Timur","urban":"Lete Komouna","postal_code":87252},{"province":"Nusa Tenggara Timur","city":"Sumba Barat Daya","district":"Wewewa Tengah (Wewera Tengah)","urban":"Kanelu","postal_code":87252},{"province":"Nusa Tenggara Timur","city":"Sumba Barat Daya","district":"Wewewa Timur","urban":"Kalembu Ndara Mane","postal_code":87252},{"province":"Nusa Tenggara Timur","city":"Sumba Barat Daya","district":"Wewewa Tengah (Wewera Tengah)","urban":"Eka Pata","postal_code":87252},{"province":"Nusa Tenggara Timur","city":"Sumba Barat Daya","district":"Wewewa Tengah (Wewera Tengah)","urban":"Kalingara","postal_code":87252},{"province":"Nusa Tenggara Timur","city":"Sumba Barat Daya","district":"Wewewa Timur","urban":"Dangga Mangu","postal_code":87252},{"province":"Nusa Tenggara Timur","city":"Sumba Barat Daya","district":"Wewewa Timur","urban":"Dikira","postal_code":87252},{"province":"Nusa Tenggara Timur","city":"Sumba Barat Daya","district":"Wewewa Tengah (Wewera Tengah)","urban":"Bolora","postal_code":87252}]