[{"province":"Nusa Tenggara Timur","city":"Sumba Barat Daya","district":"Kota Tambolaka","urban":"Wee Rena","postal_code":87255},{"province":"Nusa Tenggara Timur","city":"Sumba Barat Daya","district":"Kota Tambolaka","urban":"Watu Kawula","postal_code":87255},{"province":"Nusa Tenggara Timur","city":"Sumba Barat Daya","district":"Kota Tambolaka","urban":"Wee Londa","postal_code":87255},{"province":"Nusa Tenggara Timur","city":"Sumba Barat Daya","district":"Kota Tambolaka","urban":"Wee Pangali","postal_code":87255},{"province":"Nusa Tenggara Timur","city":"Sumba Barat Daya","district":"Kota Tambolaka","urban":"Rada Mata","postal_code":87255},{"province":"Nusa Tenggara Timur","city":"Sumba Barat Daya","district":"Kota Tambolaka","urban":"Waitabula","postal_code":87255},{"province":"Nusa Tenggara Timur","city":"Sumba Barat Daya","district":"Kota Tambolaka","urban":"Kalena Wano","postal_code":87255},{"province":"Nusa Tenggara Timur","city":"Sumba Barat Daya","district":"Kota Tambolaka","urban":"Langga Lero","postal_code":87255},{"province":"Nusa Tenggara Timur","city":"Sumba Barat Daya","district":"Kota Tambolaka","urban":"Kadi Pada","postal_code":87255},{"province":"Nusa Tenggara Timur","city":"Sumba Barat Daya","district":"Kota Tambolaka","urban":"Kalembu Kaha","postal_code":87255}]