[{"province":"Nusa Tenggara Timur","city":"Sumba Barat Daya","district":"Loura (Laura)","urban":"Wee Kambala","postal_code":87254},{"province":"Nusa Tenggara Timur","city":"Sumba Barat Daya","district":"Loura (Laura)","urban":"Wee Mananda","postal_code":87254},{"province":"Nusa Tenggara Timur","city":"Sumba Barat Daya","district":"Loura (Laura)","urban":"Rama Dana","postal_code":87254},{"province":"Nusa Tenggara Timur","city":"Sumba Barat Daya","district":"Loura (Laura)","urban":"Totok","postal_code":87254},{"province":"Nusa Tenggara Timur","city":"Sumba Barat Daya","district":"Loura (Laura)","urban":"Loko Kalada","postal_code":87254},{"province":"Nusa Tenggara Timur","city":"Sumba Barat Daya","district":"Loura (Laura)","urban":"Payola Umbu","postal_code":87254},{"province":"Nusa Tenggara Timur","city":"Sumba Barat Daya","district":"Loura (Laura)","urban":"Pogo Tena","postal_code":87254},{"province":"Nusa Tenggara Timur","city":"Sumba Barat Daya","district":"Loura (Laura)","urban":"Karuni","postal_code":87254},{"province":"Nusa Tenggara Timur","city":"Sumba Barat Daya","district":"Loura (Laura)","urban":"Lete Konda","postal_code":87254},{"province":"Nusa Tenggara Timur","city":"Sumba Barat Daya","district":"Loura (Laura)","urban":"Bondo Boghila","postal_code":87254}]