[{"province":"Nusa Tenggara Timur","city":"Sumba Barat Daya","district":"Kodi","urban":"Wura Homba","postal_code":87261},{"province":"Nusa Tenggara Timur","city":"Sumba Barat Daya","district":"Kodi","urban":"Watu Wona","postal_code":87261},{"province":"Nusa Tenggara Timur","city":"Sumba Barat Daya","district":"Kodi Utara","urban":"Waitaru","postal_code":87261},{"province":"Nusa Tenggara Timur","city":"Sumba Barat Daya","district":"Kodi Utara","urban":"Wee Wella","postal_code":87261},{"province":"Nusa Tenggara Timur","city":"Sumba Barat Daya","district":"Kodi Utara","urban":"Wailabubur","postal_code":87261},{"province":"Nusa Tenggara Timur","city":"Sumba Barat Daya","district":"Kodi","urban":"Tanjung Karoso","postal_code":87261},{"province":"Nusa Tenggara Timur","city":"Sumba Barat Daya","district":"Kodi Utara","urban":"Waiholo","postal_code":87261},{"province":"Nusa Tenggara Timur","city":"Sumba Barat Daya","district":"Kodi","urban":"Pero Batang","postal_code":87261},{"province":"Nusa Tenggara Timur","city":"Sumba Barat Daya","district":"Kodi","urban":"Pero Konda","postal_code":87261},{"province":"Nusa Tenggara Timur","city":"Sumba Barat Daya","district":"Kodi","urban":"Onggol","postal_code":87261},{"province":"Nusa Tenggara Timur","city":"Sumba Barat Daya","district":"Kodi Utara","urban":"Mangganipi","postal_code":87261},{"province":"Nusa Tenggara Timur","city":"Sumba Barat Daya","district":"Kodi Utara","urban":"Noha","postal_code":87261},{"province":"Nusa Tenggara Timur","city":"Sumba Barat Daya","district":"Kodi","urban":"Mali Iha","postal_code":87261},{"province":"Nusa Tenggara Timur","city":"Sumba Barat Daya","district":"Kodi Utara","urban":"Magho Linyo","postal_code":87261},{"province":"Nusa Tenggara Timur","city":"Sumba Barat Daya","district":"Kodi","urban":"Koki","postal_code":87261},{"province":"Nusa Tenggara Timur","city":"Sumba Barat Daya","district":"Kodi Utara","urban":"Kori","postal_code":87261},{"province":"Nusa Tenggara Timur","city":"Sumba Barat Daya","district":"Kodi","urban":"Kawango Hari","postal_code":87261},{"province":"Nusa Tenggara Timur","city":"Sumba Barat Daya","district":"Kodi","urban":"Kapaka Madeta","postal_code":87261},{"province":"Nusa Tenggara Timur","city":"Sumba Barat Daya","district":"Kodi Utara","urban":"Kadu Eta","postal_code":87261},{"province":"Nusa Tenggara Timur","city":"Sumba Barat Daya","district":"Kodi Utara","urban":"Kalena Rongo","postal_code":87261},{"province":"Nusa Tenggara Timur","city":"Sumba Barat Daya","district":"Kodi Utara","urban":"Kandu Wela","postal_code":87261},{"province":"Nusa Tenggara Timur","city":"Sumba Barat Daya","district":"Kodi","urban":"Homba Rande","postal_code":87261},{"province":"Nusa Tenggara Timur","city":"Sumba Barat Daya","district":"Kodi Utara","urban":"Kadaghu Tana","postal_code":87261},{"province":"Nusa Tenggara Timur","city":"Sumba Barat Daya","district":"Kodi Utara","urban":"Homba Karipit","postal_code":87261},{"province":"Nusa Tenggara Timur","city":"Sumba Barat Daya","district":"Kodi Utara","urban":"Homba Pare","postal_code":87261},{"province":"Nusa Tenggara Timur","city":"Sumba Barat Daya","district":"Kodi Utara","urban":"Hoha Wungo","postal_code":87261},{"province":"Nusa Tenggara Timur","city":"Sumba Barat Daya","district":"Kodi","urban":"Hamonggo Lele","postal_code":87261},{"province":"Nusa Tenggara Timur","city":"Sumba Barat Daya","district":"Kodi Utara","urban":"Hameli Ate","postal_code":87261},{"province":"Nusa Tenggara Timur","city":"Sumba Barat Daya","district":"Kodi Utara","urban":"Bila Cenge","postal_code":87261},{"province":"Nusa Tenggara Timur","city":"Sumba Barat Daya","district":"Kodi Utara","urban":"Bukambero","postal_code":87261},{"province":"Nusa Tenggara Timur","city":"Sumba Barat Daya","district":"Kodi","urban":"Bondo Kodi","postal_code":87261},{"province":"Nusa Tenggara Timur","city":"Sumba Barat Daya","district":"Kodi","urban":"Ate Dalo","postal_code":87261}]