[{"province":"Nusa Tenggara Timur","city":"Sumba Tengah","district":"Umbu Ratu Nggay Barat","urban":"Wangga Waiyengu I","postal_code":87282},{"province":"Nusa Tenggara Timur","city":"Sumba Tengah","district":"Katikutana Selatan","urban":"Waimanu","postal_code":87282},{"province":"Nusa Tenggara Timur","city":"Sumba Tengah","district":"Umbu Ratu Nggay Barat","urban":"Wangga Wainyengu","postal_code":87282},{"province":"Nusa Tenggara Timur","city":"Sumba Tengah","district":"Umbu Ratu Nggay Barat","urban":"Wai Rasa","postal_code":87282},{"province":"Nusa Tenggara Timur","city":"Sumba Tengah","district":"Katikutana Selatan","urban":"Wailawa","postal_code":87282},{"province":"Nusa Tenggara Timur","city":"Sumba Tengah","district":"Katikutana","urban":"Umbu Riri","postal_code":87282},{"province":"Nusa Tenggara Timur","city":"Sumba Tengah","district":"Umbu Ratu Nggay Barat","urban":"Umbu Pabal Selatan","postal_code":87282},{"province":"Nusa Tenggara Timur","city":"Sumba Tengah","district":"Umbu Ratu Nggay Barat","urban":"Umbu Mamijuk","postal_code":87282},{"province":"Nusa Tenggara Timur","city":"Sumba Tengah","district":"Umbu Ratu Nggay Barat","urban":"Umbu Pabal","postal_code":87282},{"province":"Nusa Tenggara Timur","city":"Sumba Tengah","district":"Umbu Ratu Nggay Barat","urban":"Umbu Kawolu","postal_code":87282},{"province":"Nusa Tenggara Timur","city":"Sumba Tengah","district":"Umbu Ratu Nggay Barat","urban":"Umbu Langgang","postal_code":87282},{"province":"Nusa Tenggara Timur","city":"Sumba Tengah","district":"Umbu Ratu Nggay Barat","urban":"Umbu Jodu","postal_code":87282},{"province":"Nusa Tenggara Timur","city":"Sumba Tengah","district":"Katikutana Selatan","urban":"Tana Modu","postal_code":87282},{"province":"Nusa Tenggara Timur","city":"Sumba Tengah","district":"Umbu Ratu Nggay Barat","urban":"Prai Madeta","postal_code":87282},{"province":"Nusa Tenggara Timur","city":"Sumba Tengah","district":"Umbu Ratu Nggay Barat","urban":"Sambali Loku","postal_code":87282},{"province":"Nusa Tenggara Timur","city":"Sumba Tengah","district":"Umbu Ratu Nggay Barat","urban":"Pondok","postal_code":87282},{"province":"Nusa Tenggara Timur","city":"Sumba Tengah","district":"Katikutana Selatan","urban":"Oka Wacu","postal_code":87282},{"province":"Nusa Tenggara Timur","city":"Sumba Tengah","district":"Umbu Ratu Nggay Barat","urban":"Mata Waikajawi","postal_code":87282},{"province":"Nusa Tenggara Timur","city":"Sumba Tengah","district":"Katikutana","urban":"Mata Redi","postal_code":87282},{"province":"Nusa Tenggara Timur","city":"Sumba Tengah","district":"Katikutana","urban":"Mata Woga","postal_code":87282},{"province":"Nusa Tenggara Timur","city":"Sumba Tengah","district":"Katikutana","urban":"Makata Keri","postal_code":87282},{"province":"Nusa Tenggara Timur","city":"Sumba Tengah","district":"Katikutana Selatan","urban":"Malinjak","postal_code":87282},{"province":"Nusa Tenggara Timur","city":"Sumba Tengah","district":"Katikutana Selatan","urban":"Manurara","postal_code":87282},{"province":"Nusa Tenggara Timur","city":"Sumba Tengah","district":"Umbu Ratu Nggay Barat","urban":"Maderi","postal_code":87282},{"province":"Nusa Tenggara Timur","city":"Sumba Tengah","district":"Katikutana Selatan","urban":"Konda Maloba","postal_code":87282},{"province":"Nusa Tenggara Timur","city":"Sumba Tengah","district":"Umbu Ratu Nggay Barat","urban":"Holur Kambata","postal_code":87282},{"province":"Nusa Tenggara Timur","city":"Sumba Tengah","district":"Katikutana","urban":"Kabela Wuntu","postal_code":87282},{"province":"Nusa Tenggara Timur","city":"Sumba Tengah","district":"Katikutana Selatan","urban":"Elu","postal_code":87282},{"province":"Nusa Tenggara Timur","city":"Sumba Tengah","district":"Umbu Ratu Nggay Barat","urban":"Dewa Tana","postal_code":87282},{"province":"Nusa Tenggara Timur","city":"Sumba Tengah","district":"Katikutana Selatan","urban":"Dameka","postal_code":87282},{"province":"Nusa Tenggara Timur","city":"Sumba Tengah","district":"Katikutana","urban":"Dewa Jara","postal_code":87282},{"province":"Nusa Tenggara Timur","city":"Sumba Tengah","district":"Umbu Ratu Nggay Barat","urban":"Daha Elu","postal_code":87282},{"province":"Nusa Tenggara Timur","city":"Sumba Tengah","district":"Umbu Ratu Nggay Barat","urban":"Anapalu","postal_code":87282},{"province":"Nusa Tenggara Timur","city":"Sumba Tengah","district":"Katikutana","urban":"Anakalang","postal_code":87282},{"province":"Nusa Tenggara Timur","city":"Sumba Tengah","district":"Umbu Ratu Nggay Barat","urban":"Anajiaka","postal_code":87282}]