[{"province":"Sulawesi Selatan","city":"Bone","district":"Barebbo","urban":"Kading","postal_code":90225},{"province":"Sulawesi Selatan","city":"Gowa","district":"Barombong","urban":"Tinggimae","postal_code":90225},{"province":"Sulawesi Selatan","city":"Gowa","district":"Barombong","urban":"Moncobalang","postal_code":90225},{"province":"Sulawesi Selatan","city":"Gowa","district":"Barombong","urban":"Tamannyeleng","postal_code":90225},{"province":"Sulawesi Selatan","city":"Gowa","district":"Barombong","urban":"Lembangparang","postal_code":90225},{"province":"Sulawesi Selatan","city":"Gowa","district":"Barombong","urban":"Kanjilo","postal_code":90225},{"province":"Sulawesi Selatan","city":"Gowa","district":"Barombong","urban":"Benteng Somba Opu","postal_code":90225},{"province":"Sulawesi Selatan","city":"Gowa","district":"Barombong","urban":"Biringngalla","postal_code":90225},{"province":"Sulawesi Selatan","city":"Makassar","district":"Tamalate","urban":"Tanjung Merdeka","postal_code":90225},{"province":"Sulawesi Selatan","city":"Makassar","district":"Tamalate","urban":"Barombong","postal_code":90225}]