[{"province":"Sulawesi Selatan","city":"Gowa","district":"Biringbulu","urban":"Taring","postal_code":90244},{"province":"Sulawesi Selatan","city":"Gowa","district":"Biringbulu","urban":"Tonrorita","postal_code":90244},{"province":"Sulawesi Selatan","city":"Gowa","district":"Biringbulu","urban":"Pencong","postal_code":90244},{"province":"Sulawesi Selatan","city":"Gowa","district":"Biringbulu","urban":"Lembangloe","postal_code":90244},{"province":"Sulawesi Selatan","city":"Gowa","district":"Biringbulu","urban":"Parangloe","postal_code":90244},{"province":"Sulawesi Selatan","city":"Gowa","district":"Biringbulu","urban":"Julukanaya","postal_code":90244},{"province":"Sulawesi Selatan","city":"Gowa","district":"Biringbulu","urban":"Lauwa","postal_code":90244},{"province":"Sulawesi Selatan","city":"Gowa","district":"Biringbulu","urban":"Borimasunggu","postal_code":90244},{"province":"Sulawesi Selatan","city":"Gowa","district":"Biringbulu","urban":"Berutallasa","postal_code":90244},{"province":"Sulawesi Selatan","city":"Gowa","district":"Biringbulu","urban":"Baturappe","postal_code":90244},{"province":"Sulawesi Selatan","city":"Gowa","district":"Biringbulu","urban":"Batumalonro","postal_code":90244},{"province":"Sulawesi Selatan","city":"Makassar","district":"Tamalanrea","urban":"Bira","postal_code":90244}]