[{"province":"Sulawesi Selatan","city":"Maros","district":"Mandai","urban":"Tenrigangkae","postal_code":90552},{"province":"Sulawesi Selatan","city":"Maros","district":"Marusu","urban":"Tellumpoccoe","postal_code":90552},{"province":"Sulawesi Selatan","city":"Maros","district":"Marusu","urban":"Temappadduae","postal_code":90552},{"province":"Sulawesi Selatan","city":"Maros","district":"Mandai","urban":"Pattontongan","postal_code":90552},{"province":"Sulawesi Selatan","city":"Maros","district":"Marusu","urban":"Pabentengan","postal_code":90552},{"province":"Sulawesi Selatan","city":"Maros","district":"Marusu","urban":"Marumpa","postal_code":90552},{"province":"Sulawesi Selatan","city":"Maros","district":"Marusu","urban":"Nisombalia","postal_code":90552},{"province":"Sulawesi Selatan","city":"Maros","district":"Mandai","urban":"Bontoa","postal_code":90552},{"province":"Sulawesi Selatan","city":"Maros","district":"Mandai","urban":"Hasanuddin","postal_code":90552},{"province":"Sulawesi Selatan","city":"Maros","district":"Marusu","urban":"Bonto Matene","postal_code":90552},{"province":"Sulawesi Selatan","city":"Maros","district":"Mandai","urban":"Bonto Matene","postal_code":90552},{"province":"Sulawesi Selatan","city":"Maros","district":"Marusu","urban":"A Bulosibatang","postal_code":90552},{"province":"Sulawesi Selatan","city":"Maros","district":"Mandai","urban":"Baji Mangngai","postal_code":90552}]