[{"province":"Sulawesi Selatan","city":"Maros","district":"Camba","urban":"Timpuseng","postal_code":90562},{"province":"Sulawesi Selatan","city":"Maros","district":"Camba","urban":"Sawaru","postal_code":90562},{"province":"Sulawesi Selatan","city":"Maros","district":"Camba","urban":"Pattanyamang","postal_code":90562},{"province":"Sulawesi Selatan","city":"Maros","district":"Camba","urban":"Pattiro Deceng","postal_code":90562},{"province":"Sulawesi Selatan","city":"Maros","district":"Moncongloe","urban":"Moncongloe Bulu","postal_code":90562},{"province":"Sulawesi Selatan","city":"Maros","district":"Moncongloe","urban":"Moncongloe Lappara","postal_code":90562},{"province":"Sulawesi Selatan","city":"Maros","district":"Camba","urban":"Cenrana","postal_code":90562},{"province":"Sulawesi Selatan","city":"Maros","district":"Moncongloe","urban":"Moncongloe","postal_code":90562},{"province":"Sulawesi Selatan","city":"Maros","district":"Moncongloe","urban":"Bonto Bunga","postal_code":90562},{"province":"Sulawesi Selatan","city":"Maros","district":"Camba","urban":"Mario Pulana","postal_code":90562},{"province":"Sulawesi Selatan","city":"Maros","district":"Moncongloe","urban":"Bonto Marannu","postal_code":90562},{"province":"Sulawesi Selatan","city":"Maros","district":"Camba","urban":"Cempaniga","postal_code":90562},{"province":"Sulawesi Selatan","city":"Maros","district":"Camba","urban":"Benteng","postal_code":90562}]