[{"province":"Sulawesi Selatan","city":"Maros","district":"Mallawa","urban":"Wanua Waru","postal_code":90563},{"province":"Sulawesi Selatan","city":"Maros","district":"Mallawa","urban":"Samaenre","postal_code":90563},{"province":"Sulawesi Selatan","city":"Maros","district":"Mallawa","urban":"Tellumpanuae","postal_code":90563},{"province":"Sulawesi Selatan","city":"Maros","district":"Mallawa","urban":"Uludaya","postal_code":90563},{"province":"Sulawesi Selatan","city":"Maros","district":"Mallawa","urban":"Padaelo","postal_code":90563},{"province":"Sulawesi Selatan","city":"Maros","district":"Mallawa","urban":"Sabila","postal_code":90563},{"province":"Sulawesi Selatan","city":"Maros","district":"Mallawa","urban":"Gattareng Matinggi","postal_code":90563},{"province":"Sulawesi Selatan","city":"Maros","district":"Mallawa","urban":"Mattampapole","postal_code":90563},{"province":"Sulawesi Selatan","city":"Maros","district":"Mallawa","urban":"Bentenge","postal_code":90563},{"province":"Sulawesi Selatan","city":"Maros","district":"Mallawa","urban":"Barugae","postal_code":90563},{"province":"Sulawesi Selatan","city":"Maros","district":"Mallawa","urban":"Batu Putih","postal_code":90563}]