[{"province":"Sulawesi Selatan","city":"Maros","district":"Bantimurung","urban":"Tukamasea","postal_code":90561},{"province":"Sulawesi Selatan","city":"Maros","district":"Simbang","urban":"Tanete","postal_code":90561},{"province":"Sulawesi Selatan","city":"Maros","district":"Tompu Bulu","urban":"Toddolimae","postal_code":90561},{"province":"Sulawesi Selatan","city":"Maros","district":"Tompu Bulu","urban":"Tompo Bulu","postal_code":90561},{"province":"Sulawesi Selatan","city":"Maros","district":"Simbang","urban":"Simbang","postal_code":90561},{"province":"Sulawesi Selatan","city":"Maros","district":"Simbang","urban":"Sambueja","postal_code":90561},{"province":"Sulawesi Selatan","city":"Maros","district":"Tompu Bulu","urban":"Pucak","postal_code":90561},{"province":"Sulawesi Selatan","city":"Maros","district":"Bantimurung","urban":"Minasa Baji","postal_code":90561},{"province":"Sulawesi Selatan","city":"Maros","district":"Simbang","urban":"Samangki","postal_code":90561},{"province":"Sulawesi Selatan","city":"Maros","district":"Bantimurung","urban":"Mangeloreng","postal_code":90561},{"province":"Sulawesi Selatan","city":"Maros","district":"Bantimurung","urban":"Mattoangin","postal_code":90561},{"province":"Sulawesi Selatan","city":"Maros","district":"Bantimurung","urban":"Leang-Leang","postal_code":90561},{"province":"Sulawesi Selatan","city":"Maros","district":"Bantimurung","urban":"Kalabbirang","postal_code":90561},{"province":"Sulawesi Selatan","city":"Maros","district":"Simbang","urban":"Jenetaesa","postal_code":90561},{"province":"Sulawesi Selatan","city":"Maros","district":"Simbang","urban":"Bonto Tallasa","postal_code":90561},{"province":"Sulawesi Selatan","city":"Maros","district":"Tompu Bulu","urban":"Bontomatinggi","postal_code":90561},{"province":"Sulawesi Selatan","city":"Maros","district":"Tompu Bulu","urban":"Bonto Manurung","postal_code":90561},{"province":"Sulawesi Selatan","city":"Maros","district":"Tompu Bulu","urban":"Bonto Somba","postal_code":90561},{"province":"Sulawesi Selatan","city":"Maros","district":"Tompu Bulu","urban":"Benteng Gajah","postal_code":90561},{"province":"Sulawesi Selatan","city":"Maros","district":"Tompu Bulu","urban":"Bonto Manai","postal_code":90561},{"province":"Sulawesi Selatan","city":"Maros","district":"Bantimurung","urban":"Baruga","postal_code":90561},{"province":"Sulawesi Selatan","city":"Maros","district":"Bantimurung","urban":"Alatengae","postal_code":90561},{"province":"Sulawesi Selatan","city":"Pangkajene Kepulauan","district":"Tondong Tallasa","urban":"Tondongkura","postal_code":90561},{"province":"Sulawesi Selatan","city":"Pangkajene Kepulauan","district":"Tondong Tallasa","urban":"Malaka","postal_code":90561},{"province":"Sulawesi Selatan","city":"Pangkajene Kepulauan","district":"Tondong Tallasa","urban":"Lanne","postal_code":90561},{"province":"Sulawesi Selatan","city":"Pangkajene Kepulauan","district":"Tondong Tallasa","urban":"Bulu Tellue","postal_code":90561},{"province":"Sulawesi Selatan","city":"Pangkajene Kepulauan","district":"Tondong Tallasa","urban":"Bonto Birao","postal_code":90561},{"province":"Sulawesi Selatan","city":"Pangkajene Kepulauan","district":"Tondong Tallasa","urban":"Bantimurung","postal_code":90561}]