[{"province":"Sulawesi Selatan","city":"Pangkajene Kepulauan","district":"Mandalle","urban":"Tamarupa","postal_code":90655},{"province":"Sulawesi Selatan","city":"Pangkajene Kepulauan","district":"Segeri","urban":"Parenreng","postal_code":90655},{"province":"Sulawesi Selatan","city":"Pangkajene Kepulauan","district":"Segeri","urban":"Segeri","postal_code":90655},{"province":"Sulawesi Selatan","city":"Pangkajene Kepulauan","district":"Mandalle","urban":"Manggalung","postal_code":90655},{"province":"Sulawesi Selatan","city":"Pangkajene Kepulauan","district":"Mandalle","urban":"Coppo Tompong","postal_code":90655},{"province":"Sulawesi Selatan","city":"Pangkajene Kepulauan","district":"Mandalle","urban":"Mandalle","postal_code":90655},{"province":"Sulawesi Selatan","city":"Pangkajene Kepulauan","district":"Segeri","urban":"Bonto Matene","postal_code":90655},{"province":"Sulawesi Selatan","city":"Pangkajene Kepulauan","district":"Segeri","urban":"Bone","postal_code":90655},{"province":"Sulawesi Selatan","city":"Pangkajene Kepulauan","district":"Mandalle","urban":"Boddie","postal_code":90655},{"province":"Sulawesi Selatan","city":"Pangkajene Kepulauan","district":"Mandalle","urban":"Benteng","postal_code":90655},{"province":"Sulawesi Selatan","city":"Pangkajene Kepulauan","district":"Segeri","urban":"Baring","postal_code":90655},{"province":"Sulawesi Selatan","city":"Pangkajene Kepulauan","district":"Segeri","urban":"Bawasalo","postal_code":90655}]