[{"province":"Sulawesi Selatan","city":"Pangkajene Kepulauan","district":"Liukang Tupabbiring Utara","urban":"Mattiro Walie","postal_code":90671},{"province":"Sulawesi Selatan","city":"Pangkajene Kepulauan","district":"Liukang Tupabbiring Utara","urban":"Mattiro Walie","postal_code":90671},{"province":"Sulawesi Selatan","city":"Pangkajene Kepulauan","district":"Liukang Tupabbiring","urban":"Mattiro Sompe","postal_code":90671},{"province":"Sulawesi Selatan","city":"Pangkajene Kepulauan","district":"Liukang Tupabbiring","urban":"Mattiro Ujung","postal_code":90671},{"province":"Sulawesi Selatan","city":"Pangkajene Kepulauan","district":"Liukang Tupabbiring","urban":"Mattiro Langi","postal_code":90671},{"province":"Sulawesi Selatan","city":"Pangkajene Kepulauan","district":"Liukang Tupabbiring","urban":"Mattiro Matae","postal_code":90671},{"province":"Sulawesi Selatan","city":"Pangkajene Kepulauan","district":"Liukang Tupabbiring Utara","urban":"Mattiro Labangeng","postal_code":90671},{"province":"Sulawesi Selatan","city":"Pangkajene Kepulauan","district":"Liukang Tupabbiring","urban":"Mattiro Dolangeng","postal_code":90671},{"province":"Sulawesi Selatan","city":"Pangkajene Kepulauan","district":"Liukang Tupabbiring Utara","urban":"Mattiro Kanja","postal_code":90671},{"province":"Sulawesi Selatan","city":"Pangkajene Kepulauan","district":"Liukang Tupabbiring","urban":"Mattiro Deceng","postal_code":90671},{"province":"Sulawesi Selatan","city":"Pangkajene Kepulauan","district":"Liukang Tupabbiring Utara","urban":"Mattiro Bulu","postal_code":90671},{"province":"Sulawesi Selatan","city":"Pangkajene Kepulauan","district":"Liukang Tupabbiring","urban":"Mattiro Bone","postal_code":90671},{"province":"Sulawesi Selatan","city":"Pangkajene Kepulauan","district":"Liukang Tupabbiring Utara","urban":"Mattiro Bombang","postal_code":90671},{"province":"Sulawesi Selatan","city":"Pangkajene Kepulauan","district":"Liukang Tupabbiring","urban":"Mattiro Bintang","postal_code":90671},{"province":"Sulawesi Selatan","city":"Pangkajene Kepulauan","district":"Liukang Tupabbiring Utara","urban":"Mattiro Baji","postal_code":90671},{"province":"Sulawesi Selatan","city":"Pangkajene Kepulauan","district":"Liukang Tupabbiring","urban":"Mattaro Adae","postal_code":90671}]