[{"province":"Sulawesi Selatan","city":"Barru","district":"Tanete Rilau","urban":"Tellumpanua","postal_code":90761},{"province":"Sulawesi Selatan","city":"Barru","district":"Tanete Rilau","urban":"Pao-Pao","postal_code":90761},{"province":"Sulawesi Selatan","city":"Barru","district":"Tanete Rilau","urban":"Tanete","postal_code":90761},{"province":"Sulawesi Selatan","city":"Barru","district":"Tanete Rilau","urban":"Lipukasi","postal_code":90761},{"province":"Sulawesi Selatan","city":"Barru","district":"Tanete Rilau","urban":"Pancana","postal_code":90761},{"province":"Sulawesi Selatan","city":"Barru","district":"Tanete Rilau","urban":"Lasitae","postal_code":90761},{"province":"Sulawesi Selatan","city":"Barru","district":"Tanete Rilau","urban":"Lalabata","postal_code":90761},{"province":"Sulawesi Selatan","city":"Barru","district":"Tanete Rilau","urban":"Lalolang","postal_code":90761},{"province":"Sulawesi Selatan","city":"Barru","district":"Tanete Rilau","urban":"Corawali","postal_code":90761}]