[{"province":"Sulawesi Selatan","city":"Barru","district":"Balusu","urban":"Takkalasi","postal_code":90762},{"province":"Sulawesi Selatan","city":"Barru","district":"Tanete Riaja","urban":"Mattirowalie","postal_code":90762},{"province":"Sulawesi Selatan","city":"Barru","district":"Pujananting","urban":"Pattappa","postal_code":90762},{"province":"Sulawesi Selatan","city":"Barru","district":"Pujananting","urban":"Pujananting","postal_code":90762},{"province":"Sulawesi Selatan","city":"Barru","district":"Pujananting","urban":"Mattappawalie","postal_code":90762},{"province":"Sulawesi Selatan","city":"Barru","district":"Balusu","urban":"Madello","postal_code":90762},{"province":"Sulawesi Selatan","city":"Barru","district":"Tanete Riaja","urban":"Lompo Riaja","postal_code":90762},{"province":"Sulawesi Selatan","city":"Barru","district":"Tanete Riaja","urban":"Lompo Tengah","postal_code":90762},{"province":"Sulawesi Selatan","city":"Barru","district":"Tanete Riaja","urban":"Lempang","postal_code":90762},{"province":"Sulawesi Selatan","city":"Barru","district":"Tanete Riaja","urban":"Libureng","postal_code":90762},{"province":"Sulawesi Selatan","city":"Barru","district":"Balusu","urban":"Lampoko","postal_code":90762},{"province":"Sulawesi Selatan","city":"Barru","district":"Tanete Riaja","urban":"Kading","postal_code":90762},{"province":"Sulawesi Selatan","city":"Barru","district":"Pujananting","urban":"Jangan-Jangan","postal_code":90762},{"province":"Sulawesi Selatan","city":"Barru","district":"Balusu","urban":"Kamiri","postal_code":90762},{"province":"Sulawesi Selatan","city":"Barru","district":"Tanete Riaja","urban":"Harapan","postal_code":90762},{"province":"Sulawesi Selatan","city":"Barru","district":"Pujananting","urban":"Bulo-Bulo","postal_code":90762},{"province":"Sulawesi Selatan","city":"Barru","district":"Pujananting","urban":"Gattareng","postal_code":90762},{"province":"Sulawesi Selatan","city":"Barru","district":"Balusu","urban":"Binuang","postal_code":90762},{"province":"Sulawesi Selatan","city":"Barru","district":"Balusu","urban":"Balusu","postal_code":90762},{"province":"Sulawesi Selatan","city":"Barru","district":"Pujananting","urban":"Bacu-Bacu","postal_code":90762}]