[{"province":"Sulawesi Selatan","city":"Soppeng","district":"Donri-Donri","urban":"Tottong","postal_code":90853},{"province":"Sulawesi Selatan","city":"Soppeng","district":"Donri-Donri","urban":"Pesse","postal_code":90853},{"province":"Sulawesi Selatan","city":"Soppeng","district":"Donri-Donri","urban":"Pising (Solie)","postal_code":90853},{"province":"Sulawesi Selatan","city":"Soppeng","district":"Donri-Donri","urban":"Sering","postal_code":90853},{"province":"Sulawesi Selatan","city":"Soppeng","district":"Donri-Donri","urban":"Leworeng","postal_code":90853},{"province":"Sulawesi Selatan","city":"Soppeng","district":"Donri-Donri","urban":"Labokong","postal_code":90853},{"province":"Sulawesi Selatan","city":"Soppeng","district":"Donri-Donri","urban":"Lalabata Riaja","postal_code":90853},{"province":"Sulawesi Selatan","city":"Soppeng","district":"Donri-Donri","urban":"Donri-Donri","postal_code":90853},{"province":"Sulawesi Selatan","city":"Soppeng","district":"Donri-Donri","urban":"Kessing","postal_code":90853}]