[{"province":"Sulawesi Selatan","city":"Soppeng","district":"Citta","urban":"Tinco","postal_code":90861},{"province":"Sulawesi Selatan","city":"Soppeng","district":"Liliraja (Lili Riaja)","urban":"Timusu","postal_code":90861},{"province":"Sulawesi Selatan","city":"Soppeng","district":"Liliraja (Lili Riaja)","urban":"Pattojo","postal_code":90861},{"province":"Sulawesi Selatan","city":"Soppeng","district":"Liliraja (Lili Riaja)","urban":"Rompegading","postal_code":90861},{"province":"Sulawesi Selatan","city":"Soppeng","district":"Ganra","urban":"Lompulle","postal_code":90861},{"province":"Sulawesi Selatan","city":"Soppeng","district":"Citta","urban":"Labae","postal_code":90861},{"province":"Sulawesi Selatan","city":"Soppeng","district":"Citta","urban":"Kampiri","postal_code":90861},{"province":"Sulawesi Selatan","city":"Soppeng","district":"Liliraja (Lili Riaja)","urban":"Jampu","postal_code":90861},{"province":"Sulawesi Selatan","city":"Soppeng","district":"Liliraja (Lili Riaja)","urban":"Jennae","postal_code":90861},{"province":"Sulawesi Selatan","city":"Soppeng","district":"Ganra","urban":"Ganra","postal_code":90861},{"province":"Sulawesi Selatan","city":"Soppeng","district":"Liliraja (Lili Riaja)","urban":"Galung","postal_code":90861},{"province":"Sulawesi Selatan","city":"Soppeng","district":"Citta","urban":"Citta","postal_code":90861},{"province":"Sulawesi Selatan","city":"Soppeng","district":"Ganra","urban":"Enrekeng","postal_code":90861},{"province":"Sulawesi Selatan","city":"Soppeng","district":"Ganra","urban":"Belo","postal_code":90861},{"province":"Sulawesi Selatan","city":"Soppeng","district":"Liliraja (Lili Riaja)","urban":"Appanang","postal_code":90861},{"province":"Sulawesi Selatan","city":"Soppeng","district":"Liliraja (Lili Riaja)","urban":"Barang","postal_code":90861}]