[{"province":"Sulawesi Selatan","city":"Soppeng","district":"Lili Rilau","urban":"Tetewatu","postal_code":90871},{"province":"Sulawesi Selatan","city":"Soppeng","district":"Lili Rilau","urban":"Ujung","postal_code":90871},{"province":"Sulawesi Selatan","city":"Soppeng","district":"Lili Rilau","urban":"Paroto","postal_code":90871},{"province":"Sulawesi Selatan","city":"Soppeng","district":"Lili Rilau","urban":"Palangiseng","postal_code":90871},{"province":"Sulawesi Selatan","city":"Soppeng","district":"Lili Rilau","urban":"Parenring","postal_code":90871},{"province":"Sulawesi Selatan","city":"Soppeng","district":"Lili Rilau","urban":"Macanre","postal_code":90871},{"province":"Sulawesi Selatan","city":"Soppeng","district":"Lili Rilau","urban":"Masing","postal_code":90871},{"province":"Sulawesi Selatan","city":"Soppeng","district":"Lili Rilau","urban":"Pajalesang","postal_code":90871},{"province":"Sulawesi Selatan","city":"Soppeng","district":"Lili Rilau","urban":"Cabenge","postal_code":90871},{"province":"Sulawesi Selatan","city":"Soppeng","district":"Lili Rilau","urban":"Kebo","postal_code":90871},{"province":"Sulawesi Selatan","city":"Soppeng","district":"Lili Rilau","urban":"Abbanuange","postal_code":90871},{"province":"Sulawesi Selatan","city":"Soppeng","district":"Lili Rilau","urban":"Baringeng","postal_code":90871}]