[{"province":"Sulawesi Selatan","city":"Wajo","district":"Sabbang Paru","urban":"Walennae (Walenae)","postal_code":90961},{"province":"Sulawesi Selatan","city":"Wajo","district":"Sabbang Paru","urban":"Worongnge","postal_code":90961},{"province":"Sulawesi Selatan","city":"Wajo","district":"Sabbang Paru","urban":"Ujungpero","postal_code":90961},{"province":"Sulawesi Selatan","city":"Wajo","district":"Sabbang Paru","urban":"Wage","postal_code":90961},{"province":"Sulawesi Selatan","city":"Wajo","district":"Sabbang Paru","urban":"Tolotenreng (Talotenreng)","postal_code":90961},{"province":"Sulawesi Selatan","city":"Wajo","district":"Sabbang Paru","urban":"Ugi","postal_code":90961},{"province":"Sulawesi Selatan","city":"Wajo","district":"Sabbang Paru","urban":"Sompe","postal_code":90961},{"province":"Sulawesi Selatan","city":"Wajo","district":"Sabbang Paru","urban":"Tadangpalie","postal_code":90961},{"province":"Sulawesi Selatan","city":"Wajo","district":"Sabbang Paru","urban":"Pasaka","postal_code":90961},{"province":"Sulawesi Selatan","city":"Wajo","district":"Sabbang Paru","urban":"Salotengnga","postal_code":90961},{"province":"Sulawesi Selatan","city":"Wajo","district":"Sabbang Paru","urban":"Pallimae","postal_code":90961},{"province":"Sulawesi Selatan","city":"Wajo","district":"Sabbang Paru","urban":"Liu","postal_code":90961},{"province":"Sulawesi Selatan","city":"Wajo","district":"Sabbang Paru","urban":"Mallusesalo","postal_code":90961},{"province":"Sulawesi Selatan","city":"Wajo","district":"Sabbang Paru","urban":"Benteng Lompoe","postal_code":90961},{"province":"Sulawesi Selatan","city":"Wajo","district":"Sabbang Paru","urban":"Bila","postal_code":90961}]