[{"province":"Sulawesi Selatan","city":"Wajo","district":"Pitumpanua","urban":"Tobarakka","postal_code":90992},{"province":"Sulawesi Selatan","city":"Wajo","district":"Pitumpanua","urban":"Tangkoro","postal_code":90992},{"province":"Sulawesi Selatan","city":"Wajo","district":"Pitumpanua","urban":"Tanrongi","postal_code":90992},{"province":"Sulawesi Selatan","city":"Wajo","district":"Pitumpanua","urban":"Tellesang","postal_code":90992},{"province":"Sulawesi Selatan","city":"Wajo","district":"Pitumpanua","urban":"Siwa","postal_code":90992},{"province":"Sulawesi Selatan","city":"Wajo","district":"Pitumpanua","urban":"Marannu","postal_code":90992},{"province":"Sulawesi Selatan","city":"Wajo","district":"Pitumpanua","urban":"Simpellu","postal_code":90992},{"province":"Sulawesi Selatan","city":"Wajo","district":"Pitumpanua","urban":"Lauwa","postal_code":90992},{"province":"Sulawesi Selatan","city":"Wajo","district":"Pitumpanua","urban":"Lompoloang","postal_code":90992},{"province":"Sulawesi Selatan","city":"Wajo","district":"Pitumpanua","urban":"Benteng","postal_code":90992},{"province":"Sulawesi Selatan","city":"Wajo","district":"Pitumpanua","urban":"Bulete","postal_code":90992},{"province":"Sulawesi Selatan","city":"Wajo","district":"Pitumpanua","urban":"Abbanderangnge","postal_code":90992},{"province":"Sulawesi Selatan","city":"Wajo","district":"Pitumpanua","urban":"Alesilurunge","postal_code":90992},{"province":"Sulawesi Selatan","city":"Wajo","district":"Pitumpanua","urban":"Batu","postal_code":90992}]