[{"province":"Sulawesi Selatan","city":"Pinrang","district":"Lembang","urban":"Ulusaddang","postal_code":91254},{"province":"Sulawesi Selatan","city":"Pinrang","district":"Lembang","urban":"Suppirang","postal_code":91254},{"province":"Sulawesi Selatan","city":"Pinrang","district":"Lembang","urban":"Tadokkong","postal_code":91254},{"province":"Sulawesi Selatan","city":"Pinrang","district":"Lembang","urban":"Sabbang Paru","postal_code":91254},{"province":"Sulawesi Selatan","city":"Pinrang","district":"Lembang","urban":"Sali Sali","postal_code":91254},{"province":"Sulawesi Selatan","city":"Pinrang","district":"Lembang","urban":"Pangaparang","postal_code":91254},{"province":"Sulawesi Selatan","city":"Pinrang","district":"Lembang","urban":"Rajang","postal_code":91254},{"province":"Sulawesi Selatan","city":"Pinrang","district":"Lembang","urban":"Letta","postal_code":91254},{"province":"Sulawesi Selatan","city":"Pinrang","district":"Lembang","urban":"Pakeng","postal_code":91254},{"province":"Sulawesi Selatan","city":"Pinrang","district":"Lembang","urban":"Kariango","postal_code":91254},{"province":"Sulawesi Selatan","city":"Pinrang","district":"Lembang","urban":"Lembang Mesakada","postal_code":91254},{"province":"Sulawesi Selatan","city":"Pinrang","district":"Lembang","urban":"Betteng","postal_code":91254},{"province":"Sulawesi Selatan","city":"Pinrang","district":"Lembang","urban":"Binanga Karaeng","postal_code":91254},{"province":"Sulawesi Selatan","city":"Pinrang","district":"Lembang","urban":"Basseang","postal_code":91254},{"province":"Sulawesi Selatan","city":"Pinrang","district":"Lembang","urban":"Benteng Paremba","postal_code":91254},{"province":"Sulawesi Selatan","city":"Pinrang","district":"Lembang","urban":"Bakaru","postal_code":91254}]