[{"province":"Sulawesi Selatan","city":"Pinrang","district":"Mattiro Sompe","urban":"Samaenre","postal_code":91261},{"province":"Sulawesi Selatan","city":"Pinrang","district":"Mattiro Sompe","urban":"Siwolong Polong","postal_code":91261},{"province":"Sulawesi Selatan","city":"Pinrang","district":"Mattiro Sompe","urban":"Patobong","postal_code":91261},{"province":"Sulawesi Selatan","city":"Pinrang","district":"Mattiro Sompe","urban":"Mattongang Tongang","postal_code":91261},{"province":"Sulawesi Selatan","city":"Pinrang","district":"Mattiro Sompe","urban":"Pallameang","postal_code":91261},{"province":"Sulawesi Selatan","city":"Pinrang","district":"Mattiro Sompe","urban":"Massulowalie","postal_code":91261},{"province":"Sulawesi Selatan","city":"Pinrang","district":"Mattiro Sompe","urban":"Mattiro Tasi","postal_code":91261},{"province":"Sulawesi Selatan","city":"Pinrang","district":"Mattiro Sompe","urban":"Mattombong","postal_code":91261},{"province":"Sulawesi Selatan","city":"Pinrang","district":"Mattiro Sompe","urban":"Langa","postal_code":91261}]