[{"province":"Sulawesi Selatan","city":"Pinrang","district":"Mattiro Bulu","urban":"Padakkalawa","postal_code":91271},{"province":"Sulawesi Selatan","city":"Pinrang","district":"Mattiro Bulu","urban":"Pananrang (Pannanrang)","postal_code":91271},{"province":"Sulawesi Selatan","city":"Pinrang","district":"Mattiro Bulu","urban":"Marannu","postal_code":91271},{"province":"Sulawesi Selatan","city":"Pinrang","district":"Mattiro Bulu","urban":"Padaelo","postal_code":91271},{"province":"Sulawesi Selatan","city":"Pinrang","district":"Mattiro Bulu","urban":"Padaidi","postal_code":91271},{"province":"Sulawesi Selatan","city":"Pinrang","district":"Mattiro Bulu","urban":"Makkawaru","postal_code":91271},{"province":"Sulawesi Selatan","city":"Pinrang","district":"Mattiro Bulu","urban":"Manarang","postal_code":91271},{"province":"Sulawesi Selatan","city":"Pinrang","district":"Mattiro Bulu","urban":"Bunga","postal_code":91271},{"province":"Sulawesi Selatan","city":"Pinrang","district":"Mattiro Bulu","urban":"Alitta","postal_code":91271}]