[{"province":"Sulawesi Selatan","city":"Pinrang","district":"Suppa","urban":"Wiringtasi","postal_code":91272},{"province":"Sulawesi Selatan","city":"Pinrang","district":"Suppa","urban":"Watang Pulu","postal_code":91272},{"province":"Sulawesi Selatan","city":"Pinrang","district":"Suppa","urban":"Watang Suppa","postal_code":91272},{"province":"Sulawesi Selatan","city":"Pinrang","district":"Lanrisang","urban":"Wae Tuwoe","postal_code":91272},{"province":"Sulawesi Selatan","city":"Pinrang","district":"Suppa","urban":"Tellumpanua","postal_code":91272},{"province":"Sulawesi Selatan","city":"Pinrang","district":"Suppa","urban":"Ujung Labuang","postal_code":91272},{"province":"Sulawesi Selatan","city":"Pinrang","district":"Lanrisang","urban":"Samaulue","postal_code":91272},{"province":"Sulawesi Selatan","city":"Pinrang","district":"Suppa","urban":"Tasiwalie","postal_code":91272},{"province":"Sulawesi Selatan","city":"Pinrang","district":"Suppa","urban":"Maritengngae","postal_code":91272},{"province":"Sulawesi Selatan","city":"Pinrang","district":"Suppa","urban":"Polewali","postal_code":91272},{"province":"Sulawesi Selatan","city":"Pinrang","district":"Lanrisang","urban":"Mallongi Longi","postal_code":91272},{"province":"Sulawesi Selatan","city":"Pinrang","district":"Suppa","urban":"Lotang Salo","postal_code":91272},{"province":"Sulawesi Selatan","city":"Pinrang","district":"Suppa","urban":"Lero","postal_code":91272},{"province":"Sulawesi Selatan","city":"Pinrang","district":"Lanrisang","urban":"Barang Palie","postal_code":91272},{"province":"Sulawesi Selatan","city":"Pinrang","district":"Lanrisang","urban":"Lanrisang","postal_code":91272},{"province":"Sulawesi Selatan","city":"Pinrang","district":"Lanrisang","urban":"Lerang","postal_code":91272},{"province":"Sulawesi Selatan","city":"Pinrang","district":"Lanrisang","urban":"Amassangang","postal_code":91272}]