[{"province":"Sulawesi Barat","city":"Polewali Mandar","district":"Mapilli","urban":"Ugi Baru","postal_code":91353},{"province":"Sulawesi Barat","city":"Polewali Mandar","district":"Luyo","urban":"Tenggelang (Tenggelan)","postal_code":91353},{"province":"Sulawesi Barat","city":"Polewali Mandar","district":"Bulo","urban":"Tapambanua (Patambanua)","postal_code":91353},{"province":"Sulawesi Barat","city":"Polewali Mandar","district":"Campalagian","urban":"Sumarang (Sumarrang)","postal_code":91353},{"province":"Sulawesi Barat","city":"Polewali Mandar","district":"Campalagian","urban":"Suruang","postal_code":91353},{"province":"Sulawesi Barat","city":"Polewali Mandar","district":"Bulo","urban":"Sepporraki","postal_code":91353},{"province":"Sulawesi Barat","city":"Polewali Mandar","district":"Mapilli","urban":"Segerang","postal_code":91353},{"province":"Sulawesi Barat","city":"Polewali Mandar","district":"Mapilli","urban":"Sattoko","postal_code":91353},{"province":"Sulawesi Barat","city":"Polewali Mandar","district":"Luyo","urban":"Sambali Wali","postal_code":91353},{"province":"Sulawesi Barat","city":"Polewali Mandar","district":"Bulo","urban":"Sabura","postal_code":91353},{"province":"Sulawesi Barat","city":"Polewali Mandar","district":"Mapilli","urban":"Rappang Barat","postal_code":91353},{"province":"Sulawesi Barat","city":"Polewali Mandar","district":"Mapilli","urban":"Rumpa","postal_code":91353},{"province":"Sulawesi Barat","city":"Polewali Mandar","district":"Luyo","urban":"Pussui","postal_code":91353},{"province":"Sulawesi Barat","city":"Polewali Mandar","district":"Luyo","urban":"Pussui Barat","postal_code":91353},{"province":"Sulawesi Barat","city":"Polewali Mandar","district":"Luyo","urban":"Puccadi","postal_code":91353},{"province":"Sulawesi Barat","city":"Polewali Mandar","district":"Bulo","urban":"Pulliwa","postal_code":91353},{"province":"Sulawesi Barat","city":"Polewali Mandar","district":"Campalagian","urban":"Pappang","postal_code":91353},{"province":"Sulawesi Barat","city":"Polewali Mandar","district":"Campalagian","urban":"Parappe","postal_code":91353},{"province":"Sulawesi Barat","city":"Polewali Mandar","district":"Campalagian","urban":"Panyampa","postal_code":91353},{"province":"Sulawesi Barat","city":"Polewali Mandar","district":"Campalagian","urban":"Padang Timur","postal_code":91353},{"province":"Sulawesi Barat","city":"Polewali Mandar","district":"Luyo","urban":"Mapilli Barat","postal_code":91353},{"province":"Sulawesi Barat","city":"Polewali Mandar","district":"Campalagian","urban":"Ongko","postal_code":91353},{"province":"Sulawesi Barat","city":"Polewali Mandar","district":"Campalagian","urban":"Padang","postal_code":91353},{"province":"Sulawesi Barat","city":"Polewali Mandar","district":"Luyo","urban":"Mambu","postal_code":91353},{"province":"Sulawesi Barat","city":"Polewali Mandar","district":"Mapilli","urban":"Mapilli","postal_code":91353},{"province":"Sulawesi Barat","city":"Polewali Mandar","district":"Bulo","urban":"Lenggo","postal_code":91353},{"province":"Sulawesi Barat","city":"Polewali Mandar","district":"Luyo","urban":"Luyo (Lujo)","postal_code":91353},{"province":"Sulawesi Barat","city":"Polewali Mandar","district":"Mapilli","urban":"Landi Kanusuang","postal_code":91353},{"province":"Sulawesi Barat","city":"Polewali Mandar","district":"Campalagian","urban":"Lapeo","postal_code":91353},{"province":"Sulawesi Barat","city":"Polewali Mandar","district":"Campalagian","urban":"Laliko","postal_code":91353},{"province":"Sulawesi Barat","city":"Polewali Mandar","district":"Campalagian","urban":"Lampoko","postal_code":91353},{"province":"Sulawesi Barat","city":"Polewali Mandar","district":"Campalagian","urban":"Lagi-Agi","postal_code":91353},{"province":"Sulawesi Barat","city":"Polewali Mandar","district":"Mapilli","urban":"Kurma","postal_code":91353},{"province":"Sulawesi Barat","city":"Polewali Mandar","district":"Campalagian","urban":"Kenje","postal_code":91353},{"province":"Sulawesi Barat","city":"Polewali Mandar","district":"Campalagian","urban":"Katumbangan","postal_code":91353},{"province":"Sulawesi Barat","city":"Polewali Mandar","district":"Campalagian","urban":"Katumbangan Lemo","postal_code":91353},{"province":"Sulawesi Barat","city":"Polewali Mandar","district":"Bulo","urban":"Karombang","postal_code":91353},{"province":"Sulawesi Barat","city":"Polewali Mandar","district":"Bulo","urban":"Ihing","postal_code":91353},{"province":"Sulawesi Barat","city":"Polewali Mandar","district":"Bulo","urban":"Daala Timur","postal_code":91353},{"province":"Sulawesi Barat","city":"Polewali Mandar","district":"Campalagian","urban":"Gattungan","postal_code":91353},{"province":"Sulawesi Barat","city":"Polewali Mandar","district":"Bulo","urban":"Bulo","postal_code":91353},{"province":"Sulawesi Barat","city":"Polewali Mandar","district":"Mapilli","urban":"Buku","postal_code":91353},{"province":"Sulawesi Barat","city":"Polewali Mandar","district":"Mapilli","urban":"Bonra","postal_code":91353},{"province":"Sulawesi Barat","city":"Polewali Mandar","district":"Campalagian","urban":"Botto","postal_code":91353},{"province":"Sulawesi Barat","city":"Polewali Mandar","district":"Mapilli","urban":"Bonne-Bonne","postal_code":91353},{"province":"Sulawesi Barat","city":"Polewali Mandar","district":"Campalagian","urban":"Bonde","postal_code":91353},{"province":"Sulawesi Barat","city":"Polewali Mandar","district":"Mapilli","urban":"Beroangin","postal_code":91353},{"province":"Sulawesi Barat","city":"Polewali Mandar","district":"Luyo","urban":"Batupanga Daala","postal_code":91353},{"province":"Sulawesi Barat","city":"Polewali Mandar","district":"Luyo","urban":"Batu Panga","postal_code":91353},{"province":"Sulawesi Barat","city":"Polewali Mandar","district":"Luyo","urban":"Baru","postal_code":91353}]