[{"province":"Sulawesi Barat","city":"Mamuju","district":"Tapalang Barat","urban":"Tanete Pao","postal_code":91352},{"province":"Sulawesi Barat","city":"Mamuju","district":"Tapalang","urban":"Tampalang","postal_code":91352},{"province":"Sulawesi Barat","city":"Mamuju","district":"Tapalang","urban":"Takandeang","postal_code":91352},{"province":"Sulawesi Barat","city":"Mamuju","district":"Tapalang","urban":"Taang (Ta&#8217;an)","postal_code":91352},{"province":"Sulawesi Barat","city":"Mamuju","district":"Tapalang","urban":"Rantedoda","postal_code":91352},{"province":"Sulawesi Barat","city":"Mamuju","district":"Tapalang Barat","urban":"Pangasaan","postal_code":91352},{"province":"Sulawesi Barat","city":"Mamuju","district":"Tapalang Barat","urban":"Pasabu (Pasa Bu)","postal_code":91352},{"province":"Sulawesi Barat","city":"Mamuju","district":"Tapalang","urban":"Orobatu","postal_code":91352},{"province":"Sulawesi Barat","city":"Mamuju","district":"Tapalang Barat","urban":"Labuang Rano","postal_code":91352},{"province":"Sulawesi Barat","city":"Mamuju","district":"Tapalang Barat","urban":"Lebani","postal_code":91352},{"province":"Sulawesi Barat","city":"Mamuju","district":"Tapalang","urban":"Kopeang","postal_code":91352},{"province":"Sulawesi Barat","city":"Mamuju","district":"Tapalang","urban":"Kasambang","postal_code":91352},{"province":"Sulawesi Barat","city":"Mamuju","district":"Tapalang Barat","urban":"Dungkait","postal_code":91352},{"province":"Sulawesi Barat","city":"Mamuju","district":"Tapalang","urban":"Galung","postal_code":91352},{"province":"Sulawesi Barat","city":"Mamuju","district":"Tapalang","urban":"Bela","postal_code":91352},{"province":"Sulawesi Barat","city":"Mamuju","district":"Tapalang Barat","urban":"Ahu","postal_code":91352},{"province":"Sulawesi Barat","city":"Polewali Mandar","district":"Tapango","urban":"Tuttula","postal_code":91352},{"province":"Sulawesi Barat","city":"Polewali Mandar","district":"Wonomulyo","urban":"Tumpiling","postal_code":91352},{"province":"Sulawesi Barat","city":"Polewali Mandar","district":"Matakali","urban":"Tonro Lima","postal_code":91352},{"province":"Sulawesi Barat","city":"Polewali Mandar","district":"Tapango","urban":"Tapango Barat","postal_code":91352},{"province":"Sulawesi Barat","city":"Polewali Mandar","district":"Matangnga","urban":"Tapua","postal_code":91352},{"province":"Sulawesi Barat","city":"Polewali Mandar","district":"Tapango","urban":"Tapango","postal_code":91352},{"province":"Sulawesi Barat","city":"Polewali Mandar","district":"Wonomulyo","urban":"Sumberjo","postal_code":91352},{"province":"Sulawesi Barat","city":"Polewali Mandar","district":"Wonomulyo","urban":"Sugih Waras","postal_code":91352},{"province":"Sulawesi Barat","city":"Polewali Mandar","district":"Wonomulyo","urban":"Sidodadi","postal_code":91352},{"province":"Sulawesi Barat","city":"Polewali Mandar","district":"Wonomulyo","urban":"Sidorejo","postal_code":91352},{"province":"Sulawesi Barat","city":"Polewali Mandar","district":"Tapango","urban":"Rappang","postal_code":91352},{"province":"Sulawesi Barat","city":"Polewali Mandar","district":"Tapango","urban":"Riso","postal_code":91352},{"province":"Sulawesi Barat","city":"Polewali Mandar","district":"Matangnga","urban":"Rangoan","postal_code":91352},{"province":"Sulawesi Barat","city":"Polewali Mandar","district":"Matakali","urban":"Patampanua","postal_code":91352},{"province":"Sulawesi Barat","city":"Polewali Mandar","district":"Tapango","urban":"Pelitakan","postal_code":91352},{"province":"Sulawesi Barat","city":"Polewali Mandar","district":"Matakali","urban":"Pasiang","postal_code":91352},{"province":"Sulawesi Barat","city":"Polewali Mandar","district":"Tapango","urban":"Palatta","postal_code":91352},{"province":"Sulawesi Barat","city":"Polewali Mandar","district":"Wonomulyo","urban":"Nepo","postal_code":91352},{"province":"Sulawesi Barat","city":"Polewali Mandar","district":"Matangnga","urban":"Matangnga","postal_code":91352},{"province":"Sulawesi Barat","city":"Polewali Mandar","district":"Matakali","urban":"Matakali","postal_code":91352},{"province":"Sulawesi Barat","city":"Polewali Mandar","district":"Matangnga","urban":"Lilli","postal_code":91352},{"province":"Sulawesi Barat","city":"Polewali Mandar","district":"Matangnga","urban":"Mambu Tapua","postal_code":91352},{"province":"Sulawesi Barat","city":"Polewali Mandar","district":"Tapango","urban":"Kurrak","postal_code":91352},{"province":"Sulawesi Barat","city":"Polewali Mandar","district":"Wonomulyo","urban":"Kebunsari","postal_code":91352},{"province":"Sulawesi Barat","city":"Polewali Mandar","district":"Matangnga","urban":"Katimbang","postal_code":91352},{"province":"Sulawesi Barat","city":"Polewali Mandar","district":"Tapango","urban":"Kalimbua","postal_code":91352},{"province":"Sulawesi Barat","city":"Polewali Mandar","district":"Tapango","urban":"Jambu Malea","postal_code":91352},{"province":"Sulawesi Barat","city":"Polewali Mandar","district":"Matakali","urban":"Indo Makkombong (Indomakkondang)","postal_code":91352},{"province":"Sulawesi Barat","city":"Polewali Mandar","district":"Wonomulyo","urban":"Geleso","postal_code":91352},{"province":"Sulawesi Barat","city":"Polewali Mandar","district":"Tapango","urban":"Dakka","postal_code":91352},{"province":"Sulawesi Barat","city":"Polewali Mandar","district":"Tapango","urban":"Bussu","postal_code":91352},{"province":"Sulawesi Barat","city":"Polewali Mandar","district":"Wonomulyo","urban":"Campurjo","postal_code":91352},{"province":"Sulawesi Barat","city":"Polewali Mandar","district":"Wonomulyo","urban":"Bumiayu","postal_code":91352},{"province":"Sulawesi Barat","city":"Polewali Mandar","district":"Matakali","urban":"Bunga-Bunga","postal_code":91352},{"province":"Sulawesi Barat","city":"Polewali Mandar","district":"Wonomulyo","urban":"Bumi Mulyo","postal_code":91352},{"province":"Sulawesi Barat","city":"Polewali Mandar","district":"Tapango","urban":"Batu","postal_code":91352},{"province":"Sulawesi Barat","city":"Polewali Mandar","district":"Wonomulyo","urban":"Banua Baru","postal_code":91352},{"province":"Sulawesi Barat","city":"Polewali Mandar","district":"Matakali","urban":"Barumbung","postal_code":91352},{"province":"Sulawesi Barat","city":"Polewali Mandar","district":"Wonomulyo","urban":"Bakka-Bakka","postal_code":91352},{"province":"Sulawesi Barat","city":"Polewali Mandar","district":"Tapango","urban":"Banato Rejo","postal_code":91352},{"province":"Sulawesi Barat","city":"Polewali Mandar","district":"Matangnga","urban":"Ba&#8217;ba Tapua","postal_code":91352},{"province":"Sulawesi Barat","city":"Polewali Mandar","district":"Wonomulyo","urban":"Arjosari","postal_code":91352}]