[{"province":"Sulawesi Barat","city":"Polewali Mandar","district":"Tinambung","urban":"Tinambung","postal_code":91354},{"province":"Sulawesi Barat","city":"Polewali Mandar","district":"Tinambung","urban":"Tandung","postal_code":91354},{"province":"Sulawesi Barat","city":"Polewali Mandar","district":"Balanipa","urban":"Tammejarra (Tammajarra)","postal_code":91354},{"province":"Sulawesi Barat","city":"Polewali Mandar","district":"Tinambung","urban":"Sepa Batu","postal_code":91354},{"province":"Sulawesi Barat","city":"Polewali Mandar","district":"Balanipa","urban":"Tammangalle","postal_code":91354},{"province":"Sulawesi Barat","city":"Polewali Mandar","district":"Balanipa","urban":"Pambusuang","postal_code":91354},{"province":"Sulawesi Barat","city":"Polewali Mandar","district":"Balanipa","urban":"Sabang Subik","postal_code":91354},{"province":"Sulawesi Barat","city":"Polewali Mandar","district":"Tinambung","urban":"Lekopadis","postal_code":91354},{"province":"Sulawesi Barat","city":"Polewali Mandar","district":"Balanipa","urban":"Mosso","postal_code":91354},{"province":"Sulawesi Barat","city":"Polewali Mandar","district":"Balanipa","urban":"Pallis","postal_code":91354},{"province":"Sulawesi Barat","city":"Polewali Mandar","district":"Balanipa","urban":"Lambanan","postal_code":91354},{"province":"Sulawesi Barat","city":"Polewali Mandar","district":"Balanipa","urban":"Lego","postal_code":91354},{"province":"Sulawesi Barat","city":"Polewali Mandar","district":"Tinambung","urban":"Karama","postal_code":91354},{"province":"Sulawesi Barat","city":"Polewali Mandar","district":"Balanipa","urban":"Galung Tulu","postal_code":91354},{"province":"Sulawesi Barat","city":"Polewali Mandar","district":"Tinambung","urban":"Batulaya","postal_code":91354},{"province":"Sulawesi Barat","city":"Polewali Mandar","district":"Tinambung","urban":"Galung Lombok","postal_code":91354},{"province":"Sulawesi Barat","city":"Polewali Mandar","district":"Balanipa","urban":"Balanipa","postal_code":91354},{"province":"Sulawesi Barat","city":"Polewali Mandar","district":"Balanipa","urban":"Bala","postal_code":91354}]