[{"province":"Sulawesi Barat","city":"Mamasa","district":"Tawalian","urban":"Tawalian Timur","postal_code":91365},{"province":"Sulawesi Barat","city":"Mamasa","district":"Sesena Padang","urban":"Satenetean","postal_code":91365},{"province":"Sulawesi Barat","city":"Mamasa","district":"Tawalian","urban":"Tawalian","postal_code":91365},{"province":"Sulawesi Barat","city":"Mamasa","district":"Sesena Padang","urban":"Rante Puang","postal_code":91365},{"province":"Sulawesi Barat","city":"Mamasa","district":"Tawalian","urban":"Rante Tangnga","postal_code":91365},{"province":"Sulawesi Barat","city":"Mamasa","district":"Sesena Padang","urban":"Orobua Selatan","postal_code":91365},{"province":"Sulawesi Barat","city":"Mamasa","district":"Sesena Padang","urban":"Orobua Timur","postal_code":91365},{"province":"Sulawesi Barat","city":"Mamasa","district":"Sesena Padang","urban":"Paladan","postal_code":91365},{"province":"Sulawesi Barat","city":"Mamasa","district":"Sesena Padang","urban":"Malangkena Padang","postal_code":91365},{"province":"Sulawesi Barat","city":"Mamasa","district":"Sesena Padang","urban":"Orobua","postal_code":91365},{"province":"Sulawesi Barat","city":"Mamasa","district":"Sesena Padang","urban":"Lisuan Ada","postal_code":91365},{"province":"Sulawesi Barat","city":"Mamasa","district":"Tawalian","urban":"Kariango","postal_code":91365}]