[{"province":"Sulawesi Barat","city":"Mamasa","district":"Sumarorong","urban":"Tadisi","postal_code":91361},{"province":"Sulawesi Barat","city":"Mamasa","district":"Sumarorong","urban":"Tabone","postal_code":91361},{"province":"Sulawesi Barat","city":"Mamasa","district":"Messawa","urban":"Sipai","postal_code":91361},{"province":"Sulawesi Barat","city":"Mamasa","district":"Sumarorong","urban":"Sumarorong","postal_code":91361},{"province":"Sulawesi Barat","city":"Mamasa","district":"Messawa","urban":"Sepang","postal_code":91361},{"province":"Sulawesi Barat","city":"Mamasa","district":"Sumarorong","urban":"Sibanawa","postal_code":91361},{"province":"Sulawesi Barat","city":"Mamasa","district":"Messawa","urban":"Rippung","postal_code":91361},{"province":"Sulawesi Barat","city":"Mamasa","district":"Sumarorong","urban":"Salubalo","postal_code":91361},{"province":"Sulawesi Barat","city":"Mamasa","district":"Sumarorong","urban":"Sasakan","postal_code":91361},{"province":"Sulawesi Barat","city":"Mamasa","district":"Messawa","urban":"Matande","postal_code":91361},{"province":"Sulawesi Barat","city":"Mamasa","district":"Messawa","urban":"Messawa","postal_code":91361},{"province":"Sulawesi Barat","city":"Mamasa","district":"Messawa","urban":"Pasma Mambu","postal_code":91361},{"province":"Sulawesi Barat","city":"Mamasa","district":"Messawa","urban":"Makuang","postal_code":91361},{"province":"Sulawesi Barat","city":"Mamasa","district":"Messawa","urban":"Malimbong","postal_code":91361},{"province":"Sulawesi Barat","city":"Mamasa","district":"Sumarorong","urban":"Batang Uru","postal_code":91361},{"province":"Sulawesi Barat","city":"Mamasa","district":"Sumarorong","urban":"Batangnguru Timur","postal_code":91361},{"province":"Sulawesi Barat","city":"Mamasa","district":"Sumarorong","urban":"Banea","postal_code":91361}]