[{"province":"Sulawesi Barat","city":"Mamasa","district":"Tanduk Kalua","urban":"Tamalantik","postal_code":91366},{"province":"Sulawesi Barat","city":"Mamasa","district":"Tanduk Kalua","urban":"Sindagamanik","postal_code":91366},{"province":"Sulawesi Barat","city":"Mamasa","district":"Balla","urban":"Pidara","postal_code":91366},{"province":"Sulawesi Barat","city":"Mamasa","district":"Balla","urban":"Sipakuan","postal_code":91366},{"province":"Sulawesi Barat","city":"Mamasa","district":"Tanduk Kalua","urban":"Parondobulawan","postal_code":91366},{"province":"Sulawesi Barat","city":"Mamasa","district":"Tanduk Kalua","urban":"Minake","postal_code":91366},{"province":"Sulawesi Barat","city":"Mamasa","district":"Tanduk Kalua","urban":"Malabo","postal_code":91366},{"province":"Sulawesi Barat","city":"Mamasa","district":"Tanduk Kalua","urban":"Mannababa","postal_code":91366},{"province":"Sulawesi Barat","city":"Mamasa","district":"Tanduk Kalua","urban":"Mesakada","postal_code":91366},{"province":"Sulawesi Barat","city":"Mamasa","district":"Tanduk Kalua","urban":"Ballabatu","postal_code":91366},{"province":"Sulawesi Barat","city":"Mamasa","district":"Balla","urban":"Balla Tumuka","postal_code":91366},{"province":"Sulawesi Barat","city":"Mamasa","district":"Balla","urban":"Balla Barat","postal_code":91366},{"province":"Sulawesi Barat","city":"Mamasa","district":"Balla","urban":"Balla Satanetean","postal_code":91366},{"province":"Sulawesi Barat","city":"Mamasa","district":"Balla","urban":"Balla","postal_code":91366}]