[{"province":"Sulawesi Barat","city":"Mamasa","district":"Pana","urban":"Tallang Bulawan","postal_code":91363},{"province":"Sulawesi Barat","city":"Mamasa","district":"Pana","urban":"Ulusalu","postal_code":91363},{"province":"Sulawesi Barat","city":"Mamasa","district":"Pana","urban":"Sapan","postal_code":91363},{"province":"Sulawesi Barat","city":"Mamasa","district":"Nosu","urban":"Siwi","postal_code":91363},{"province":"Sulawesi Barat","city":"Mamasa","district":"Pana","urban":"Panura","postal_code":91363},{"province":"Sulawesi Barat","city":"Mamasa","district":"Nosu","urban":"Minanga Timur","postal_code":91363},{"province":"Sulawesi Barat","city":"Mamasa","district":"Nosu","urban":"Nosu","postal_code":91363},{"province":"Sulawesi Barat","city":"Mamasa","district":"Pana","urban":"Pana","postal_code":91363},{"province":"Sulawesi Barat","city":"Mamasa","district":"Nosu","urban":"Masewwe","postal_code":91363},{"province":"Sulawesi Barat","city":"Mamasa","district":"Nosu","urban":"Minanga","postal_code":91363},{"province":"Sulawesi Barat","city":"Mamasa","district":"Pana","urban":"Mamullu","postal_code":91363},{"province":"Sulawesi Barat","city":"Mamasa","district":"Pana","urban":"Manipi","postal_code":91363},{"province":"Sulawesi Barat","city":"Mamasa","district":"Pana","urban":"Datubaringan","postal_code":91363},{"province":"Sulawesi Barat","city":"Mamasa","district":"Pana","urban":"Karaka","postal_code":91363},{"province":"Sulawesi Barat","city":"Mamasa","district":"Nosu","urban":"Batupapan","postal_code":91363}]