[{"province":"Sulawesi Barat","city":"Mamasa","district":"Tabulahan","urban":"Saluleang","postal_code":91372},{"province":"Sulawesi Barat","city":"Mamasa","district":"Tabulahan","urban":"Tabulahan","postal_code":91372},{"province":"Sulawesi Barat","city":"Mamasa","district":"Tabulahan","urban":"Tampak Kurra","postal_code":91372},{"province":"Sulawesi Barat","city":"Mamasa","district":"Tabulahan","urban":"Periangan","postal_code":91372},{"province":"Sulawesi Barat","city":"Mamasa","district":"Tabulahan","urban":"Salubakka","postal_code":91372},{"province":"Sulawesi Barat","city":"Mamasa","district":"Tabulahan","urban":"Malatiro","postal_code":91372},{"province":"Sulawesi Barat","city":"Mamasa","district":"Tabulahan","urban":"Pangandaran","postal_code":91372},{"province":"Sulawesi Barat","city":"Mamasa","district":"Tabulahan","urban":"Gandang Dewata","postal_code":91372},{"province":"Sulawesi Barat","city":"Mamasa","district":"Tabulahan","urban":"Lakahang","postal_code":91372},{"province":"Sulawesi Barat","city":"Mamasa","district":"Tabulahan","urban":"Burana","postal_code":91372}]