[{"province":"Sulawesi Barat","city":"Mamasa","district":"Aralle (Arrale)","urban":"Uhaidaho","postal_code":91373},{"province":"Sulawesi Barat","city":"Mamasa","district":"Aralle (Arrale)","urban":"Uhailanu","postal_code":91373},{"province":"Sulawesi Barat","city":"Mamasa","district":"Buntumalangka","urban":"Salutambun","postal_code":91373},{"province":"Sulawesi Barat","city":"Mamasa","district":"Buntumalangka","urban":"Taora","postal_code":91373},{"province":"Sulawesi Barat","city":"Mamasa","district":"Buntumalangka","urban":"Ranteberan (Rante Berang)","postal_code":91373},{"province":"Sulawesi Barat","city":"Mamasa","district":"Buntumalangka","urban":"Salurindu","postal_code":91373},{"province":"Sulawesi Barat","city":"Mamasa","district":"Aralle (Arrale)","urban":"Ralleanak Utara","postal_code":91373},{"province":"Sulawesi Barat","city":"Mamasa","district":"Aralle (Arrale)","urban":"Panetean","postal_code":91373},{"province":"Sulawesi Barat","city":"Mamasa","district":"Aralle (Arrale)","urban":"Ralle Anak","postal_code":91373},{"province":"Sulawesi Barat","city":"Mamasa","district":"Aralle (Arrale)","urban":"Pamoseang Pangga","postal_code":91373},{"province":"Sulawesi Barat","city":"Mamasa","district":"Buntumalangka","urban":"Kabae","postal_code":91373},{"province":"Sulawesi Barat","city":"Mamasa","district":"Buntumalangka","urban":"Kebanga","postal_code":91373},{"province":"Sulawesi Barat","city":"Mamasa","district":"Buntumalangka","urban":"Buntu Malangka","postal_code":91373},{"province":"Sulawesi Barat","city":"Mamasa","district":"Aralle (Arrale)","urban":"Baruru","postal_code":91373},{"province":"Sulawesi Barat","city":"Mamasa","district":"Buntumalangka","urban":"Aralle Timur","postal_code":91373},{"province":"Sulawesi Barat","city":"Mamasa","district":"Aralle (Arrale)","urban":"Aralle Utara","postal_code":91373},{"province":"Sulawesi Barat","city":"Mamasa","district":"Aralle (Arrale)","urban":"Aralle","postal_code":91373}]