[{"province":"Sulawesi Barat","city":"Mamasa","district":"Bambang","urban":"Ulumambi Barat","postal_code":91371},{"province":"Sulawesi Barat","city":"Mamasa","district":"Mambi","urban":"Tapalina","postal_code":91371},{"province":"Sulawesi Barat","city":"Mamasa","district":"Bambang","urban":"Ulumambi","postal_code":91371},{"province":"Sulawesi Barat","city":"Mamasa","district":"Bambang","urban":"Tanete Tomba","postal_code":91371},{"province":"Sulawesi Barat","city":"Mamasa","district":"Mambi","urban":"Talipukki","postal_code":91371},{"province":"Sulawesi Barat","city":"Mamasa","district":"Mambi","urban":"Sondonglayu","postal_code":91371},{"province":"Sulawesi Barat","city":"Mamasa","district":"Bambang","urban":"Sikamase","postal_code":91371},{"province":"Sulawesi Barat","city":"Mamasa","district":"Mambi","urban":"Sendana","postal_code":91371},{"province":"Sulawesi Barat","city":"Mamasa","district":"Bambang","urban":"Salundengen","postal_code":91371},{"province":"Sulawesi Barat","city":"Mamasa","district":"Mambi","urban":"Selumaka","postal_code":91371},{"province":"Sulawesi Barat","city":"Mamasa","district":"Rantebulahan Timur","urban":"Salumokanan Barat","postal_code":91371},{"province":"Sulawesi Barat","city":"Mamasa","district":"Rantebulahan Timur","urban":"Salumokanan Utara","postal_code":91371},{"province":"Sulawesi Barat","city":"Mamasa","district":"Rantebulahan Timur","urban":"Salumokanan","postal_code":91371},{"province":"Sulawesi Barat","city":"Mamasa","district":"Mehalaan","urban":"Salukonta","postal_code":91371},{"province":"Sulawesi Barat","city":"Mamasa","district":"Bambang","urban":"Salukepopok","postal_code":91371},{"province":"Sulawesi Barat","city":"Mamasa","district":"Bambang","urban":"Salubulo","postal_code":91371},{"province":"Sulawesi Barat","city":"Mamasa","district":"Bambang","urban":"Salukadi","postal_code":91371},{"province":"Sulawesi Barat","city":"Mamasa","district":"Mambi","urban":"Salubanua","postal_code":91371},{"province":"Sulawesi Barat","city":"Mamasa","district":"Bambang","urban":"Saluassing","postal_code":91371},{"province":"Sulawesi Barat","city":"Mamasa","district":"Mambi","urban":"Rante Bulahan","postal_code":91371},{"province":"Sulawesi Barat","city":"Mamasa","district":"Bambang","urban":"Rantelemo","postal_code":91371},{"province":"Sulawesi Barat","city":"Mamasa","district":"Mambi","urban":"Pamoseang","postal_code":91371},{"province":"Sulawesi Barat","city":"Mamasa","district":"Bambang","urban":"Minanga","postal_code":91371},{"province":"Sulawesi Barat","city":"Mamasa","district":"Mehalaan","urban":"Mehalaan","postal_code":91371},{"province":"Sulawesi Barat","city":"Mamasa","district":"Mehalaan","urban":"Mesakada","postal_code":91371},{"province":"Sulawesi Barat","city":"Mamasa","district":"Bambang","urban":"Masoso","postal_code":91371},{"province":"Sulawesi Barat","city":"Mamasa","district":"Bambang","urban":"Lembang Mokallang","postal_code":91371},{"province":"Sulawesi Barat","city":"Mamasa","district":"Bambang","urban":"Limbadebata","postal_code":91371},{"province":"Sulawesi Barat","city":"Mamasa","district":"Mambi","urban":"Mambi","postal_code":91371},{"province":"Sulawesi Barat","city":"Mamasa","district":"Rantebulahan Timur","urban":"Leko","postal_code":91371},{"province":"Sulawesi Barat","city":"Mamasa","district":"Mambi","urban":"Bujung Manurung","postal_code":91371},{"province":"Sulawesi Barat","city":"Mamasa","district":"Rantebulahan Timur","urban":"Buangin","postal_code":91371},{"province":"Sulawesi Barat","city":"Mamasa","district":"Bambang","urban":"Bambang Timur","postal_code":91371},{"province":"Sulawesi Barat","city":"Mamasa","district":"Mehalaan","urban":"Botteng","postal_code":91371},{"province":"Sulawesi Barat","city":"Mamasa","district":"Rantebulahan Timur","urban":"Bambang Buda","postal_code":91371},{"province":"Sulawesi Barat","city":"Mamasa","district":"Bambang","urban":"Bambang","postal_code":91371}]