[{"province":"Sulawesi Barat","city":"Majene","district":"Ulumunda","urban":"Ulumanda","postal_code":91453},{"province":"Sulawesi Barat","city":"Majene","district":"Ulumunda","urban":"Sambabo","postal_code":91453},{"province":"Sulawesi Barat","city":"Majene","district":"Ulumunda","urban":"Sulai","postal_code":91453},{"province":"Sulawesi Barat","city":"Majene","district":"Ulumunda","urban":"Tandeallo","postal_code":91453},{"province":"Sulawesi Barat","city":"Majene","district":"Malunda","urban":"Salutahongan","postal_code":91453},{"province":"Sulawesi Barat","city":"Majene","district":"Ulumunda","urban":"Popenga","postal_code":91453},{"province":"Sulawesi Barat","city":"Majene","district":"Ulumunda","urban":"Salutambung","postal_code":91453},{"province":"Sulawesi Barat","city":"Majene","district":"Malunda","urban":"Mekkatta Selatan","postal_code":91453},{"province":"Sulawesi Barat","city":"Majene","district":"Ulumunda","urban":"Panggalo","postal_code":91453},{"province":"Sulawesi Barat","city":"Majene","district":"Malunda","urban":"Maliaya","postal_code":91453},{"province":"Sulawesi Barat","city":"Majene","district":"Malunda","urban":"Malunda","postal_code":91453},{"province":"Sulawesi Barat","city":"Majene","district":"Malunda","urban":"Mekkatta","postal_code":91453},{"province":"Sulawesi Barat","city":"Majene","district":"Malunda","urban":"Lombong","postal_code":91453},{"province":"Sulawesi Barat","city":"Majene","district":"Malunda","urban":"Lombong Timur","postal_code":91453},{"province":"Sulawesi Barat","city":"Majene","district":"Malunda","urban":"Lamungang Batu","postal_code":91453},{"province":"Sulawesi Barat","city":"Majene","district":"Malunda","urban":"Lombang","postal_code":91453},{"province":"Sulawesi Barat","city":"Majene","district":"Malunda","urban":"Lombang Timur","postal_code":91453},{"province":"Sulawesi Barat","city":"Majene","district":"Ulumunda","urban":"Kabiraan","postal_code":91453},{"province":"Sulawesi Barat","city":"Majene","district":"Malunda","urban":"Kayuangin","postal_code":91453},{"province":"Sulawesi Barat","city":"Majene","district":"Malunda","urban":"Bambangan","postal_code":91453}]