[{"province":"Sulawesi Barat","city":"Majene","district":"Tubo (Tubo Sendana)","urban":"Tubo Tengah","postal_code":91452},{"province":"Sulawesi Barat","city":"Majene","district":"Tammeredo Sendana","urban":"Ulidang","postal_code":91452},{"province":"Sulawesi Barat","city":"Majene","district":"Tubo (Tubo Sendana)","urban":"Tubo Poang","postal_code":91452},{"province":"Sulawesi Barat","city":"Majene","district":"Tubo (Tubo Sendana)","urban":"Tubo Selatan","postal_code":91452},{"province":"Sulawesi Barat","city":"Majene","district":"Tubo (Tubo Sendana)","urban":"Tubo","postal_code":91452},{"province":"Sulawesi Barat","city":"Majene","district":"Tammeredo Sendana","urban":"Tammerodo Utara","postal_code":91452},{"province":"Sulawesi Barat","city":"Majene","district":"Tammeredo Sendana","urban":"Tammerodo","postal_code":91452},{"province":"Sulawesi Barat","city":"Majene","district":"Sendana","urban":"Tallum Banua","postal_code":91452},{"province":"Sulawesi Barat","city":"Majene","district":"Tammeredo Sendana","urban":"Tallambalao","postal_code":91452},{"province":"Sulawesi Barat","city":"Majene","district":"Sendana","urban":"Tallubanua Utara","postal_code":91452},{"province":"Sulawesi Barat","city":"Majene","district":"Tammeredo Sendana","urban":"Seppong","postal_code":91452},{"province":"Sulawesi Barat","city":"Majene","district":"Sendana","urban":"Sendana","postal_code":91452},{"province":"Sulawesi Barat","city":"Majene","district":"Sendana","urban":"Sendana","postal_code":91452},{"province":"Sulawesi Barat","city":"Majene","district":"Sendana","urban":"Pundau","postal_code":91452},{"province":"Sulawesi Barat","city":"Majene","district":"Sendana","urban":"Puttada","postal_code":91452},{"province":"Sulawesi Barat","city":"Majene","district":"Tubo (Tubo Sendana)","urban":"Onang Utara","postal_code":91452},{"province":"Sulawesi Barat","city":"Majene","district":"Sendana","urban":"Paminggalan","postal_code":91452},{"province":"Sulawesi Barat","city":"Majene","district":"Tubo (Tubo Sendana)","urban":"Onang Selatan","postal_code":91452},{"province":"Sulawesi Barat","city":"Majene","district":"Sendana","urban":"Mosso Dua","postal_code":91452},{"province":"Sulawesi Barat","city":"Majene","district":"Sendana","urban":"Mosso","postal_code":91452},{"province":"Sulawesi Barat","city":"Majene","district":"Tammeredo Sendana","urban":"Manyamba","postal_code":91452},{"province":"Sulawesi Barat","city":"Majene","district":"Sendana","urban":"Limboro Rambu-Rambu","postal_code":91452},{"province":"Sulawesi Barat","city":"Majene","district":"Sendana","urban":"Limbua","postal_code":91452},{"province":"Sulawesi Barat","city":"Majene","district":"Sendana","urban":"Lalatedzong","postal_code":91452},{"province":"Sulawesi Barat","city":"Majene","district":"Sendana","urban":"Leppangang","postal_code":91452},{"province":"Sulawesi Barat","city":"Majene","district":"Sendana","urban":"Bukit Samang","postal_code":91452},{"province":"Sulawesi Barat","city":"Majene","district":"Tubo (Tubo Sendana)","urban":"Bonde Bonde","postal_code":91452},{"province":"Sulawesi Barat","city":"Majene","district":"Sendana","urban":"Binanga","postal_code":91452},{"province":"Sulawesi Barat","city":"Majene","district":"Sendana","urban":"Banua Sendana","postal_code":91452},{"province":"Sulawesi Barat","city":"Majene","district":"Tammeredo Sendana","urban":"Awo","postal_code":91452}]