[{"province":"Sulawesi Barat","city":"Mamuju Utara","district":"Dapurang","urban":"Benggaulu","postal_code":91512},{"province":"Sulawesi Barat","city":"Mamuju","district":"Karossa","urban":"Tasokko","postal_code":91512},{"province":"Sulawesi Barat","city":"Mamuju","district":"Karossa","urban":"Sukamaju","postal_code":91512},{"province":"Sulawesi Barat","city":"Mamuju","district":"Simboro dan Kepulauan","urban":"Simboro","postal_code":91512},{"province":"Sulawesi Barat","city":"Mamuju","district":"Simboro dan Kepulauan","urban":"Rangas","postal_code":91512},{"province":"Sulawesi Barat","city":"Mamuju","district":"Simboro dan Kepulauan","urban":"Salletto","postal_code":91512},{"province":"Sulawesi Barat","city":"Mamuju","district":"Karossa","urban":"Lembah Hopo","postal_code":91512},{"province":"Sulawesi Barat","city":"Mamuju","district":"Karossa","urban":"Mora Benggaulu","postal_code":91512},{"province":"Sulawesi Barat","city":"Mamuju","district":"Karossa","urban":"Mora IV","postal_code":91512},{"province":"Sulawesi Barat","city":"Mamuju","district":"Karossa","urban":"Lara","postal_code":91512},{"province":"Sulawesi Barat","city":"Mamuju","district":"Karossa","urban":"Lara III","postal_code":91512},{"province":"Sulawesi Barat","city":"Mamuju","district":"Simboro dan Kepulauan","urban":"KUPTD Botteng I","postal_code":91512},{"province":"Sulawesi Barat","city":"Mamuju","district":"Simboro dan Kepulauan","urban":"KUPTD Botteng II","postal_code":91512},{"province":"Sulawesi Barat","city":"Mamuju","district":"Karossa","urban":"Kambunong","postal_code":91512},{"province":"Sulawesi Barat","city":"Mamuju","district":"Karossa","urban":"Karossa","postal_code":91512},{"province":"Sulawesi Barat","city":"Mamuju","district":"Karossa","urban":"Kayucalla","postal_code":91512},{"province":"Sulawesi Barat","city":"Mamuju","district":"Karossa","urban":"Kadaila","postal_code":91512},{"province":"Sulawesi Barat","city":"Mamuju","district":"Simboro dan Kepulauan","urban":"Botteng Utara","postal_code":91512},{"province":"Sulawesi Barat","city":"Mamuju","district":"Simboro dan Kepulauan","urban":"Botteng","postal_code":91512},{"province":"Sulawesi Barat","city":"Mamuju","district":"Kep. Bala Balakang","urban":"Bala Balakang","postal_code":91512},{"province":"Sulawesi Barat","city":"Mamuju","district":"Kep. Bala Balakang","urban":"Bala Balakang Timur","postal_code":91512}]