[{"province":"Sulawesi Barat","city":"Mamuju","district":"Tommo","urban":"Tommo","postal_code":91562},{"province":"Sulawesi Barat","city":"Mamuju","district":"Kalumpang","urban":"Tumonga","postal_code":91562},{"province":"Sulawesi Barat","city":"Mamuju","district":"Tommo","urban":"Tamejarra (Tammejarra)","postal_code":91562},{"province":"Sulawesi Barat","city":"Mamuju","district":"Tommo","urban":"Tamemongga","postal_code":91562},{"province":"Sulawesi Barat","city":"Mamuju","district":"Bonehau","urban":"Tamalea (Talondo I)","postal_code":91562},{"province":"Sulawesi Barat","city":"Mamuju","district":"Kalumpang","urban":"Sandapang","postal_code":91562},{"province":"Sulawesi Barat","city":"Mamuju","district":"Kalumpang","urban":"Siraun","postal_code":91562},{"province":"Sulawesi Barat","city":"Mamuju","district":"Tommo","urban":"Sandana","postal_code":91562},{"province":"Sulawesi Barat","city":"Mamuju","district":"Kalumpang","urban":"Salumakki","postal_code":91562},{"province":"Sulawesi Barat","city":"Mamuju","district":"Bonehau","urban":"Salutiwo","postal_code":91562},{"province":"Sulawesi Barat","city":"Mamuju","district":"Tommo","urban":"Rante Mario","postal_code":91562},{"province":"Sulawesi Barat","city":"Mamuju","district":"Tommo","urban":"Saludengen","postal_code":91562},{"province":"Sulawesi Barat","city":"Mamuju","district":"Bonehau","urban":"Mappu","postal_code":91562},{"province":"Sulawesi Barat","city":"Mamuju","district":"Kalumpang","urban":"Polio (Ba&#8217;san)","postal_code":91562},{"province":"Sulawesi Barat","city":"Mamuju","district":"Tommo","urban":"Malino","postal_code":91562},{"province":"Sulawesi Barat","city":"Mamuju","district":"Kalumpang","urban":"Makkaliki","postal_code":91562},{"province":"Sulawesi Barat","city":"Mamuju","district":"Bonehau","urban":"Lumika","postal_code":91562},{"province":"Sulawesi Barat","city":"Mamuju","district":"Bonehau","urban":"Lumika I","postal_code":91562},{"province":"Sulawesi Barat","city":"Mamuju","district":"Tommo","urban":"Leling Utara","postal_code":91562},{"province":"Sulawesi Barat","city":"Mamuju","district":"Kalumpang","urban":"Limbong","postal_code":91562},{"province":"Sulawesi Barat","city":"Mamuju","district":"Tommo","urban":"Leling","postal_code":91562},{"province":"Sulawesi Barat","city":"Mamuju","district":"Tommo","urban":"Leling Barat","postal_code":91562},{"province":"Sulawesi Barat","city":"Mamuju","district":"Kalumpang","urban":"Lasa","postal_code":91562},{"province":"Sulawesi Barat","city":"Mamuju","district":"Kalumpang","urban":"Kondo Bulo","postal_code":91562},{"province":"Sulawesi Barat","city":"Mamuju","district":"Bonehau","urban":"Kinatang","postal_code":91562},{"province":"Sulawesi Barat","city":"Mamuju","district":"Kalumpang","urban":"Karama","postal_code":91562},{"province":"Sulawesi Barat","city":"Mamuju","district":"Kalumpang","urban":"Karataun","postal_code":91562},{"province":"Sulawesi Barat","city":"Mamuju","district":"Tommo","urban":"Kalepu","postal_code":91562},{"province":"Sulawesi Barat","city":"Mamuju","district":"Kalumpang","urban":"Kalumpang","postal_code":91562},{"province":"Sulawesi Barat","city":"Mamuju","district":"Tommo","urban":"Campaloga","postal_code":91562},{"province":"Sulawesi Barat","city":"Mamuju","district":"Tommo","urban":"Kakulasang (Kakullasan)","postal_code":91562},{"province":"Sulawesi Barat","city":"Mamuju","district":"Bonehau","urban":"Hinua","postal_code":91562},{"province":"Sulawesi Barat","city":"Mamuju","district":"Tommo","urban":"Buana Sakti","postal_code":91562},{"province":"Sulawesi Barat","city":"Mamuju","district":"Bonehau","urban":"Buttuada","postal_code":91562},{"province":"Sulawesi Barat","city":"Mamuju","district":"Bonehau","urban":"Bonehau","postal_code":91562},{"province":"Sulawesi Barat","city":"Mamuju","district":"Kalumpang","urban":"Batu Makkada","postal_code":91562},{"province":"Sulawesi Barat","city":"Mamuju","district":"Bonehau","urban":"Banuada","postal_code":91562}]