[{"province":"Sulawesi Barat","city":"Mamuju","district":"Topoyo","urban":"Waeputeh","postal_code":91563},{"province":"Sulawesi Barat","city":"Mamuju","district":"Topoyo","urban":"Topoyo","postal_code":91563},{"province":"Sulawesi Barat","city":"Mamuju","district":"Topoyo","urban":"Tumbu","postal_code":91563},{"province":"Sulawesi Barat","city":"Mamuju","district":"Tobadak","urban":"Tobadak","postal_code":91563},{"province":"Sulawesi Barat","city":"Mamuju","district":"Papalang","urban":"Toabo","postal_code":91563},{"province":"Sulawesi Barat","city":"Mamuju","district":"Papalang","urban":"Topare (Tapore)","postal_code":91563},{"province":"Sulawesi Barat","city":"Mamuju","district":"Sampaga","urban":"Tarailu","postal_code":91563},{"province":"Sulawesi Barat","city":"Mamuju","district":"Budong-Budong","urban":"Tinali","postal_code":91563},{"province":"Sulawesi Barat","city":"Mamuju","district":"Topoyo","urban":"Tapilina (Tappilina)","postal_code":91563},{"province":"Sulawesi Barat","city":"Mamuju","district":"Topoyo","urban":"Tangkau (Tangkou)","postal_code":91563},{"province":"Sulawesi Barat","city":"Mamuju","district":"Sampaga","urban":"Tanam Buah (Tanambua)","postal_code":91563},{"province":"Sulawesi Barat","city":"Mamuju","district":"Topoyo","urban":"Tabolang","postal_code":91563},{"province":"Sulawesi Barat","city":"Mamuju","district":"Papalang","urban":"Sukadamai","postal_code":91563},{"province":"Sulawesi Barat","city":"Mamuju","district":"Papalang","urban":"Sisango","postal_code":91563},{"province":"Sulawesi Barat","city":"Mamuju","district":"Tobadak","urban":"Sejati","postal_code":91563},{"province":"Sulawesi Barat","city":"Mamuju","district":"Topoyo","urban":"Sinabatta","postal_code":91563},{"province":"Sulawesi Barat","city":"Mamuju","district":"Pangale","urban":"Sartanama","postal_code":91563},{"province":"Sulawesi Barat","city":"Mamuju","district":"Sampaga","urban":"Sampaga","postal_code":91563},{"province":"Sulawesi Barat","city":"Mamuju","district":"Topoyo","urban":"Salupangkang (Salopangkang)","postal_code":91563},{"province":"Sulawesi Barat","city":"Mamuju","district":"Topoyo","urban":"Salupangkang IV (Salupangkang IV)","postal_code":91563},{"province":"Sulawesi Barat","city":"Mamuju","district":"Budong-Budong","urban":"Salumanurung","postal_code":91563},{"province":"Sulawesi Barat","city":"Mamuju","district":"Papalang","urban":"Salukayu (Salokayu)","postal_code":91563},{"province":"Sulawesi Barat","city":"Mamuju","district":"Topoyo","urban":"Salulekbo","postal_code":91563},{"province":"Sulawesi Barat","city":"Mamuju","district":"Budong-Budong","urban":"Salugatta (Salogatta)","postal_code":91563},{"province":"Sulawesi Barat","city":"Mamuju","district":"Sampaga","urban":"Salubarana","postal_code":91563},{"province":"Sulawesi Barat","city":"Mamuju","district":"Tobadak","urban":"Salubaja (Salo Baja)","postal_code":91563},{"province":"Sulawesi Barat","city":"Mamuju","district":"Tobadak","urban":"Saluadak (Salo Adak)","postal_code":91563},{"province":"Sulawesi Barat","city":"Mamuju","district":"Budong-Budong","urban":"Pontanakayang","postal_code":91563},{"province":"Sulawesi Barat","city":"Mamuju","district":"Pangale","urban":"Polopangale","postal_code":91563},{"province":"Sulawesi Barat","city":"Mamuju","district":"Pangale","urban":"Pololereng","postal_code":91563},{"province":"Sulawesi Barat","city":"Mamuju","district":"Pangale","urban":"Polocamba","postal_code":91563},{"province":"Sulawesi Barat","city":"Mamuju","district":"Budong-Budong","urban":"Passapa (Pasapa)","postal_code":91563},{"province":"Sulawesi Barat","city":"Mamuju","district":"Topoyo","urban":"Paraili","postal_code":91563},{"province":"Sulawesi Barat","city":"Mamuju","district":"Papalang","urban":"Papalang","postal_code":91563},{"province":"Sulawesi Barat","city":"Mamuju","district":"Topoyo","urban":"Pangalloang","postal_code":91563},{"province":"Sulawesi Barat","city":"Mamuju","district":"Pangale","urban":"Pangale","postal_code":91563},{"province":"Sulawesi Barat","city":"Mamuju","district":"Tobadak","urban":"Mahahe","postal_code":91563},{"province":"Sulawesi Barat","city":"Mamuju","district":"Tobadak","urban":"Palongaan","postal_code":91563},{"province":"Sulawesi Barat","city":"Mamuju","district":"Budong-Budong","urban":"Lumu","postal_code":91563},{"province":"Sulawesi Barat","city":"Mamuju","district":"Pangale","urban":"Lemo-Lemo","postal_code":91563},{"province":"Sulawesi Barat","city":"Mamuju","district":"Sampaga","urban":"Losso","postal_code":91563},{"province":"Sulawesi Barat","city":"Mamuju","district":"Budong-Budong","urban":"Lembah Hada","postal_code":91563},{"province":"Sulawesi Barat","city":"Mamuju","district":"Pangale","urban":"Lamba-Lamba","postal_code":91563},{"province":"Sulawesi Barat","city":"Mamuju","district":"Pangale","urban":"Kombiling","postal_code":91563},{"province":"Sulawesi Barat","city":"Mamuju","district":"Pangale","urban":"Kuo","postal_code":91563},{"province":"Sulawesi Barat","city":"Mamuju","district":"Budong-Budong","urban":"Kire","postal_code":91563},{"province":"Sulawesi Barat","city":"Mamuju","district":"Sampaga","urban":"Kalonding","postal_code":91563},{"province":"Sulawesi Barat","city":"Mamuju","district":"Topoyo","urban":"Kabubu","postal_code":91563},{"province":"Sulawesi Barat","city":"Mamuju","district":"Sampaga","urban":"Bunde","postal_code":91563},{"province":"Sulawesi Barat","city":"Mamuju","district":"Topoyo","urban":"Budong-Budong","postal_code":91563},{"province":"Sulawesi Barat","city":"Mamuju","district":"Budong-Budong","urban":"Bojo","postal_code":91563},{"province":"Sulawesi Barat","city":"Mamuju","district":"Papalang","urban":"Bonda","postal_code":91563},{"province":"Sulawesi Barat","city":"Mamuju","district":"Papalang","urban":"Boda-Boda","postal_code":91563},{"province":"Sulawesi Barat","city":"Mamuju","district":"Tobadak","urban":"Batu Parigi","postal_code":91563},{"province":"Sulawesi Barat","city":"Mamuju","district":"Papalang","urban":"Batu Ampa","postal_code":91563},{"province":"Sulawesi Barat","city":"Mamuju","district":"Budong-Budong","urban":"Barakkang","postal_code":91563},{"province":"Sulawesi Barat","city":"Mamuju","district":"Topoyo","urban":"Bambamanurung","postal_code":91563},{"province":"Sulawesi Barat","city":"Mamuju","district":"Tobadak","urban":"Bambadaru","postal_code":91563},{"province":"Sulawesi Barat","city":"Mamuju","district":"Budong-Budong","urban":"Babana","postal_code":91563}]