[{"province":"Sulawesi Barat","city":"Mamuju Utara","district":"Tikke Raya","urban":"Tikke","postal_code":91571},{"province":"Sulawesi Barat","city":"Mamuju Utara","district":"Pasangkayu","urban":"Pedanda","postal_code":91571},{"province":"Sulawesi Barat","city":"Mamuju Utara","district":"Pedongga","urban":"Pedanda II","postal_code":91571},{"province":"Sulawesi Barat","city":"Mamuju Utara","district":"Pasangkayu","urban":"Pasangkayu","postal_code":91571},{"province":"Sulawesi Barat","city":"Mamuju Utara","district":"Pasangkayu","urban":"Martajaya","postal_code":91571},{"province":"Sulawesi Barat","city":"Mamuju Utara","district":"Pedongga","urban":"Martasari","postal_code":91571},{"province":"Sulawesi Barat","city":"Mamuju Utara","district":"Tikke Raya","urban":"Pajalele (Pakawa)","postal_code":91571},{"province":"Sulawesi Barat","city":"Mamuju Utara","district":"Pasangkayu","urban":"Malei","postal_code":91571},{"province":"Sulawesi Barat","city":"Mamuju Utara","district":"Pedongga","urban":"Malei II","postal_code":91571},{"province":"Sulawesi Barat","city":"Mamuju Utara","district":"Tikke Raya","urban":"Lariang","postal_code":91571},{"province":"Sulawesi Barat","city":"Mamuju Utara","district":"Tikke Raya","urban":"Makmur Jaya","postal_code":91571},{"province":"Sulawesi Barat","city":"Mamuju Utara","district":"Tikke Raya","urban":"Jengeng Raya","postal_code":91571},{"province":"Sulawesi Barat","city":"Mamuju Utara","district":"Pasangkayu","urban":"Karya Bersama","postal_code":91571},{"province":"Sulawesi Barat","city":"Mamuju Utara","district":"Pedongga","urban":"Batu Oge","postal_code":91571},{"province":"Sulawesi Barat","city":"Mamuju Utara","district":"Pasangkayu","urban":"Ako","postal_code":91571}]