[{"province":"Sulawesi Barat","city":"Mamuju Utara","district":"Baras","urban":"Towoni (Toroni)","postal_code":91572},{"province":"Sulawesi Barat","city":"Mamuju Utara","district":"Lariang","urban":"Singgani","postal_code":91572},{"province":"Sulawesi Barat","city":"Mamuju Utara","district":"Bulu Taba","urban":"Sumbersari","postal_code":91572},{"province":"Sulawesi Barat","city":"Mamuju Utara","district":"Bulu Taba","urban":"Ompi","postal_code":91572},{"province":"Sulawesi Barat","city":"Mamuju Utara","district":"Lariang","urban":"Parabu","postal_code":91572},{"province":"Sulawesi Barat","city":"Mamuju Utara","district":"Baras","urban":"Motu","postal_code":91572},{"province":"Sulawesi Barat","city":"Mamuju Utara","district":"Bulu Taba","urban":"Lilimori (Lelemori)","postal_code":91572},{"province":"Sulawesi Barat","city":"Mamuju Utara","district":"Lariang","urban":"Kulu","postal_code":91572},{"province":"Sulawesi Barat","city":"Mamuju Utara","district":"Bulu Taba","urban":"Lelejae","postal_code":91572},{"province":"Sulawesi Barat","city":"Mamuju Utara","district":"Lariang","urban":"Kenangan","postal_code":91572},{"province":"Sulawesi Barat","city":"Mamuju Utara","district":"Baras","urban":"Kasano","postal_code":91572},{"province":"Sulawesi Barat","city":"Mamuju Utara","district":"Bulu Taba","urban":"Kasta Buana","postal_code":91572},{"province":"Sulawesi Barat","city":"Mamuju Utara","district":"Baras","urban":"Bulu Parigi","postal_code":91572},{"province":"Sulawesi Barat","city":"Mamuju Utara","district":"Bulu Taba","urban":"Karave (Karabe)","postal_code":91572},{"province":"Sulawesi Barat","city":"Mamuju Utara","district":"Bulu Taba","urban":"Bukit Harapan","postal_code":91572},{"province":"Sulawesi Barat","city":"Mamuju Utara","district":"Lariang","urban":"Batu Matoru","postal_code":91572},{"province":"Sulawesi Barat","city":"Mamuju Utara","district":"Baras","urban":"Baras","postal_code":91572},{"province":"Sulawesi Barat","city":"Mamuju Utara","district":"Lariang","urban":"Bambakoro","postal_code":91572},{"province":"Sulawesi Barat","city":"Mamuju Utara","district":"Baras","urban":"Balanti","postal_code":91572},{"province":"Sulawesi Barat","city":"Mamuju Utara","district":"Lariang","urban":"Bajawali","postal_code":91572}]