[{"province":"Sulawesi Barat","city":"Mamuju Utara","district":"Duripoku","urban":"Taranggi","postal_code":91573},{"province":"Sulawesi Barat","city":"Mamuju Utara","district":"Dapurang","urban":"Tirta Buana","postal_code":91573},{"province":"Sulawesi Barat","city":"Mamuju Utara","district":"Duripoku","urban":"Sipakainga","postal_code":91573},{"province":"Sulawesi Barat","city":"Mamuju Utara","district":"Duripoku","urban":"Tammarunnang","postal_code":91573},{"province":"Sulawesi Barat","city":"Mamuju Utara","district":"Dapurang","urban":"Serasa","postal_code":91573},{"province":"Sulawesi Barat","city":"Mamuju Utara","district":"Sarudu","urban":"Sarudu","postal_code":91573},{"province":"Sulawesi Barat","city":"Mamuju Utara","district":"Duripoku","urban":"Saptanajaya","postal_code":91573},{"province":"Sulawesi Barat","city":"Mamuju Utara","district":"Sarudu","urban":"Kumasari","postal_code":91573},{"province":"Sulawesi Barat","city":"Mamuju Utara","district":"Sarudu","urban":"Patika","postal_code":91573},{"province":"Sulawesi Barat","city":"Mamuju Utara","district":"Sarudu","urban":"Doda","postal_code":91573},{"province":"Sulawesi Barat","city":"Mamuju Utara","district":"Dapurang","urban":"Dapurang","postal_code":91573},{"province":"Sulawesi Barat","city":"Mamuju Utara","district":"Sarudu","urban":"Bulu Mario","postal_code":91573},{"province":"Sulawesi Barat","city":"Mamuju Utara","district":"Dapurang","urban":"Bulu Bonggu","postal_code":91573}]