[{"province":"Sulawesi Barat","city":"Mamuju Utara","district":"Bambalamotu","urban":"Wulai","postal_code":91574},{"province":"Sulawesi Barat","city":"Mamuju Utara","district":"Bambaira","urban":"Tampaure","postal_code":91574},{"province":"Sulawesi Barat","city":"Mamuju Utara","district":"Sarjo","urban":"Sarjo","postal_code":91574},{"province":"Sulawesi Barat","city":"Mamuju Utara","district":"Sarjo","urban":"Sarude","postal_code":91574},{"province":"Sulawesi Barat","city":"Mamuju Utara","district":"Bambalamotu","urban":"Pangiang","postal_code":91574},{"province":"Sulawesi Barat","city":"Mamuju Utara","district":"Bambalamotu","urban":"Polewali","postal_code":91574},{"province":"Sulawesi Barat","city":"Mamuju Utara","district":"Bambalamotu","urban":"Randomayang","postal_code":91574},{"province":"Sulawesi Barat","city":"Mamuju Utara","district":"Sarjo","urban":"Letawa","postal_code":91574},{"province":"Sulawesi Barat","city":"Mamuju Utara","district":"Sarjo","urban":"Maponu","postal_code":91574},{"province":"Sulawesi Barat","city":"Mamuju Utara","district":"Bambaira","urban":"Kasoloang","postal_code":91574},{"province":"Sulawesi Barat","city":"Mamuju Utara","district":"Bambaira","urban":"Kalukunangka","postal_code":91574},{"province":"Sulawesi Barat","city":"Mamuju Utara","district":"Bambalamotu","urban":"Bambalamotu","postal_code":91574},{"province":"Sulawesi Barat","city":"Mamuju Utara","district":"Bambalamotu","urban":"Kalola","postal_code":91574},{"province":"Sulawesi Barat","city":"Mamuju Utara","district":"Bambaira","urban":"Bambaira","postal_code":91574}]