[{"province":"Sulawesi Selatan","city":"Sidenreng Rappang","district":"Maritengngae","urban":"Wala","postal_code":91611},{"province":"Sulawesi Selatan","city":"Sidenreng Rappang","district":"Maritengngae","urban":"Takkalasi","postal_code":91611},{"province":"Sulawesi Selatan","city":"Sidenreng Rappang","district":"Maritengngae","urban":"Tanete","postal_code":91611},{"province":"Sulawesi Selatan","city":"Sidenreng Rappang","district":"Maritengngae","urban":"Pangkajene","postal_code":91611},{"province":"Sulawesi Selatan","city":"Sidenreng Rappang","district":"Maritengngae","urban":"Rijang Pittu","postal_code":91611},{"province":"Sulawesi Selatan","city":"Sidenreng Rappang","district":"Maritengngae","urban":"Lautang Benteng","postal_code":91611},{"province":"Sulawesi Selatan","city":"Sidenreng Rappang","district":"Maritengngae","urban":"Majelling Watang","postal_code":91611},{"province":"Sulawesi Selatan","city":"Sidenreng Rappang","district":"Maritengngae","urban":"Majjelling","postal_code":91611},{"province":"Sulawesi Selatan","city":"Sidenreng Rappang","district":"Maritengngae","urban":"Kanie","postal_code":91611},{"province":"Sulawesi Selatan","city":"Sidenreng Rappang","district":"Maritengngae","urban":"Lakessi","postal_code":91611},{"province":"Sulawesi Selatan","city":"Sidenreng Rappang","district":"Maritengngae","urban":"Allakuang","postal_code":91611}]