[{"province":"Sulawesi Selatan","city":"Sidenreng Rappang","district":"Tellu Limpoe","urban":"Todang Pulu","postal_code":91662},{"province":"Sulawesi Selatan","city":"Sidenreng Rappang","district":"Tellu Limpoe","urban":"Teppo","postal_code":91662},{"province":"Sulawesi Selatan","city":"Sidenreng Rappang","district":"Tellu Limpoe","urban":"Teteaji","postal_code":91662},{"province":"Sulawesi Selatan","city":"Sidenreng Rappang","district":"Tellu Limpoe","urban":"Pajalele","postal_code":91662},{"province":"Sulawesi Selatan","city":"Sidenreng Rappang","district":"Tellu Limpoe","urban":"Polewali","postal_code":91662},{"province":"Sulawesi Selatan","city":"Sidenreng Rappang","district":"Tellu Limpoe","urban":"Baula","postal_code":91662},{"province":"Sulawesi Selatan","city":"Sidenreng Rappang","district":"Tellu Limpoe","urban":"Massepe","postal_code":91662},{"province":"Sulawesi Selatan","city":"Sidenreng Rappang","district":"Tellu Limpoe","urban":"Amparita","postal_code":91662},{"province":"Sulawesi Selatan","city":"Sidenreng Rappang","district":"Tellu Limpoe","urban":"Arateng","postal_code":91662}]