[{"province":"Sulawesi Selatan","city":"Sidenreng Rappang","district":"Watang Pulu","urban":"Uluale","postal_code":91661},{"province":"Sulawesi Selatan","city":"Sidenreng Rappang","district":"Watang Pulu","urban":"Lainungan","postal_code":91661},{"province":"Sulawesi Selatan","city":"Sidenreng Rappang","district":"Watang Pulu","urban":"Lawawoi","postal_code":91661},{"province":"Sulawesi Selatan","city":"Sidenreng Rappang","district":"Watang Pulu","urban":"Mattirotasi","postal_code":91661},{"province":"Sulawesi Selatan","city":"Sidenreng Rappang","district":"Watang Pulu","urban":"Carawali","postal_code":91661},{"province":"Sulawesi Selatan","city":"Sidenreng Rappang","district":"Watang Pulu","urban":"Ciro-Ciroe","postal_code":91661},{"province":"Sulawesi Selatan","city":"Sidenreng Rappang","district":"Watang Pulu","urban":"Batulappa","postal_code":91661},{"province":"Sulawesi Selatan","city":"Sidenreng Rappang","district":"Watang Pulu","urban":"Buae","postal_code":91661},{"province":"Sulawesi Selatan","city":"Sidenreng Rappang","district":"Watang Pulu","urban":"Arawa","postal_code":91661},{"province":"Sulawesi Selatan","city":"Sidenreng Rappang","district":"Watang Pulu","urban":"Bangkai","postal_code":91661}]