[{"province":"Sulawesi Selatan","city":"Bone","district":"Tellu Limpoe","urban":"Tondong","postal_code":91671},{"province":"Sulawesi Selatan","city":"Bone","district":"Tellu Limpoe","urban":"Tapong","postal_code":91671},{"province":"Sulawesi Selatan","city":"Bone","district":"Tellu Limpoe","urban":"Tellangkere","postal_code":91671},{"province":"Sulawesi Selatan","city":"Bone","district":"Tellu Limpoe","urban":"Samaenre","postal_code":91671},{"province":"Sulawesi Selatan","city":"Bone","district":"Tellu Limpoe","urban":"Polewali","postal_code":91671},{"province":"Sulawesi Selatan","city":"Bone","district":"Tellu Limpoe","urban":"Sadar","postal_code":91671},{"province":"Sulawesi Selatan","city":"Bone","district":"Tellu Limpoe","urban":"Pallawa","postal_code":91671},{"province":"Sulawesi Selatan","city":"Bone","district":"Tellu Limpoe","urban":"Pallawa","postal_code":91671},{"province":"Sulawesi Selatan","city":"Bone","district":"Tellu Limpoe","urban":"Lagori","postal_code":91671},{"province":"Sulawesi Selatan","city":"Bone","district":"Tellu Limpoe","urban":"Gaya Baru","postal_code":91671},{"province":"Sulawesi Selatan","city":"Bone","district":"Tellu Limpoe","urban":"Bonto Masunggu","postal_code":91671},{"province":"Sulawesi Selatan","city":"Bone","district":"Tellu Limpoe","urban":"Batu Putih","postal_code":91671},{"province":"Sulawesi Selatan","city":"Sinjai","district":"Tellu Limpoe","urban":"Tellu Limpoe","postal_code":91671},{"province":"Sulawesi Selatan","city":"Sinjai","district":"Tellu Limpoe","urban":"Saotengah","postal_code":91671},{"province":"Sulawesi Selatan","city":"Sinjai","district":"Tellu Limpoe","urban":"Sukamaju","postal_code":91671},{"province":"Sulawesi Selatan","city":"Sinjai","district":"Tellu Limpoe","urban":"Samaturue","postal_code":91671},{"province":"Sulawesi Selatan","city":"Sinjai","district":"Tellu Limpoe","urban":"Lembang Lohe","postal_code":91671},{"province":"Sulawesi Selatan","city":"Sinjai","district":"Tellu Limpoe","urban":"Mannanti","postal_code":91671},{"province":"Sulawesi Selatan","city":"Sinjai","district":"Tellu Limpoe","urban":"Massaile","postal_code":91671},{"province":"Sulawesi Selatan","city":"Sinjai","district":"Tellu Limpoe","urban":"Kalobba","postal_code":91671},{"province":"Sulawesi Selatan","city":"Sinjai","district":"Tellu Limpoe","urban":"Erabaru","postal_code":91671},{"province":"Sulawesi Selatan","city":"Sinjai","district":"Tellu Limpoe","urban":"Bua","postal_code":91671}]