[{"province":"Sulawesi Selatan","city":"Sidenreng Rappang","district":"Panca Lautan (Lautang)","urban":"Wanio Timoreng","postal_code":91672},{"province":"Sulawesi Selatan","city":"Sidenreng Rappang","district":"Panca Lautan (Lautang)","urban":"Wettee","postal_code":91672},{"province":"Sulawesi Selatan","city":"Sidenreng Rappang","district":"Panca Lautan (Lautang)","urban":"Lise","postal_code":91672},{"province":"Sulawesi Selatan","city":"Sidenreng Rappang","district":"Panca Lautan (Lautang)","urban":"Wanio","postal_code":91672},{"province":"Sulawesi Selatan","city":"Sidenreng Rappang","district":"Panca Lautan (Lautang)","urban":"Cenrana","postal_code":91672},{"province":"Sulawesi Selatan","city":"Sidenreng Rappang","district":"Panca Lautan (Lautang)","urban":"Corawali","postal_code":91672},{"province":"Sulawesi Selatan","city":"Sidenreng Rappang","district":"Panca Lautan (Lautang)","urban":"Lajonga","postal_code":91672},{"province":"Sulawesi Selatan","city":"Sidenreng Rappang","district":"Panca Lautan (Lautang)","urban":"Bapangi","postal_code":91672},{"province":"Sulawesi Selatan","city":"Sidenreng Rappang","district":"Panca Lautan (Lautang)","urban":"Bilokka","postal_code":91672},{"province":"Sulawesi Selatan","city":"Sidenreng Rappang","district":"Panca Lautan (Lautang)","urban":"Allesalewoe","postal_code":91672}]