[{"province":"Sulawesi Selatan","city":"Sidenreng Rappang","district":"Dua Pitue","urban":"Taccimpo","postal_code":91681},{"province":"Sulawesi Selatan","city":"Sidenreng Rappang","district":"Dua Pitue","urban":"Tanru Tedong","postal_code":91681},{"province":"Sulawesi Selatan","city":"Sidenreng Rappang","district":"Dua Pitue","urban":"Salobukkang","postal_code":91681},{"province":"Sulawesi Selatan","city":"Sidenreng Rappang","district":"Dua Pitue","urban":"Salomalori","postal_code":91681},{"province":"Sulawesi Selatan","city":"Sidenreng Rappang","district":"Dua Pitue","urban":"Kampale","postal_code":91681},{"province":"Sulawesi Selatan","city":"Sidenreng Rappang","district":"Dua Pitue","urban":"Padangloang","postal_code":91681},{"province":"Sulawesi Selatan","city":"Sidenreng Rappang","district":"Dua Pitue","urban":"Padangloang Alau","postal_code":91681},{"province":"Sulawesi Selatan","city":"Sidenreng Rappang","district":"Dua Pitue","urban":"Kalosi","postal_code":91681},{"province":"Sulawesi Selatan","city":"Sidenreng Rappang","district":"Dua Pitue","urban":"Kalosi Alau","postal_code":91681},{"province":"Sulawesi Selatan","city":"Sidenreng Rappang","district":"Dua Pitue","urban":"Bila","postal_code":91681}]