[{"province":"Sulawesi Selatan","city":"Enrekang","district":"Enrekang","urban":"Tungka","postal_code":91711},{"province":"Sulawesi Selatan","city":"Enrekang","district":"Enrekang","urban":"Tungka","postal_code":91711},{"province":"Sulawesi Selatan","city":"Enrekang","district":"Enrekang","urban":"Tokkonan","postal_code":91711},{"province":"Sulawesi Selatan","city":"Enrekang","district":"Enrekang","urban":"Tuara","postal_code":91711},{"province":"Sulawesi Selatan","city":"Enrekang","district":"Enrekang","urban":"Temban","postal_code":91711},{"province":"Sulawesi Selatan","city":"Enrekang","district":"Enrekang","urban":"Tobalu","postal_code":91711},{"province":"Sulawesi Selatan","city":"Enrekang","district":"Cendana","urban":"Taulan","postal_code":91711},{"province":"Sulawesi Selatan","city":"Enrekang","district":"Enrekang","urban":"Rossoan","postal_code":91711},{"province":"Sulawesi Selatan","city":"Enrekang","district":"Enrekang","urban":"Tallu Bamba","postal_code":91711},{"province":"Sulawesi Selatan","city":"Enrekang","district":"Enrekang","urban":"Puserren","postal_code":91711},{"province":"Sulawesi Selatan","city":"Enrekang","district":"Enrekang","urban":"Ranga","postal_code":91711},{"province":"Sulawesi Selatan","city":"Enrekang","district":"Cendana","urban":"Pinang","postal_code":91711},{"province":"Sulawesi Selatan","city":"Enrekang","district":"Cendana","urban":"Pundilemo","postal_code":91711},{"province":"Sulawesi Selatan","city":"Enrekang","district":"Cendana","urban":"Malalin","postal_code":91711},{"province":"Sulawesi Selatan","city":"Enrekang","district":"Enrekang","urban":"Lewaja","postal_code":91711},{"province":"Sulawesi Selatan","city":"Enrekang","district":"Cendana","urban":"Lebang","postal_code":91711},{"province":"Sulawesi Selatan","city":"Enrekang","district":"Enrekang","urban":"Lembang","postal_code":91711},{"province":"Sulawesi Selatan","city":"Enrekang","district":"Enrekang","urban":"Leoran","postal_code":91711},{"province":"Sulawesi Selatan","city":"Enrekang","district":"Cendana","urban":"Karrang","postal_code":91711},{"province":"Sulawesi Selatan","city":"Enrekang","district":"Enrekang","urban":"Karueng","postal_code":91711},{"province":"Sulawesi Selatan","city":"Enrekang","district":"Enrekang","urban":"Juppandang","postal_code":91711},{"province":"Sulawesi Selatan","city":"Enrekang","district":"Enrekang","urban":"Kaluppini","postal_code":91711},{"province":"Sulawesi Selatan","city":"Enrekang","district":"Cendana","urban":"Cendana","postal_code":91711},{"province":"Sulawesi Selatan","city":"Enrekang","district":"Enrekang","urban":"Cemba","postal_code":91711},{"province":"Sulawesi Selatan","city":"Enrekang","district":"Enrekang","urban":"Buttu Batu","postal_code":91711}]