[{"province":"Sulawesi Selatan","city":"Enrekang","district":"Masalle","urban":"Tongkonan Basse","postal_code":91754},{"province":"Sulawesi Selatan","city":"Enrekang","district":"Alla","urban":"Taulo","postal_code":91754},{"province":"Sulawesi Selatan","city":"Enrekang","district":"Baroko","urban":"Tongko","postal_code":91754},{"province":"Sulawesi Selatan","city":"Enrekang","district":"Curio","urban":"Tallungura","postal_code":91754},{"province":"Sulawesi Selatan","city":"Enrekang","district":"Alla","urban":"Sumillan","postal_code":91754},{"province":"Sulawesi Selatan","city":"Enrekang","district":"Curio","urban":"Salassa","postal_code":91754},{"province":"Sulawesi Selatan","city":"Enrekang","district":"Curio","urban":"Sanglepongan","postal_code":91754},{"province":"Sulawesi Selatan","city":"Enrekang","district":"Curio","urban":"Sumbang","postal_code":91754},{"province":"Sulawesi Selatan","city":"Enrekang","district":"Masalle","urban":"Rampunan","postal_code":91754},{"province":"Sulawesi Selatan","city":"Enrekang","district":"Baroko","urban":"Patongloan","postal_code":91754},{"province":"Sulawesi Selatan","city":"Enrekang","district":"Curio","urban":"Parombean","postal_code":91754},{"province":"Sulawesi Selatan","city":"Enrekang","district":"Alla","urban":"Pana","postal_code":91754},{"province":"Sulawesi Selatan","city":"Enrekang","district":"Masalle","urban":"Mundan","postal_code":91754},{"province":"Sulawesi Selatan","city":"Enrekang","district":"Curio","urban":"Pabaloran","postal_code":91754},{"province":"Sulawesi Selatan","city":"Enrekang","district":"Alla","urban":"Mata Allo","postal_code":91754},{"province":"Sulawesi Selatan","city":"Enrekang","district":"Curio","urban":"Mekkale (Mekkalak)","postal_code":91754},{"province":"Sulawesi Selatan","city":"Enrekang","district":"Curio","urban":"Mandalan","postal_code":91754},{"province":"Sulawesi Selatan","city":"Enrekang","district":"Masalle","urban":"Masalle","postal_code":91754},{"province":"Sulawesi Selatan","city":"Enrekang","district":"Alla","urban":"Kalosi","postal_code":91754},{"province":"Sulawesi Selatan","city":"Enrekang","district":"Alla","urban":"Kambiolangi","postal_code":91754},{"province":"Sulawesi Selatan","city":"Enrekang","district":"Alla","urban":"Buntu Sugi","postal_code":91754},{"province":"Sulawesi Selatan","city":"Enrekang","district":"Curio","urban":"Curio","postal_code":91754},{"province":"Sulawesi Selatan","city":"Enrekang","district":"Curio","urban":"Buntu Barana","postal_code":91754},{"province":"Sulawesi Selatan","city":"Enrekang","district":"Curio","urban":"Buntu Pema","postal_code":91754},{"province":"Sulawesi Selatan","city":"Enrekang","district":"Masalle","urban":"Buntu Sarong","postal_code":91754},{"province":"Sulawesi Selatan","city":"Enrekang","district":"Alla","urban":"Bolang","postal_code":91754},{"province":"Sulawesi Selatan","city":"Enrekang","district":"Baroko","urban":"Benteng Alla","postal_code":91754},{"province":"Sulawesi Selatan","city":"Enrekang","district":"Baroko","urban":"Benteng Alla Utara","postal_code":91754},{"province":"Sulawesi Selatan","city":"Enrekang","district":"Masalle","urban":"Batu Kede","postal_code":91754},{"province":"Sulawesi Selatan","city":"Enrekang","district":"Baroko","urban":"Baroko","postal_code":91754}]