[{"province":"Sulawesi Selatan","city":"Tana Toraja","district":"Makale","urban":"Tampo Makale","postal_code":91817},{"province":"Sulawesi Selatan","city":"Tana Toraja","district":"Makale","urban":"Tondon Mamullu","postal_code":91817},{"province":"Sulawesi Selatan","city":"Tana Toraja","district":"Makale Utara","urban":"Sarira","postal_code":91817},{"province":"Sulawesi Selatan","city":"Tana Toraja","district":"Makale Utara","urban":"Tambunan","postal_code":91817},{"province":"Sulawesi Selatan","city":"Tana Toraja","district":"Makale","urban":"Rante","postal_code":91817},{"province":"Sulawesi Selatan","city":"Tana Toraja","district":"Makale Utara","urban":"Lemo","postal_code":91817},{"province":"Sulawesi Selatan","city":"Tana Toraja","district":"Makale Utara","urban":"Lion Tondok Iring","postal_code":91817},{"province":"Sulawesi Selatan","city":"Tana Toraja","district":"Makale","urban":"Kamali Pentalluan","postal_code":91817},{"province":"Sulawesi Selatan","city":"Tana Toraja","district":"Makale","urban":"Lapandan","postal_code":91817},{"province":"Sulawesi Selatan","city":"Tana Toraja","district":"Makale","urban":"Lea","postal_code":91817},{"province":"Sulawesi Selatan","city":"Tana Toraja","district":"Makale","urban":"Buntu Burake","postal_code":91817},{"province":"Sulawesi Selatan","city":"Tana Toraja","district":"Makale","urban":"Botang","postal_code":91817}]