[{"province":"Sulawesi Selatan","city":"Toraja Utara","district":"Buntao","urban":"Tongkonan Basse","postal_code":91853},{"province":"Sulawesi Selatan","city":"Toraja Utara","district":"Bangkelekila","urban":"Toyasa Akung","postal_code":91853},{"province":"Sulawesi Selatan","city":"Toraja Utara","district":"Sesean Suloara","urban":"Tonga Riu","postal_code":91853},{"province":"Sulawesi Selatan","city":"Toraja Utara","district":"Bangkelekila","urban":"Tampan Bonga","postal_code":91853},{"province":"Sulawesi Selatan","city":"Toraja Utara","district":"Buntao","urban":"Tallang Sura&#8217;","postal_code":91853},{"province":"Sulawesi Selatan","city":"Toraja Utara","district":"Sesean Suloara","urban":"Suloara","postal_code":91853},{"province":"Sulawesi Selatan","city":"Toraja Utara","district":"Buntao","urban":"Sapan Kua Kua","postal_code":91853},{"province":"Sulawesi Selatan","city":"Toraja Utara","district":"Sesean Suloara","urban":"Sesean Matallo","postal_code":91853},{"province":"Sulawesi Selatan","city":"Toraja Utara","district":"Sa'dan","urban":"Sa&#8217; Dan Tiroallo","postal_code":91853},{"province":"Sulawesi Selatan","city":"Toraja Utara","district":"Sa'dan","urban":"Sa&#8217; Dan Ulusalu","postal_code":91853},{"province":"Sulawesi Selatan","city":"Toraja Utara","district":"Sa'dan","urban":"Sa&#8217; Dan Pebulian","postal_code":91853},{"province":"Sulawesi Selatan","city":"Toraja Utara","district":"Sa'dan","urban":"Sa&#8217; Dan Pesondongan","postal_code":91853},{"province":"Sulawesi Selatan","city":"Toraja Utara","district":"Sa'dan","urban":"Sa&#8217; Dan Sangkaropi","postal_code":91853},{"province":"Sulawesi Selatan","city":"Toraja Utara","district":"Sa'dan","urban":"Sa&#8217; Dan Malimbong","postal_code":91853},{"province":"Sulawesi Selatan","city":"Toraja Utara","district":"Sa'dan","urban":"Sa&#8217; Dan Matallo","postal_code":91853},{"province":"Sulawesi Selatan","city":"Toraja Utara","district":"Sa'dan","urban":"Sa&#8217; Dan Ballopasange","postal_code":91853},{"province":"Sulawesi Selatan","city":"Toraja Utara","district":"Sa'dan","urban":"Sa&#8217; Dan Liku Lambe","postal_code":91853},{"province":"Sulawesi Selatan","city":"Toraja Utara","district":"Sa'dan","urban":"Sa&#8217; Dan Andulan","postal_code":91853},{"province":"Sulawesi Selatan","city":"Toraja Utara","district":"Buntao","urban":"Rinding Kila&#8217; Balabatu","postal_code":91853},{"province":"Sulawesi Selatan","city":"Toraja Utara","district":"Rantebua","urban":"Rantebua Sumalu","postal_code":91853},{"province":"Sulawesi Selatan","city":"Toraja Utara","district":"Rantebua","urban":"Rantebua","postal_code":91853},{"province":"Sulawesi Selatan","city":"Toraja Utara","district":"Rantebua","urban":"Rantebua Sanggalagi","postal_code":91853},{"province":"Sulawesi Selatan","city":"Toraja Utara","district":"Sesean","urban":"Parinding","postal_code":91853},{"province":"Sulawesi Selatan","city":"Toraja Utara","district":"Rantebua","urban":"Pitung Penanian","postal_code":91853},{"province":"Sulawesi Selatan","city":"Toraja Utara","district":"Sesean","urban":"Pangli Palawa","postal_code":91853},{"province":"Sulawesi Selatan","city":"Toraja Utara","district":"Sesean","urban":"Pangli Selatan","postal_code":91853},{"province":"Sulawesi Selatan","city":"Toraja Utara","district":"Sesean","urban":"Palawa","postal_code":91853},{"province":"Sulawesi Selatan","city":"Toraja Utara","district":"Buntao","urban":"Misa Ba&#8217;Bana","postal_code":91853},{"province":"Sulawesi Selatan","city":"Toraja Utara","district":"Rantebua","urban":"Makuan Pare","postal_code":91853},{"province":"Sulawesi Selatan","city":"Toraja Utara","district":"Sesean Suloara","urban":"Landorundun","postal_code":91853},{"province":"Sulawesi Selatan","city":"Toraja Utara","district":"Sesean Suloara","urban":"Lempo","postal_code":91853},{"province":"Sulawesi Selatan","city":"Toraja Utara","district":"Buntao","urban":"Issong Kalua","postal_code":91853},{"province":"Sulawesi Selatan","city":"Toraja Utara","district":"Sesean","urban":"Bori Lombongan","postal_code":91853},{"province":"Sulawesi Selatan","city":"Toraja Utara","district":"Sesean","urban":"Buntulobo","postal_code":91853},{"province":"Sulawesi Selatan","city":"Toraja Utara","district":"Sesean","urban":"Bori Rante Letok","postal_code":91853},{"province":"Sulawesi Selatan","city":"Toraja Utara","district":"Sesean","urban":"Deri","postal_code":91853},{"province":"Sulawesi Selatan","city":"Toraja Utara","district":"Rantebua","urban":"Buangin","postal_code":91853},{"province":"Sulawesi Selatan","city":"Toraja Utara","district":"Sesean","urban":"Bori","postal_code":91853},{"province":"Sulawesi Selatan","city":"Toraja Utara","district":"Rantebua","urban":"Bokin","postal_code":91853},{"province":"Sulawesi Selatan","city":"Toraja Utara","district":"Bangkelekila","urban":"Bangkelekila","postal_code":91853},{"province":"Sulawesi Selatan","city":"Toraja Utara","district":"Bangkelekila","urban":"Batu Limbong","postal_code":91853}]