[{"province":"Sulawesi Selatan","city":"Luwu Utara","district":"Limbong","urban":"Rinding Allo","postal_code":91854},{"province":"Sulawesi Selatan","city":"Tana Toraja","district":"Masanda","urban":"Sese Salu (Sese&#8217;alu)","postal_code":91854},{"province":"Sulawesi Selatan","city":"Tana Toraja","district":"Masanda","urban":"Ratte","postal_code":91854},{"province":"Sulawesi Selatan","city":"Tana Toraja","district":"Masanda","urban":"Pondingao","postal_code":91854},{"province":"Sulawesi Selatan","city":"Tana Toraja","district":"Masanda","urban":"Paku","postal_code":91854},{"province":"Sulawesi Selatan","city":"Tana Toraja","district":"Masanda","urban":"Paliorong","postal_code":91854},{"province":"Sulawesi Selatan","city":"Tana Toraja","district":"Masanda","urban":"Kadungdung","postal_code":91854},{"province":"Sulawesi Selatan","city":"Tana Toraja","district":"Masanda","urban":"Belau","postal_code":91854},{"province":"Sulawesi Selatan","city":"Tana Toraja","district":"Masanda","urban":"Belau Utara","postal_code":91854},{"province":"Sulawesi Selatan","city":"Toraja Utara","district":"Kapalla Pitu (Kapala Pitu)","urban":"Sikuku","postal_code":91854},{"province":"Sulawesi Selatan","city":"Toraja Utara","district":"Buntu Pepasan","urban":"Talimbangan","postal_code":91854},{"province":"Sulawesi Selatan","city":"Toraja Utara","district":"Buntu Pepasan","urban":"Sarambu","postal_code":91854},{"province":"Sulawesi Selatan","city":"Toraja Utara","district":"Buntu Pepasan","urban":"Roroan Bara-Bara","postal_code":91854},{"province":"Sulawesi Selatan","city":"Toraja Utara","district":"Buntu Pepasan","urban":"Sapan","postal_code":91854},{"province":"Sulawesi Selatan","city":"Toraja Utara","district":"Rindingallo","urban":"Rindingallo","postal_code":91854},{"province":"Sulawesi Selatan","city":"Toraja Utara","district":"Buntu Pepasan","urban":"Pulu Pulu","postal_code":91854},{"province":"Sulawesi Selatan","city":"Toraja Utara","district":"Buntu Pepasan","urban":"Rante Uma","postal_code":91854},{"province":"Sulawesi Selatan","city":"Toraja Utara","district":"Buntu Pepasan","urban":"Ponglu","postal_code":91854},{"province":"Sulawesi Selatan","city":"Toraja Utara","district":"Kapalla Pitu (Kapala Pitu)","urban":"Polo Padang","postal_code":91854},{"province":"Sulawesi Selatan","city":"Toraja Utara","district":"Buntu Pepasan","urban":"Parandangan","postal_code":91854},{"province":"Sulawesi Selatan","city":"Toraja Utara","district":"Buntu Pepasan","urban":"Pengkaroan Manuk (Pangkoroan Manuk)","postal_code":91854},{"province":"Sulawesi Selatan","city":"Toraja Utara","district":"Buntu Pepasan","urban":"Pangkung Batu","postal_code":91854},{"province":"Sulawesi Selatan","city":"Toraja Utara","district":"Buntu Pepasan","urban":"Paonganan","postal_code":91854},{"province":"Sulawesi Selatan","city":"Toraja Utara","district":"Rindingallo","urban":"Pangala Utara","postal_code":91854},{"province":"Sulawesi Selatan","city":"Toraja Utara","district":"Rindingallo","urban":"Pangala","postal_code":91854},{"province":"Sulawesi Selatan","city":"Toraja Utara","district":"Rindingallo","urban":"Maiting","postal_code":91854},{"province":"Sulawesi Selatan","city":"Toraja Utara","district":"Awan Rante Karua","urban":"Londong Biang","postal_code":91854},{"province":"Sulawesi Selatan","city":"Toraja Utara","district":"Rindingallo","urban":"Limbong Malting","postal_code":91854},{"province":"Sulawesi Selatan","city":"Toraja Utara","district":"Rindingallo","urban":"Lo Ko Uru Tanete Batu","postal_code":91854},{"province":"Sulawesi Selatan","city":"Toraja Utara","district":"Rindingallo","urban":"Lempopoton","postal_code":91854},{"province":"Sulawesi Selatan","city":"Toraja Utara","district":"Kapalla Pitu (Kapala Pitu)","urban":"Kantun Poya","postal_code":91854},{"province":"Sulawesi Selatan","city":"Toraja Utara","district":"Kapalla Pitu (Kapala Pitu)","urban":"Kapala Pitu","postal_code":91854},{"province":"Sulawesi Selatan","city":"Toraja Utara","district":"Buntu Pepasan","urban":"Buntu Minanga","postal_code":91854},{"province":"Sulawesi Selatan","city":"Toraja Utara","district":"Rindingallo","urban":"Buntu Batu","postal_code":91854},{"province":"Sulawesi Selatan","city":"Toraja Utara","district":"Awan Rante Karua","urban":"Buntu Karua","postal_code":91854},{"province":"Sulawesi Selatan","city":"Toraja Utara","district":"Kapalla Pitu (Kapala Pitu)","urban":"Benteng Kado","postal_code":91854},{"province":"Sulawesi Selatan","city":"Toraja Utara","district":"Kapalla Pitu (Kapala Pitu)","urban":"Benteng Mamulu","postal_code":91854},{"province":"Sulawesi Selatan","city":"Toraja Utara","district":"Buntu Pepasan","urban":"Batu Busa (Batu Basa)","postal_code":91854},{"province":"Sulawesi Selatan","city":"Toraja Utara","district":"Awan Rante Karua","urban":"Batu Lotong","postal_code":91854},{"province":"Sulawesi Selatan","city":"Toraja Utara","district":"Baruppu","urban":"Baruppu Selatan","postal_code":91854},{"province":"Sulawesi Selatan","city":"Toraja Utara","district":"Baruppu","urban":"Baruppu Utara","postal_code":91854},{"province":"Sulawesi Selatan","city":"Toraja Utara","district":"Baruppu","urban":"Baruppu Benteng Batu","postal_code":91854},{"province":"Sulawesi Selatan","city":"Toraja Utara","district":"Baruppu","urban":"Baruppu Parodo","postal_code":91854},{"province":"Sulawesi Selatan","city":"Toraja Utara","district":"Awan Rante Karua","urban":"Awan","postal_code":91854},{"province":"Sulawesi Selatan","city":"Toraja Utara","district":"Rindingallo","urban":"Ampang Batu (Appang)","postal_code":91854}]