[{"province":"Sulawesi Selatan","city":"Toraja Utara","district":"Sanggalangi","urban":"Tallung Penanian","postal_code":91852},{"province":"Sulawesi Selatan","city":"Toraja Utara","district":"Sanggalangi","urban":"Tandung La&#8217;bo&#8217;","postal_code":91852},{"province":"Sulawesi Selatan","city":"Toraja Utara","district":"Kesu","urban":"Sangbua (Sangubua)","postal_code":91852},{"province":"Sulawesi Selatan","city":"Toraja Utara","district":"Kesu","urban":"Tadongkon","postal_code":91852},{"province":"Sulawesi Selatan","city":"Toraja Utara","district":"Kesu","urban":"Tallulolo","postal_code":91852},{"province":"Sulawesi Selatan","city":"Toraja Utara","district":"Sopai","urban":"Salu","postal_code":91852},{"province":"Sulawesi Selatan","city":"Toraja Utara","district":"Sopai","urban":"Salu Rante","postal_code":91852},{"province":"Sulawesi Selatan","city":"Toraja Utara","district":"Kesu","urban":"Rinding Batu","postal_code":91852},{"province":"Sulawesi Selatan","city":"Toraja Utara","district":"Sanggalangi","urban":"Pata&#8217; Padang","postal_code":91852},{"province":"Sulawesi Selatan","city":"Toraja Utara","district":"Kesu","urban":"Pantanakan Lolo","postal_code":91852},{"province":"Sulawesi Selatan","city":"Toraja Utara","district":"Sanggalangi","urban":"La&#8217;Bo","postal_code":91852},{"province":"Sulawesi Selatan","city":"Toraja Utara","district":"Sanggalangi","urban":"Paepalean","postal_code":91852},{"province":"Sulawesi Selatan","city":"Toraja Utara","district":"Kesu","urban":"Ba&#8217;tan","postal_code":91852},{"province":"Sulawesi Selatan","city":"Toraja Utara","district":"Sanggalangi","urban":"Buntu La&#8217;Bo","postal_code":91852},{"province":"Sulawesi Selatan","city":"Toraja Utara","district":"Kesu","urban":"Angin Angin","postal_code":91852}]