[{"province":"Sulawesi Selatan","city":"Toraja Utara","district":"Tondon","urban":"Tondon Siba Ta","postal_code":91855},{"province":"Sulawesi Selatan","city":"Toraja Utara","district":"Tondon","urban":"Tondon","postal_code":91855},{"province":"Sulawesi Selatan","city":"Toraja Utara","district":"Tondon","urban":"Tondon Langi","postal_code":91855},{"province":"Sulawesi Selatan","city":"Toraja Utara","district":"Tondon","urban":"Tondon Matallo","postal_code":91855},{"province":"Sulawesi Selatan","city":"Toraja Utara","district":"Nanggala","urban":"Rante","postal_code":91855},{"province":"Sulawesi Selatan","city":"Toraja Utara","district":"Nanggala","urban":"Tandung Nanggala","postal_code":91855},{"province":"Sulawesi Selatan","city":"Toraja Utara","district":"Balusu","urban":"Tagari","postal_code":91855},{"province":"Sulawesi Selatan","city":"Toraja Utara","district":"Nanggala","urban":"Nanna Nanggala","postal_code":91855},{"province":"Sulawesi Selatan","city":"Toraja Utara","district":"Balusu","urban":"Palangi","postal_code":91855},{"province":"Sulawesi Selatan","city":"Toraja Utara","district":"Nanggala","urban":"Nanggala","postal_code":91855},{"province":"Sulawesi Selatan","city":"Toraja Utara","district":"Nanggala","urban":"Nanggala Sangpiak Salu","postal_code":91855},{"province":"Sulawesi Selatan","city":"Toraja Utara","district":"Nanggala","urban":"Lilikira","postal_code":91855},{"province":"Sulawesi Selatan","city":"Toraja Utara","district":"Balusu","urban":"Karua","postal_code":91855},{"province":"Sulawesi Selatan","city":"Toraja Utara","district":"Nanggala","urban":"Karre Penanian","postal_code":91855},{"province":"Sulawesi Selatan","city":"Toraja Utara","district":"Nanggala","urban":"Basokan","postal_code":91855},{"province":"Sulawesi Selatan","city":"Toraja Utara","district":"Nanggala","urban":"Karre Limbong","postal_code":91855},{"province":"Sulawesi Selatan","city":"Toraja Utara","district":"Balusu","urban":"Balusu Bangun Lipu","postal_code":91855},{"province":"Sulawesi Selatan","city":"Toraja Utara","district":"Balusu","urban":"Balusu Ao Gading","postal_code":91855},{"province":"Sulawesi Selatan","city":"Toraja Utara","district":"Balusu","urban":"Awak Kawasik","postal_code":91855},{"province":"Sulawesi Selatan","city":"Toraja Utara","district":"Balusu","urban":"Balusu","postal_code":91855}]