[{"province":"Sulawesi Selatan","city":"Tana Toraja","district":"Rembon","urban":"Ullin","postal_code":91861},{"province":"Sulawesi Selatan","city":"Tana Toraja","district":"Rembon","urban":"Talion","postal_code":91861},{"province":"Sulawesi Selatan","city":"Tana Toraja","district":"Rembon","urban":"To&#8217; Pao","postal_code":91861},{"province":"Sulawesi Selatan","city":"Tana Toraja","district":"Saluputti","urban":"Salutandung","postal_code":91861},{"province":"Sulawesi Selatan","city":"Tana Toraja","district":"Rembon","urban":"Sarapeang","postal_code":91861},{"province":"Sulawesi Selatan","city":"Tana Toraja","district":"Saluputti","urban":"Salu","postal_code":91861},{"province":"Sulawesi Selatan","city":"Tana Toraja","district":"Saluputti","urban":"Salu Boronan","postal_code":91861},{"province":"Sulawesi Selatan","city":"Tana Toraja","district":"Saluputti","urban":"Sa&#8217;tandung","postal_code":91861},{"province":"Sulawesi Selatan","city":"Tana Toraja","district":"Rembon","urban":"Rembon","postal_code":91861},{"province":"Sulawesi Selatan","city":"Tana Toraja","district":"Saluputti","urban":"Ratte Talonge","postal_code":91861},{"province":"Sulawesi Selatan","city":"Tana Toraja","district":"Saluputti","urban":"Rea Tulak Langi","postal_code":91861},{"province":"Sulawesi Selatan","city":"Tana Toraja","district":"Saluputti","urban":"Ra&#8217;bung","postal_code":91861},{"province":"Sulawesi Selatan","city":"Tana Toraja","district":"Rembon","urban":"Palesan","postal_code":91861},{"province":"Sulawesi Selatan","city":"Tana Toraja","district":"Saluputti","urban":"Pattan Ulusalu","postal_code":91861},{"province":"Sulawesi Selatan","city":"Tana Toraja","district":"Rembon","urban":"Maroson","postal_code":91861},{"province":"Sulawesi Selatan","city":"Tana Toraja","district":"Malimbong Balepe","urban":"Malimbong","postal_code":91861},{"province":"Sulawesi Selatan","city":"Tana Toraja","district":"Rembon","urban":"Limbong","postal_code":91861},{"province":"Sulawesi Selatan","city":"Tana Toraja","district":"Malimbong Balepe","urban":"Leppan (Lepan)","postal_code":91861},{"province":"Sulawesi Selatan","city":"Tana Toraja","district":"Malimbong Balepe","urban":"Kole Sawangan","postal_code":91861},{"province":"Sulawesi Selatan","city":"Tana Toraja","district":"Malimbong Balepe","urban":"Lemo Menduruk","postal_code":91861},{"province":"Sulawesi Selatan","city":"Tana Toraja","district":"Rembon","urban":"Kayu Osing (Kayosing)","postal_code":91861},{"province":"Sulawesi Selatan","city":"Tana Toraja","district":"Malimbong Balepe","urban":"Kole Barebatu","postal_code":91861},{"province":"Sulawesi Selatan","city":"Tana Toraja","district":"Rembon","urban":"Bua Tarrung","postal_code":91861},{"province":"Sulawesi Selatan","city":"Tana Toraja","district":"Rembon","urban":"Buri","postal_code":91861},{"province":"Sulawesi Selatan","city":"Tana Toraja","district":"Saluputti","urban":"Batu Tiakka","postal_code":91861},{"province":"Sulawesi Selatan","city":"Tana Toraja","district":"Rembon","urban":"Batu Sura","postal_code":91861},{"province":"Sulawesi Selatan","city":"Tana Toraja","district":"Rembon","urban":"Banga","postal_code":91861},{"province":"Sulawesi Selatan","city":"Tana Toraja","district":"Malimbong Balepe","urban":"Balepe","postal_code":91861}]