[{"province":"Sulawesi Selatan","city":"Tana Toraja","district":"Rantetayo","urban":"Tonglo","postal_code":91862},{"province":"Sulawesi Selatan","city":"Tana Toraja","district":"Rantetayo","urban":"Taparan Utara","postal_code":91862},{"province":"Sulawesi Selatan","city":"Tana Toraja","district":"Rantetayo","urban":"Tapparan","postal_code":91862},{"province":"Sulawesi Selatan","city":"Tana Toraja","district":"Rantetayo","urban":"Rantetayo","postal_code":91862},{"province":"Sulawesi Selatan","city":"Tana Toraja","district":"Kurra","urban":"Rante Limbong","postal_code":91862},{"province":"Sulawesi Selatan","city":"Tana Toraja","district":"Kurra","urban":"Rante Kurra","postal_code":91862},{"province":"Sulawesi Selatan","city":"Tana Toraja","district":"Rantetayo","urban":"Padangiring","postal_code":91862},{"province":"Sulawesi Selatan","city":"Tana Toraja","district":"Kurra","urban":"Maroson","postal_code":91862},{"province":"Sulawesi Selatan","city":"Tana Toraja","district":"Rantetayo","urban":"Madandan","postal_code":91862},{"province":"Sulawesi Selatan","city":"Tana Toraja","district":"Kurra","urban":"Lipungan Tanete","postal_code":91862},{"province":"Sulawesi Selatan","city":"Tana Toraja","district":"Kurra","urban":"Limbong Sangpolo","postal_code":91862},{"province":"Sulawesi Selatan","city":"Tana Toraja","district":"Kurra","urban":"Bambalu","postal_code":91862},{"province":"Sulawesi Selatan","city":"Toraja Utara","district":"Dende' Piongan Napo","urban":"Pasang","postal_code":91862},{"province":"Sulawesi Selatan","city":"Toraja Utara","district":"Dende' Piongan Napo","urban":"Piongan","postal_code":91862},{"province":"Sulawesi Selatan","city":"Toraja Utara","district":"Dende' Piongan Napo","urban":"Paku","postal_code":91862},{"province":"Sulawesi Selatan","city":"Toraja Utara","district":"Dende' Piongan Napo","urban":"Parinding","postal_code":91862},{"province":"Sulawesi Selatan","city":"Toraja Utara","district":"Dende' Piongan Napo","urban":"Ma Dong","postal_code":91862},{"province":"Sulawesi Selatan","city":"Toraja Utara","district":"Dende' Piongan Napo","urban":"Dende","postal_code":91862},{"province":"Sulawesi Selatan","city":"Toraja Utara","district":"Dende' Piongan Napo","urban":"Kapolang","postal_code":91862},{"province":"Sulawesi Selatan","city":"Toraja Utara","district":"Dende' Piongan Napo","urban":"Buntu Tagari","postal_code":91862}]