[{"province":"Sulawesi Selatan","city":"Tana Toraja","district":"Mappak","urban":"Tanete","postal_code":91873},{"province":"Sulawesi Selatan","city":"Tana Toraja","district":"Simbuang","urban":"Simbuang","postal_code":91873},{"province":"Sulawesi Selatan","city":"Tana Toraja","district":"Simbuang","urban":"Simbuang Batuallo","postal_code":91873},{"province":"Sulawesi Selatan","city":"Tana Toraja","district":"Simbuang","urban":"Sima","postal_code":91873},{"province":"Sulawesi Selatan","city":"Tana Toraja","district":"Mappak","urban":"Sangpeparikan (Sengpoarikan)","postal_code":91873},{"province":"Sulawesi Selatan","city":"Tana Toraja","district":"Simbuang","urban":"Puang Bembe Mesakada (Ponghembe)","postal_code":91873},{"province":"Sulawesi Selatan","city":"Tana Toraja","district":"Simbuang","urban":"Pongbembe","postal_code":91873},{"province":"Sulawesi Selatan","city":"Tana Toraja","district":"Mappak","urban":"Miallo","postal_code":91873},{"province":"Sulawesi Selatan","city":"Tana Toraja","district":"Simbuang","urban":"Makkodo","postal_code":91873},{"province":"Sulawesi Selatan","city":"Tana Toraja","district":"Mappak","urban":"Kondo Dewata","postal_code":91873},{"province":"Sulawesi Selatan","city":"Tana Toraja","district":"Mappak","urban":"Butang","postal_code":91873},{"province":"Sulawesi Selatan","city":"Tana Toraja","district":"Mappak","urban":"Dewata","postal_code":91873}]