[{"province":"Sulawesi Selatan","city":"Tana Toraja","district":"Bonggakaradeng","urban":"Ratte Buttu","postal_code":91872},{"province":"Sulawesi Selatan","city":"Tana Toraja","district":"Rano","urban":"Rumandan","postal_code":91872},{"province":"Sulawesi Selatan","city":"Tana Toraja","district":"Rano","urban":"Rano Timur","postal_code":91872},{"province":"Sulawesi Selatan","city":"Tana Toraja","district":"Rano","urban":"Rano Utara","postal_code":91872},{"province":"Sulawesi Selatan","city":"Tana Toraja","district":"Rano","urban":"Rano","postal_code":91872},{"province":"Sulawesi Selatan","city":"Tana Toraja","district":"Rano","urban":"Rano Tengah","postal_code":91872},{"province":"Sulawesi Selatan","city":"Tana Toraja","district":"Bonggakaradeng","urban":"Poton","postal_code":91872},{"province":"Sulawesi Selatan","city":"Tana Toraja","district":"Bonggakaradeng","urban":"Mappa&#8217;","postal_code":91872},{"province":"Sulawesi Selatan","city":"Tana Toraja","district":"Bonggakaradeng","urban":"Bau Selatan","postal_code":91872},{"province":"Sulawesi Selatan","city":"Tana Toraja","district":"Bonggakaradeng","urban":"Bua Kayu","postal_code":91872},{"province":"Sulawesi Selatan","city":"Tana Toraja","district":"Bonggakaradeng","urban":"Bau","postal_code":91872}]