[{"province":"Sulawesi Selatan","city":"Tana Toraja","district":"Mengkendek","urban":"Uluway Barat","postal_code":91871},{"province":"Sulawesi Selatan","city":"Tana Toraja","district":"Mengkendek","urban":"Tengan","postal_code":91871},{"province":"Sulawesi Selatan","city":"Tana Toraja","district":"Mengkendek","urban":"Uluway (Uluwai)","postal_code":91871},{"province":"Sulawesi Selatan","city":"Tana Toraja","district":"Mengkendek","urban":"Simbuang","postal_code":91871},{"province":"Sulawesi Selatan","city":"Tana Toraja","district":"Mengkendek","urban":"Tampo","postal_code":91871},{"province":"Sulawesi Selatan","city":"Tana Toraja","district":"Gandang Batu Sillanan","urban":"Sillanan","postal_code":91871},{"province":"Sulawesi Selatan","city":"Tana Toraja","district":"Mengkendek","urban":"Rantedada","postal_code":91871},{"province":"Sulawesi Selatan","city":"Tana Toraja","district":"Gandang Batu Sillanan","urban":"Salubarani","postal_code":91871},{"province":"Sulawesi Selatan","city":"Tana Toraja","district":"Mengkendek","urban":"Randanan","postal_code":91871},{"province":"Sulawesi Selatan","city":"Tana Toraja","district":"Mengkendek","urban":"Rante Kalua","postal_code":91871},{"province":"Sulawesi Selatan","city":"Tana Toraja","district":"Gandang Batu Sillanan","urban":"Perindingan","postal_code":91871},{"province":"Sulawesi Selatan","city":"Tana Toraja","district":"Gandang Batu Sillanan","urban":"Pemanukan","postal_code":91871},{"province":"Sulawesi Selatan","city":"Tana Toraja","district":"Gandang Batu Sillanan","urban":"Pemanukan","postal_code":91871},{"province":"Sulawesi Selatan","city":"Tana Toraja","district":"Mengkendek","urban":"Pa&#8217;Tengko","postal_code":91871},{"province":"Sulawesi Selatan","city":"Tana Toraja","district":"Mengkendek","urban":"Pakala","postal_code":91871},{"province":"Sulawesi Selatan","city":"Tana Toraja","district":"Gandang Batu Sillanan","urban":"Mebali","postal_code":91871},{"province":"Sulawesi Selatan","city":"Tana Toraja","district":"Mengkendek","urban":"Lemo","postal_code":91871},{"province":"Sulawesi Selatan","city":"Tana Toraja","district":"Mengkendek","urban":"Marinding","postal_code":91871},{"province":"Sulawesi Selatan","city":"Tana Toraja","district":"Mengkendek","urban":"Kandora","postal_code":91871},{"province":"Sulawesi Selatan","city":"Tana Toraja","district":"Mengkendek","urban":"Ke Pe Tinoring","postal_code":91871},{"province":"Sulawesi Selatan","city":"Tana Toraja","district":"Mengkendek","urban":"Gasing","postal_code":91871},{"province":"Sulawesi Selatan","city":"Tana Toraja","district":"Gandang Batu Sillanan","urban":"Garassik","postal_code":91871},{"province":"Sulawesi Selatan","city":"Tana Toraja","district":"Gandang Batu Sillanan","urban":"Kaduaja","postal_code":91871},{"province":"Sulawesi Selatan","city":"Tana Toraja","district":"Mengkendek","urban":"Buntu Tangti","postal_code":91871},{"province":"Sulawesi Selatan","city":"Tana Toraja","district":"Gandang Batu Sillanan","urban":"Gandangbatu","postal_code":91871},{"province":"Sulawesi Selatan","city":"Tana Toraja","district":"Gandang Batu Sillanan","urban":"Buntu Limbong","postal_code":91871},{"province":"Sulawesi Selatan","city":"Tana Toraja","district":"Gandang Batu Sillanan","urban":"Buntu Tabang","postal_code":91871},{"province":"Sulawesi Selatan","city":"Tana Toraja","district":"Mengkendek","urban":"Buntu Datu (Batu)","postal_code":91871},{"province":"Sulawesi Selatan","city":"Tana Toraja","district":"Gandang Batu Sillanan","urban":"Benteng Deata","postal_code":91871},{"province":"Sulawesi Selatan","city":"Tana Toraja","district":"Gandang Batu Sillanan","urban":"Bentengambeso","postal_code":91871}]