[{"province":"Sulawesi Selatan","city":"Tana Toraja","district":"Sangalla Utara","urban":"Tumbang Datu","postal_code":91881},{"province":"Sulawesi Selatan","city":"Tana Toraja","district":"Sangalla (Sanggala)","urban":"Turunan","postal_code":91881},{"province":"Sulawesi Selatan","city":"Tana Toraja","district":"Sangalla Selatan","urban":"Tokesan","postal_code":91881},{"province":"Sulawesi Selatan","city":"Tana Toraja","district":"Sangalla Utara","urban":"Saluallo","postal_code":91881},{"province":"Sulawesi Selatan","city":"Tana Toraja","district":"Sangalla (Sanggala)","urban":"Tongko Sarapung","postal_code":91881},{"province":"Sulawesi Selatan","city":"Tana Toraja","district":"Sangalla Selatan","urban":"Raru Sibunuan","postal_code":91881},{"province":"Sulawesi Selatan","city":"Tana Toraja","district":"Sangalla Utara","urban":"Ratele Bi Kambisa","postal_code":91881},{"province":"Sulawesi Selatan","city":"Tana Toraja","district":"Sangalla Selatan","urban":"Rante Alang","postal_code":91881},{"province":"Sulawesi Selatan","city":"Tana Toraja","district":"Sangalla Utara","urban":"Leatung Matallo","postal_code":91881},{"province":"Sulawesi Selatan","city":"Tana Toraja","district":"Sangalla Utara","urban":"Leatung","postal_code":91881},{"province":"Sulawesi Selatan","city":"Tana Toraja","district":"Sangalla (Sanggala)","urban":"Kaero","postal_code":91881},{"province":"Sulawesi Selatan","city":"Tana Toraja","district":"Sangalla (Sanggala)","urban":"Buntu Masakke","postal_code":91881},{"province":"Sulawesi Selatan","city":"Tana Toraja","district":"Sangalla (Sanggala)","urban":"Bulian Massabu","postal_code":91881},{"province":"Sulawesi Selatan","city":"Tana Toraja","district":"Sangalla Utara","urban":"Bebo","postal_code":91881},{"province":"Sulawesi Selatan","city":"Tana Toraja","district":"Sangalla Selatan","urban":"Batualu","postal_code":91881},{"province":"Sulawesi Selatan","city":"Tana Toraja","district":"Sangalla Selatan","urban":"Batualu Selatan","postal_code":91881}]