[{"province":"Sulawesi Selatan","city":"Luwu","district":"Latimojong","urban":"Ulusalu","postal_code":91921},{"province":"Sulawesi Selatan","city":"Luwu","district":"Latimojong","urban":"Tobaru","postal_code":91921},{"province":"Sulawesi Selatan","city":"Luwu","district":"Latimojong","urban":"To&#8217;lajuk","postal_code":91921},{"province":"Sulawesi Selatan","city":"Luwu","district":"Latimojong","urban":"Tabang","postal_code":91921},{"province":"Sulawesi Selatan","city":"Luwu","district":"Latimojong","urban":"Tibussan","postal_code":91921},{"province":"Sulawesi Selatan","city":"Luwu","district":"Latimojong","urban":"Pajang","postal_code":91921},{"province":"Sulawesi Selatan","city":"Luwu","district":"Latimojong","urban":"Pangi","postal_code":91921},{"province":"Sulawesi Selatan","city":"Luwu","district":"Latimojong","urban":"Lambanan","postal_code":91921},{"province":"Sulawesi Selatan","city":"Luwu","district":"Latimojong","urban":"Kadundung","postal_code":91921},{"province":"Sulawesi Selatan","city":"Luwu","district":"Latimojong","urban":"Buntu Sarek","postal_code":91921},{"province":"Sulawesi Selatan","city":"Luwu","district":"Latimojong","urban":"Boneposi","postal_code":91921},{"province":"Sulawesi Selatan","city":"Palopo","district":"Wara","urban":"Tompo Tikka","postal_code":91921},{"province":"Sulawesi Selatan","city":"Palopo","district":"Wara Barat","urban":"Tomarundung","postal_code":91921},{"province":"Sulawesi Selatan","city":"Palopo","district":"Wara Timur","urban":"Salekoe","postal_code":91921},{"province":"Sulawesi Selatan","city":"Palopo","district":"Wara Timur","urban":"Salotellue","postal_code":91921},{"province":"Sulawesi Selatan","city":"Palopo","district":"Wara Timur","urban":"Sarutanga","postal_code":91921},{"province":"Sulawesi Selatan","city":"Palopo","district":"Wara Timur","urban":"Pontap","postal_code":91921},{"province":"Sulawesi Selatan","city":"Palopo","district":"Wara Timur","urban":"Pontap","postal_code":91921},{"province":"Sulawesi Selatan","city":"Palopo","district":"Wara Timur","urban":"Ponjalae","postal_code":91921},{"province":"Sulawesi Selatan","city":"Palopo","district":"Wara Barat","urban":"Padang Lambe","postal_code":91921},{"province":"Sulawesi Selatan","city":"Palopo","district":"Wara","urban":"Pajalesang (Panjelesang)","postal_code":91921},{"province":"Sulawesi Selatan","city":"Palopo","district":"Mungkajang","urban":"Mungkajang","postal_code":91921},{"province":"Sulawesi Selatan","city":"Palopo","district":"Wara Timur","urban":"Malatuntung (Malatunrung)","postal_code":91921},{"province":"Sulawesi Selatan","city":"Palopo","district":"Mungkajang","urban":"Latuppa","postal_code":91921},{"province":"Sulawesi Selatan","city":"Palopo","district":"Wara Barat","urban":"Lebang","postal_code":91921},{"province":"Sulawesi Selatan","city":"Palopo","district":"Wara","urban":"Lagaligo","postal_code":91921},{"province":"Sulawesi Selatan","city":"Palopo","district":"Wara","urban":"Dangerekko","postal_code":91921},{"province":"Sulawesi Selatan","city":"Palopo","district":"Wara Timur","urban":"Benteng","postal_code":91921},{"province":"Sulawesi Selatan","city":"Palopo","district":"Wara Barat","urban":"Battang Barat","postal_code":91921}]