[{"province":"Sulawesi Selatan","city":"Luwu","district":"Walenrang","urban":"Walenrang","postal_code":91951},{"province":"Sulawesi Selatan","city":"Luwu","district":"Walenrang Timur","urban":"Tanete","postal_code":91951},{"province":"Sulawesi Selatan","city":"Luwu","district":"Walenrang","urban":"Tombang","postal_code":91951},{"province":"Sulawesi Selatan","city":"Luwu","district":"Walenrang Timur","urban":"Sukadamai","postal_code":91951},{"province":"Sulawesi Selatan","city":"Luwu","district":"Walenrang Timur","urban":"Taba (Tabah)","postal_code":91951},{"province":"Sulawesi Selatan","city":"Luwu","district":"Walenrang","urban":"Saragi","postal_code":91951},{"province":"Sulawesi Selatan","city":"Luwu","district":"Walenrang Timur","urban":"Seba-Seba","postal_code":91951},{"province":"Sulawesi Selatan","city":"Luwu","district":"Lamasi Timur","urban":"Pompengan Pantai","postal_code":91951},{"province":"Sulawesi Selatan","city":"Luwu","district":"Walenrang Timur","urban":"Rante Damai","postal_code":91951},{"province":"Sulawesi Selatan","city":"Luwu","district":"Lamasi Timur","urban":"Pompengan","postal_code":91951},{"province":"Sulawesi Selatan","city":"Luwu","district":"Walenrang Timur","urban":"Pangalli","postal_code":91951},{"province":"Sulawesi Selatan","city":"Luwu","district":"Walenrang","urban":"Lalong","postal_code":91951},{"province":"Sulawesi Selatan","city":"Luwu","district":"Walenrang Timur","urban":"Kendekan","postal_code":91951},{"province":"Sulawesi Selatan","city":"Luwu","district":"Walenrang Timur","urban":"Lamasi Pantai","postal_code":91951},{"province":"Sulawesi Selatan","city":"Luwu","district":"Walenrang","urban":"Kalibamamase","postal_code":91951},{"province":"Sulawesi Selatan","city":"Luwu","district":"Walenrang Barat","urban":"Ilan Batu","postal_code":91951},{"province":"Sulawesi Selatan","city":"Luwu","district":"Walenrang Barat","urban":"Ilan Batu Uru","postal_code":91951},{"province":"Sulawesi Selatan","city":"Luwu","district":"Walenrang","urban":"Harapan","postal_code":91951},{"province":"Sulawesi Selatan","city":"Luwu","district":"Lamasi Timur","urban":"Bulolondong","postal_code":91951},{"province":"Sulawesi Selatan","city":"Luwu","district":"Walenrang","urban":"Bulo","postal_code":91951},{"province":"Sulawesi Selatan","city":"Luwu","district":"Walenrang","urban":"Bara Mamase","postal_code":91951},{"province":"Sulawesi Selatan","city":"Luwu","district":"Walenrang","urban":"Batusitanduk","postal_code":91951}]