[{"province":"Sulawesi Selatan","city":"Luwu","district":"Lamasi","urban":"To Pongo","postal_code":91952},{"province":"Sulawesi Selatan","city":"Luwu","district":"Lamasi","urban":"Wiwitan","postal_code":91952},{"province":"Sulawesi Selatan","city":"Luwu","district":"Lamasi Timur","urban":"To Lemo","postal_code":91952},{"province":"Sulawesi Selatan","city":"Luwu","district":"Walenrang Utara","urban":"Siteba","postal_code":91952},{"province":"Sulawesi Selatan","city":"Luwu","district":"Lamasi","urban":"Se Pong","postal_code":91952},{"province":"Sulawesi Selatan","city":"Luwu","district":"Lamasi","urban":"Setiarejo","postal_code":91952},{"province":"Sulawesi Selatan","city":"Luwu","district":"Lamasi Timur","urban":"Seriti","postal_code":91952},{"province":"Sulawesi Selatan","city":"Luwu","district":"Walenrang Utara","urban":"Salutubu","postal_code":91952},{"province":"Sulawesi Selatan","city":"Luwu","district":"Walenrang Utara","urban":"Sangtandung","postal_code":91952},{"province":"Sulawesi Selatan","city":"Luwu","district":"Walenrang Utara","urban":"Salulino","postal_code":91952},{"province":"Sulawesi Selatan","city":"Luwu","district":"Walenrang Utara","urban":"Salulino","postal_code":91952},{"province":"Sulawesi Selatan","city":"Luwu","district":"Lamasi","urban":"Pongsamelung","postal_code":91952},{"province":"Sulawesi Selatan","city":"Luwu","district":"Lamasi","urban":"Salu Jambu","postal_code":91952},{"province":"Sulawesi Selatan","city":"Luwu","district":"Lamasi Timur","urban":"Pompengan Timur","postal_code":91952},{"province":"Sulawesi Selatan","city":"Luwu","district":"Walenrang Utara","urban":"Pongko","postal_code":91952},{"province":"Sulawesi Selatan","city":"Luwu","district":"Lamasi Timur","urban":"Pompengan Tengah","postal_code":91952},{"province":"Sulawesi Selatan","city":"Luwu","district":"Lamasi Timur","urban":"Pelalan","postal_code":91952},{"province":"Sulawesi Selatan","city":"Luwu","district":"Lamasi","urban":"Padang Kalua","postal_code":91952},{"province":"Sulawesi Selatan","city":"Luwu","district":"Walenrang Utara","urban":"Limbong","postal_code":91952},{"province":"Sulawesi Selatan","city":"Luwu","district":"Walenrang Utara","urban":"Marabuana","postal_code":91952},{"province":"Sulawesi Selatan","city":"Luwu","district":"Walenrang Barat","urban":"Lewandi","postal_code":91952},{"province":"Sulawesi Selatan","city":"Luwu","district":"Walenrang Barat","urban":"Lempe","postal_code":91952},{"province":"Sulawesi Selatan","city":"Luwu","district":"Walenrang Barat","urban":"Lempe Pasang","postal_code":91952},{"province":"Sulawesi Selatan","city":"Luwu","district":"Lamasi","urban":"Lamasi I","postal_code":91952},{"province":"Sulawesi Selatan","city":"Luwu","district":"Walenrang Barat","urban":"Lamasi Hulu","postal_code":91952},{"province":"Sulawesi Selatan","city":"Luwu","district":"Walenrang Utara","urban":"Buntu Awo","postal_code":91952},{"province":"Sulawesi Selatan","city":"Luwu","district":"Lamasi","urban":"Lamasi","postal_code":91952},{"province":"Sulawesi Selatan","city":"Luwu","district":"Walenrang Utara","urban":"Bosso Timur","postal_code":91952},{"province":"Sulawesi Selatan","city":"Luwu","district":"Walenrang Utara","urban":"Bosso","postal_code":91952},{"province":"Sulawesi Selatan","city":"Luwu","district":"Lamasi","urban":"Awo Gading","postal_code":91952},{"province":"Sulawesi Selatan","city":"Luwu","district":"Walenrang Utara","urban":"Bolong","postal_code":91952}]