[{"province":"Sulawesi Selatan","city":"Luwu Utara","district":"Bone-Bone","urban":"Tamuku","postal_code":91966},{"province":"Sulawesi Selatan","city":"Luwu Utara","district":"Tana Lili","urban":"Sumberdadi","postal_code":91966},{"province":"Sulawesi Selatan","city":"Luwu Utara","district":"Bone-Bone","urban":"Sukaraya","postal_code":91966},{"province":"Sulawesi Selatan","city":"Luwu Utara","district":"Tana Lili","urban":"Sidomakmur","postal_code":91966},{"province":"Sulawesi Selatan","city":"Luwu Utara","district":"Bone-Bone","urban":"Sidomukti","postal_code":91966},{"province":"Sulawesi Selatan","city":"Luwu Utara","district":"Tana Lili","urban":"Sidobinangun","postal_code":91966},{"province":"Sulawesi Selatan","city":"Luwu Utara","district":"Bone-Bone","urban":"Sadar","postal_code":91966},{"province":"Sulawesi Selatan","city":"Luwu Utara","district":"Tana Lili","urban":"Poreang","postal_code":91966},{"province":"Sulawesi Selatan","city":"Luwu Utara","district":"Tana Lili","urban":"Rampoang","postal_code":91966},{"province":"Sulawesi Selatan","city":"Luwu Utara","district":"Bone-Bone","urban":"Pongko","postal_code":91966},{"province":"Sulawesi Selatan","city":"Luwu Utara","district":"Bone-Bone","urban":"Patoloan","postal_code":91966},{"province":"Sulawesi Selatan","city":"Luwu Utara","district":"Bone-Bone","urban":"Muktisari","postal_code":91966},{"province":"Sulawesi Selatan","city":"Luwu Utara","district":"Tana Lili","urban":"Munte","postal_code":91966},{"province":"Sulawesi Selatan","city":"Luwu Utara","district":"Tana Lili","urban":"Patila","postal_code":91966},{"province":"Sulawesi Selatan","city":"Luwu Utara","district":"Tana Lili","urban":"Karondang","postal_code":91966},{"province":"Sulawesi Selatan","city":"Luwu Utara","district":"Tana Lili","urban":"Bungadidi","postal_code":91966},{"province":"Sulawesi Selatan","city":"Luwu Utara","district":"Tana Lili","urban":"Bungapati","postal_code":91966},{"province":"Sulawesi Selatan","city":"Luwu Utara","district":"Bone-Bone","urban":"Banyu Urip","postal_code":91966},{"province":"Sulawesi Selatan","city":"Luwu Utara","district":"Bone-Bone","urban":"Batang Tongka","postal_code":91966},{"province":"Sulawesi Selatan","city":"Luwu Utara","district":"Bone-Bone","urban":"Bone Bone","postal_code":91966},{"province":"Sulawesi Selatan","city":"Luwu Utara","district":"Bone-Bone","urban":"Bantimurung","postal_code":91966}]