[{"province":"Sulawesi Selatan","city":"Luwu","district":"Suli Barat","urban":"Tallang","postal_code":91996},{"province":"Sulawesi Selatan","city":"Luwu","district":"Suli","urban":"Towondo (Towondu)","postal_code":91996},{"province":"Sulawesi Selatan","city":"Luwu","district":"Suli Barat","urban":"Salubua","postal_code":91996},{"province":"Sulawesi Selatan","city":"Luwu","district":"Suli","urban":"Suli","postal_code":91996},{"province":"Sulawesi Selatan","city":"Luwu","district":"Suli Barat","urban":"Poringan","postal_code":91996},{"province":"Sulawesi Selatan","city":"Luwu","district":"Suli","urban":"Papakaju","postal_code":91996},{"province":"Sulawesi Selatan","city":"Luwu","district":"Suli","urban":"Murante","postal_code":91996},{"province":"Sulawesi Selatan","city":"Luwu","district":"Suli","urban":"Padang Lambe","postal_code":91996},{"province":"Sulawesi Selatan","city":"Luwu","district":"Suli Barat","urban":"Muhajirin","postal_code":91996},{"province":"Sulawesi Selatan","city":"Luwu","district":"Suli","urban":"Malela","postal_code":91996},{"province":"Sulawesi Selatan","city":"Luwu","district":"Suli Barat","urban":"Lindajang","postal_code":91996},{"province":"Sulawesi Selatan","city":"Luwu","district":"Suli","urban":"Lempo Pacci","postal_code":91996},{"province":"Sulawesi Selatan","city":"Luwu","district":"Suli Barat","urban":"Kaladi Darussalam","postal_code":91996},{"province":"Sulawesi Selatan","city":"Luwu","district":"Suli","urban":"Kasiwiang","postal_code":91996},{"province":"Sulawesi Selatan","city":"Luwu","district":"Suli Barat","urban":"Kaili","postal_code":91996},{"province":"Sulawesi Selatan","city":"Luwu","district":"Suli","urban":"Cimpu Utara","postal_code":91996},{"province":"Sulawesi Selatan","city":"Luwu","district":"Suli","urban":"Cakkeawo","postal_code":91996},{"province":"Sulawesi Selatan","city":"Luwu","district":"Suli","urban":"Cimpu","postal_code":91996},{"province":"Sulawesi Selatan","city":"Luwu","district":"Suli Barat","urban":"Buntu Barana","postal_code":91996},{"province":"Sulawesi Selatan","city":"Luwu","district":"Suli","urban":"Buntu Kunyi","postal_code":91996},{"province":"Sulawesi Selatan","city":"Luwu","district":"Suli","urban":"Botta","postal_code":91996}]