[{"province":"Sulawesi Selatan","city":"Luwu","district":"Belopa","urban":"Tanamanai","postal_code":91994},{"province":"Sulawesi Selatan","city":"Luwu","district":"Kamanre","urban":"Wara","postal_code":91994},{"province":"Sulawesi Selatan","city":"Luwu","district":"Belopa","urban":"Tampumia Radda","postal_code":91994},{"province":"Sulawesi Selatan","city":"Luwu","district":"Belopa","urban":"Tampumia Radda","postal_code":91994},{"province":"Sulawesi Selatan","city":"Luwu","district":"Belopa","urban":"Senga Selatan","postal_code":91994},{"province":"Sulawesi Selatan","city":"Luwu","district":"Belopa Utara","urban":"Seppong","postal_code":91994},{"province":"Sulawesi Selatan","city":"Luwu","district":"Kamanre","urban":"Saluparemang Selatan","postal_code":91994},{"province":"Sulawesi Selatan","city":"Luwu","district":"Belopa","urban":"Senga","postal_code":91994},{"province":"Sulawesi Selatan","city":"Luwu","district":"Kamanre","urban":"Salu Paremang","postal_code":91994},{"province":"Sulawesi Selatan","city":"Luwu","district":"Belopa Utara","urban":"Sabe","postal_code":91994},{"province":"Sulawesi Selatan","city":"Luwu","district":"Belopa","urban":"Pasamai","postal_code":91994},{"province":"Sulawesi Selatan","city":"Luwu","district":"Belopa Utara","urban":"Pammanu","postal_code":91994},{"province":"Sulawesi Selatan","city":"Luwu","district":"Kamanre","urban":"Libukang","postal_code":91994},{"province":"Sulawesi Selatan","city":"Luwu","district":"Belopa Utara","urban":"Paconne","postal_code":91994},{"province":"Sulawesi Selatan","city":"Luwu","district":"Belopa Utara","urban":"Lauwa","postal_code":91994},{"province":"Sulawesi Selatan","city":"Luwu","district":"Belopa Utara","urban":"Lebani","postal_code":91994},{"province":"Sulawesi Selatan","city":"Luwu","district":"Belopa Utara","urban":"Lamunre","postal_code":91994},{"province":"Sulawesi Selatan","city":"Luwu","district":"Belopa Utara","urban":"Lamunre Tengah","postal_code":91994},{"province":"Sulawesi Selatan","city":"Luwu","district":"Kamanre","urban":"Kamanre","postal_code":91994},{"province":"Sulawesi Selatan","city":"Luwu","district":"Belopa","urban":"Kurrusumanga","postal_code":91994},{"province":"Sulawesi Selatan","city":"Luwu","district":"Kamanre","urban":"Bunga Eja","postal_code":91994},{"province":"Sulawesi Selatan","city":"Luwu","district":"Kamanre","urban":"Cilallang","postal_code":91994},{"province":"Sulawesi Selatan","city":"Luwu","district":"Belopa","urban":"Belopa","postal_code":91994},{"province":"Sulawesi Selatan","city":"Luwu","district":"Belopa","urban":"Balo- Balo","postal_code":91994},{"province":"Sulawesi Selatan","city":"Luwu","district":"Belopa","urban":"Balubu","postal_code":91994}]