[{"province":"Sulawesi Selatan","city":"Luwu","district":"Bua Ponrang (Bupon)","urban":"Tampumia","postal_code":91993},{"province":"Sulawesi Selatan","city":"Luwu","district":"Bua Ponrang (Bupon)","urban":"Tanjong","postal_code":91993},{"province":"Sulawesi Selatan","city":"Luwu","district":"Bua Ponrang (Bupon)","urban":"Padang Ma Bud","postal_code":91993},{"province":"Sulawesi Selatan","city":"Luwu","district":"Bua Ponrang (Bupon)","urban":"Padang Tuju","postal_code":91993},{"province":"Sulawesi Selatan","city":"Luwu","district":"Bua Ponrang (Bupon)","urban":"Saluinduk","postal_code":91993},{"province":"Sulawesi Selatan","city":"Luwu","district":"Bua Ponrang (Bupon)","urban":"Noling","postal_code":91993},{"province":"Sulawesi Selatan","city":"Luwu","district":"Bua Ponrang (Bupon)","urban":"Padang Kamburi","postal_code":91993},{"province":"Sulawesi Selatan","city":"Luwu","district":"Bua Ponrang (Bupon)","urban":"Buntu Batu","postal_code":91993},{"province":"Sulawesi Selatan","city":"Luwu","district":"Bua Ponrang (Bupon)","urban":"Malenggang","postal_code":91993},{"province":"Sulawesi Selatan","city":"Luwu","district":"Bua Ponrang (Bupon)","urban":"Balutan","postal_code":91993}]