[{"province":"Sulawesi Selatan","city":"Luwu","district":"Bajo Barat","urban":"Tetekang","postal_code":91995},{"province":"Sulawesi Selatan","city":"Luwu","district":"Bajo Barat","urban":"Tumbu Barak","postal_code":91995},{"province":"Sulawesi Selatan","city":"Luwu","district":"Bajo","urban":"Sumabu","postal_code":91995},{"province":"Sulawesi Selatan","city":"Luwu","district":"Bajo","urban":"Tallang Bulawang","postal_code":91995},{"province":"Sulawesi Selatan","city":"Luwu","district":"Bajo Barat","urban":"Saronda","postal_code":91995},{"province":"Sulawesi Selatan","city":"Luwu","district":"Bajo","urban":"Samulang","postal_code":91995},{"province":"Sulawesi Selatan","city":"Luwu","district":"Bajo Barat","urban":"Sampeang","postal_code":91995},{"province":"Sulawesi Selatan","city":"Luwu","district":"Bajo","urban":"Sampa","postal_code":91995},{"province":"Sulawesi Selatan","city":"Luwu","district":"Bajo","urban":"Rumaju","postal_code":91995},{"province":"Sulawesi Selatan","city":"Luwu","district":"Bajo","urban":"Saga","postal_code":91995},{"province":"Sulawesi Selatan","city":"Luwu","district":"Bajo Barat","urban":"Marinding","postal_code":91995},{"province":"Sulawesi Selatan","city":"Luwu","district":"Bajo","urban":"Pangi","postal_code":91995},{"province":"Sulawesi Selatan","city":"Luwu","district":"Bajo Barat","urban":"Kadong-Kadong","postal_code":91995},{"province":"Sulawesi Selatan","city":"Luwu","district":"Bajo","urban":"Langkiddi","postal_code":91995},{"province":"Sulawesi Selatan","city":"Luwu","district":"Bajo","urban":"Buntu Babang","postal_code":91995},{"province":"Sulawesi Selatan","city":"Luwu","district":"Bajo","urban":"Jambu","postal_code":91995},{"province":"Sulawesi Selatan","city":"Luwu","district":"Bajo Barat","urban":"Bonelemo Utara","postal_code":91995},{"province":"Sulawesi Selatan","city":"Luwu","district":"Bajo Barat","urban":"Bonelemo Barat","postal_code":91995},{"province":"Sulawesi Selatan","city":"Luwu","district":"Bajo","urban":"Balla","postal_code":91995},{"province":"Sulawesi Selatan","city":"Luwu","district":"Bajo Barat","urban":"Bonelemo","postal_code":91995},{"province":"Sulawesi Selatan","city":"Luwu","district":"Bajo","urban":"Bajo","postal_code":91995}]