[{"province":"Sulawesi Selatan","city":"Luwu","district":"Basse Sangtempe Utara","urban":"Urasu (Uraso)","postal_code":91992},{"province":"Sulawesi Selatan","city":"Luwu","district":"Bassesang Tempe (Bastem)","urban":"To Long","postal_code":91992},{"province":"Sulawesi Selatan","city":"Luwu","district":"Basse Sangtempe Utara","urban":"Tede","postal_code":91992},{"province":"Sulawesi Selatan","city":"Luwu","district":"Basse Sangtempe Utara","urban":"Ta&#8217;ba","postal_code":91992},{"province":"Sulawesi Selatan","city":"Luwu","district":"Basse Sangtempe Utara","urban":"Tasangtongkonan","postal_code":91992},{"province":"Sulawesi Selatan","city":"Luwu","district":"Bassesang Tempe (Bastem)","urban":"Tabi","postal_code":91992},{"province":"Sulawesi Selatan","city":"Luwu","district":"Basse Sangtempe Utara","urban":"Salubua","postal_code":91992},{"province":"Sulawesi Selatan","city":"Luwu","district":"Bassesang Tempe (Bastem)","urban":"Sinaji","postal_code":91992},{"province":"Sulawesi Selatan","city":"Luwu","district":"Basse Sangtempe Utara","urban":"Pantilang","postal_code":91992},{"province":"Sulawesi Selatan","city":"Luwu","district":"Bassesang Tempe (Bastem)","urban":"Mappetajang","postal_code":91992},{"province":"Sulawesi Selatan","city":"Luwu","district":"Basse Sangtempe Utara","urban":"Maindo","postal_code":91992},{"province":"Sulawesi Selatan","city":"Luwu","district":"Bassesang Tempe (Bastem)","urban":"Lissaga","postal_code":91992},{"province":"Sulawesi Selatan","city":"Luwu","district":"Bassesang Tempe (Bastem)","urban":"Lange","postal_code":91992},{"province":"Sulawesi Selatan","city":"Luwu","district":"Bassesang Tempe (Bastem)","urban":"Ledan","postal_code":91992},{"province":"Sulawesi Selatan","city":"Luwu","district":"Basse Sangtempe Utara","urban":"Karatuan","postal_code":91992},{"province":"Sulawesi Selatan","city":"Luwu","district":"Bassesang Tempe (Bastem)","urban":"Kanna","postal_code":91992},{"province":"Sulawesi Selatan","city":"Luwu","district":"Bassesang Tempe (Bastem)","urban":"Kanna Utara","postal_code":91992},{"province":"Sulawesi Selatan","city":"Luwu","district":"Basse Sangtempe Utara","urban":"Dampan","postal_code":91992},{"province":"Sulawesi Selatan","city":"Luwu","district":"Basse Sangtempe Utara","urban":"Buntu Tallang","postal_code":91992},{"province":"Sulawesi Selatan","city":"Luwu","district":"Bassesang Tempe (Bastem)","urban":"Buntu Batu","postal_code":91992},{"province":"Sulawesi Selatan","city":"Luwu","district":"Basse Sangtempe Utara","urban":"Bonglo","postal_code":91992},{"province":"Sulawesi Selatan","city":"Luwu","district":"Bassesang Tempe (Bastem)","urban":"Bolu","postal_code":91992},{"province":"Sulawesi Selatan","city":"Luwu","district":"Basse Sangtempe Utara","urban":"Barana","postal_code":91992},{"province":"Sulawesi Selatan","city":"Luwu","district":"Bassesang Tempe (Bastem)","urban":"Andulan","postal_code":91992}]