[{"province":"Sulawesi Selatan","city":"Luwu","district":"Larompong Selatan","urban":"Salusana","postal_code":91998},{"province":"Sulawesi Selatan","city":"Luwu","district":"Larompong Selatan","urban":"Sampano","postal_code":91998},{"province":"Sulawesi Selatan","city":"Luwu","district":"Larompong Selatan","urban":"Temboe","postal_code":91998},{"province":"Sulawesi Selatan","city":"Luwu","district":"Larompong Selatan","urban":"Gandang Batu","postal_code":91998},{"province":"Sulawesi Selatan","city":"Luwu","district":"Larompong Selatan","urban":"La Loa","postal_code":91998},{"province":"Sulawesi Selatan","city":"Luwu","district":"Larompong Selatan","urban":"Malewong","postal_code":91998},{"province":"Sulawesi Selatan","city":"Luwu","district":"Larompong Selatan","urban":"Bonepute","postal_code":91998},{"province":"Sulawesi Selatan","city":"Luwu","district":"Larompong Selatan","urban":"Dadeko","postal_code":91998},{"province":"Sulawesi Selatan","city":"Luwu","district":"Larompong Selatan","urban":"Babang","postal_code":91998},{"province":"Sulawesi Selatan","city":"Luwu","district":"Larompong Selatan","urban":"Batu Lappa","postal_code":91998}]