[{"province":"Sulawesi Selatan","city":"Gowa","district":"Bajeng","urban":"Tangkebajeng","postal_code":92152},{"province":"Sulawesi Selatan","city":"Gowa","district":"Bajeng","urban":"Tubajeng","postal_code":92152},{"province":"Sulawesi Selatan","city":"Gowa","district":"Bajeng Barat","urban":"Tanabangka","postal_code":92152},{"province":"Sulawesi Selatan","city":"Gowa","district":"Bajeng","urban":"Paraikate (Paraikatte)","postal_code":92152},{"province":"Sulawesi Selatan","city":"Gowa","district":"Bajeng","urban":"Panciro","postal_code":92152},{"province":"Sulawesi Selatan","city":"Gowa","district":"Bajeng","urban":"Panyangkalang","postal_code":92152},{"province":"Sulawesi Selatan","city":"Gowa","district":"Bajeng","urban":"Mata Allo","postal_code":92152},{"province":"Sulawesi Selatan","city":"Gowa","district":"Bajeng","urban":"Pabentengan","postal_code":92152},{"province":"Sulawesi Selatan","city":"Gowa","district":"Bajeng Barat","urban":"Manjalling","postal_code":92152},{"province":"Sulawesi Selatan","city":"Gowa","district":"Bajeng","urban":"Maradekaya","postal_code":92152},{"province":"Sulawesi Selatan","city":"Gowa","district":"Bajeng Barat","urban":"Mandalle (Mandale)","postal_code":92152},{"province":"Sulawesi Selatan","city":"Gowa","district":"Bajeng","urban":"Maccinibaji","postal_code":92152},{"province":"Sulawesi Selatan","city":"Gowa","district":"Bajeng","urban":"Lempangang","postal_code":92152},{"province":"Sulawesi Selatan","city":"Gowa","district":"Bajeng","urban":"Limbung","postal_code":92152},{"province":"Sulawesi Selatan","city":"Gowa","district":"Bajeng Barat","urban":"Kalemandalle","postal_code":92152},{"province":"Sulawesi Selatan","city":"Gowa","district":"Bajeng","urban":"Kalebajeng","postal_code":92152},{"province":"Sulawesi Selatan","city":"Gowa","district":"Bajeng Barat","urban":"Borimatangkasa","postal_code":92152},{"province":"Sulawesi Selatan","city":"Gowa","district":"Bajeng Barat","urban":"Gentungang","postal_code":92152},{"province":"Sulawesi Selatan","city":"Gowa","district":"Bajeng Barat","urban":"Bontomanai","postal_code":92152},{"province":"Sulawesi Selatan","city":"Gowa","district":"Bajeng","urban":"Bontosunggu","postal_code":92152},{"province":"Sulawesi Selatan","city":"Gowa","district":"Bajeng","urban":"Bone","postal_code":92152}]