[{"province":"Sulawesi Selatan","city":"Gowa","district":"Bontonompo Selatan","urban":"Tindang","postal_code":92153},{"province":"Sulawesi Selatan","city":"Gowa","district":"Bontonompo Selatan","urban":"Tanrara","postal_code":92153},{"province":"Sulawesi Selatan","city":"Gowa","district":"Bontonompo","urban":"Tamallayang","postal_code":92153},{"province":"Sulawesi Selatan","city":"Gowa","district":"Bontonompo Selatan","urban":"Salajo","postal_code":92153},{"province":"Sulawesi Selatan","city":"Gowa","district":"Bontonompo Selatan","urban":"Sengka","postal_code":92153},{"province":"Sulawesi Selatan","city":"Gowa","district":"Bontonompo","urban":"Romanglasa","postal_code":92153},{"province":"Sulawesi Selatan","city":"Gowa","district":"Bontonompo Selatan","urban":"Salajengki (Salajangki)","postal_code":92153},{"province":"Sulawesi Selatan","city":"Gowa","district":"Bontonompo","urban":"Katangka","postal_code":92153},{"province":"Sulawesi Selatan","city":"Gowa","district":"Bontonompo","urban":"Manjapai","postal_code":92153},{"province":"Sulawesi Selatan","city":"Gowa","district":"Bontonompo Selatan","urban":"Pabundukang","postal_code":92153},{"province":"Sulawesi Selatan","city":"Gowa","district":"Bontonompo","urban":"Kalaserena","postal_code":92153},{"province":"Sulawesi Selatan","city":"Gowa","district":"Bontonompo","urban":"Kalebarembeng","postal_code":92153},{"province":"Sulawesi Selatan","city":"Gowa","district":"Bontonompo Selatan","urban":"Jipang","postal_code":92153},{"province":"Sulawesi Selatan","city":"Gowa","district":"Bontonompo","urban":"Bulogading","postal_code":92153},{"province":"Sulawesi Selatan","city":"Gowa","district":"Bontonompo Selatan","urban":"Bontoramba","postal_code":92153},{"province":"Sulawesi Selatan","city":"Gowa","district":"Bontonompo","urban":"Bulogading","postal_code":92153},{"province":"Sulawesi Selatan","city":"Gowa","district":"Bontonompo","urban":"Bontonompo","postal_code":92153},{"province":"Sulawesi Selatan","city":"Gowa","district":"Bontonompo","urban":"Bontolangkasa Selatan","postal_code":92153},{"province":"Sulawesi Selatan","city":"Gowa","district":"Bontonompo","urban":"Bontolangkasa Utara","postal_code":92153},{"province":"Sulawesi Selatan","city":"Gowa","district":"Bontonompo","urban":"Bontobiraeng","postal_code":92153},{"province":"Sulawesi Selatan","city":"Gowa","district":"Bontonompo","urban":"Bontobiraeng Selatan","postal_code":92153},{"province":"Sulawesi Selatan","city":"Gowa","district":"Bontonompo","urban":"Barembeng","postal_code":92153},{"province":"Sulawesi Selatan","city":"Gowa","district":"Bontonompo","urban":"Bategulung","postal_code":92153}]