[{"province":"Sulawesi Selatan","city":"Gowa","district":"Bontolempangang","urban":"Ulujangan","postal_code":92176},{"province":"Sulawesi Selatan","city":"Gowa","district":"Bungaya","urban":"Rannaloe","postal_code":92176},{"province":"Sulawesi Selatan","city":"Gowa","district":"Bungaya","urban":"Sapaya","postal_code":92176},{"province":"Sulawesi Selatan","city":"Gowa","district":"Bungaya","urban":"Mangempang","postal_code":92176},{"province":"Sulawesi Selatan","city":"Gowa","district":"Bontolempangang","urban":"Paladingang","postal_code":92176},{"province":"Sulawesi Selatan","city":"Gowa","district":"Bungaya","urban":"Mangempang","postal_code":92176},{"province":"Sulawesi Selatan","city":"Gowa","district":"Bontolempangang","urban":"Julumatene","postal_code":92176},{"province":"Sulawesi Selatan","city":"Gowa","district":"Bontolempangang","urban":"Lassa Lassa","postal_code":92176},{"province":"Sulawesi Selatan","city":"Gowa","district":"Bungaya","urban":"Buakkang","postal_code":92176},{"province":"Sulawesi Selatan","city":"Gowa","district":"Bungaya","urban":"Jenebatu","postal_code":92176},{"province":"Sulawesi Selatan","city":"Gowa","district":"Bontolempangang","urban":"Bontotangnga","postal_code":92176},{"province":"Sulawesi Selatan","city":"Gowa","district":"Bungaya","urban":"Bontomanai","postal_code":92176},{"province":"Sulawesi Selatan","city":"Gowa","district":"Bontolempangang","urban":"Bontolempangan","postal_code":92176},{"province":"Sulawesi Selatan","city":"Gowa","district":"Bontolempangang","urban":"Bontoloe","postal_code":92176},{"province":"Sulawesi Selatan","city":"Gowa","district":"Bungaya","urban":"Bissoloro","postal_code":92176}]