[{"province":"Sulawesi Selatan","city":"Gowa","district":"Parigi","urban":"Sicini","postal_code":92174},{"province":"Sulawesi Selatan","city":"Gowa","district":"Tinggimoncong","urban":"Pattapang","postal_code":92174},{"province":"Sulawesi Selatan","city":"Gowa","district":"Tinggimoncong","urban":"Parigi","postal_code":92174},{"province":"Sulawesi Selatan","city":"Gowa","district":"Tinggimoncong","urban":"Malino","postal_code":92174},{"province":"Sulawesi Selatan","city":"Gowa","district":"Parigi","urban":"Majannang","postal_code":92174},{"province":"Sulawesi Selatan","city":"Gowa","district":"Parigi","urban":"Manimbahoi","postal_code":92174},{"province":"Sulawesi Selatan","city":"Gowa","district":"Parigi","urban":"Jonjo","postal_code":92174},{"province":"Sulawesi Selatan","city":"Gowa","district":"Tinggimoncong","urban":"Garassi","postal_code":92174},{"province":"Sulawesi Selatan","city":"Gowa","district":"Tinggimoncong","urban":"Bonto Lerung","postal_code":92174},{"province":"Sulawesi Selatan","city":"Gowa","district":"Tinggimoncong","urban":"Buluttana (Bulutana)","postal_code":92174},{"province":"Sulawesi Selatan","city":"Gowa","district":"Tinggimoncong","urban":"Gantarang","postal_code":92174},{"province":"Sulawesi Selatan","city":"Gowa","district":"Parigi","urban":"Bilanrengi","postal_code":92174}]