[{"province":"Sulawesi Selatan","city":"Gowa","district":"Manuju","urban":"Tassese","postal_code":92173},{"province":"Sulawesi Selatan","city":"Gowa","district":"Manuju","urban":"Tamalatea","postal_code":92173},{"province":"Sulawesi Selatan","city":"Gowa","district":"Manuju","urban":"Tanakkaraeng","postal_code":92173},{"province":"Sulawesi Selatan","city":"Gowa","district":"Manuju","urban":"Moncongloe","postal_code":92173},{"province":"Sulawesi Selatan","city":"Gowa","district":"Manuju","urban":"Pattallikang","postal_code":92173},{"province":"Sulawesi Selatan","city":"Gowa","district":"Manuju","urban":"Manuju","postal_code":92173},{"province":"Sulawesi Selatan","city":"Gowa","district":"Parangloe","urban":"Lanna","postal_code":92173},{"province":"Sulawesi Selatan","city":"Gowa","district":"Parangloe","urban":"Lonjoboko","postal_code":92173},{"province":"Sulawesi Selatan","city":"Gowa","district":"Parangloe","urban":"Bontokassi","postal_code":92173},{"province":"Sulawesi Selatan","city":"Gowa","district":"Parangloe","urban":"Bontoparang","postal_code":92173},{"province":"Sulawesi Selatan","city":"Gowa","district":"Parangloe","urban":"Borisalo (Borisallo)","postal_code":92173},{"province":"Sulawesi Selatan","city":"Gowa","district":"Manuju","urban":"Bilalang (Billang)","postal_code":92173},{"province":"Sulawesi Selatan","city":"Gowa","district":"Parangloe","urban":"Belabori","postal_code":92173},{"province":"Sulawesi Selatan","city":"Gowa","district":"Parangloe","urban":"Belapunranga","postal_code":92173}]