[{"province":"Sulawesi Selatan","city":"Gowa","district":"Tombolo Pao","urban":"Tonasa","postal_code":92171},{"province":"Sulawesi Selatan","city":"Gowa","district":"Tombolo Pao","urban":"Tamaona","postal_code":92171},{"province":"Sulawesi Selatan","city":"Gowa","district":"Pattallassang","urban":"Timbuseng","postal_code":92171},{"province":"Sulawesi Selatan","city":"Gowa","district":"Tombolo Pao","urban":"Tabbinjai","postal_code":92171},{"province":"Sulawesi Selatan","city":"Gowa","district":"Pattallassang","urban":"Sunggumanai","postal_code":92171},{"province":"Sulawesi Selatan","city":"Gowa","district":"Bontomarannu","urban":"Romangloe","postal_code":92171},{"province":"Sulawesi Selatan","city":"Gowa","district":"Bontomarannu","urban":"Sokkolia","postal_code":92171},{"province":"Sulawesi Selatan","city":"Gowa","district":"Bontomarannu","urban":"Romang Lompoa","postal_code":92171},{"province":"Sulawesi Selatan","city":"Gowa","district":"Pattallassang","urban":"Pattalassang","postal_code":92171},{"province":"Sulawesi Selatan","city":"Gowa","district":"Tombolo Pao","urban":"Pao","postal_code":92171},{"province":"Sulawesi Selatan","city":"Gowa","district":"Pattallassang","urban":"Panaikang","postal_code":92171},{"province":"Sulawesi Selatan","city":"Gowa","district":"Bontomarannu","urban":"Pakatto","postal_code":92171},{"province":"Sulawesi Selatan","city":"Gowa","district":"Pattallassang","urban":"Pacellekang","postal_code":92171},{"province":"Sulawesi Selatan","city":"Gowa","district":"Bontomarannu","urban":"Nirannuang","postal_code":92171},{"province":"Sulawesi Selatan","city":"Gowa","district":"Tombolo Pao","urban":"Mamampang","postal_code":92171},{"province":"Sulawesi Selatan","city":"Gowa","district":"Bontomarannu","urban":"Mata Allo","postal_code":92171},{"province":"Sulawesi Selatan","city":"Gowa","district":"Tombolo Pao","urban":"Kanreapia","postal_code":92171},{"province":"Sulawesi Selatan","city":"Gowa","district":"Pattallassang","urban":"Jenemadinging","postal_code":92171},{"province":"Sulawesi Selatan","city":"Gowa","district":"Bontomarannu","urban":"Borongloe","postal_code":92171},{"province":"Sulawesi Selatan","city":"Gowa","district":"Tombolo Pao","urban":"Erelembang","postal_code":92171},{"province":"Sulawesi Selatan","city":"Gowa","district":"Pattallassang","urban":"Borong Pa Lala","postal_code":92171},{"province":"Sulawesi Selatan","city":"Gowa","district":"Bontomarannu","urban":"Bontomanai","postal_code":92171},{"province":"Sulawesi Selatan","city":"Gowa","district":"Tombolo Pao","urban":"Bolaromang","postal_code":92171},{"province":"Sulawesi Selatan","city":"Gowa","district":"Bontomarannu","urban":"Bili-Bili","postal_code":92171},{"province":"Sulawesi Selatan","city":"Gowa","district":"Tombolo Pao","urban":"Balassuka","postal_code":92171}]