[{"province":"Sulawesi Selatan","city":"Takalar","district":"Polombangkeng Utara (Polobangkeng)","urban":"Towata","postal_code":92221},{"province":"Sulawesi Selatan","city":"Takalar","district":"Polombangkeng Utara (Polobangkeng)","urban":"Timbuseng","postal_code":92221},{"province":"Sulawesi Selatan","city":"Takalar","district":"Polombangkeng Utara (Polobangkeng)","urban":"Parang Baddo","postal_code":92221},{"province":"Sulawesi Selatan","city":"Takalar","district":"Polombangkeng Utara (Polobangkeng)","urban":"Parang Luara","postal_code":92221},{"province":"Sulawesi Selatan","city":"Takalar","district":"Polombangkeng Utara (Polobangkeng)","urban":"Pa Rappunganta","postal_code":92221},{"province":"Sulawesi Selatan","city":"Takalar","district":"Polombangkeng Utara (Polobangkeng)","urban":"Palleko","postal_code":92221},{"province":"Sulawesi Selatan","city":"Takalar","district":"Polombangkeng Utara (Polobangkeng)","urban":"Panrannuangku","postal_code":92221},{"province":"Sulawesi Selatan","city":"Takalar","district":"Polombangkeng Utara (Polobangkeng)","urban":"Mannongkoki","postal_code":92221},{"province":"Sulawesi Selatan","city":"Takalar","district":"Polombangkeng Utara (Polobangkeng)","urban":"Massamaturu","postal_code":92221},{"province":"Sulawesi Selatan","city":"Takalar","district":"Polombangkeng Utara (Polobangkeng)","urban":"Mattompodalle","postal_code":92221},{"province":"Sulawesi Selatan","city":"Takalar","district":"Polombangkeng Utara (Polobangkeng)","urban":"Lassang","postal_code":92221},{"province":"Sulawesi Selatan","city":"Takalar","district":"Polombangkeng Utara (Polobangkeng)","urban":"Lassang Barat","postal_code":92221},{"province":"Sulawesi Selatan","city":"Takalar","district":"Polombangkeng Utara (Polobangkeng)","urban":"Malewang","postal_code":92221},{"province":"Sulawesi Selatan","city":"Takalar","district":"Polombangkeng Utara (Polobangkeng)","urban":"Kampung Beru","postal_code":92221},{"province":"Sulawesi Selatan","city":"Takalar","district":"Polombangkeng Utara (Polobangkeng)","urban":"Ko Mara","postal_code":92221},{"province":"Sulawesi Selatan","city":"Takalar","district":"Polombangkeng Utara (Polobangkeng)","urban":"Balangtanaya","postal_code":92221},{"province":"Sulawesi Selatan","city":"Takalar","district":"Polombangkeng Utara (Polobangkeng)","urban":"Barugaya","postal_code":92221},{"province":"Sulawesi Selatan","city":"Takalar","district":"Polombangkeng Utara (Polobangkeng)","urban":"Kale Ko&#8217;mara","postal_code":92221}]