[{"province":"Sulawesi Selatan","city":"Takalar","district":"Mappakasunggu","urban":"Tompotana","postal_code":92232},{"province":"Sulawesi Selatan","city":"Takalar","district":"Mappakasunggu","urban":"Soreang","postal_code":92232},{"province":"Sulawesi Selatan","city":"Takalar","district":"Mappakasunggu","urban":"Takalar Kota","postal_code":92232},{"province":"Sulawesi Selatan","city":"Takalar","district":"Mappakasunggu","urban":"Patani","postal_code":92232},{"province":"Sulawesi Selatan","city":"Takalar","district":"Mappakasunggu","urban":"Rewataya","postal_code":92232},{"province":"Sulawesi Selatan","city":"Takalar","district":"Mappakasunggu","urban":"Mattirobaji","postal_code":92232},{"province":"Sulawesi Selatan","city":"Takalar","district":"Mappakasunggu","urban":"Pa&#8217;batangang","postal_code":92232},{"province":"Sulawesi Selatan","city":"Takalar","district":"Mappakasunggu","urban":"Balangdatu","postal_code":92232},{"province":"Sulawesi Selatan","city":"Takalar","district":"Mappakasunggu","urban":"Maccinibaji","postal_code":92232}]