[{"province":"Sulawesi Selatan","city":"Takalar","district":"Galesong Utara","urban":"Tamasaju","postal_code":92255},{"province":"Sulawesi Selatan","city":"Takalar","district":"Galesong","urban":"Pattinoang","postal_code":92255},{"province":"Sulawesi Selatan","city":"Takalar","district":"Galesong Utara","urban":"Sampulungan","postal_code":92255},{"province":"Sulawesi Selatan","city":"Takalar","district":"Galesong Utara","urban":"Tamalate","postal_code":92255},{"province":"Sulawesi Selatan","city":"Takalar","district":"Galesong","urban":"Pa&#8217;lalakkang","postal_code":92255},{"province":"Sulawesi Selatan","city":"Takalar","district":"Galesong","urban":"Pa&#8217;rasangang Beru","postal_code":92255},{"province":"Sulawesi Selatan","city":"Takalar","district":"Galesong Utara","urban":"Pakkabba","postal_code":92255},{"province":"Sulawesi Selatan","city":"Takalar","district":"Galesong","urban":"Mappakalompo","postal_code":92255},{"province":"Sulawesi Selatan","city":"Takalar","district":"Galesong","urban":"Kalukuang","postal_code":92255},{"province":"Sulawesi Selatan","city":"Takalar","district":"Galesong Utara","urban":"Bontolebang","postal_code":92255},{"province":"Sulawesi Selatan","city":"Takalar","district":"Galesong","urban":"Campagaya","postal_code":92255},{"province":"Sulawesi Selatan","city":"Takalar","district":"Galesong","urban":"Kalenna Bontongape","postal_code":92255},{"province":"Sulawesi Selatan","city":"Takalar","district":"Galesong Utara","urban":"Bonto Sunggu","postal_code":92255},{"province":"Sulawesi Selatan","city":"Takalar","district":"Galesong Utara","urban":"Bontokaddopepe","postal_code":92255},{"province":"Sulawesi Selatan","city":"Takalar","district":"Galesong Utara","urban":"Bonto Lanra","postal_code":92255},{"province":"Sulawesi Selatan","city":"Takalar","district":"Galesong Utara","urban":"Aeng Batu-Batu","postal_code":92255},{"province":"Sulawesi Selatan","city":"Takalar","district":"Galesong Utara","urban":"Aeng Towa","postal_code":92255}]