[{"province":"Sulawesi Selatan","city":"Takalar","district":"Galesong Selatan","urban":"Popo","postal_code":92254},{"province":"Sulawesi Selatan","city":"Takalar","district":"Galesong Selatan","urban":"Sawakong","postal_code":92254},{"province":"Sulawesi Selatan","city":"Takalar","district":"Galesong Selatan","urban":"Tarowang","postal_code":92254},{"province":"Sulawesi Selatan","city":"Takalar","district":"Galesong","urban":"Parangmata","postal_code":92254},{"province":"Sulawesi Selatan","city":"Takalar","district":"Galesong Selatan","urban":"Mangindara","postal_code":92254},{"province":"Sulawesi Selatan","city":"Takalar","district":"Galesong","urban":"Parambambe","postal_code":92254},{"province":"Sulawesi Selatan","city":"Takalar","district":"Galesong Selatan","urban":"Kale Bentan","postal_code":92254},{"province":"Sulawesi Selatan","city":"Takalar","district":"Galesong Selatan","urban":"Kalukubodo","postal_code":92254},{"province":"Sulawesi Selatan","city":"Takalar","district":"Galesong Selatan","urban":"Kadatong","postal_code":92254},{"province":"Sulawesi Selatan","city":"Takalar","district":"Galesong","urban":"Galesong Baru","postal_code":92254},{"province":"Sulawesi Selatan","city":"Takalar","district":"Galesong","urban":"Galesong Kota","postal_code":92254},{"province":"Sulawesi Selatan","city":"Takalar","district":"Galesong Selatan","urban":"Bontokanang","postal_code":92254},{"province":"Sulawesi Selatan","city":"Takalar","district":"Galesong","urban":"Bontomangape","postal_code":92254},{"province":"Sulawesi Selatan","city":"Takalar","district":"Galesong Selatan","urban":"Bonto Marannu","postal_code":92254},{"province":"Sulawesi Selatan","city":"Takalar","district":"Galesong","urban":"Bonto Loe","postal_code":92254},{"province":"Sulawesi Selatan","city":"Takalar","district":"Galesong","urban":"Boddia","postal_code":92254},{"province":"Sulawesi Selatan","city":"Takalar","district":"Galesong Selatan","urban":"Bonto Kassi","postal_code":92254},{"province":"Sulawesi Selatan","city":"Takalar","district":"Galesong Selatan","urban":"Bentang","postal_code":92254},{"province":"Sulawesi Selatan","city":"Takalar","district":"Galesong Selatan","urban":"Baramamase","postal_code":92254}]