[{"province":"Sulawesi Selatan","city":"Takalar","district":"Mangara Bombang","urban":"Topejawa","postal_code":92261},{"province":"Sulawesi Selatan","city":"Takalar","district":"Mangara Bombang","urban":"Panyangkalang","postal_code":92261},{"province":"Sulawesi Selatan","city":"Takalar","district":"Mangara Bombang","urban":"Pattoppakang","postal_code":92261},{"province":"Sulawesi Selatan","city":"Takalar","district":"Mangara Bombang","urban":"Punaga","postal_code":92261},{"province":"Sulawesi Selatan","city":"Takalar","district":"Mangara Bombang","urban":"Lengkese","postal_code":92261},{"province":"Sulawesi Selatan","city":"Takalar","district":"Mangara Bombang","urban":"Mangadu","postal_code":92261},{"province":"Sulawesi Selatan","city":"Takalar","district":"Mangara Bombang","urban":"Cikowang","postal_code":92261},{"province":"Sulawesi Selatan","city":"Takalar","district":"Mangara Bombang","urban":"Laikang","postal_code":92261},{"province":"Sulawesi Selatan","city":"Takalar","district":"Mangara Bombang","urban":"Lakatong","postal_code":92261},{"province":"Sulawesi Selatan","city":"Takalar","district":"Mangara Bombang","urban":"Bontoparang","postal_code":92261},{"province":"Sulawesi Selatan","city":"Takalar","district":"Mangara Bombang","urban":"Banggae","postal_code":92261},{"province":"Sulawesi Selatan","city":"Takalar","district":"Mangara Bombang","urban":"Bontomanai","postal_code":92261}]