[{"province":"Sulawesi Selatan","city":"Jeneponto","district":"Turatea","urban":"Parasangang Beru","postal_code":92313},{"province":"Sulawesi Selatan","city":"Jeneponto","district":"Turatea","urban":"Tanjonga","postal_code":92313},{"province":"Sulawesi Selatan","city":"Jeneponto","district":"Turatea","urban":"Langkura","postal_code":92313},{"province":"Sulawesi Selatan","city":"Jeneponto","district":"Turatea","urban":"Mangepong","postal_code":92313},{"province":"Sulawesi Selatan","city":"Jeneponto","district":"Turatea","urban":"Paitana","postal_code":92313},{"province":"Sulawesi Selatan","city":"Jeneponto","district":"Turatea","urban":"Jombe","postal_code":92313},{"province":"Sulawesi Selatan","city":"Jeneponto","district":"Turatea","urban":"Kayuloe Timur","postal_code":92313},{"province":"Sulawesi Selatan","city":"Jeneponto","district":"Turatea","urban":"Bungungloe","postal_code":92313},{"province":"Sulawesi Selatan","city":"Jeneponto","district":"Turatea","urban":"Bululoe","postal_code":92313},{"province":"Sulawesi Selatan","city":"Jeneponto","district":"Turatea","urban":"Bontomatene","postal_code":92313}]