[{"province":"Sulawesi Selatan","city":"Jeneponto","district":"Tamalatea","urban":"Turatea","postal_code":92351},{"province":"Sulawesi Selatan","city":"Jeneponto","district":"Tamalatea","urban":"Turatea Timur","postal_code":92351},{"province":"Sulawesi Selatan","city":"Jeneponto","district":"Tamalatea","urban":"Tonrokassi Barat","postal_code":92351},{"province":"Sulawesi Selatan","city":"Jeneponto","district":"Tamalatea","urban":"Tonrokassi Timur","postal_code":92351},{"province":"Sulawesi Selatan","city":"Jeneponto","district":"Tamalatea","urban":"Taman Roya","postal_code":92351},{"province":"Sulawesi Selatan","city":"Jeneponto","district":"Tamalatea","urban":"Tonrokassi","postal_code":92351},{"province":"Sulawesi Selatan","city":"Jeneponto","district":"Bontoramba","urban":"Tanammawang","postal_code":92351},{"province":"Sulawesi Selatan","city":"Jeneponto","district":"Tamalatea","urban":"Manjangloe","postal_code":92351},{"province":"Sulawesi Selatan","city":"Jeneponto","district":"Bontoramba","urban":"Maero","postal_code":92351},{"province":"Sulawesi Selatan","city":"Jeneponto","district":"Bontoramba","urban":"Kareloe","postal_code":92351},{"province":"Sulawesi Selatan","city":"Jeneponto","district":"Bontoramba","urban":"Lentu","postal_code":92351},{"province":"Sulawesi Selatan","city":"Jeneponto","district":"Tamalatea","urban":"Karelayu","postal_code":92351},{"province":"Sulawesi Selatan","city":"Jeneponto","district":"Bontoramba","urban":"Datara","postal_code":92351},{"province":"Sulawesi Selatan","city":"Jeneponto","district":"Tamalatea","urban":"Borongtala","postal_code":92351},{"province":"Sulawesi Selatan","city":"Jeneponto","district":"Bontoramba","urban":"Bulusibatang","postal_code":92351},{"province":"Sulawesi Selatan","city":"Jeneponto","district":"Bontoramba","urban":"Bulusuka","postal_code":92351},{"province":"Sulawesi Selatan","city":"Jeneponto","district":"Tamalatea","urban":"Bontosunggu","postal_code":92351},{"province":"Sulawesi Selatan","city":"Jeneponto","district":"Tamalatea","urban":"Bontotangnga","postal_code":92351},{"province":"Sulawesi Selatan","city":"Jeneponto","district":"Bontoramba","urban":"Bontoramba","postal_code":92351},{"province":"Sulawesi Selatan","city":"Jeneponto","district":"Bontoramba","urban":"Batujala","postal_code":92351},{"province":"Sulawesi Selatan","city":"Jeneponto","district":"Tamalatea","urban":"Bontojai","postal_code":92351},{"province":"Sulawesi Selatan","city":"Jeneponto","district":"Bontoramba","urban":"Bangkalaloe","postal_code":92351},{"province":"Sulawesi Selatan","city":"Jeneponto","district":"Bontoramba","urban":"Baraya","postal_code":92351},{"province":"Sulawesi Selatan","city":"Jeneponto","district":"Bontoramba","urban":"Balumbungang","postal_code":92351}]