[{"province":"Sulawesi Selatan","city":"Jeneponto","district":"Bangkala","urban":"Tombo-Tombolo","postal_code":92352},{"province":"Sulawesi Selatan","city":"Jeneponto","district":"Bangkala Barat","urban":"Tuju","postal_code":92352},{"province":"Sulawesi Selatan","city":"Jeneponto","district":"Bangkala","urban":"Punagaya","postal_code":92352},{"province":"Sulawesi Selatan","city":"Jeneponto","district":"Bangkala Barat","urban":"Pattiro","postal_code":92352},{"province":"Sulawesi Selatan","city":"Jeneponto","district":"Bangkala Barat","urban":"Pappalluang","postal_code":92352},{"province":"Sulawesi Selatan","city":"Jeneponto","district":"Bangkala","urban":"Pallengu","postal_code":92352},{"province":"Sulawesi Selatan","city":"Jeneponto","district":"Bangkala","urban":"Pantai Bahari","postal_code":92352},{"province":"Sulawesi Selatan","city":"Jeneponto","district":"Bangkala","urban":"Pallantikang","postal_code":92352},{"province":"Sulawesi Selatan","city":"Jeneponto","district":"Bangkala","urban":"Kapita","postal_code":92352},{"province":"Sulawesi Selatan","city":"Jeneponto","district":"Bangkala","urban":"Mallasoro","postal_code":92352},{"province":"Sulawesi Selatan","city":"Jeneponto","district":"Bangkala","urban":"Marayoka","postal_code":92352},{"province":"Sulawesi Selatan","city":"Jeneponto","district":"Bangkala","urban":"Jenetallasa","postal_code":92352},{"province":"Sulawesi Selatan","city":"Jeneponto","district":"Bangkala","urban":"Kalimporo","postal_code":92352},{"province":"Sulawesi Selatan","city":"Jeneponto","district":"Bangkala Barat","urban":"Garassikang","postal_code":92352},{"province":"Sulawesi Selatan","city":"Jeneponto","district":"Bangkala","urban":"Gunung Silanu","postal_code":92352},{"province":"Sulawesi Selatan","city":"Jeneponto","district":"Bangkala","urban":"Bontomanai","postal_code":92352},{"province":"Sulawesi Selatan","city":"Jeneponto","district":"Bangkala","urban":"Bontorannu","postal_code":92352},{"province":"Sulawesi Selatan","city":"Jeneponto","district":"Bangkala Barat","urban":"Bulujaya","postal_code":92352},{"province":"Sulawesi Selatan","city":"Jeneponto","district":"Bangkala Barat","urban":"Beroanging","postal_code":92352},{"province":"Sulawesi Selatan","city":"Jeneponto","district":"Bangkala","urban":"Benteng","postal_code":92352},{"province":"Sulawesi Selatan","city":"Jeneponto","district":"Bangkala Barat","urban":"Banrimanurung","postal_code":92352},{"province":"Sulawesi Selatan","city":"Jeneponto","district":"Bangkala Barat","urban":"Barana","postal_code":92352}]