[{"province":"Sulawesi Selatan","city":"Jeneponto","district":"Batang","urban":"Togo-Togo","postal_code":92361},{"province":"Sulawesi Selatan","city":"Jeneponto","district":"Tarowang","urban":"Tarowang","postal_code":92361},{"province":"Sulawesi Selatan","city":"Jeneponto","district":"Tarowang","urban":"Tino","postal_code":92361},{"province":"Sulawesi Selatan","city":"Jeneponto","district":"Arungkeke","urban":"Palajau","postal_code":92361},{"province":"Sulawesi Selatan","city":"Jeneponto","district":"Tarowang","urban":"Pao","postal_code":92361},{"province":"Sulawesi Selatan","city":"Jeneponto","district":"Arungkeke","urban":"Kalumpang Loe","postal_code":92361},{"province":"Sulawesi Selatan","city":"Jeneponto","district":"Arungkeke","urban":"Kampala","postal_code":92361},{"province":"Sulawesi Selatan","city":"Jeneponto","district":"Batang","urban":"Maccinibaji","postal_code":92361},{"province":"Sulawesi Selatan","city":"Jeneponto","district":"Batang","urban":"Camba-Camba","postal_code":92361},{"province":"Sulawesi Selatan","city":"Jeneponto","district":"Batang","urban":"Kaluku","postal_code":92361},{"province":"Sulawesi Selatan","city":"Jeneponto","district":"Arungkeke","urban":"Bulo-Bulo","postal_code":92361},{"province":"Sulawesi Selatan","city":"Jeneponto","district":"Batang","urban":"Bungeng","postal_code":92361},{"province":"Sulawesi Selatan","city":"Jeneponto","district":"Arungkeke","urban":"Borong Lamu","postal_code":92361},{"province":"Sulawesi Selatan","city":"Jeneponto","district":"Batang","urban":"Bontoraya","postal_code":92361},{"province":"Sulawesi Selatan","city":"Jeneponto","district":"Tarowang","urban":"Bonto Ujung","postal_code":92361},{"province":"Sulawesi Selatan","city":"Jeneponto","district":"Tarowang","urban":"Bontorappo","postal_code":92361},{"province":"Sulawesi Selatan","city":"Jeneponto","district":"Tarowang","urban":"Balang Baru","postal_code":92361},{"province":"Sulawesi Selatan","city":"Jeneponto","district":"Tarowang","urban":"Balang Loe Tarowang","postal_code":92361},{"province":"Sulawesi Selatan","city":"Jeneponto","district":"Arungkeke","urban":"Arungkeke","postal_code":92361},{"province":"Sulawesi Selatan","city":"Jeneponto","district":"Arungkeke","urban":"Arungkeke Pallantikang","postal_code":92361},{"province":"Sulawesi Selatan","city":"Jeneponto","district":"Tarowang","urban":"Allu Taroang","postal_code":92361}]