[{"province":"Sulawesi Selatan","city":"Jeneponto","district":"Rumbia","urban":"Ujung Bulu","postal_code":92371},{"province":"Sulawesi Selatan","city":"Jeneponto","district":"Rumbia","urban":"Tompobulu","postal_code":92371},{"province":"Sulawesi Selatan","city":"Jeneponto","district":"Kelara","urban":"Tombolo (Tombo)","postal_code":92371},{"province":"Sulawesi Selatan","city":"Jeneponto","district":"Kelara","urban":"Tolo Timur","postal_code":92371},{"province":"Sulawesi Selatan","city":"Jeneponto","district":"Kelara","urban":"Tolo Utara","postal_code":92371},{"province":"Sulawesi Selatan","city":"Jeneponto","district":"Kelara","urban":"Tolo","postal_code":92371},{"province":"Sulawesi Selatan","city":"Jeneponto","district":"Kelara","urban":"Tolo Barat","postal_code":92371},{"province":"Sulawesi Selatan","city":"Jeneponto","district":"Kelara","urban":"Tolo Selatan","postal_code":92371},{"province":"Sulawesi Selatan","city":"Jeneponto","district":"Kelara","urban":"Samataring","postal_code":92371},{"province":"Sulawesi Selatan","city":"Jeneponto","district":"Rumbia","urban":"Rumbia","postal_code":92371},{"province":"Sulawesi Selatan","city":"Jeneponto","district":"Rumbia","urban":"Lebang Manai Utara","postal_code":92371},{"province":"Sulawesi Selatan","city":"Jeneponto","district":"Rumbia","urban":"Pallantikang","postal_code":92371},{"province":"Sulawesi Selatan","city":"Jeneponto","district":"Rumbia","urban":"Kassi","postal_code":92371},{"province":"Sulawesi Selatan","city":"Jeneponto","district":"Rumbia","urban":"Lebang Manai","postal_code":92371},{"province":"Sulawesi Selatan","city":"Jeneponto","district":"Kelara","urban":"Gantarang","postal_code":92371},{"province":"Sulawesi Selatan","city":"Jeneponto","district":"Rumbia","urban":"Bontomanai","postal_code":92371},{"province":"Sulawesi Selatan","city":"Jeneponto","district":"Kelara","urban":"Bonto Nompo","postal_code":92371},{"province":"Sulawesi Selatan","city":"Jeneponto","district":"Kelara","urban":"Bontolebang","postal_code":92371},{"province":"Sulawesi Selatan","city":"Jeneponto","district":"Rumbia","urban":"Bonto Cini","postal_code":92371}]