[{"province":"Sulawesi Selatan","city":"Bantaeng","district":"Eremerasa","urban":"Pa Bumbungan","postal_code":92415},{"province":"Sulawesi Selatan","city":"Bantaeng","district":"Eremerasa","urban":"Parangloe","postal_code":92415},{"province":"Sulawesi Selatan","city":"Bantaeng","district":"Eremerasa","urban":"Mamampang","postal_code":92415},{"province":"Sulawesi Selatan","city":"Bantaeng","district":"Eremerasa","urban":"Mappilawing","postal_code":92415},{"province":"Sulawesi Selatan","city":"Bantaeng","district":"Eremerasa","urban":"Pa Bentengan","postal_code":92415},{"province":"Sulawesi Selatan","city":"Bantaeng","district":"Bantaeng","urban":"Letta","postal_code":92415},{"province":"Sulawesi Selatan","city":"Bantaeng","district":"Eremerasa","urban":"Lonrong","postal_code":92415},{"province":"Sulawesi Selatan","city":"Bantaeng","district":"Eremerasa","urban":"Barua","postal_code":92415},{"province":"Sulawesi Selatan","city":"Bantaeng","district":"Eremerasa","urban":"Kampala","postal_code":92415}]