[{"province":"Sulawesi Selatan","city":"Bantaeng","district":"Sinoa","urban":"Bonto Tiro","postal_code":92451},{"province":"Sulawesi Selatan","city":"Bantaeng","district":"Uluere","urban":"Bonto Tallasa","postal_code":92451},{"province":"Sulawesi Selatan","city":"Bantaeng","district":"Uluere","urban":"Bonto Tangnga","postal_code":92451},{"province":"Sulawesi Selatan","city":"Bantaeng","district":"Bissappu","urban":"Bonto Salluang","postal_code":92451},{"province":"Sulawesi Selatan","city":"Bantaeng","district":"Bissappu","urban":"Bonto Sunggu","postal_code":92451},{"province":"Sulawesi Selatan","city":"Bantaeng","district":"Uluere","urban":"Bonto Rannu","postal_code":92451},{"province":"Sulawesi Selatan","city":"Bantaeng","district":"Bissappu","urban":"Bonto Rita","postal_code":92451},{"province":"Sulawesi Selatan","city":"Bantaeng","district":"Sinoa","urban":"Bonto Matene","postal_code":92451},{"province":"Sulawesi Selatan","city":"Bantaeng","district":"Uluere","urban":"Bonto Marannu","postal_code":92451},{"province":"Sulawesi Selatan","city":"Bantaeng","district":"Bissappu","urban":"Bonto Manai","postal_code":92451},{"province":"Sulawesi Selatan","city":"Bantaeng","district":"Sinoa","urban":"Bonto Maccini","postal_code":92451},{"province":"Sulawesi Selatan","city":"Bantaeng","district":"Sinoa","urban":"Bonto Majannang","postal_code":92451},{"province":"Sulawesi Selatan","city":"Bantaeng","district":"Uluere","urban":"Bonto Lojong","postal_code":92451},{"province":"Sulawesi Selatan","city":"Bantaeng","district":"Bissappu","urban":"Bonto Langkasa","postal_code":92451},{"province":"Sulawesi Selatan","city":"Bantaeng","district":"Bissappu","urban":"Bonto Lebang","postal_code":92451},{"province":"Sulawesi Selatan","city":"Bantaeng","district":"Bissappu","urban":"Bonto Loe","postal_code":92451},{"province":"Sulawesi Selatan","city":"Bantaeng","district":"Bissappu","urban":"Bonto Jaya","postal_code":92451},{"province":"Sulawesi Selatan","city":"Bantaeng","district":"Sinoa","urban":"Bonto Karaeng","postal_code":92451},{"province":"Sulawesi Selatan","city":"Bantaeng","district":"Uluere","urban":"Bonto Daeng","postal_code":92451},{"province":"Sulawesi Selatan","city":"Bantaeng","district":"Bissappu","urban":"Bonto Jai","postal_code":92451},{"province":"Sulawesi Selatan","city":"Bantaeng","district":"Bissappu","urban":"Bonto Cinde","postal_code":92451},{"province":"Sulawesi Selatan","city":"Bantaeng","district":"Sinoa","urban":"Bonto Bulaeng","postal_code":92451},{"province":"Sulawesi Selatan","city":"Bantaeng","district":"Bissappu","urban":"Bonto Atu","postal_code":92451}]