[{"province":"Sulawesi Selatan","city":"Bantaeng","district":"Gantarang Keke (Gantareng Keke)","urban":"Tombolo","postal_code":92461},{"province":"Sulawesi Selatan","city":"Bantaeng","district":"Pajukukang","urban":"Rappoa","postal_code":92461},{"province":"Sulawesi Selatan","city":"Bantaeng","district":"Gantarang Keke (Gantareng Keke)","urban":"Tanahloe","postal_code":92461},{"province":"Sulawesi Selatan","city":"Bantaeng","district":"Tompobulu","urban":"Pattallassang","postal_code":92461},{"province":"Sulawesi Selatan","city":"Bantaeng","district":"Tompobulu","urban":"Pattallassang","postal_code":92461},{"province":"Sulawesi Selatan","city":"Bantaeng","district":"Tompobulu","urban":"Pattaneteang","postal_code":92461},{"province":"Sulawesi Selatan","city":"Bantaeng","district":"Pajukukang","urban":"Nipa-Nipa","postal_code":92461},{"province":"Sulawesi Selatan","city":"Bantaeng","district":"Pajukukang","urban":"Pajukukang","postal_code":92461},{"province":"Sulawesi Selatan","city":"Bantaeng","district":"Pajukukang","urban":"Lumpangan","postal_code":92461},{"province":"Sulawesi Selatan","city":"Bantaeng","district":"Tompobulu","urban":"Lembang Gantarangkeke","postal_code":92461},{"province":"Sulawesi Selatan","city":"Bantaeng","district":"Gantarang Keke (Gantareng Keke)","urban":"Layoa","postal_code":92461},{"province":"Sulawesi Selatan","city":"Bantaeng","district":"Tompobulu","urban":"Labbo","postal_code":92461},{"province":"Sulawesi Selatan","city":"Bantaeng","district":"Gantarang Keke (Gantareng Keke)","urban":"Gantarangkeke","postal_code":92461},{"province":"Sulawesi Selatan","city":"Bantaeng","district":"Gantarang Keke (Gantareng Keke)","urban":"Kaloling","postal_code":92461},{"province":"Sulawesi Selatan","city":"Bantaeng","district":"Pajukukang","urban":"Borongloe","postal_code":92461},{"province":"Sulawesi Selatan","city":"Bantaeng","district":"Tompobulu","urban":"Campaga","postal_code":92461},{"province":"Sulawesi Selatan","city":"Bantaeng","district":"Tompobulu","urban":"Ereng-Ereng","postal_code":92461},{"province":"Sulawesi Selatan","city":"Bantaeng","district":"Tompobulu","urban":"Bonto-Bontoa","postal_code":92461},{"province":"Sulawesi Selatan","city":"Bantaeng","district":"Pajukukang","urban":"Biangloe","postal_code":92461},{"province":"Sulawesi Selatan","city":"Bantaeng","district":"Tompobulu","urban":"Bonto Tappalang","postal_code":92461},{"province":"Sulawesi Selatan","city":"Bantaeng","district":"Pajukukang","urban":"Batu Karaeng","postal_code":92461},{"province":"Sulawesi Selatan","city":"Bantaeng","district":"Pajukukang","urban":"Biangkeke","postal_code":92461},{"province":"Sulawesi Selatan","city":"Bantaeng","district":"Pajukukang","urban":"Baruga","postal_code":92461},{"province":"Sulawesi Selatan","city":"Bantaeng","district":"Tompobulu","urban":"Balumbung","postal_code":92461},{"province":"Sulawesi Selatan","city":"Bantaeng","district":"Tompobulu","urban":"Banyorang","postal_code":92461},{"province":"Sulawesi Selatan","city":"Bantaeng","district":"Gantarang Keke (Gantareng Keke)","urban":"Bajiminasa","postal_code":92461}]