[{"province":"Sulawesi Selatan","city":"Bulukumba","district":"Rilau Ale","urban":"Topanda","postal_code":92552},{"province":"Sulawesi Selatan","city":"Bulukumba","district":"Bulukumba (Bulukumpa)","urban":"Tibona","postal_code":92552},{"province":"Sulawesi Selatan","city":"Bulukumba","district":"Rilau Ale","urban":"Tanah Harapan","postal_code":92552},{"province":"Sulawesi Selatan","city":"Bulukumba","district":"Bulukumba (Bulukumpa)","urban":"Tanete","postal_code":92552},{"province":"Sulawesi Selatan","city":"Bulukumba","district":"Rilau Ale","urban":"Swatani","postal_code":92552},{"province":"Sulawesi Selatan","city":"Bulukumba","district":"Bulukumba (Bulukumpa)","urban":"Salassae","postal_code":92552},{"province":"Sulawesi Selatan","city":"Bulukumba","district":"Bulukumba (Bulukumpa)","urban":"Sapo Bonto","postal_code":92552},{"province":"Sulawesi Selatan","city":"Bulukumba","district":"Rilau Ale","urban":"Palampang","postal_code":92552},{"province":"Sulawesi Selatan","city":"Bulukumba","district":"Rilau Ale","urban":"Pangalloang","postal_code":92552},{"province":"Sulawesi Selatan","city":"Bulukumba","district":"Rilau Ale","urban":"Karama","postal_code":92552},{"province":"Sulawesi Selatan","city":"Bulukumba","district":"Bulukumba (Bulukumpa)","urban":"Kambuno","postal_code":92552},{"province":"Sulawesi Selatan","city":"Bulukumba","district":"Bulukumba (Bulukumpa)","urban":"Jawi &#8211; Jawi","postal_code":92552},{"province":"Sulawesi Selatan","city":"Bulukumba","district":"Bulukumba (Bulukumpa)","urban":"Jojjolo","postal_code":92552},{"province":"Sulawesi Selatan","city":"Bulukumba","district":"Rilau Ale","urban":"Bulolohe","postal_code":92552},{"province":"Sulawesi Selatan","city":"Bulukumba","district":"Bulukumba (Bulukumpa)","urban":"Bulo-Bulo","postal_code":92552},{"province":"Sulawesi Selatan","city":"Bulukumba","district":"Rilau Ale","urban":"Bontomanai","postal_code":92552},{"province":"Sulawesi Selatan","city":"Bulukumba","district":"Bulukumba (Bulukumpa)","urban":"Bontomangiring","postal_code":92552},{"province":"Sulawesi Selatan","city":"Bulukumba","district":"Rilau Ale","urban":"Bontoharu","postal_code":92552},{"province":"Sulawesi Selatan","city":"Bulukumba","district":"Rilau Ale","urban":"Bontolohe","postal_code":92552},{"province":"Sulawesi Selatan","city":"Bulukumba","district":"Rilau Ale","urban":"Bontobangun","postal_code":92552},{"province":"Sulawesi Selatan","city":"Bulukumba","district":"Bulukumba (Bulukumpa)","urban":"Bonto Minasa","postal_code":92552},{"province":"Sulawesi Selatan","city":"Bulukumba","district":"Rilau Ale","urban":"Bonto Matene","postal_code":92552},{"province":"Sulawesi Selatan","city":"Bulukumba","district":"Bulukumba (Bulukumpa)","urban":"Bonto Bulaeng","postal_code":92552},{"province":"Sulawesi Selatan","city":"Bulukumba","district":"Rilau Ale","urban":"Batukaropa","postal_code":92552},{"province":"Sulawesi Selatan","city":"Bulukumba","district":"Bulukumba (Bulukumpa)","urban":"Batulohe","postal_code":92552},{"province":"Sulawesi Selatan","city":"Bulukumba","district":"Bulukumba (Bulukumpa)","urban":"Baruga Riattang","postal_code":92552},{"province":"Sulawesi Selatan","city":"Bulukumba","district":"Bulukumba (Bulukumpa)","urban":"Barugae","postal_code":92552},{"province":"Sulawesi Selatan","city":"Bulukumba","district":"Bulukumba (Bulukumpa)","urban":"Balang Taroang","postal_code":92552},{"province":"Sulawesi Selatan","city":"Bulukumba","district":"Bulukumba (Bulukumpa)","urban":"Ballasaraja","postal_code":92552},{"province":"Sulawesi Selatan","city":"Bulukumba","district":"Bulukumba (Bulukumpa)","urban":"Balang Pesoang","postal_code":92552},{"province":"Sulawesi Selatan","city":"Bulukumba","district":"Rilau Ale","urban":"Anrang","postal_code":92552},{"province":"Sulawesi Selatan","city":"Bulukumba","district":"Rilau Ale","urban":"Bajiminasa","postal_code":92552}]