[{"province":"Sulawesi Selatan","city":"Bulukumba","district":"Gantorang/Gantarang (Gangking)","urban":"Polewali","postal_code":92561},{"province":"Sulawesi Selatan","city":"Bulukumba","district":"Gantorang/Gantarang (Gangking)","urban":"Taccorong","postal_code":92561},{"province":"Sulawesi Selatan","city":"Bulukumba","district":"Gantorang/Gantarang (Gangking)","urban":"Paenre Lompoe","postal_code":92561},{"province":"Sulawesi Selatan","city":"Bulukumba","district":"Gantorang/Gantarang (Gangking)","urban":"Palambarae","postal_code":92561},{"province":"Sulawesi Selatan","city":"Bulukumba","district":"Gantorang/Gantarang (Gangking)","urban":"Mattekko","postal_code":92561},{"province":"Sulawesi Selatan","city":"Bulukumba","district":"Gantorang/Gantarang (Gangking)","urban":"Padang","postal_code":92561},{"province":"Sulawesi Selatan","city":"Bulukumba","district":"Gantorang/Gantarang (Gangking)","urban":"Gattareng","postal_code":92561},{"province":"Sulawesi Selatan","city":"Bulukumba","district":"Gantorang/Gantarang (Gangking)","urban":"Jalanjang","postal_code":92561},{"province":"Sulawesi Selatan","city":"Bulukumba","district":"Gantorang/Gantarang (Gangking)","urban":"Mariorennu","postal_code":92561},{"province":"Sulawesi Selatan","city":"Bulukumba","district":"Gantorang/Gantarang (Gangking)","urban":"Bukit Tinggi","postal_code":92561},{"province":"Sulawesi Selatan","city":"Bulukumba","district":"Gantorang/Gantarang (Gangking)","urban":"Dampang","postal_code":92561},{"province":"Sulawesi Selatan","city":"Bulukumba","district":"Gantorang/Gantarang (Gangking)","urban":"Bontonyeleng","postal_code":92561},{"province":"Sulawesi Selatan","city":"Bulukumba","district":"Gantorang/Gantarang (Gangking)","urban":"Bontoraja","postal_code":92561},{"province":"Sulawesi Selatan","city":"Bulukumba","district":"Gantorang/Gantarang (Gangking)","urban":"Bukit Harapan","postal_code":92561},{"province":"Sulawesi Selatan","city":"Bulukumba","district":"Gantorang/Gantarang (Gangking)","urban":"Bonto Sunggu","postal_code":92561},{"province":"Sulawesi Selatan","city":"Bulukumba","district":"Gantorang/Gantarang (Gangking)","urban":"Bontomasila","postal_code":92561},{"province":"Sulawesi Selatan","city":"Bulukumba","district":"Gantorang/Gantarang (Gangking)","urban":"Bialo","postal_code":92561},{"province":"Sulawesi Selatan","city":"Bulukumba","district":"Gantorang/Gantarang (Gangking)","urban":"Bonto Macinna","postal_code":92561},{"province":"Sulawesi Selatan","city":"Bulukumba","district":"Gantorang/Gantarang (Gangking)","urban":"Benteng Gatareng","postal_code":92561},{"province":"Sulawesi Selatan","city":"Bulukumba","district":"Gantorang/Gantarang (Gangking)","urban":"Benteng Malewang","postal_code":92561},{"province":"Sulawesi Selatan","city":"Bulukumba","district":"Gantorang/Gantarang (Gangking)","urban":"Barombong","postal_code":92561}]