[{"province":"Sulawesi Selatan","city":"Bulukumba","district":"Hero Lange-Lange (Herlang)","urban":"Tugondeng","postal_code":92573},{"province":"Sulawesi Selatan","city":"Bulukumba","district":"Hero Lange-Lange (Herlang)","urban":"Singa","postal_code":92573},{"province":"Sulawesi Selatan","city":"Bulukumba","district":"Hero Lange-Lange (Herlang)","urban":"Tanuntung","postal_code":92573},{"province":"Sulawesi Selatan","city":"Bulukumba","district":"Hero Lange-Lange (Herlang)","urban":"Karassing","postal_code":92573},{"province":"Sulawesi Selatan","city":"Bulukumba","district":"Hero Lange-Lange (Herlang)","urban":"Pataro","postal_code":92573},{"province":"Sulawesi Selatan","city":"Bulukumba","district":"Hero Lange-Lange (Herlang)","urban":"Gunturu","postal_code":92573},{"province":"Sulawesi Selatan","city":"Bulukumba","district":"Hero Lange-Lange (Herlang)","urban":"Bonto Kamase","postal_code":92573},{"province":"Sulawesi Selatan","city":"Bulukumba","district":"Hero Lange-Lange (Herlang)","urban":"Borong","postal_code":92573}]