[{"province":"Sulawesi Selatan","city":"Sinjai","district":"Sinjai Barat","urban":"Turungan Baji","postal_code":92653},{"province":"Sulawesi Selatan","city":"Sinjai","district":"Sinjai Barat","urban":"Terasa","postal_code":92653},{"province":"Sulawesi Selatan","city":"Sinjai","district":"Sinjai Barat","urban":"Tassililu","postal_code":92653},{"province":"Sulawesi Selatan","city":"Sinjai","district":"Sinjai Barat","urban":"Bonto Salama","postal_code":92653},{"province":"Sulawesi Selatan","city":"Sinjai","district":"Sinjai Barat","urban":"Boto Lempangan","postal_code":92653},{"province":"Sulawesi Selatan","city":"Sinjai","district":"Sinjai Barat","urban":"Gunung Perak","postal_code":92653},{"province":"Sulawesi Selatan","city":"Sinjai","district":"Sinjai Barat","urban":"Balakia","postal_code":92653},{"province":"Sulawesi Selatan","city":"Sinjai","district":"Sinjai Barat","urban":"Barania","postal_code":92653},{"province":"Sulawesi Selatan","city":"Sinjai","district":"Sinjai Barat","urban":"Arabika","postal_code":92653}]