[{"province":"Sulawesi Selatan","city":"Bulukumba","district":"Ujung Loe","urban":"Tamatto","postal_code":92661},{"province":"Sulawesi Selatan","city":"Bulukumba","district":"Ujung Loe","urban":"Seppang","postal_code":92661},{"province":"Sulawesi Selatan","city":"Bulukumba","district":"Ujung Loe","urban":"Salemba","postal_code":92661},{"province":"Sulawesi Selatan","city":"Bulukumba","district":"Ujung Loe","urban":"Paccaramengang","postal_code":92661},{"province":"Sulawesi Selatan","city":"Bulukumba","district":"Ujung Loe","urban":"Padang Loang","postal_code":92661},{"province":"Sulawesi Selatan","city":"Bulukumba","district":"Ujung Loe","urban":"Manjalling","postal_code":92661},{"province":"Sulawesi Selatan","city":"Bulukumba","district":"Ujung Loe","urban":"Manyampa","postal_code":92661},{"province":"Sulawesi Selatan","city":"Bulukumba","district":"Ujung Loe","urban":"Lonrong","postal_code":92661},{"province":"Sulawesi Selatan","city":"Bulukumba","district":"Ujung Loe","urban":"Garanta","postal_code":92661},{"province":"Sulawesi Selatan","city":"Bulukumba","district":"Ujung Loe","urban":"Dannuang","postal_code":92661},{"province":"Sulawesi Selatan","city":"Bulukumba","district":"Ujung Loe","urban":"Balong","postal_code":92661},{"province":"Sulawesi Selatan","city":"Bulukumba","district":"Ujung Loe","urban":"Bijawang","postal_code":92661},{"province":"Sulawesi Selatan","city":"Bulukumba","district":"Ujung Loe","urban":"Balleanging (Balleangin)","postal_code":92661},{"province":"Sulawesi Selatan","city":"Sinjai","district":"Sinjai Selatan","urban":"Songing","postal_code":92661},{"province":"Sulawesi Selatan","city":"Sinjai","district":"Sinjai Selatan","urban":"Talle","postal_code":92661},{"province":"Sulawesi Selatan","city":"Sinjai","district":"Sinjai Selatan","urban":"Sangiasseri","postal_code":92661},{"province":"Sulawesi Selatan","city":"Sinjai","district":"Sinjai Selatan","urban":"Puncak","postal_code":92661},{"province":"Sulawesi Selatan","city":"Sinjai","district":"Sinjai Selatan","urban":"Palae","postal_code":92661},{"province":"Sulawesi Selatan","city":"Sinjai","district":"Sinjai Selatan","urban":"Palangka","postal_code":92661},{"province":"Sulawesi Selatan","city":"Sinjai","district":"Sinjai Selatan","urban":"Polewali","postal_code":92661},{"province":"Sulawesi Selatan","city":"Sinjai","district":"Sinjai Selatan","urban":"Gareccing","postal_code":92661},{"province":"Sulawesi Selatan","city":"Sinjai","district":"Sinjai Selatan","urban":"Bulu Kamase","postal_code":92661},{"province":"Sulawesi Selatan","city":"Sinjai","district":"Sinjai Selatan","urban":"Alenangka","postal_code":92661},{"province":"Sulawesi Selatan","city":"Sinjai","district":"Sinjai Selatan","urban":"Aska","postal_code":92661}]