[{"province":"Sulawesi Selatan","city":"Bone","district":"Cenrana","urban":"Watang Ta","postal_code":92754},{"province":"Sulawesi Selatan","city":"Bone","district":"Cenrana","urban":"Watu","postal_code":92754},{"province":"Sulawesi Selatan","city":"Bone","district":"Cenrana","urban":"Pusungnge","postal_code":92754},{"province":"Sulawesi Selatan","city":"Bone","district":"Cenrana","urban":"Ujung Tanah","postal_code":92754},{"province":"Sulawesi Selatan","city":"Bone","district":"Cenrana","urban":"Pallime","postal_code":92754},{"province":"Sulawesi Selatan","city":"Bone","district":"Cenrana","urban":"Panyiwi","postal_code":92754},{"province":"Sulawesi Selatan","city":"Bone","district":"Cenrana","urban":"Pacubbe","postal_code":92754},{"province":"Sulawesi Selatan","city":"Bone","district":"Cenrana","urban":"Pallae","postal_code":92754},{"province":"Sulawesi Selatan","city":"Bone","district":"Cenrana","urban":"Naga Uleng","postal_code":92754},{"province":"Sulawesi Selatan","city":"Bone","district":"Cenrana","urban":"Latonro","postal_code":92754},{"province":"Sulawesi Selatan","city":"Bone","district":"Cenrana","urban":"Laoni","postal_code":92754},{"province":"Sulawesi Selatan","city":"Bone","district":"Cenrana","urban":"Labotto","postal_code":92754},{"province":"Sulawesi Selatan","city":"Bone","district":"Cenrana","urban":"Labonge (Lebbongnge)","postal_code":92754},{"province":"Sulawesi Selatan","city":"Bone","district":"Kahu","urban":"Cenrana","postal_code":92754},{"province":"Sulawesi Selatan","city":"Bone","district":"Cenrana","urban":"Cenrana","postal_code":92754},{"province":"Sulawesi Selatan","city":"Bone","district":"Cenrana","urban":"Awang Cengrana / Cenrana","postal_code":92754},{"province":"Sulawesi Selatan","city":"Bone","district":"Cenrana","urban":"Ajallasse","postal_code":92754},{"province":"Sulawesi Selatan","city":"Maros","district":"Cenrana","urban":"Rompe Gading","postal_code":92754},{"province":"Sulawesi Selatan","city":"Maros","district":"Cenrana","urban":"Limam Poccoe","postal_code":92754},{"province":"Sulawesi Selatan","city":"Maros","district":"Cenrana","urban":"Lebbotengngae","postal_code":92754},{"province":"Sulawesi Selatan","city":"Maros","district":"Cenrana","urban":"Laiya","postal_code":92754},{"province":"Sulawesi Selatan","city":"Maros","district":"Cenrana","urban":"Labuaja","postal_code":92754},{"province":"Sulawesi Selatan","city":"Maros","district":"Cenrana","urban":"Cenrana Baru","postal_code":92754},{"province":"Sulawesi Selatan","city":"Maros","district":"Cenrana","urban":"Baji Pamai","postal_code":92754}]