[{"province":"Sulawesi Selatan","city":"Bone","district":"Amali","urban":"Wellulang","postal_code":92755},{"province":"Sulawesi Selatan","city":"Bone","district":"Ajangale","urban":"Welado","postal_code":92755},{"province":"Sulawesi Selatan","city":"Bone","district":"Amali","urban":"Waemputtange","postal_code":92755},{"province":"Sulawesi Selatan","city":"Bone","district":"Amali","urban":"Ulaweng Riaja","postal_code":92755},{"province":"Sulawesi Selatan","city":"Bone","district":"Amali","urban":"Waempubbue","postal_code":92755},{"province":"Sulawesi Selatan","city":"Bone","district":"Amali","urban":"Tocinnong","postal_code":92755},{"province":"Sulawesi Selatan","city":"Bone","district":"Ajangale","urban":"Timurung","postal_code":92755},{"province":"Sulawesi Selatan","city":"Bone","district":"Amali","urban":"Tacipong","postal_code":92755},{"province":"Sulawesi Selatan","city":"Bone","district":"Amali","urban":"Tassipi","postal_code":92755},{"province":"Sulawesi Selatan","city":"Bone","district":"Ajangale","urban":"Telle","postal_code":92755},{"province":"Sulawesi Selatan","city":"Bone","district":"Ajangale","urban":"Pompanua","postal_code":92755},{"province":"Sulawesi Selatan","city":"Bone","district":"Ajangale","urban":"Pompanua Riattang (Salewangeng)","postal_code":92755},{"province":"Sulawesi Selatan","city":"Bone","district":"Ajangale","urban":"Pinceng Pute","postal_code":92755},{"province":"Sulawesi Selatan","city":"Bone","district":"Ajangale","urban":"Pacciro","postal_code":92755},{"province":"Sulawesi Selatan","city":"Bone","district":"Amali","urban":"Mattaro Purae","postal_code":92755},{"province":"Sulawesi Selatan","city":"Bone","district":"Ajangale","urban":"Opo","postal_code":92755},{"province":"Sulawesi Selatan","city":"Bone","district":"Ajangale","urban":"Manciri","postal_code":92755},{"province":"Sulawesi Selatan","city":"Bone","district":"Amali","urban":"Mampotu","postal_code":92755},{"province":"Sulawesi Selatan","city":"Bone","district":"Ajangale","urban":"Lebbae","postal_code":92755},{"province":"Sulawesi Selatan","city":"Bone","district":"Ajangale","urban":"Leppangeng","postal_code":92755},{"province":"Sulawesi Selatan","city":"Bone","district":"Amali","urban":"Lili Riattang","postal_code":92755},{"province":"Sulawesi Selatan","city":"Bone","district":"Ajangale","urban":"Labissa","postal_code":92755},{"province":"Sulawesi Selatan","city":"Bone","district":"Amali","urban":"Laponrong","postal_code":92755},{"province":"Sulawesi Selatan","city":"Bone","district":"Amali","urban":"Benteng Tellue","postal_code":92755},{"province":"Sulawesi Selatan","city":"Bone","district":"Amali","urban":"Bila","postal_code":92755},{"province":"Sulawesi Selatan","city":"Bone","district":"Ajangale","urban":"Amessangeng","postal_code":92755},{"province":"Sulawesi Selatan","city":"Bone","district":"Amali","urban":"Amali Riattang","postal_code":92755},{"province":"Sulawesi Selatan","city":"Bone","district":"Ajangale","urban":"Allamungeng Patue","postal_code":92755},{"province":"Sulawesi Selatan","city":"Bone","district":"Amali","urban":"Ajang Laleng","postal_code":92755}]