[{"province":"Sulawesi Selatan","city":"Bone","district":"Lappariaja","urban":"Waekeccee","postal_code":92763},{"province":"Sulawesi Selatan","city":"Bone","district":"Bengo","urban":"Walimpong","postal_code":92763},{"province":"Sulawesi Selatan","city":"Bone","district":"Lappariaja","urban":"Ujung Lamuru","postal_code":92763},{"province":"Sulawesi Selatan","city":"Bone","district":"Bengo","urban":"Tungke","postal_code":92763},{"province":"Sulawesi Selatan","city":"Bone","district":"Lappariaja","urban":"Tonronge","postal_code":92763},{"province":"Sulawesi Selatan","city":"Bone","district":"Bengo","urban":"Selli","postal_code":92763},{"province":"Sulawesi Selatan","city":"Bone","district":"Lappariaja","urban":"Sengeng Palie","postal_code":92763},{"province":"Sulawesi Selatan","city":"Bone","district":"Lappariaja","urban":"Tenri Pakkua","postal_code":92763},{"province":"Sulawesi Selatan","city":"Bone","district":"Bengo","urban":"Samaenre","postal_code":92763},{"province":"Sulawesi Selatan","city":"Bone","district":"Lappariaja","urban":"Pattuku Limpoe","postal_code":92763},{"province":"Sulawesi Selatan","city":"Bone","district":"Bengo","urban":"Mattiro Walie","postal_code":92763},{"province":"Sulawesi Selatan","city":"Bone","district":"Lappariaja","urban":"Patangkai","postal_code":92763},{"province":"Sulawesi Selatan","city":"Bone","district":"Bengo","urban":"Liliriawang","postal_code":92763},{"province":"Sulawesi Selatan","city":"Bone","district":"Bengo","urban":"Mattaro Puli","postal_code":92763},{"province":"Sulawesi Selatan","city":"Bone","district":"Lappariaja","urban":"Mattampa Walie","postal_code":92763},{"province":"Sulawesi Selatan","city":"Bone","district":"Lappariaja","urban":"Lili Riattang","postal_code":92763},{"province":"Sulawesi Selatan","city":"Bone","district":"Bengo","urban":"Bengo","postal_code":92763},{"province":"Sulawesi Selatan","city":"Bone","district":"Bengo","urban":"Bulu Allapporenge","postal_code":92763}]