[{"province":"Sulawesi Selatan","city":"Bone","district":"Tonra","urban":"Ujunge","postal_code":92774},{"province":"Sulawesi Selatan","city":"Bone","district":"Tonra","urban":"Rappa","postal_code":92774},{"province":"Sulawesi Selatan","city":"Bone","district":"Tonra","urban":"Samaenre","postal_code":92774},{"province":"Sulawesi Selatan","city":"Bone","district":"Tonra","urban":"Libureng","postal_code":92774},{"province":"Sulawesi Selatan","city":"Bone","district":"Tonra","urban":"Muara","postal_code":92774},{"province":"Sulawesi Selatan","city":"Bone","district":"Tonra","urban":"Padatuo","postal_code":92774},{"province":"Sulawesi Selatan","city":"Bone","district":"Tonra","urban":"Bulu-Bulu","postal_code":92774},{"province":"Sulawesi Selatan","city":"Bone","district":"Tonra","urban":"Gareccing","postal_code":92774},{"province":"Sulawesi Selatan","city":"Bone","district":"Tonra","urban":"Biccoing","postal_code":92774},{"province":"Sulawesi Selatan","city":"Bone","district":"Tonra","urban":"Bonepute","postal_code":92774},{"province":"Sulawesi Selatan","city":"Bone","district":"Tonra","urban":"Bacu","postal_code":92774}]