[{"province":"Sulawesi Selatan","city":"Bone","district":"Awangpone","urban":"Unra","postal_code":92776},{"province":"Sulawesi Selatan","city":"Bone","district":"Kajuara","urban":"Waetuwo (Waetuo)","postal_code":92776},{"province":"Sulawesi Selatan","city":"Bone","district":"Kajuara","urban":"Pude","postal_code":92776},{"province":"Sulawesi Selatan","city":"Bone","district":"Kajuara","urban":"Raja","postal_code":92776},{"province":"Sulawesi Selatan","city":"Bone","district":"Kajuara","urban":"Tarasu","postal_code":92776},{"province":"Sulawesi Selatan","city":"Bone","district":"Kajuara","urban":"Padaelo","postal_code":92776},{"province":"Sulawesi Selatan","city":"Bone","district":"Kajuara","urban":"Polewali","postal_code":92776},{"province":"Sulawesi Selatan","city":"Bone","district":"Awangpone","urban":"Paccing","postal_code":92776},{"province":"Sulawesi Selatan","city":"Bone","district":"Kajuara","urban":"Massangkae","postal_code":92776},{"province":"Sulawesi Selatan","city":"Bone","district":"Awangpone","urban":"Mappalo Ulaweng","postal_code":92776},{"province":"Sulawesi Selatan","city":"Bone","district":"Awangpone","urban":"Matuju","postal_code":92776},{"province":"Sulawesi Selatan","city":"Bone","district":"Kajuara","urban":"Mallahae","postal_code":92776},{"province":"Sulawesi Selatan","city":"Bone","district":"Awangpone","urban":"Mallari","postal_code":92776},{"province":"Sulawesi Selatan","city":"Bone","district":"Awangpone","urban":"Lettekko","postal_code":92776},{"province":"Sulawesi Selatan","city":"Bone","district":"Awangpone","urban":"Maccope","postal_code":92776},{"province":"Sulawesi Selatan","city":"Bone","district":"Awangpone","urban":"Lappo Ase","postal_code":92776},{"province":"Sulawesi Selatan","city":"Bone","district":"Kajuara","urban":"Lappa Bosse","postal_code":92776},{"province":"Sulawesi Selatan","city":"Bone","district":"Kajuara","urban":"Lemo","postal_code":92776},{"province":"Sulawesi Selatan","city":"Bone","district":"Kajuara","urban":"Kalero","postal_code":92776},{"province":"Sulawesi Selatan","city":"Bone","district":"Awangpone","urban":"Kading","postal_code":92776},{"province":"Sulawesi Selatan","city":"Bone","district":"Awangpone","urban":"Kajuara","postal_code":92776},{"province":"Sulawesi Selatan","city":"Bone","district":"Kajuara","urban":"Gona","postal_code":92776},{"province":"Sulawesi Selatan","city":"Bone","district":"Awangpone","urban":"Jaling","postal_code":92776},{"province":"Sulawesi Selatan","city":"Bone","district":"Awangpone","urban":"Carebbu","postal_code":92776},{"province":"Sulawesi Selatan","city":"Bone","district":"Awangpone","urban":"Cari Gading","postal_code":92776},{"province":"Sulawesi Selatan","city":"Bone","district":"Awangpone","urban":"Cumpiga","postal_code":92776},{"province":"Sulawesi Selatan","city":"Bone","district":"Awangpone","urban":"Bulumparee","postal_code":92776},{"province":"Sulawesi Selatan","city":"Bone","district":"Awangpone","urban":"Cakke Bone","postal_code":92776},{"province":"Sulawesi Selatan","city":"Bone","district":"Kajuara","urban":"Bulu Tanah","postal_code":92776},{"province":"Sulawesi Selatan","city":"Bone","district":"Awangpone","urban":"Awo Lagading","postal_code":92776},{"province":"Sulawesi Selatan","city":"Bone","district":"Kajuara","urban":"Awang Tangka","postal_code":92776},{"province":"Sulawesi Selatan","city":"Bone","district":"Kajuara","urban":"Buareng","postal_code":92776},{"province":"Sulawesi Selatan","city":"Bone","district":"Kajuara","urban":"Ancu","postal_code":92776},{"province":"Sulawesi Selatan","city":"Bone","district":"Kajuara","urban":"Angkue / Angku","postal_code":92776},{"province":"Sulawesi Selatan","city":"Bone","district":"Kajuara","urban":"Abbumpungeng","postal_code":92776},{"province":"Sulawesi Selatan","city":"Bone","district":"Awangpone","urban":"Abbanuang","postal_code":92776}]