[{"province":"Sulawesi Selatan","city":"Selayar (Kepulauan Selayar)","district":"Bontoharu","urban":"Putabangun","postal_code":92811},{"province":"Sulawesi Selatan","city":"Selayar (Kepulauan Selayar)","district":"Bontoharu","urban":"Bontotangnga","postal_code":92811},{"province":"Sulawesi Selatan","city":"Selayar (Kepulauan Selayar)","district":"Bontoharu","urban":"Kahu-Kahu","postal_code":92811},{"province":"Sulawesi Selatan","city":"Selayar (Kepulauan Selayar)","district":"Bontoharu","urban":"Kalepadang","postal_code":92811},{"province":"Sulawesi Selatan","city":"Selayar (Kepulauan Selayar)","district":"Bontoharu","urban":"Bontosunggu","postal_code":92811},{"province":"Sulawesi Selatan","city":"Selayar (Kepulauan Selayar)","district":"Pasimassunggu","urban":"Bontosaile","postal_code":92811},{"province":"Sulawesi Selatan","city":"Selayar (Kepulauan Selayar)","district":"Bontoharu","urban":"Bontolebang","postal_code":92811},{"province":"Sulawesi Selatan","city":"Selayar (Kepulauan Selayar)","district":"Bontoharu","urban":"Bontobangun","postal_code":92811},{"province":"Sulawesi Selatan","city":"Selayar (Kepulauan Selayar)","district":"Bontoharu","urban":"Bontoborusu","postal_code":92811}]