[{"province":"Sulawesi Selatan","city":"Selayar (Kepulauan Selayar)","district":"Bontomatene","urban":"Tamalanrea","postal_code":92854},{"province":"Sulawesi Selatan","city":"Selayar (Kepulauan Selayar)","district":"Bontomatene","urban":"Tanete","postal_code":92854},{"province":"Sulawesi Selatan","city":"Selayar (Kepulauan Selayar)","district":"Bontomatene","urban":"Pamatata","postal_code":92854},{"province":"Sulawesi Selatan","city":"Selayar (Kepulauan Selayar)","district":"Bontomatene","urban":"Menara Indah","postal_code":92854},{"province":"Sulawesi Selatan","city":"Selayar (Kepulauan Selayar)","district":"Bontomatene","urban":"Onto","postal_code":92854},{"province":"Sulawesi Selatan","city":"Selayar (Kepulauan Selayar)","district":"Buki","urban":"Mekar Indah","postal_code":92854},{"province":"Sulawesi Selatan","city":"Selayar (Kepulauan Selayar)","district":"Bontomatene","urban":"Maharayya","postal_code":92854},{"province":"Sulawesi Selatan","city":"Selayar (Kepulauan Selayar)","district":"Buki","urban":"Lalang Bata","postal_code":92854},{"province":"Sulawesi Selatan","city":"Selayar (Kepulauan Selayar)","district":"Bontomatene","urban":"Kayu Bauk","postal_code":92854},{"province":"Sulawesi Selatan","city":"Selayar (Kepulauan Selayar)","district":"Buki","urban":"Buki","postal_code":92854},{"province":"Sulawesi Selatan","city":"Selayar (Kepulauan Selayar)","district":"Buki","urban":"Buki Timur","postal_code":92854},{"province":"Sulawesi Selatan","city":"Selayar (Kepulauan Selayar)","district":"Bontomatene","urban":"Batangmata Sapo","postal_code":92854},{"province":"Sulawesi Selatan","city":"Selayar (Kepulauan Selayar)","district":"Bontomatene","urban":"Bongaiya","postal_code":92854},{"province":"Sulawesi Selatan","city":"Selayar (Kepulauan Selayar)","district":"Bontomatene","urban":"Bontonasaluk","postal_code":92854},{"province":"Sulawesi Selatan","city":"Selayar (Kepulauan Selayar)","district":"Bontomatene","urban":"Barat Lambongan","postal_code":92854},{"province":"Sulawesi Selatan","city":"Selayar (Kepulauan Selayar)","district":"Bontomatene","urban":"Batangmata","postal_code":92854},{"province":"Sulawesi Selatan","city":"Selayar (Kepulauan Selayar)","district":"Buki","urban":"Balang Butung","postal_code":92854}]