[{"province":"Sulawesi Selatan","city":"Selayar (Kepulauan Selayar)","district":"Bontomanai","urban":"Mare Mare","postal_code":92851},{"province":"Sulawesi Selatan","city":"Selayar (Kepulauan Selayar)","district":"Bontomanai","urban":"Parak","postal_code":92851},{"province":"Sulawesi Selatan","city":"Selayar (Kepulauan Selayar)","district":"Bontomanai","urban":"Polebungin","postal_code":92851},{"province":"Sulawesi Selatan","city":"Selayar (Kepulauan Selayar)","district":"Bontomanai","urban":"Kaburu","postal_code":92851},{"province":"Sulawesi Selatan","city":"Selayar (Kepulauan Selayar)","district":"Buki","urban":"Kohala","postal_code":92851},{"province":"Sulawesi Selatan","city":"Selayar (Kepulauan Selayar)","district":"Bontomanai","urban":"Bontomarannu","postal_code":92851},{"province":"Sulawesi Selatan","city":"Selayar (Kepulauan Selayar)","district":"Bontomanai","urban":"Jambuiya","postal_code":92851},{"province":"Sulawesi Selatan","city":"Selayar (Kepulauan Selayar)","district":"Buki","urban":"Bontolempangan","postal_code":92851},{"province":"Sulawesi Selatan","city":"Selayar (Kepulauan Selayar)","district":"Bontomanai","urban":"Bonea Timur","postal_code":92851},{"province":"Sulawesi Selatan","city":"Selayar (Kepulauan Selayar)","district":"Bontomanai","urban":"Bontokoraang","postal_code":92851},{"province":"Sulawesi Selatan","city":"Selayar (Kepulauan Selayar)","district":"Bontomanai","urban":"Bonea Makmur","postal_code":92851},{"province":"Sulawesi Selatan","city":"Selayar (Kepulauan Selayar)","district":"Bontomanai","urban":"Barugaiya","postal_code":92851}]