[{"province":"Sulawesi Selatan","city":"Selayar (Kepulauan Selayar)","district":"Pasimasunggu Timur","urban":"Ujung","postal_code":92861},{"province":"Sulawesi Selatan","city":"Selayar (Kepulauan Selayar)","district":"Pasimassunggu","urban":"Teluk Kampe","postal_code":92861},{"province":"Sulawesi Selatan","city":"Selayar (Kepulauan Selayar)","district":"Takabonerate","urban":"Tarupa","postal_code":92861},{"province":"Sulawesi Selatan","city":"Selayar (Kepulauan Selayar)","district":"Pasimassunggu","urban":"Tanamalala","postal_code":92861},{"province":"Sulawesi Selatan","city":"Selayar (Kepulauan Selayar)","district":"Takabonerate","urban":"Rajuni","postal_code":92861},{"province":"Sulawesi Selatan","city":"Selayar (Kepulauan Selayar)","district":"Takabonerate","urban":"Tambuna","postal_code":92861},{"province":"Sulawesi Selatan","city":"Selayar (Kepulauan Selayar)","district":"Pasimassunggu","urban":"Massungke","postal_code":92861},{"province":"Sulawesi Selatan","city":"Selayar (Kepulauan Selayar)","district":"Takabonerate","urban":"Nyiur Indah","postal_code":92861},{"province":"Sulawesi Selatan","city":"Selayar (Kepulauan Selayar)","district":"Pasimasunggu Timur","urban":"Lembang Baji","postal_code":92861},{"province":"Sulawesi Selatan","city":"Selayar (Kepulauan Selayar)","district":"Pasimassunggu","urban":"Maminasa","postal_code":92861},{"province":"Sulawesi Selatan","city":"Selayar (Kepulauan Selayar)","district":"Takabonerate","urban":"Latondu","postal_code":92861},{"province":"Sulawesi Selatan","city":"Selayar (Kepulauan Selayar)","district":"Pasimassunggu","urban":"Labuang Pamajang","postal_code":92861},{"province":"Sulawesi Selatan","city":"Selayar (Kepulauan Selayar)","district":"Takabonerate","urban":"Khusus Pasitallu","postal_code":92861},{"province":"Sulawesi Selatan","city":"Selayar (Kepulauan Selayar)","district":"Pasimassunggu","urban":"Kembang Ragi","postal_code":92861},{"province":"Sulawesi Selatan","city":"Selayar (Kepulauan Selayar)","district":"Takabonerate","urban":"Kayuadi","postal_code":92861},{"province":"Sulawesi Selatan","city":"Selayar (Kepulauan Selayar)","district":"Takabonerate","urban":"Jinato","postal_code":92861},{"province":"Sulawesi Selatan","city":"Selayar (Kepulauan Selayar)","district":"Pasimasunggu Timur","urban":"Bontomalling","postal_code":92861},{"province":"Sulawesi Selatan","city":"Selayar (Kepulauan Selayar)","district":"Pasimasunggu Timur","urban":"Bontojati","postal_code":92861},{"province":"Sulawesi Selatan","city":"Selayar (Kepulauan Selayar)","district":"Pasimasunggu Timur","urban":"Bontobulaeng","postal_code":92861},{"province":"Sulawesi Selatan","city":"Selayar (Kepulauan Selayar)","district":"Pasimasunggu Timur","urban":"Bontobaru","postal_code":92861},{"province":"Sulawesi Selatan","city":"Selayar (Kepulauan Selayar)","district":"Takabonerate","urban":"Batang","postal_code":92861}]