[{"province":"Sulawesi Selatan","city":"Luwu Utara","district":"Mappedeceng","urban":"Uraso","postal_code":92917},{"province":"Sulawesi Selatan","city":"Luwu Utara","district":"Mappedeceng","urban":"Sumber Wangi","postal_code":92917},{"province":"Sulawesi Selatan","city":"Luwu Utara","district":"Mappedeceng","urban":"Tarra Tallu","postal_code":92917},{"province":"Sulawesi Selatan","city":"Luwu Utara","district":"Mappedeceng","urban":"Ujung Mattajang","postal_code":92917},{"province":"Sulawesi Selatan","city":"Luwu Utara","district":"Mappedeceng","urban":"Mekar Jaya Tondok","postal_code":92917},{"province":"Sulawesi Selatan","city":"Luwu Utara","district":"Mappedeceng","urban":"Sumber Harum","postal_code":92917},{"province":"Sulawesi Selatan","city":"Luwu Utara","district":"Mappedeceng","urban":"Mappedeceng","postal_code":92917},{"province":"Sulawesi Selatan","city":"Luwu Utara","district":"Mappedeceng","urban":"Mangale","postal_code":92917},{"province":"Sulawesi Selatan","city":"Luwu Utara","district":"Mappedeceng","urban":"Harapan/Kampung Baru","postal_code":92917},{"province":"Sulawesi Selatan","city":"Luwu Utara","district":"Mappedeceng","urban":"Hasanah","postal_code":92917},{"province":"Sulawesi Selatan","city":"Luwu Utara","district":"Mappedeceng","urban":"Kapidi","postal_code":92917},{"province":"Sulawesi Selatan","city":"Luwu Utara","district":"Mappedeceng","urban":"Cendana Putih Satu","postal_code":92917},{"province":"Sulawesi Selatan","city":"Luwu Utara","district":"Mappedeceng","urban":"Cendana Putih","postal_code":92917},{"province":"Sulawesi Selatan","city":"Luwu Utara","district":"Mappedeceng","urban":"Cendana Putih Dua","postal_code":92917},{"province":"Sulawesi Selatan","city":"Luwu Utara","district":"Mappedeceng","urban":"Benteng","postal_code":92917}]