[{"province":"Sulawesi Selatan","city":"Luwu Utara","district":"Malangke Barat","urban":"Waetuo (Waetuwo)","postal_code":92957},{"province":"Sulawesi Selatan","city":"Luwu Utara","district":"Malangke Barat","urban":"Wara","postal_code":92957},{"province":"Sulawesi Selatan","city":"Luwu Utara","district":"Malangke Barat","urban":"Pole Jiwa","postal_code":92957},{"province":"Sulawesi Selatan","city":"Luwu Utara","district":"Malangke Barat","urban":"Pombakka","postal_code":92957},{"province":"Sulawesi Selatan","city":"Luwu Utara","district":"Malangke Barat","urban":"Waelawi","postal_code":92957},{"province":"Sulawesi Selatan","city":"Luwu Utara","district":"Malangke Barat","urban":"Pengkajoang","postal_code":92957},{"province":"Sulawesi Selatan","city":"Luwu Utara","district":"Malangke Barat","urban":"Limbong Wara","postal_code":92957},{"province":"Sulawesi Selatan","city":"Luwu Utara","district":"Malangke Barat","urban":"Pao","postal_code":92957},{"province":"Sulawesi Selatan","city":"Luwu Utara","district":"Malangke Barat","urban":"Pembuniang","postal_code":92957},{"province":"Sulawesi Selatan","city":"Luwu Utara","district":"Malangke Barat","urban":"Kalitata","postal_code":92957},{"province":"Sulawesi Selatan","city":"Luwu Utara","district":"Malangke Barat","urban":"Arusu","postal_code":92957},{"province":"Sulawesi Selatan","city":"Luwu Utara","district":"Malangke Barat","urban":"Baku-Baku","postal_code":92957},{"province":"Sulawesi Selatan","city":"Luwu Utara","district":"Malangke Barat","urban":"Cenning","postal_code":92957}]