[{"province":"Sulawesi Selatan","city":"Luwu Timur","district":"Mangkutana","urban":"Wonorejo Timur","postal_code":92973},{"province":"Sulawesi Selatan","city":"Luwu Timur","district":"Mangkutana","urban":"Teromu","postal_code":92973},{"province":"Sulawesi Selatan","city":"Luwu Timur","district":"Mangkutana","urban":"Wonorejo","postal_code":92973},{"province":"Sulawesi Selatan","city":"Luwu Timur","district":"Kalaena","urban":"Sumber Makmur","postal_code":92973},{"province":"Sulawesi Selatan","city":"Luwu Timur","district":"Mangkutana","urban":"Sindu Agung","postal_code":92973},{"province":"Sulawesi Selatan","city":"Luwu Timur","district":"Kalaena","urban":"Pertasi Kencana","postal_code":92973},{"province":"Sulawesi Selatan","city":"Luwu Timur","district":"Kalaena","urban":"Sumber Agung","postal_code":92973},{"province":"Sulawesi Selatan","city":"Luwu Timur","district":"Kalaena","urban":"Non Blok","postal_code":92973},{"province":"Sulawesi Selatan","city":"Luwu Timur","district":"Mangkutana","urban":"Panca Karsa","postal_code":92973},{"province":"Sulawesi Selatan","city":"Luwu Timur","district":"Kalaena","urban":"Mekar Sari","postal_code":92973},{"province":"Sulawesi Selatan","city":"Luwu Timur","district":"Mangkutana","urban":"Margolembo","postal_code":92973},{"province":"Sulawesi Selatan","city":"Luwu Timur","district":"Mangkutana","urban":"Koroncia","postal_code":92973},{"province":"Sulawesi Selatan","city":"Luwu Timur","district":"Mangkutana","urban":"Maleku","postal_code":92973},{"province":"Sulawesi Selatan","city":"Luwu Timur","district":"Mangkutana","urban":"Manggala","postal_code":92973},{"province":"Sulawesi Selatan","city":"Luwu Timur","district":"Kalaena","urban":"Kalaena Kiri","postal_code":92973},{"province":"Sulawesi Selatan","city":"Luwu Timur","district":"Mangkutana","urban":"Kasintuwu","postal_code":92973},{"province":"Sulawesi Selatan","city":"Luwu Timur","district":"Kalaena","urban":"Argomulyo","postal_code":92973},{"province":"Sulawesi Selatan","city":"Luwu Timur","district":"Kalaena","urban":"Argomulyo","postal_code":92973}]