[{"province":"Sulawesi Selatan","city":"Luwu Timur","district":"Tomoni","urban":"Ujung Baru","postal_code":92972},{"province":"Sulawesi Selatan","city":"Luwu Timur","district":"Tomoni","urban":"Tadulako","postal_code":92972},{"province":"Sulawesi Selatan","city":"Luwu Timur","district":"Tomoni","urban":"Tomoni","postal_code":92972},{"province":"Sulawesi Selatan","city":"Luwu Timur","district":"Tomoni","urban":"Rante Mario","postal_code":92972},{"province":"Sulawesi Selatan","city":"Luwu Timur","district":"Tomoni","urban":"Sumber Alam","postal_code":92972},{"province":"Sulawesi Selatan","city":"Luwu Timur","district":"Tomoni Timur","urban":"Patengko/Pattengko","postal_code":92972},{"province":"Sulawesi Selatan","city":"Luwu Timur","district":"Tomoni Timur","urban":"Purwosari","postal_code":92972},{"province":"Sulawesi Selatan","city":"Luwu Timur","district":"Tomoni","urban":"Mulyasari","postal_code":92972},{"province":"Sulawesi Selatan","city":"Luwu Timur","district":"Tomoni Timur","urban":"Margomulyo","postal_code":92972},{"province":"Sulawesi Selatan","city":"Luwu Timur","district":"Tomoni","urban":"Mandiri","postal_code":92972},{"province":"Sulawesi Selatan","city":"Luwu Timur","district":"Tomoni Timur","urban":"Manunggal","postal_code":92972},{"province":"Sulawesi Selatan","city":"Luwu Timur","district":"Tomoni","urban":"Lestari","postal_code":92972},{"province":"Sulawesi Selatan","city":"Luwu Timur","district":"Tomoni","urban":"Kalpataru","postal_code":92972},{"province":"Sulawesi Selatan","city":"Luwu Timur","district":"Tomoni Timur","urban":"Cendana Hitam Timur","postal_code":92972},{"province":"Sulawesi Selatan","city":"Luwu Timur","district":"Tomoni Timur","urban":"Kertoraharjo (Kertaraharjo)","postal_code":92972},{"province":"Sulawesi Selatan","city":"Luwu Timur","district":"Tomoni","urban":"Beringin Jaya","postal_code":92972},{"province":"Sulawesi Selatan","city":"Luwu Timur","district":"Tomoni Timur","urban":"Cendana Hitam","postal_code":92972},{"province":"Sulawesi Selatan","city":"Luwu Timur","district":"Tomoni","urban":"Bayondo","postal_code":92972},{"province":"Sulawesi Selatan","city":"Luwu Timur","district":"Tomoni","urban":"Bangun Karya","postal_code":92972},{"province":"Sulawesi Selatan","city":"Luwu Timur","district":"Tomoni","urban":"Bangun Jaya","postal_code":92972},{"province":"Sulawesi Selatan","city":"Luwu Timur","district":"Tomoni Timur","urban":"Alam Buana","postal_code":92972}]