[{"province":"Sulawesi Selatan","city":"Luwu Timur","district":"Angkona","urban":"Watangpanua","postal_code":92985},{"province":"Sulawesi Selatan","city":"Luwu Timur","district":"Angkona","urban":"Wanasari","postal_code":92985},{"province":"Sulawesi Selatan","city":"Luwu Timur","district":"Angkona","urban":"Tawakua","postal_code":92985},{"province":"Sulawesi Selatan","city":"Luwu Timur","district":"Angkona","urban":"Taripa","postal_code":92985},{"province":"Sulawesi Selatan","city":"Luwu Timur","district":"Angkona","urban":"Solo","postal_code":92985},{"province":"Sulawesi Selatan","city":"Luwu Timur","district":"Angkona","urban":"Tampinna","postal_code":92985},{"province":"Sulawesi Selatan","city":"Luwu Timur","district":"Angkona","urban":"Maliwowo","postal_code":92985},{"province":"Sulawesi Selatan","city":"Luwu Timur","district":"Angkona","urban":"Mantadulu","postal_code":92985},{"province":"Sulawesi Selatan","city":"Luwu Timur","district":"Angkona","urban":"Balirejo","postal_code":92985},{"province":"Sulawesi Selatan","city":"Luwu Timur","district":"Angkona","urban":"Lamaeto","postal_code":92985}]