[{"province":"Sulawesi Selatan","city":"Luwu Timur","district":"Wasuponda","urban":"Tabarano","postal_code":92983},{"province":"Sulawesi Selatan","city":"Luwu Timur","district":"Wasuponda","urban":"Wasuponda","postal_code":92983},{"province":"Sulawesi Selatan","city":"Luwu Timur","district":"Wasuponda","urban":"Parumpanai","postal_code":92983},{"province":"Sulawesi Selatan","city":"Luwu Timur","district":"Nuha","urban":"Soroako/Soroaku","postal_code":92983},{"province":"Sulawesi Selatan","city":"Luwu Timur","district":"Nuha","urban":"Nikkel/Nekkel","postal_code":92983},{"province":"Sulawesi Selatan","city":"Luwu Timur","district":"Nuha","urban":"Nuha","postal_code":92983},{"province":"Sulawesi Selatan","city":"Luwu Timur","district":"Nuha","urban":"Magani","postal_code":92983},{"province":"Sulawesi Selatan","city":"Luwu Timur","district":"Nuha","urban":"Matano","postal_code":92983},{"province":"Sulawesi Selatan","city":"Luwu Timur","district":"Wasuponda","urban":"Kawata","postal_code":92983},{"province":"Sulawesi Selatan","city":"Luwu Timur","district":"Wasuponda","urban":"Ledu-Ledu","postal_code":92983},{"province":"Sulawesi Selatan","city":"Luwu Timur","district":"Wasuponda","urban":"Balambano","postal_code":92983}]