[{"province":"Sulawesi Tenggara","city":"Konawe","district":"Bondoala","urban":"Wonua Morini","postal_code":93354},{"province":"Sulawesi Tenggara","city":"Konawe","district":"Sampara","urban":"Wawolimbue","postal_code":93354},{"province":"Sulawesi Tenggara","city":"Konawe","district":"Kapoiala (Kapoyala)","urban":"Ulu Lalimbue","postal_code":93354},{"province":"Sulawesi Tenggara","city":"Konawe","district":"Besulutu","urban":"Ulupohara","postal_code":93354},{"province":"Sulawesi Tenggara","city":"Konawe","district":"Bondoala","urban":"Tondowatu","postal_code":93354},{"province":"Sulawesi Tenggara","city":"Konawe","district":"Sampara","urban":"Totambe Jaya","postal_code":93354},{"province":"Sulawesi Tenggara","city":"Konawe","district":"Kapoiala (Kapoyala)","urban":"Tombawatu","postal_code":93354},{"province":"Sulawesi Tenggara","city":"Konawe","district":"Kapoiala (Kapoyala)","urban":"Tani Indah","postal_code":93354},{"province":"Sulawesi Tenggara","city":"Konawe","district":"Bondoala","urban":"Tanggobu","postal_code":93354},{"province":"Sulawesi Tenggara","city":"Konawe","district":"Besulutu","urban":"Silea","postal_code":93354},{"province":"Sulawesi Tenggara","city":"Konawe","district":"Sampara","urban":"Tabanggele","postal_code":93354},{"province":"Sulawesi Tenggara","city":"Konawe","district":"Kapoiala (Kapoyala)","urban":"Sambaraasi","postal_code":93354},{"province":"Sulawesi Tenggara","city":"Konawe","district":"Sampara","urban":"Sampara","postal_code":93354},{"province":"Sulawesi Tenggara","city":"Konawe","district":"Besulutu","urban":"Ranomolua","postal_code":93354},{"province":"Sulawesi Tenggara","city":"Konawe","district":"Sampara","urban":"Rawua","postal_code":93354},{"province":"Sulawesi Tenggara","city":"Konawe","district":"Bondoala","urban":"Puurui (Puuruy)","postal_code":93354},{"province":"Sulawesi Tenggara","city":"Konawe","district":"Bondoala","urban":"Rambu Kongga","postal_code":93354},{"province":"Sulawesi Tenggara","city":"Konawe","district":"Besulutu","urban":"Puundoho","postal_code":93354},{"province":"Sulawesi Tenggara","city":"Konawe","district":"Sampara","urban":"Puuloro","postal_code":93354},{"province":"Sulawesi Tenggara","city":"Konawe","district":"Besulutu","urban":"Punggaluku","postal_code":93354},{"province":"Sulawesi Tenggara","city":"Konawe","district":"Sampara","urban":"Pusangi (Puusangi)","postal_code":93354},{"province":"Sulawesi Tenggara","city":"Konawe","district":"Sampara","urban":"Pohara","postal_code":93354},{"province":"Sulawesi Tenggara","city":"Konawe","district":"Sampara","urban":"Polua","postal_code":93354},{"province":"Sulawesi Tenggara","city":"Konawe","district":"Bondoala","urban":"Porara","postal_code":93354},{"province":"Sulawesi Tenggara","city":"Konawe","district":"Bondoala","urban":"Pebunooha Dalam","postal_code":93354},{"province":"Sulawesi Tenggara","city":"Konawe","district":"Kapoiala (Kapoyala)","urban":"Pereoe","postal_code":93354},{"province":"Sulawesi Tenggara","city":"Konawe","district":"Bondoala","urban":"Paku Jaya","postal_code":93354},{"province":"Sulawesi Tenggara","city":"Konawe","district":"Bondoala","urban":"Pebunooha","postal_code":93354},{"province":"Sulawesi Tenggara","city":"Konawe","district":"Bondoala","urban":"Paku","postal_code":93354},{"province":"Sulawesi Tenggara","city":"Konawe","district":"Kapoiala (Kapoyala)","urban":"Muara Sampara","postal_code":93354},{"province":"Sulawesi Tenggara","city":"Konawe","district":"Besulutu","urban":"Onembute","postal_code":93354},{"province":"Sulawesi Tenggara","city":"Konawe","district":"Bondoala","urban":"Mendikonu","postal_code":93354},{"province":"Sulawesi Tenggara","city":"Konawe","district":"Bondoala","urban":"Morosi","postal_code":93354},{"province":"Sulawesi Tenggara","city":"Konawe","district":"Besulutu","urban":"Lawonua","postal_code":93354},{"province":"Sulawesi Tenggara","city":"Konawe","district":"Bondoala","urban":"Laosu Jaya","postal_code":93354},{"province":"Sulawesi Tenggara","city":"Konawe","district":"Sampara","urban":"Lasoso","postal_code":93354},{"province":"Sulawesi Tenggara","city":"Konawe","district":"Bondoala","urban":"Laosu","postal_code":93354},{"province":"Sulawesi Tenggara","city":"Konawe","district":"Besulutu","urban":"Laloumera","postal_code":93354},{"province":"Sulawesi Tenggara","city":"Konawe","district":"Kapoiala (Kapoyala)","urban":"Lamendora","postal_code":93354},{"province":"Sulawesi Tenggara","city":"Konawe","district":"Kapoiala (Kapoyala)","urban":"Lalonggombuno","postal_code":93354},{"province":"Sulawesi Tenggara","city":"Konawe","district":"Bondoala","urban":"Lalonggaluku","postal_code":93354},{"province":"Sulawesi Tenggara","city":"Konawe","district":"Kapoiala (Kapoyala)","urban":"Lalimbue","postal_code":93354},{"province":"Sulawesi Tenggara","city":"Konawe","district":"Kapoiala (Kapoyala)","urban":"Lalimbue Jaya","postal_code":93354},{"province":"Sulawesi Tenggara","city":"Konawe","district":"Kapoiala (Kapoyala)","urban":"Labotoy","postal_code":93354},{"province":"Sulawesi Tenggara","city":"Konawe","district":"Sampara","urban":"Lakomea","postal_code":93354},{"province":"Sulawesi Tenggara","city":"Konawe","district":"Sampara","urban":"Konggamea","postal_code":93354},{"province":"Sulawesi Tenggara","city":"Konawe","district":"Besulutu","urban":"Labela","postal_code":93354},{"province":"Sulawesi Tenggara","city":"Konawe","district":"Kapoiala (Kapoyala)","urban":"Kapoiala","postal_code":93354},{"province":"Sulawesi Tenggara","city":"Konawe","district":"Kapoiala (Kapoyala)","urban":"Kapoiala Baru","postal_code":93354},{"province":"Sulawesi Tenggara","city":"Konawe","district":"Sampara","urban":"Galu","postal_code":93354},{"province":"Sulawesi Tenggara","city":"Konawe","district":"Bondoala","urban":"Diolo","postal_code":93354},{"province":"Sulawesi Tenggara","city":"Konawe","district":"Sampara","urban":"Bondoala","postal_code":93354},{"province":"Sulawesi Tenggara","city":"Konawe","district":"Besulutu","urban":"Besulutu","postal_code":93354},{"province":"Sulawesi Tenggara","city":"Konawe","district":"Bondoala","urban":"Besu","postal_code":93354},{"province":"Sulawesi Tenggara","city":"Konawe","district":"Sampara","urban":"Baini","postal_code":93354},{"province":"Sulawesi Tenggara","city":"Konawe","district":"Sampara","urban":"Bao-Bao","postal_code":93354},{"province":"Sulawesi Tenggara","city":"Konawe","district":"Sampara","urban":"Anggalomoare","postal_code":93354},{"province":"Sulawesi Tenggara","city":"Konawe","district":"Besulutu","urban":"Asunde","postal_code":93354},{"province":"Sulawesi Tenggara","city":"Konawe","district":"Sampara","urban":"Andepali","postal_code":93354},{"province":"Sulawesi Tenggara","city":"Konawe","district":"Besulutu","urban":"Andomesinggo","postal_code":93354},{"province":"Sulawesi Tenggara","city":"Konawe","district":"Sampara","urban":"Andadowi","postal_code":93354},{"province":"Sulawesi Tenggara","city":"Konawe","district":"Sampara","urban":"Andaroa","postal_code":93354},{"province":"Sulawesi Tenggara","city":"Konawe","district":"Besulutu","urban":"Amosilu","postal_code":93354},{"province":"Sulawesi Tenggara","city":"Konawe","district":"Sampara","urban":"Abeli Sawa (Abelisawah)","postal_code":93354}]