[{"province":"Sulawesi Tenggara","city":"Konawe","district":"Lalonggasumeeto","urban":"Wawobungi","postal_code":93351},{"province":"Sulawesi Tenggara","city":"Konawe","district":"Soropia","urban":"Waworaha","postal_code":93351},{"province":"Sulawesi Tenggara","city":"Konawe","district":"Lalonggasumeeto","urban":"Watunggarandu","postal_code":93351},{"province":"Sulawesi Tenggara","city":"Konawe","district":"Soropia","urban":"Toronipa","postal_code":93351},{"province":"Sulawesi Tenggara","city":"Konawe","district":"Lalonggasumeeto","urban":"Toli Toli","postal_code":93351},{"province":"Sulawesi Tenggara","city":"Konawe","district":"Lalonggasumeeto","urban":"Toolawawo","postal_code":93351},{"province":"Sulawesi Tenggara","city":"Konawe","district":"Soropia","urban":"Telaga Biru","postal_code":93351},{"province":"Sulawesi Tenggara","city":"Konawe","district":"Soropia","urban":"Sorue Jaya","postal_code":93351},{"province":"Sulawesi Tenggara","city":"Konawe","district":"Soropia","urban":"Tapulaga","postal_code":93351},{"province":"Sulawesi Tenggara","city":"Konawe","district":"Soropia","urban":"Saponda Laut","postal_code":93351},{"province":"Sulawesi Tenggara","city":"Konawe","district":"Soropia","urban":"Sawapudo","postal_code":93351},{"province":"Sulawesi Tenggara","city":"Konawe","district":"Soropia","urban":"Soropia","postal_code":93351},{"province":"Sulawesi Tenggara","city":"Konawe","district":"Lalonggasumeeto","urban":"Rapambinopaka","postal_code":93351},{"province":"Sulawesi Tenggara","city":"Konawe","district":"Soropia","urban":"Saponda","postal_code":93351},{"province":"Sulawesi Tenggara","city":"Konawe","district":"Lalonggasumeeto","urban":"Puuwonua","postal_code":93351},{"province":"Sulawesi Tenggara","city":"Konawe","district":"Lalonggasumeeto","urban":"Nii Tanasa","postal_code":93351},{"province":"Sulawesi Tenggara","city":"Konawe","district":"Soropia","urban":"Mekar","postal_code":93351},{"province":"Sulawesi Tenggara","city":"Konawe","district":"Lalonggasumeeto","urban":"Lolanggasumeeto","postal_code":93351},{"province":"Sulawesi Tenggara","city":"Konawe","district":"Soropia","urban":"Leppe","postal_code":93351},{"province":"Sulawesi Tenggara","city":"Konawe","district":"Lalonggasumeeto","urban":"Bumi Indah","postal_code":93351},{"province":"Sulawesi Tenggara","city":"Konawe","district":"Lalonggasumeeto","urban":"Lalombonda","postal_code":93351},{"province":"Sulawesi Tenggara","city":"Konawe","district":"Soropia","urban":"Bajoe","postal_code":93351},{"province":"Sulawesi Tenggara","city":"Konawe","district":"Soropia","urban":"Bokori","postal_code":93351},{"province":"Sulawesi Tenggara","city":"Konawe","district":"Soropia","urban":"Bajo Indah","postal_code":93351},{"province":"Sulawesi Tenggara","city":"Konawe","district":"Soropia","urban":"Atowatu","postal_code":93351}]