[{"province":"Sulawesi Tenggara","city":"Konawe Utara","district":"Asera","urban":"Wunduhaka","postal_code":93353},{"province":"Sulawesi Tenggara","city":"Konawe Utara","district":"Oheo","urban":"Wiwirano","postal_code":93353},{"province":"Sulawesi Tenggara","city":"Konawe Utara","district":"Wiwirano","urban":"Wawontoaha","postal_code":93353},{"province":"Sulawesi Tenggara","city":"Konawe Utara","district":"Wiwirano","urban":"Wawosangi","postal_code":93353},{"province":"Sulawesi Tenggara","city":"Konawe Utara","district":"Asera","urban":"Wawolimbue","postal_code":93353},{"province":"Sulawesi Tenggara","city":"Konawe Utara","district":"Wiwirano","urban":"Wawoheo","postal_code":93353},{"province":"Sulawesi Tenggara","city":"Konawe Utara","district":"Asera","urban":"Wanggudu Raya/Jaya","postal_code":93353},{"province":"Sulawesi Tenggara","city":"Konawe Utara","district":"Asera","urban":"Wanggudu","postal_code":93353},{"province":"Sulawesi Tenggara","city":"Konawe Utara","district":"Asera","urban":"Walasolo","postal_code":93353},{"province":"Sulawesi Tenggara","city":"Konawe Utara","district":"Asera","urban":"Walalindu","postal_code":93353},{"province":"Sulawesi Tenggara","city":"Konawe Utara","district":"Oheo","urban":"Walandawe","postal_code":93353},{"province":"Sulawesi Tenggara","city":"Konawe Utara","district":"Wiwirano","urban":"Wacu Pinodo","postal_code":93353},{"province":"Sulawesi Tenggara","city":"Konawe Utara","district":"Oheo","urban":"Todoloiyo Trans","postal_code":93353},{"province":"Sulawesi Tenggara","city":"Konawe Utara","district":"Oheo","urban":"Tinondo","postal_code":93353},{"province":"Sulawesi Tenggara","city":"Konawe Utara","district":"Wiwirano","urban":"Tetewatu","postal_code":93353},{"province":"Sulawesi Tenggara","city":"Konawe Utara","district":"Asera","urban":"Tapuwatu","postal_code":93353},{"province":"Sulawesi Tenggara","city":"Konawe Utara","district":"Wiwirano","urban":"Tetewatu","postal_code":93353},{"province":"Sulawesi Tenggara","city":"Konawe Utara","district":"Oheo","urban":"Tadoloiyo (Todoloiyo)","postal_code":93353},{"province":"Sulawesi Tenggara","city":"Konawe Utara","district":"Wiwirano","urban":"Tambakua","postal_code":93353},{"province":"Sulawesi Tenggara","city":"Konawe Utara","district":"Oheo","urban":"Sambandete","postal_code":93353},{"province":"Sulawesi Tenggara","city":"Konawe Utara","district":"Asera","urban":"Puuwanggudu","postal_code":93353},{"province":"Sulawesi Tenggara","city":"Konawe Utara","district":"Andowia","urban":"Puuwonua","postal_code":93353},{"province":"Sulawesi Tenggara","city":"Konawe Utara","district":"Asera","urban":"Puunggomosi","postal_code":93353},{"province":"Sulawesi Tenggara","city":"Konawe Utara","district":"Oheo","urban":"Puuhialu","postal_code":93353},{"province":"Sulawesi Tenggara","city":"Konawe Utara","district":"Andowia","urban":"Puusuli","postal_code":93353},{"province":"Sulawesi Tenggara","city":"Konawe Utara","district":"Wiwirano","urban":"Polo-Polora","postal_code":93353},{"province":"Sulawesi Tenggara","city":"Konawe Utara","district":"Wiwirano","urban":"Pondoa","postal_code":93353},{"province":"Sulawesi Tenggara","city":"Konawe Utara","district":"Oheo","urban":"Paka Indah","postal_code":93353},{"province":"Sulawesi Tenggara","city":"Konawe Utara","district":"Wiwirano","urban":"Padalere Utama","postal_code":93353},{"province":"Sulawesi Tenggara","city":"Konawe Utara","district":"Oheo","urban":"Mopute","postal_code":93353},{"province":"Sulawesi Tenggara","city":"Konawe Utara","district":"Wiwirano","urban":"Padalere","postal_code":93353},{"province":"Sulawesi Tenggara","city":"Konawe Utara","district":"Andowia","urban":"Mataiwoi","postal_code":93353},{"province":"Sulawesi Tenggara","city":"Konawe Utara","district":"Wiwirano","urban":"Mata Osole (Molore)","postal_code":93353},{"province":"Sulawesi Tenggara","city":"Konawe Utara","district":"Wiwirano","urban":"Macumelewe (Wacumelewe)","postal_code":93353},{"province":"Sulawesi Tenggara","city":"Konawe Utara","district":"Wiwirano","urban":"Mata Benua","postal_code":93353},{"province":"Sulawesi Tenggara","city":"Konawe Utara","district":"Oheo","urban":"Laroonaha","postal_code":93353},{"province":"Sulawesi Tenggara","city":"Konawe Utara","district":"Oheo","urban":"Linomioyo (Linomoiyo)","postal_code":93353},{"province":"Sulawesi Tenggara","city":"Konawe Utara","district":"Wiwirano","urban":"Laumoso","postal_code":93353},{"province":"Sulawesi Tenggara","city":"Konawe Utara","district":"Wiwirano","urban":"Larompana","postal_code":93353},{"province":"Sulawesi Tenggara","city":"Konawe Utara","district":"Andowia","urban":"Laronaga (Laronanga)","postal_code":93353},{"province":"Sulawesi Tenggara","city":"Konawe Utara","district":"Asera","urban":"Langgeo Utama","postal_code":93353},{"province":"Sulawesi Tenggara","city":"Konawe Utara","district":"Wiwirano","urban":"Landiwo","postal_code":93353},{"province":"Sulawesi Tenggara","city":"Konawe Utara","district":"Andowia","urban":"Larobende","postal_code":93353},{"province":"Sulawesi Tenggara","city":"Konawe Utara","district":"Oheo","urban":"Landawe","postal_code":93353},{"province":"Sulawesi Tenggara","city":"Konawe Utara","district":"Wiwirano","urban":"Landawe Utama","postal_code":93353},{"province":"Sulawesi Tenggara","city":"Konawe Utara","district":"Wiwirano","urban":"Lamparinga","postal_code":93353},{"province":"Sulawesi Tenggara","city":"Konawe Utara","district":"Andowia","urban":"Lamondowo","postal_code":93353},{"province":"Sulawesi Tenggara","city":"Konawe Utara","district":"Wiwirano","urban":"Lamonae","postal_code":93353},{"province":"Sulawesi Tenggara","city":"Konawe Utara","district":"Wiwirano","urban":"Lamonae Utama","postal_code":93353},{"province":"Sulawesi Tenggara","city":"Konawe Utara","district":"Oheo","urban":"Lameoru","postal_code":93353},{"province":"Sulawesi Tenggara","city":"Konawe Utara","district":"Andowia","urban":"Lambudoni","postal_code":93353},{"province":"Sulawesi Tenggara","city":"Konawe Utara","district":"Andowia","urban":"Labungga","postal_code":93353},{"province":"Sulawesi Tenggara","city":"Konawe Utara","district":"Andowia","urban":"Lahimbua","postal_code":93353},{"province":"Sulawesi Tenggara","city":"Konawe Utara","district":"Wiwirano","urban":"Kuratao","postal_code":93353},{"province":"Sulawesi Tenggara","city":"Konawe Utara","district":"Asera","urban":"Kota Mulya","postal_code":93353},{"province":"Sulawesi Tenggara","city":"Konawe Utara","district":"Oheo","urban":"Kota Maju","postal_code":93353},{"province":"Sulawesi Tenggara","city":"Konawe Utara","district":"Wiwirano","urban":"Kolosua","postal_code":93353},{"province":"Sulawesi Tenggara","city":"Konawe Utara","district":"Wiwirano","urban":"Hialu Utama","postal_code":93353},{"province":"Sulawesi Tenggara","city":"Konawe Utara","district":"Wiwirano","urban":"Culambatu","postal_code":93353},{"province":"Sulawesi Tenggara","city":"Konawe Utara","district":"Oheo","urban":"Bendewuta","postal_code":93353},{"province":"Sulawesi Tenggara","city":"Konawe Utara","district":"Andowia","urban":"Banggarema","postal_code":93353},{"province":"Sulawesi Tenggara","city":"Konawe Utara","district":"Oheo","urban":"Bandaeha","postal_code":93353},{"province":"Sulawesi Tenggara","city":"Konawe Utara","district":"Asera","urban":"Asemi Nunulai (Aseminulai)","postal_code":93353},{"province":"Sulawesi Tenggara","city":"Konawe Utara","district":"Asera","urban":"Asera","postal_code":93353},{"province":"Sulawesi Tenggara","city":"Konawe Utara","district":"Andowia","urban":"Andowia","postal_code":93353},{"province":"Sulawesi Tenggara","city":"Konawe Utara","district":"Andowia","urban":"Anggolohipo","postal_code":93353},{"province":"Sulawesi Tenggara","city":"Konawe Utara","district":"Asera","urban":"Amorome Utama","postal_code":93353},{"province":"Sulawesi Tenggara","city":"Konawe Utara","district":"Asera","urban":"Amorere (Amorome)","postal_code":93353},{"province":"Sulawesi Tenggara","city":"Konawe Utara","district":"Andowia","urban":"Amolame","postal_code":93353},{"province":"Sulawesi Tenggara","city":"Konawe","district":"Routa","urban":"Walandawe","postal_code":93353},{"province":"Sulawesi Tenggara","city":"Konawe","district":"Routa","urban":"Tirawonua","postal_code":93353},{"province":"Sulawesi Tenggara","city":"Konawe","district":"Routa","urban":"Routa","postal_code":93353},{"province":"Sulawesi Tenggara","city":"Konawe","district":"Routa","urban":"Parudongka","postal_code":93353}]