[{"province":"Sulawesi Tenggara","city":"Konawe Utara","district":"Motui","urban":"Wawoluri","postal_code":93352},{"province":"Sulawesi Tenggara","city":"Konawe Utara","district":"Lasolo","urban":"Waworaha","postal_code":93352},{"province":"Sulawesi Tenggara","city":"Konawe Utara","district":"Lasolo","urban":"Waturambaha","postal_code":93352},{"province":"Sulawesi Tenggara","city":"Konawe Utara","district":"Lasolo","urban":"Wawolesea","postal_code":93352},{"province":"Sulawesi Tenggara","city":"Konawe Utara","district":"Lasolo","urban":"Toreo","postal_code":93352},{"province":"Sulawesi Tenggara","city":"Konawe Utara","district":"Lasolo","urban":"Watukila","postal_code":93352},{"province":"Sulawesi Tenggara","city":"Konawe Utara","district":"Sawa","urban":"Ulu Sawa","postal_code":93352},{"province":"Sulawesi Tenggara","city":"Konawe Utara","district":"Motui","urban":"Tondowatu","postal_code":93352},{"province":"Sulawesi Tenggara","city":"Konawe Utara","district":"Lembo","urban":"Tonggalino (Tongalino)","postal_code":93352},{"province":"Sulawesi Tenggara","city":"Konawe Utara","district":"Langgikima","urban":"Tobimetia","postal_code":93352},{"province":"Sulawesi Tenggara","city":"Konawe Utara","district":"Sawa","urban":"Tobi Meita","postal_code":93352},{"province":"Sulawesi Tenggara","city":"Konawe Utara","district":"Lasolo","urban":"Tetelupai","postal_code":93352},{"province":"Sulawesi Tenggara","city":"Konawe Utara","district":"Lasolo","urban":"Tinobu","postal_code":93352},{"province":"Sulawesi Tenggara","city":"Konawe Utara","district":"Molawe","urban":"Tapunggaea","postal_code":93352},{"province":"Sulawesi Tenggara","city":"Konawe Utara","district":"Lasolo","urban":"Tanjung Bunga","postal_code":93352},{"province":"Sulawesi Tenggara","city":"Konawe Utara","district":"Molawe","urban":"Tapuemea","postal_code":93352},{"province":"Sulawesi Tenggara","city":"Konawe Utara","district":"Sawa","urban":"Tangauna (Tongauna)","postal_code":93352},{"province":"Sulawesi Tenggara","city":"Konawe Utara","district":"Lembo","urban":"Taipa","postal_code":93352},{"province":"Sulawesi Tenggara","city":"Konawe Utara","district":"Langgikima","urban":"Sari Mukti","postal_code":93352},{"province":"Sulawesi Tenggara","city":"Konawe Utara","district":"Sawa","urban":"Sawa","postal_code":93352},{"province":"Sulawesi Tenggara","city":"Konawe Utara","district":"Motui","urban":"Puuwonggia","postal_code":93352},{"province":"Sulawesi Tenggara","city":"Konawe Utara","district":"Sawa","urban":"Puupi","postal_code":93352},{"province":"Sulawesi Tenggara","city":"Konawe Utara","district":"Lembo","urban":"Puusiambu","postal_code":93352},{"province":"Sulawesi Tenggara","city":"Konawe Utara","district":"Lembo","urban":"Puulemo","postal_code":93352},{"province":"Sulawesi Tenggara","city":"Konawe Utara","district":"Motui","urban":"Punggulahi","postal_code":93352},{"province":"Sulawesi Tenggara","city":"Konawe Utara","district":"Sawa","urban":"Pudonggala Utama","postal_code":93352},{"province":"Sulawesi Tenggara","city":"Konawe Utara","district":"Sawa","urban":"Puudonggala (Pudonggala)","postal_code":93352},{"province":"Sulawesi Tenggara","city":"Konawe Utara","district":"Motui","urban":"Poni Poniki","postal_code":93352},{"province":"Sulawesi Tenggara","city":"Konawe Utara","district":"Langgikima","urban":"Polora Indah","postal_code":93352},{"province":"Sulawesi Tenggara","city":"Konawe Utara","district":"Lembo","urban":"Pasir Putih","postal_code":93352},{"province":"Sulawesi Tenggara","city":"Konawe Utara","district":"Langgikima","urban":"Pariama","postal_code":93352},{"province":"Sulawesi Tenggara","city":"Konawe Utara","district":"Lasolo","urban":"Otole","postal_code":93352},{"province":"Sulawesi Tenggara","city":"Konawe Utara","district":"Lembo","urban":"Padaleu","postal_code":93352},{"province":"Sulawesi Tenggara","city":"Konawe Utara","district":"Lasolo","urban":"Muara Tinobu","postal_code":93352},{"province":"Sulawesi Tenggara","city":"Konawe Utara","district":"Lasolo","urban":"Otipulu","postal_code":93352},{"province":"Sulawesi Tenggara","city":"Konawe Utara","district":"Motui","urban":"Motui","postal_code":93352},{"province":"Sulawesi Tenggara","city":"Konawe Utara","district":"Molawe","urban":"Mowundo","postal_code":93352},{"province":"Sulawesi Tenggara","city":"Konawe Utara","district":"Lasolo","urban":"Morombo Pantai","postal_code":93352},{"province":"Sulawesi Tenggara","city":"Konawe Utara","district":"Langgikima","urban":"Morombo","postal_code":93352},{"province":"Sulawesi Tenggara","city":"Konawe Utara","district":"Lasolo","urban":"Matapila","postal_code":93352},{"province":"Sulawesi Tenggara","city":"Konawe Utara","district":"Langgikima","urban":"Molore","postal_code":93352},{"province":"Sulawesi Tenggara","city":"Konawe Utara","district":"Molawe","urban":"Molawe","postal_code":93352},{"province":"Sulawesi Tenggara","city":"Konawe Utara","district":"Sawa","urban":"Matanggonawe","postal_code":93352},{"province":"Sulawesi Tenggara","city":"Konawe Utara","district":"Motui","urban":"Matandahi","postal_code":93352},{"province":"Sulawesi Tenggara","city":"Konawe Utara","district":"Molawe","urban":"Mandiopo (Mandiodo)","postal_code":93352},{"province":"Sulawesi Tenggara","city":"Konawe Utara","district":"Molawe","urban":"Mataiwoi","postal_code":93352},{"province":"Sulawesi Tenggara","city":"Konawe Utara","district":"Lasolo","urban":"Lemobajo","postal_code":93352},{"province":"Sulawesi Tenggara","city":"Konawe Utara","district":"Lembo","urban":"Lembo","postal_code":93352},{"province":"Sulawesi Tenggara","city":"Konawe Utara","district":"Lembo","urban":"Laramo","postal_code":93352},{"province":"Sulawesi Tenggara","city":"Konawe Utara","district":"Lasolo","urban":"Larodangge","postal_code":93352},{"province":"Sulawesi Tenggara","city":"Konawe Utara","district":"Langgikima","urban":"Langgikima (Langgi Kima)","postal_code":93352},{"province":"Sulawesi Tenggara","city":"Konawe Utara","district":"Lembo","urban":"Lapulu","postal_code":93352},{"province":"Sulawesi Tenggara","city":"Konawe Utara","district":"Lasolo","urban":"Lametono","postal_code":93352},{"province":"Sulawesi Tenggara","city":"Konawe Utara","district":"Motui","urban":"Lambuluo","postal_code":93352},{"province":"Sulawesi Tenggara","city":"Konawe Utara","district":"Langgikima","urban":"Lameruru","postal_code":93352},{"province":"Sulawesi Tenggara","city":"Konawe Utara","district":"Sawa","urban":"Laimeo","postal_code":93352},{"province":"Sulawesi Tenggara","city":"Konawe Utara","district":"Sawa","urban":"Lalembo","postal_code":93352},{"province":"Sulawesi Tenggara","city":"Konawe Utara","district":"Lasolo","urban":"Lalowaru","postal_code":93352},{"province":"Sulawesi Tenggara","city":"Konawe Utara","district":"Sawa","urban":"Kapolano","postal_code":93352},{"province":"Sulawesi Tenggara","city":"Konawe Utara","district":"Sawa","urban":"Kokapi","postal_code":93352},{"province":"Sulawesi Tenggara","city":"Konawe Utara","district":"Lasolo","urban":"Labengki","postal_code":93352},{"province":"Sulawesi Tenggara","city":"Konawe Utara","district":"Lasolo","urban":"Kampobunga","postal_code":93352},{"province":"Sulawesi Tenggara","city":"Konawe Utara","district":"Lembo","urban":"Bungguosu","postal_code":93352},{"province":"Sulawesi Tenggara","city":"Konawe Utara","district":"Lasolo","urban":"Boenaga","postal_code":93352},{"province":"Sulawesi Tenggara","city":"Konawe Utara","district":"Lasolo","urban":"Boenaga","postal_code":93352},{"province":"Sulawesi Tenggara","city":"Konawe Utara","district":"Lasolo","urban":"Barasanga","postal_code":93352},{"province":"Sulawesi Tenggara","city":"Konawe Utara","district":"Lasolo","urban":"Basule","postal_code":93352},{"province":"Sulawesi Tenggara","city":"Konawe Utara","district":"Lasolo","urban":"Belalo","postal_code":93352},{"province":"Sulawesi Tenggara","city":"Konawe Utara","district":"Motui","urban":"Banggina (Banggima)","postal_code":93352},{"province":"Sulawesi Tenggara","city":"Konawe Utara","district":"Molawe","urban":"Bandaeha","postal_code":93352},{"province":"Sulawesi Tenggara","city":"Konawe Utara","district":"Molawe","urban":"Awila Puncak","postal_code":93352},{"province":"Sulawesi Tenggara","city":"Konawe Utara","district":"Molawe","urban":"Awila","postal_code":93352},{"province":"Sulawesi Tenggara","city":"Konawe Utara","district":"Lasolo","urban":"Andeo","postal_code":93352},{"province":"Sulawesi Tenggara","city":"Konawe Utara","district":"Lasolo","urban":"Andumowu","postal_code":93352},{"province":"Sulawesi Tenggara","city":"Konawe Utara","district":"Lembo","urban":"Alo-Alo","postal_code":93352},{"province":"Sulawesi Tenggara","city":"Konawe Utara","district":"Langgikima","urban":"Alenggo","postal_code":93352},{"province":"Sulawesi Tenggara","city":"Konawe Utara","district":"Lasolo","urban":"Abola","postal_code":93352}]