[{"province":"Sulawesi Tenggara","city":"Konawe","district":"Wawonii Tenggara","urban":"Wunse Jaya","postal_code":93393},{"province":"Sulawesi Tenggara","city":"Konawe","district":"Wawonii Selatan","urban":"Wungkolo","postal_code":93393},{"province":"Sulawesi Tenggara","city":"Konawe","district":"Wawonii Selatan","urban":"Wawosou","postal_code":93393},{"province":"Sulawesi Tenggara","city":"Konawe","district":"Wawonii Selatan","urban":"Wawouso Baru","postal_code":93393},{"province":"Sulawesi Tenggara","city":"Konawe","district":"Wawonii Selatan","urban":"Wawoone","postal_code":93393},{"province":"Sulawesi Tenggara","city":"Konawe","district":"Wawonii Utara","urban":"Waworope","postal_code":93393},{"province":"Sulawesi Tenggara","city":"Konawe","district":"Wawonii Barat","urban":"Wawolaa","postal_code":93393},{"province":"Sulawesi Tenggara","city":"Konawe","district":"Wawonii Utara","urban":"Wawoea","postal_code":93393},{"province":"Sulawesi Tenggara","city":"Konawe","district":"Wawonii Barat","urban":"Wawobili","postal_code":93393},{"province":"Sulawesi Tenggara","city":"Konawe","district":"Wawonii Utara","urban":"Wawobeau","postal_code":93393},{"province":"Sulawesi Tenggara","city":"Konawe","district":"Wawonii Timur Laut","urban":"Watuonde","postal_code":93393},{"province":"Sulawesi Tenggara","city":"Konawe","district":"Wawonii Timur","urban":"Wakadawu","postal_code":93393},{"province":"Sulawesi Tenggara","city":"Konawe","district":"Wawonii Tengah","urban":"Wawo Indah","postal_code":93393},{"province":"Sulawesi Tenggara","city":"Konawe","district":"Wawonii Tengah","urban":"Tumbu Tumbu Jaya","postal_code":93393},{"province":"Sulawesi Tenggara","city":"Konawe","district":"Wawonii Utara","urban":"Tumburano","postal_code":93393},{"province":"Sulawesi Tenggara","city":"Konawe","district":"Wawonii Tenggara","urban":"Teparoko","postal_code":93393},{"province":"Sulawesi Tenggara","city":"Konawe","district":"Wawonii Tenggara","urban":"Tondonggito","postal_code":93393},{"province":"Sulawesi Tenggara","city":"Konawe","district":"Wawonii Timur Laut","urban":"Tangkombuno","postal_code":93393},{"province":"Sulawesi Tenggara","city":"Konawe","district":"Wawonii Timur","urban":"Tekonea","postal_code":93393},{"province":"Sulawesi Tenggara","city":"Konawe","district":"Wawonii Utara","urban":"Tambaone","postal_code":93393},{"province":"Sulawesi Tenggara","city":"Konawe","district":"Wawonii Utara","urban":"Tambaone Utama","postal_code":93393},{"province":"Sulawesi Tenggara","city":"Konawe","district":"Wawonii Tenggara","urban":"Sinar Masolo","postal_code":93393},{"province":"Sulawesi Tenggara","city":"Konawe","district":"Wawonii Tenggara","urban":"Sukarela Jaya","postal_code":93393},{"province":"Sulawesi Tenggara","city":"Konawe","district":"Wawonii Tenggara","urban":"Sinaalu Jaya","postal_code":93393},{"province":"Sulawesi Tenggara","city":"Konawe","district":"Wawonii Selatan","urban":"Sawaea","postal_code":93393},{"province":"Sulawesi Tenggara","city":"Konawe","district":"Wawonii Selatan","urban":"Sawapatani","postal_code":93393},{"province":"Sulawesi Tenggara","city":"Konawe","district":"Wawonii Tenggara","urban":"Sainoa Indah","postal_code":93393},{"province":"Sulawesi Tenggara","city":"Konawe","district":"Wawonii Tenggara","urban":"Sainoa Jaya","postal_code":93393},{"province":"Sulawesi Tenggara","city":"Konawe","district":"Wawonii Tengah","urban":"Rawa Indah","postal_code":93393},{"province":"Sulawesi Tenggara","city":"Konawe","district":"Wawonii Tenggara","urban":"Roko Roko","postal_code":93393},{"province":"Sulawesi Tenggara","city":"Konawe","district":"Wawonii Selatan","urban":"Puuwatu","postal_code":93393},{"province":"Sulawesi Tenggara","city":"Konawe","district":"Wawonii Timur Laut","urban":"Puurau","postal_code":93393},{"province":"Sulawesi Tenggara","city":"Konawe","district":"Wawonii Tenggara","urban":"Polara","postal_code":93393},{"province":"Sulawesi Tenggara","city":"Konawe","district":"Wawonii Utara","urban":"Palingi Barat","postal_code":93393},{"province":"Sulawesi Tenggara","city":"Konawe","district":"Wawonii Timur Laut","urban":"Patande","postal_code":93393},{"province":"Sulawesi Tenggara","city":"Konawe","district":"Wawonii Utara","urban":"Palingi","postal_code":93393},{"province":"Sulawesi Tenggara","city":"Konawe","district":"Wawonii Tenggara","urban":"Nambo Jaya","postal_code":93393},{"province":"Sulawesi Tenggara","city":"Konawe","district":"Wawonii Tenggara","urban":"Nambo Jaya","postal_code":93393},{"province":"Sulawesi Tenggara","city":"Konawe","district":"Wawonii Timur","urban":"Nanga","postal_code":93393},{"province":"Sulawesi Tenggara","city":"Konawe","district":"Wawonii Timur","urban":"Munse","postal_code":93393},{"province":"Sulawesi Tenggara","city":"Konawe","district":"Wawonii Timur","urban":"Munse Indah","postal_code":93393},{"province":"Sulawesi Tenggara","city":"Konawe","district":"Wawonii Tengah","urban":"Mekar Sari","postal_code":93393},{"province":"Sulawesi Tenggara","city":"Konawe","district":"Wawonii Tengah","urban":"Morobea","postal_code":93393},{"province":"Sulawesi Tenggara","city":"Konawe","district":"Wawonii Utara","urban":"Mataiwoi","postal_code":93393},{"province":"Sulawesi Tenggara","city":"Konawe","district":"Wawonii Utara","urban":"Mawa","postal_code":93393},{"province":"Sulawesi Tenggara","city":"Konawe","district":"Wawonii Utara","urban":"Matabubu","postal_code":93393},{"province":"Sulawesi Tenggara","city":"Konawe","district":"Wawonii Barat","urban":"Mata Langgara","postal_code":93393},{"province":"Sulawesi Tenggara","city":"Konawe","district":"Wawonii Timur Laut","urban":"Matabubu","postal_code":93393},{"province":"Sulawesi Tenggara","city":"Konawe","district":"Wawonii Timur Laut","urban":"Mata Dimba","postal_code":93393},{"province":"Sulawesi Tenggara","city":"Konawe","district":"Wawonii Utara","urban":"Mata Buranga","postal_code":93393},{"province":"Sulawesi Tenggara","city":"Konawe","district":"Wawonii Barat","urban":"Mata Baho","postal_code":93393},{"province":"Sulawesi Tenggara","city":"Konawe","district":"Wawonii Tenggara","urban":"Masolo","postal_code":93393},{"province":"Sulawesi Tenggara","city":"Konawe","district":"Wawonii Timur","urban":"Laywo Jaya","postal_code":93393},{"province":"Sulawesi Tenggara","city":"Konawe","district":"Wawonii Timur","urban":"Lebo","postal_code":93393},{"province":"Sulawesi Tenggara","city":"Konawe","district":"Wawonii Selatan","urban":"Lawey","postal_code":93393},{"province":"Sulawesi Tenggara","city":"Konawe","district":"Wawonii Timur","urban":"Lapulu","postal_code":93393},{"province":"Sulawesi Tenggara","city":"Konawe","district":"Wawonii Barat","urban":"Langara Laut","postal_code":93393},{"province":"Sulawesi Tenggara","city":"Konawe","district":"Wawonii Utara","urban":"Lansilowo","postal_code":93393},{"province":"Sulawesi Tenggara","city":"Konawe","district":"Wawonii Barat","urban":"Langara Indah","postal_code":93393},{"province":"Sulawesi Tenggara","city":"Konawe","district":"Wawonii Barat","urban":"Langara Iwawo","postal_code":93393},{"province":"Sulawesi Tenggara","city":"Konawe","district":"Wawonii Barat","urban":"Langara Bajo","postal_code":93393},{"province":"Sulawesi Tenggara","city":"Konawe","district":"Wawonii Tengah","urban":"Lamongupa","postal_code":93393},{"province":"Sulawesi Tenggara","city":"Konawe","district":"Wawonii Tengah","urban":"Lampeapi","postal_code":93393},{"province":"Sulawesi Tenggara","city":"Konawe","district":"Wawonii Barat","urban":"Lamaluo (Lamoluo)","postal_code":93393},{"province":"Sulawesi Tenggara","city":"Konawe","district":"Wawonii Timur Laut","urban":"Ladianta","postal_code":93393},{"province":"Sulawesi Tenggara","city":"Konawe","district":"Wawonii Utara","urban":"Labeau","postal_code":93393},{"province":"Sulawesi Tenggara","city":"Konawe","district":"Wawonii Utara","urban":"Labisa","postal_code":93393},{"province":"Sulawesi Tenggara","city":"Konawe","district":"Wawonii Utara","urban":"Dongkalaea","postal_code":93393},{"province":"Sulawesi Tenggara","city":"Konawe","district":"Wawonii Tenggara","urban":"Dompo-dompo Jaya","postal_code":93393},{"province":"Sulawesi Tenggara","city":"Konawe","district":"Wawonii Timur Laut","urban":"Dimba","postal_code":93393},{"province":"Sulawesi Tenggara","city":"Konawe","district":"Wawonii Barat","urban":"Bukit Permai","postal_code":93393},{"province":"Sulawesi Tenggara","city":"Konawe","district":"Wawonii Selatan","urban":"Bobolio","postal_code":93393},{"province":"Sulawesi Tenggara","city":"Konawe","district":"Wawonii Tengah","urban":"Batumea","postal_code":93393},{"province":"Sulawesi Tenggara","city":"Konawe","district":"Wawonii Selatan","urban":"Baku-baku","postal_code":93393},{"province":"Sulawesi Tenggara","city":"Konawe","district":"Wawonii Timur Laut","urban":"Bangun Mekar","postal_code":93393},{"province":"Sulawesi Tenggara","city":"Konawe","district":"Wawonii Timur Laut","urban":"Baho Bubu","postal_code":93393}]