[{"province":"Sulawesi Tenggara","city":"Konawe Selatan","district":"Kolono","urban":"Ulusena Jaya","postal_code":93395},{"province":"Sulawesi Tenggara","city":"Konawe Selatan","district":"Kolono","urban":"Wawoosu","postal_code":93395},{"province":"Sulawesi Tenggara","city":"Konawe Selatan","district":"Kolono","urban":"Waworano","postal_code":93395},{"province":"Sulawesi Tenggara","city":"Konawe Selatan","district":"Kolono","urban":"Torodale","postal_code":93395},{"province":"Sulawesi Tenggara","city":"Konawe Selatan","district":"Kolono","urban":"Tumbu-Tumbu Jaya","postal_code":93395},{"province":"Sulawesi Tenggara","city":"Konawe Selatan","district":"Kolono","urban":"Ulunese","postal_code":93395},{"province":"Sulawesi Tenggara","city":"Konawe Selatan","district":"Kolono","urban":"Silea","postal_code":93395},{"province":"Sulawesi Tenggara","city":"Konawe Selatan","district":"Kolono","urban":"Tiraosu","postal_code":93395},{"province":"Sulawesi Tenggara","city":"Konawe Selatan","district":"Kolono","urban":"Rumba-Rumba","postal_code":93395},{"province":"Sulawesi Tenggara","city":"Konawe Selatan","district":"Kolono","urban":"Sarandua","postal_code":93395},{"province":"Sulawesi Tenggara","city":"Konawe Selatan","district":"Kolono","urban":"Sawah","postal_code":93395},{"province":"Sulawesi Tenggara","city":"Konawe Selatan","district":"Kolono","urban":"Rambu-Rambu","postal_code":93395},{"province":"Sulawesi Tenggara","city":"Konawe Selatan","district":"Kolono","urban":"Roda","postal_code":93395},{"province":"Sulawesi Tenggara","city":"Konawe Selatan","district":"Kolono","urban":"Ngapawali","postal_code":93395},{"province":"Sulawesi Tenggara","city":"Konawe Selatan","district":"Kolono","urban":"Puudongi","postal_code":93395},{"province":"Sulawesi Tenggara","city":"Konawe Selatan","district":"Kolono","urban":"Puupi","postal_code":93395},{"province":"Sulawesi Tenggara","city":"Konawe Selatan","district":"Kolono","urban":"Matandahi","postal_code":93395},{"province":"Sulawesi Tenggara","city":"Konawe Selatan","district":"Kolono","urban":"Meletumbu (Meletumbo)","postal_code":93395},{"province":"Sulawesi Tenggara","city":"Konawe Selatan","district":"Kolono","urban":"Mondoe Jaya","postal_code":93395},{"province":"Sulawesi Tenggara","city":"Konawe Selatan","district":"Kolono","urban":"Langgowala","postal_code":93395},{"province":"Sulawesi Tenggara","city":"Konawe Selatan","district":"Kolono","urban":"Mataiwoi","postal_code":93395},{"province":"Sulawesi Tenggara","city":"Konawe Selatan","district":"Kolono","urban":"Lamotau","postal_code":93395},{"province":"Sulawesi Tenggara","city":"Konawe Selatan","district":"Kolono","urban":"Langgapulu","postal_code":93395},{"province":"Sulawesi Tenggara","city":"Konawe Selatan","district":"Kolono","urban":"Lambangi","postal_code":93395},{"province":"Sulawesi Tenggara","city":"Konawe Selatan","district":"Kolono","urban":"Kolono","postal_code":93395},{"province":"Sulawesi Tenggara","city":"Konawe Selatan","district":"Kolono","urban":"Lamapu","postal_code":93395},{"province":"Sulawesi Tenggara","city":"Konawe Selatan","district":"Kolono","urban":"Ampera","postal_code":93395},{"province":"Sulawesi Tenggara","city":"Konawe Selatan","district":"Kolono","urban":"Awunio","postal_code":93395},{"province":"Sulawesi Tenggara","city":"Konawe Selatan","district":"Kolono","urban":"Batu Putih","postal_code":93395},{"province":"Sulawesi Tenggara","city":"Konawe Selatan","district":"Kolono","urban":"Alosi","postal_code":93395},{"province":"Sulawesi Tenggara","city":"Konawe Selatan","district":"Kolono","urban":"Amolengu","postal_code":93395},{"province":"Sulawesi Tenggara","city":"Konawe Selatan","district":"Kolono","urban":"Adinete","postal_code":93395}]