[{"province":"Sulawesi Tenggara","city":"Konawe","district":"Puriala","urban":"Wonua/Wanua Morome","postal_code":93464},{"province":"Sulawesi Tenggara","city":"Konawe","district":"Puriala","urban":"Wawosanggula","postal_code":93464},{"province":"Sulawesi Tenggara","city":"Konawe","district":"Lambuya","urban":"Waworaha","postal_code":93464},{"province":"Sulawesi Tenggara","city":"Konawe","district":"Puriala","urban":"Watundehoa (Watandehoa)","postal_code":93464},{"province":"Sulawesi Tenggara","city":"Konawe","district":"Puriala","urban":"Watusa","postal_code":93464},{"province":"Sulawesi Tenggara","city":"Konawe","district":"Lambuya","urban":"Watarema","postal_code":93464},{"province":"Sulawesi Tenggara","city":"Konawe","district":"Lambuya","urban":"Wanuahoa","postal_code":93464},{"province":"Sulawesi Tenggara","city":"Konawe","district":"Puriala","urban":"Unggulino","postal_code":93464},{"province":"Sulawesi Tenggara","city":"Konawe","district":"Onembute","urban":"Ulumeraka","postal_code":93464},{"province":"Sulawesi Tenggara","city":"Konawe","district":"Lambuya","urban":"Ulu Meraka (Sukamaju)","postal_code":93464},{"province":"Sulawesi Tenggara","city":"Konawe","district":"Onembute","urban":"Ulu Onembute","postal_code":93464},{"province":"Sulawesi Tenggara","city":"Konawe","district":"Uepai (Uwepai)","urban":"Uepai","postal_code":93464},{"province":"Sulawesi Tenggara","city":"Konawe","district":"Onembute","urban":"Trimulya","postal_code":93464},{"province":"Sulawesi Tenggara","city":"Konawe","district":"Uepai (Uwepai)","urban":"Uepai","postal_code":93464},{"province":"Sulawesi Tenggara","city":"Konawe","district":"Puriala","urban":"Tetehaka","postal_code":93464},{"province":"Sulawesi Tenggara","city":"Konawe","district":"Lambuya","urban":"Tetembomua","postal_code":93464},{"province":"Sulawesi Tenggara","city":"Konawe","district":"Onembute","urban":"Tawapandere","postal_code":93464},{"province":"Sulawesi Tenggara","city":"Konawe","district":"Uepai (Uwepai)","urban":"Tawarotebota","postal_code":93464},{"province":"Sulawesi Tenggara","city":"Konawe","district":"Lambuya","urban":"Tanggobu","postal_code":93464},{"province":"Sulawesi Tenggara","city":"Konawe","district":"Uepai (Uwepai)","urban":"Tawamelewe","postal_code":93464},{"province":"Sulawesi Tenggara","city":"Konawe","district":"Puriala","urban":"Sonai","postal_code":93464},{"province":"Sulawesi Tenggara","city":"Konawe","district":"Uepai (Uwepai)","urban":"Rawua","postal_code":93464},{"province":"Sulawesi Tenggara","city":"Konawe","district":"Onembute","urban":"Silea","postal_code":93464},{"province":"Sulawesi Tenggara","city":"Konawe","district":"Puriala","urban":"Puuhopa","postal_code":93464},{"province":"Sulawesi Tenggara","city":"Konawe","district":"Puriala","urban":"Puusangi","postal_code":93464},{"province":"Sulawesi Tenggara","city":"Konawe","district":"Puriala","urban":"Puriala","postal_code":93464},{"province":"Sulawesi Tenggara","city":"Konawe","district":"Onembute","urban":"Nopoosi","postal_code":93464},{"province":"Sulawesi Tenggara","city":"Konawe","district":"Onembute","urban":"Onembute","postal_code":93464},{"province":"Sulawesi Tenggara","city":"Konawe","district":"Lambuya","urban":"Meraka","postal_code":93464},{"province":"Sulawesi Tenggara","city":"Konawe","district":"Puriala","urban":"Mokaleleo","postal_code":93464},{"province":"Sulawesi Tenggara","city":"Konawe","district":"Uepai (Uwepai)","urban":"Matahoalu","postal_code":93464},{"province":"Sulawesi Tenggara","city":"Konawe","district":"Onembute","urban":"Mataiwoi","postal_code":93464},{"province":"Sulawesi Tenggara","city":"Konawe","district":"Lambuya","urban":"Lambuya","postal_code":93464},{"province":"Sulawesi Tenggara","city":"Konawe","district":"Lambuya","urban":"Lambuya","postal_code":93464},{"province":"Sulawesi Tenggara","city":"Konawe","district":"Puriala","urban":"Lalonggatu","postal_code":93464},{"province":"Sulawesi Tenggara","city":"Konawe","district":"Puriala","urban":"Laloonaha","postal_code":93464},{"province":"Sulawesi Tenggara","city":"Konawe","district":"Onembute","urban":"Kumapo","postal_code":93464},{"province":"Sulawesi Tenggara","city":"Konawe","district":"Onembute","urban":"Kasumeia","postal_code":93464},{"province":"Sulawesi Tenggara","city":"Konawe","district":"Uepai (Uwepai)","urban":"Baruga","postal_code":93464},{"province":"Sulawesi Tenggara","city":"Konawe","district":"Lambuya","urban":"Awuliti (Wawuliti)","postal_code":93464},{"province":"Sulawesi Tenggara","city":"Konawe","district":"Uepai (Uwepai)","urban":"Anggopiu","postal_code":93464},{"province":"Sulawesi Tenggara","city":"Konawe","district":"Lambuya","urban":"Asaki (Isaki)","postal_code":93464},{"province":"Sulawesi Tenggara","city":"Konawe","district":"Uepai (Uwepai)","urban":"Ameroro","postal_code":93464},{"province":"Sulawesi Tenggara","city":"Konawe","district":"Lambuya","urban":"Amberi","postal_code":93464},{"province":"Sulawesi Tenggara","city":"Konawe","district":"Uepai (Uwepai)","urban":"Amaroa","postal_code":93464},{"province":"Sulawesi Tenggara","city":"Konawe","district":"Uepai (Uwepai)","urban":"Alo-Oloho","postal_code":93464},{"province":"Sulawesi Tenggara","city":"Konawe","district":"Puriala","urban":"Ahuawali","postal_code":93464}]