[{"province":"Sulawesi Tenggara","city":"Konawe","district":"Pondidaha","urban":"Wonua Monapa","postal_code":93463},{"province":"Sulawesi Tenggara","city":"Konawe","district":"Wonggeduku","urban":"Wonggeduku","postal_code":93463},{"province":"Sulawesi Tenggara","city":"Konawe","district":"Wonggeduku","urban":"Wawoone","postal_code":93463},{"province":"Sulawesi Tenggara","city":"Konawe","district":"Wonggeduku","urban":"Wawosolo","postal_code":93463},{"province":"Sulawesi Tenggara","city":"Konawe","district":"Pondidaha","urban":"Wawolemo","postal_code":93463},{"province":"Sulawesi Tenggara","city":"Konawe","district":"Wonggeduku","urban":"Wawonggole","postal_code":93463},{"province":"Sulawesi Tenggara","city":"Konawe","district":"Amonggedo","urban":"Watulawu","postal_code":93463},{"province":"Sulawesi Tenggara","city":"Konawe","district":"Amonggedo","urban":"Wawohine","postal_code":93463},{"province":"Sulawesi Tenggara","city":"Konawe","district":"Amonggedo","urban":"Ulu Benua","postal_code":93463},{"province":"Sulawesi Tenggara","city":"Konawe","district":"Wonggeduku","urban":"Tomulipu / Wakusao","postal_code":93463},{"province":"Sulawesi Tenggara","city":"Konawe","district":"Pondidaha","urban":"Tirawuta","postal_code":93463},{"province":"Sulawesi Tenggara","city":"Konawe","district":"Wonggeduku","urban":"Tetemotaha","postal_code":93463},{"province":"Sulawesi Tenggara","city":"Konawe","district":"Wonggeduku","urban":"Teteona","postal_code":93463},{"province":"Sulawesi Tenggara","city":"Konawe","district":"Pondidaha","urban":"Puumbinisi","postal_code":93463},{"province":"Sulawesi Tenggara","city":"Konawe","district":"Wonggeduku","urban":"Tawarolondo","postal_code":93463},{"province":"Sulawesi Tenggara","city":"Konawe","district":"Amonggedo","urban":"Puasana","postal_code":93463},{"province":"Sulawesi Tenggara","city":"Konawe","district":"Wonggeduku","urban":"Puday","postal_code":93463},{"province":"Sulawesi Tenggara","city":"Konawe","district":"Wonggeduku","urban":"Puuduria","postal_code":93463},{"province":"Sulawesi Tenggara","city":"Konawe","district":"Pondidaha","urban":"Mumundowu","postal_code":93463},{"province":"Sulawesi Tenggara","city":"Konawe","district":"Pondidaha","urban":"Pondidaha","postal_code":93463},{"province":"Sulawesi Tenggara","city":"Konawe","district":"Amonggedo","urban":"Mata Iwoi","postal_code":93463},{"province":"Sulawesi Tenggara","city":"Konawe","district":"Amonggedo","urban":"Mendikonu","postal_code":93463},{"province":"Sulawesi Tenggara","city":"Konawe","district":"Amonggedo","urban":"Mata Bura","postal_code":93463},{"province":"Sulawesi Tenggara","city":"Konawe","district":"Wonggeduku","urban":"Masoose","postal_code":93463},{"province":"Sulawesi Tenggara","city":"Konawe","district":"Wonggeduku","urban":"Lamokuni","postal_code":93463},{"province":"Sulawesi Tenggara","city":"Konawe","district":"Wonggeduku","urban":"Langgonawe","postal_code":93463},{"province":"Sulawesi Tenggara","city":"Konawe","district":"Wonggeduku","urban":"Lanonggasai","postal_code":93463},{"province":"Sulawesi Tenggara","city":"Konawe","district":"Wonggeduku","urban":"Lalousu","postal_code":93463},{"province":"Sulawesi Tenggara","city":"Konawe","district":"Wonggeduku","urban":"Lambangi","postal_code":93463},{"province":"Sulawesi Tenggara","city":"Konawe","district":"Wonggeduku","urban":"Lalohao","postal_code":93463},{"province":"Sulawesi Tenggara","city":"Konawe","district":"Amonggedo","urban":"Lalonona","postal_code":93463},{"province":"Sulawesi Tenggara","city":"Konawe","district":"Pondidaha","urban":"Lahonggumbi","postal_code":93463},{"province":"Sulawesi Tenggara","city":"Konawe","district":"Wonggeduku","urban":"Lahututu","postal_code":93463},{"province":"Sulawesi Tenggara","city":"Konawe","district":"Pondidaha","urban":"Hongoa","postal_code":93463},{"province":"Sulawesi Tenggara","city":"Konawe","district":"Wonggeduku","urban":"Kasumokuni","postal_code":93463},{"province":"Sulawesi Tenggara","city":"Konawe","district":"Wonggeduku","urban":"Duriaasi","postal_code":93463},{"province":"Sulawesi Tenggara","city":"Konawe","district":"Amonggedo","urban":"Dunggua","postal_code":93463},{"province":"Sulawesi Tenggara","city":"Konawe","district":"Wonggeduku","urban":"Bendewuta","postal_code":93463},{"province":"Sulawesi Tenggara","city":"Konawe","district":"Wonggeduku","urban":"Dawi-dawi","postal_code":93463},{"province":"Sulawesi Tenggara","city":"Konawe","district":"Amonggedo","urban":"Benua","postal_code":93463},{"province":"Sulawesi Tenggara","city":"Konawe","district":"Pondidaha","urban":"Belatu","postal_code":93463},{"province":"Sulawesi Tenggara","city":"Konawe","district":"Wonggeduku","urban":"Baruga","postal_code":93463},{"province":"Sulawesi Tenggara","city":"Konawe","district":"Amonggedo","urban":"Amonggedo","postal_code":93463},{"province":"Sulawesi Tenggara","city":"Konawe","district":"Amonggedo","urban":"Amonggedo Baru","postal_code":93463},{"province":"Sulawesi Tenggara","city":"Konawe","district":"Amonggedo","urban":"Anahinunu","postal_code":93463},{"province":"Sulawesi Tenggara","city":"Konawe","district":"Pondidaha","urban":"Ambulanu","postal_code":93463},{"province":"Sulawesi Tenggara","city":"Konawe","district":"Pondidaha","urban":"Amesiu","postal_code":93463},{"province":"Sulawesi Tenggara","city":"Konawe","district":"Amonggedo","urban":"Amandete","postal_code":93463},{"province":"Sulawesi Tenggara","city":"Konawe","district":"Pondidaha","urban":"Ahuawatu","postal_code":93463}]