[{"province":"Sulawesi Tenggara","city":"Konawe","district":"Konawe","urban":"Wonua Mbae","postal_code":93461},{"province":"Sulawesi Tenggara","city":"Konawe","district":"Wawotobi","urban":"Wawotobi","postal_code":93461},{"province":"Sulawesi Tenggara","city":"Konawe","district":"Meluhu","urban":"Woerahi","postal_code":93461},{"province":"Sulawesi Tenggara","city":"Konawe","district":"Latoma","urban":"Waworaha","postal_code":93461},{"province":"Sulawesi Tenggara","city":"Konawe","district":"Tongauna","urban":"Waworoda Jaya","postal_code":93461},{"province":"Sulawesi Tenggara","city":"Konawe","district":"Konawe","urban":"Uelawu","postal_code":93461},{"province":"Sulawesi Tenggara","city":"Konawe","district":"Konawe","urban":"Uete","postal_code":93461},{"province":"Sulawesi Tenggara","city":"Konawe","district":"Latoma","urban":"Wawolatoma","postal_code":93461},{"province":"Sulawesi Tenggara","city":"Konawe","district":"Konawe","urban":"Tudaone","postal_code":93461},{"province":"Sulawesi Tenggara","city":"Konawe","district":"Meluhu","urban":"Tudameaso","postal_code":93461},{"province":"Sulawesi Tenggara","city":"Konawe","district":"Latoma","urban":"Titioa","postal_code":93461},{"province":"Sulawesi Tenggara","city":"Konawe","district":"Tongauna","urban":"Tongauna","postal_code":93461},{"province":"Sulawesi Tenggara","city":"Konawe","district":"Konawe","urban":"Tawanga","postal_code":93461},{"province":"Sulawesi Tenggara","city":"Konawe","district":"Tongauna","urban":"Sendang Mulya Sari","postal_code":93461},{"province":"Sulawesi Tenggara","city":"Konawe","district":"Tongauna","urban":"Sanuanggamo","postal_code":93461},{"province":"Sulawesi Tenggara","city":"Konawe","district":"Konawe","urban":"Sanggona","postal_code":93461},{"province":"Sulawesi Tenggara","city":"Konawe","district":"Wawotobi","urban":"Puusinauwi","postal_code":93461},{"province":"Sulawesi Tenggara","city":"Konawe","district":"Wawotobi","urban":"Puusinauwi","postal_code":93461},{"province":"Sulawesi Tenggara","city":"Konawe","district":"Tongauna","urban":"Puosu","postal_code":93461},{"province":"Sulawesi Tenggara","city":"Konawe","district":"Tongauna","urban":"Puundopi","postal_code":93461},{"province":"Sulawesi Tenggara","city":"Konawe","district":"Latoma","urban":"Pinole","postal_code":93461},{"province":"Sulawesi Tenggara","city":"Konawe","district":"Tongauna","urban":"Olua Ao","postal_code":93461},{"province":"Sulawesi Tenggara","city":"Konawe","district":"Wawotobi","urban":"Palarahi","postal_code":93461},{"province":"Sulawesi Tenggara","city":"Konawe","district":"Wawotobi","urban":"Nohu Nohu","postal_code":93461},{"province":"Sulawesi Tenggara","city":"Konawe","district":"Latoma","urban":"Nesowi","postal_code":93461},{"province":"Sulawesi Tenggara","city":"Konawe","district":"Wawotobi","urban":"Nario Indah","postal_code":93461},{"province":"Sulawesi Tenggara","city":"Konawe","district":"Konawe","urban":"Mokowu","postal_code":93461},{"province":"Sulawesi Tenggara","city":"Konawe","district":"Tongauna","urban":"Momea","postal_code":93461},{"province":"Sulawesi Tenggara","city":"Konawe","district":"Meluhu","urban":"Meluhu","postal_code":93461},{"province":"Sulawesi Tenggara","city":"Konawe","district":"Tongauna","urban":"Mekar Sari","postal_code":93461},{"province":"Sulawesi Tenggara","city":"Konawe","district":"Tongauna","urban":"Mata Iwoi","postal_code":93461},{"province":"Sulawesi Tenggara","city":"Konawe","district":"Latoma","urban":"Latoma Jaya","postal_code":93461},{"province":"Sulawesi Tenggara","city":"Konawe","district":"Meluhu","urban":"Larowiu","postal_code":93461},{"province":"Sulawesi Tenggara","city":"Konawe","district":"Meluhu","urban":"Lamelay","postal_code":93461},{"province":"Sulawesi Tenggara","city":"Konawe","district":"Latoma","urban":"Lalowata","postal_code":93461},{"province":"Sulawesi Tenggara","city":"Konawe","district":"Wawotobi","urban":"Lalosabila","postal_code":93461},{"province":"Sulawesi Tenggara","city":"Konawe","district":"Tongauna","urban":"Lalonggowuna","postal_code":93461},{"province":"Sulawesi Tenggara","city":"Konawe","district":"Wawotobi","urban":"Kulahi","postal_code":93461},{"province":"Sulawesi Tenggara","city":"Konawe","district":"Konawe","urban":"Konawe","postal_code":93461},{"province":"Sulawesi Tenggara","city":"Konawe","district":"Wawotobi","urban":"Korumba","postal_code":93461},{"province":"Sulawesi Tenggara","city":"Konawe","district":"Wawotobi","urban":"Kasupute","postal_code":93461},{"province":"Sulawesi Tenggara","city":"Konawe","district":"Wawotobi","urban":"Karandu","postal_code":93461},{"province":"Sulawesi Tenggara","city":"Konawe","district":"Wawotobi","urban":"Inalahi","postal_code":93461},{"province":"Sulawesi Tenggara","city":"Konawe","district":"Wawotobi","urban":"Inolobu","postal_code":93461},{"province":"Sulawesi Tenggara","city":"Konawe","district":"Konawe","urban":"Hudoa","postal_code":93461},{"province":"Sulawesi Tenggara","city":"Konawe","district":"Wawotobi","urban":"Hopa-Hopa","postal_code":93461},{"province":"Sulawesi Tenggara","city":"Konawe","district":"Konawe","urban":"Bungguosu","postal_code":93461},{"province":"Sulawesi Tenggara","city":"Konawe","district":"Wawotobi","urban":"Bose Bose","postal_code":93461},{"province":"Sulawesi Tenggara","city":"Konawe","district":"Tongauna","urban":"Barowila","postal_code":93461},{"province":"Sulawesi Tenggara","city":"Konawe","district":"Konawe","urban":"Asinowowo","postal_code":93461},{"province":"Sulawesi Tenggara","city":"Konawe","district":"Tongauna","urban":"Asao","postal_code":93461},{"province":"Sulawesi Tenggara","city":"Konawe","district":"Wawotobi","urban":"Anggotoa","postal_code":93461},{"province":"Sulawesi Tenggara","city":"Konawe","district":"Tongauna","urban":"Anggohu","postal_code":93461},{"province":"Sulawesi Tenggara","city":"Konawe","district":"Latoma","urban":"Andoluto","postal_code":93461},{"province":"Sulawesi Tenggara","city":"Konawe","district":"Tongauna","urban":"Andalambe","postal_code":93461},{"province":"Sulawesi Tenggara","city":"Konawe","district":"Tongauna","urban":"Andeposunde","postal_code":93461},{"province":"Sulawesi Tenggara","city":"Konawe","district":"Wawotobi","urban":"Analahumbuti","postal_code":93461},{"province":"Sulawesi Tenggara","city":"Konawe","district":"Latoma","urban":"Amboniki","postal_code":93461},{"province":"Sulawesi Tenggara","city":"Konawe","district":"Tongauna","urban":"Ambopi","postal_code":93461},{"province":"Sulawesi Tenggara","city":"Konawe","district":"Latoma","urban":"Ambekaeri Utama","postal_code":93461},{"province":"Sulawesi Tenggara","city":"Konawe","district":"Meluhu","urban":"Ahuhu","postal_code":93461}]