[{"province":"Sulawesi Tenggara","city":"Kolaka","district":"Polinggona","urban":"Wulonggere","postal_code":93563},{"province":"Sulawesi Tenggara","city":"Kolaka","district":"Toari","urban":"Wowoli","postal_code":93563},{"province":"Sulawesi Tenggara","city":"Kolaka","district":"Watumbangga (Watubanggo)","urban":"Wolulu","postal_code":93563},{"province":"Sulawesi Tenggara","city":"Kolaka","district":"Tanggetada","urban":"Tondowolio","postal_code":93563},{"province":"Sulawesi Tenggara","city":"Kolaka","district":"Watumbangga (Watubanggo)","urban":"Watubanggo","postal_code":93563},{"province":"Sulawesi Tenggara","city":"Kolaka","district":"Toari","urban":"Toari","postal_code":93563},{"province":"Sulawesi Tenggara","city":"Kolaka","district":"Tanggetada","urban":"Tanggetada","postal_code":93563},{"province":"Sulawesi Tenggara","city":"Kolaka","district":"Polinggona","urban":"Tanggeau","postal_code":93563},{"province":"Sulawesi Tenggara","city":"Kolaka","district":"Watumbangga (Watubanggo)","urban":"Sumber Rezeki","postal_code":93563},{"province":"Sulawesi Tenggara","city":"Kolaka","district":"Watumbangga (Watubanggo)","urban":"Tandebura (Tandai Bura)","postal_code":93563},{"province":"Sulawesi Tenggara","city":"Kolaka","district":"Toari","urban":"Rano jaya","postal_code":93563},{"province":"Sulawesi Tenggara","city":"Kolaka","district":"Toari","urban":"Ranomentaa","postal_code":93563},{"province":"Sulawesi Tenggara","city":"Kolaka","district":"Tanggetada","urban":"Puundaipa","postal_code":93563},{"province":"Sulawesi Tenggara","city":"Kolaka","district":"Tanggetada","urban":"Rahanggada","postal_code":93563},{"province":"Sulawesi Tenggara","city":"Kolaka","district":"Polinggona","urban":"Puudongi","postal_code":93563},{"province":"Sulawesi Tenggara","city":"Kolaka","district":"Tanggetada","urban":"Powisoa Jaya (Pewisoa Jaya)","postal_code":93563},{"province":"Sulawesi Tenggara","city":"Kolaka","district":"Polinggona","urban":"Pondouwae","postal_code":93563},{"province":"Sulawesi Tenggara","city":"Kolaka","district":"Tanggetada","urban":"Popalia","postal_code":93563},{"province":"Sulawesi Tenggara","city":"Kolaka","district":"Polinggona","urban":"Polinggona","postal_code":93563},{"province":"Sulawesi Tenggara","city":"Kolaka","district":"Watumbangga (Watubanggo)","urban":"Polenga (Tirawuta)","postal_code":93563},{"province":"Sulawesi Tenggara","city":"Kolaka","district":"Polinggona","urban":"Plasma Jaya","postal_code":93563},{"province":"Sulawesi Tenggara","city":"Kolaka","district":"Tanggetada","urban":"Petudua","postal_code":93563},{"province":"Sulawesi Tenggara","city":"Kolaka","district":"Watumbangga (Watubanggo)","urban":"Peoho","postal_code":93563},{"province":"Sulawesi Tenggara","city":"Kolaka","district":"Tanggetada","urban":"Palewai","postal_code":93563},{"province":"Sulawesi Tenggara","city":"Kolaka","district":"Tanggetada","urban":"Oneeha","postal_code":93563},{"province":"Sulawesi Tenggara","city":"Kolaka","district":"Watumbangga (Watubanggo)","urban":"Mata Osu","postal_code":93563},{"province":"Sulawesi Tenggara","city":"Kolaka","district":"Watumbangga (Watubanggo)","urban":"Lamunde","postal_code":93563},{"province":"Sulawesi Tenggara","city":"Kolaka","district":"Watumbangga (Watubanggo)","urban":"Longgosipi","postal_code":93563},{"province":"Sulawesi Tenggara","city":"Kolaka","district":"Tanggetada","urban":"Lalonggolosua","postal_code":93563},{"province":"Sulawesi Tenggara","city":"Kolaka","district":"Tanggetada","urban":"Lamedai","postal_code":93563},{"province":"Sulawesi Tenggara","city":"Kolaka","district":"Toari","urban":"Anawua","postal_code":93563},{"province":"Sulawesi Tenggara","city":"Kolaka","district":"Tanggetada","urban":"Lamoiko","postal_code":93563},{"province":"Sulawesi Tenggara","city":"Kolaka","district":"Tanggetada","urban":"Anaiwoi","postal_code":93563},{"province":"Sulawesi Tenggara","city":"Kolaka","district":"Toari","urban":"Lakito","postal_code":93563},{"province":"Sulawesi Tenggara","city":"Kolaka","district":"Watumbangga (Watubanggo)","urban":"Kukutio","postal_code":93563},{"province":"Sulawesi Tenggara","city":"Kolaka","district":"Watumbangga (Watubanggo)","urban":"Gunung Sari","postal_code":93563},{"province":"Sulawesi Tenggara","city":"Kolaka","district":"Watumbangga (Watubanggo)","urban":"Kastura","postal_code":93563}]