[{"province":"Sulawesi Tenggara","city":"Kolaka","district":"Wundulako","urban":"Tikonu","postal_code":93561},{"province":"Sulawesi Tenggara","city":"Kolaka","district":"Baula","urban":"Puundoho","postal_code":93561},{"province":"Sulawesi Tenggara","city":"Kolaka","district":"Baula","urban":"Puuroda","postal_code":93561},{"province":"Sulawesi Tenggara","city":"Kolaka","district":"Baula","urban":"Puulemo","postal_code":93561},{"province":"Sulawesi Tenggara","city":"Kolaka","district":"Baula","urban":"Puubenua","postal_code":93561},{"province":"Sulawesi Tenggara","city":"Kolaka","district":"Baula","urban":"Puubunga","postal_code":93561},{"province":"Sulawesi Tenggara","city":"Kolaka","district":"Wundulako","urban":"Ngapa","postal_code":93561},{"province":"Sulawesi Tenggara","city":"Kolaka","district":"Wundulako","urban":"Wundulako","postal_code":93561},{"province":"Sulawesi Tenggara","city":"Kolaka","district":"Baula","urban":"Pewutaa","postal_code":93561},{"province":"Sulawesi Tenggara","city":"Kolaka","district":"Wundulako","urban":"Towua I","postal_code":93561},{"province":"Sulawesi Tenggara","city":"Kolaka","district":"Wundulako","urban":"Lamekongga","postal_code":93561},{"province":"Sulawesi Tenggara","city":"Kolaka","district":"Wundulako","urban":"Una Mendaa","postal_code":93561},{"province":"Sulawesi Tenggara","city":"Kolaka","district":"Baula","urban":"Longori / Langori","postal_code":93561},{"province":"Sulawesi Tenggara","city":"Kolaka","district":"Baula","urban":"Watalara","postal_code":93561},{"province":"Sulawesi Tenggara","city":"Kolaka","district":"Wundulako","urban":"Bende","postal_code":93561},{"province":"Sulawesi Tenggara","city":"Kolaka","district":"Wundulako","urban":"Tikonu","postal_code":93561},{"province":"Sulawesi Tenggara","city":"Kolaka","district":"Wundulako","urban":"Kowioha","postal_code":93561},{"province":"Sulawesi Tenggara","city":"Kolaka","district":"Wundulako","urban":"Sabiano","postal_code":93561},{"province":"Sulawesi Tenggara","city":"Kolaka","district":"Baula","urban":"Baula","postal_code":93561},{"province":"Sulawesi Tenggara","city":"Kolaka","district":"Wundulako","urban":"19 Nopember","postal_code":93561}]