[{"province":"Sulawesi Tenggara","city":"Kolaka","district":"Lambandia (Lambadia)","urban":"Wonuambuteo","postal_code":93573},{"province":"Sulawesi Tenggara","city":"Kolaka","district":"Ladongi","urban":"Wunggoloko/Wunggololeo","postal_code":93573},{"province":"Sulawesi Tenggara","city":"Kolaka","district":"Ladongi","urban":"Welala","postal_code":93573},{"province":"Sulawesi Tenggara","city":"Kolaka","district":"Poli Polia","urban":"Wia-Wia","postal_code":93573},{"province":"Sulawesi Tenggara","city":"Kolaka","district":"Ladongi","urban":"Wande","postal_code":93573},{"province":"Sulawesi Tenggara","city":"Kolaka","district":"Poli Polia","urban":"Tokai","postal_code":93573},{"province":"Sulawesi Tenggara","city":"Kolaka","district":"Lambandia (Lambadia)","urban":"Tinete","postal_code":93573},{"province":"Sulawesi Tenggara","city":"Kolaka","district":"Poli Polia","urban":"Taosu","postal_code":93573},{"province":"Sulawesi Tenggara","city":"Kolaka","district":"Ladongi","urban":"Raraa","postal_code":93573},{"province":"Sulawesi Tenggara","city":"Kolaka","district":"Lambandia (Lambadia)","urban":"Taore","postal_code":93573},{"province":"Sulawesi Tenggara","city":"Kolaka","district":"Ladongi","urban":"Putemata","postal_code":93573},{"province":"Sulawesi Tenggara","city":"Kolaka","district":"Lambandia (Lambadia)","urban":"Pomburea","postal_code":93573},{"province":"Sulawesi Tenggara","city":"Kolaka","district":"Ladongi","urban":"Pombeyoha","postal_code":93573},{"province":"Sulawesi Tenggara","city":"Kolaka","district":"Poli Polia","urban":"Polenga Jaya","postal_code":93573},{"province":"Sulawesi Tenggara","city":"Kolaka","district":"Poli Polia","urban":"Poli Polia","postal_code":93573},{"province":"Sulawesi Tenggara","city":"Kolaka","district":"Poli Polia","urban":"Polemaju Jaya","postal_code":93573},{"province":"Sulawesi Tenggara","city":"Kolaka","district":"Lambandia (Lambadia)","urban":"Penanggo Jaya","postal_code":93573},{"province":"Sulawesi Tenggara","city":"Kolaka","district":"Lambandia (Lambadia)","urban":"Penanggoosi","postal_code":93573},{"province":"Sulawesi Tenggara","city":"Kolaka","district":"Poli Polia","urban":"Pangi-Pangi","postal_code":93573},{"province":"Sulawesi Tenggara","city":"Kolaka","district":"Lambandia (Lambadia)","urban":"Pekorea","postal_code":93573},{"province":"Sulawesi Tenggara","city":"Kolaka","district":"Lambandia (Lambadia)","urban":"Lowa","postal_code":93573},{"province":"Sulawesi Tenggara","city":"Kolaka","district":"Lambandia (Lambadia)","urban":"Mokupa","postal_code":93573},{"province":"Sulawesi Tenggara","city":"Kolaka","district":"Ladongi","urban":"Lembah Subur","postal_code":93573},{"province":"Sulawesi Tenggara","city":"Kolaka","district":"Lambandia (Lambadia)","urban":"Lambandia","postal_code":93573},{"province":"Sulawesi Tenggara","city":"Kolaka","district":"Lambandia (Lambadia)","urban":"Lere Jaya","postal_code":93573},{"province":"Sulawesi Tenggara","city":"Kolaka","district":"Ladongi","urban":"Lalowosula/Lalowosuka","postal_code":93573},{"province":"Sulawesi Tenggara","city":"Kolaka","district":"Lambandia (Lambadia)","urban":"Lalolere","postal_code":93573},{"province":"Sulawesi Tenggara","city":"Kolaka","district":"Ladongi","urban":"Ladongi (Jaya)","postal_code":93573},{"province":"Sulawesi Tenggara","city":"Kolaka","district":"Lambandia (Lambadia)","urban":"Iwoimenggura","postal_code":93573},{"province":"Sulawesi Tenggara","city":"Kolaka","district":"Lambandia (Lambadia)","urban":"Inotu","postal_code":93573},{"province":"Sulawesi Tenggara","city":"Kolaka","district":"Lambandia (Lambadia)","urban":"Iwoimea Jaya","postal_code":93573},{"province":"Sulawesi Tenggara","city":"Kolaka","district":"Ladongi","urban":"Gunung Jaya","postal_code":93573},{"province":"Sulawesi Tenggara","city":"Kolaka","district":"Lambandia (Lambadia)","urban":"Bou","postal_code":93573},{"province":"Sulawesi Tenggara","city":"Kolaka","district":"Ladongi","urban":"Dangia","postal_code":93573},{"province":"Sulawesi Tenggara","city":"Kolaka","district":"Lambandia (Lambadia)","urban":"Atolanu","postal_code":93573},{"province":"Sulawesi Tenggara","city":"Kolaka","district":"Lambandia (Lambadia)","urban":"Awiu","postal_code":93573},{"province":"Sulawesi Tenggara","city":"Kolaka","district":"Ladongi","urban":"Anggaloosi","postal_code":93573},{"province":"Sulawesi Tenggara","city":"Kolaka","district":"Ladongi","urban":"Atula","postal_code":93573},{"province":"Sulawesi Tenggara","city":"Kolaka","district":"Poli Polia","urban":"Andowengga","postal_code":93573},{"province":"Sulawesi Tenggara","city":"Kolaka","district":"Lambandia (Lambadia)","urban":"Aere","postal_code":93573},{"province":"Sulawesi Tenggara","city":"Kolaka","district":"Lambandia (Lambadia)","urban":"Aladadio","postal_code":93573}]