[{"province":"Sulawesi Tenggara","city":"Kolaka","district":"Tirawuta","urban":"Woiha","postal_code":93572},{"province":"Sulawesi Tenggara","city":"Kolaka","district":"Lalolae","urban":"Wesalo","postal_code":93572},{"province":"Sulawesi Tenggara","city":"Kolaka","district":"Tirawuta","urban":"Tumbudadio","postal_code":93572},{"province":"Sulawesi Tenggara","city":"Kolaka","district":"Loea","urban":"Teposua","postal_code":93572},{"province":"Sulawesi Tenggara","city":"Kolaka","district":"Tirawuta","urban":"Tirawuta","postal_code":93572},{"province":"Sulawesi Tenggara","city":"Kolaka","district":"Tirawuta","urban":"Tasaeha/Tasahea","postal_code":93572},{"province":"Sulawesi Tenggara","city":"Kolaka","district":"Tirawuta","urban":"Tawainalu","postal_code":93572},{"province":"Sulawesi Tenggara","city":"Kolaka","district":"Lalolae","urban":"Talodo","postal_code":93572},{"province":"Sulawesi Tenggara","city":"Kolaka","district":"Tirawuta","urban":"Simbune","postal_code":93572},{"province":"Sulawesi Tenggara","city":"Kolaka","district":"Loea","urban":"Simbalai/Simbalae","postal_code":93572},{"province":"Sulawesi Tenggara","city":"Kolaka","district":"Tirawuta","urban":"Rate-Rate","postal_code":93572},{"province":"Sulawesi Tenggara","city":"Kolaka","district":"Tirawuta","urban":"Roko Roko","postal_code":93572},{"province":"Sulawesi Tenggara","city":"Kolaka","district":"Loea","urban":"Loea","postal_code":93572},{"province":"Sulawesi Tenggara","city":"Kolaka","district":"Tirawuta","urban":"Poni Poniki","postal_code":93572},{"province":"Sulawesi Tenggara","city":"Kolaka","district":"Tirawuta","urban":"Lara","postal_code":93572},{"province":"Sulawesi Tenggara","city":"Kolaka","district":"Loea","urban":"Peatoa","postal_code":93572},{"province":"Sulawesi Tenggara","city":"Kolaka","district":"Loea","urban":"Lalowura","postal_code":93572},{"province":"Sulawesi Tenggara","city":"Kolaka","district":"Tirawuta","urban":"Orawa","postal_code":93572},{"province":"Sulawesi Tenggara","city":"Kolaka","district":"Loea","urban":"Lamoare","postal_code":93572},{"province":"Sulawesi Tenggara","city":"Kolaka","district":"Loea","urban":"Mataiwoi","postal_code":93572},{"province":"Sulawesi Tenggara","city":"Kolaka","district":"Lalolae","urban":"Lalolae","postal_code":93572},{"province":"Sulawesi Tenggara","city":"Kolaka","district":"Tirawuta","urban":"Loka","postal_code":93572},{"province":"Sulawesi Tenggara","city":"Kolaka","district":"Lalolae","urban":"Lalosingi","postal_code":93572},{"province":"Sulawesi Tenggara","city":"Kolaka","district":"Tirawuta","urban":"Lalingato","postal_code":93572},{"province":"Sulawesi Tenggara","city":"Kolaka","district":"Loea","urban":"Iwoikondo","postal_code":93572},{"province":"Sulawesi Tenggara","city":"Kolaka","district":"Lalolae","urban":"Keisio","postal_code":93572}]