[{"province":"Sulawesi Tenggara","city":"Kolaka","district":"Mowewe","urban":"Woitombo","postal_code":93571},{"province":"Sulawesi Tenggara","city":"Kolaka","district":"Mowewe","urban":"Watupute","postal_code":93571},{"province":"Sulawesi Tenggara","city":"Kolaka","district":"Tinondo","urban":"Weamo","postal_code":93571},{"province":"Sulawesi Tenggara","city":"Kolaka","district":"Mowewe","urban":"Ulu Mowewe","postal_code":93571},{"province":"Sulawesi Tenggara","city":"Kolaka","district":"Tinondo","urban":"Tinondo","postal_code":93571},{"province":"Sulawesi Tenggara","city":"Kolaka","district":"Tinondo","urban":"Solewatu","postal_code":93571},{"province":"Sulawesi Tenggara","city":"Kolaka","district":"Tinondo","urban":"Talata","postal_code":93571},{"province":"Sulawesi Tenggara","city":"Kolaka","district":"Tinondo","urban":"Tawarombadaka","postal_code":93571},{"province":"Sulawesi Tenggara","city":"Kolaka","district":"Mowewe","urban":"Nelombu","postal_code":93571},{"province":"Sulawesi Tenggara","city":"Kolaka","district":"Mowewe","urban":"Puosu","postal_code":93571},{"province":"Sulawesi Tenggara","city":"Kolaka","district":"Tinondo","urban":"Lamunde","postal_code":93571},{"province":"Sulawesi Tenggara","city":"Kolaka","district":"Mowewe","urban":"Lapangisi","postal_code":93571},{"province":"Sulawesi Tenggara","city":"Kolaka","district":"Mowewe","urban":"Horodopi","postal_code":93571},{"province":"Sulawesi Tenggara","city":"Kolaka","district":"Mowewe","urban":"Inebenggi","postal_code":93571},{"province":"Sulawesi Tenggara","city":"Kolaka","district":"Tinondo","urban":"Ameroro","postal_code":93571},{"province":"Sulawesi Tenggara","city":"Kolaka","district":"Tinondo","urban":"Ambapa","postal_code":93571}]