[{"province":"Sulawesi Tenggara","city":"Kolaka","district":"Uluiwoi","urban":"Uete","postal_code":93575},{"province":"Sulawesi Tenggara","city":"Kolaka","district":"Uluiwoi","urban":"Undolo","postal_code":93575},{"province":"Sulawesi Tenggara","city":"Kolaka","district":"Uluiwoi","urban":"Wesinggote","postal_code":93575},{"province":"Sulawesi Tenggara","city":"Kolaka","district":"Uluiwoi","urban":"Tongauna","postal_code":93575},{"province":"Sulawesi Tenggara","city":"Kolaka","district":"Uluiwoi","urban":"Ueesi","postal_code":93575},{"province":"Sulawesi Tenggara","city":"Kolaka","district":"Uluiwoi","urban":"Tawanga","postal_code":93575},{"province":"Sulawesi Tenggara","city":"Kolaka","district":"Uluiwoi","urban":"Tondowatu","postal_code":93575},{"province":"Sulawesi Tenggara","city":"Kolaka","district":"Uluiwoi","urban":"Sanggona","postal_code":93575},{"province":"Sulawesi Tenggara","city":"Kolaka","district":"Uluiwoi","urban":"Pehanggo","postal_code":93575},{"province":"Sulawesi Tenggara","city":"Kolaka","district":"Uluiwoi","urban":"Pora Bua","postal_code":93575},{"province":"Sulawesi Tenggara","city":"Kolaka","district":"Uluiwoi","urban":"Alaaha","postal_code":93575},{"province":"Sulawesi Tenggara","city":"Kolaka","district":"Uluiwoi","urban":"Liku Walanapo","postal_code":93575},{"province":"Sulawesi Tenggara","city":"Kolaka","district":"Uluiwoi","urban":"Ahilulu","postal_code":93575}]