[{"province":"Sulawesi Tenggara","city":"Muna","district":"Napano Kusambi","urban":"Umba","postal_code":93655},{"province":"Sulawesi Tenggara","city":"Muna","district":"Kusambi","urban":"Tanjung Pinang","postal_code":93655},{"province":"Sulawesi Tenggara","city":"Muna","district":"Napano Kusambi","urban":"Tangkumaho","postal_code":93655},{"province":"Sulawesi Tenggara","city":"Muna","district":"Kusambi","urban":"Sida Mangura (Sidamagura)","postal_code":93655},{"province":"Sulawesi Tenggara","city":"Muna","district":"Napano Kusambi","urban":"Masara","postal_code":93655},{"province":"Sulawesi Tenggara","city":"Muna","district":"Kusambi","urban":"Lapokainse","postal_code":93655},{"province":"Sulawesi Tenggara","city":"Muna","district":"Kusambi","urban":"Lemoambo","postal_code":93655},{"province":"Sulawesi Tenggara","city":"Muna","district":"Napano Kusambi","urban":"Latawe","postal_code":93655},{"province":"Sulawesi Tenggara","city":"Muna","district":"Kusambi","urban":"Lakawoghe","postal_code":93655},{"province":"Sulawesi Tenggara","city":"Muna","district":"Napano Kusambi","urban":"Lahaji","postal_code":93655},{"province":"Sulawesi Tenggara","city":"Muna","district":"Kusambi","urban":"Kusambi","postal_code":93655},{"province":"Sulawesi Tenggara","city":"Muna","district":"Kusambi","urban":"Konawe","postal_code":93655},{"province":"Sulawesi Tenggara","city":"Muna","district":"Napano Kusambi","urban":"Kombikuno","postal_code":93655},{"province":"Sulawesi Tenggara","city":"Muna","district":"Kusambi","urban":"Kasakamu","postal_code":93655},{"province":"Sulawesi Tenggara","city":"Muna","district":"Kusambi","urban":"Bakeramba","postal_code":93655},{"province":"Sulawesi Tenggara","city":"Muna","district":"Kusambi","urban":"Guali","postal_code":93655}]