[{"province":"Sulawesi Tenggara","city":"Muna","district":"Lohia","urban":"Wabintingi","postal_code":93658},{"province":"Sulawesi Tenggara","city":"Muna","district":"Lohia","urban":"Waarah","postal_code":93658},{"province":"Sulawesi Tenggara","city":"Muna","district":"Kontunaga","urban":"Masalili","postal_code":93658},{"province":"Sulawesi Tenggara","city":"Muna","district":"Lohia","urban":"Mantobua","postal_code":93658},{"province":"Sulawesi Tenggara","city":"Muna","district":"Kontunaga","urban":"Mabodo","postal_code":93658},{"province":"Sulawesi Tenggara","city":"Muna","district":"Lohia","urban":"Liangkobori","postal_code":93658},{"province":"Sulawesi Tenggara","city":"Muna","district":"Lohia","urban":"Lohia","postal_code":93658},{"province":"Sulawesi Tenggara","city":"Muna","district":"Kontunaga","urban":"Lapodidi","postal_code":93658},{"province":"Sulawesi Tenggara","city":"Muna","district":"Kontunaga","urban":"Liabalano (Labalano)","postal_code":93658},{"province":"Sulawesi Tenggara","city":"Muna","district":"Kontunaga","urban":"Lakauduma","postal_code":93658},{"province":"Sulawesi Tenggara","city":"Muna","district":"Lohia","urban":"Korihi","postal_code":93658},{"province":"Sulawesi Tenggara","city":"Muna","district":"Lohia","urban":"Lakarinta","postal_code":93658},{"province":"Sulawesi Tenggara","city":"Muna","district":"Kontunaga","urban":"Bungi","postal_code":93658},{"province":"Sulawesi Tenggara","city":"Muna","district":"Kontunaga","urban":"Kontunaga","postal_code":93658},{"province":"Sulawesi Tenggara","city":"Muna","district":"Lohia","urban":"Kondongia","postal_code":93658},{"province":"Sulawesi Tenggara","city":"Muna","district":"Lohia","urban":"Bolo","postal_code":93658}]