[{"province":"Sulawesi Tenggara","city":"Muna","district":"Tiworo Kepulauan","urban":"Wulanga Jaya","postal_code":93653},{"province":"Sulawesi Tenggara","city":"Muna","district":"Tiworo Kepulauan","urban":"Waumere","postal_code":93653},{"province":"Sulawesi Tenggara","city":"Muna","district":"Tiworo Kepulauan","urban":"Waturempe","postal_code":93653},{"province":"Sulawesi Tenggara","city":"Muna","district":"Tiworo Tengah","urban":"Wapae Jaya","postal_code":93653},{"province":"Sulawesi Tenggara","city":"Muna","district":"Tiworo Tengah","urban":"Wanseriwu","postal_code":93653},{"province":"Sulawesi Tenggara","city":"Muna","district":"Tiworo Kepulauan","urban":"Wandoke","postal_code":93653},{"province":"Sulawesi Tenggara","city":"Muna","district":"Tiworo Utara","urban":"Tondasi","postal_code":93653},{"province":"Sulawesi Tenggara","city":"Muna","district":"Tiworo Kepulauan","urban":"Tiworo","postal_code":93653},{"province":"Sulawesi Tenggara","city":"Muna","district":"Tiworo Utara","urban":"Tiga","postal_code":93653},{"province":"Sulawesi Tenggara","city":"Muna","district":"Tiworo Utara","urban":"Tasipi","postal_code":93653},{"province":"Sulawesi Tenggara","city":"Muna","district":"Tiworo Tengah","urban":"Suka Damai","postal_code":93653},{"province":"Sulawesi Tenggara","city":"Muna","district":"Tiworo Kepulauan","urban":"Sido Makmur","postal_code":93653},{"province":"Sulawesi Tenggara","city":"Muna","district":"Tiworo Utara","urban":"Santiri","postal_code":93653},{"province":"Sulawesi Tenggara","city":"Muna","district":"Tiworo Utara","urban":"Santigi / Santingi","postal_code":93653},{"province":"Sulawesi Tenggara","city":"Muna","district":"Tiworo Tengah","urban":"Momuntu","postal_code":93653},{"province":"Sulawesi Tenggara","city":"Muna","district":"Tiworo Tengah","urban":"Mekar Jaya","postal_code":93653},{"province":"Sulawesi Tenggara","city":"Muna","district":"Tiworo Utara","urban":"Mandike","postal_code":93653},{"province":"Sulawesi Tenggara","city":"Muna","district":"Tiworo Kepulauan","urban":"Laworo","postal_code":93653},{"province":"Sulawesi Tenggara","city":"Muna","district":"Tiworo Tengah","urban":"Langku-Langku","postal_code":93653},{"province":"Sulawesi Tenggara","city":"Muna","district":"Tiworo Kepulauan","urban":"Lasama","postal_code":93653},{"province":"Sulawesi Tenggara","city":"Muna","district":"Tiworo Tengah","urban":"Lakabu","postal_code":93653},{"province":"Sulawesi Tenggara","city":"Muna","district":"Tiworo Tengah","urban":"Labokolo","postal_code":93653},{"province":"Sulawesi Tenggara","city":"Muna","district":"Tiworo Kepulauan","urban":"Katela","postal_code":93653},{"province":"Sulawesi Tenggara","city":"Muna","district":"Tiworo Utara","urban":"Bero","postal_code":93653}]