[{"province":"Sulawesi Tenggara","city":"Muna","district":"Barangka","urban":"Wuna","postal_code":93652},{"province":"Sulawesi Tenggara","city":"Muna","district":"Lawa","urban":"Wamelai (Lambubalano)","postal_code":93652},{"province":"Sulawesi Tenggara","city":"Muna","district":"Barangka","urban":"Waulai","postal_code":93652},{"province":"Sulawesi Tenggara","city":"Muna","district":"Lawa","urban":"Watumela","postal_code":93652},{"province":"Sulawesi Tenggara","city":"Muna","district":"Barangka","urban":"Walelei","postal_code":93652},{"province":"Sulawesi Tenggara","city":"Muna","district":"Wa Daga","urban":"Wakontu","postal_code":93652},{"province":"Sulawesi Tenggara","city":"Muna","district":"Barangka","urban":"Sawerigadi","postal_code":93652},{"province":"Sulawesi Tenggara","city":"Muna","district":"Lawa","urban":"Madampi","postal_code":93652},{"province":"Sulawesi Tenggara","city":"Muna","district":"Lawa","urban":"Latugho","postal_code":93652},{"province":"Sulawesi Tenggara","city":"Muna","district":"Wa Daga","urban":"Lindo","postal_code":93652},{"province":"Sulawesi Tenggara","city":"Muna","district":"Lawa","urban":"Latompe","postal_code":93652},{"province":"Sulawesi Tenggara","city":"Muna","district":"Barangka","urban":"Lapolea","postal_code":93652},{"province":"Sulawesi Tenggara","city":"Muna","district":"Wa Daga","urban":"Lasosodo","postal_code":93652},{"province":"Sulawesi Tenggara","city":"Muna","district":"Lawa","urban":"Lalemba","postal_code":93652},{"province":"Sulawesi Tenggara","city":"Muna","district":"Lawa","urban":"Lapadaku","postal_code":93652},{"province":"Sulawesi Tenggara","city":"Muna","district":"Wa Daga","urban":"Lailangga","postal_code":93652},{"province":"Sulawesi Tenggara","city":"Muna","district":"Wa Daga","urban":"Lakanaha","postal_code":93652},{"province":"Sulawesi Tenggara","city":"Muna","district":"Lawa","urban":"Lagadi","postal_code":93652},{"province":"Sulawesi Tenggara","city":"Muna","district":"Barangka","urban":"Lafinde","postal_code":93652},{"province":"Sulawesi Tenggara","city":"Muna","district":"Wa Daga","urban":"Kampani","postal_code":93652},{"province":"Sulawesi Tenggara","city":"Muna","district":"Wa Daga","urban":"Katobu","postal_code":93652},{"province":"Sulawesi Tenggara","city":"Muna","district":"Barangka","urban":"Barangka","postal_code":93652},{"province":"Sulawesi Tenggara","city":"Muna","district":"Barangka","urban":"Bungkolo","postal_code":93652}]