[{"province":"Sulawesi Tenggara","city":"Muna","district":"Towea","urban":"Wangkolabu","postal_code":93654},{"province":"Sulawesi Tenggara","city":"Muna","district":"Napabalano","urban":"Tampo","postal_code":93654},{"province":"Sulawesi Tenggara","city":"Muna","district":"Napabalano","urban":"Pentiro","postal_code":93654},{"province":"Sulawesi Tenggara","city":"Muna","district":"Towea","urban":"Renda","postal_code":93654},{"province":"Sulawesi Tenggara","city":"Muna","district":"Lasalepa","urban":"Parida","postal_code":93654},{"province":"Sulawesi Tenggara","city":"Muna","district":"Napabalano","urban":"Napalakura","postal_code":93654},{"province":"Sulawesi Tenggara","city":"Muna","district":"Napabalano","urban":"Napabalano","postal_code":93654},{"province":"Sulawesi Tenggara","city":"Muna","district":"Towea","urban":"Moasi","postal_code":93654},{"province":"Sulawesi Tenggara","city":"Muna","district":"Lasalepa","urban":"Lasalepa","postal_code":93654},{"province":"Sulawesi Tenggara","city":"Muna","district":"Napabalano","urban":"Langkumapo","postal_code":93654},{"province":"Sulawesi Tenggara","city":"Muna","district":"Napabalano","urban":"Lambiku","postal_code":93654},{"province":"Sulawesi Tenggara","city":"Muna","district":"Towea","urban":"Lakarama","postal_code":93654},{"province":"Sulawesi Tenggara","city":"Muna","district":"Lasalepa","urban":"Labunti","postal_code":93654},{"province":"Sulawesi Tenggara","city":"Muna","district":"Lasalepa","urban":"Labone","postal_code":93654},{"province":"Sulawesi Tenggara","city":"Muna","district":"Lasalepa","urban":"Bonea","postal_code":93654},{"province":"Sulawesi Tenggara","city":"Muna","district":"Lasalepa","urban":"Kombungo","postal_code":93654},{"province":"Sulawesi Tenggara","city":"Muna","district":"Lasalepa","urban":"Bangun Sari","postal_code":93654},{"province":"Sulawesi Tenggara","city":"Muna","district":"Towea","urban":"Bahari","postal_code":93654}]