[{"province":"Sulawesi Tenggara","city":"Muna","district":"Kabawo","urban":"Wantiworo","postal_code":93661},{"province":"Sulawesi Tenggara","city":"Muna","district":"Kabawo","urban":"Rangka","postal_code":93661},{"province":"Sulawesi Tenggara","city":"Muna","district":"Kabawo","urban":"Tanjung Batu","postal_code":93661},{"province":"Sulawesi Tenggara","city":"Muna","district":"Kabawo","urban":"Lamaeo","postal_code":93661},{"province":"Sulawesi Tenggara","city":"Muna","district":"Kontu Kowuna","urban":"Lembo","postal_code":93661},{"province":"Sulawesi Tenggara","city":"Muna","district":"Kabawo","urban":"Laimpi","postal_code":93661},{"province":"Sulawesi Tenggara","city":"Muna","district":"Kontu Kowuna","urban":"Lahorio","postal_code":93661},{"province":"Sulawesi Tenggara","city":"Muna","district":"Kabawo","urban":"Kontumere","postal_code":93661},{"province":"Sulawesi Tenggara","city":"Muna","district":"Kontu Kowuna","urban":"Kilambibito","postal_code":93661},{"province":"Sulawesi Tenggara","city":"Muna","district":"Kontu Kowuna","urban":"Kontu Kowuna","postal_code":93661},{"province":"Sulawesi Tenggara","city":"Muna","district":"Kabawo","urban":"Kasaka","postal_code":93661},{"province":"Sulawesi Tenggara","city":"Muna","district":"Kabawo","urban":"Kawite Wite","postal_code":93661},{"province":"Sulawesi Tenggara","city":"Muna","district":"Kabawo","urban":"Bente","postal_code":93661},{"province":"Sulawesi Tenggara","city":"Muna","district":"Kabawo","urban":"Kambawuna","postal_code":93661},{"province":"Sulawesi Tenggara","city":"Muna","district":"Kontu Kowuna","urban":"Kafo Foo","postal_code":93661},{"province":"Sulawesi Tenggara","city":"Muna","district":"Kabawo","urban":"Bea","postal_code":93661},{"province":"Sulawesi Tenggara","city":"Muna","district":"Kontu Kowuna","urban":"Bahutara","postal_code":93661}]