[{"province":"Sulawesi Tenggara","city":"Muna","district":"Parigi","urban":"Wapuale","postal_code":93663},{"province":"Sulawesi Tenggara","city":"Muna","district":"Parigi","urban":"Wasolangka","postal_code":93663},{"province":"Sulawesi Tenggara","city":"Muna","district":"Parigi","urban":"Warambe","postal_code":93663},{"province":"Sulawesi Tenggara","city":"Muna","district":"Parigi","urban":"Wakumoro","postal_code":93663},{"province":"Sulawesi Tenggara","city":"Muna","district":"Parigi","urban":"Walambeno Wite","postal_code":93663},{"province":"Sulawesi Tenggara","city":"Muna","district":"Marobo","urban":"Tapitapi","postal_code":93663},{"province":"Sulawesi Tenggara","city":"Muna","district":"Marobo","urban":"Wadolao / Wadolau","postal_code":93663},{"province":"Sulawesi Tenggara","city":"Muna","district":"Marobo","urban":"Pasikuta","postal_code":93663},{"province":"Sulawesi Tenggara","city":"Muna","district":"Marobo","urban":"Poaroha","postal_code":93663},{"province":"Sulawesi Tenggara","city":"Muna","district":"Parigi","urban":"Oelongko","postal_code":93663},{"province":"Sulawesi Tenggara","city":"Muna","district":"Parigi","urban":"Parigi","postal_code":93663},{"province":"Sulawesi Tenggara","city":"Muna","district":"Bone (Bone Tondo)","urban":"Oelongko","postal_code":93663},{"province":"Sulawesi Tenggara","city":"Muna","district":"Marobo","urban":"Marobo","postal_code":93663},{"province":"Sulawesi Tenggara","city":"Muna","district":"Bone (Bone Tondo)","urban":"Matombura","postal_code":93663},{"province":"Sulawesi Tenggara","city":"Muna","district":"Parigi","urban":"Latampu (Tampu)","postal_code":93663},{"province":"Sulawesi Tenggara","city":"Muna","district":"Parigi","urban":"Labulu-Bulu","postal_code":93663},{"province":"Sulawesi Tenggara","city":"Muna","district":"Parigi","urban":"Laiba","postal_code":93663},{"province":"Sulawesi Tenggara","city":"Muna","district":"Parigi","urban":"Kolasa","postal_code":93663},{"province":"Sulawesi Tenggara","city":"Muna","district":"Bone (Bone Tondo)","urban":"Bone Lolibu","postal_code":93663},{"province":"Sulawesi Tenggara","city":"Muna","district":"Bone (Bone Tondo)","urban":"Bone Tondo","postal_code":93663},{"province":"Sulawesi Tenggara","city":"Muna","district":"Bone (Bone Tondo)","urban":"Bone Kancitala","postal_code":93663}]