[{"province":"Sulawesi Tenggara","city":"Muna","district":"Kabangka","urban":"Wansugi","postal_code":93664},{"province":"Sulawesi Tenggara","city":"Muna","district":"Kabangka","urban":"Wataliku","postal_code":93664},{"province":"Sulawesi Tenggara","city":"Muna","district":"Kabangka","urban":"Sarimulyo","postal_code":93664},{"province":"Sulawesi Tenggara","city":"Muna","district":"Kabangka","urban":"Sarimulyo","postal_code":93664},{"province":"Sulawesi Tenggara","city":"Muna","district":"Maginti","urban":"Pasipadangan","postal_code":93664},{"province":"Sulawesi Tenggara","city":"Muna","district":"Tiworo Selatan","urban":"Sangia Tiworo","postal_code":93664},{"province":"Sulawesi Tenggara","city":"Muna","district":"Maginti","urban":"Pajala","postal_code":93664},{"province":"Sulawesi Tenggara","city":"Muna","district":"Tiworo Selatan","urban":"Parura Jaya","postal_code":93664},{"province":"Sulawesi Tenggara","city":"Muna","district":"Maginti","urban":"Maginti","postal_code":93664},{"province":"Sulawesi Tenggara","city":"Muna","district":"Kabangka","urban":"Oensuli","postal_code":93664},{"province":"Sulawesi Tenggara","city":"Muna","district":"Kabangka","urban":"Lakandito","postal_code":93664},{"province":"Sulawesi Tenggara","city":"Muna","district":"Kabangka","urban":"Lupia","postal_code":93664},{"province":"Sulawesi Tenggara","city":"Muna","district":"Maginti","urban":"Kembang Mominasa","postal_code":93664},{"province":"Sulawesi Tenggara","city":"Muna","district":"Kabangka","urban":"Komba-Komba","postal_code":93664},{"province":"Sulawesi Tenggara","city":"Muna","district":"Tiworo Selatan","urban":"Kasimpa Jaya","postal_code":93664},{"province":"Sulawesi Tenggara","city":"Muna","district":"Tiworo Selatan","urban":"Katangana","postal_code":93664},{"province":"Sulawesi Tenggara","city":"Muna","district":"Maginti","urban":"Kangkunawe (Langkunawe)","postal_code":93664},{"province":"Sulawesi Tenggara","city":"Muna","district":"Kabangka","urban":"Kabangka","postal_code":93664},{"province":"Sulawesi Tenggara","city":"Muna","district":"Tiworo Selatan","urban":"Barakkah","postal_code":93664},{"province":"Sulawesi Tenggara","city":"Muna","district":"Maginti","urban":"Gala","postal_code":93664},{"province":"Sulawesi Tenggara","city":"Muna","district":"Maginti","urban":"Abadi Jaya","postal_code":93664},{"province":"Sulawesi Tenggara","city":"Muna","district":"Maginti","urban":"Bangko","postal_code":93664}]