[{"province":"Sulawesi Tenggara","city":"Muna","district":"Wakorumba Selatan","urban":"Wambona","postal_code":93674},{"province":"Sulawesi Tenggara","city":"Muna","district":"Wakorumba Selatan","urban":"Pure","postal_code":93674},{"province":"Sulawesi Tenggara","city":"Muna","district":"Maligano","urban":"Raimuna","postal_code":93674},{"province":"Sulawesi Tenggara","city":"Muna","district":"Pasi Kolaga","urban":"Tampunabale","postal_code":93674},{"province":"Sulawesi Tenggara","city":"Muna","district":"Maligano","urban":"Pohorua","postal_code":93674},{"province":"Sulawesi Tenggara","city":"Muna","district":"Batukara","urban":"Moolo","postal_code":93674},{"province":"Sulawesi Tenggara","city":"Muna","district":"Pasir Putih","urban":"Oenggumora","postal_code":93674},{"province":"Sulawesi Tenggara","city":"Muna","district":"Maligano","urban":"Maligano","postal_code":93674},{"province":"Sulawesi Tenggara","city":"Muna","district":"Pasir Putih","urban":"Liwumetingki","postal_code":93674},{"province":"Sulawesi Tenggara","city":"Muna","district":"Pasi Kolaga","urban":"Mata Indaha / Indah","postal_code":93674},{"province":"Sulawesi Tenggara","city":"Muna","district":"Maligano","urban":"Lapole","postal_code":93674},{"province":"Sulawesi Tenggara","city":"Muna","district":"Maligano","urban":"Latompa","postal_code":93674},{"province":"Sulawesi Tenggara","city":"Muna","district":"Batukara","urban":"Lanobake (Laano Bake)","postal_code":93674},{"province":"Sulawesi Tenggara","city":"Muna","district":"Maligano","urban":"Langkoroni","postal_code":93674},{"province":"Sulawesi Tenggara","city":"Muna","district":"Pasi Kolaga","urban":"Lambelu","postal_code":93674},{"province":"Sulawesi Tenggara","city":"Muna","district":"Pasir Putih","urban":"Labulawa","postal_code":93674},{"province":"Sulawesi Tenggara","city":"Muna","district":"Pasi Kolaga","urban":"Kolese","postal_code":93674},{"province":"Sulawesi Tenggara","city":"Muna","district":"Wakorumba Selatan","urban":"Labunia","postal_code":93674},{"province":"Sulawesi Tenggara","city":"Muna","district":"Pasir Putih","urban":"Koholifano","postal_code":93674},{"province":"Sulawesi Tenggara","city":"Muna","district":"Pasir Putih","urban":"Bumbu","postal_code":93674},{"province":"Sulawesi Tenggara","city":"Muna","district":"Pasir Putih","urban":"Kamosope","postal_code":93674},{"province":"Sulawesi Tenggara","city":"Muna","district":"Batukara","urban":"Bone Bone","postal_code":93674},{"province":"Sulawesi Tenggara","city":"Muna","district":"Batukara","urban":"Baluara","postal_code":93674},{"province":"Sulawesi Tenggara","city":"Muna","district":"Wakorumba Selatan","urban":"Bakealu","postal_code":93674}]