[{"province":"Sulawesi Tenggara","city":"Buton Utara","district":"Kulisusu Utara","urban":"Wowonga Jaya","postal_code":93672},{"province":"Sulawesi Tenggara","city":"Buton Utara","district":"Kulisusu (Kalingsusu/Kalisusu)","urban":"Wasalabose","postal_code":93672},{"province":"Sulawesi Tenggara","city":"Buton Utara","district":"Kulisusu (Kalingsusu/Kalisusu)","urban":"Wandaka","postal_code":93672},{"province":"Sulawesi Tenggara","city":"Buton Utara","district":"Kulisusu Utara","urban":"Waode Buri","postal_code":93672},{"province":"Sulawesi Tenggara","city":"Buton Utara","district":"Kulisusu (Kalingsusu/Kalisusu)","urban":"Waculaea","postal_code":93672},{"province":"Sulawesi Tenggara","city":"Buton Utara","district":"Kulisusu Utara","urban":"Wamboule","postal_code":93672},{"province":"Sulawesi Tenggara","city":"Buton Utara","district":"Kulisusu Utara","urban":"Ulunambo","postal_code":93672},{"province":"Sulawesi Tenggara","city":"Buton Utara","district":"Kulisusu (Kalingsusu/Kalisusu)","urban":"Tri Wacu-Wacu","postal_code":93672},{"province":"Sulawesi Tenggara","city":"Buton Utara","district":"Kulisusu Utara","urban":"Torombia (Torumbia)","postal_code":93672},{"province":"Sulawesi Tenggara","city":"Buton Utara","district":"Kulisusu (Kalingsusu/Kalisusu)","urban":"Tomoahi","postal_code":93672},{"province":"Sulawesi Tenggara","city":"Buton Utara","district":"Kulisusu (Kalingsusu/Kalisusu)","urban":"Sara&#8217;ea","postal_code":93672},{"province":"Sulawesi Tenggara","city":"Buton Utara","district":"Kulisusu Barat","urban":"Soloy/Soioi Agung","postal_code":93672},{"province":"Sulawesi Tenggara","city":"Buton Utara","district":"Kulisusu (Kalingsusu/Kalisusu)","urban":"Rombo","postal_code":93672},{"province":"Sulawesi Tenggara","city":"Buton Utara","district":"Kulisusu Barat","urban":"Rahmat Baru","postal_code":93672},{"province":"Sulawesi Tenggara","city":"Buton Utara","district":"Kulisusu Utara","urban":"Pebaoa","postal_code":93672},{"province":"Sulawesi Tenggara","city":"Buton Utara","district":"Kulisusu Utara","urban":"Peteteaa","postal_code":93672},{"province":"Sulawesi Tenggara","city":"Buton Utara","district":"Kulisusu Barat","urban":"Marga Karya","postal_code":93672},{"province":"Sulawesi Tenggara","city":"Buton Utara","district":"Kulisusu Barat","urban":"Mekar Jaya","postal_code":93672},{"province":"Sulawesi Tenggara","city":"Buton Utara","district":"Kulisusu (Kalingsusu/Kalisusu)","urban":"Loji","postal_code":93672},{"province":"Sulawesi Tenggara","city":"Buton Utara","district":"Kulisusu (Kalingsusu/Kalisusu)","urban":"Malalanda","postal_code":93672},{"province":"Sulawesi Tenggara","city":"Buton Utara","district":"Kulisusu (Kalingsusu/Kalisusu)","urban":"Linsowu","postal_code":93672},{"province":"Sulawesi Tenggara","city":"Buton Utara","district":"Kulisusu (Kalingsusu/Kalisusu)","urban":"Lipu","postal_code":93672},{"province":"Sulawesi Tenggara","city":"Buton Utara","district":"Kulisusu (Kalingsusu/Kalisusu)","urban":"Lemo (Bonerombo)","postal_code":93672},{"province":"Sulawesi Tenggara","city":"Buton Utara","district":"Kulisusu (Kalingsusu/Kalisusu)","urban":"Lemo Ea","postal_code":93672},{"province":"Sulawesi Tenggara","city":"Buton Utara","district":"Kulisusu Utara","urban":"Lelamo","postal_code":93672},{"province":"Sulawesi Tenggara","city":"Buton Utara","district":"Kulisusu Barat","urban":"Lauki","postal_code":93672},{"province":"Sulawesi Tenggara","city":"Buton Utara","district":"Kulisusu (Kalingsusu/Kalisusu)","urban":"Lantagi","postal_code":93672},{"province":"Sulawesi Tenggara","city":"Buton Utara","district":"Kulisusu Barat","urban":"Lapandewa","postal_code":93672},{"province":"Sulawesi Tenggara","city":"Buton Utara","district":"Kulisusu Barat","urban":"Lampala Jaya (Dampala Jaya)","postal_code":93672},{"province":"Sulawesi Tenggara","city":"Buton Utara","district":"Kulisusu (Kalingsusu/Kalisusu)","urban":"Lakonea","postal_code":93672},{"province":"Sulawesi Tenggara","city":"Buton Utara","district":"Kulisusu Barat","urban":"Lambale","postal_code":93672},{"province":"Sulawesi Tenggara","city":"Buton Utara","district":"Kulisusu Utara","urban":"Lamoahi","postal_code":93672},{"province":"Sulawesi Tenggara","city":"Buton Utara","district":"Kulisusu Barat","urban":"Labulanda","postal_code":93672},{"province":"Sulawesi Tenggara","city":"Buton Utara","district":"Kulisusu Utara","urban":"Labelete","postal_code":93672},{"province":"Sulawesi Tenggara","city":"Buton Utara","district":"Kulisusu (Kalingsusu/Kalisusu)","urban":"Laangke","postal_code":93672},{"province":"Sulawesi Tenggara","city":"Buton Utara","district":"Kulisusu Utara","urban":"Laanosangia (Lanosangia)","postal_code":93672},{"province":"Sulawesi Tenggara","city":"Buton Utara","district":"Kulisusu Utara","urban":"Kurolabu","postal_code":93672},{"province":"Sulawesi Tenggara","city":"Buton Utara","district":"Kulisusu Barat","urban":"Kotawo (Kotawa)","postal_code":93672},{"province":"Sulawesi Tenggara","city":"Buton Utara","district":"Kulisusu Barat","urban":"Karya Mulya","postal_code":93672},{"province":"Sulawesi Tenggara","city":"Buton Utara","district":"Kulisusu Barat","urban":"Kasulatombi","postal_code":93672},{"province":"Sulawesi Tenggara","city":"Buton Utara","district":"Kulisusu (Kalingsusu/Kalisusu)","urban":"Kalibu","postal_code":93672},{"province":"Sulawesi Tenggara","city":"Buton Utara","district":"Kulisusu Barat","urban":"Karya Bakti","postal_code":93672},{"province":"Sulawesi Tenggara","city":"Buton Utara","district":"Kulisusu (Kalingsusu/Kalisusu)","urban":"Jampaka","postal_code":93672},{"province":"Sulawesi Tenggara","city":"Buton Utara","district":"Kulisusu (Kalingsusu/Kalisusu)","urban":"Kadacua","postal_code":93672},{"province":"Sulawesi Tenggara","city":"Buton Utara","district":"Kulisusu (Kalingsusu/Kalisusu)","urban":"Eelahaji","postal_code":93672},{"province":"Sulawesi Tenggara","city":"Buton Utara","district":"Kulisusu Utara","urban":"E&#8217;erinere","postal_code":93672},{"province":"Sulawesi Tenggara","city":"Buton Utara","district":"Kulisusu (Kalingsusu/Kalisusu)","urban":"Bonelipu","postal_code":93672},{"province":"Sulawesi Tenggara","city":"Buton Utara","district":"Kulisusu Barat","urban":"Bumi Lapero/Lapera","postal_code":93672},{"province":"Sulawesi Tenggara","city":"Buton Utara","district":"Kulisusu Utara","urban":"Bira","postal_code":93672},{"province":"Sulawesi Tenggara","city":"Buton Utara","district":"Kulisusu (Kalingsusu/Kalisusu)","urban":"Banu-Banua Jaya","postal_code":93672},{"province":"Sulawesi Tenggara","city":"Buton Utara","district":"Kulisusu (Kalingsusu/Kalisusu)","urban":"Bangkudu (Ereke)","postal_code":93672}]