[{"province":"Sulawesi Tenggara","city":"Buton Utara","district":"Bonegunu","urban":"Waode Kalowo","postal_code":93673},{"province":"Sulawesi Tenggara","city":"Buton Utara","district":"Bonegunu","urban":"Ronta","postal_code":93673},{"province":"Sulawesi Tenggara","city":"Buton Utara","district":"Bonegunu","urban":"Tatombuli","postal_code":93673},{"province":"Sulawesi Tenggara","city":"Buton Utara","district":"Bonegunu","urban":"Waode Angkalo","postal_code":93673},{"province":"Sulawesi Tenggara","city":"Buton Utara","district":"Bonegunu","urban":"Rante Gola","postal_code":93673},{"province":"Sulawesi Tenggara","city":"Buton Utara","district":"Kambowa","urban":"Pongkawulu","postal_code":93673},{"province":"Sulawesi Tenggara","city":"Buton Utara","district":"Bonegunu","urban":"Ngapa&#8217;ea","postal_code":93673},{"province":"Sulawesi Tenggara","city":"Buton Utara","district":"Kambowa","urban":"Morindino","postal_code":93673},{"province":"Sulawesi Tenggara","city":"Buton Utara","district":"Bonegunu","urban":"Langere","postal_code":93673},{"province":"Sulawesi Tenggara","city":"Buton Utara","district":"Kambowa","urban":"Mata","postal_code":93673},{"province":"Sulawesi Tenggara","city":"Buton Utara","district":"Bonegunu","urban":"Laanoipi","postal_code":93673},{"province":"Sulawesi Tenggara","city":"Buton Utara","district":"Kambowa","urban":"Lagundi","postal_code":93673},{"province":"Sulawesi Tenggara","city":"Buton Utara","district":"Kambowa","urban":"Lahamoko Jaya","postal_code":93673},{"province":"Sulawesi Tenggara","city":"Buton Utara","district":"Bonegunu","urban":"Koepisino","postal_code":93673},{"province":"Sulawesi Tenggara","city":"Buton Utara","district":"Kambowa","urban":"Kondo","postal_code":93673},{"province":"Sulawesi Tenggara","city":"Buton Utara","district":"Kambowa","urban":"Kambowa","postal_code":93673},{"province":"Sulawesi Tenggara","city":"Buton Utara","district":"Bonegunu","urban":"Koboruno","postal_code":93673},{"province":"Sulawesi Tenggara","city":"Buton Utara","district":"Bonegunu","urban":"Gunung Sari","postal_code":93673},{"province":"Sulawesi Tenggara","city":"Buton Utara","district":"Bonegunu","urban":"Damai Laborona","postal_code":93673},{"province":"Sulawesi Tenggara","city":"Buton Utara","district":"Bonegunu","urban":"Een Sumala","postal_code":93673},{"province":"Sulawesi Tenggara","city":"Buton Utara","district":"Kambowa","urban":"Bubu Barat","postal_code":93673},{"province":"Sulawesi Tenggara","city":"Buton Utara","district":"Bonegunu","urban":"Buranga","postal_code":93673},{"province":"Sulawesi Tenggara","city":"Buton Utara","district":"Kambowa","urban":"Bubu","postal_code":93673},{"province":"Sulawesi Tenggara","city":"Buton Utara","district":"Bonegunu","urban":"Bonegunu","postal_code":93673},{"province":"Sulawesi Tenggara","city":"Buton Utara","district":"Kambowa","urban":"Bente","postal_code":93673},{"province":"Sulawesi Tenggara","city":"Buton Utara","district":"Kambowa","urban":"Baluara","postal_code":93673}]