[{"province":"Sulawesi Tenggara","city":"Buton","district":"Sampolawa","urban":"Wawoangi","postal_code":93753},{"province":"Sulawesi Tenggara","city":"Buton","district":"Sampolawa","urban":"Windu Makmur","postal_code":93753},{"province":"Sulawesi Tenggara","city":"Buton","district":"Sampolawa","urban":"Watiginanda","postal_code":93753},{"province":"Sulawesi Tenggara","city":"Buton","district":"Batu Atas","urban":"Wacuala","postal_code":93753},{"province":"Sulawesi Tenggara","city":"Buton","district":"Batu Atas","urban":"Wambongi","postal_code":93753},{"province":"Sulawesi Tenggara","city":"Buton","district":"Sampolawa","urban":"Todombulu","postal_code":93753},{"province":"Sulawesi Tenggara","city":"Buton","district":"Batu Atas","urban":"Tolando Jaya","postal_code":93753},{"province":"Sulawesi Tenggara","city":"Buton","district":"Sampolawa","urban":"Tira","postal_code":93753},{"province":"Sulawesi Tenggara","city":"Buton","district":"Batu Atas","urban":"Taduasa","postal_code":93753},{"province":"Sulawesi Tenggara","city":"Buton","district":"Lapandewa","urban":"Lapandewa Makmur","postal_code":93753},{"province":"Sulawesi Tenggara","city":"Buton","district":"Sampolawa","urban":"Lipumangau","postal_code":93753},{"province":"Sulawesi Tenggara","city":"Buton","district":"Sampolawa","urban":"Sandang Pangan","postal_code":93753},{"province":"Sulawesi Tenggara","city":"Buton","district":"Lapandewa","urban":"Lapandewa Kaidea","postal_code":93753},{"province":"Sulawesi Tenggara","city":"Buton","district":"Lapandewa","urban":"Lapandewa Jaya","postal_code":93753},{"province":"Sulawesi Tenggara","city":"Buton","district":"Sampolawa","urban":"Katilombu","postal_code":93753},{"province":"Sulawesi Tenggara","city":"Buton","district":"Lapandewa","urban":"Lapandewa","postal_code":93753},{"province":"Sulawesi Tenggara","city":"Buton","district":"Sampolawa","urban":"Hendea","postal_code":93753},{"province":"Sulawesi Tenggara","city":"Buton","district":"Sampolawa","urban":"Jaya Bakti","postal_code":93753},{"province":"Sulawesi Tenggara","city":"Buton","district":"Lapandewa","urban":"Gayabaru","postal_code":93753},{"province":"Sulawesi Tenggara","city":"Buton","district":"Sampolawa","urban":"Gerak Makmur","postal_code":93753},{"province":"Sulawesi Tenggara","city":"Buton","district":"Sampolawa","urban":"Gunung Sejuk","postal_code":93753},{"province":"Sulawesi Tenggara","city":"Buton","district":"Lapandewa","urban":"Burangasi","postal_code":93753},{"province":"Sulawesi Tenggara","city":"Buton","district":"Lapandewa","urban":"Burangasi Rumbia","postal_code":93753},{"province":"Sulawesi Tenggara","city":"Buton","district":"Batu Atas","urban":"Batuatas Timur","postal_code":93753},{"province":"Sulawesi Tenggara","city":"Buton","district":"Batu Atas","urban":"Batu Atas Liwu","postal_code":93753},{"province":"Sulawesi Tenggara","city":"Buton","district":"Batu Atas","urban":"Batuatas Barat","postal_code":93753},{"province":"Sulawesi Tenggara","city":"Buton","district":"Sampolawa","urban":"Bangun","postal_code":93753},{"province":"Sulawesi Tenggara","city":"Buton","district":"Sampolawa","urban":"Bahari Dua","postal_code":93753},{"province":"Sulawesi Tenggara","city":"Buton","district":"Sampolawa","urban":"Bahari Tiga","postal_code":93753},{"province":"Sulawesi Tenggara","city":"Buton","district":"Sampolawa","urban":"Bahari","postal_code":93753}]