[{"province":"Sulawesi Tenggara","city":"Buton","district":"Wolowa","urban":"Wolowa Baru","postal_code":93754},{"province":"Sulawesi Tenggara","city":"Buton","district":"Wolowa","urban":"Wolowa","postal_code":93754},{"province":"Sulawesi Tenggara","city":"Buton","district":"Pasar Wajo","urban":"Winning","postal_code":93754},{"province":"Sulawesi Tenggara","city":"Buton","district":"Wabula","urban":"Wasuemba","postal_code":93754},{"province":"Sulawesi Tenggara","city":"Buton","district":"Wabula","urban":"Wasampela","postal_code":93754},{"province":"Sulawesi Tenggara","city":"Buton","district":"Pasar Wajo","urban":"Wasaga","postal_code":93754},{"province":"Sulawesi Tenggara","city":"Buton","district":"Pasar Wajo","urban":"Warinta","postal_code":93754},{"province":"Sulawesi Tenggara","city":"Buton","district":"Pasar Wajo","urban":"Wagola","postal_code":93754},{"province":"Sulawesi Tenggara","city":"Buton","district":"Pasar Wajo","urban":"Wangu Angu","postal_code":93754},{"province":"Sulawesi Tenggara","city":"Buton","district":"Wabula","urban":"Wabula Satu","postal_code":93754},{"province":"Sulawesi Tenggara","city":"Buton","district":"Pasar Wajo","urban":"Takimpo","postal_code":93754},{"province":"Sulawesi Tenggara","city":"Buton","district":"Wabula","urban":"Wabula","postal_code":93754},{"province":"Sulawesi Tenggara","city":"Buton","district":"Wolowa","urban":"Sukamaju","postal_code":93754},{"province":"Sulawesi Tenggara","city":"Buton","district":"Pasar Wajo","urban":"Saragi","postal_code":93754},{"province":"Sulawesi Tenggara","city":"Buton","district":"Wolowa","urban":"Sukamaju","postal_code":93754},{"province":"Sulawesi Tenggara","city":"Buton","district":"Pasar Wajo","urban":"Mantowu","postal_code":93754},{"province":"Sulawesi Tenggara","city":"Buton","district":"Wolowa","urban":"Matawia","postal_code":93754},{"province":"Sulawesi Tenggara","city":"Buton","district":"Pasar Wajo","urban":"Laburunci","postal_code":93754},{"province":"Sulawesi Tenggara","city":"Buton","district":"Pasar Wajo","urban":"Lapodi","postal_code":93754},{"province":"Sulawesi Tenggara","city":"Buton","district":"Pasar Wajo","urban":"Kondowa","postal_code":93754},{"province":"Sulawesi Tenggara","city":"Buton","district":"Wabula","urban":"Koholimombona","postal_code":93754},{"province":"Sulawesi Tenggara","city":"Buton","district":"Pasar Wajo","urban":"Kombeli","postal_code":93754},{"province":"Sulawesi Tenggara","city":"Buton","district":"Wolowa","urban":"Kaumbu","postal_code":93754},{"province":"Sulawesi Tenggara","city":"Buton","district":"Pasar Wajo","urban":"Kancinaa","postal_code":93754},{"province":"Sulawesi Tenggara","city":"Buton","district":"Pasar Wajo","urban":"Kaongkeongkea","postal_code":93754},{"province":"Sulawesi Tenggara","city":"Buton","district":"Pasar Wajo","urban":"Kahulungaya","postal_code":93754},{"province":"Sulawesi Tenggara","city":"Buton","district":"Pasar Wajo","urban":"Kambulabulana","postal_code":93754},{"province":"Sulawesi Tenggara","city":"Buton","district":"Pasar Wajo","urban":"Holimombo Jaya","postal_code":93754},{"province":"Sulawesi Tenggara","city":"Buton","district":"Pasar Wajo","urban":"Kabawakole","postal_code":93754},{"province":"Sulawesi Tenggara","city":"Buton","district":"Wolowa","urban":"Galanti","postal_code":93754},{"province":"Sulawesi Tenggara","city":"Buton","district":"Wabula","urban":"Holimombo","postal_code":93754},{"province":"Sulawesi Tenggara","city":"Buton","district":"Wolowa","urban":"Bungi","postal_code":93754},{"province":"Sulawesi Tenggara","city":"Buton","district":"Pasar Wajo","urban":"Dongkala","postal_code":93754},{"province":"Sulawesi Tenggara","city":"Buton","district":"Pasar Wajo","urban":"Banabungi","postal_code":93754},{"province":"Sulawesi Tenggara","city":"Buton","district":"Wabula","urban":"Bajo Bahari","postal_code":93754},{"province":"Sulawesi Tenggara","city":"Buton","district":"Pasar Wajo","urban":"Awainulu","postal_code":93754}]