[{"province":"Sulawesi Tenggara","city":"Bau","district":"Bungi","urban":"Tampuna","postal_code":93758},{"province":"Sulawesi Tenggara","city":"Bau","district":"Bungi","urban":"Walia Buku","postal_code":93758},{"province":"Sulawesi Tenggara","city":"Bau","district":"Lea-Lea","urban":"Palabusa","postal_code":93758},{"province":"Sulawesi Tenggara","city":"Bau","district":"Bungi","urban":"Ngkaring-Karing (Ngkari-Ngkari)","postal_code":93758},{"province":"Sulawesi Tenggara","city":"Bau","district":"Lea-Lea","urban":"Kolese","postal_code":93758},{"province":"Sulawesi Tenggara","city":"Bau","district":"Lea-Lea","urban":"Lowu-Lowu","postal_code":93758},{"province":"Sulawesi Tenggara","city":"Bau","district":"Bungi","urban":"Lia Buku","postal_code":93758},{"province":"Sulawesi Tenggara","city":"Bau","district":"Lea-Lea","urban":"Kantalai","postal_code":93758},{"province":"Sulawesi Tenggara","city":"Bau","district":"Bungi","urban":"Kampeonaho","postal_code":93758},{"province":"Sulawesi Tenggara","city":"Bau","district":"Lea-Lea","urban":"Kalia Lia","postal_code":93758}]