[{"province":"Sulawesi Tenggara","city":"Buton","district":"Siompu Barat","urban":"Watuampara","postal_code":93752},{"province":"Sulawesi Tenggara","city":"Buton","district":"Kadatua","urban":"Waonu","postal_code":93752},{"province":"Sulawesi Tenggara","city":"Buton","district":"Siompu","urban":"Wakinamboro","postal_code":93752},{"province":"Sulawesi Tenggara","city":"Buton","district":"Kadatua","urban":"Uwemaasi","postal_code":93752},{"province":"Sulawesi Tenggara","city":"Buton","district":"Siompu","urban":"Waindawula","postal_code":93752},{"province":"Sulawesi Tenggara","city":"Buton","district":"Batauga","urban":"Pogalampa (Poogalampa)","postal_code":93752},{"province":"Sulawesi Tenggara","city":"Buton","district":"Siompu","urban":"Tongali","postal_code":93752},{"province":"Sulawesi Tenggara","city":"Buton","district":"Siompu Barat","urban":"Molona","postal_code":93752},{"province":"Sulawesi Tenggara","city":"Buton","district":"Siompu","urban":"Nggulanggula","postal_code":93752},{"province":"Sulawesi Tenggara","city":"Buton","district":"Batauga","urban":"Molagina","postal_code":93752},{"province":"Sulawesi Tenggara","city":"Buton","district":"Siompu Barat","urban":"Mbanua","postal_code":93752},{"province":"Sulawesi Tenggara","city":"Buton","district":"Siompu Barat","urban":"Mokobeau","postal_code":93752},{"province":"Sulawesi Tenggara","city":"Buton","district":"Batauga","urban":"Masiri","postal_code":93752},{"province":"Sulawesi Tenggara","city":"Buton","district":"Kadatua","urban":"Mawambunga","postal_code":93752},{"province":"Sulawesi Tenggara","city":"Buton","district":"Batauga","urban":"Majapahit","postal_code":93752},{"province":"Sulawesi Tenggara","city":"Buton","district":"Kadatua","urban":"Marawali","postal_code":93752},{"province":"Sulawesi Tenggara","city":"Buton","district":"Batauga","urban":"Lawela Selatan","postal_code":93752},{"province":"Sulawesi Tenggara","city":"Buton","district":"Kadatua","urban":"Lipu","postal_code":93752},{"province":"Sulawesi Tenggara","city":"Buton","district":"Batauga","urban":"Lawela","postal_code":93752},{"province":"Sulawesi Tenggara","city":"Buton","district":"Batauga","urban":"Lapanairi (Lampanairi)","postal_code":93752},{"province":"Sulawesi Tenggara","city":"Buton","district":"Siompu","urban":"Lapara","postal_code":93752},{"province":"Sulawesi Tenggara","city":"Buton","district":"Batauga","urban":"Laompo","postal_code":93752},{"province":"Sulawesi Tenggara","city":"Buton","district":"Siompu Barat","urban":"Lamaninggara","postal_code":93752},{"province":"Sulawesi Tenggara","city":"Buton","district":"Siompu","urban":"Lantoi (Lontoi)","postal_code":93752},{"province":"Sulawesi Tenggara","city":"Buton","district":"Siompu Barat","urban":"Lalole","postal_code":93752},{"province":"Sulawesi Tenggara","city":"Buton","district":"Batauga","urban":"Lakambau","postal_code":93752},{"province":"Sulawesi Tenggara","city":"Buton","district":"Siompu Barat","urban":"Katampe","postal_code":93752},{"province":"Sulawesi Tenggara","city":"Buton","district":"Siompu","urban":"Karae","postal_code":93752},{"province":"Sulawesi Tenggara","city":"Buton","district":"Kadatua","urban":"Kapoa","postal_code":93752},{"province":"Sulawesi Tenggara","city":"Buton","district":"Kadatua","urban":"Kapoa Barat","postal_code":93752},{"province":"Sulawesi Tenggara","city":"Buton","district":"Siompu Barat","urban":"Kamoali","postal_code":93752},{"province":"Sulawesi Tenggara","city":"Buton","district":"Kadatua","urban":"Kaofe","postal_code":93752},{"province":"Sulawesi Tenggara","city":"Buton","district":"Siompu","urban":"Kaimbulawa","postal_code":93752},{"province":"Sulawesi Tenggara","city":"Buton","district":"Batauga","urban":"Busoa","postal_code":93752},{"province":"Sulawesi Tenggara","city":"Buton","district":"Siompu","urban":"Biwinapada","postal_code":93752},{"province":"Sulawesi Tenggara","city":"Buton","district":"Batauga","urban":"Bola","postal_code":93752},{"province":"Sulawesi Tenggara","city":"Buton","district":"Siompu","urban":"Batuawu","postal_code":93752},{"province":"Sulawesi Tenggara","city":"Buton","district":"Batauga","urban":"Bandar Batauga","postal_code":93752},{"province":"Sulawesi Tenggara","city":"Buton","district":"Kadatua","urban":"Banabungi","postal_code":93752},{"province":"Sulawesi Tenggara","city":"Buton","district":"Kadatua","urban":"Banabungi Selatan","postal_code":93752}]