[{"province":"Sulawesi Tenggara","city":"Buton","district":"Lasalimu","urban":"Wasambaa","postal_code":93756},{"province":"Sulawesi Tenggara","city":"Buton","district":"Lasalimu","urban":"Wasuamba","postal_code":93756},{"province":"Sulawesi Tenggara","city":"Buton","district":"Lasalimu Selatan","urban":"Wajahjaya","postal_code":93756},{"province":"Sulawesi Tenggara","city":"Buton","district":"Lasalimu","urban":"Waoleona","postal_code":93756},{"province":"Sulawesi Tenggara","city":"Buton","district":"Siontapia (Siontapina)","urban":"Walompo","postal_code":93756},{"province":"Sulawesi Tenggara","city":"Buton","district":"Lasalimu Selatan","urban":"Umalaoge","postal_code":93756},{"province":"Sulawesi Tenggara","city":"Buton","district":"Lasalimu","urban":"Wagari","postal_code":93756},{"province":"Sulawesi Tenggara","city":"Buton","district":"Lasalimu","urban":"Talaga Baru","postal_code":93756},{"province":"Sulawesi Tenggara","city":"Buton","district":"Lasalimu","urban":"Togo Mangura","postal_code":93756},{"province":"Sulawesi Tenggara","city":"Buton","district":"Lasalimu Selatan","urban":"Sumber Agung","postal_code":93756},{"province":"Sulawesi Tenggara","city":"Buton","district":"Lasalimu","urban":"Suandala","postal_code":93756},{"province":"Sulawesi Tenggara","city":"Buton","district":"Siontapia (Siontapina)","urban":"Sumber Sari","postal_code":93756},{"province":"Sulawesi Tenggara","city":"Buton","district":"Lasalimu Selatan","urban":"Siomanuru","postal_code":93756},{"province":"Sulawesi Tenggara","city":"Buton","district":"Lasalimu","urban":"Sribatara","postal_code":93756},{"province":"Sulawesi Tenggara","city":"Buton","district":"Lasalimu Selatan","urban":"Siontapina (Siotapina)","postal_code":93756},{"province":"Sulawesi Tenggara","city":"Buton","district":"Siontapia (Siontapina)","urban":"Sampuabalo","postal_code":93756},{"province":"Sulawesi Tenggara","city":"Buton","district":"Lasalimu Selatan","urban":"Sangia Arano","postal_code":93756},{"province":"Sulawesi Tenggara","city":"Buton","district":"Lasalimu Selatan","urban":"Rejo Sari","postal_code":93756},{"province":"Sulawesi Tenggara","city":"Buton","district":"Lasalimu","urban":"Nambo","postal_code":93756},{"province":"Sulawesi Tenggara","city":"Buton","district":"Lasalimu Selatan","urban":"Megabahari","postal_code":93756},{"province":"Sulawesi Tenggara","city":"Buton","district":"Lasalimu Selatan","urban":"Mopaano/Mopano","postal_code":93756},{"province":"Sulawesi Tenggara","city":"Buton","district":"Lasalimu Selatan","urban":"Mulia Jaya","postal_code":93756},{"province":"Sulawesi Tenggara","city":"Buton","district":"Siontapia (Siontapina)","urban":"Matanauwe","postal_code":93756},{"province":"Sulawesi Tenggara","city":"Buton","district":"Siontapia (Siontapina)","urban":"Manuru","postal_code":93756},{"province":"Sulawesi Tenggara","city":"Buton","district":"Lasalimu","urban":"Lawele","postal_code":93756},{"province":"Sulawesi Tenggara","city":"Buton","district":"Lasalimu Selatan","urban":"Lasalimu","postal_code":93756},{"province":"Sulawesi Tenggara","city":"Buton","district":"Siontapia (Siontapina)","urban":"Labuandiri","postal_code":93756},{"province":"Sulawesi Tenggara","city":"Buton","district":"Lasalimu","urban":"Lasembangi","postal_code":93756},{"province":"Sulawesi Tenggara","city":"Buton","district":"Siontapia (Siontapina)","urban":"Kumbewaha","postal_code":93756},{"province":"Sulawesi Tenggara","city":"Buton","district":"Siontapia (Siontapina)","urban":"Kuraa","postal_code":93756},{"province":"Sulawesi Tenggara","city":"Buton","district":"Siontapia (Siontapina)","urban":"Karya Jaya","postal_code":93756},{"province":"Sulawesi Tenggara","city":"Buton","district":"Lasalimu Selatan","urban":"Kinapani Makmur","postal_code":93756},{"province":"Sulawesi Tenggara","city":"Buton","district":"Lasalimu","urban":"Kakenauwe","postal_code":93756},{"province":"Sulawesi Tenggara","city":"Buton","district":"Lasalimu","urban":"Kamaru","postal_code":93756},{"province":"Sulawesi Tenggara","city":"Buton","district":"Lasalimu Selatan","urban":"Harapan Jaya","postal_code":93756},{"province":"Sulawesi Tenggara","city":"Buton","district":"Lasalimu","urban":"Bonelalo","postal_code":93756},{"province":"Sulawesi Tenggara","city":"Buton","district":"Siontapia (Siontapina)","urban":"Gunung Jaya","postal_code":93756},{"province":"Sulawesi Tenggara","city":"Buton","district":"Lasalimu","urban":"Benteng","postal_code":93756},{"province":"Sulawesi Tenggara","city":"Buton","district":"Siontapia (Siontapina)","urban":"Bahari Makmur","postal_code":93756},{"province":"Sulawesi Tenggara","city":"Buton","district":"Lasalimu Selatan","urban":"Balimu","postal_code":93756},{"province":"Sulawesi Tenggara","city":"Buton","district":"Lasalimu Selatan","urban":"Ambuau Togo","postal_code":93756},{"province":"Sulawesi Tenggara","city":"Buton","district":"Lasalimu Selatan","urban":"Ambuau Indah","postal_code":93756}]