[{"province":"Sulawesi Tenggara","city":"Buton","district":"Mawasangka Tengah","urban":"Watorambe Bata","postal_code":93762},{"province":"Sulawesi Tenggara","city":"Buton","district":"Mawasangka","urban":"Watolo (Watalo)","postal_code":93762},{"province":"Sulawesi Tenggara","city":"Buton","district":"Mawasangka Tengah","urban":"Watorambe","postal_code":93762},{"province":"Sulawesi Tenggara","city":"Buton","district":"Mawasangka","urban":"Wasilomata I","postal_code":93762},{"province":"Sulawesi Tenggara","city":"Buton","district":"Mawasangka","urban":"Wasilomata II","postal_code":93762},{"province":"Sulawesi Tenggara","city":"Buton","district":"Mawasangka Timur","urban":"Wambuloli","postal_code":93762},{"province":"Sulawesi Tenggara","city":"Buton","district":"Mawasangka Timur","urban":"Wantopi","postal_code":93762},{"province":"Sulawesi Tenggara","city":"Buton","district":"Mawasangka","urban":"Terapung","postal_code":93762},{"province":"Sulawesi Tenggara","city":"Buton","district":"Mawasangka","urban":"Wakambangura","postal_code":93762},{"province":"Sulawesi Tenggara","city":"Buton","district":"Mawasangka","urban":"Wakambangura II","postal_code":93762},{"province":"Sulawesi Tenggara","city":"Buton","district":"Mawasangka","urban":"Polindu","postal_code":93762},{"province":"Sulawesi Tenggara","city":"Buton","district":"Mawasangka","urban":"Tanailandu","postal_code":93762},{"province":"Sulawesi Tenggara","city":"Buton","district":"Mawasangka","urban":"Napa","postal_code":93762},{"province":"Sulawesi Tenggara","city":"Buton","district":"Mawasangka","urban":"Ongkolaki (Oengkolaki)","postal_code":93762},{"province":"Sulawesi Tenggara","city":"Buton","district":"Mawasangka Tengah","urban":"Morikana","postal_code":93762},{"province":"Sulawesi Tenggara","city":"Buton","district":"Mawasangka","urban":"Mawasangka","postal_code":93762},{"province":"Sulawesi Tenggara","city":"Buton","district":"Mawasangka","urban":"Matara (Matara)","postal_code":93762},{"province":"Sulawesi Tenggara","city":"Buton","district":"Mawasangka Timur","urban":"Lasori","postal_code":93762},{"province":"Sulawesi Tenggara","city":"Buton","district":"Mawasangka Tengah","urban":"Lanto","postal_code":93762},{"province":"Sulawesi Tenggara","city":"Buton","district":"Mawasangka Tengah","urban":"Lantongau","postal_code":93762},{"province":"Sulawesi Tenggara","city":"Buton","district":"Mawasangka Tengah","urban":"Lakuroa (Lakorua)","postal_code":93762},{"province":"Sulawesi Tenggara","city":"Buton","district":"Mawasangka Tengah","urban":"Lalibo","postal_code":93762},{"province":"Sulawesi Tenggara","city":"Buton","district":"Mawasangka Tengah","urban":"Langkomu","postal_code":93762},{"province":"Sulawesi Tenggara","city":"Buton","district":"Mawasangka Tengah","urban":"Katukobari","postal_code":93762},{"province":"Sulawesi Tenggara","city":"Buton","district":"Mawasangka Timur","urban":"Lagili","postal_code":93762},{"province":"Sulawesi Tenggara","city":"Buton","district":"Mawasangka","urban":"Kanapa-Napa","postal_code":93762},{"province":"Sulawesi Tenggara","city":"Buton","district":"Mawasangka","urban":"Kance Bungi","postal_code":93762},{"province":"Sulawesi Tenggara","city":"Buton","district":"Mawasangka Tengah","urban":"Gundu Gundu","postal_code":93762},{"province":"Sulawesi Tenggara","city":"Buton","district":"Mawasangka Timur","urban":"Inulu","postal_code":93762},{"province":"Sulawesi Tenggara","city":"Buton","district":"Mawasangka","urban":"Gumamano","postal_code":93762},{"province":"Sulawesi Tenggara","city":"Buton","district":"Mawasangka","urban":"Dariango","postal_code":93762},{"province":"Sulawesi Tenggara","city":"Buton","district":"Mawasangka Timur","urban":"Bone Marambe","postal_code":93762},{"province":"Sulawesi Tenggara","city":"Buton","district":"Mawasangka Timur","urban":"Bungi","postal_code":93762},{"province":"Sulawesi Tenggara","city":"Buton","district":"Mawasangka Timur","urban":"Batubanawa","postal_code":93762},{"province":"Sulawesi Tenggara","city":"Buton","district":"Mawasangka","urban":"Balobone","postal_code":93762},{"province":"Sulawesi Tenggara","city":"Buton","district":"Mawasangka","urban":"Banga","postal_code":93762},{"province":"Sulawesi Tenggara","city":"Buton","district":"Mawasangka","urban":"Air Bajo","postal_code":93762}]