[{"province":"Sulawesi Tenggara","city":"Bombana","district":"Poleang Utara","urban":"Wambarema","postal_code":93773},{"province":"Sulawesi Tenggara","city":"Bombana","district":"Poleang Selatan","urban":"Waemputang","postal_code":93773},{"province":"Sulawesi Tenggara","city":"Bombana","district":"Poleang Utara","urban":"Toburi","postal_code":93773},{"province":"Sulawesi Tenggara","city":"Bombana","district":"Poleang Tenggara","urban":"Terapung","postal_code":93773},{"province":"Sulawesi Tenggara","city":"Bombana","district":"Poleang Timur","urban":"Teppoe","postal_code":93773},{"province":"Sulawesi Tenggara","city":"Bombana","district":"Poleang Utara","urban":"Rompu Rompu","postal_code":93773},{"province":"Sulawesi Tenggara","city":"Bombana","district":"Poleang Utara","urban":"Tampawulu (Tanpabulu)","postal_code":93773},{"province":"Sulawesi Tenggara","city":"Bombana","district":"Poleang Utara","urban":"Tanah Poleang","postal_code":93773},{"province":"Sulawesi Tenggara","city":"Bombana","district":"Poleang Utara","urban":"Pulau Ea (Es)","postal_code":93773},{"province":"Sulawesi Tenggara","city":"Bombana","district":"Poleang Tenggara","urban":"Marampuka","postal_code":93773},{"province":"Sulawesi Tenggara","city":"Bombana","district":"Poleang Timur","urban":"Puu Lemo","postal_code":93773},{"province":"Sulawesi Tenggara","city":"Bombana","district":"Poleang Timur","urban":"Mambo","postal_code":93773},{"province":"Sulawesi Tenggara","city":"Bombana","district":"Poleang Tenggara","urban":"Larete","postal_code":93773},{"province":"Sulawesi Tenggara","city":"Bombana","district":"Poleang Utara","urban":"Lawatu Ea (Es)","postal_code":93773},{"province":"Sulawesi Tenggara","city":"Bombana","district":"Poleang Tenggara","urban":"Lamoare","postal_code":93773},{"province":"Sulawesi Tenggara","city":"Bombana","district":"Poleang Selatan","urban":"La Ea","postal_code":93773},{"province":"Sulawesi Tenggara","city":"Bombana","district":"Poleang Utara","urban":"Karya Baru","postal_code":93773},{"province":"Sulawesi Tenggara","city":"Bombana","district":"Poleang Selatan","urban":"Kali Baru","postal_code":93773},{"province":"Sulawesi Tenggara","city":"Bombana","district":"Poleang Timur","urban":"Biru","postal_code":93773},{"province":"Sulawesi Tenggara","city":"Bombana","district":"Poleang Selatan","urban":"Batu Putih","postal_code":93773},{"province":"Sulawesi Tenggara","city":"Bombana","district":"Poleang Timur","urban":"Bambaea","postal_code":93773},{"province":"Sulawesi Tenggara","city":"Bombana","district":"Poleang Selatan","urban":"Akacipong","postal_code":93773}]