[{"province":"Sulawesi Tenggara","city":"Bombana","district":"Rarowatu Utara","urban":"Wumbu Bangka","postal_code":93774},{"province":"Sulawesi Tenggara","city":"Bombana","district":"Mata Usu","urban":"Wia-Wia","postal_code":93774},{"province":"Sulawesi Tenggara","city":"Bombana","district":"Lentarai Jaya S. (Lantari Jaya)","urban":"Watu-Watu","postal_code":93774},{"province":"Sulawesi Tenggara","city":"Bombana","district":"Rarowatu","urban":"Watu Kalangkari","postal_code":93774},{"province":"Sulawesi Tenggara","city":"Bombana","district":"Rarowatu Utara","urban":"Watu Mentade","postal_code":93774},{"province":"Sulawesi Tenggara","city":"Bombana","district":"Rarowatu Utara","urban":"Tunas Baru","postal_code":93774},{"province":"Sulawesi Tenggara","city":"Bombana","district":"Mata Usu","urban":"Totole","postal_code":93774},{"province":"Sulawesi Tenggara","city":"Bombana","district":"Lentarai Jaya S. (Lantari Jaya)","urban":"Tinabite","postal_code":93774},{"province":"Sulawesi Tenggara","city":"Bombana","district":"Rarowatu Utara","urban":"Tembe","postal_code":93774},{"province":"Sulawesi Tenggara","city":"Bombana","district":"Rarowatu","urban":"Rau-Rau","postal_code":93774},{"province":"Sulawesi Tenggara","city":"Bombana","district":"Rarowatu","urban":"Taubonto","postal_code":93774},{"province":"Sulawesi Tenggara","city":"Bombana","district":"Lentarai Jaya S. (Lantari Jaya)","urban":"Pasare Apua","postal_code":93774},{"province":"Sulawesi Tenggara","city":"Bombana","district":"Lentarai Jaya S. (Lantari Jaya)","urban":"Rarongkeu","postal_code":93774},{"province":"Sulawesi Tenggara","city":"Bombana","district":"Rarowatu","urban":"Rarowatu","postal_code":93774},{"province":"Sulawesi Tenggara","city":"Bombana","district":"Mata Usu","urban":"Morengke","postal_code":93774},{"province":"Sulawesi Tenggara","city":"Bombana","district":"Rarowatu","urban":"Pangkuri","postal_code":93774},{"province":"Sulawesi Tenggara","city":"Bombana","district":"Lentarai Jaya S. (Lantari Jaya)","urban":"Lomba Kasih","postal_code":93774},{"province":"Sulawesi Tenggara","city":"Bombana","district":"Rarowatu Utara","urban":"Marga Jaya","postal_code":93774},{"province":"Sulawesi Tenggara","city":"Bombana","district":"Lentarai Jaya S. (Lantari Jaya)","urban":"Lantari","postal_code":93774},{"province":"Sulawesi Tenggara","city":"Bombana","district":"Rarowatu Utara","urban":"Lantowua","postal_code":93774},{"province":"Sulawesi Tenggara","city":"Bombana","district":"Lentarai Jaya S. (Lantari Jaya)","urban":"Langkadue","postal_code":93774},{"province":"Sulawesi Tenggara","city":"Bombana","district":"Lentarai Jaya S. (Lantari Jaya)","urban":"Langkowala","postal_code":93774},{"province":"Sulawesi Tenggara","city":"Bombana","district":"Mata Usu","urban":"Lamuru","postal_code":93774},{"province":"Sulawesi Tenggara","city":"Bombana","district":"Rarowatu","urban":"Lampeantani","postal_code":93774},{"province":"Sulawesi Tenggara","city":"Bombana","district":"Mata Usu","urban":"Lamuru","postal_code":93774},{"province":"Sulawesi Tenggara","city":"Bombana","district":"Rarowatu","urban":"Ladumpi","postal_code":93774},{"province":"Sulawesi Tenggara","city":"Bombana","district":"Mata Usu","urban":"Kolombi Matausu","postal_code":93774},{"province":"Sulawesi Tenggara","city":"Bombana","district":"Lentarai Jaya S. (Lantari Jaya)","urban":"Kalaero","postal_code":93774},{"province":"Sulawesi Tenggara","city":"Bombana","district":"Rarowatu Utara","urban":"Hukaea","postal_code":93774},{"province":"Sulawesi Tenggara","city":"Bombana","district":"Lentarai Jaya S. (Lantari Jaya)","urban":"Anugerah","postal_code":93774},{"province":"Sulawesi Tenggara","city":"Bombana","district":"Rarowatu Utara","urban":"Aneka Marga","postal_code":93774}]