[{"province":"Sulawesi Tenggara","city":"Bombana","district":"Mata Oleo","urban":"Toli-Toli","postal_code":93771},{"province":"Sulawesi Tenggara","city":"Bombana","district":"Mata Oleo","urban":"Tajuncu","postal_code":93771},{"province":"Sulawesi Tenggara","city":"Bombana","district":"Mata Oleo","urban":"Tajuncu","postal_code":93771},{"province":"Sulawesi Tenggara","city":"Bombana","district":"Mata Oleo","urban":"Pulau Tambako","postal_code":93771},{"province":"Sulawesi Tenggara","city":"Bombana","district":"Rumbia Tengah","urban":"Poea","postal_code":93771},{"province":"Sulawesi Tenggara","city":"Bombana","district":"Mata Oleo","urban":"Pemontoro (Pomontoro)","postal_code":93771},{"province":"Sulawesi Tenggara","city":"Bombana","district":"Kepulauan Masaloka Raya","urban":"Masaloka Selatan","postal_code":93771},{"province":"Sulawesi Tenggara","city":"Bombana","district":"Kepulauan Masaloka Raya","urban":"Masaloka Timur","postal_code":93771},{"province":"Sulawesi Tenggara","city":"Bombana","district":"Mata Oleo","urban":"Mawar","postal_code":93771},{"province":"Sulawesi Tenggara","city":"Bombana","district":"Kepulauan Masaloka Raya","urban":"Masaloka","postal_code":93771},{"province":"Sulawesi Tenggara","city":"Bombana","district":"Kepulauan Masaloka Raya","urban":"Masaloka Barat (Tengah)","postal_code":93771},{"province":"Sulawesi Tenggara","city":"Bombana","district":"Mata Oleo","urban":"Lora","postal_code":93771},{"province":"Sulawesi Tenggara","city":"Bombana","district":"Rumbia Tengah","urban":"Lauru","postal_code":93771},{"province":"Sulawesi Tenggara","city":"Bombana","district":"Mata Oleo","urban":"Liano","postal_code":93771},{"province":"Sulawesi Tenggara","city":"Bombana","district":"Rumbia","urban":"Lampopala","postal_code":93771},{"province":"Sulawesi Tenggara","city":"Bombana","district":"Rumbia","urban":"Lanto Wonua (Lantawonua)","postal_code":93771},{"province":"Sulawesi Tenggara","city":"Bombana","district":"Rumbia Tengah","urban":"Lampata","postal_code":93771},{"province":"Sulawesi Tenggara","city":"Bombana","district":"Rumbia","urban":"Lameroro","postal_code":93771},{"province":"Sulawesi Tenggara","city":"Bombana","district":"Mata Oleo","urban":"Laloa","postal_code":93771},{"province":"Sulawesi Tenggara","city":"Bombana","district":"Rumbia","urban":"Kasipute","postal_code":93771},{"province":"Sulawesi Tenggara","city":"Bombana","district":"Rumbia Tengah","urban":"Kampung Baru","postal_code":93771},{"province":"Sulawesi Tenggara","city":"Bombana","district":"Rumbia","urban":"Doule","postal_code":93771},{"province":"Sulawesi Tenggara","city":"Bombana","district":"Mata Oleo","urban":"Hambawa Indah","postal_code":93771},{"province":"Sulawesi Tenggara","city":"Bombana","district":"Mata Oleo","urban":"Batusame Indah","postal_code":93771},{"province":"Sulawesi Tenggara","city":"Bombana","district":"Kepulauan Masaloka Raya","urban":"Batu Lamburi","postal_code":93771},{"province":"Sulawesi Tenggara","city":"Konawe","district":"Bondoala","urban":"Rumbia","postal_code":93771}]