[{"province":"Sulawesi Tenggara","city":"Bombana","district":"Tontonunu (Tontonuwu)","urban":"Watu Melomba","postal_code":93772},{"province":"Sulawesi Tenggara","city":"Bombana","district":"Tontonunu (Tontonuwu)","urban":"Tongkoseng","postal_code":93772},{"province":"Sulawesi Tenggara","city":"Bombana","district":"Tontonunu (Tontonuwu)","urban":"Tontonunu","postal_code":93772},{"province":"Sulawesi Tenggara","city":"Bombana","district":"Poleang Barat","urban":"Timbala","postal_code":93772},{"province":"Sulawesi Tenggara","city":"Bombana","district":"Poleang Barat","urban":"Toari Buton","postal_code":93772},{"province":"Sulawesi Tenggara","city":"Bombana","district":"Poleang","urban":"Salosa","postal_code":93772},{"province":"Sulawesi Tenggara","city":"Bombana","district":"Tontonunu (Tontonuwu)","urban":"Tete Haka","postal_code":93772},{"province":"Sulawesi Tenggara","city":"Bombana","district":"Poleang Barat","urban":"Rakadua","postal_code":93772},{"province":"Sulawesi Tenggara","city":"Bombana","district":"Poleang Barat","urban":"Rano Komea","postal_code":93772},{"province":"Sulawesi Tenggara","city":"Bombana","district":"Tontonunu (Tontonuwu)","urban":"Puu Wonua","postal_code":93772},{"province":"Sulawesi Tenggara","city":"Bombana","district":"Poleang Tengah","urban":"Paria","postal_code":93772},{"province":"Sulawesi Tenggara","city":"Bombana","district":"Poleang Tengah","urban":"Poleondro","postal_code":93772},{"province":"Sulawesi Tenggara","city":"Bombana","district":"Poleang","urban":"Pukurumba (Pokorumba)","postal_code":93772},{"province":"Sulawesi Tenggara","city":"Bombana","district":"Poleang Barat","urban":"Pabiring","postal_code":93772},{"province":"Sulawesi Tenggara","city":"Bombana","district":"Poleang","urban":"Pallimae","postal_code":93772},{"province":"Sulawesi Tenggara","city":"Bombana","district":"Poleang Tengah","urban":"Mulaeno","postal_code":93772},{"province":"Sulawesi Tenggara","city":"Bombana","district":"Poleang","urban":"Matiro Walie","postal_code":93772},{"province":"Sulawesi Tenggara","city":"Bombana","district":"Poleang Tengah","urban":"Lebo Ea","postal_code":93772},{"province":"Sulawesi Tenggara","city":"Bombana","district":"Poleang","urban":"Kasabolo","postal_code":93772},{"province":"Sulawesi Tenggara","city":"Bombana","district":"Poleang","urban":"Kastarib","postal_code":93772},{"province":"Sulawesi Tenggara","city":"Bombana","district":"Poleang Barat","urban":"Lameong-Meong","postal_code":93772},{"province":"Sulawesi Tenggara","city":"Bombana","district":"Poleang","urban":"Boepinang Barat","postal_code":93772},{"province":"Sulawesi Tenggara","city":"Bombana","district":"Poleang Barat","urban":"Bulumanai","postal_code":93772},{"province":"Sulawesi Tenggara","city":"Bombana","district":"Poleang","urban":"Barangga","postal_code":93772},{"province":"Sulawesi Tenggara","city":"Bombana","district":"Poleang","urban":"Boeara","postal_code":93772},{"province":"Sulawesi Tenggara","city":"Bombana","district":"Poleang","urban":"Boepinang","postal_code":93772},{"province":"Sulawesi Tenggara","city":"Bombana","district":"Poleang Barat","urban":"Balasari","postal_code":93772},{"province":"Sulawesi Tenggara","city":"Bombana","district":"Poleang Barat","urban":"Baba Molingku","postal_code":93772}]