[{"province":"Sulawesi Tenggara","city":"Bombana","district":"Kabaena Tengah","urban":"Tangkeno","postal_code":93783},{"province":"Sulawesi Tenggara","city":"Bombana","district":"Kabaena Timur","urban":"Tapuhaka","postal_code":93783},{"province":"Sulawesi Tenggara","city":"Bombana","district":"Kabaena Tengah","urban":"Lengora Selatan","postal_code":93783},{"province":"Sulawesi Tenggara","city":"Bombana","district":"Kabaena Tengah","urban":"Lengora","postal_code":93783},{"province":"Sulawesi Tenggara","city":"Bombana","district":"Kabaena Tengah","urban":"Lengora Pantai","postal_code":93783},{"province":"Sulawesi Tenggara","city":"Bombana","district":"Kabaena Timur","urban":"Toli-Toli","postal_code":93783},{"province":"Sulawesi Tenggara","city":"Bombana","district":"Kabaena Timur","urban":"Lambale","postal_code":93783},{"province":"Sulawesi Tenggara","city":"Bombana","district":"Kabaena Timur","urban":"Wumbubura","postal_code":93783},{"province":"Sulawesi Tenggara","city":"Bombana","district":"Kabaena Tengah","urban":"Lamonggi","postal_code":93783},{"province":"Sulawesi Tenggara","city":"Bombana","district":"Kabaena Tengah","urban":"Ulungkura","postal_code":93783},{"province":"Sulawesi Tenggara","city":"Bombana","district":"Kabaena Tengah","urban":"Enano","postal_code":93783},{"province":"Sulawesi Tenggara","city":"Bombana","district":"Kabaena Timur","urban":"Dongkala","postal_code":93783},{"province":"Sulawesi Tenggara","city":"Bombana","district":"Kabaena Timur","urban":"Balo","postal_code":93783},{"province":"Sulawesi Tenggara","city":"Bombana","district":"Kabaena Timur","urban":"Bungi-bungi","postal_code":93783}]