[{"province":"Sulawesi Tenggara","city":"Bombana","district":"Kabaena Utara","urban":"Wumbulasa","postal_code":93781},{"province":"Sulawesi Tenggara","city":"Bombana","district":"Kabaena","urban":"Teomokole","postal_code":93781},{"province":"Sulawesi Tenggara","city":"Bombana","district":"Kabaena","urban":"Tirongkotua","postal_code":93781},{"province":"Sulawesi Tenggara","city":"Bombana","district":"Kabaena Utara","urban":"Tedubara","postal_code":93781},{"province":"Sulawesi Tenggara","city":"Bombana","district":"Kabaena Barat","urban":"Rahantari","postal_code":93781},{"province":"Sulawesi Tenggara","city":"Bombana","district":"Kabaena Barat","urban":"Sikeli","postal_code":93781},{"province":"Sulawesi Tenggara","city":"Bombana","district":"Kabaena Utara","urban":"Sangia Makmur","postal_code":93781},{"province":"Sulawesi Tenggara","city":"Bombana","district":"Kabaena","urban":"Rahadopi","postal_code":93781},{"province":"Sulawesi Tenggara","city":"Bombana","district":"Kabaena","urban":"Rahampuu","postal_code":93781},{"province":"Sulawesi Tenggara","city":"Bombana","district":"Kabaena Selatan","urban":"Puu Nunu","postal_code":93781},{"province":"Sulawesi Tenggara","city":"Bombana","district":"Kabaena Selatan","urban":"Pongkalaero","postal_code":93781},{"province":"Sulawesi Tenggara","city":"Bombana","district":"Kabaena Utara","urban":"Mapila","postal_code":93781},{"province":"Sulawesi Tenggara","city":"Bombana","district":"Kabaena Utara","urban":"Larolanu (Laromanu)","postal_code":93781},{"province":"Sulawesi Tenggara","city":"Bombana","district":"Kabaena Selatan","urban":"Langkema","postal_code":93781},{"province":"Sulawesi Tenggara","city":"Bombana","district":"Kabaena Utara","urban":"Eemokolo (Eeomokola)","postal_code":93781},{"province":"Sulawesi Tenggara","city":"Bombana","district":"Kabaena Selatan","urban":"Batuawu","postal_code":93781},{"province":"Sulawesi Tenggara","city":"Bombana","district":"Kabaena Barat","urban":"Baliara Kepulauan","postal_code":93781},{"province":"Sulawesi Tenggara","city":"Bombana","district":"Kabaena Barat","urban":"Baliara Selatan","postal_code":93781},{"province":"Sulawesi Tenggara","city":"Bombana","district":"Kabaena Barat","urban":"Baliara","postal_code":93781},{"province":"Sulawesi Tenggara","city":"Buton","district":"Talaga Raya (Telaga Raya)","urban":"Wulu (Wuluh)","postal_code":93781},{"province":"Sulawesi Tenggara","city":"Buton","district":"Talaga Raya (Telaga Raya)","urban":"Telaga/Talaga I","postal_code":93781},{"province":"Sulawesi Tenggara","city":"Buton","district":"Talaga Raya (Telaga Raya)","urban":"Telaga/Talaga II","postal_code":93781},{"province":"Sulawesi Tenggara","city":"Buton","district":"Talaga Raya (Telaga Raya)","urban":"Telaga/Talaga Besar","postal_code":93781},{"province":"Sulawesi Tenggara","city":"Buton","district":"Talaga Raya (Telaga Raya)","urban":"Pangilia","postal_code":93781},{"province":"Sulawesi Tenggara","city":"Buton","district":"Talaga Raya (Telaga Raya)","urban":"Liwu Lompona","postal_code":93781},{"province":"Sulawesi Tenggara","city":"Buton","district":"Talaga Raya (Telaga Raya)","urban":"Kokoe","postal_code":93781}]