[{"province":"Sulawesi Tenggara","city":"Wakatobi","district":"Tomia","urban":"Waitii Barat","postal_code":93793},{"province":"Sulawesi Tenggara","city":"Wakatobi","district":"Tomia Timur","urban":"Wawotimu","postal_code":93793},{"province":"Sulawesi Tenggara","city":"Wakatobi","district":"Tomia","urban":"Waha","postal_code":93793},{"province":"Sulawesi Tenggara","city":"Wakatobi","district":"Tomia","urban":"Waitii","postal_code":93793},{"province":"Sulawesi Tenggara","city":"Wakatobi","district":"Tomia Timur","urban":"Tongano Barat","postal_code":93793},{"province":"Sulawesi Tenggara","city":"Wakatobi","district":"Tomia Timur","urban":"Tongano Timur","postal_code":93793},{"province":"Sulawesi Tenggara","city":"Wakatobi","district":"Tomia","urban":"Teemoane","postal_code":93793},{"province":"Sulawesi Tenggara","city":"Wakatobi","district":"Tomia Timur","urban":"Timu","postal_code":93793},{"province":"Sulawesi Tenggara","city":"Wakatobi","district":"Tomia","urban":"Runduma","postal_code":93793},{"province":"Sulawesi Tenggara","city":"Wakatobi","district":"Tomia Timur","urban":"Rukuwa","postal_code":93793},{"province":"Sulawesi Tenggara","city":"Wakatobi","district":"Tomia","urban":"Patua Dua (II)","postal_code":93793},{"province":"Sulawesi Tenggara","city":"Wakatobi","district":"Tomia Timur","urban":"Patipelong","postal_code":93793},{"province":"Sulawesi Tenggara","city":"Wakatobi","district":"Tomia","urban":"Patua","postal_code":93793},{"province":"Sulawesi Tenggara","city":"Wakatobi","district":"Tomia Timur","urban":"Palahidu Barat","postal_code":93793},{"province":"Sulawesi Tenggara","city":"Wakatobi","district":"Tomia","urban":"Onemay","postal_code":93793},{"province":"Sulawesi Tenggara","city":"Wakatobi","district":"Tomia","urban":"Lamanggau","postal_code":93793},{"province":"Sulawesi Tenggara","city":"Wakatobi","district":"Tomia Timur","urban":"Kulati (Kulate)","postal_code":93793},{"province":"Sulawesi Tenggara","city":"Wakatobi","district":"Tomia","urban":"Kollo Soha","postal_code":93793},{"province":"Sulawesi Tenggara","city":"Wakatobi","district":"Tomia Timur","urban":"Dete","postal_code":93793},{"province":"Sulawesi Tenggara","city":"Wakatobi","district":"Tomia Timur","urban":"Kahiyanga (Kahianga)","postal_code":93793},{"province":"Sulawesi Tenggara","city":"Wakatobi","district":"Tomia Timur","urban":"Bahari","postal_code":93793}]