[{"province":"Sulawesi Tenggara","city":"Wakatobi","district":"Kaledupa","urban":"Waduri","postal_code":93792},{"province":"Sulawesi Tenggara","city":"Wakatobi","district":"Kaledupa Selatan","urban":"Tanomeha","postal_code":93792},{"province":"Sulawesi Tenggara","city":"Wakatobi","district":"Kaledupa Selatan","urban":"Tanjung","postal_code":93792},{"province":"Sulawesi Tenggara","city":"Wakatobi","district":"Kaledupa","urban":"Sombano","postal_code":93792},{"province":"Sulawesi Tenggara","city":"Wakatobi","district":"Kaledupa Selatan","urban":"Sandi","postal_code":93792},{"province":"Sulawesi Tenggara","city":"Wakatobi","district":"Kaledupa Selatan","urban":"Tampara","postal_code":93792},{"province":"Sulawesi Tenggara","city":"Wakatobi","district":"Kaledupa","urban":"Samabahari","postal_code":93792},{"province":"Sulawesi Tenggara","city":"Wakatobi","district":"Kaledupa Selatan","urban":"Peropa","postal_code":93792},{"province":"Sulawesi Tenggara","city":"Wakatobi","district":"Kaledupa","urban":"Ollo","postal_code":93792},{"province":"Sulawesi Tenggara","city":"Wakatobi","district":"Kaledupa","urban":"Ollo Selatan","postal_code":93792},{"province":"Sulawesi Tenggara","city":"Wakatobi","district":"Kaledupa Selatan","urban":"Pajam","postal_code":93792},{"province":"Sulawesi Tenggara","city":"Wakatobi","district":"Kaledupa","urban":"Mantigola (Mantingola)","postal_code":93792},{"province":"Sulawesi Tenggara","city":"Wakatobi","district":"Kaledupa Selatan","urban":"Lentea","postal_code":93792},{"province":"Sulawesi Tenggara","city":"Wakatobi","district":"Kaledupa","urban":"Laulua (Laolua)","postal_code":93792},{"province":"Sulawesi Tenggara","city":"Wakatobi","district":"Kaledupa","urban":"Lefuto (Lewuto)","postal_code":93792},{"province":"Sulawesi Tenggara","city":"Wakatobi","district":"Kaledupa","urban":"Lagiwae","postal_code":93792},{"province":"Sulawesi Tenggara","city":"Wakatobi","district":"Kaledupa Selatan","urban":"Langge","postal_code":93792},{"province":"Sulawesi Tenggara","city":"Wakatobi","district":"Kaledupa Selatan","urban":"Kasuwari (Kasuari/Kaswari)","postal_code":93792},{"province":"Sulawesi Tenggara","city":"Wakatobi","district":"Kaledupa","urban":"Horuo (Haruo)","postal_code":93792},{"province":"Sulawesi Tenggara","city":"Wakatobi","district":"Kaledupa","urban":"Kalimas","postal_code":93792},{"province":"Sulawesi Tenggara","city":"Wakatobi","district":"Kaledupa Selatan","urban":"Darawa","postal_code":93792},{"province":"Sulawesi Tenggara","city":"Wakatobi","district":"Kaledupa","urban":"Balasuna Selatan","postal_code":93792},{"province":"Sulawesi Tenggara","city":"Wakatobi","district":"Kaledupa","urban":"Buranga","postal_code":93792},{"province":"Sulawesi Tenggara","city":"Wakatobi","district":"Kaledupa","urban":"Ambeua Raya","postal_code":93792},{"province":"Sulawesi Tenggara","city":"Wakatobi","district":"Kaledupa","urban":"Balasuna","postal_code":93792},{"province":"Sulawesi Tenggara","city":"Wakatobi","district":"Kaledupa","urban":"Ambeua","postal_code":93792}]