[{"province":"Sulawesi Tenggara","city":"Wakatobi","district":"Togo Binongko","urban":"Waloindi","postal_code":93794},{"province":"Sulawesi Tenggara","city":"Wakatobi","district":"Togo Binongko","urban":"Togo Binongko","postal_code":93794},{"province":"Sulawesi Tenggara","city":"Wakatobi","district":"Binongko","urban":"Wali","postal_code":93794},{"province":"Sulawesi Tenggara","city":"Wakatobi","district":"Togo Binongko","urban":"Sowa","postal_code":93794},{"province":"Sulawesi Tenggara","city":"Wakatobi","district":"Binongko","urban":"Taipabu","postal_code":93794},{"province":"Sulawesi Tenggara","city":"Wakatobi","district":"Binongko","urban":"Rukuwa","postal_code":93794},{"province":"Sulawesi Tenggara","city":"Wakatobi","district":"Togo Binongko","urban":"Popalia","postal_code":93794},{"province":"Sulawesi Tenggara","city":"Wakatobi","district":"Binongko","urban":"Palahidu","postal_code":93794},{"province":"Sulawesi Tenggara","city":"Wakatobi","district":"Binongko","urban":"Palahidu Barat","postal_code":93794},{"province":"Sulawesi Tenggara","city":"Wakatobi","district":"Binongko","urban":"Makoro","postal_code":93794},{"province":"Sulawesi Tenggara","city":"Wakatobi","district":"Togo Binongko","urban":"Oihu","postal_code":93794},{"province":"Sulawesi Tenggara","city":"Wakatobi","district":"Binongko","urban":"Jaya Makmur","postal_code":93794},{"province":"Sulawesi Tenggara","city":"Wakatobi","district":"Binongko","urban":"Kampo-Kampo (Kompo-Kompo)","postal_code":93794},{"province":"Sulawesi Tenggara","city":"Wakatobi","district":"Binongko","urban":"Lagongga (Longongga)","postal_code":93794},{"province":"Sulawesi Tenggara","city":"Wakatobi","district":"Togo Binongko","urban":"Haka","postal_code":93794}]