[{"province":"Sulawesi Tenggara","city":"Konawe Selatan","district":"Andoolo","urban":"Watu Mokala","postal_code":93819},{"province":"Sulawesi Tenggara","city":"Konawe Selatan","district":"Andoolo","urban":"Wunduwatu","postal_code":93819},{"province":"Sulawesi Tenggara","city":"Konawe Selatan","district":"Andoolo","urban":"Punggapu","postal_code":93819},{"province":"Sulawesi Tenggara","city":"Konawe Selatan","district":"Andoolo","urban":"Puundoho","postal_code":93819},{"province":"Sulawesi Tenggara","city":"Konawe Selatan","district":"Buke","urban":"Raha Menda Jaya","postal_code":93819},{"province":"Sulawesi Tenggara","city":"Konawe Selatan","district":"Andoolo","urban":"Mataiwoi","postal_code":93819},{"province":"Sulawesi Tenggara","city":"Konawe Selatan","district":"Andoolo","urban":"Lalobao","postal_code":93819},{"province":"Sulawesi Tenggara","city":"Konawe Selatan","district":"Andoolo","urban":"Bima Maroa","postal_code":93819},{"province":"Sulawesi Tenggara","city":"Konawe Selatan","district":"Andoolo","urban":"Bumi Raya","postal_code":93819},{"province":"Sulawesi Tenggara","city":"Konawe Selatan","district":"Andoolo","urban":"Bekenggasu Indah","postal_code":93819},{"province":"Sulawesi Tenggara","city":"Konawe Selatan","district":"Andoolo","urban":"Ataku","postal_code":93819},{"province":"Sulawesi Tenggara","city":"Konawe Selatan","district":"Buke","urban":"Asembu Mulya","postal_code":93819},{"province":"Sulawesi Tenggara","city":"Konawe Selatan","district":"Andoolo","urban":"Adayu Indah","postal_code":93819},{"province":"Sulawesi Tenggara","city":"Konawe Selatan","district":"Buke","urban":"Anggokoti","postal_code":93819}]