[{"province":"Sulawesi Tenggara","city":"Konawe Selatan","district":"Konda","urban":"Wonua","postal_code":93874},{"province":"Sulawesi Tenggara","city":"Konawe Selatan","district":"Konda","urban":"Tanea","postal_code":93874},{"province":"Sulawesi Tenggara","city":"Konawe Selatan","district":"Wolasi","urban":"Ranowila","postal_code":93874},{"province":"Sulawesi Tenggara","city":"Konawe Selatan","district":"Wolasi","urban":"Wolasi","postal_code":93874},{"province":"Sulawesi Tenggara","city":"Konawe Selatan","district":"Konda","urban":"Puosu Jaya","postal_code":93874},{"province":"Sulawesi Tenggara","city":"Konawe Selatan","district":"Konda","urban":"Ranowila","postal_code":93874},{"province":"Sulawesi Tenggara","city":"Konawe Selatan","district":"Konda","urban":"Morome (Morame)","postal_code":93874},{"province":"Sulawesi Tenggara","city":"Konawe Selatan","district":"Konda","urban":"Pambulaa Jaya","postal_code":93874},{"province":"Sulawesi Tenggara","city":"Konawe Selatan","district":"Wolasi","urban":"Leleka","postal_code":93874},{"province":"Sulawesi Tenggara","city":"Konawe Selatan","district":"Wolasi","urban":"Matawolasi","postal_code":93874},{"province":"Sulawesi Tenggara","city":"Konawe Selatan","district":"Konda","urban":"Masagena","postal_code":93874},{"province":"Sulawesi Tenggara","city":"Konawe Selatan","district":"Konda","urban":"Lebo Jaya","postal_code":93874},{"province":"Sulawesi Tenggara","city":"Konawe Selatan","district":"Konda","urban":"Lamomea","postal_code":93874},{"province":"Sulawesi Tenggara","city":"Konawe Selatan","district":"Konda","urban":"Lawoila","postal_code":93874},{"province":"Sulawesi Tenggara","city":"Konawe Selatan","district":"Konda","urban":"Konda","postal_code":93874},{"province":"Sulawesi Tenggara","city":"Konawe Selatan","district":"Konda","urban":"Lalowiu","postal_code":93874},{"province":"Sulawesi Tenggara","city":"Konawe Selatan","district":"Konda","urban":"Lambusa","postal_code":93874},{"province":"Sulawesi Tenggara","city":"Konawe Selatan","district":"Konda","urban":"Cialam Jaya","postal_code":93874},{"province":"Sulawesi Tenggara","city":"Konawe Selatan","district":"Wolasi","urban":"Aunupe","postal_code":93874},{"province":"Sulawesi Tenggara","city":"Konawe Selatan","district":"Wolasi","urban":"Amoito Jaya","postal_code":93874},{"province":"Sulawesi Tenggara","city":"Konawe Selatan","district":"Konda","urban":"Aonupe","postal_code":93874},{"province":"Sulawesi Tenggara","city":"Konawe Selatan","district":"Wolasi","urban":"Aoma","postal_code":93874},{"province":"Sulawesi Tenggara","city":"Konawe Selatan","district":"Konda","urban":"Amohalo","postal_code":93874},{"province":"Sulawesi Tenggara","city":"Konawe Selatan","district":"Konda","urban":"Alebo","postal_code":93874},{"province":"Sulawesi Tenggara","city":"Konawe Selatan","district":"Konda","urban":"Ambololi","postal_code":93874}]