[{"province":"Sulawesi Tenggara","city":"Konawe Selatan","district":"Mowila","urban":"Wuura","postal_code":93873},{"province":"Sulawesi Tenggara","city":"Konawe Selatan","district":"Landono","urban":"Wonua Sangia","postal_code":93873},{"province":"Sulawesi Tenggara","city":"Konawe Selatan","district":"Landono","urban":"Wonukao","postal_code":93873},{"province":"Sulawesi Tenggara","city":"Konawe Selatan","district":"Mowila","urban":"Wonua Sari","postal_code":93873},{"province":"Sulawesi Tenggara","city":"Konawe Selatan","district":"Landono","urban":"Wawobende","postal_code":93873},{"province":"Sulawesi Tenggara","city":"Konawe Selatan","district":"Mowila","urban":"Wonua Monapa","postal_code":93873},{"province":"Sulawesi Tenggara","city":"Konawe Selatan","district":"Landono","urban":"Watu-Watu","postal_code":93873},{"province":"Sulawesi Tenggara","city":"Konawe Selatan","district":"Mowila","urban":"Wanua Kongga","postal_code":93873},{"province":"Sulawesi Tenggara","city":"Konawe Selatan","district":"Landono","urban":"Ulusabulakoa","postal_code":93873},{"province":"Sulawesi Tenggara","city":"Konawe Selatan","district":"Landono","urban":"Tridana Mulia","postal_code":93873},{"province":"Sulawesi Tenggara","city":"Konawe Selatan","district":"Mowila","urban":"Tetesingi","postal_code":93873},{"province":"Sulawesi Tenggara","city":"Konawe Selatan","district":"Mowila","urban":"Toluwonua","postal_code":93873},{"province":"Sulawesi Tenggara","city":"Konawe Selatan","district":"Landono","urban":"Talumbinga","postal_code":93873},{"province":"Sulawesi Tenggara","city":"Konawe Selatan","district":"Landono","urban":"Tetenggabo","postal_code":93873},{"province":"Sulawesi Tenggara","city":"Konawe Selatan","district":"Mowila","urban":"Rano Mbayasa","postal_code":93873},{"province":"Sulawesi Tenggara","city":"Konawe Selatan","district":"Landono","urban":"Sabulakoa","postal_code":93873},{"province":"Sulawesi Tenggara","city":"Konawe Selatan","district":"Mowila","urban":"Rakawuta","postal_code":93873},{"province":"Sulawesi Tenggara","city":"Konawe Selatan","district":"Mowila","urban":"Rano Aopa","postal_code":93873},{"province":"Sulawesi Tenggara","city":"Konawe Selatan","district":"Mowila","urban":"Punggulahi","postal_code":93873},{"province":"Sulawesi Tenggara","city":"Konawe Selatan","district":"Mowila","urban":"Puwehuko","postal_code":93873},{"province":"Sulawesi Tenggara","city":"Konawe Selatan","district":"Mowila","urban":"Pudahoa (Pudohoa)","postal_code":93873},{"province":"Sulawesi Tenggara","city":"Konawe Selatan","district":"Mowila","urban":"Mulya Sari (Muliasari)","postal_code":93873},{"province":"Sulawesi Tenggara","city":"Konawe Selatan","district":"Mowila","urban":"Monapa","postal_code":93873},{"province":"Sulawesi Tenggara","city":"Konawe Selatan","district":"Landono","urban":"Morini Mulya","postal_code":93873},{"province":"Sulawesi Tenggara","city":"Konawe Selatan","district":"Mowila","urban":"Mowila","postal_code":93873},{"province":"Sulawesi Tenggara","city":"Konawe Selatan","district":"Mowila","urban":"Mataiwoi","postal_code":93873},{"province":"Sulawesi Tenggara","city":"Konawe Selatan","district":"Landono","urban":"Matabenua / Watawunua","postal_code":93873},{"province":"Sulawesi Tenggara","city":"Konawe Selatan","district":"Landono","urban":"Landono","postal_code":93873},{"province":"Sulawesi Tenggara","city":"Konawe Selatan","district":"Landono","urban":"Landono Dua","postal_code":93873},{"province":"Sulawesi Tenggara","city":"Konawe Selatan","district":"Mowila","urban":"Lamelori (Lamolori)","postal_code":93873},{"province":"Sulawesi Tenggara","city":"Konawe Selatan","district":"Mowila","urban":"Lamebara (Lamibara)","postal_code":93873},{"province":"Sulawesi Tenggara","city":"Konawe Selatan","district":"Mowila","urban":"Lalosingi","postal_code":93873},{"province":"Sulawesi Tenggara","city":"Konawe Selatan","district":"Landono","urban":"Lakomea","postal_code":93873},{"province":"Sulawesi Tenggara","city":"Konawe Selatan","district":"Landono","urban":"Lalonggapu","postal_code":93873},{"province":"Sulawesi Tenggara","city":"Konawe Selatan","district":"Landono","urban":"Koronua","postal_code":93873},{"province":"Sulawesi Tenggara","city":"Konawe Selatan","district":"Mowila","urban":"Kondoano","postal_code":93873},{"province":"Sulawesi Tenggara","city":"Konawe Selatan","district":"Landono","urban":"Asaria","postal_code":93873},{"province":"Sulawesi Tenggara","city":"Konawe Selatan","district":"Landono","urban":"Endanga","postal_code":93873},{"province":"Sulawesi Tenggara","city":"Konawe Selatan","district":"Landono","urban":"Amotowo","postal_code":93873},{"province":"Sulawesi Tenggara","city":"Konawe Selatan","district":"Landono","urban":"Arongo","postal_code":93873},{"province":"Sulawesi Tenggara","city":"Konawe Selatan","district":"Landono","urban":"Abenggi","postal_code":93873}]