[{"province":"Sulawesi Tenggara","city":"Konawe Selatan","district":"Benua","urban":"Tetehaka","postal_code":93875},{"province":"Sulawesi Tenggara","city":"Konawe Selatan","district":"Benua","urban":"Uelawa","postal_code":93875},{"province":"Sulawesi Tenggara","city":"Konawe Selatan","district":"Angata","urban":"Unggulino","postal_code":93875},{"province":"Sulawesi Tenggara","city":"Konawe Selatan","district":"Angata","urban":"Teteasa","postal_code":93875},{"province":"Sulawesi Tenggara","city":"Konawe Selatan","district":"Basala","urban":"Teporombua","postal_code":93875},{"province":"Sulawesi Tenggara","city":"Konawe Selatan","district":"Angata","urban":"Simbangu","postal_code":93875},{"province":"Sulawesi Tenggara","city":"Konawe Selatan","district":"Basala","urban":"Tambekuku (Tombekuku)","postal_code":93875},{"province":"Sulawesi Tenggara","city":"Konawe Selatan","district":"Angata","urban":"Sandarsi Jaya","postal_code":93875},{"province":"Sulawesi Tenggara","city":"Konawe Selatan","district":"Angata","urban":"Sandey","postal_code":93875},{"province":"Sulawesi Tenggara","city":"Konawe Selatan","district":"Benua","urban":"Puuwehuko","postal_code":93875},{"province":"Sulawesi Tenggara","city":"Konawe Selatan","district":"Angata","urban":"Puusanggula","postal_code":93875},{"province":"Sulawesi Tenggara","city":"Konawe Selatan","district":"Angata","urban":"Puungoni","postal_code":93875},{"province":"Sulawesi Tenggara","city":"Konawe Selatan","district":"Angata","urban":"Puuroe","postal_code":93875},{"province":"Sulawesi Tenggara","city":"Konawe Selatan","district":"Angata","urban":"Puulipu","postal_code":93875},{"province":"Sulawesi Tenggara","city":"Konawe Selatan","district":"Benua","urban":"Puosu (Puuosu)","postal_code":93875},{"province":"Sulawesi Tenggara","city":"Konawe Selatan","district":"Benua","urban":"Puunggawu Kawu (Punggawukawu)","postal_code":93875},{"province":"Sulawesi Tenggara","city":"Konawe Selatan","district":"Angata","urban":"Puao","postal_code":93875},{"province":"Sulawesi Tenggara","city":"Konawe Selatan","district":"Angata","urban":"Pudambu","postal_code":93875},{"province":"Sulawesi Tenggara","city":"Konawe Selatan","district":"Basala","urban":"Polo-Pololi","postal_code":93875},{"province":"Sulawesi Tenggara","city":"Konawe Selatan","district":"Angata","urban":"Pewutaa","postal_code":93875},{"province":"Sulawesi Tenggara","city":"Konawe Selatan","district":"Angata","urban":"Motaha","postal_code":93875},{"province":"Sulawesi Tenggara","city":"Konawe Selatan","district":"Benua","urban":"Palawewu (Palowewu)","postal_code":93875},{"province":"Sulawesi Tenggara","city":"Konawe Selatan","district":"Angata","urban":"Mokalelelo","postal_code":93875},{"province":"Sulawesi Tenggara","city":"Konawe Selatan","district":"Angata","urban":"Mokoau","postal_code":93875},{"province":"Sulawesi Tenggara","city":"Konawe Selatan","district":"Basala","urban":"Lipu Masagena","postal_code":93875},{"province":"Sulawesi Tenggara","city":"Konawe Selatan","district":"Angata","urban":"Matabondu","postal_code":93875},{"province":"Sulawesi Tenggara","city":"Konawe Selatan","district":"Angata","urban":"Mataiwoi","postal_code":93875},{"province":"Sulawesi Tenggara","city":"Konawe Selatan","district":"Angata","urban":"Langgea Indah","postal_code":93875},{"province":"Sulawesi Tenggara","city":"Konawe Selatan","district":"Basala","urban":"Lere","postal_code":93875},{"province":"Sulawesi Tenggara","city":"Konawe Selatan","district":"Angata","urban":"Lamoeri","postal_code":93875},{"province":"Sulawesi Tenggara","city":"Konawe Selatan","district":"Angata","urban":"Lamooso","postal_code":93875},{"province":"Sulawesi Tenggara","city":"Konawe Selatan","district":"Angata","urban":"Landabaro","postal_code":93875},{"province":"Sulawesi Tenggara","city":"Konawe Selatan","district":"Angata","urban":"Lamoen","postal_code":93875},{"province":"Sulawesi Tenggara","city":"Konawe Selatan","district":"Basala","urban":"Lambandia","postal_code":93875},{"province":"Sulawesi Tenggara","city":"Konawe Selatan","district":"Benua","urban":"Kosambi","postal_code":93875},{"province":"Sulawesi Tenggara","city":"Konawe Selatan","district":"Benua","urban":"Lamara","postal_code":93875},{"province":"Sulawesi Tenggara","city":"Konawe Selatan","district":"Angata","urban":"Kasebo","postal_code":93875},{"province":"Sulawesi Tenggara","city":"Konawe Selatan","district":"Basala","urban":"Iwoi Mendoro","postal_code":93875},{"province":"Sulawesi Tenggara","city":"Konawe Selatan","district":"Benua","urban":"Horodopi","postal_code":93875},{"province":"Sulawesi Tenggara","city":"Konawe Selatan","district":"Angata","urban":"Boloso","postal_code":93875},{"province":"Sulawesi Tenggara","city":"Konawe Selatan","district":"Basala","urban":"Epeesi","postal_code":93875},{"province":"Sulawesi Tenggara","city":"Konawe Selatan","district":"Benua","urban":"Benua Utama","postal_code":93875},{"province":"Sulawesi Tenggara","city":"Konawe Selatan","district":"Basala","urban":"Basala","postal_code":93875},{"province":"Sulawesi Tenggara","city":"Konawe Selatan","district":"Benua","urban":"Benua","postal_code":93875},{"province":"Sulawesi Tenggara","city":"Konawe Selatan","district":"Benua","urban":"Awalo","postal_code":93875},{"province":"Sulawesi Tenggara","city":"Konawe Selatan","district":"Angata","urban":"Aopa","postal_code":93875},{"province":"Sulawesi Tenggara","city":"Konawe Selatan","district":"Angata","urban":"Angata","postal_code":93875}]