[{"province":"Sulawesi Tenggara","city":"Konawe Selatan","district":"Lainea","urban":"Watumeeto","postal_code":93881},{"province":"Sulawesi Tenggara","city":"Konawe Selatan","district":"Laeya","urban":"Wonua Kongga","postal_code":93881},{"province":"Sulawesi Tenggara","city":"Konawe Selatan","district":"Laeya","urban":"Punggaluku","postal_code":93881},{"province":"Sulawesi Tenggara","city":"Konawe Selatan","district":"Laeya","urban":"Rambu-Rambu","postal_code":93881},{"province":"Sulawesi Tenggara","city":"Konawe Selatan","district":"Laeya","urban":"Torobulu","postal_code":93881},{"province":"Sulawesi Tenggara","city":"Konawe Selatan","district":"Lainea","urban":"Pangan Jaya","postal_code":93881},{"province":"Sulawesi Tenggara","city":"Konawe Selatan","district":"Lainea","urban":"Polewali","postal_code":93881},{"province":"Sulawesi Tenggara","city":"Konawe Selatan","district":"Lainea","urban":"Pamandati","postal_code":93881},{"province":"Sulawesi Tenggara","city":"Konawe Selatan","district":"Laeya","urban":"Ombu-Ombu Jaya","postal_code":93881},{"province":"Sulawesi Tenggara","city":"Konawe Selatan","district":"Lainea","urban":"Molinese","postal_code":93881},{"province":"Sulawesi Tenggara","city":"Konawe Selatan","district":"Lainea","urban":"Matabubu Jaya","postal_code":93881},{"province":"Sulawesi Tenggara","city":"Konawe Selatan","district":"Laeya","urban":"Lambakara","postal_code":93881},{"province":"Sulawesi Tenggara","city":"Konawe Selatan","district":"Laeya","urban":"Lamong Jaya","postal_code":93881},{"province":"Sulawesi Tenggara","city":"Konawe Selatan","district":"Laeya","urban":"Lerepako","postal_code":93881},{"province":"Sulawesi Tenggara","city":"Konawe Selatan","district":"Lainea","urban":"Lainea","postal_code":93881},{"province":"Sulawesi Tenggara","city":"Konawe Selatan","district":"Lainea","urban":"Lalonggombu","postal_code":93881},{"province":"Sulawesi Tenggara","city":"Konawe Selatan","district":"Laeya","urban":"Laeya","postal_code":93881},{"province":"Sulawesi Tenggara","city":"Konawe Selatan","district":"Lainea","urban":"Kalo-kalo","postal_code":93881},{"province":"Sulawesi Tenggara","city":"Konawe Selatan","district":"Laeya","urban":"Labokeo","postal_code":93881},{"province":"Sulawesi Tenggara","city":"Konawe Selatan","district":"Lainea","urban":"Bangun Jaya","postal_code":93881},{"province":"Sulawesi Tenggara","city":"Konawe Selatan","district":"Lainea","urban":"Kaindi","postal_code":93881},{"province":"Sulawesi Tenggara","city":"Konawe Selatan","district":"Laeya","urban":"Baito","postal_code":93881},{"province":"Sulawesi Tenggara","city":"Konawe Selatan","district":"Lainea","urban":"Aoreo","postal_code":93881},{"province":"Sulawesi Tenggara","city":"Konawe Selatan","district":"Laeya","urban":"Ambesea","postal_code":93881},{"province":"Sulawesi Tenggara","city":"Konawe Selatan","district":"Laeya","urban":"Anduna","postal_code":93881},{"province":"Sulawesi Tenggara","city":"Konawe Selatan","district":"Laeya","urban":"Anggoroboti","postal_code":93881},{"province":"Sulawesi Tenggara","city":"Konawe Selatan","district":"Laeya","urban":"Ambalodangge","postal_code":93881},{"province":"Sulawesi Tenggara","city":"Konawe Selatan","district":"Laeya","urban":"Ambakumina (Ambukumina)","postal_code":93881},{"province":"Sulawesi Tenggara","city":"Konawe Selatan","district":"Laeya","urban":"Aepodu","postal_code":93881}]