[{"province":"Sulawesi Tenggara","city":"Konawe Selatan","district":"Baito","urban":"Wonua/Wanua Raya","postal_code":93883},{"province":"Sulawesi Tenggara","city":"Konawe Selatan","district":"Palangga","urban":"Wawouru","postal_code":93883},{"province":"Sulawesi Tenggara","city":"Konawe Selatan","district":"Palangga","urban":"Waworaha","postal_code":93883},{"province":"Sulawesi Tenggara","city":"Konawe Selatan","district":"Palangga","urban":"Wawonggura","postal_code":93883},{"province":"Sulawesi Tenggara","city":"Konawe Selatan","district":"Palangga Selatan","urban":"Wawo Wonua","postal_code":93883},{"province":"Sulawesi Tenggara","city":"Konawe Selatan","district":"Palangga","urban":"Watumerembe","postal_code":93883},{"province":"Sulawesi Tenggara","city":"Konawe Selatan","district":"Palangga Selatan","urban":"Watarapa (Waturapa)","postal_code":93883},{"province":"Sulawesi Tenggara","city":"Konawe Selatan","district":"Palangga Selatan","urban":"Watumbohoti","postal_code":93883},{"province":"Sulawesi Tenggara","city":"Konawe Selatan","district":"Palangga","urban":"Watudemba","postal_code":93883},{"province":"Sulawesi Tenggara","city":"Konawe Selatan","district":"Palangga Selatan","urban":"Ululakara","postal_code":93883},{"province":"Sulawesi Tenggara","city":"Konawe Selatan","district":"Baito","urban":"Tolihe","postal_code":93883},{"province":"Sulawesi Tenggara","city":"Konawe Selatan","district":"Palangga","urban":"Sangi-Sangi","postal_code":93883},{"province":"Sulawesi Tenggara","city":"Konawe Selatan","district":"Baito","urban":"Sambahule","postal_code":93883},{"province":"Sulawesi Tenggara","city":"Konawe Selatan","district":"Palangga Selatan","urban":"Parasi","postal_code":93883},{"province":"Sulawesi Tenggara","city":"Konawe Selatan","district":"Palangga","urban":"Onembute","postal_code":93883},{"province":"Sulawesi Tenggara","city":"Konawe Selatan","district":"Palangga","urban":"Palangga","postal_code":93883},{"province":"Sulawesi Tenggara","city":"Konawe Selatan","district":"Palangga Selatan","urban":"Mondoe","postal_code":93883},{"province":"Sulawesi Tenggara","city":"Konawe Selatan","district":"Palangga","urban":"Mekar Sari","postal_code":93883},{"province":"Sulawesi Tenggara","city":"Konawe Selatan","district":"Baito","urban":"Mekar Jaya","postal_code":93883},{"province":"Sulawesi Tenggara","city":"Konawe Selatan","district":"Palangga Selatan","urban":"Lalowua","postal_code":93883},{"province":"Sulawesi Tenggara","city":"Konawe Selatan","district":"Baito","urban":"Matabubu","postal_code":93883},{"province":"Sulawesi Tenggara","city":"Konawe Selatan","district":"Palangga Selatan","urban":"Lakara","postal_code":93883},{"province":"Sulawesi Tenggara","city":"Konawe Selatan","district":"Palangga","urban":"Kiaea","postal_code":93883},{"province":"Sulawesi Tenggara","city":"Konawe Selatan","district":"Palangga Selatan","urban":"Koeono","postal_code":93883},{"province":"Sulawesi Tenggara","city":"Konawe Selatan","district":"Palangga","urban":"Eewa","postal_code":93883},{"province":"Sulawesi Tenggara","city":"Konawe Selatan","district":"Palangga","urban":"Kapu Jaya","postal_code":93883},{"province":"Sulawesi Tenggara","city":"Konawe Selatan","district":"Palangga","urban":"Aosole","postal_code":93883},{"province":"Sulawesi Tenggara","city":"Konawe Selatan","district":"Baito","urban":"Baito","postal_code":93883},{"province":"Sulawesi Tenggara","city":"Konawe Selatan","district":"Palangga","urban":"Anggondara","postal_code":93883},{"province":"Sulawesi Tenggara","city":"Konawe Selatan","district":"Baito","urban":"Amosara (Amasara)","postal_code":93883},{"province":"Sulawesi Tenggara","city":"Konawe Selatan","district":"Palangga Selatan","urban":"Amondo (Amonda)","postal_code":93883},{"province":"Sulawesi Tenggara","city":"Konawe Selatan","district":"Palangga","urban":"Ahuangguluri","postal_code":93883},{"province":"Sulawesi Tenggara","city":"Konawe Selatan","district":"Palangga","urban":"Alakaya","postal_code":93883},{"province":"Sulawesi Tenggara","city":"Konawe Selatan","district":"Baito","urban":"Ahuangguluri","postal_code":93883}]