[{"province":"Sulawesi Tenggara","city":"Konawe Selatan","district":"Moramo","urban":"Wonua Jaya","postal_code":93891},{"province":"Sulawesi Tenggara","city":"Konawe Selatan","district":"Moramo Utara","urban":"Wawatu","postal_code":93891},{"province":"Sulawesi Tenggara","city":"Konawe Selatan","district":"Moramo","urban":"Wawondengi","postal_code":93891},{"province":"Sulawesi Tenggara","city":"Konawe Selatan","district":"Moramo","urban":"Wawosunggu","postal_code":93891},{"province":"Sulawesi Tenggara","city":"Konawe Selatan","district":"Moramo","urban":"Ulusena","postal_code":93891},{"province":"Sulawesi Tenggara","city":"Konawe Selatan","district":"Moramo","urban":"Watu Porambaa","postal_code":93891},{"province":"Sulawesi Tenggara","city":"Konawe Selatan","district":"Moramo Utara","urban":"Tanjung Tiram","postal_code":93891},{"province":"Sulawesi Tenggara","city":"Konawe Selatan","district":"Moramo","urban":"Tambosupa","postal_code":93891},{"province":"Sulawesi Tenggara","city":"Konawe Selatan","district":"Moramo","urban":"Selabangga","postal_code":93891},{"province":"Sulawesi Tenggara","city":"Konawe Selatan","district":"Moramo","urban":"Sumber Sari","postal_code":93891},{"province":"Sulawesi Tenggara","city":"Konawe Selatan","district":"Moramo","urban":"Ranooha Raya","postal_code":93891},{"province":"Sulawesi Tenggara","city":"Konawe Selatan","district":"Moramo Utara","urban":"Sanggula","postal_code":93891},{"province":"Sulawesi Tenggara","city":"Konawe Selatan","district":"Moramo","urban":"Pudaria Jaya","postal_code":93891},{"province":"Sulawesi Tenggara","city":"Konawe Selatan","district":"Moramo Utara","urban":"Puasana","postal_code":93891},{"province":"Sulawesi Tenggara","city":"Konawe Selatan","district":"Moramo","urban":"Moramo","postal_code":93891},{"province":"Sulawesi Tenggara","city":"Konawe Selatan","district":"Moramo","urban":"Penambea Barata","postal_code":93891},{"province":"Sulawesi Tenggara","city":"Konawe Selatan","district":"Moramo Utara","urban":"Mekar Jaya","postal_code":93891},{"province":"Sulawesi Tenggara","city":"Konawe Selatan","district":"Moramo Utara","urban":"Mata Lamokula","postal_code":93891},{"province":"Sulawesi Tenggara","city":"Konawe Selatan","district":"Moramo Utara","urban":"Mata Watu-Watu","postal_code":93891},{"province":"Sulawesi Tenggara","city":"Konawe Selatan","district":"Moramo","urban":"Lapuko","postal_code":93891},{"province":"Sulawesi Tenggara","city":"Konawe Selatan","district":"Moramo Utara","urban":"Lombueya (Lombuea)","postal_code":93891},{"province":"Sulawesi Tenggara","city":"Konawe Selatan","district":"Moramo","urban":"Marga Cinta","postal_code":93891},{"province":"Sulawesi Tenggara","city":"Konawe Selatan","district":"Moramo","urban":"Landipo","postal_code":93891},{"province":"Sulawesi Tenggara","city":"Konawe Selatan","district":"Moramo Utara","urban":"Lamokula","postal_code":93891},{"province":"Sulawesi Tenggara","city":"Konawe Selatan","district":"Moramo","urban":"Lamboo","postal_code":93891},{"province":"Sulawesi Tenggara","city":"Konawe Selatan","district":"Moramo Utara","urban":"Lalowaru","postal_code":93891},{"province":"Sulawesi Tenggara","city":"Konawe Selatan","district":"Moramo","urban":"Bisikori","postal_code":93891},{"province":"Sulawesi Tenggara","city":"Konawe Selatan","district":"Moramo","urban":"Lakomea","postal_code":93891},{"province":"Sulawesi Tenggara","city":"Konawe Selatan","district":"Moramo","urban":"Amohola","postal_code":93891},{"province":"Sulawesi Tenggara","city":"Konawe Selatan","district":"Moramo","urban":"Bakutaru","postal_code":93891}]