[{"province":"Sulawesi Tenggara","city":"Kolaka Utara","district":"Katoi","urban":"Ujung Tobaku (Tobako)","postal_code":93916},{"province":"Sulawesi Tenggara","city":"Kolaka Utara","district":"Lasusua","urban":"Watuliu (Watuliwu)","postal_code":93916},{"province":"Sulawesi Tenggara","city":"Kolaka Utara","district":"Lasusua","urban":"Tojabi","postal_code":93916},{"province":"Sulawesi Tenggara","city":"Kolaka Utara","district":"Lasusua","urban":"Totallang","postal_code":93916},{"province":"Sulawesi Tenggara","city":"Kolaka Utara","district":"Lasusua","urban":"Sulaho","postal_code":93916},{"province":"Sulawesi Tenggara","city":"Kolaka Utara","district":"Lasusua","urban":"Pucak Monapa","postal_code":93916},{"province":"Sulawesi Tenggara","city":"Kolaka Utara","district":"Lasusua","urban":"Rante Limbung","postal_code":93916},{"province":"Sulawesi Tenggara","city":"Kolaka Utara","district":"Lasusua","urban":"Patowonua","postal_code":93916},{"province":"Sulawesi Tenggara","city":"Kolaka Utara","district":"Lasusua","urban":"Pitulua Dua (II)","postal_code":93916},{"province":"Sulawesi Tenggara","city":"Kolaka Utara","district":"Katoi","urban":"Lanipa-Nipa","postal_code":93916},{"province":"Sulawesi Tenggara","city":"Kolaka Utara","district":"Katoi","urban":"Lambuno","postal_code":93916},{"province":"Sulawesi Tenggara","city":"Kolaka Utara","district":"Lasusua","urban":"Batu Ganda Permai","postal_code":93916},{"province":"Sulawesi Tenggara","city":"Kolaka Utara","district":"Lasusua","urban":"Babussalam","postal_code":93916}]