[{"province":"Sulawesi Tenggara","city":"Kolaka Utara","district":"Lasusua","urban":"Pitulua","postal_code":93915},{"province":"Sulawesi Tenggara","city":"Kolaka","district":"Samaturu","urban":"Wowa Tamboli","postal_code":93915},{"province":"Sulawesi Tenggara","city":"Kolaka","district":"Samaturu","urban":"Tosiba","postal_code":93915},{"province":"Sulawesi Tenggara","city":"Kolaka","district":"Samaturu","urban":"Ulu Konaweha","postal_code":93915},{"province":"Sulawesi Tenggara","city":"Kolaka","district":"Samaturu","urban":"Tamboli","postal_code":93915},{"province":"Sulawesi Tenggara","city":"Kolaka","district":"Samaturu","urban":"Tonganapo","postal_code":93915},{"province":"Sulawesi Tenggara","city":"Kolaka","district":"Samaturu","urban":"Puu Tamboli","postal_code":93915},{"province":"Sulawesi Tenggara","city":"Kolaka","district":"Samaturu","urban":"Sani Sani","postal_code":93915},{"province":"Sulawesi Tenggara","city":"Kolaka","district":"Samaturu","urban":"Lawulo","postal_code":93915},{"province":"Sulawesi Tenggara","city":"Kolaka","district":"Samaturu","urban":"Malaha","postal_code":93915},{"province":"Sulawesi Tenggara","city":"Kolaka","district":"Samaturu","urban":"Lambolemo","postal_code":93915},{"province":"Sulawesi Tenggara","city":"Kolaka","district":"Samaturu","urban":"Latuo","postal_code":93915},{"province":"Sulawesi Tenggara","city":"Kolaka","district":"Samaturu","urban":"Kaloloa","postal_code":93915},{"province":"Sulawesi Tenggara","city":"Kolaka","district":"Samaturu","urban":"Konaweha","postal_code":93915},{"province":"Sulawesi Tenggara","city":"Kolaka","district":"Samaturu","urban":"Amomutu","postal_code":93915},{"province":"Sulawesi Tenggara","city":"Kolaka","district":"Samaturu","urban":"Awa","postal_code":93915}]