[{"province":"Sulawesi Tenggara","city":"Kolaka Utara","district":"Tiwu","urban":"Tanggeau","postal_code":93957},{"province":"Sulawesi Tenggara","city":"Kolaka Utara","district":"Tiwu","urban":"Tiwu","postal_code":93957},{"province":"Sulawesi Tenggara","city":"Kolaka Utara","district":"Tiwu","urban":"Watumea","postal_code":93957},{"province":"Sulawesi Tenggara","city":"Kolaka Utara","district":"Tiwu","urban":"Tahibua","postal_code":93957},{"province":"Sulawesi Tenggara","city":"Kolaka Utara","district":"Kodeoha","urban":"Meeto","postal_code":93957},{"province":"Sulawesi Tenggara","city":"Kolaka Utara","district":"Kodeoha","urban":"Sawanggaoha","postal_code":93957},{"province":"Sulawesi Tenggara","city":"Kolaka Utara","district":"Tiwu","urban":"Mattiro Bulu","postal_code":93957},{"province":"Sulawesi Tenggara","city":"Kolaka Utara","district":"Kodeoha","urban":"Mala-Mala","postal_code":93957},{"province":"Sulawesi Tenggara","city":"Kolaka Utara","district":"Tiwu","urban":"Lapolu","postal_code":93957},{"province":"Sulawesi Tenggara","city":"Kolaka Utara","district":"Tiwu","urban":"Lawadia","postal_code":93957},{"province":"Sulawesi Tenggara","city":"Kolaka Utara","district":"Kodeoha","urban":"Koroha","postal_code":93957},{"province":"Sulawesi Tenggara","city":"Kolaka Utara","district":"Kodeoha","urban":"Lametuna","postal_code":93957},{"province":"Sulawesi Tenggara","city":"Kolaka Utara","district":"Kodeoha","urban":"Kalu-Kaluku","postal_code":93957},{"province":"Sulawesi Tenggara","city":"Kolaka Utara","district":"Kodeoha","urban":"Kamisi","postal_code":93957},{"province":"Sulawesi Tenggara","city":"Kolaka Utara","district":"Kodeoha","urban":"Jabal Kubis","postal_code":93957},{"province":"Sulawesi Tenggara","city":"Kolaka Utara","district":"Kodeoha","urban":"Jabal Nur","postal_code":93957},{"province":"Sulawesi Tenggara","city":"Kolaka Utara","district":"Kodeoha","urban":"Awo","postal_code":93957}]