[{"province":"Sulawesi Tenggara","city":"Kolaka Utara","district":"Pakue","urban":"Toaha","postal_code":93954},{"province":"Sulawesi Tenggara","city":"Kolaka Utara","district":"Pakue Tengah","urban":"To&#8217;lemo","postal_code":93954},{"province":"Sulawesi Tenggara","city":"Kolaka Utara","district":"Pakue Utara","urban":"Teposua","postal_code":93954},{"province":"Sulawesi Tenggara","city":"Kolaka Utara","district":"Pakue Tengah","urban":"Tarengga","postal_code":93954},{"province":"Sulawesi Tenggara","city":"Kolaka Utara","district":"Pakue Tengah","urban":"Salutotong","postal_code":93954},{"province":"Sulawesi Tenggara","city":"Kolaka Utara","district":"Pakue","urban":"Sipakainge","postal_code":93954},{"province":"Sulawesi Tenggara","city":"Kolaka Utara","district":"Pakue Utara","urban":"Puundoho","postal_code":93954},{"province":"Sulawesi Tenggara","city":"Kolaka Utara","district":"Pakue Tengah","urban":"Powalaa","postal_code":93954},{"province":"Sulawesi Tenggara","city":"Kolaka Utara","district":"Pakue Utara","urban":"Saludongka","postal_code":93954},{"province":"Sulawesi Tenggara","city":"Kolaka Utara","district":"Pakue Tengah","urban":"Pasampang","postal_code":93954},{"province":"Sulawesi Tenggara","city":"Kolaka Utara","district":"Pakue Utara","urban":"Pakue","postal_code":93954},{"province":"Sulawesi Tenggara","city":"Kolaka Utara","district":"Pakue","urban":"Olo Oloho (Olaha)","postal_code":93954},{"province":"Sulawesi Tenggara","city":"Kolaka Utara","district":"Pakue Utara","urban":"Mataleuno","postal_code":93954},{"province":"Sulawesi Tenggara","city":"Kolaka Utara","district":"Pakue","urban":"Mikuasi","postal_code":93954},{"province":"Sulawesi Tenggara","city":"Kolaka Utara","district":"Pakue Utara","urban":"Lawata","postal_code":93954},{"province":"Sulawesi Tenggara","city":"Kolaka Utara","district":"Pakue Tengah","urban":"Majapahit","postal_code":93954},{"province":"Sulawesi Tenggara","city":"Kolaka Utara","district":"Pakue Tengah","urban":"Lanipa","postal_code":93954},{"province":"Sulawesi Tenggara","city":"Kolaka Utara","district":"Pakue Tengah","urban":"Latali","postal_code":93954},{"province":"Sulawesi Tenggara","city":"Kolaka Utara","district":"Pakue","urban":"Lalombundi","postal_code":93954},{"province":"Sulawesi Tenggara","city":"Kolaka Utara","district":"Pakue Tengah","urban":"Labipi","postal_code":93954},{"province":"Sulawesi Tenggara","city":"Kolaka Utara","district":"Pakue","urban":"Kondara","postal_code":93954},{"province":"Sulawesi Tenggara","city":"Kolaka Utara","district":"Pakue","urban":"Kosali","postal_code":93954},{"province":"Sulawesi Tenggara","city":"Kolaka Utara","district":"Pakue Utara","urban":"Kalo","postal_code":93954},{"province":"Sulawesi Tenggara","city":"Kolaka Utara","district":"Pakue","urban":"Kasumeeto","postal_code":93954},{"province":"Sulawesi Tenggara","city":"Kolaka Utara","district":"Pakue Utara","urban":"Amowe (Amoe)","postal_code":93954}]