[{"province":"Sulawesi Tenggara","city":"Kolaka Utara","district":"Watunohu","urban":"Watunohu","postal_code":93958},{"province":"Sulawesi Tenggara","city":"Kolaka Utara","district":"Ngapa","urban":"Watumotaha","postal_code":93958},{"province":"Sulawesi Tenggara","city":"Kolaka Utara","district":"Watunohu","urban":"Tambuha","postal_code":93958},{"province":"Sulawesi Tenggara","city":"Kolaka Utara","district":"Ngapa","urban":"Tadoumera (Tadaumera)","postal_code":93958},{"province":"Sulawesi Tenggara","city":"Kolaka Utara","district":"Watunohu","urban":"Sapoiha","postal_code":93958},{"province":"Sulawesi Tenggara","city":"Kolaka Utara","district":"Watunohu","urban":"Sorona (Sarona)","postal_code":93958},{"province":"Sulawesi Tenggara","city":"Kolaka Utara","district":"Watunohu","urban":"Samaturu","postal_code":93958},{"province":"Sulawesi Tenggara","city":"Kolaka Utara","district":"Ngapa","urban":"Puurau","postal_code":93958},{"province":"Sulawesi Tenggara","city":"Kolaka Utara","district":"Ngapa","urban":"Paruttelang","postal_code":93958},{"province":"Sulawesi Tenggara","city":"Kolaka Utara","district":"Watunohu","urban":"Nyule","postal_code":93958},{"province":"Sulawesi Tenggara","city":"Kolaka Utara","district":"Ngapa","urban":"Lawolatu","postal_code":93958},{"province":"Sulawesi Tenggara","city":"Kolaka Utara","district":"Ngapa","urban":"Ngapa","postal_code":93958},{"province":"Sulawesi Tenggara","city":"Kolaka Utara","district":"Watunohu","urban":"Lahabaru","postal_code":93958},{"province":"Sulawesi Tenggara","city":"Kolaka Utara","district":"Ngapa","urban":"Lapai","postal_code":93958},{"province":"Sulawesi Tenggara","city":"Kolaka Utara","district":"Ngapa","urban":"Koreiha","postal_code":93958},{"province":"Sulawesi Tenggara","city":"Kolaka Utara","district":"Ngapa","urban":"Beringin","postal_code":93958}]