[{"province":"Sulawesi Tenggara","city":"Kolaka Utara","district":"Wawo","urban":"Wawo","postal_code":93956},{"province":"Sulawesi Tenggara","city":"Kolaka Utara","district":"Lombai (Lambai)","urban":"Woise","postal_code":93956},{"province":"Sulawesi Tenggara","city":"Kolaka Utara","district":"Lombai (Lambai)","urban":"Woitombo","postal_code":93956},{"province":"Sulawesi Tenggara","city":"Kolaka Utara","district":"Wawo","urban":"Ulu Wawo","postal_code":93956},{"province":"Sulawesi Tenggara","city":"Kolaka Utara","district":"Wawo","urban":"Walasiho","postal_code":93956},{"province":"Sulawesi Tenggara","city":"Kolaka Utara","district":"Wawo","urban":"Tinukari","postal_code":93956},{"province":"Sulawesi Tenggara","city":"Kolaka Utara","district":"Ranteangin","urban":"Torotuo (Torotua)","postal_code":93956},{"province":"Sulawesi Tenggara","city":"Kolaka Utara","district":"Wawo","urban":"Salurengko","postal_code":93956},{"province":"Sulawesi Tenggara","city":"Kolaka Utara","district":"Lombai (Lambai)","urban":"Tebagiano","postal_code":93956},{"province":"Sulawesi Tenggara","city":"Kolaka Utara","district":"Lombai (Lambai)","urban":"Raoda","postal_code":93956},{"province":"Sulawesi Tenggara","city":"Kolaka Utara","district":"Ranteangin","urban":"Rante Baru","postal_code":93956},{"province":"Sulawesi Tenggara","city":"Kolaka Utara","district":"Ranteangin","urban":"Rante Angin","postal_code":93956},{"province":"Sulawesi Tenggara","city":"Kolaka Utara","district":"Wawo","urban":"Pumbolo","postal_code":93956},{"province":"Sulawesi Tenggara","city":"Kolaka Utara","district":"Ranteangin","urban":"Maroko","postal_code":93956},{"province":"Sulawesi Tenggara","city":"Kolaka Utara","district":"Ranteangin","urban":"Pohu","postal_code":93956},{"province":"Sulawesi Tenggara","city":"Kolaka Utara","district":"Ranteangin","urban":"Lawekara","postal_code":93956},{"province":"Sulawesi Tenggara","city":"Kolaka Utara","district":"Wawo","urban":"Latawe","postal_code":93956},{"province":"Sulawesi Tenggara","city":"Kolaka Utara","district":"Lombai (Lambai)","urban":"Lapasi-Pasi","postal_code":93956},{"province":"Sulawesi Tenggara","city":"Kolaka Utara","district":"Lombai (Lambai)","urban":"Latawaro","postal_code":93956},{"province":"Sulawesi Tenggara","city":"Kolaka Utara","district":"Ranteangin","urban":"Landolia","postal_code":93956},{"province":"Sulawesi Tenggara","city":"Kolaka Utara","district":"Lombai (Lambai)","urban":"Lambai","postal_code":93956}]