[{"province":"Sulawesi Tenggara","city":"Kolaka Utara","district":"Porehu","urban":"Tobela","postal_code":93955},{"province":"Sulawesi Tenggara","city":"Kolaka Utara","district":"Tolala","urban":"Tolala","postal_code":93955},{"province":"Sulawesi Tenggara","city":"Kolaka Utara","district":"Porehu","urban":"Tinuna","postal_code":93955},{"province":"Sulawesi Tenggara","city":"Kolaka Utara","district":"Porehu","urban":"Tangga Ruru","postal_code":93955},{"province":"Sulawesi Tenggara","city":"Kolaka Utara","district":"Batu Putih","urban":"Tetebawo","postal_code":93955},{"province":"Sulawesi Tenggara","city":"Kolaka Utara","district":"Batu Putih","urban":"Seuwwa","postal_code":93955},{"province":"Sulawesi Tenggara","city":"Kolaka Utara","district":"Batu Putih","urban":"Sarowali","postal_code":93955},{"province":"Sulawesi Tenggara","city":"Kolaka Utara","district":"Porehu","urban":"Sarambu","postal_code":93955},{"province":"Sulawesi Tenggara","city":"Kolaka Utara","district":"Batu Putih","urban":"Puncak Harapan","postal_code":93955},{"province":"Sulawesi Tenggara","city":"Kolaka Utara","district":"Porehu","urban":"Ponggi","postal_code":93955},{"province":"Sulawesi Tenggara","city":"Kolaka Utara","district":"Porehu","urban":"Porehu","postal_code":93955},{"province":"Sulawesi Tenggara","city":"Kolaka Utara","district":"Tolala","urban":"Patikala","postal_code":93955},{"province":"Sulawesi Tenggara","city":"Kolaka Utara","district":"Batu Putih","urban":"Parung Lampe","postal_code":93955},{"province":"Sulawesi Tenggara","city":"Kolaka Utara","district":"Batu Putih","urban":"Nimbuneha","postal_code":93955},{"province":"Sulawesi Tenggara","city":"Kolaka Utara","district":"Batu Putih","urban":"Padaelo","postal_code":93955},{"province":"Sulawesi Tenggara","city":"Kolaka Utara","district":"Batu Putih","urban":"Makkuaseng","postal_code":93955},{"province":"Sulawesi Tenggara","city":"Kolaka Utara","district":"Batu Putih","urban":"Mataiwoi","postal_code":93955},{"province":"Sulawesi Tenggara","city":"Kolaka Utara","district":"Batu Putih","urban":"Mosiku","postal_code":93955},{"province":"Sulawesi Tenggara","city":"Kolaka Utara","district":"Tolala","urban":"Loka","postal_code":93955},{"province":"Sulawesi Tenggara","city":"Kolaka Utara","district":"Batu Putih","urban":"Lengkong Batu","postal_code":93955},{"province":"Sulawesi Tenggara","city":"Kolaka Utara","district":"Tolala","urban":"Lelewulu","postal_code":93955},{"province":"Sulawesi Tenggara","city":"Kolaka Utara","district":"Batu Putih","urban":"Lelewawo","postal_code":93955},{"province":"Sulawesi Tenggara","city":"Kolaka Utara","district":"Tolala","urban":"Lawaki Jaya","postal_code":93955},{"province":"Sulawesi Tenggara","city":"Kolaka Utara","district":"Batu Putih","urban":"Latowu","postal_code":93955},{"province":"Sulawesi Tenggara","city":"Kolaka Utara","district":"Batu Putih","urban":"Lalume","postal_code":93955},{"province":"Sulawesi Tenggara","city":"Kolaka Utara","district":"Porehu","urban":"Larui","postal_code":93955},{"province":"Sulawesi Tenggara","city":"Kolaka Utara","district":"Batu Putih","urban":"Delang Delang","postal_code":93955},{"province":"Sulawesi Tenggara","city":"Kolaka Utara","district":"Batu Putih","urban":"Kalahunde","postal_code":93955},{"province":"Sulawesi Tenggara","city":"Kolaka Utara","district":"Batu Putih","urban":"Bukit Baru","postal_code":93955},{"province":"Sulawesi Tenggara","city":"Kolaka Utara","district":"Batu Putih","urban":"Bukit Tinggi","postal_code":93955},{"province":"Sulawesi Tenggara","city":"Kolaka Utara","district":"Batu Putih","urban":"Batu Putih","postal_code":93955},{"province":"Sulawesi Tenggara","city":"Kolaka Utara","district":"Batu Putih","urban":"Batuapi","postal_code":93955},{"province":"Sulawesi Tenggara","city":"Kolaka Utara","district":"Tolala","urban":"Bahari","postal_code":93955},{"province":"Sulawesi Tenggara","city":"Kolaka Utara","district":"Porehu","urban":"Bangsala","postal_code":93955},{"province":"Sulawesi Tenggara","city":"Kolaka Utara","district":"Batu Putih","urban":"Alipato","postal_code":93955},{"province":"Sulawesi Tenggara","city":"Kolaka Utara","district":"Batu Putih","urban":"Ainani Tajriani","postal_code":93955}]