[{"province":"Sulawesi Tengah","city":"Sigi","district":"Pipikoro","urban":"Peana","postal_code":94112},{"province":"Sulawesi Tengah","city":"Sigi","district":"Pipikoro","urban":"Onu","postal_code":94112},{"province":"Sulawesi Tengah","city":"Sigi","district":"Pipikoro","urban":"Parelea","postal_code":94112},{"province":"Sulawesi Tengah","city":"Sigi","district":"Pipikoro","urban":"Mapahi","postal_code":94112},{"province":"Sulawesi Tengah","city":"Sigi","district":"Pipikoro","urban":"Morui (Murui)","postal_code":94112},{"province":"Sulawesi Tengah","city":"Sigi","district":"Pipikoro","urban":"Mamu","postal_code":94112},{"province":"Sulawesi Tengah","city":"Sigi","district":"Pipikoro","urban":"Koja","postal_code":94112},{"province":"Sulawesi Tengah","city":"Sigi","district":"Pipikoro","urban":"Lawe","postal_code":94112},{"province":"Sulawesi Tengah","city":"Sigi","district":"Pipikoro","urban":"Lone Basa","postal_code":94112},{"province":"Sulawesi Tengah","city":"Sigi","district":"Pipikoro","urban":"Kalamanta","postal_code":94112},{"province":"Sulawesi Tengah","city":"Sigi","district":"Pipikoro","urban":"Kantewu","postal_code":94112},{"province":"Sulawesi Tengah","city":"Sigi","district":"Pipikoro","urban":"Kantewu II","postal_code":94112},{"province":"Sulawesi Tengah","city":"Sigi","district":"Pipikoro","urban":"Banasu","postal_code":94112}]