[{"province":"Sulawesi Tengah","city":"Donggala","district":"Sindue","urban":"Toaya","postal_code":94353},{"province":"Sulawesi Tengah","city":"Donggala","district":"Sindue","urban":"Toaya Vunta/Funta","postal_code":94353},{"province":"Sulawesi Tengah","city":"Donggala","district":"Sindue","urban":"Taripa","postal_code":94353},{"province":"Sulawesi Tengah","city":"Donggala","district":"Sindue Tombusabora","urban":"Tibo","postal_code":94353},{"province":"Sulawesi Tengah","city":"Donggala","district":"Sindue","urban":"Sumari","postal_code":94353},{"province":"Sulawesi Tengah","city":"Donggala","district":"Sindue Tobata","urban":"Tamarenja","postal_code":94353},{"province":"Sulawesi Tengah","city":"Donggala","district":"Sindue Tobata","urban":"Sindosa","postal_code":94353},{"province":"Sulawesi Tengah","city":"Donggala","district":"Sindue Tobata","urban":"Sipeso","postal_code":94353},{"province":"Sulawesi Tengah","city":"Donggala","district":"Sindue Tobata","urban":"Sikara Tobata","postal_code":94353},{"province":"Sulawesi Tengah","city":"Donggala","district":"Sindue Tombusabora","urban":"Saloya","postal_code":94353},{"province":"Sulawesi Tengah","city":"Donggala","district":"Sindue","urban":"Masaingi","postal_code":94353},{"province":"Sulawesi Tengah","city":"Donggala","district":"Sindue Tobata","urban":"Oti","postal_code":94353},{"province":"Sulawesi Tengah","city":"Donggala","district":"Sindue","urban":"Lero Tatari","postal_code":94353},{"province":"Sulawesi Tengah","city":"Donggala","district":"Sindue","urban":"Marana","postal_code":94353},{"province":"Sulawesi Tengah","city":"Donggala","district":"Sindue","urban":"Kumbasa","postal_code":94353},{"province":"Sulawesi Tengah","city":"Donggala","district":"Sindue","urban":"Lero","postal_code":94353},{"province":"Sulawesi Tengah","city":"Donggala","district":"Sindue","urban":"Kavaya","postal_code":94353},{"province":"Sulawesi Tengah","city":"Donggala","district":"Sindue Tombusabora","urban":"Kaliburu Kata","postal_code":94353},{"province":"Sulawesi Tengah","city":"Donggala","district":"Sindue Tombusabora","urban":"Kaliburu","postal_code":94353},{"province":"Sulawesi Tengah","city":"Donggala","district":"Sindue","urban":"Enu","postal_code":94353},{"province":"Sulawesi Tengah","city":"Donggala","district":"Sindue Tombusabora","urban":"Batusuya Go&#8217;o","postal_code":94353},{"province":"Sulawesi Tengah","city":"Donggala","district":"Sindue","urban":"Dalaka","postal_code":94353},{"province":"Sulawesi Tengah","city":"Donggala","district":"Sindue Tombusabora","urban":"Batusuya","postal_code":94353},{"province":"Sulawesi Tengah","city":"Donggala","district":"Sindue","urban":"Amal","postal_code":94353},{"province":"Sulawesi Tengah","city":"Donggala","district":"Sindue Tobata","urban":"Alindau","postal_code":94353}]