[{"province":"Sulawesi Tengah","city":"Donggala","district":"Banawa Selatan","urban":"Watatu","postal_code":94351},{"province":"Sulawesi Tengah","city":"Donggala","district":"Banawa Tengah","urban":"Towale","postal_code":94351},{"province":"Sulawesi Tengah","city":"Donggala","district":"Banawa Selatan","urban":"Tosale","postal_code":94351},{"province":"Sulawesi Tengah","city":"Donggala","district":"Banawa Selatan","urban":"Tolongano","postal_code":94351},{"province":"Sulawesi Tengah","city":"Donggala","district":"Banawa Selatan","urban":"Tanahmea","postal_code":94351},{"province":"Sulawesi Tengah","city":"Donggala","district":"Banawa Selatan","urban":"Tanampulu","postal_code":94351},{"province":"Sulawesi Tengah","city":"Donggala","district":"Banawa","urban":"Tanjung Batu","postal_code":94351},{"province":"Sulawesi Tengah","city":"Donggala","district":"Banawa Selatan","urban":"Surumana","postal_code":94351},{"province":"Sulawesi Tengah","city":"Donggala","district":"Banawa Selatan","urban":"Salusumpu","postal_code":94351},{"province":"Sulawesi Tengah","city":"Donggala","district":"Banawa Selatan","urban":"Sarombaya","postal_code":94351},{"province":"Sulawesi Tengah","city":"Donggala","district":"Banawa Selatan","urban":"Salumpaku","postal_code":94351},{"province":"Sulawesi Tengah","city":"Donggala","district":"Banawa Selatan","urban":"Salungkaenu","postal_code":94351},{"province":"Sulawesi Tengah","city":"Donggala","district":"Banawa Tengah","urban":"Powelua","postal_code":94351},{"province":"Sulawesi Tengah","city":"Donggala","district":"Banawa Tengah","urban":"Salubomba","postal_code":94351},{"province":"Sulawesi Tengah","city":"Donggala","district":"Banawa Tengah","urban":"Mekar Baru","postal_code":94351},{"province":"Sulawesi Tengah","city":"Donggala","district":"Banawa Selatan","urban":"Mbuwu","postal_code":94351},{"province":"Sulawesi Tengah","city":"Donggala","district":"Banawa Selatan","urban":"Ongulara","postal_code":94351},{"province":"Sulawesi Tengah","city":"Donggala","district":"Banawa Selatan","urban":"Malino","postal_code":94351},{"province":"Sulawesi Tengah","city":"Donggala","district":"Banawa Selatan","urban":"Lumbumamara","postal_code":94351},{"province":"Sulawesi Tengah","city":"Donggala","district":"Banawa","urban":"Maleni","postal_code":94351},{"province":"Sulawesi Tengah","city":"Donggala","district":"Banawa Selatan","urban":"Lumbulama","postal_code":94351},{"province":"Sulawesi Tengah","city":"Donggala","district":"Banawa Tengah","urban":"Lumbudolo","postal_code":94351},{"province":"Sulawesi Tengah","city":"Donggala","district":"Banawa Selatan","urban":"Lumbu Tarombo","postal_code":94351},{"province":"Sulawesi Tengah","city":"Donggala","district":"Banawa","urban":"Lolioge","postal_code":94351},{"province":"Sulawesi Tengah","city":"Donggala","district":"Banawa Selatan","urban":"Lumbu Tarombo","postal_code":94351},{"province":"Sulawesi Tengah","city":"Donggala","district":"Banawa","urban":"Loli Saluran","postal_code":94351},{"province":"Sulawesi Tengah","city":"Donggala","district":"Banawa","urban":"Loli Pesua","postal_code":94351},{"province":"Sulawesi Tengah","city":"Donggala","district":"Banawa","urban":"Loli Dondo","postal_code":94351},{"province":"Sulawesi Tengah","city":"Donggala","district":"Banawa Selatan","urban":"Lembasada","postal_code":94351},{"province":"Sulawesi Tengah","city":"Donggala","district":"Banawa Tengah","urban":"Limboro","postal_code":94351},{"province":"Sulawesi Tengah","city":"Donggala","district":"Banawa Tengah","urban":"Lampo","postal_code":94351},{"province":"Sulawesi Tengah","city":"Donggala","district":"Banawa Selatan","urban":"Lalombi","postal_code":94351},{"province":"Sulawesi Tengah","city":"Donggala","district":"Banawa Tengah","urban":"Kola-Kola","postal_code":94351},{"province":"Sulawesi Tengah","city":"Donggala","district":"Banawa","urban":"Labuan Bajo","postal_code":94351},{"province":"Sulawesi Tengah","city":"Donggala","district":"Banawa","urban":"Kabonga Kecil","postal_code":94351},{"province":"Sulawesi Tengah","city":"Donggala","district":"Banawa","urban":"Ganti","postal_code":94351},{"province":"Sulawesi Tengah","city":"Donggala","district":"Banawa","urban":"Gunung Bale","postal_code":94351},{"province":"Sulawesi Tengah","city":"Donggala","district":"Banawa","urban":"Kabonga Besar","postal_code":94351},{"province":"Sulawesi Tengah","city":"Donggala","district":"Banawa","urban":"Boneoge","postal_code":94351},{"province":"Sulawesi Tengah","city":"Donggala","district":"Banawa","urban":"Boya","postal_code":94351},{"province":"Sulawesi Tengah","city":"Donggala","district":"Banawa Selatan","urban":"Bambarimi","postal_code":94351}]