[{"province":"Sulawesi Tengah","city":"Donggala","district":"Sojol","urban":"Tonggolobibi","postal_code":94356},{"province":"Sulawesi Tengah","city":"Donggala","district":"Damsol (Dampelas Sojol)","urban":"Talaga","postal_code":94356},{"province":"Sulawesi Tengah","city":"Donggala","district":"Damsol (Dampelas Sojol)","urban":"Sioyong","postal_code":94356},{"province":"Sulawesi Tengah","city":"Donggala","district":"Sojol","urban":"Siwalempu","postal_code":94356},{"province":"Sulawesi Tengah","city":"Donggala","district":"Sojol","urban":"Samalili","postal_code":94356},{"province":"Sulawesi Tengah","city":"Donggala","district":"Sojol","urban":"Siboalong (Siboang)","postal_code":94356},{"province":"Sulawesi Tengah","city":"Donggala","district":"Damsol (Dampelas Sojol)","urban":"Rerang","postal_code":94356},{"province":"Sulawesi Tengah","city":"Donggala","district":"Damsol (Dampelas Sojol)","urban":"Sabang","postal_code":94356},{"province":"Sulawesi Tengah","city":"Donggala","district":"Damsol (Dampelas Sojol)","urban":"Ponggerang","postal_code":94356},{"province":"Sulawesi Tengah","city":"Donggala","district":"Sojol Utara","urban":"Pesik","postal_code":94356},{"province":"Sulawesi Tengah","city":"Donggala","district":"Damsol (Dampelas Sojol)","urban":"Panii","postal_code":94356},{"province":"Sulawesi Tengah","city":"Donggala","district":"Damsol (Dampelas Sojol)","urban":"Parisan Agung","postal_code":94356},{"province":"Sulawesi Tengah","city":"Donggala","district":"Sojol Utara","urban":"Ogoamas II","postal_code":94356},{"province":"Sulawesi Tengah","city":"Donggala","district":"Sojol","urban":"Panggalasiang (Pangalaseang)","postal_code":94356},{"province":"Sulawesi Tengah","city":"Donggala","district":"Sojol Utara","urban":"Ogoamas I","postal_code":94356},{"province":"Sulawesi Tengah","city":"Donggala","district":"Damsol (Dampelas Sojol)","urban":"Malonas","postal_code":94356},{"province":"Sulawesi Tengah","city":"Donggala","district":"Sojol Utara","urban":"Lenju","postal_code":94356},{"province":"Sulawesi Tengah","city":"Donggala","district":"Damsol (Dampelas Sojol)","urban":"Kembayang (Kambayang)","postal_code":94356},{"province":"Sulawesi Tengah","city":"Donggala","district":"Damsol (Dampelas Sojol)","urban":"Lemba Mukti","postal_code":94356},{"province":"Sulawesi Tengah","city":"Donggala","district":"Damsol (Dampelas Sojol)","urban":"Karyamukti","postal_code":94356},{"province":"Sulawesi Tengah","city":"Donggala","district":"Damsol (Dampelas Sojol)","urban":"Bukit Harapan","postal_code":94356},{"province":"Sulawesi Tengah","city":"Donggala","district":"Sojol","urban":"Bukit Harapan","postal_code":94356},{"province":"Sulawesi Tengah","city":"Donggala","district":"Damsol (Dampelas Sojol)","urban":"Budimukti","postal_code":94356},{"province":"Sulawesi Tengah","city":"Donggala","district":"Sojol","urban":"Bou","postal_code":94356},{"province":"Sulawesi Tengah","city":"Donggala","district":"Sojol Utara","urban":"Bengkoli","postal_code":94356},{"province":"Sulawesi Tengah","city":"Donggala","district":"Sojol","urban":"Balukang","postal_code":94356},{"province":"Sulawesi Tengah","city":"Donggala","district":"Sojol","urban":"Balukang II","postal_code":94356}]