[{"province":"Sulawesi Tengah","city":"Donggala","district":"Tanantovea","urban":"Wombo Mpanau (Panau)","postal_code":94352},{"province":"Sulawesi Tengah","city":"Donggala","district":"Tanantovea","urban":"Wombo Kalonggo","postal_code":94352},{"province":"Sulawesi Tengah","city":"Donggala","district":"Tanantovea","urban":"Wani Tiga","postal_code":94352},{"province":"Sulawesi Tengah","city":"Donggala","district":"Tanantovea","urban":"Wombo","postal_code":94352},{"province":"Sulawesi Tengah","city":"Donggala","district":"Tanantovea","urban":"Wani Lumbumpetigo","postal_code":94352},{"province":"Sulawesi Tengah","city":"Donggala","district":"Tanantovea","urban":"Wani Satu / I","postal_code":94352},{"province":"Sulawesi Tengah","city":"Donggala","district":"Tanantovea","urban":"Nupa Bomba","postal_code":94352},{"province":"Sulawesi Tengah","city":"Donggala","district":"Tanantovea","urban":"Wani Dua / II","postal_code":94352},{"province":"Sulawesi Tengah","city":"Donggala","district":"Labuan","urban":"Labuan Salumbone","postal_code":94352},{"province":"Sulawesi Tengah","city":"Donggala","district":"Labuan","urban":"Labuan Toposo","postal_code":94352},{"province":"Sulawesi Tengah","city":"Donggala","district":"Labuan","urban":"Labuan Lumbubaka","postal_code":94352},{"province":"Sulawesi Tengah","city":"Donggala","district":"Labuan","urban":"Labuan Panimba","postal_code":94352},{"province":"Sulawesi Tengah","city":"Donggala","district":"Labuan","urban":"Labuan Induk","postal_code":94352},{"province":"Sulawesi Tengah","city":"Donggala","district":"Labuan","urban":"Labuan Kungguma","postal_code":94352},{"province":"Sulawesi Tengah","city":"Donggala","district":"Labuan","urban":"Labuan Lelea","postal_code":94352},{"province":"Sulawesi Tengah","city":"Donggala","district":"Tanantovea","urban":"Guntarano","postal_code":94352},{"province":"Sulawesi Tengah","city":"Donggala","district":"Tanantovea","urban":"Bale","postal_code":94352}]