[{"province":"Sulawesi Tengah","city":"Sigi","district":"Dolo Selatan","urban":"Wisolo","postal_code":94361},{"province":"Sulawesi Tengah","city":"Sigi","district":"Dolo Selatan","urban":"Walatana","postal_code":94361},{"province":"Sulawesi Tengah","city":"Sigi","district":"Dolo","urban":"Watubula","postal_code":94361},{"province":"Sulawesi Tengah","city":"Sigi","district":"Dolo","urban":"Waturalele","postal_code":94361},{"province":"Sulawesi Tengah","city":"Sigi","district":"Dolo","urban":"Soulowe","postal_code":94361},{"province":"Sulawesi Tengah","city":"Sigi","district":"Dolo","urban":"Tulo","postal_code":94361},{"province":"Sulawesi Tengah","city":"Sigi","district":"Dolo Barat","urban":"Sibonu","postal_code":94361},{"province":"Sulawesi Tengah","city":"Sigi","district":"Dolo Selatan","urban":"Sambo","postal_code":94361},{"province":"Sulawesi Tengah","city":"Sigi","district":"Dolo Barat","urban":"Rarampadende","postal_code":94361},{"province":"Sulawesi Tengah","city":"Sigi","district":"Dolo Selatan","urban":"Pulu","postal_code":94361},{"province":"Sulawesi Tengah","city":"Sigi","district":"Dolo Selatan","urban":"Rogo","postal_code":94361},{"province":"Sulawesi Tengah","city":"Sigi","district":"Dolo","urban":"Potoya","postal_code":94361},{"province":"Sulawesi Tengah","city":"Sigi","district":"Dolo Selatan","urban":"Poi","postal_code":94361},{"province":"Sulawesi Tengah","city":"Sigi","district":"Dolo Barat","urban":"Pesaku","postal_code":94361},{"province":"Sulawesi Tengah","city":"Sigi","district":"Dolo Barat","urban":"Pewunu","postal_code":94361},{"province":"Sulawesi Tengah","city":"Sigi","district":"Dolo Barat","urban":"Mantikole","postal_code":94361},{"province":"Sulawesi Tengah","city":"Sigi","district":"Dolo","urban":"Maku","postal_code":94361},{"province":"Sulawesi Tengah","city":"Sigi","district":"Dolo","urban":"Kotarindau","postal_code":94361},{"province":"Sulawesi Tengah","city":"Sigi","district":"Dolo","urban":"Langleso (Langaleso)","postal_code":94361},{"province":"Sulawesi Tengah","city":"Sigi","district":"Dolo","urban":"Kota Pulu","postal_code":94361},{"province":"Sulawesi Tengah","city":"Sigi","district":"Dolo Barat","urban":"Kaleke","postal_code":94361},{"province":"Sulawesi Tengah","city":"Sigi","district":"Dolo Barat","urban":"Kalukutinggu","postal_code":94361},{"province":"Sulawesi Tengah","city":"Sigi","district":"Dolo","urban":"Karawana","postal_code":94361},{"province":"Sulawesi Tengah","city":"Sigi","district":"Dolo","urban":"Kabobona","postal_code":94361},{"province":"Sulawesi Tengah","city":"Sigi","district":"Dolo Selatan","urban":"Bulubete","postal_code":94361},{"province":"Sulawesi Tengah","city":"Sigi","district":"Dolo Selatan","urban":"Jono","postal_code":94361},{"province":"Sulawesi Tengah","city":"Sigi","district":"Dolo Barat","urban":"Bobo","postal_code":94361},{"province":"Sulawesi Tengah","city":"Sigi","district":"Dolo Barat","urban":"Balumpewa","postal_code":94361},{"province":"Sulawesi Tengah","city":"Sigi","district":"Dolo Selatan","urban":"Bangga","postal_code":94361},{"province":"Sulawesi Tengah","city":"Sigi","district":"Dolo Selatan","urban":"Balongga","postal_code":94361},{"province":"Sulawesi Tengah","city":"Sigi","district":"Dolo Selatan","urban":"Baluase","postal_code":94361},{"province":"Sulawesi Tengah","city":"Sigi","district":"Dolo Barat","urban":"Balamoa","postal_code":94361}]