[{"province":"Sulawesi Tengah","city":"Sigi","district":"Kulawi Selatan","urban":"Watukilo","postal_code":94363},{"province":"Sulawesi Tengah","city":"Sigi","district":"Kulawi","urban":"Winatu","postal_code":94363},{"province":"Sulawesi Tengah","city":"Sigi","district":"Kulawi Selatan","urban":"Wangka","postal_code":94363},{"province":"Sulawesi Tengah","city":"Sigi","district":"Kulawi","urban":"Towulu","postal_code":94363},{"province":"Sulawesi Tengah","city":"Sigi","district":"Kulawi","urban":"Toro","postal_code":94363},{"province":"Sulawesi Tengah","city":"Sigi","district":"Kulawi Selatan","urban":"Tompi Bugis","postal_code":94363},{"province":"Sulawesi Tengah","city":"Sigi","district":"Kulawi Selatan","urban":"Tomua","postal_code":94363},{"province":"Sulawesi Tengah","city":"Sigi","district":"Kulawi","urban":"Tangkulowi","postal_code":94363},{"province":"Sulawesi Tengah","city":"Sigi","district":"Lindu","urban":"Tomado","postal_code":94363},{"province":"Sulawesi Tengah","city":"Sigi","district":"Kulawi","urban":"Siwongi","postal_code":94363},{"province":"Sulawesi Tengah","city":"Sigi","district":"Kulawi","urban":"Sungku","postal_code":94363},{"province":"Sulawesi Tengah","city":"Sigi","district":"Kulawi Selatan","urban":"Salutome","postal_code":94363},{"province":"Sulawesi Tengah","city":"Sigi","district":"Kulawi","urban":"Rantewulu","postal_code":94363},{"province":"Sulawesi Tengah","city":"Sigi","district":"Kulawi","urban":"Salua","postal_code":94363},{"province":"Sulawesi Tengah","city":"Sigi","district":"Lindu","urban":"Puro/Puroo","postal_code":94363},{"province":"Sulawesi Tengah","city":"Sigi","district":"Kulawi Selatan","urban":"Palimakijawa (Pilimakujawa/Makujawa)","postal_code":94363},{"province":"Sulawesi Tengah","city":"Sigi","district":"Kulawi Selatan","urban":"O&#8217;o","postal_code":94363},{"province":"Sulawesi Tengah","city":"Sigi","district":"Kulawi Selatan","urban":"Palamaki","postal_code":94363},{"province":"Sulawesi Tengah","city":"Sigi","district":"Kulawi","urban":"Namo","postal_code":94363},{"province":"Sulawesi Tengah","city":"Sigi","district":"Kulawi Selatan","urban":"Moa","postal_code":94363},{"province":"Sulawesi Tengah","city":"Sigi","district":"Kulawi","urban":"Mataue","postal_code":94363},{"province":"Sulawesi Tengah","city":"Sigi","district":"Kulawi Selatan","urban":"Lempelero","postal_code":94363},{"province":"Sulawesi Tengah","city":"Sigi","district":"Kulawi","urban":"Lonca","postal_code":94363},{"province":"Sulawesi Tengah","city":"Sigi","district":"Kulawi Selatan","urban":"Lawua","postal_code":94363},{"province":"Sulawesi Tengah","city":"Sigi","district":"Lindu","urban":"Langko","postal_code":94363},{"province":"Sulawesi Tengah","city":"Sigi","district":"Kulawi Selatan","urban":"Gimpu","postal_code":94363},{"province":"Sulawesi Tengah","city":"Sigi","district":"Kulawi","urban":"Bolapapu","postal_code":94363},{"province":"Sulawesi Tengah","city":"Sigi","district":"Kulawi","urban":"Banggaiba","postal_code":94363},{"province":"Sulawesi Tengah","city":"Sigi","district":"Kulawi","urban":"Boladangko","postal_code":94363},{"province":"Sulawesi Tengah","city":"Sigi","district":"Lindu","urban":"Anca","postal_code":94363}]