[{"province":"Sulawesi Tengah","city":"Donggala","district":"Rio Pakava (Riopakawa)","urban":"Toviora (Towiora)","postal_code":94362},{"province":"Sulawesi Tengah","city":"Donggala","district":"Rio Pakava (Riopakawa)","urban":"Vacava","postal_code":94362},{"province":"Sulawesi Tengah","city":"Donggala","district":"Rio Pakava (Riopakawa)","urban":"Tinauka","postal_code":94362},{"province":"Sulawesi Tengah","city":"Donggala","district":"Pinembani","urban":"Tamodo","postal_code":94362},{"province":"Sulawesi Tengah","city":"Donggala","district":"Rio Pakava (Riopakawa)","urban":"Tinauka","postal_code":94362},{"province":"Sulawesi Tengah","city":"Donggala","district":"Rio Pakava (Riopakawa)","urban":"Rio Mukti","postal_code":94362},{"province":"Sulawesi Tengah","city":"Donggala","district":"Rio Pakava (Riopakawa)","urban":"Polando Jaya","postal_code":94362},{"province":"Sulawesi Tengah","city":"Donggala","district":"Rio Pakava (Riopakawa)","urban":"Polanto Jaya","postal_code":94362},{"province":"Sulawesi Tengah","city":"Donggala","district":"Rio Pakava (Riopakawa)","urban":"Panca Mukti","postal_code":94362},{"province":"Sulawesi Tengah","city":"Donggala","district":"Rio Pakava (Riopakawa)","urban":"Pantalobete","postal_code":94362},{"province":"Sulawesi Tengah","city":"Donggala","district":"Pinembani","urban":"Palintuma","postal_code":94362},{"province":"Sulawesi Tengah","city":"Donggala","district":"Rio Pakava (Riopakawa)","urban":"Ngovi Vacava","postal_code":94362},{"province":"Sulawesi Tengah","city":"Donggala","district":"Rio Pakava (Riopakawa)","urban":"Minti Makmur","postal_code":94362},{"province":"Sulawesi Tengah","city":"Donggala","district":"Rio Pakava (Riopakawa)","urban":"Mbulava","postal_code":94362},{"province":"Sulawesi Tengah","city":"Donggala","district":"Rio Pakava (Riopakawa)","urban":"Lalundu","postal_code":94362},{"province":"Sulawesi Tengah","city":"Donggala","district":"Pinembani","urban":"Karavia","postal_code":94362},{"province":"Sulawesi Tengah","city":"Donggala","district":"Pinembani","urban":"Kanagalongga","postal_code":94362},{"province":"Sulawesi Tengah","city":"Donggala","district":"Pinembani","urban":"Gimpubia","postal_code":94362},{"province":"Sulawesi Tengah","city":"Donggala","district":"Pinembani","urban":"Dangaraa","postal_code":94362},{"province":"Sulawesi Tengah","city":"Donggala","district":"Rio Pakava (Riopakawa)","urban":"Bukit Indah","postal_code":94362},{"province":"Sulawesi Tengah","city":"Donggala","district":"Rio Pakava (Riopakawa)","urban":"Bonemarawa","postal_code":94362},{"province":"Sulawesi Tengah","city":"Donggala","district":"Pinembani","urban":"Bambakaenu","postal_code":94362},{"province":"Sulawesi Tengah","city":"Donggala","district":"Pinembani","urban":"Bambakanini","postal_code":94362},{"province":"Sulawesi Tengah","city":"Sigi","district":"Marawola Barat","urban":"Wayu","postal_code":94362},{"province":"Sulawesi Tengah","city":"Sigi","district":"Marawola Barat","urban":"Wiapore","postal_code":94362},{"province":"Sulawesi Tengah","city":"Sigi","district":"Marawola Barat","urban":"Wugaga","postal_code":94362},{"province":"Sulawesi Tengah","city":"Sigi","district":"Kinovaru","urban":"Uwemanje","postal_code":94362},{"province":"Sulawesi Tengah","city":"Sigi","district":"Marawola","urban":"Tinggede","postal_code":94362},{"province":"Sulawesi Tengah","city":"Sigi","district":"Marawola","urban":"Tinggede Selatan","postal_code":94362},{"province":"Sulawesi Tengah","city":"Sigi","district":"Marawola","urban":"Sunju","postal_code":94362},{"province":"Sulawesi Tengah","city":"Sigi","district":"Marawola Barat","urban":"Taipanggabe","postal_code":94362},{"province":"Sulawesi Tengah","city":"Sigi","district":"Marawola","urban":"Sibedi","postal_code":94362},{"province":"Sulawesi Tengah","city":"Sigi","district":"Marawola Barat","urban":"Soi","postal_code":94362},{"province":"Sulawesi Tengah","city":"Sigi","district":"Kinovaru","urban":"Porame","postal_code":94362},{"province":"Sulawesi Tengah","city":"Sigi","district":"Kinovaru","urban":"Rondingo","postal_code":94362},{"province":"Sulawesi Tengah","city":"Sigi","district":"Marawola","urban":"Padende","postal_code":94362},{"province":"Sulawesi Tengah","city":"Sigi","district":"Marawola Barat","urban":"Panasibaja","postal_code":94362},{"province":"Sulawesi Tengah","city":"Sigi","district":"Marawola Barat","urban":"Ongulero","postal_code":94362},{"province":"Sulawesi Tengah","city":"Sigi","district":"Marawola Barat","urban":"Lewara","postal_code":94362},{"province":"Sulawesi Tengah","city":"Sigi","district":"Marawola Barat","urban":"Matantimali","postal_code":94362},{"province":"Sulawesi Tengah","city":"Sigi","district":"Marawola","urban":"Lebanu","postal_code":94362},{"province":"Sulawesi Tengah","city":"Sigi","district":"Kinovaru","urban":"Kalora","postal_code":94362},{"province":"Sulawesi Tengah","city":"Sigi","district":"Kinovaru","urban":"Kanuna","postal_code":94362},{"province":"Sulawesi Tengah","city":"Sigi","district":"Marawola Barat","urban":"Dombu","postal_code":94362},{"province":"Sulawesi Tengah","city":"Sigi","district":"Kinovaru","urban":"Doda","postal_code":94362},{"province":"Sulawesi Tengah","city":"Sigi","district":"Kinovaru","urban":"Daenggune","postal_code":94362},{"province":"Sulawesi Tengah","city":"Sigi","district":"Marawola","urban":"Boyabaliase","postal_code":94362},{"province":"Sulawesi Tengah","city":"Sigi","district":"Kinovaru","urban":"Bolobia","postal_code":94362},{"province":"Sulawesi Tengah","city":"Sigi","district":"Marawola","urban":"Bomba","postal_code":94362},{"province":"Sulawesi Tengah","city":"Sigi","district":"Marawola","urban":"Beka","postal_code":94362},{"province":"Sulawesi Tengah","city":"Sigi","district":"Marawola","urban":"Binangga","postal_code":94362},{"province":"Sulawesi Tengah","city":"Sigi","district":"Marawola","urban":"Baliase","postal_code":94362},{"province":"Sulawesi Tengah","city":"Sigi","district":"Kinovaru","urban":"Balane","postal_code":94362}]