[{"province":"Sulawesi Tengah","city":"Sigi","district":"Sigi Biromaru","urban":"Watunonju","postal_code":94364},{"province":"Sulawesi Tengah","city":"Sigi","district":"Gumbasa","urban":"Tuva (Tuwa)","postal_code":94364},{"province":"Sulawesi Tengah","city":"Sigi","district":"Palolo","urban":"Uenuni","postal_code":94364},{"province":"Sulawesi Tengah","city":"Sigi","district":"Palolo","urban":"Tanah Harapan","postal_code":94364},{"province":"Sulawesi Tengah","city":"Sigi","district":"Palolo","urban":"Tongoa","postal_code":94364},{"province":"Sulawesi Tengah","city":"Sigi","district":"Sigi Biromaru","urban":"Soulowe","postal_code":94364},{"province":"Sulawesi Tengah","city":"Sigi","district":"Nokilalaki","urban":"Sopu","postal_code":94364},{"province":"Sulawesi Tengah","city":"Sigi","district":"Palolo","urban":"Sintuwu","postal_code":94364},{"province":"Sulawesi Tengah","city":"Sigi","district":"Gumbasa","urban":"Simoro","postal_code":94364},{"province":"Sulawesi Tengah","city":"Sigi","district":"Palolo","urban":"Sigimpu","postal_code":94364},{"province":"Sulawesi Tengah","city":"Sigi","district":"Sigi Biromaru","urban":"Sidondo IV","postal_code":94364},{"province":"Sulawesi Tengah","city":"Sigi","district":"Sigi Biromaru","urban":"Sidondo II","postal_code":94364},{"province":"Sulawesi Tengah","city":"Sigi","district":"Sigi Biromaru","urban":"Sidondo III","postal_code":94364},{"province":"Sulawesi Tengah","city":"Sigi","district":"Sigi Biromaru","urban":"Sidondo I","postal_code":94364},{"province":"Sulawesi Tengah","city":"Sigi","district":"Sigi Biromaru","urban":"Sidera","postal_code":94364},{"province":"Sulawesi Tengah","city":"Sigi","district":"Tanambulava","urban":"Sibalaya Utara","postal_code":94364},{"province":"Sulawesi Tengah","city":"Sigi","district":"Tanambulava","urban":"Sibowi","postal_code":94364},{"province":"Sulawesi Tengah","city":"Sigi","district":"Palolo","urban":"Rejeki","postal_code":94364},{"province":"Sulawesi Tengah","city":"Sigi","district":"Palolo","urban":"Sejahtera","postal_code":94364},{"province":"Sulawesi Tengah","city":"Sigi","district":"Tanambulava","urban":"Sibalaya Selatan","postal_code":94364},{"province":"Sulawesi Tengah","city":"Sigi","district":"Palolo","urban":"Rahmat","postal_code":94364},{"province":"Sulawesi Tengah","city":"Sigi","district":"Palolo","urban":"Rantelede (Ranteleda)","postal_code":94364},{"province":"Sulawesi Tengah","city":"Sigi","district":"Palolo","urban":"Petimbe","postal_code":94364},{"province":"Sulawesi Tengah","city":"Sigi","district":"Sigi Biromaru","urban":"Pombewe","postal_code":94364},{"province":"Sulawesi Tengah","city":"Sigi","district":"Gumbasa","urban":"Omu","postal_code":94364},{"province":"Sulawesi Tengah","city":"Sigi","district":"Gumbasa","urban":"Pakuli","postal_code":94364},{"province":"Sulawesi Tengah","city":"Sigi","district":"Gumbasa","urban":"Pandere","postal_code":94364},{"province":"Sulawesi Tengah","city":"Sigi","district":"Sigi Biromaru","urban":"Olobuju","postal_code":94364},{"province":"Sulawesi Tengah","city":"Sigi","district":"Sigi Biromaru","urban":"Mpanau","postal_code":94364},{"province":"Sulawesi Tengah","city":"Sigi","district":"Sigi Biromaru","urban":"Ngatabaru","postal_code":94364},{"province":"Sulawesi Tengah","city":"Sigi","district":"Palolo","urban":"Makmur","postal_code":94364},{"province":"Sulawesi Tengah","city":"Sigi","district":"Sigi Biromaru","urban":"Maranatha","postal_code":94364},{"province":"Sulawesi Tengah","city":"Sigi","district":"Sigi Biromaru","urban":"Lolu","postal_code":94364},{"province":"Sulawesi Tengah","city":"Sigi","district":"Palolo","urban":"Lemban Tongoa","postal_code":94364},{"province":"Sulawesi Tengah","city":"Sigi","district":"Sigi Biromaru","urban":"Loru","postal_code":94364},{"province":"Sulawesi Tengah","city":"Sigi","district":"Tanambulava","urban":"Lambara","postal_code":94364},{"province":"Sulawesi Tengah","city":"Sigi","district":"Palolo","urban":"Kapiroe","postal_code":94364},{"province":"Sulawesi Tengah","city":"Sigi","district":"Nokilalaki","urban":"Kamarora B","postal_code":94364},{"province":"Sulawesi Tengah","city":"Sigi","district":"Gumbasa","urban":"Kalawara","postal_code":94364},{"province":"Sulawesi Tengah","city":"Sigi","district":"Sigi Biromaru","urban":"Kalukubula","postal_code":94364},{"province":"Sulawesi Tengah","city":"Sigi","district":"Nokilalaki","urban":"Kamarora A","postal_code":94364},{"province":"Sulawesi Tengah","city":"Sigi","district":"Sigi Biromaru","urban":"Jono Oge","postal_code":94364},{"province":"Sulawesi Tengah","city":"Sigi","district":"Palolo","urban":"Bunga","postal_code":94364},{"province":"Sulawesi Tengah","city":"Sigi","district":"Nokilalaki","urban":"Kadidia","postal_code":94364},{"province":"Sulawesi Tengah","city":"Sigi","district":"Nokilalaki","urban":"Bulili","postal_code":94364},{"province":"Sulawesi Tengah","city":"Sigi","district":"Sigi Biromaru","urban":"Bora","postal_code":94364},{"province":"Sulawesi Tengah","city":"Sigi","district":"Palolo","urban":"Bobo","postal_code":94364},{"province":"Sulawesi Tengah","city":"Sigi","district":"Palolo","urban":"Bahagia","postal_code":94364},{"province":"Sulawesi Tengah","city":"Sigi","district":"Palolo","urban":"Baku-Bakulu","postal_code":94364},{"province":"Sulawesi Tengah","city":"Sigi","district":"Palolo","urban":"Berdikari","postal_code":94364},{"province":"Sulawesi Tengah","city":"Sigi","district":"Palolo","urban":"Ampera","postal_code":94364}]