[{"province":"Sulawesi Tengah","city":"Parigi Moutong","district":"Tinombo","urban":"Tinombo","postal_code":94475},{"province":"Sulawesi Tengah","city":"Parigi Moutong","district":"Tinombo","urban":"Tibu","postal_code":94475},{"province":"Sulawesi Tengah","city":"Parigi Moutong","district":"Tinombo Selatan","urban":"Tada Timur","postal_code":94475},{"province":"Sulawesi Tengah","city":"Parigi Moutong","district":"Tinombo Selatan","urban":"Tada Utara","postal_code":94475},{"province":"Sulawesi Tengah","city":"Parigi Moutong","district":"Tinombo Selatan","urban":"Tada","postal_code":94475},{"province":"Sulawesi Tengah","city":"Parigi Moutong","district":"Tinombo Selatan","urban":"Tada Selatan","postal_code":94475},{"province":"Sulawesi Tengah","city":"Parigi Moutong","district":"Tinombo","urban":"Sintuwu Raya","postal_code":94475},{"province":"Sulawesi Tengah","city":"Parigi Moutong","district":"Tinombo","urban":"Sipayo","postal_code":94475},{"province":"Sulawesi Tengah","city":"Parigi Moutong","district":"Tinombo Selatan","urban":"Sinei","postal_code":94475},{"province":"Sulawesi Tengah","city":"Parigi Moutong","district":"Tinombo Selatan","urban":"Siney Tengah","postal_code":94475},{"province":"Sulawesi Tengah","city":"Parigi Moutong","district":"Tinombo","urban":"Silabia","postal_code":94475},{"province":"Sulawesi Tengah","city":"Parigi Moutong","district":"Tinombo Selatan","urban":"Sigenti Selatan","postal_code":94475},{"province":"Sulawesi Tengah","city":"Parigi Moutong","district":"Tinombo Selatan","urban":"Silutung","postal_code":94475},{"province":"Sulawesi Tengah","city":"Parigi Moutong","district":"Tinombo Selatan","urban":"Sigenti Barat","postal_code":94475},{"province":"Sulawesi Tengah","city":"Parigi Moutong","district":"Tinombo Selatan","urban":"Sigenti Bersehati","postal_code":94475},{"province":"Sulawesi Tengah","city":"Parigi Moutong","district":"Tinombo Selatan","urban":"Sigenti","postal_code":94475},{"province":"Sulawesi Tengah","city":"Parigi Moutong","district":"Tinombo","urban":"Sidoan Timur","postal_code":94475},{"province":"Sulawesi Tengah","city":"Parigi Moutong","district":"Tinombo","urban":"Sidoan Barat","postal_code":94475},{"province":"Sulawesi Tengah","city":"Parigi Moutong","district":"Tinombo","urban":"Sidoan Selatan","postal_code":94475},{"province":"Sulawesi Tengah","city":"Parigi Moutong","district":"Tinombo","urban":"Sidoan","postal_code":94475},{"province":"Sulawesi Tengah","city":"Parigi Moutong","district":"Tinombo","urban":"Siavu","postal_code":94475},{"province":"Sulawesi Tengah","city":"Parigi Moutong","district":"Tinombo Selatan","urban":"Siaga","postal_code":94475},{"province":"Sulawesi Tengah","city":"Parigi Moutong","district":"Tinombo Selatan","urban":"Polly","postal_code":94475},{"province":"Sulawesi Tengah","city":"Parigi Moutong","district":"Tinombo","urban":"Ogobagis","postal_code":94475},{"province":"Sulawesi Tengah","city":"Parigi Moutong","district":"Tinombo","urban":"Patingke","postal_code":94475},{"province":"Sulawesi Tengah","city":"Parigi Moutong","district":"Tinombo","urban":"Muara Jaya","postal_code":94475},{"province":"Sulawesi Tengah","city":"Parigi Moutong","district":"Tinombo","urban":"Ogoalas","postal_code":94475},{"province":"Sulawesi Tengah","city":"Parigi Moutong","district":"Tinombo Selatan","urban":"Maninili","postal_code":94475},{"province":"Sulawesi Tengah","city":"Parigi Moutong","district":"Tinombo Selatan","urban":"Maninili Barat","postal_code":94475},{"province":"Sulawesi Tengah","city":"Parigi Moutong","district":"Tinombo Selatan","urban":"Maninili Utara","postal_code":94475},{"province":"Sulawesi Tengah","city":"Parigi Moutong","district":"Tinombo Selatan","urban":"Malanggo (Malggo)","postal_code":94475},{"province":"Sulawesi Tengah","city":"Parigi Moutong","district":"Tinombo Selatan","urban":"Malanggo Pesisir","postal_code":94475},{"province":"Sulawesi Tengah","city":"Parigi Moutong","district":"Tinombo","urban":"Lombok","postal_code":94475},{"province":"Sulawesi Tengah","city":"Parigi Moutong","district":"Tinombo","urban":"Lombok Barat","postal_code":94475},{"province":"Sulawesi Tengah","city":"Parigi Moutong","district":"Tinombo","urban":"Lado","postal_code":94475},{"province":"Sulawesi Tengah","city":"Parigi Moutong","district":"Tinombo Selatan","urban":"Khatulistiwa","postal_code":94475},{"province":"Sulawesi Tengah","city":"Parigi Moutong","district":"Tinombo","urban":"Dusunan","postal_code":94475},{"province":"Sulawesi Tengah","city":"Parigi Moutong","district":"Tinombo","urban":"Dusunan Barat","postal_code":94475},{"province":"Sulawesi Tengah","city":"Parigi Moutong","district":"Tinombo","urban":"Bondoyong","postal_code":94475},{"province":"Sulawesi Tengah","city":"Parigi Moutong","district":"Tinombo","urban":"Dongkas","postal_code":94475},{"province":"Sulawesi Tengah","city":"Parigi Moutong","district":"Tinombo","urban":"Bainaa Selatan","postal_code":94475},{"province":"Sulawesi Tengah","city":"Parigi Moutong","district":"Tinombo","urban":"Bainaa","postal_code":94475},{"province":"Sulawesi Tengah","city":"Parigi Moutong","district":"Tinombo","urban":"Bainaa Barat","postal_code":94475},{"province":"Sulawesi Tengah","city":"Parigi Moutong","district":"Tinombo","urban":"Ambason Mekar","postal_code":94475}]