[{"province":"Sulawesi Tengah","city":"Parigi Moutong","district":"Bolano","urban":"Wanamukti Barat","postal_code":94479},{"province":"Sulawesi Tengah","city":"Parigi Moutong","district":"Bolano","urban":"Wanamukti Utara","postal_code":94479},{"province":"Sulawesi Tengah","city":"Parigi Moutong","district":"Bolano","urban":"Wanamukti","postal_code":94479},{"province":"Sulawesi Tengah","city":"Parigi Moutong","district":"Bolano Lambunu/Lambulu","urban":"Wanagading","postal_code":94479},{"province":"Sulawesi Tengah","city":"Parigi Moutong","district":"Taopa","urban":"Tuladenggi Sibatang","postal_code":94479},{"province":"Sulawesi Tengah","city":"Parigi Moutong","district":"Moutong","urban":"Tuladenggi Pantai","postal_code":94479},{"province":"Sulawesi Tengah","city":"Parigi Moutong","district":"Taopa","urban":"Tompo","postal_code":94479},{"province":"Sulawesi Tengah","city":"Parigi Moutong","district":"Bolano Lambunu/Lambulu","urban":"Tirtanagaya","postal_code":94479},{"province":"Sulawesi Tengah","city":"Parigi Moutong","district":"Ongka Malino","urban":"Tinombala Barat","postal_code":94479},{"province":"Sulawesi Tengah","city":"Parigi Moutong","district":"Ongka Malino","urban":"Tinombala Jaya","postal_code":94479},{"province":"Sulawesi Tengah","city":"Parigi Moutong","district":"Ongka Malino","urban":"Tinombala Sejati","postal_code":94479},{"province":"Sulawesi Tengah","city":"Parigi Moutong","district":"Ongka Malino","urban":"Tinombala","postal_code":94479},{"province":"Sulawesi Tengah","city":"Parigi Moutong","district":"Taopa","urban":"Taopa","postal_code":94479},{"province":"Sulawesi Tengah","city":"Parigi Moutong","district":"Taopa","urban":"Taopa Barat","postal_code":94479},{"province":"Sulawesi Tengah","city":"Parigi Moutong","district":"Taopa","urban":"Taopa Utara","postal_code":94479},{"province":"Sulawesi Tengah","city":"Parigi Moutong","district":"Bolano","urban":"Sritabaang","postal_code":94479},{"province":"Sulawesi Tengah","city":"Parigi Moutong","district":"Ongka Malino","urban":"Tabolobolo","postal_code":94479},{"province":"Sulawesi Tengah","city":"Parigi Moutong","district":"Bolano Lambunu/Lambulu","urban":"Siendeng","postal_code":94479},{"province":"Sulawesi Tengah","city":"Parigi Moutong","district":"Bolano","urban":"Sidomukti","postal_code":94479},{"province":"Sulawesi Tengah","city":"Parigi Moutong","district":"Moutong","urban":"Sejoli","postal_code":94479},{"province":"Sulawesi Tengah","city":"Parigi Moutong","district":"Ongka Malino","urban":"Santigi","postal_code":94479},{"province":"Sulawesi Tengah","city":"Parigi Moutong","district":"Moutong","urban":"Salepae","postal_code":94479},{"province":"Sulawesi Tengah","city":"Parigi Moutong","district":"Moutong","urban":"Salum Pengut","postal_code":94479},{"province":"Sulawesi Tengah","city":"Parigi Moutong","district":"Bolano Lambunu/Lambulu","urban":"Petunasugi","postal_code":94479},{"province":"Sulawesi Tengah","city":"Parigi Moutong","district":"Ongka Malino","urban":"Persatuan Utara","postal_code":94479},{"province":"Sulawesi Tengah","city":"Parigi Moutong","district":"Moutong","urban":"Pandelalap (Lalap)","postal_code":94479},{"province":"Sulawesi Tengah","city":"Parigi Moutong","district":"Ongka Malino","urban":"Persatuan Sejati","postal_code":94479},{"province":"Sulawesi Tengah","city":"Parigi Moutong","district":"Taopa","urban":"Paria","postal_code":94479},{"province":"Sulawesi Tengah","city":"Parigi Moutong","district":"Taopa","urban":"Palapi","postal_code":94479},{"province":"Sulawesi Tengah","city":"Parigi Moutong","district":"Moutong","urban":"Pande","postal_code":94479},{"province":"Sulawesi Tengah","city":"Parigi Moutong","district":"Moutong","urban":"Olonggata","postal_code":94479},{"province":"Sulawesi Tengah","city":"Parigi Moutong","district":"Ongka Malino","urban":"Ongka","postal_code":94479},{"province":"Sulawesi Tengah","city":"Parigi Moutong","district":"Ongka Malino","urban":"Ongka Trimuspasari","postal_code":94479},{"province":"Sulawesi Tengah","city":"Parigi Moutong","district":"Mepanga","urban":"Ogomolos","postal_code":94479},{"province":"Sulawesi Tengah","city":"Parigi Moutong","district":"Bolano Lambunu/Lambulu","urban":"Ogorandu","postal_code":94479},{"province":"Sulawesi Tengah","city":"Parigi Moutong","district":"Moutong","urban":"Moutong Timur","postal_code":94479},{"province":"Sulawesi Tengah","city":"Parigi Moutong","district":"Moutong","urban":"Moutong Utara","postal_code":94479},{"province":"Sulawesi Tengah","city":"Parigi Moutong","district":"Taopa","urban":"Nunurantai","postal_code":94479},{"province":"Sulawesi Tengah","city":"Parigi Moutong","district":"Moutong","urban":"Mbelang Mbelang","postal_code":94479},{"province":"Sulawesi Tengah","city":"Parigi Moutong","district":"Moutong","urban":"Moutong Barat","postal_code":94479},{"province":"Sulawesi Tengah","city":"Parigi Moutong","district":"Moutong","urban":"Moutong Tengah","postal_code":94479},{"province":"Sulawesi Tengah","city":"Parigi Moutong","district":"Bolano Lambunu/Lambulu","urban":"Margapura","postal_code":94479},{"province":"Sulawesi Tengah","city":"Parigi Moutong","district":"Ongka Malino","urban":"Malino","postal_code":94479},{"province":"Sulawesi Tengah","city":"Parigi Moutong","district":"Mepanga","urban":"Maranti","postal_code":94479},{"province":"Sulawesi Tengah","city":"Parigi Moutong","district":"Moutong","urban":"Lobu","postal_code":94479},{"province":"Sulawesi Tengah","city":"Parigi Moutong","district":"Mepanga","urban":"Malalan","postal_code":94479},{"province":"Sulawesi Tengah","city":"Parigi Moutong","district":"Bolano","urban":"Lembah Bomban","postal_code":94479},{"province":"Sulawesi Tengah","city":"Parigi Moutong","district":"Bolano Lambunu/Lambulu","urban":"Lambunu Timur","postal_code":94479},{"province":"Sulawesi Tengah","city":"Parigi Moutong","district":"Bolano Lambunu/Lambulu","urban":"Lambunu Utara","postal_code":94479},{"province":"Sulawesi Tengah","city":"Parigi Moutong","district":"Bolano Lambunu/Lambulu","urban":"Lambunu","postal_code":94479},{"province":"Sulawesi Tengah","city":"Parigi Moutong","district":"Ongka Malino","urban":"Lambanau","postal_code":94479},{"province":"Sulawesi Tengah","city":"Parigi Moutong","district":"Moutong","urban":"Labuan","postal_code":94479},{"province":"Sulawesi Tengah","city":"Parigi Moutong","district":"Bolano Lambunu/Lambulu","urban":"Kotanagaya","postal_code":94479},{"province":"Sulawesi Tengah","city":"Parigi Moutong","district":"Mepanga","urban":"Kotaraya Barat","postal_code":94479},{"province":"Sulawesi Tengah","city":"Parigi Moutong","district":"Ongka Malino","urban":"Karya Mandiri","postal_code":94479},{"province":"Sulawesi Tengah","city":"Parigi Moutong","district":"Ongka Malino","urban":"Kayu Jati","postal_code":94479},{"province":"Sulawesi Tengah","city":"Parigi Moutong","district":"Mepanga","urban":"Kota Raya Selatan","postal_code":94479},{"province":"Sulawesi Tengah","city":"Parigi Moutong","district":"Taopa","urban":"Karya Abadi","postal_code":94479},{"province":"Sulawesi Tengah","city":"Parigi Moutong","district":"Taopa","urban":"Karya Agung","postal_code":94479},{"province":"Sulawesi Tengah","city":"Parigi Moutong","district":"Moutong","urban":"Gio","postal_code":94479},{"province":"Sulawesi Tengah","city":"Parigi Moutong","district":"Bolano Lambunu/Lambulu","urban":"Gunungsari","postal_code":94479},{"province":"Sulawesi Tengah","city":"Parigi Moutong","district":"Bolano Lambunu/Lambulu","urban":"Bukit Makmur","postal_code":94479},{"province":"Sulawesi Tengah","city":"Parigi Moutong","district":"Bolano Lambunu/Lambulu","urban":"Ganongol Sari","postal_code":94479},{"province":"Sulawesi Tengah","city":"Parigi Moutong","district":"Moutong","urban":"Bolaung Olonggata","postal_code":94479},{"province":"Sulawesi Tengah","city":"Parigi Moutong","district":"Ongka Malino","urban":"Bosagon Jaya","postal_code":94479},{"province":"Sulawesi Tengah","city":"Parigi Moutong","district":"Bolano","urban":"Bolano Tengah","postal_code":94479},{"province":"Sulawesi Tengah","city":"Parigi Moutong","district":"Bolano","urban":"Bolano Utara","postal_code":94479},{"province":"Sulawesi Tengah","city":"Parigi Moutong","district":"Bolano","urban":"Bolano","postal_code":94479},{"province":"Sulawesi Tengah","city":"Parigi Moutong","district":"Bolano","urban":"Bolano Barat","postal_code":94479},{"province":"Sulawesi Tengah","city":"Parigi Moutong","district":"Taopa","urban":"Bilalea","postal_code":94479},{"province":"Sulawesi Tengah","city":"Parigi Moutong","district":"Bolano","urban":"Beringin Jaya","postal_code":94479},{"province":"Sulawesi Tengah","city":"Parigi Moutong","district":"Bolano","urban":"Bajo","postal_code":94479},{"province":"Sulawesi Tengah","city":"Parigi Moutong","district":"Bolano Lambunu/Lambulu","urban":"Anutapura","postal_code":94479},{"province":"Sulawesi Tengah","city":"Parigi Moutong","district":"Moutong","urban":"Aedan Raya","postal_code":94479}]