[{"province":"Sulawesi Tengah","city":"Parigi Moutong","district":"Balinggi","urban":"Tumpapa Indah","postal_code":94473},{"province":"Sulawesi Tengah","city":"Parigi Moutong","district":"Torue","urban":"Tolai Barat","postal_code":94473},{"province":"Sulawesi Tengah","city":"Parigi Moutong","district":"Torue","urban":"Tolai Timur","postal_code":94473},{"province":"Sulawesi Tengah","city":"Parigi Moutong","district":"Torue","urban":"Torue","postal_code":94473},{"province":"Sulawesi Tengah","city":"Parigi Moutong","district":"Torue","urban":"Tanah Lanto","postal_code":94473},{"province":"Sulawesi Tengah","city":"Parigi Moutong","district":"Torue","urban":"Tolai","postal_code":94473},{"province":"Sulawesi Tengah","city":"Parigi Moutong","district":"Balinggi","urban":"Suli","postal_code":94473},{"province":"Sulawesi Tengah","city":"Parigi Moutong","district":"Balinggi","urban":"Suli Indah","postal_code":94473},{"province":"Sulawesi Tengah","city":"Parigi Moutong","district":"Sausu","urban":"Sausu Torono","postal_code":94473},{"province":"Sulawesi Tengah","city":"Parigi Moutong","district":"Sausu","urban":"Sausu Trans","postal_code":94473},{"province":"Sulawesi Tengah","city":"Parigi Moutong","district":"Sausu","urban":"Sausu Taliabo","postal_code":94473},{"province":"Sulawesi Tengah","city":"Parigi Moutong","district":"Sausu","urban":"Sausu Tambu","postal_code":94473},{"province":"Sulawesi Tengah","city":"Parigi Moutong","district":"Sausu","urban":"Sausu Piore","postal_code":94473},{"province":"Sulawesi Tengah","city":"Parigi Moutong","district":"Sausu","urban":"Sausu Salubanga","postal_code":94473},{"province":"Sulawesi Tengah","city":"Parigi Moutong","district":"Sausu","urban":"Sausu Auma","postal_code":94473},{"province":"Sulawesi Tengah","city":"Parigi Moutong","district":"Sausu","urban":"Sausu Gandasari","postal_code":94473},{"province":"Sulawesi Tengah","city":"Parigi Moutong","district":"Sausu","urban":"Sausu Pakareme","postal_code":94473},{"province":"Sulawesi Tengah","city":"Parigi Moutong","district":"Torue","urban":"Purwosari","postal_code":94473},{"province":"Sulawesi Tengah","city":"Parigi Moutong","district":"Balinggi","urban":"Malakosa","postal_code":94473},{"province":"Sulawesi Tengah","city":"Parigi Moutong","district":"Sausu","urban":"Maleali (Maleyali)","postal_code":94473},{"province":"Sulawesi Tengah","city":"Parigi Moutong","district":"Balinggi","urban":"Beraban","postal_code":94473},{"province":"Sulawesi Tengah","city":"Parigi Moutong","district":"Balinggi","urban":"Lebagu","postal_code":94473},{"province":"Sulawesi Tengah","city":"Parigi Moutong","district":"Balinggi","urban":"Balinggi","postal_code":94473},{"province":"Sulawesi Tengah","city":"Parigi Moutong","district":"Balinggi","urban":"Balinggi Jati","postal_code":94473},{"province":"Sulawesi Tengah","city":"Parigi Moutong","district":"Torue","urban":"Astina","postal_code":94473}]