[{"province":"Sulawesi Tengah","city":"Parigi Moutong","district":"Siniu","urban":"Towera","postal_code":94474},{"province":"Sulawesi Tengah","city":"Parigi Moutong","district":"Siniu","urban":"Uevolo","postal_code":94474},{"province":"Sulawesi Tengah","city":"Parigi Moutong","district":"Toribulu","urban":"Toribulu","postal_code":94474},{"province":"Sulawesi Tengah","city":"Parigi Moutong","district":"Toribulu","urban":"Toribulu Selatan","postal_code":94474},{"province":"Sulawesi Tengah","city":"Parigi Moutong","district":"Toribulu","urban":"Tomoli","postal_code":94474},{"province":"Sulawesi Tengah","city":"Parigi Moutong","district":"Toribulu","urban":"Tomoli Utara","postal_code":94474},{"province":"Sulawesi Tengah","city":"Parigi Moutong","district":"Siniu","urban":"Toraranga","postal_code":94474},{"province":"Sulawesi Tengah","city":"Parigi Moutong","district":"Toribulu","urban":"Tomili Selatan","postal_code":94474},{"province":"Sulawesi Tengah","city":"Parigi Moutong","district":"Ampibabo","urban":"Tombi","postal_code":94474},{"province":"Sulawesi Tengah","city":"Parigi Moutong","district":"Ampibabo","urban":"Tolole","postal_code":94474},{"province":"Sulawesi Tengah","city":"Parigi Moutong","district":"Ampibabo","urban":"Tolole Raya","postal_code":94474},{"province":"Sulawesi Tengah","city":"Parigi Moutong","district":"Kasimbar","urban":"Tavalo","postal_code":94474},{"province":"Sulawesi Tengah","city":"Parigi Moutong","district":"Ampibabo","urban":"Toga","postal_code":94474},{"province":"Sulawesi Tengah","city":"Parigi Moutong","district":"Ampibabo","urban":"Tamanpedagi","postal_code":94474},{"province":"Sulawesi Tengah","city":"Parigi Moutong","district":"Siniu","urban":"Tandaigi","postal_code":94474},{"province":"Sulawesi Tengah","city":"Parigi Moutong","district":"Siniu","urban":"Siniu","postal_code":94474},{"province":"Sulawesi Tengah","city":"Parigi Moutong","district":"Siniu","urban":"Siniu Sayogindano","postal_code":94474},{"province":"Sulawesi Tengah","city":"Parigi Moutong","district":"Toribulu","urban":"Singura","postal_code":94474},{"province":"Sulawesi Tengah","city":"Parigi Moutong","district":"Siniu","urban":"Silanga","postal_code":94474},{"province":"Sulawesi Tengah","city":"Parigi Moutong","district":"Toribulu","urban":"Sienjo","postal_code":94474},{"province":"Sulawesi Tengah","city":"Parigi Moutong","district":"Kasimbar","urban":"Silampayang","postal_code":94474},{"province":"Sulawesi Tengah","city":"Parigi Moutong","district":"Ampibabo","urban":"Sidole Barat","postal_code":94474},{"province":"Sulawesi Tengah","city":"Parigi Moutong","district":"Ampibabo","urban":"Sidole Timur","postal_code":94474},{"province":"Sulawesi Tengah","city":"Parigi Moutong","district":"Toribulu","urban":"Sibolago","postal_code":94474},{"province":"Sulawesi Tengah","city":"Parigi Moutong","district":"Ampibabo","urban":"Sidole","postal_code":94474},{"province":"Sulawesi Tengah","city":"Parigi Moutong","district":"Toribulu","urban":"Pinotu","postal_code":94474},{"province":"Sulawesi Tengah","city":"Parigi Moutong","district":"Kasimbar","urban":"Posona","postal_code":94474},{"province":"Sulawesi Tengah","city":"Parigi Moutong","district":"Ampibabo","urban":"Pangku","postal_code":94474},{"province":"Sulawesi Tengah","city":"Parigi Moutong","district":"Ampibabo","urban":"Paranggi","postal_code":94474},{"province":"Sulawesi Tengah","city":"Parigi Moutong","district":"Ampibabo","urban":"Ogolugus","postal_code":94474},{"province":"Sulawesi Tengah","city":"Parigi Moutong","district":"Siniu","urban":"Marantale","postal_code":94474},{"province":"Sulawesi Tengah","city":"Parigi Moutong","district":"Ampibabo","urban":"Lemo Tengah","postal_code":94474},{"province":"Sulawesi Tengah","city":"Parigi Moutong","district":"Ampibabo","urban":"Lemo Utara","postal_code":94474},{"province":"Sulawesi Tengah","city":"Parigi Moutong","district":"Ampibabo","urban":"Lemo","postal_code":94474},{"province":"Sulawesi Tengah","city":"Parigi Moutong","district":"Kasimbar","urban":"Laemanta","postal_code":94474},{"province":"Sulawesi Tengah","city":"Parigi Moutong","district":"Kasimbar","urban":"Kasimbar Palapi","postal_code":94474},{"province":"Sulawesi Tengah","city":"Parigi Moutong","district":"Kasimbar","urban":"Kasimbar Selatan","postal_code":94474},{"province":"Sulawesi Tengah","city":"Parigi Moutong","district":"Kasimbar","urban":"Labuan Donggulu","postal_code":94474},{"province":"Sulawesi Tengah","city":"Parigi Moutong","district":"Kasimbar","urban":"Kasimbar","postal_code":94474},{"province":"Sulawesi Tengah","city":"Parigi Moutong","district":"Kasimbar","urban":"Kasimbar Barat","postal_code":94474},{"province":"Sulawesi Tengah","city":"Parigi Moutong","district":"Kasimbar","urban":"Donggulu Selatan","postal_code":94474},{"province":"Sulawesi Tengah","city":"Parigi Moutong","district":"Kasimbar","urban":"Donggulu","postal_code":94474},{"province":"Sulawesi Tengah","city":"Parigi Moutong","district":"Ampibabo","urban":"Buranga","postal_code":94474},{"province":"Sulawesi Tengah","city":"Parigi Moutong","district":"Ampibabo","urban":"Ampibabo Utara","postal_code":94474},{"province":"Sulawesi Tengah","city":"Parigi Moutong","district":"Ampibabo","urban":"Ampibabo Timur","postal_code":94474},{"province":"Sulawesi Tengah","city":"Parigi Moutong","district":"Ampibabo","urban":"Aloo","postal_code":94474},{"province":"Sulawesi Tengah","city":"Parigi Moutong","district":"Ampibabo","urban":"Ampibabo","postal_code":94474}]