[{"province":"Sulawesi Tengah","city":"Parigi Moutong","district":"Palasa","urban":"Ulatan","postal_code":94476},{"province":"Sulawesi Tengah","city":"Parigi Moutong","district":"Tomini","urban":"Tomini Barat","postal_code":94476},{"province":"Sulawesi Tengah","city":"Parigi Moutong","district":"Tomini","urban":"Tomini Utara","postal_code":94476},{"province":"Sulawesi Tengah","city":"Parigi Moutong","district":"Tomini","urban":"Tomini","postal_code":94476},{"province":"Sulawesi Tengah","city":"Parigi Moutong","district":"Tomini","urban":"Supilopong","postal_code":94476},{"province":"Sulawesi Tengah","city":"Parigi Moutong","district":"Tomini","urban":"Tilung","postal_code":94476},{"province":"Sulawesi Tengah","city":"Parigi Moutong","district":"Tomini","urban":"Tingkulang","postal_code":94476},{"province":"Sulawesi Tengah","city":"Parigi Moutong","district":"Mepanga","urban":"Sumber Agung","postal_code":94476},{"province":"Sulawesi Tengah","city":"Parigi Moutong","district":"Palasa","urban":"Pebounang","postal_code":94476},{"province":"Sulawesi Tengah","city":"Parigi Moutong","district":"Palasa","urban":"Palasa Lambori","postal_code":94476},{"province":"Sulawesi Tengah","city":"Parigi Moutong","district":"Palasa","urban":"Palasa Tangki","postal_code":94476},{"province":"Sulawesi Tengah","city":"Parigi Moutong","district":"Tomini","urban":"Ogotomubu (Ogotumubu)","postal_code":94476},{"province":"Sulawesi Tengah","city":"Parigi Moutong","district":"Palasa","urban":"Palasa","postal_code":94476},{"province":"Sulawesi Tengah","city":"Parigi Moutong","district":"Mepanga","urban":"Ogobayas","postal_code":94476},{"province":"Sulawesi Tengah","city":"Parigi Moutong","district":"Mepanga","urban":"Ogotion","postal_code":94476},{"province":"Sulawesi Tengah","city":"Parigi Moutong","district":"Mepanga","urban":"Mensung","postal_code":94476},{"province":"Sulawesi Tengah","city":"Parigi Moutong","district":"Mepanga","urban":"Mepanga","postal_code":94476},{"province":"Sulawesi Tengah","city":"Parigi Moutong","district":"Mepanga","urban":"Moubang","postal_code":94476},{"province":"Sulawesi Tengah","city":"Parigi Moutong","district":"Mepanga","urban":"Kotaraya","postal_code":94476},{"province":"Sulawesi Tengah","city":"Parigi Moutong","district":"Mepanga","urban":"Kotaraya Timur","postal_code":94476},{"province":"Sulawesi Tengah","city":"Parigi Moutong","district":"Mepanga","urban":"Kayu Agung","postal_code":94476},{"province":"Sulawesi Tengah","city":"Parigi Moutong","district":"Palasa","urban":"Eeya","postal_code":94476},{"province":"Sulawesi Tengah","city":"Parigi Moutong","district":"Mepanga","urban":"Bugis","postal_code":94476},{"province":"Sulawesi Tengah","city":"Parigi Moutong","district":"Palasa","urban":"Dongkalan","postal_code":94476},{"province":"Sulawesi Tengah","city":"Parigi Moutong","district":"Palasa","urban":"Bobalo","postal_code":94476},{"province":"Sulawesi Tengah","city":"Parigi Moutong","district":"Tomini","urban":"Biga","postal_code":94476},{"province":"Sulawesi Tengah","city":"Parigi Moutong","district":"Palasa","urban":"Bambasiang","postal_code":94476},{"province":"Sulawesi Tengah","city":"Parigi Moutong","district":"Tomini","urban":"Ambesia Selatan","postal_code":94476},{"province":"Sulawesi Tengah","city":"Parigi Moutong","district":"Tomini","urban":"Ambesia","postal_code":94476},{"province":"Sulawesi Tengah","city":"Parigi Moutong","district":"Tomini","urban":"Ambesia Barat","postal_code":94476}]