[{"province":"Sulawesi Tengah","city":"Parigi Moutong","district":"Parigi Utara","urban":"Toboli Barat","postal_code":94471},{"province":"Sulawesi Tengah","city":"Parigi Moutong","district":"Parigi Selatan","urban":"Tindaki","postal_code":94471},{"province":"Sulawesi Tengah","city":"Parigi Moutong","district":"Parigi Utara","urban":"Toboli","postal_code":94471},{"province":"Sulawesi Tengah","city":"Parigi Moutong","district":"Parigi Selatan","urban":"Sumber Sari","postal_code":94471},{"province":"Sulawesi Tengah","city":"Parigi Moutong","district":"Parigi","urban":"Pombalowo (Pembalowo)","postal_code":94471},{"province":"Sulawesi Tengah","city":"Parigi Moutong","district":"Parigi Utara","urban":"Sakina Jaya","postal_code":94471},{"province":"Sulawesi Tengah","city":"Parigi Moutong","district":"Parigi Tengah","urban":"Petapa","postal_code":94471},{"province":"Sulawesi Tengah","city":"Parigi Moutong","district":"Parigi Tengah","urban":"Pelawa Baru","postal_code":94471},{"province":"Sulawesi Tengah","city":"Parigi Moutong","district":"Parigi Tengah","urban":"Pelawa","postal_code":94471},{"province":"Sulawesi Tengah","city":"Parigi Moutong","district":"Parigi Barat","urban":"Parigimpu&#8217;u","postal_code":94471},{"province":"Sulawesi Tengah","city":"Parigi Moutong","district":"Parigi Utara","urban":"Pangi","postal_code":94471},{"province":"Sulawesi Tengah","city":"Parigi Moutong","district":"Parigi","urban":"Parigimpu","postal_code":94471},{"province":"Sulawesi Tengah","city":"Parigi Moutong","district":"Parigi Selatan","urban":"Olobaru","postal_code":94471},{"province":"Sulawesi Tengah","city":"Parigi Moutong","district":"Parigi","urban":"Olaya","postal_code":94471},{"province":"Sulawesi Tengah","city":"Parigi Moutong","district":"Parigi Tengah","urban":"Matolele","postal_code":94471},{"province":"Sulawesi Tengah","city":"Parigi Moutong","district":"Parigi Selatan","urban":"Nambaru","postal_code":94471},{"province":"Sulawesi Tengah","city":"Parigi Moutong","district":"Parigi","urban":"Mertasari","postal_code":94471},{"province":"Sulawesi Tengah","city":"Parigi Moutong","district":"Parigi Selatan","urban":"Masari","postal_code":94471},{"province":"Sulawesi Tengah","city":"Parigi Moutong","district":"Parigi","urban":"Masigi","postal_code":94471},{"province":"Sulawesi Tengah","city":"Parigi Moutong","district":"Parigi","urban":"Loji","postal_code":94471},{"province":"Sulawesi Tengah","city":"Parigi Moutong","district":"Parigi","urban":"Maesa","postal_code":94471},{"province":"Sulawesi Tengah","city":"Parigi Moutong","district":"Parigi Selatan","urban":"Lemusa","postal_code":94471},{"province":"Sulawesi Tengah","city":"Parigi Moutong","district":"Parigi Barat","urban":"Lobu Mandiri","postal_code":94471},{"province":"Sulawesi Tengah","city":"Parigi Moutong","district":"Parigi","urban":"Lebo","postal_code":94471},{"province":"Sulawesi Tengah","city":"Parigi Moutong","district":"Parigi Barat","urban":"Kayuboko","postal_code":94471},{"province":"Sulawesi Tengah","city":"Parigi Moutong","district":"Parigi Tengah","urban":"Jononunu","postal_code":94471},{"province":"Sulawesi Tengah","city":"Parigi Moutong","district":"Parigi","urban":"Kampal","postal_code":94471},{"province":"Sulawesi Tengah","city":"Parigi Moutong","district":"Parigi Barat","urban":"Jono Kalora","postal_code":94471},{"province":"Sulawesi Tengah","city":"Parigi Moutong","district":"Parigi Selatan","urban":"Dolago","postal_code":94471},{"province":"Sulawesi Tengah","city":"Parigi Moutong","district":"Parigi Selatan","urban":"Gangga","postal_code":94471},{"province":"Sulawesi Tengah","city":"Parigi Moutong","district":"Parigi Selatan","urban":"Boyantongo","postal_code":94471},{"province":"Sulawesi Tengah","city":"Parigi Moutong","district":"Parigi Tengah","urban":"Binangga","postal_code":94471},{"province":"Sulawesi Tengah","city":"Parigi Moutong","district":"Parigi","urban":"Bambalemo","postal_code":94471},{"province":"Sulawesi Tengah","city":"Parigi Moutong","district":"Parigi","urban":"Bantaya","postal_code":94471},{"province":"Sulawesi Tengah","city":"Parigi Moutong","district":"Parigi Barat","urban":"Baliara","postal_code":94471},{"province":"Sulawesi Tengah","city":"Parigi Moutong","district":"Parigi Utara","urban":"Avolua","postal_code":94471},{"province":"Sulawesi Tengah","city":"Parigi Moutong","district":"Parigi Barat","urban":"Air Panas","postal_code":94471}]