[{"province":"Sulawesi Tengah","city":"Toli","district":"Ogo Deide","urban":"Pulias","postal_code":94516},{"province":"Sulawesi Tengah","city":"Toli","district":"Ogo Deide","urban":"Sambujan","postal_code":94516},{"province":"Sulawesi Tengah","city":"Toli","district":"Baolan","urban":"Tambun","postal_code":94516},{"province":"Sulawesi Tengah","city":"Toli","district":"Ogo Deide","urban":"Muara Besar","postal_code":94516},{"province":"Sulawesi Tengah","city":"Toli","district":"Ogo Deide","urban":"Pagaitan","postal_code":94516},{"province":"Sulawesi Tengah","city":"Toli","district":"Ogo Deide","urban":"Kamalu","postal_code":94516},{"province":"Sulawesi Tengah","city":"Toli","district":"Ogo Deide","urban":"Labuan Lobo","postal_code":94516},{"province":"Sulawesi Tengah","city":"Toli","district":"Ogo Deide","urban":"Buga","postal_code":94516},{"province":"Sulawesi Tengah","city":"Toli","district":"Ogo Deide","urban":"Kabetan","postal_code":94516},{"province":"Sulawesi Tengah","city":"Toli","district":"Ogo Deide","urban":"Batuilo","postal_code":94516},{"province":"Sulawesi Tengah","city":"Toli","district":"Ogo Deide","urban":"Bilo","postal_code":94516},{"province":"Sulawesi Tengah","city":"Toli","district":"Ogo Deide","urban":"Bambalaga","postal_code":94516}]