[{"province":"Sulawesi Tengah","city":"Toli","district":"Dondo","urban":"Tinabogan","postal_code":94552},{"province":"Sulawesi Tengah","city":"Toli","district":"Basidondo","urban":"Sibaluton","postal_code":94552},{"province":"Sulawesi Tengah","city":"Toli","district":"Basidondo","urban":"Silondou","postal_code":94552},{"province":"Sulawesi Tengah","city":"Toli","district":"Dondo","urban":"Ogowele","postal_code":94552},{"province":"Sulawesi Tengah","city":"Toli","district":"Dondo","urban":"Salumbia","postal_code":94552},{"province":"Sulawesi Tengah","city":"Toli","district":"Basidondo","urban":"Ogosipat","postal_code":94552},{"province":"Sulawesi Tengah","city":"Toli","district":"Dondo","urban":"Ogogili","postal_code":94552},{"province":"Sulawesi Tengah","city":"Toli","district":"Dondo","urban":"Malulu","postal_code":94552},{"province":"Sulawesi Tengah","city":"Toli","district":"Dondo","urban":"Ogogasang","postal_code":94552},{"province":"Sulawesi Tengah","city":"Toli","district":"Dondo","urban":"Malala","postal_code":94552},{"province":"Sulawesi Tengah","city":"Toli","district":"Dondo","urban":"Malomba","postal_code":94552},{"province":"Sulawesi Tengah","city":"Toli","district":"Dondo","urban":"Lais","postal_code":94552},{"province":"Sulawesi Tengah","city":"Toli","district":"Dondo","urban":"Luok Manipi","postal_code":94552},{"province":"Sulawesi Tengah","city":"Toli","district":"Basidondo","urban":"Kongkomos","postal_code":94552},{"province":"Sulawesi Tengah","city":"Toli","district":"Basidondo","urban":"Labonu","postal_code":94552},{"province":"Sulawesi Tengah","city":"Toli","district":"Basidondo","urban":"Kayu Lompa","postal_code":94552},{"province":"Sulawesi Tengah","city":"Toli","district":"Basidondo","urban":"Kinapasan","postal_code":94552},{"province":"Sulawesi Tengah","city":"Toli","district":"Basidondo","urban":"Galandau","postal_code":94552},{"province":"Sulawesi Tengah","city":"Toli","district":"Dondo","urban":"Anggasan","postal_code":94552},{"province":"Sulawesi Tengah","city":"Toli","district":"Dondo","urban":"Bambapun","postal_code":94552}]