[{"province":"Sulawesi Tengah","city":"Buol","district":"Momunu","urban":"Tongon","postal_code":94565},{"province":"Sulawesi Tengah","city":"Buol","district":"Momunu","urban":"Wakat","postal_code":94565},{"province":"Sulawesi Tengah","city":"Buol","district":"Momunu","urban":"Soraya","postal_code":94565},{"province":"Sulawesi Tengah","city":"Buol","district":"Momunu","urban":"Taluan","postal_code":94565},{"province":"Sulawesi Tengah","city":"Buol","district":"Momunu","urban":"Potugu","postal_code":94565},{"province":"Sulawesi Tengah","city":"Buol","district":"Momunu","urban":"Pujimulyo","postal_code":94565},{"province":"Sulawesi Tengah","city":"Buol","district":"Momunu","urban":"Pinamula","postal_code":94565},{"province":"Sulawesi Tengah","city":"Buol","district":"Momunu","urban":"Pomayagon","postal_code":94565},{"province":"Sulawesi Tengah","city":"Buol","district":"Momunu","urban":"Panimbul","postal_code":94565},{"province":"Sulawesi Tengah","city":"Buol","district":"Momunu","urban":"Permata Putih","postal_code":94565},{"province":"Sulawesi Tengah","city":"Buol","district":"Tiloan","urban":"Monggonit","postal_code":94565},{"province":"Sulawesi Tengah","city":"Buol","district":"Tiloan","urban":"Panilan Jaya","postal_code":94565},{"province":"Sulawesi Tengah","city":"Buol","district":"Momunu","urban":"Pajeko","postal_code":94565},{"province":"Sulawesi Tengah","city":"Buol","district":"Tiloan","urban":"Maniala","postal_code":94565},{"province":"Sulawesi Tengah","city":"Buol","district":"Momunu","urban":"Momunu","postal_code":94565},{"province":"Sulawesi Tengah","city":"Buol","district":"Tiloan","urban":"Lomuli","postal_code":94565},{"province":"Sulawesi Tengah","city":"Buol","district":"Momunu","urban":"Mangubi","postal_code":94565},{"province":"Sulawesi Tengah","city":"Buol","district":"Momunu","urban":"Lamadong I","postal_code":94565},{"province":"Sulawesi Tengah","city":"Buol","district":"Momunu","urban":"Lamadong II","postal_code":94565},{"province":"Sulawesi Tengah","city":"Buol","district":"Tiloan","urban":"Jatimulyo","postal_code":94565},{"province":"Sulawesi Tengah","city":"Buol","district":"Tiloan","urban":"Kokobuka","postal_code":94565},{"province":"Sulawesi Tengah","city":"Buol","district":"Tiloan","urban":"Boilan","postal_code":94565},{"province":"Sulawesi Tengah","city":"Buol","district":"Momunu","urban":"Guamonial","postal_code":94565},{"province":"Sulawesi Tengah","city":"Buol","district":"Tiloan","urban":"Airterang","postal_code":94565},{"province":"Sulawesi Tengah","city":"Buol","district":"Tiloan","urban":"Balau","postal_code":94565}]