[{"province":"Sulawesi Tengah","city":"Buol","district":"Bunobogu","urban":"Ponipingan","postal_code":94567},{"province":"Sulawesi Tengah","city":"Buol","district":"Bunobogu","urban":"Tamit","postal_code":94567},{"province":"Sulawesi Tengah","city":"Buol","district":"Bunobogu","urban":"Lonu","postal_code":94567},{"province":"Sulawesi Tengah","city":"Buol","district":"Bunobogu","urban":"Pokobo","postal_code":94567},{"province":"Sulawesi Tengah","city":"Buol","district":"Bunobogu","urban":"Domag Mekar","postal_code":94567},{"province":"Sulawesi Tengah","city":"Buol","district":"Bunobogu","urban":"Inalatan","postal_code":94567},{"province":"Sulawesi Tengah","city":"Buol","district":"Bunobogu","urban":"Kenamukan (Konamukan)","postal_code":94567},{"province":"Sulawesi Tengah","city":"Buol","district":"Bunobogu","urban":"Bunobogu (Bonobogu)","postal_code":94567},{"province":"Sulawesi Tengah","city":"Buol","district":"Bunobogu","urban":"Bunobogu Selatan","postal_code":94567},{"province":"Sulawesi Tengah","city":"Buol","district":"Bunobogu","urban":"Botugolu","postal_code":94567}]