[{"province":"Sulawesi Tengah","city":"Buol","district":"Lakea (Lipunoto)","urban":"Ngune","postal_code":94563},{"province":"Sulawesi Tengah","city":"Buol","district":"Bukal","urban":"Yugut","postal_code":94563},{"province":"Sulawesi Tengah","city":"Buol","district":"Bukal","urban":"Mooyong","postal_code":94563},{"province":"Sulawesi Tengah","city":"Buol","district":"Bukal","urban":"Mulat","postal_code":94563},{"province":"Sulawesi Tengah","city":"Buol","district":"Karamat","urban":"Mokupo","postal_code":94563},{"province":"Sulawesi Tengah","city":"Buol","district":"Karamat","urban":"Monano","postal_code":94563},{"province":"Sulawesi Tengah","city":"Buol","district":"Karamat","urban":"Mendaan","postal_code":94563},{"province":"Sulawesi Tengah","city":"Buol","district":"Lakea (Lipunoto)","urban":"Leok II","postal_code":94563},{"province":"Sulawesi Tengah","city":"Buol","district":"Biau","urban":"Leok II","postal_code":94563},{"province":"Sulawesi Tengah","city":"Buol","district":"Biau","urban":"Leok I","postal_code":94563},{"province":"Sulawesi Tengah","city":"Buol","district":"Lakea (Lipunoto)","urban":"Leok 1","postal_code":94563},{"province":"Sulawesi Tengah","city":"Buol","district":"Karamat","urban":"Lamakan","postal_code":94563},{"province":"Sulawesi Tengah","city":"Buol","district":"Biau","urban":"Kumaligon","postal_code":94563},{"province":"Sulawesi Tengah","city":"Buol","district":"Lakea (Lipunoto)","urban":"Kumaligon","postal_code":94563},{"province":"Sulawesi Tengah","city":"Buol","district":"Biau","urban":"Kulango","postal_code":94563},{"province":"Sulawesi Tengah","city":"Buol","district":"Lakea (Lipunoto)","urban":"Kali","postal_code":94563},{"province":"Sulawesi Tengah","city":"Buol","district":"Biau","urban":"Kali","postal_code":94563},{"province":"Sulawesi Tengah","city":"Buol","district":"Lakea (Lipunoto)","urban":"Ilambe","postal_code":94563},{"province":"Sulawesi Tengah","city":"Buol","district":"Karamat","urban":"Busak I","postal_code":94563},{"province":"Sulawesi Tengah","city":"Buol","district":"Karamat","urban":"Busak II","postal_code":94563},{"province":"Sulawesi Tengah","city":"Buol","district":"Lakea (Lipunoto)","urban":"Buol","postal_code":94563},{"province":"Sulawesi Tengah","city":"Buol","district":"Biau","urban":"Buol","postal_code":94563},{"province":"Sulawesi Tengah","city":"Buol","district":"Bukal","urban":"Bungkudu","postal_code":94563},{"province":"Sulawesi Tengah","city":"Buol","district":"Biau","urban":"Bugis","postal_code":94563},{"province":"Sulawesi Tengah","city":"Buol","district":"Bukal","urban":"Bukal","postal_code":94563},{"province":"Sulawesi Tengah","city":"Buol","district":"Karamat","urban":"Baruga","postal_code":94563},{"province":"Sulawesi Tengah","city":"Buol","district":"Bukal","urban":"Biau","postal_code":94563},{"province":"Sulawesi Tengah","city":"Buol","district":"Bukal","urban":"Binuang","postal_code":94563}]