[{"province":"Sulawesi Tengah","city":"Buol","district":"Paleleh","urban":"Umu","postal_code":94568},{"province":"Sulawesi Tengah","city":"Buol","district":"Paleleh Barat","urban":"Timbulon","postal_code":94568},{"province":"Sulawesi Tengah","city":"Buol","district":"Paleleh","urban":"Tolau","postal_code":94568},{"province":"Sulawesi Tengah","city":"Buol","district":"Paleleh Barat","urban":"Tayokan","postal_code":94568},{"province":"Sulawesi Tengah","city":"Buol","district":"Paleleh","urban":"Talaki","postal_code":94568},{"province":"Sulawesi Tengah","city":"Buol","district":"Gadung","urban":"Pandangan","postal_code":94568},{"province":"Sulawesi Tengah","city":"Buol","district":"Gadung","urban":"Taat","postal_code":94568},{"province":"Sulawesi Tengah","city":"Buol","district":"Paleleh","urban":"Pionoto","postal_code":94568},{"province":"Sulawesi Tengah","city":"Buol","district":"Paleleh Barat","urban":"Oyak","postal_code":94568},{"province":"Sulawesi Tengah","city":"Buol","district":"Paleleh","urban":"Paleleh","postal_code":94568},{"province":"Sulawesi Tengah","city":"Buol","district":"Paleleh","urban":"Mulangato","postal_code":94568},{"province":"Sulawesi Tengah","city":"Buol","district":"Gadung","urban":"Nandu","postal_code":94568},{"province":"Sulawesi Tengah","city":"Buol","district":"Gadung","urban":"Matinan","postal_code":94568},{"province":"Sulawesi Tengah","city":"Buol","district":"Paleleh Barat","urban":"Lunguto","postal_code":94568},{"province":"Sulawesi Tengah","city":"Buol","district":"Paleleh Barat","urban":"Lunguto","postal_code":94568},{"province":"Sulawesi Tengah","city":"Buol","district":"Gadung","urban":"Lipubogu","postal_code":94568},{"province":"Sulawesi Tengah","city":"Buol","district":"Gadung","urban":"Lokodidi","postal_code":94568},{"province":"Sulawesi Tengah","city":"Buol","district":"Paleleh","urban":"Lilito","postal_code":94568},{"province":"Sulawesi Tengah","city":"Buol","district":"Paleleh","urban":"Lintidu","postal_code":94568},{"province":"Sulawesi Tengah","city":"Buol","district":"Gadung","urban":"Labuton","postal_code":94568},{"province":"Sulawesi Tengah","city":"Buol","district":"Paleleh Barat","urban":"Hulubalang","postal_code":94568},{"province":"Sulawesi Tengah","city":"Buol","district":"Paleleh","urban":"Kuala Besar","postal_code":94568},{"province":"Sulawesi Tengah","city":"Buol","district":"Paleleh Barat","urban":"Harmoni","postal_code":94568},{"province":"Sulawesi Tengah","city":"Buol","district":"Paleleh","urban":"Dutuno","postal_code":94568},{"province":"Sulawesi Tengah","city":"Buol","district":"Paleleh","urban":"Dopalak","postal_code":94568},{"province":"Sulawesi Tengah","city":"Buol","district":"Gadung","urban":"Diapatih","postal_code":94568},{"province":"Sulawesi Tengah","city":"Buol","district":"Gadung","urban":"Bulagidun","postal_code":94568},{"province":"Sulawesi Tengah","city":"Buol","district":"Gadung","urban":"Bulagidun Tanjung","postal_code":94568},{"province":"Sulawesi Tengah","city":"Buol","district":"Paleleh Barat","urban":"Bodi","postal_code":94568},{"province":"Sulawesi Tengah","city":"Buol","district":"Paleleh","urban":"Batu Rata","postal_code":94568}]