[{"province":"Sulawesi Tengah","city":"Buol","district":"Bukal","urban":"Winangun","postal_code":94564},{"province":"Sulawesi Tengah","city":"Buol","district":"Bukal","urban":"Unone","postal_code":94564},{"province":"Sulawesi Tengah","city":"Buol","district":"Bokat","urban":"Tang","postal_code":94564},{"province":"Sulawesi Tengah","city":"Buol","district":"Bokat","urban":"Tikopo","postal_code":94564},{"province":"Sulawesi Tengah","city":"Buol","district":"Bukal","urban":"Potangoan","postal_code":94564},{"province":"Sulawesi Tengah","city":"Buol","district":"Bukal","urban":"Rantemaranu","postal_code":94564},{"province":"Sulawesi Tengah","city":"Buol","district":"Bokat","urban":"Negeri Lama","postal_code":94564},{"province":"Sulawesi Tengah","city":"Buol","district":"Bukal","urban":"Mopu","postal_code":94564},{"province":"Sulawesi Tengah","city":"Buol","district":"Bokat","urban":"Kantanan","postal_code":94564},{"province":"Sulawesi Tengah","city":"Buol","district":"Bokat","urban":"Langudon","postal_code":94564},{"province":"Sulawesi Tengah","city":"Buol","district":"Bukal","urban":"Modo","postal_code":94564},{"province":"Sulawesi Tengah","city":"Buol","district":"Bokat","urban":"Duamayo (Duwamayo)","postal_code":94564},{"province":"Sulawesi Tengah","city":"Buol","district":"Bukal","urban":"Diat","postal_code":94564},{"province":"Sulawesi Tengah","city":"Buol","district":"Bokat","urban":"Bukamog","postal_code":94564},{"province":"Sulawesi Tengah","city":"Buol","district":"Bokat","urban":"Butukan","postal_code":94564}]