[{"province":"Sulawesi Tengah","city":"Poso","district":"Lore Barat","urban":"Tuare","postal_code":94654},{"province":"Sulawesi Tengah","city":"Poso","district":"Lore Selatan","urban":"Pada","postal_code":94654},{"province":"Sulawesi Tengah","city":"Poso","district":"Lore Selatan","urban":"Runde","postal_code":94654},{"province":"Sulawesi Tengah","city":"Poso","district":"Lore Barat","urban":"Tomehipi","postal_code":94654},{"province":"Sulawesi Tengah","city":"Poso","district":"Lore Tengah","urban":"Lempe","postal_code":94654},{"province":"Sulawesi Tengah","city":"Poso","district":"Lore Barat","urban":"Lengkeka","postal_code":94654},{"province":"Sulawesi Tengah","city":"Poso","district":"Lore Barat","urban":"Kolori","postal_code":94654},{"province":"Sulawesi Tengah","city":"Poso","district":"Lore Barat","urban":"Lelio","postal_code":94654},{"province":"Sulawesi Tengah","city":"Poso","district":"Lore Barat","urban":"Kageroa","postal_code":94654},{"province":"Sulawesi Tengah","city":"Poso","district":"Lore Tengah","urban":"Hanggira","postal_code":94654},{"province":"Sulawesi Tengah","city":"Poso","district":"Lore Selatan","urban":"Gintu","postal_code":94654},{"province":"Sulawesi Tengah","city":"Poso","district":"Lore Tengah","urban":"Doda","postal_code":94654},{"province":"Sulawesi Tengah","city":"Poso","district":"Lore Selatan","urban":"Bulili","postal_code":94654},{"province":"Sulawesi Tengah","city":"Poso","district":"Lore Selatan","urban":"Bomba","postal_code":94654},{"province":"Sulawesi Tengah","city":"Poso","district":"Lore Selatan","urban":"Bakekau","postal_code":94654},{"province":"Sulawesi Tengah","city":"Poso","district":"Lore Selatan","urban":"Bewa","postal_code":94654},{"province":"Sulawesi Tengah","city":"Poso","district":"Lore Selatan","urban":"Badangkaiya (Badangkaia)","postal_code":94654}]