[{"province":"Sulawesi Tengah","city":"Poso","district":"Lore Piore","urban":"Wanga","postal_code":94653},{"province":"Sulawesi Tengah","city":"Poso","district":"Lore Piore","urban":"Watutau","postal_code":94653},{"province":"Sulawesi Tengah","city":"Poso","district":"Lore Utara","urban":"Watumaeta","postal_code":94653},{"province":"Sulawesi Tengah","city":"Poso","district":"Lore Utara","urban":"Wuasa","postal_code":94653},{"province":"Sulawesi Tengah","city":"Poso","district":"Lore Timur","urban":"Tamadue","postal_code":94653},{"province":"Sulawesi Tengah","city":"Poso","district":"Lore Timur","urban":"Winowanga","postal_code":94653},{"province":"Sulawesi Tengah","city":"Poso","district":"Lore Tengah","urban":"Torire","postal_code":94653},{"province":"Sulawesi Tengah","city":"Poso","district":"Lore Piore","urban":"Siliwanga","postal_code":94653},{"province":"Sulawesi Tengah","city":"Poso","district":"Lore Piore","urban":"Talabosa","postal_code":94653},{"province":"Sulawesi Tengah","city":"Poso","district":"Lore Utara","urban":"Sedoa","postal_code":94653},{"province":"Sulawesi Tengah","city":"Poso","district":"Lore Tengah","urban":"Rompo","postal_code":94653},{"province":"Sulawesi Tengah","city":"Poso","district":"Lore Timur","urban":"Maholo","postal_code":94653},{"province":"Sulawesi Tengah","city":"Poso","district":"Lore Timur","urban":"Mekar Sari","postal_code":94653},{"province":"Sulawesi Tengah","city":"Poso","district":"Lore Utara","urban":"Dodolo","postal_code":94653},{"province":"Sulawesi Tengah","city":"Poso","district":"Lore Tengah","urban":"Katu","postal_code":94653},{"province":"Sulawesi Tengah","city":"Poso","district":"Lore Utara","urban":"Bumi Banyubaru","postal_code":94653},{"province":"Sulawesi Tengah","city":"Poso","district":"Lore Utara","urban":"Bumi Banyusari","postal_code":94653},{"province":"Sulawesi Tengah","city":"Poso","district":"Lore Piore","urban":"Betue","postal_code":94653},{"province":"Sulawesi Tengah","city":"Poso","district":"Lore Tengah","urban":"Bariri","postal_code":94653},{"province":"Sulawesi Tengah","city":"Poso","district":"Lore Tengah","urban":"Baleura (Baliura)","postal_code":94653},{"province":"Sulawesi Tengah","city":"Poso","district":"Lore Utara","urban":"Alitupu","postal_code":94653}]