[{"province":"Sulawesi Tengah","city":"Poso","district":"Poso Pesisir Utara","urban":"Tumora","postal_code":94652},{"province":"Sulawesi Tengah","city":"Poso","district":"Poso Pesisir","urban":"Towu (Towo)","postal_code":94652},{"province":"Sulawesi Tengah","city":"Poso","district":"Poso Pesisir Utara","urban":"Tri Mulya","postal_code":94652},{"province":"Sulawesi Tengah","city":"Poso","district":"Poso Pesisir","urban":"Toini","postal_code":94652},{"province":"Sulawesi Tengah","city":"Poso","district":"Poso Pesisir","urban":"Tokorondo","postal_code":94652},{"province":"Sulawesi Tengah","city":"Poso","district":"Poso Pesisir","urban":"Tiwaa","postal_code":94652},{"province":"Sulawesi Tengah","city":"Poso","district":"Poso Pesisir Utara","urban":"Tobe","postal_code":94652},{"province":"Sulawesi Tengah","city":"Poso","district":"Poso Pesisir Selatan","urban":"Tangkura","postal_code":94652},{"province":"Sulawesi Tengah","city":"Poso","district":"Poso Pesisir Utara","urban":"Tambarana","postal_code":94652},{"province":"Sulawesi Tengah","city":"Poso","district":"Poso Pesisir Selatan","urban":"Sangginora","postal_code":94652},{"province":"Sulawesi Tengah","city":"Poso","district":"Poso Pesisir","urban":"Pinedapa I","postal_code":94652},{"province":"Sulawesi Tengah","city":"Poso","district":"Poso Pesisir","urban":"Saatu","postal_code":94652},{"province":"Sulawesi Tengah","city":"Poso","district":"Poso Pesisir Selatan","urban":"Pantangolemba","postal_code":94652},{"province":"Sulawesi Tengah","city":"Poso","district":"Poso Pesisir Selatan","urban":"Patiwunga","postal_code":94652},{"province":"Sulawesi Tengah","city":"Poso","district":"Poso Pesisir Utara","urban":"Padalembara","postal_code":94652},{"province":"Sulawesi Tengah","city":"Poso","district":"Poso Pesisir Selatan","urban":"Padalembara","postal_code":94652},{"province":"Sulawesi Tengah","city":"Poso","district":"Poso Pesisir","urban":"Masamba","postal_code":94652},{"province":"Sulawesi Tengah","city":"Poso","district":"Poso Pesisir","urban":"Masani","postal_code":94652},{"province":"Sulawesi Tengah","city":"Poso","district":"Poso Pesisir","urban":"Mapane","postal_code":94652},{"province":"Sulawesi Tengah","city":"Poso","district":"Poso Pesisir Utara","urban":"Mambuke / Mambake","postal_code":94652},{"province":"Sulawesi Tengah","city":"Poso","district":"Poso Pesisir","urban":"Lape","postal_code":94652},{"province":"Sulawesi Tengah","city":"Poso","district":"Poso Pesisir Selatan","urban":"Malitu","postal_code":94652},{"province":"Sulawesi Tengah","city":"Poso","district":"Poso Pesisir","urban":"Lanto Jaya","postal_code":94652},{"province":"Sulawesi Tengah","city":"Poso","district":"Poso Pesisir Utara","urban":"Kilo","postal_code":94652},{"province":"Sulawesi Tengah","city":"Poso","district":"Poso Pesisir","urban":"Kasiguncu","postal_code":94652},{"province":"Sulawesi Tengah","city":"Poso","district":"Poso Pesisir Utara","urban":"Kalora","postal_code":94652},{"province":"Sulawesi Tengah","city":"Poso","district":"Poso Pesisir Utara","urban":"Kawende","postal_code":94652},{"province":"Sulawesi Tengah","city":"Poso","district":"Poso Pesisir Selatan","urban":"Dewua","postal_code":94652},{"province":"Sulawesi Tengah","city":"Poso","district":"Poso Pesisir","urban":"Betania","postal_code":94652},{"province":"Sulawesi Tengah","city":"Poso","district":"Poso Pesisir","urban":"Bega","postal_code":94652},{"province":"Sulawesi Tengah","city":"Poso","district":"Poso Pesisir Selatan","urban":"Betalemba","postal_code":94652},{"province":"Sulawesi Tengah","city":"Poso","district":"Poso Pesisir Utara","urban":"Bakti Agung","postal_code":94652}]