[{"province":"Sulawesi Tengah","city":"Poso","district":"Pamona Barat","urban":"Uranosari","postal_code":94663},{"province":"Sulawesi Tengah","city":"Poso","district":"Pamona Utara","urban":"Uelincu","postal_code":94663},{"province":"Sulawesi Tengah","city":"Poso","district":"Pamona Puselemba","urban":"Tonusu","postal_code":94663},{"province":"Sulawesi Tengah","city":"Poso","district":"Pamona Timur","urban":"Tiu","postal_code":94663},{"province":"Sulawesi Tengah","city":"Poso","district":"Pamona Barat","urban":"Toinasa","postal_code":94663},{"province":"Sulawesi Tengah","city":"Poso","district":"Pamona Utara","urban":"Tendeadongi","postal_code":94663},{"province":"Sulawesi Tengah","city":"Poso","district":"Pamona Puselemba","urban":"Tentena","postal_code":94663},{"province":"Sulawesi Tengah","city":"Poso","district":"Pamona Utara","urban":"Sulewana","postal_code":94663},{"province":"Sulawesi Tengah","city":"Poso","district":"Pamona Puselemba","urban":"Soe","postal_code":94663},{"province":"Sulawesi Tengah","city":"Poso","district":"Pamona Utara","urban":"Saojo","postal_code":94663},{"province":"Sulawesi Tengah","city":"Poso","district":"Pamona Utara","urban":"Sawidago","postal_code":94663},{"province":"Sulawesi Tengah","city":"Poso","district":"Pamona Utara","urban":"Sangira","postal_code":94663},{"province":"Sulawesi Tengah","city":"Poso","district":"Pamona Timur","urban":"Poleganyara","postal_code":94663},{"province":"Sulawesi Tengah","city":"Poso","district":"Pamona Puselemba","urban":"Sangele","postal_code":94663},{"province":"Sulawesi Tengah","city":"Poso","district":"Pamona Puselemba","urban":"Peura","postal_code":94663},{"province":"Sulawesi Tengah","city":"Poso","district":"Pamona Utara","urban":"Petirodongi","postal_code":94663},{"province":"Sulawesi Tengah","city":"Poso","district":"Pamona Puselemba","urban":"Pamona","postal_code":94663},{"province":"Sulawesi Tengah","city":"Poso","district":"Pamona Utara","urban":"Panjoka","postal_code":94663},{"province":"Sulawesi Tengah","city":"Poso","district":"Pamona Timur","urban":"Matialemba","postal_code":94663},{"province":"Sulawesi Tengah","city":"Poso","district":"Pamona Puselemba","urban":"Mayakeli","postal_code":94663},{"province":"Sulawesi Tengah","city":"Poso","district":"Pamona Puselemba","urban":"Leboni","postal_code":94663},{"province":"Sulawesi Tengah","city":"Poso","district":"Pamona Utara","urban":"Lena","postal_code":94663},{"province":"Sulawesi Tengah","city":"Poso","district":"Pamona Puselemba","urban":"Leboni","postal_code":94663},{"province":"Sulawesi Tengah","city":"Poso","district":"Pamona Timur","urban":"Kelei","postal_code":94663},{"province":"Sulawesi Tengah","city":"Poso","district":"Pamona Timur","urban":"Kancuu","postal_code":94663},{"province":"Sulawesi Tengah","city":"Poso","district":"Pamona Puselemba","urban":"Dulumai","postal_code":94663},{"province":"Sulawesi Tengah","city":"Poso","district":"Pamona Timur","urban":"Didiri (Ompo Didiri)","postal_code":94663},{"province":"Sulawesi Tengah","city":"Poso","district":"Pamona Puselemba","urban":"Buyumpondoli","postal_code":94663}]