[{"province":"Sulawesi Tengah","city":"Poso","district":"Pamona Tenggara","urban":"Wayura","postal_code":94664},{"province":"Sulawesi Tengah","city":"Poso","district":"Pamona Tenggara","urban":"Tokilo","postal_code":94664},{"province":"Sulawesi Tengah","city":"Poso","district":"Pamona Tenggara","urban":"Tolambo","postal_code":94664},{"province":"Sulawesi Tengah","city":"Poso","district":"Pamona Selatan","urban":"Uelene","postal_code":94664},{"province":"Sulawesi Tengah","city":"Poso","district":"Pamona Timur","urban":"Taripa","postal_code":94664},{"province":"Sulawesi Tengah","city":"Poso","district":"Pamona Tenggara","urban":"Tindoli","postal_code":94664},{"province":"Sulawesi Tengah","city":"Poso","district":"Pamona Barat","urban":"Salukaiya (Salukaia)","postal_code":94664},{"province":"Sulawesi Tengah","city":"Poso","district":"Pamona Barat","urban":"Taipa","postal_code":94664},{"province":"Sulawesi Tengah","city":"Poso","district":"Pamona Tenggara","urban":"Singkona","postal_code":94664},{"province":"Sulawesi Tengah","city":"Poso","district":"Pamona Timur","urban":"Petiro","postal_code":94664},{"province":"Sulawesi Tengah","city":"Poso","district":"Pamona Tenggara","urban":"Salindu","postal_code":94664},{"province":"Sulawesi Tengah","city":"Poso","district":"Pamona Selatan","urban":"Pendolo","postal_code":94664},{"province":"Sulawesi Tengah","city":"Poso","district":"Pamona Selatan","urban":"Panjo","postal_code":94664},{"province":"Sulawesi Tengah","city":"Poso","district":"Pamona Selatan","urban":"Pasir Putih","postal_code":94664},{"province":"Sulawesi Tengah","city":"Poso","district":"Pamona Timur","urban":"Pancasila","postal_code":94664},{"province":"Sulawesi Tengah","city":"Poso","district":"Pamona Selatan","urban":"Panda Jaya","postal_code":94664},{"province":"Sulawesi Tengah","city":"Poso","district":"Pamona Selatan","urban":"Pandayora","postal_code":94664},{"province":"Sulawesi Tengah","city":"Poso","district":"Pamona Timur","urban":"Mesewe (Masewe)","postal_code":94664},{"province":"Sulawesi Tengah","city":"Poso","district":"Pamona Timur","urban":"Olumokunde","postal_code":94664},{"province":"Sulawesi Tengah","city":"Poso","district":"Pamona Barat","urban":"Meko","postal_code":94664},{"province":"Sulawesi Tengah","city":"Poso","district":"Pamona Selatan","urban":"Mayoa","postal_code":94664},{"province":"Sulawesi Tengah","city":"Poso","district":"Pamona Selatan","urban":"Maya Jaya","postal_code":94664},{"province":"Sulawesi Tengah","city":"Poso","district":"Pamona Selatan","urban":"Maya Sari","postal_code":94664},{"province":"Sulawesi Tengah","city":"Poso","district":"Pamona Timur","urban":"Kamba","postal_code":94664},{"province":"Sulawesi Tengah","city":"Poso","district":"Pamona Selatan","urban":"Boe","postal_code":94664},{"province":"Sulawesi Tengah","city":"Poso","district":"Pamona Tenggara","urban":"Korobono","postal_code":94664},{"province":"Sulawesi Tengah","city":"Poso","district":"Pamona Selatan","urban":"Bangun Jaya","postal_code":94664},{"province":"Sulawesi Tengah","city":"Poso","district":"Pamona Tenggara","urban":"Barati","postal_code":94664},{"province":"Sulawesi Tengah","city":"Poso","district":"Pamona Selatan","urban":"Bancea","postal_code":94664},{"province":"Sulawesi Tengah","city":"Poso","district":"Pamona Tenggara","urban":"Amporiwo","postal_code":94664}]