[{"province":"Sulawesi Tengah","city":"Tojo Una","district":"Togean","urban":"Urulepe","postal_code":94683},{"province":"Sulawesi Tengah","city":"Tojo Una","district":"Ampana Kota","urban":"Uentanaga Bawah","postal_code":94683},{"province":"Sulawesi Tengah","city":"Tojo Una","district":"Ampana Kota","urban":"Uentanaga Atas","postal_code":94683},{"province":"Sulawesi Tengah","city":"Tojo Una","district":"Ampana Kota","urban":"Uamalingku","postal_code":94683},{"province":"Sulawesi Tengah","city":"Tojo Una","district":"Togean","urban":"Tongkabo","postal_code":94683},{"province":"Sulawesi Tengah","city":"Tojo Una","district":"Togean","urban":"Tobil","postal_code":94683},{"province":"Sulawesi Tengah","city":"Tojo Una","district":"Ampana Kota","urban":"Sumoli","postal_code":94683},{"province":"Sulawesi Tengah","city":"Tojo Una","district":"Ampana Kota","urban":"Sansarino","postal_code":94683},{"province":"Sulawesi Tengah","city":"Tojo Una","district":"Togean","urban":"Sampobae","postal_code":94683},{"province":"Sulawesi Tengah","city":"Tojo Una","district":"Ampana Kota","urban":"Saluaba","postal_code":94683},{"province":"Sulawesi Tengah","city":"Tojo Una","district":"Ampana Kota","urban":"Sabulira Toba","postal_code":94683},{"province":"Sulawesi Tengah","city":"Tojo Una","district":"Togean","urban":"Pulau Enam","postal_code":94683},{"province":"Sulawesi Tengah","city":"Tojo Una","district":"Ampana Kota","urban":"Muara Toba","postal_code":94683},{"province":"Sulawesi Tengah","city":"Tojo Una","district":"Ampana Kota","urban":"Patingko","postal_code":94683},{"province":"Sulawesi Tengah","city":"Tojo Una","district":"Ampana Kota","urban":"Muara Toba","postal_code":94683},{"province":"Sulawesi Tengah","city":"Tojo Una","district":"Togean","urban":"Lembanato","postal_code":94683},{"province":"Sulawesi Tengah","city":"Tojo Una","district":"Togean","urban":"Matobiai (Motobisi)","postal_code":94683},{"province":"Sulawesi Tengah","city":"Tojo Una","district":"Ampana Kota","urban":"Malotong","postal_code":94683},{"province":"Sulawesi Tengah","city":"Tojo Una","district":"Togean","urban":"Lebiti","postal_code":94683},{"province":"Sulawesi Tengah","city":"Tojo Una","district":"Ampana Kota","urban":"Labiabae","postal_code":94683},{"province":"Sulawesi Tengah","city":"Tojo Una","district":"Ampana Kota","urban":"Labuan","postal_code":94683},{"province":"Sulawesi Tengah","city":"Tojo Una","district":"Ampana Kota","urban":"Dondo Barat","postal_code":94683},{"province":"Sulawesi Tengah","city":"Tojo Una","district":"Togean","urban":"Katupat","postal_code":94683},{"province":"Sulawesi Tengah","city":"Tojo Una","district":"Togean","urban":"Kololio","postal_code":94683},{"province":"Sulawesi Tengah","city":"Tojo Una","district":"Ampana Kota","urban":"Buntongi","postal_code":94683},{"province":"Sulawesi Tengah","city":"Tojo Una","district":"Ampana Kota","urban":"Dondo","postal_code":94683},{"province":"Sulawesi Tengah","city":"Tojo Una","district":"Ampana Kota","urban":"Bone Rato","postal_code":94683},{"province":"Sulawesi Tengah","city":"Tojo Una","district":"Togean","urban":"Bungayo","postal_code":94683},{"province":"Sulawesi Tengah","city":"Tojo Una","district":"Togean","urban":"Bangkagi","postal_code":94683},{"province":"Sulawesi Tengah","city":"Tojo Una","district":"Togean","urban":"Baulu","postal_code":94683},{"province":"Sulawesi Tengah","city":"Tojo Una","district":"Togean","urban":"Awo","postal_code":94683},{"province":"Sulawesi Tengah","city":"Tojo Una","district":"Togean","urban":"Benteng","postal_code":94683},{"province":"Sulawesi Tengah","city":"Tojo Una","district":"Ampana Kota","urban":"Ampana","postal_code":94683},{"province":"Sulawesi Tengah","city":"Tojo Una","district":"Ampana Kota","urban":"Bailo","postal_code":94683},{"province":"Sulawesi Tengah","city":"Tojo Una","district":"Ampana Kota","urban":"Bailo Baru","postal_code":94683}]