[{"province":"Sulawesi Tengah","city":"Tojo Una","district":"Walea Kepulauan","urban":"Tutung","postal_code":94692},{"province":"Sulawesi Tengah","city":"Tojo Una","district":"Walea Kepulauan","urban":"Tumotok","postal_code":94692},{"province":"Sulawesi Tengah","city":"Tojo Una","district":"Walea Besar","urban":"Tongidon","postal_code":94692},{"province":"Sulawesi Tengah","city":"Tojo Una","district":"Walea Besar","urban":"Tingki","postal_code":94692},{"province":"Sulawesi Tengah","city":"Tojo Una","district":"Walea Kepulauan","urban":"Tiga Pulau","postal_code":94692},{"province":"Sulawesi Tengah","city":"Tojo Una","district":"Walea Besar","urban":"Salinggoha","postal_code":94692},{"province":"Sulawesi Tengah","city":"Tojo Una","district":"Walea Kepulauan","urban":"Popolii (PopolIi)","postal_code":94692},{"province":"Sulawesi Tengah","city":"Tojo Una","district":"Walea Kepulauan","urban":"Pautu","postal_code":94692},{"province":"Sulawesi Tengah","city":"Tojo Una","district":"Walea Besar","urban":"Pasokan","postal_code":94692},{"province":"Sulawesi Tengah","city":"Tojo Una","district":"Walea Kepulauan","urban":"Olilan","postal_code":94692},{"province":"Sulawesi Tengah","city":"Tojo Una","district":"Walea Kepulauan","urban":"Malenge","postal_code":94692},{"province":"Sulawesi Tengah","city":"Tojo Una","district":"Walea Besar","urban":"Malapo","postal_code":94692},{"province":"Sulawesi Tengah","city":"Tojo Una","district":"Walea Kepulauan","urban":"Luok","postal_code":94692},{"province":"Sulawesi Tengah","city":"Tojo Una","district":"Walea Kepulauan","urban":"Loe","postal_code":94692},{"province":"Sulawesi Tengah","city":"Tojo Una","district":"Walea Besar","urban":"Kondongan","postal_code":94692},{"province":"Sulawesi Tengah","city":"Tojo Una","district":"Walea Kepulauan","urban":"Kolami (Kolampi)","postal_code":94692},{"province":"Sulawesi Tengah","city":"Tojo Una","district":"Walea Besar","urban":"Katogop (Kotogop)","postal_code":94692},{"province":"Sulawesi Tengah","city":"Tojo Una","district":"Walea Kepulauan","urban":"Kadoda","postal_code":94692},{"province":"Sulawesi Tengah","city":"Tojo Una","district":"Walea Kepulauan","urban":"Kalia","postal_code":94692},{"province":"Sulawesi Tengah","city":"Tojo Una","district":"Walea Kepulauan","urban":"Kabalutan","postal_code":94692},{"province":"Sulawesi Tengah","city":"Tojo Una","district":"Walea Kepulauan","urban":"Dolong B","postal_code":94692},{"province":"Sulawesi Tengah","city":"Tojo Una","district":"Walea Kepulauan","urban":"Dolong A (Dolonga)","postal_code":94692},{"province":"Sulawesi Tengah","city":"Tojo Una","district":"Walea Besar","urban":"Biga","postal_code":94692}]