[{"province":"Sulawesi Tengah","city":"Banggai","district":"Luwuk Selatan","urban":"Bubung","postal_code":94717},{"province":"Sulawesi Tengah","city":"Banggai","district":"Luwuk Selatan","urban":"Tombang Permai","postal_code":94717},{"province":"Sulawesi Tengah","city":"Banggai","district":"Luwuk Selatan","urban":"Simpong","postal_code":94717},{"province":"Sulawesi Tengah","city":"Banggai","district":"Luwuk Selatan","urban":"Tanjung Tuwis","postal_code":94717},{"province":"Sulawesi Tengah","city":"Banggai","district":"Luwuk Selatan","urban":"Maahas","postal_code":94717},{"province":"Sulawesi Tengah","city":"Banggai","district":"Luwuk Selatan","urban":"Kompo","postal_code":94717},{"province":"Sulawesi Tengah","city":"Banggai","district":"Luwuk Selatan","urban":"Jole","postal_code":94717},{"province":"Sulawesi Tengah","city":"Banggai","district":"Luwuk Selatan","urban":"Hanga-Hanga Permai","postal_code":94717},{"province":"Sulawesi Tengah","city":"Banggai","district":"Luwuk Selatan","urban":"Hanga Hanga","postal_code":94717},{"province":"Sulawesi Tengah","city":"Banggai","district":"Luwuk Selatan","urban":"Bukit Membual","postal_code":94717}]