[{"province":"Sulawesi Tengah","city":"Banggai","district":"Luwuk","urban":"Tontouan","postal_code":94711},{"province":"Sulawesi Tengah","city":"Banggai","district":"Luwuk Utara","urban":"Salodik","postal_code":94711},{"province":"Sulawesi Tengah","city":"Banggai","district":"Luwuk","urban":"Mangkio Baru","postal_code":94711},{"province":"Sulawesi Tengah","city":"Banggai","district":"Luwuk","urban":"Luwuk","postal_code":94711},{"province":"Sulawesi Tengah","city":"Banggai","district":"Luwuk","urban":"Lumpoknyo","postal_code":94711},{"province":"Sulawesi Tengah","city":"Banggai","district":"Luwuk Utara","urban":"Lenyek","postal_code":94711},{"province":"Sulawesi Tengah","city":"Banggai","district":"Luwuk Utara","urban":"Kilongan Permai","postal_code":94711},{"province":"Sulawesi Tengah","city":"Banggai","district":"Luwuk Utara","urban":"Kilongan","postal_code":94711},{"province":"Sulawesi Tengah","city":"Banggai","district":"Luwuk","urban":"Keraton","postal_code":94711},{"province":"Sulawesi Tengah","city":"Banggai","district":"Luwuk Utara","urban":"Kamumu","postal_code":94711},{"province":"Sulawesi Tengah","city":"Banggai","district":"Luwuk Utara","urban":"Buon Mandiri","postal_code":94711},{"province":"Sulawesi Tengah","city":"Banggai","district":"Luwuk Utara","urban":"Bunga","postal_code":94711},{"province":"Sulawesi Tengah","city":"Banggai","district":"Luwuk Utara","urban":"Bumi Beringin","postal_code":94711},{"province":"Sulawesi Tengah","city":"Banggai","district":"Luwuk Utara","urban":"Boyou","postal_code":94711},{"province":"Sulawesi Tengah","city":"Banggai","district":"Luwuk Utara","urban":"Biak","postal_code":94711},{"province":"Sulawesi Tengah","city":"Banggai","district":"Luwuk","urban":"Baru","postal_code":94711},{"province":"Sulawesi Tengah","city":"Banggai","district":"Luwuk Utara","urban":"Awu","postal_code":94711}]