[{"province":"Sulawesi Tengah","city":"Banggai","district":"Pagimana","urban":"Uwedaka","postal_code":94752},{"province":"Sulawesi Tengah","city":"Banggai","district":"Lobu","urban":"Uwe Daka-Daka","postal_code":94752},{"province":"Sulawesi Tengah","city":"Banggai","district":"Lobu","urban":"Uha Uhangon","postal_code":94752},{"province":"Sulawesi Tengah","city":"Banggai","district":"Bualemo (Boalemo)","urban":"Trans Mayayap","postal_code":94752},{"province":"Sulawesi Tengah","city":"Banggai","district":"Pagimana","urban":"Tombang","postal_code":94752},{"province":"Sulawesi Tengah","city":"Banggai","district":"Pagimana","urban":"Tongkonunuk","postal_code":94752},{"province":"Sulawesi Tengah","city":"Banggai","district":"Pagimana","urban":"Toipan","postal_code":94752},{"province":"Sulawesi Tengah","city":"Banggai","district":"Bualemo (Boalemo)","urban":"Toiba","postal_code":94752},{"province":"Sulawesi Tengah","city":"Banggai","district":"Pagimana","urban":"Tintingan","postal_code":94752},{"province":"Sulawesi Tengah","city":"Banggai","district":"Bualemo (Boalemo)","urban":"Tikupon","postal_code":94752},{"province":"Sulawesi Tengah","city":"Banggai","district":"Pagimana","urban":"Taloyon","postal_code":94752},{"province":"Sulawesi Tengah","city":"Banggai","district":"Pagimana","urban":"Tampe","postal_code":94752},{"province":"Sulawesi Tengah","city":"Banggai","district":"Bualemo (Boalemo)","urban":"Taima","postal_code":94752},{"province":"Sulawesi Tengah","city":"Banggai","district":"Pagimana","urban":"Siuna","postal_code":94752},{"province":"Sulawesi Tengah","city":"Banggai","district":"Pagimana","urban":"Sinampangnyo","postal_code":94752},{"province":"Sulawesi Tengah","city":"Banggai","district":"Pagimana","urban":"Sepak","postal_code":94752},{"province":"Sulawesi Tengah","city":"Banggai","district":"Bualemo (Boalemo)","urban":"Sampaka","postal_code":94752},{"province":"Sulawesi Tengah","city":"Banggai","district":"Pagimana","urban":"Sama Jatem","postal_code":94752},{"province":"Sulawesi Tengah","city":"Banggai","district":"Bualemo (Boalemo)","urban":"Salipi","postal_code":94752},{"province":"Sulawesi Tengah","city":"Banggai","district":"Pagimana","urban":"Poh","postal_code":94752},{"province":"Sulawesi Tengah","city":"Banggai","district":"Pagimana","urban":"Pinapuan","postal_code":94752},{"province":"Sulawesi Tengah","city":"Banggai","district":"Pagimana","urban":"Pisou","postal_code":94752},{"province":"Sulawesi Tengah","city":"Banggai","district":"Pagimana","urban":"Pagimana","postal_code":94752},{"province":"Sulawesi Tengah","city":"Banggai","district":"Pagimana","urban":"Pakowa","postal_code":94752},{"province":"Sulawesi Tengah","city":"Banggai","district":"Lobu","urban":"Niubulan","postal_code":94752},{"province":"Sulawesi Tengah","city":"Banggai","district":"Bualemo (Boalemo)","urban":"Nipa Kaleman / Kalemoan","postal_code":94752},{"province":"Sulawesi Tengah","city":"Banggai","district":"Pagimana","urban":"Nain","postal_code":94752},{"province":"Sulawesi Tengah","city":"Banggai","district":"Bualemo (Boalemo)","urban":"Mayayap","postal_code":94752},{"province":"Sulawesi Tengah","city":"Banggai","district":"Bualemo (Boalemo)","urban":"Malik Makmur","postal_code":94752},{"province":"Sulawesi Tengah","city":"Banggai","district":"Bualemo (Boalemo)","urban":"Malik","postal_code":94752},{"province":"Sulawesi Tengah","city":"Banggai","district":"Bualemo (Boalemo)","urban":"Longkoga Timur","postal_code":94752},{"province":"Sulawesi Tengah","city":"Banggai","district":"Lobu","urban":"Lobu","postal_code":94752},{"province":"Sulawesi Tengah","city":"Banggai","district":"Bualemo (Boalemo)","urban":"Longkoga Barat","postal_code":94752},{"province":"Sulawesi Tengah","city":"Banggai","district":"Bualemo (Boalemo)","urban":"Lembah Tompotika","postal_code":94752},{"province":"Sulawesi Tengah","city":"Banggai","district":"Bualemo (Boalemo)","urban":"Lembah Makmur","postal_code":94752},{"province":"Sulawesi Tengah","city":"Banggai","district":"Pagimana","urban":"Lamo","postal_code":94752},{"province":"Sulawesi Tengah","city":"Banggai","district":"Lobu","urban":"Lambuli","postal_code":94752},{"province":"Sulawesi Tengah","city":"Banggai","district":"Pagimana","urban":"Lambangan","postal_code":94752},{"province":"Sulawesi Tengah","city":"Banggai","district":"Lobu","urban":"Kadodi","postal_code":94752},{"province":"Sulawesi Tengah","city":"Banggai","district":"Pagimana","urban":"Jaya Bakti","postal_code":94752},{"province":"Sulawesi Tengah","city":"Banggai","district":"Pagimana","urban":"Huhak","postal_code":94752},{"province":"Sulawesi Tengah","city":"Banggai","district":"Pagimana","urban":"Hohudongan","postal_code":94752},{"province":"Sulawesi Tengah","city":"Banggai","district":"Pagimana","urban":"Gomuo","postal_code":94752},{"province":"Sulawesi Tengah","city":"Banggai","district":"Pagimana","urban":"Dongkalan","postal_code":94752},{"province":"Sulawesi Tengah","city":"Banggai","district":"Bualemo (Boalemo)","urban":"Dwi Karya","postal_code":94752},{"province":"Sulawesi Tengah","city":"Banggai","district":"Lobu","urban":"Dolom","postal_code":94752},{"province":"Sulawesi Tengah","city":"Banggai","district":"Pagimana","urban":"Bungawon","postal_code":94752},{"province":"Sulawesi Tengah","city":"Banggai","district":"Pagimana","urban":"Bulu","postal_code":94752},{"province":"Sulawesi Tengah","city":"Banggai","district":"Bualemo (Boalemo)","urban":"Bualemo B","postal_code":94752},{"province":"Sulawesi Tengah","city":"Banggai","district":"Bualemo (Boalemo)","urban":"Bualemo A","postal_code":94752},{"province":"Sulawesi Tengah","city":"Banggai","district":"Pagimana","urban":"Bondat","postal_code":94752},{"province":"Sulawesi Tengah","city":"Banggai","district":"Lobu","urban":"Bolobungkang","postal_code":94752},{"province":"Sulawesi Tengah","city":"Banggai","district":"Bualemo (Boalemo)","urban":"Binsil Padang","postal_code":94752},{"province":"Sulawesi Tengah","city":"Banggai","district":"Bualemo (Boalemo)","urban":"Binsil Ch","postal_code":94752},{"province":"Sulawesi Tengah","city":"Banggai","district":"Bualemo (Boalemo)","urban":"Bima Karya","postal_code":94752},{"province":"Sulawesi Tengah","city":"Banggai","district":"Pagimana","urban":"Basabungan","postal_code":94752},{"province":"Sulawesi Tengah","city":"Banggai","district":"Pagimana","urban":"Baloadoda","postal_code":94752},{"province":"Sulawesi Tengah","city":"Banggai","district":"Lobu","urban":"Balean","postal_code":94752},{"province":"Sulawesi Tengah","city":"Banggai","district":"Pagimana","urban":"Balai Gondi","postal_code":94752},{"province":"Sulawesi Tengah","city":"Banggai","district":"Pagimana","urban":"Bajo Poat","postal_code":94752},{"province":"Sulawesi Tengah","city":"Banggai","district":"Lobu","urban":"Bahingin","postal_code":94752},{"province":"Sulawesi Tengah","city":"Banggai","district":"Pagimana","urban":"Asaan","postal_code":94752},{"province":"Sulawesi Tengah","city":"Banggai","district":"Pagimana","urban":"Ampera","postal_code":94752}]