[{"province":"Sulawesi Tengah","city":"Banggai","district":"Bunta","urban":"Tuntung","postal_code":94753},{"province":"Sulawesi Tengah","city":"Banggai","district":"Bunta","urban":"Tombongan Ulos","postal_code":94753},{"province":"Sulawesi Tengah","city":"Banggai","district":"Nuhon","urban":"Tobelombang","postal_code":94753},{"province":"Sulawesi Tengah","city":"Banggai","district":"Bunta","urban":"Toima","postal_code":94753},{"province":"Sulawesi Tengah","city":"Banggai","district":"Nuhon","urban":"Tetesulu","postal_code":94753},{"province":"Sulawesi Tengah","city":"Banggai","district":"Nuhon","urban":"Temeang (Tomeang)","postal_code":94753},{"province":"Sulawesi Tengah","city":"Banggai","district":"Simpang Raya","urban":"Sumber Mulia","postal_code":94753},{"province":"Sulawesi Tengah","city":"Banggai","district":"Nuhon","urban":"Sumber Agung","postal_code":94753},{"province":"Sulawesi Tengah","city":"Banggai","district":"Simpang Raya","urban":"Simpang Satu","postal_code":94753},{"province":"Sulawesi Tengah","city":"Banggai","district":"Simpang Raya","urban":"Simpang Dua","postal_code":94753},{"province":"Sulawesi Tengah","city":"Banggai","district":"Bunta","urban":"Salabenda","postal_code":94753},{"province":"Sulawesi Tengah","city":"Banggai","district":"Nuhon","urban":"Saiti","postal_code":94753},{"province":"Sulawesi Tengah","city":"Banggai","district":"Simpang Raya","urban":"Rantau Jaya","postal_code":94753},{"province":"Sulawesi Tengah","city":"Banggai","district":"Nuhon","urban":"Pulo Dalagan","postal_code":94753},{"province":"Sulawesi Tengah","city":"Banggai","district":"Bunta","urban":"Pongian","postal_code":94753},{"province":"Sulawesi Tengah","city":"Banggai","district":"Bunta","urban":"Polo","postal_code":94753},{"province":"Sulawesi Tengah","city":"Banggai","district":"Nuhon","urban":"Pimbombo (Pibombo)","postal_code":94753},{"province":"Sulawesi Tengah","city":"Banggai","district":"Nuhon","urban":"Petak","postal_code":94753},{"province":"Sulawesi Tengah","city":"Banggai","district":"Nuhon","urban":"Obok Balingara","postal_code":94753},{"province":"Sulawesi Tengah","city":"Banggai","district":"Nuhon","urban":"Pakowa Bunta (Pokowa Bunta)","postal_code":94753},{"province":"Sulawesi Tengah","city":"Banggai","district":"Bunta","urban":"Nanga-Nangaon","postal_code":94753},{"province":"Sulawesi Tengah","city":"Banggai","district":"Bunta","urban":"Matabas","postal_code":94753},{"province":"Sulawesi Tengah","city":"Banggai","district":"Nuhon","urban":"Mantan B","postal_code":94753},{"province":"Sulawesi Tengah","city":"Banggai","district":"Simpang Raya","urban":"Mantan A","postal_code":94753},{"province":"Sulawesi Tengah","city":"Banggai","district":"Bunta","urban":"Longgolian","postal_code":94753},{"province":"Sulawesi Tengah","city":"Banggai","district":"Bunta","urban":"Lontio","postal_code":94753},{"province":"Sulawesi Tengah","city":"Banggai","district":"Simpang Raya","urban":"Lokait","postal_code":94753},{"province":"Sulawesi Tengah","city":"Banggai","district":"Bunta","urban":"Laonggo","postal_code":94753},{"province":"Sulawesi Tengah","city":"Banggai","district":"Simpang Raya","urban":"Koninis","postal_code":94753},{"province":"Sulawesi Tengah","city":"Banggai","district":"Bunta","urban":"Koili","postal_code":94753},{"province":"Sulawesi Tengah","city":"Banggai","district":"Bunta","urban":"Kalumbangan","postal_code":94753},{"province":"Sulawesi Tengah","city":"Banggai","district":"Bunta","urban":"Kalaka","postal_code":94753},{"province":"Sulawesi Tengah","city":"Banggai","district":"Nuhon","urban":"Jaya Makmur","postal_code":94753},{"province":"Sulawesi Tengah","city":"Banggai","district":"Nuhon","urban":"Kabua Dua","postal_code":94753},{"province":"Sulawesi Tengah","city":"Banggai","district":"Bunta","urban":"Hion","postal_code":94753},{"province":"Sulawesi Tengah","city":"Banggai","district":"Bunta","urban":"Huhak","postal_code":94753},{"province":"Sulawesi Tengah","city":"Banggai","district":"Simpang Raya","urban":"Gonohop","postal_code":94753},{"province":"Sulawesi Tengah","city":"Banggai","district":"Simpang Raya","urban":"Dwipa Karya","postal_code":94753},{"province":"Sulawesi Tengah","city":"Banggai","district":"Simpang Raya","urban":"Dowiwi","postal_code":94753},{"province":"Sulawesi Tengah","city":"Banggai","district":"Bunta","urban":"Dondo Simoli","postal_code":94753},{"province":"Sulawesi Tengah","city":"Banggai","district":"Simpang Raya","urban":"Doda Bunta","postal_code":94753},{"province":"Sulawesi Tengah","city":"Banggai","district":"Bunta","urban":"Demangan Jaya","postal_code":94753},{"province":"Sulawesi Tengah","city":"Banggai","district":"Nuhon","urban":"Damai Makmur","postal_code":94753},{"province":"Sulawesi Tengah","city":"Banggai","district":"Bunta","urban":"Bunta II","postal_code":94753},{"province":"Sulawesi Tengah","city":"Banggai","district":"Bunta","urban":"Bunta I","postal_code":94753},{"province":"Sulawesi Tengah","city":"Banggai","district":"Nuhon","urban":"Bolobungkang","postal_code":94753},{"province":"Sulawesi Tengah","city":"Banggai","district":"Nuhon","urban":"Binohu","postal_code":94753},{"province":"Sulawesi Tengah","city":"Banggai","district":"Bunta","urban":"Bohotokong","postal_code":94753},{"province":"Sulawesi Tengah","city":"Banggai","district":"Simpang Raya","urban":"Beringin Jaya","postal_code":94753},{"province":"Sulawesi Tengah","city":"Banggai","district":"Nuhon","urban":"Bella","postal_code":94753},{"province":"Sulawesi Tengah","city":"Banggai","district":"Nuhon","urban":"Bangketa","postal_code":94753},{"province":"Sulawesi Tengah","city":"Banggai","district":"Nuhon","urban":"Batu Hitam","postal_code":94753},{"province":"Sulawesi Tengah","city":"Banggai","district":"Bunta","urban":"Balanga","postal_code":94753},{"province":"Sulawesi Tengah","city":"Banggai","district":"Nuhon","urban":"Balaang","postal_code":94753}]