[{"province":"Sulawesi Tengah","city":"Banggai","district":"Batui","urban":"Uso","postal_code":94762},{"province":"Sulawesi Tengah","city":"Banggai","district":"Batui","urban":"Tolando","postal_code":94762},{"province":"Sulawesi Tengah","city":"Banggai","district":"Batui Selatan","urban":"Sukamaju Satu","postal_code":94762},{"province":"Sulawesi Tengah","city":"Banggai","district":"Batui Selatan","urban":"Sukamaju","postal_code":94762},{"province":"Sulawesi Tengah","city":"Banggai","district":"Batui","urban":"Sisipan","postal_code":94762},{"province":"Sulawesi Tengah","city":"Banggai","district":"Batui","urban":"Sisipan","postal_code":94762},{"province":"Sulawesi Tengah","city":"Banggai","district":"Batui Selatan","urban":"Paisu Buloli","postal_code":94762},{"province":"Sulawesi Tengah","city":"Banggai","district":"Batui Selatan","urban":"Ombolu","postal_code":94762},{"province":"Sulawesi Tengah","city":"Banggai","district":"Batui","urban":"Ondo-Ondolu","postal_code":94762},{"province":"Sulawesi Tengah","city":"Banggai","district":"Batui","urban":"Ondo-Ondolu I","postal_code":94762},{"province":"Sulawesi Tengah","city":"Banggai","district":"Batui Selatan","urban":"Maleo Jaya","postal_code":94762},{"province":"Sulawesi Tengah","city":"Banggai","district":"Batui Selatan","urban":"Masungkang","postal_code":94762},{"province":"Sulawesi Tengah","city":"Banggai","district":"Batui","urban":"Nonong","postal_code":94762},{"province":"Sulawesi Tengah","city":"Banggai","district":"Batui Selatan","urban":"Maasing","postal_code":94762},{"province":"Sulawesi Tengah","city":"Banggai","district":"Batui","urban":"Honbola","postal_code":94762},{"province":"Sulawesi Tengah","city":"Banggai","district":"Batui","urban":"Kayowa","postal_code":94762},{"province":"Sulawesi Tengah","city":"Banggai","district":"Batui","urban":"Lamo","postal_code":94762},{"province":"Sulawesi Tengah","city":"Banggai","district":"Batui Selatan","urban":"Gori-Gori","postal_code":94762},{"province":"Sulawesi Tengah","city":"Banggai","district":"Batui","urban":"Bugis","postal_code":94762},{"province":"Sulawesi Tengah","city":"Banggai","district":"Batui Selatan","urban":"Bonebalantak","postal_code":94762},{"province":"Sulawesi Tengah","city":"Banggai","district":"Batui","urban":"Balantang","postal_code":94762},{"province":"Sulawesi Tengah","city":"Banggai","district":"Batui","urban":"Batui","postal_code":94762},{"province":"Sulawesi Tengah","city":"Banggai","district":"Batui","urban":"Bakung","postal_code":94762}]