[{"province":"Sulawesi Tengah","city":"Banggai","district":"Toili","urban":"Uwe Mea","postal_code":94765},{"province":"Sulawesi Tengah","city":"Banggai","district":"Toili Barat","urban":"Uwelolu","postal_code":94765},{"province":"Sulawesi Tengah","city":"Banggai","district":"Toili","urban":"Tolisu","postal_code":94765},{"province":"Sulawesi Tengah","city":"Banggai","district":"Moilong","urban":"Tou","postal_code":94765},{"province":"Sulawesi Tengah","city":"Banggai","district":"Toili","urban":"Toili","postal_code":94765},{"province":"Sulawesi Tengah","city":"Banggai","district":"Moilong","urban":"Toili","postal_code":94765},{"province":"Sulawesi Tengah","city":"Banggai","district":"Toili","urban":"Tohiti Sari","postal_code":94765},{"province":"Sulawesi Tengah","city":"Banggai","district":"Toili","urban":"Tirta Sari","postal_code":94765},{"province":"Sulawesi Tengah","city":"Banggai","district":"Moilong","urban":"Sumber Harjo","postal_code":94765},{"province":"Sulawesi Tengah","city":"Banggai","district":"Toili","urban":"Singkoyo","postal_code":94765},{"province":"Sulawesi Tengah","city":"Banggai","district":"Toili","urban":"Tirta Kencana","postal_code":94765},{"province":"Sulawesi Tengah","city":"Banggai","district":"Toili Barat","urban":"Sindang Sari","postal_code":94765},{"province":"Sulawesi Tengah","city":"Banggai","district":"Toili","urban":"Sindang Baru","postal_code":94765},{"province":"Sulawesi Tengah","city":"Banggai","district":"Toili","urban":"Sidoharjo","postal_code":94765},{"province":"Sulawesi Tengah","city":"Banggai","district":"Moilong","urban":"Sido Makmur","postal_code":94765},{"province":"Sulawesi Tengah","city":"Banggai","district":"Moilong","urban":"Sidoharjo","postal_code":94765},{"province":"Sulawesi Tengah","city":"Banggai","district":"Toili","urban":"Selamet Raharjo","postal_code":94765},{"province":"Sulawesi Tengah","city":"Banggai","district":"Toili","urban":"Sentral Sari","postal_code":94765},{"province":"Sulawesi Tengah","city":"Banggai","district":"Moilong","urban":"Selamet Raharjo","postal_code":94765},{"province":"Sulawesi Tengah","city":"Banggai","district":"Toili","urban":"Saluan","postal_code":94765},{"province":"Sulawesi Tengah","city":"Banggai","district":"Toili","urban":"Samalore","postal_code":94765},{"province":"Sulawesi Tengah","city":"Banggai","district":"Moilong","urban":"Saluan","postal_code":94765},{"province":"Sulawesi Tengah","city":"Banggai","district":"Toili Barat","urban":"Rata","postal_code":94765},{"province":"Sulawesi Tengah","city":"Banggai","district":"Toili","urban":"Piondo","postal_code":94765},{"province":"Sulawesi Tengah","city":"Banggai","district":"Toili","urban":"Rusa Kencana","postal_code":94765},{"province":"Sulawesi Tengah","city":"Banggai","district":"Toili Barat","urban":"Pandan Wangi","postal_code":94765},{"province":"Sulawesi Tengah","city":"Banggai","district":"Toili Barat","urban":"Pasir Lamba","postal_code":94765},{"province":"Sulawesi Tengah","city":"Banggai","district":"Moilong","urban":"Mulio Harjo","postal_code":94765},{"province":"Sulawesi Tengah","city":"Banggai","district":"Toili","urban":"Mulyoharjo","postal_code":94765},{"province":"Sulawesi Tengah","city":"Banggai","district":"Moilong","urban":"Moilong","postal_code":94765},{"province":"Sulawesi Tengah","city":"Banggai","district":"Toili","urban":"Minakarya","postal_code":94765},{"province":"Sulawesi Tengah","city":"Banggai","district":"Toili","urban":"Moilong","postal_code":94765},{"province":"Sulawesi Tengah","city":"Banggai","district":"Moilong","urban":"Minakarya","postal_code":94765},{"province":"Sulawesi Tengah","city":"Banggai","district":"Moilong","urban":"Minahaki","postal_code":94765},{"province":"Sulawesi Tengah","city":"Banggai","district":"Toili","urban":"Minahaki","postal_code":94765},{"province":"Sulawesi Tengah","city":"Banggai","district":"Toili Barat","urban":"Mekar Sari","postal_code":94765},{"province":"Sulawesi Tengah","city":"Banggai","district":"Toili Barat","urban":"Mantawa Bonebae (Bonebai)","postal_code":94765},{"province":"Sulawesi Tengah","city":"Banggai","district":"Toili Barat","urban":"Mekar Jaya","postal_code":94765},{"province":"Sulawesi Tengah","city":"Banggai","district":"Toili Barat","urban":"Mantawa","postal_code":94765},{"province":"Sulawesi Tengah","city":"Banggai","district":"Toili","urban":"Mansahang","postal_code":94765},{"province":"Sulawesi Tengah","city":"Banggai","district":"Toili Barat","urban":"Lembah Kramat","postal_code":94765},{"province":"Sulawesi Tengah","city":"Banggai","district":"Toili Barat","urban":"Makapa","postal_code":94765},{"province":"Sulawesi Tengah","city":"Banggai","district":"Toili Barat","urban":"Karya Makmur","postal_code":94765},{"province":"Sulawesi Tengah","city":"Banggai","district":"Moilong","urban":"Karang Anyar","postal_code":94765},{"province":"Sulawesi Tengah","city":"Banggai","district":"Moilong","urban":"Karya Jaya","postal_code":94765},{"province":"Sulawesi Tengah","city":"Banggai","district":"Toili Barat","urban":"Gunung Kramat","postal_code":94765},{"province":"Sulawesi Tengah","city":"Banggai","district":"Toili Barat","urban":"Kami Wangi","postal_code":94765},{"province":"Sulawesi Tengah","city":"Banggai","district":"Toili","urban":"Bumiharjo","postal_code":94765},{"province":"Sulawesi Tengah","city":"Banggai","district":"Toili","urban":"Cendanapura","postal_code":94765},{"province":"Sulawesi Tengah","city":"Banggai","district":"Toili Barat","urban":"Dongin","postal_code":94765},{"province":"Sulawesi Tengah","city":"Banggai","district":"Moilong","urban":"Bumi Harjo","postal_code":94765},{"province":"Sulawesi Tengah","city":"Banggai","district":"Toili Barat","urban":"Bumi Harapan","postal_code":94765},{"province":"Sulawesi Tengah","city":"Banggai","district":"Toili Barat","urban":"Bukit Makarti","postal_code":94765},{"province":"Sulawesi Tengah","city":"Banggai","district":"Toili","urban":"Bentang","postal_code":94765},{"province":"Sulawesi Tengah","city":"Banggai","district":"Toili","urban":"Bukit Jaya","postal_code":94765},{"province":"Sulawesi Tengah","city":"Banggai","district":"Toili","urban":"Argakencana","postal_code":94765},{"province":"Sulawesi Tengah","city":"Banggai","district":"Moilong","urban":"Argo Mulyo","postal_code":94765},{"province":"Sulawesi Tengah","city":"Banggai","district":"Moilong","urban":"Arga Kencana","postal_code":94765}]