[{"province":"Sulawesi Tengah","city":"Banggai","district":"Lamala","urban":"Tinonda","postal_code":94771},{"province":"Sulawesi Tengah","city":"Banggai","district":"Mantoh","urban":"Sobol Baru","postal_code":94771},{"province":"Sulawesi Tengah","city":"Banggai","district":"Mantoh","urban":"Sulubombong","postal_code":94771},{"province":"Sulawesi Tengah","city":"Banggai","district":"Mantoh","urban":"Sobol","postal_code":94771},{"province":"Sulawesi Tengah","city":"Banggai","district":"Lamala","urban":"Sirong","postal_code":94771},{"province":"Sulawesi Tengah","city":"Banggai","district":"Lamala","urban":"Poroan","postal_code":94771},{"province":"Sulawesi Tengah","city":"Banggai","district":"Mantoh","urban":"Pondang","postal_code":94771},{"province":"Sulawesi Tengah","city":"Banggai","district":"Mantoh","urban":"Lonas","postal_code":94771},{"province":"Sulawesi Tengah","city":"Banggai","district":"Lamala","urban":"Nipa","postal_code":94771},{"province":"Sulawesi Tengah","city":"Banggai","district":"Lamala","urban":"Labotan","postal_code":94771},{"province":"Sulawesi Tengah","city":"Banggai","district":"Lamala","urban":"Lomba","postal_code":94771},{"province":"Sulawesi Tengah","city":"Banggai","district":"Lamala","urban":"Kotabaru","postal_code":94771},{"province":"Sulawesi Tengah","city":"Banggai","district":"Lamala","urban":"Kota Raya","postal_code":94771},{"province":"Sulawesi Tengah","city":"Banggai","district":"Lamala","urban":"Kagitakan","postal_code":94771},{"province":"Sulawesi Tengah","city":"Banggai","district":"Mantoh","urban":"Garuga","postal_code":94771},{"province":"Sulawesi Tengah","city":"Banggai","district":"Mantoh","urban":"Boras","postal_code":94771},{"province":"Sulawesi Tengah","city":"Banggai","district":"Mantoh","urban":"Bombongan","postal_code":94771},{"province":"Sulawesi Tengah","city":"Banggai","district":"Lamala","urban":"Bonebobakal","postal_code":94771},{"province":"Sulawesi Tengah","city":"Banggai","district":"Mantoh","urban":"Bolla","postal_code":94771},{"province":"Sulawesi Tengah","city":"Banggai","district":"Mantoh","urban":"Binotik","postal_code":94771},{"province":"Sulawesi Tengah","city":"Banggai","district":"Lamala","urban":"Bahari Makmur","postal_code":94771},{"province":"Sulawesi Tengah","city":"Banggai","district":"Lamala","urban":"Baruga","postal_code":94771}]