[{"province":"Sulawesi Tengah","city":"Banggai","district":"Balantak Selatan","urban":"Tongke","postal_code":94773},{"province":"Sulawesi Tengah","city":"Banggai","district":"Balantak Utara","urban":"Toweer","postal_code":94773},{"province":"Sulawesi Tengah","city":"Banggai","district":"Balantak Selatan","urban":"Tintingan","postal_code":94773},{"province":"Sulawesi Tengah","city":"Banggai","district":"Balantak Selatan","urban":"Tombos","postal_code":94773},{"province":"Sulawesi Tengah","city":"Banggai","district":"Balantak Utara","urban":"Teku","postal_code":94773},{"province":"Sulawesi Tengah","city":"Banggai","district":"Balantak","urban":"Tanotu","postal_code":94773},{"province":"Sulawesi Tengah","city":"Banggai","district":"Balantak Selatan","urban":"Tanggawas","postal_code":94773},{"province":"Sulawesi Tengah","city":"Banggai","district":"Balantak","urban":"Talima A","postal_code":94773},{"province":"Sulawesi Tengah","city":"Banggai","district":"Balantak","urban":"Talima B","postal_code":94773},{"province":"Sulawesi Tengah","city":"Banggai","district":"Balantak","urban":"Talang Batu","postal_code":94773},{"province":"Sulawesi Tengah","city":"Banggai","district":"Balantak Selatan","urban":"Sepe","postal_code":94773},{"province":"Sulawesi Tengah","city":"Banggai","district":"Balantak Selatan","urban":"Resarna","postal_code":94773},{"province":"Sulawesi Tengah","city":"Banggai","district":"Balantak","urban":"Ra&#8217;u","postal_code":94773},{"province":"Sulawesi Tengah","city":"Banggai","district":"Balantak Selatan","urban":"Poyang","postal_code":94773},{"province":"Sulawesi Tengah","city":"Banggai","district":"Balantak Utara","urban":"Pulau Dua","postal_code":94773},{"province":"Sulawesi Tengah","city":"Banggai","district":"Balantak Utara","urban":"Pangkalaseang","postal_code":94773},{"province":"Sulawesi Tengah","city":"Banggai","district":"Balantak Utara","urban":"Pangkalaseang Baru","postal_code":94773},{"province":"Sulawesi Tengah","city":"Banggai","district":"Balantak Utara","urban":"Ondoliang","postal_code":94773},{"province":"Sulawesi Tengah","city":"Banggai","district":"Balantak","urban":"Padang","postal_code":94773},{"province":"Sulawesi Tengah","city":"Banggai","district":"Balantak","urban":"Luok","postal_code":94773},{"province":"Sulawesi Tengah","city":"Banggai","district":"Balantak","urban":"Mamping","postal_code":94773},{"province":"Sulawesi Tengah","city":"Banggai","district":"Balantak Utara","urban":"Kuntang","postal_code":94773},{"province":"Sulawesi Tengah","city":"Banggai","district":"Balantak","urban":"Kiloma","postal_code":94773},{"province":"Sulawesi Tengah","city":"Banggai","district":"Balantak Selatan","urban":"Gorontalo","postal_code":94773},{"province":"Sulawesi Tengah","city":"Banggai","district":"Balantak Utara","urban":"Kampangar","postal_code":94773},{"province":"Sulawesi Tengah","city":"Banggai","district":"Balantak Selatan","urban":"Dondo","postal_code":94773},{"province":"Sulawesi Tengah","city":"Banggai","district":"Balantak Selatan","urban":"Giwang","postal_code":94773},{"province":"Sulawesi Tengah","city":"Banggai","district":"Balantak","urban":"Dolom","postal_code":94773},{"province":"Sulawesi Tengah","city":"Banggai","district":"Balantak","urban":"Dale-Dale","postal_code":94773},{"province":"Sulawesi Tengah","city":"Banggai","district":"Balantak Selatan","urban":"Booy","postal_code":94773},{"province":"Sulawesi Tengah","city":"Banggai","district":"Balantak","urban":"Boloak","postal_code":94773},{"province":"Sulawesi Tengah","city":"Banggai","district":"Balantak Utara","urban":"Batu Mandi","postal_code":94773},{"province":"Sulawesi Tengah","city":"Banggai","district":"Balantak Utara","urban":"Batu Simpang","postal_code":94773},{"province":"Sulawesi Tengah","city":"Banggai","district":"Balantak","urban":"Balantak","postal_code":94773}]