[{"province":"Sulawesi Tengah","city":"Banggai Kepulauan","district":"Bulagi Selatan","urban":"Toy-Toy","postal_code":94882},{"province":"Sulawesi Tengah","city":"Banggai Kepulauan","district":"Bulagi Selatan","urban":"Unu","postal_code":94882},{"province":"Sulawesi Tengah","city":"Banggai Kepulauan","district":"Bulagi","urban":"Tolo","postal_code":94882},{"province":"Sulawesi Tengah","city":"Banggai Kepulauan","district":"Bulagi","urban":"Toolon","postal_code":94882},{"province":"Sulawesi Tengah","city":"Banggai Kepulauan","district":"Bulagi Selatan","urban":"Suit","postal_code":94882},{"province":"Sulawesi Tengah","city":"Banggai Kepulauan","district":"Bulagi Selatan","urban":"Tatarandang","postal_code":94882},{"province":"Sulawesi Tengah","city":"Banggai Kepulauan","district":"Bulagi","urban":"Sumondung","postal_code":94882},{"province":"Sulawesi Tengah","city":"Banggai Kepulauan","district":"Bulagi Utara","urban":"Sambulangan","postal_code":94882},{"province":"Sulawesi Tengah","city":"Banggai Kepulauan","district":"Bulagi","urban":"Sosom","postal_code":94882},{"province":"Sulawesi Tengah","city":"Banggai Kepulauan","district":"Bulagi Selatan","urban":"Sabelak","postal_code":94882},{"province":"Sulawesi Tengah","city":"Banggai Kepulauan","district":"Bulagi Utara","urban":"Sabang","postal_code":94882},{"province":"Sulawesi Tengah","city":"Banggai Kepulauan","district":"Bulagi","urban":"Peling Seasa","postal_code":94882},{"province":"Sulawesi Tengah","city":"Banggai Kepulauan","district":"Bulagi Selatan","urban":"Pandaluk","postal_code":94882},{"province":"Sulawesi Tengah","city":"Banggai Kepulauan","district":"Bulagi Selatan","urban":"Pipilogot Paipaisu","postal_code":94882},{"province":"Sulawesi Tengah","city":"Banggai Kepulauan","district":"Bulagi Selatan","urban":"Palabatu Dua","postal_code":94882},{"province":"Sulawesi Tengah","city":"Banggai Kepulauan","district":"Bulagi Selatan","urban":"Palabatu Satu","postal_code":94882},{"province":"Sulawesi Tengah","city":"Banggai Kepulauan","district":"Bulagi Selatan","urban":"Osan","postal_code":94882},{"province":"Sulawesi Tengah","city":"Banggai Kepulauan","district":"Bulagi Utara","urban":"Paisuluno","postal_code":94882},{"province":"Sulawesi Tengah","city":"Banggai Kepulauan","district":"Bulagi Utara","urban":"Montop","postal_code":94882},{"province":"Sulawesi Tengah","city":"Banggai Kepulauan","district":"Bulagi Utara","urban":"Ombuli","postal_code":94882},{"province":"Sulawesi Tengah","city":"Banggai Kepulauan","district":"Bulagi","urban":"Oluno","postal_code":94882},{"province":"Sulawesi Tengah","city":"Banggai Kepulauan","district":"Bulagi Selatan","urban":"Momotan","postal_code":94882},{"province":"Sulawesi Tengah","city":"Banggai Kepulauan","district":"Bulagi","urban":"Montomisan","postal_code":94882},{"province":"Sulawesi Tengah","city":"Banggai Kepulauan","district":"Bulagi Selatan","urban":"Mangais","postal_code":94882},{"province":"Sulawesi Tengah","city":"Banggai Kepulauan","district":"Bulagi Utara","urban":"Minanga","postal_code":94882},{"province":"Sulawesi Tengah","city":"Banggai Kepulauan","district":"Bulagi Utara","urban":"Minanga","postal_code":94882},{"province":"Sulawesi Tengah","city":"Banggai Kepulauan","district":"Bulagi Selatan","urban":"Lolantang","postal_code":94882},{"province":"Sulawesi Tengah","city":"Banggai Kepulauan","district":"Bulagi Utara","urban":"Luk Panenteng","postal_code":94882},{"province":"Sulawesi Tengah","city":"Banggai Kepulauan","district":"Bulagi Utara","urban":"Mandok","postal_code":94882},{"province":"Sulawesi Tengah","city":"Banggai Kepulauan","district":"Bulagi Selatan","urban":"Labotakandi","postal_code":94882},{"province":"Sulawesi Tengah","city":"Banggai Kepulauan","district":"Bulagi Selatan","urban":"Lemelu","postal_code":94882},{"province":"Sulawesi Tengah","city":"Banggai Kepulauan","district":"Bulagi","urban":"Lalanday","postal_code":94882},{"province":"Sulawesi Tengah","city":"Banggai Kepulauan","district":"Bulagi Utara","urban":"Koyobunga","postal_code":94882},{"province":"Sulawesi Tengah","city":"Banggai Kepulauan","district":"Bulagi","urban":"Kayubet","postal_code":94882},{"province":"Sulawesi Tengah","city":"Banggai Kepulauan","district":"Bulagi","urban":"Komba-Komba","postal_code":94882},{"province":"Sulawesi Tengah","city":"Banggai Kepulauan","district":"Bulagi Selatan","urban":"Bonepuso","postal_code":94882},{"province":"Sulawesi Tengah","city":"Banggai Kepulauan","district":"Bulagi","urban":"Bulagi Dua","postal_code":94882},{"province":"Sulawesi Tengah","city":"Banggai Kepulauan","district":"Bulagi","urban":"Bulagi Satu","postal_code":94882},{"province":"Sulawesi Tengah","city":"Banggai Kepulauan","district":"Bulagi","urban":"Kambal","postal_code":94882},{"province":"Sulawesi Tengah","city":"Banggai Kepulauan","district":"Bulagi Selatan","urban":"Boluni","postal_code":94882},{"province":"Sulawesi Tengah","city":"Banggai Kepulauan","district":"Bulagi Utara","urban":"Bolubung","postal_code":94882},{"province":"Sulawesi Tengah","city":"Banggai Kepulauan","district":"Bulagi","urban":"Boloi (Boloy)","postal_code":94882},{"province":"Sulawesi Tengah","city":"Banggai Kepulauan","district":"Bulagi Utara","urban":"Bangunemo","postal_code":94882},{"province":"Sulawesi Tengah","city":"Banggai Kepulauan","district":"Bulagi Selatan","urban":"Balalon","postal_code":94882},{"province":"Sulawesi Tengah","city":"Banggai Kepulauan","district":"Bulagi Utara","urban":"Bakalinga","postal_code":94882},{"province":"Sulawesi Tengah","city":"Banggai Kepulauan","district":"Bulagi Selatan","urban":"Babang","postal_code":94882},{"province":"Sulawesi Tengah","city":"Banggai Kepulauan","district":"Bulagi","urban":"Alul","postal_code":94882},{"province":"Sulawesi Tengah","city":"Banggai Kepulauan","district":"Bulagi Selatan","urban":"Alasan Nggolobuton","postal_code":94882}]