[{"province":"Sulawesi Tengah","city":"Banggai Kepulauan","district":"Tinangkung","urban":"Tompudau","postal_code":94885},{"province":"Sulawesi Tengah","city":"Banggai Kepulauan","district":"Tinangkung Selatan","urban":"Tinangkung","postal_code":94885},{"province":"Sulawesi Tengah","city":"Banggai Kepulauan","district":"Tinangkung Selatan","urban":"Tobing","postal_code":94885},{"province":"Sulawesi Tengah","city":"Banggai Kepulauan","district":"Tinangkung Selatan","urban":"Tobungin","postal_code":94885},{"province":"Sulawesi Tengah","city":"Banggai Kepulauan","district":"Tinangkung Utara","urban":"Tatakalai","postal_code":94885},{"province":"Sulawesi Tengah","city":"Banggai Kepulauan","district":"Tinangkung Utara","urban":"Ponding-Ponding","postal_code":94885},{"province":"Sulawesi Tengah","city":"Banggai Kepulauan","district":"Tinangkung","urban":"Saiyong","postal_code":94885},{"province":"Sulawesi Tengah","city":"Banggai Kepulauan","district":"Tinangkung","urban":"Salakan","postal_code":94885},{"province":"Sulawesi Tengah","city":"Banggai Kepulauan","district":"Tinangkung Utara","urban":"Palam","postal_code":94885},{"province":"Sulawesi Tengah","city":"Banggai Kepulauan","district":"Tinangkung Selatan","urban":"Mansamat A","postal_code":94885},{"province":"Sulawesi Tengah","city":"Banggai Kepulauan","district":"Tinangkung Selatan","urban":"Mansamat B","postal_code":94885},{"province":"Sulawesi Tengah","city":"Banggai Kepulauan","district":"Tinangkung Selatan","urban":"Paisumosoni","postal_code":94885},{"province":"Sulawesi Tengah","city":"Banggai Kepulauan","district":"Tinangkung Utara","urban":"Lalong","postal_code":94885},{"province":"Sulawesi Tengah","city":"Banggai Kepulauan","district":"Tinangkung Utara","urban":"Luk Sagu","postal_code":94885},{"province":"Sulawesi Tengah","city":"Banggai Kepulauan","district":"Tinangkung","urban":"Manggalai","postal_code":94885},{"province":"Sulawesi Tengah","city":"Banggai Kepulauan","district":"Tinangkung Selatan","urban":"Gansal","postal_code":94885},{"province":"Sulawesi Tengah","city":"Banggai Kepulauan","district":"Tinangkung Selatan","urban":"Gansal","postal_code":94885},{"province":"Sulawesi Tengah","city":"Banggai Kepulauan","district":"Tinangkung","urban":"Bulungkobit","postal_code":94885},{"province":"Sulawesi Tengah","city":"Banggai Kepulauan","district":"Tinangkung","urban":"Bungin","postal_code":94885},{"province":"Sulawesi Tengah","city":"Banggai Kepulauan","district":"Tinangkung","urban":"Bongganan","postal_code":94885},{"province":"Sulawesi Tengah","city":"Banggai Kepulauan","district":"Tinangkung Selatan","urban":"Bobu","postal_code":94885},{"province":"Sulawesi Tengah","city":"Banggai Kepulauan","district":"Tinangkung Utara","urban":"Bampanga","postal_code":94885},{"province":"Sulawesi Tengah","city":"Banggai Kepulauan","district":"Tinangkung","urban":"Baka","postal_code":94885},{"province":"Sulawesi Tengah","city":"Banggai Kepulauan","district":"Tinangkung","urban":"Bakalan","postal_code":94885},{"province":"Sulawesi Tengah","city":"Banggai Kepulauan","district":"Tinangkung","urban":"Ambelang","postal_code":94885}]