[{"province":"Sulawesi Tengah","city":"Banggai Kepulauan","district":"Peling Tengah","urban":"Tombos","postal_code":94883},{"province":"Sulawesi Tengah","city":"Banggai Kepulauan","district":"Peling Tengah","urban":"Tunggaling","postal_code":94883},{"province":"Sulawesi Tengah","city":"Banggai Kepulauan","district":"Peling Tengah","urban":"Tolulos","postal_code":94883},{"province":"Sulawesi Tengah","city":"Banggai Kepulauan","district":"Liang","urban":"Tomboniki","postal_code":94883},{"province":"Sulawesi Tengah","city":"Banggai Kepulauan","district":"Liang","urban":"Selekan","postal_code":94883},{"province":"Sulawesi Tengah","city":"Banggai Kepulauan","district":"Liang","urban":"Tangkop","postal_code":94883},{"province":"Sulawesi Tengah","city":"Banggai Kepulauan","district":"Liang","urban":"Popidolon","postal_code":94883},{"province":"Sulawesi Tengah","city":"Banggai Kepulauan","district":"Peling Tengah","urban":"Popisi","postal_code":94883},{"province":"Sulawesi Tengah","city":"Banggai Kepulauan","district":"Liang","urban":"Saleati","postal_code":94883},{"province":"Sulawesi Tengah","city":"Banggai Kepulauan","district":"Liang","urban":"Okumel","postal_code":94883},{"province":"Sulawesi Tengah","city":"Banggai Kepulauan","district":"Peling Tengah","urban":"Patukuki","postal_code":94883},{"province":"Sulawesi Tengah","city":"Banggai Kepulauan","district":"Liang","urban":"Mamulusan","postal_code":94883},{"province":"Sulawesi Tengah","city":"Banggai Kepulauan","district":"Peling Tengah","urban":"Luk","postal_code":94883},{"province":"Sulawesi Tengah","city":"Banggai Kepulauan","district":"Liang","urban":"Loolong","postal_code":94883},{"province":"Sulawesi Tengah","city":"Banggai Kepulauan","district":"Liang","urban":"Liang","postal_code":94883},{"province":"Sulawesi Tengah","city":"Banggai Kepulauan","district":"Peling Tengah","urban":"Labibi","postal_code":94883},{"province":"Sulawesi Tengah","city":"Banggai Kepulauan","district":"Peling Tengah","urban":"Kolak","postal_code":94883},{"province":"Sulawesi Tengah","city":"Banggai Kepulauan","district":"Peling Tengah","urban":"Koyobunga","postal_code":94883},{"province":"Sulawesi Tengah","city":"Banggai Kepulauan","district":"Liang","urban":"Boyomoute","postal_code":94883},{"province":"Sulawesi Tengah","city":"Banggai Kepulauan","district":"Liang","urban":"Kindandal","postal_code":94883},{"province":"Sulawesi Tengah","city":"Banggai Kepulauan","district":"Liang","urban":"Basosol","postal_code":94883},{"province":"Sulawesi Tengah","city":"Banggai Kepulauan","district":"Liang","urban":"Binuntuli","postal_code":94883},{"province":"Sulawesi Tengah","city":"Banggai Kepulauan","district":"Liang","urban":"Balayon","postal_code":94883},{"province":"Sulawesi Tengah","city":"Banggai Kepulauan","district":"Peling Tengah","urban":"Balombong","postal_code":94883},{"province":"Sulawesi Tengah","city":"Banggai Kepulauan","district":"Liang","urban":"Apal","postal_code":94883},{"province":"Sulawesi Tengah","city":"Banggai Kepulauan","district":"Liang","urban":"Bajo","postal_code":94883},{"province":"Sulawesi Tengah","city":"Banggai Kepulauan","district":"Peling Tengah","urban":"Alakasing","postal_code":94883}]