[{"province":"Sulawesi Tengah","city":"Banggai Kepulauan","district":"Totikum (Totikung)","urban":"Tone","postal_code":94884},{"province":"Sulawesi Tengah","city":"Banggai Kepulauan","district":"Totikum Selatan","urban":"Tonuson","postal_code":94884},{"province":"Sulawesi Tengah","city":"Banggai Kepulauan","district":"Totikum Selatan","urban":"Tobungku","postal_code":94884},{"province":"Sulawesi Tengah","city":"Banggai Kepulauan","district":"Totikum (Totikung)","urban":"Sampaka","postal_code":94884},{"province":"Sulawesi Tengah","city":"Banggai Kepulauan","district":"Totikum (Totikung)","urban":"Sobonon","postal_code":94884},{"province":"Sulawesi Tengah","city":"Banggai Kepulauan","district":"Totikum (Totikung)","urban":"Sambiut","postal_code":94884},{"province":"Sulawesi Tengah","city":"Banggai Kepulauan","district":"Totikum (Totikung)","urban":"Sakay","postal_code":94884},{"province":"Sulawesi Tengah","city":"Banggai Kepulauan","district":"Totikum (Totikung)","urban":"Salangano","postal_code":94884},{"province":"Sulawesi Tengah","city":"Banggai Kepulauan","district":"Totikum Selatan","urban":"Nulion","postal_code":94884},{"province":"Sulawesi Tengah","city":"Banggai Kepulauan","district":"Totikum Selatan","urban":"Peley","postal_code":94884},{"province":"Sulawesi Tengah","city":"Banggai Kepulauan","district":"Totikum (Totikung)","urban":"Lopito","postal_code":94884},{"province":"Sulawesi Tengah","city":"Banggai Kepulauan","district":"Totikum (Totikung)","urban":"Lopito","postal_code":94884},{"province":"Sulawesi Tengah","city":"Banggai Kepulauan","district":"Totikum Selatan","urban":"Lobuton","postal_code":94884},{"province":"Sulawesi Tengah","city":"Banggai Kepulauan","district":"Totikum (Totikung)","urban":"Kombutokan","postal_code":94884},{"province":"Sulawesi Tengah","city":"Banggai Kepulauan","district":"Totikum Selatan","urban":"Kalumbatan","postal_code":94884},{"province":"Sulawesi Tengah","city":"Banggai Kepulauan","district":"Totikum Selatan","urban":"Kanali","postal_code":94884},{"province":"Sulawesi Tengah","city":"Banggai Kepulauan","district":"Totikum (Totikung)","urban":"Bolonan","postal_code":94884},{"province":"Sulawesi Tengah","city":"Banggai Kepulauan","district":"Totikum (Totikung)","urban":"Abason","postal_code":94884},{"province":"Sulawesi Tengah","city":"Banggai Kepulauan","district":"Totikum (Totikung)","urban":"Batang Babasal","postal_code":94884}]