[{"province":"Sulawesi Tengah","city":"Banggai Kepulauan","district":"Buko","urban":"Tatendeng","postal_code":94881},{"province":"Sulawesi Tengah","city":"Banggai Kepulauan","district":"Buko Selatan","urban":"Tatabau","postal_code":94881},{"province":"Sulawesi Tengah","city":"Banggai Kepulauan","district":"Buko","urban":"Tataba","postal_code":94881},{"province":"Sulawesi Tengah","city":"Banggai Kepulauan","district":"Buko Selatan","urban":"Sapelang","postal_code":94881},{"province":"Sulawesi Tengah","city":"Banggai Kepulauan","district":"Buko Selatan","urban":"Seano","postal_code":94881},{"province":"Sulawesi Tengah","city":"Banggai Kepulauan","district":"Buko","urban":"Talas-talas","postal_code":94881},{"province":"Sulawesi Tengah","city":"Banggai Kepulauan","district":"Buko Selatan","urban":"Palapat","postal_code":94881},{"province":"Sulawesi Tengah","city":"Banggai Kepulauan","district":"Buko","urban":"Paisubatu","postal_code":94881},{"province":"Sulawesi Tengah","city":"Banggai Kepulauan","district":"Buko","urban":"Peling Lalomo","postal_code":94881},{"province":"Sulawesi Tengah","city":"Banggai Kepulauan","district":"Buko","urban":"Okulo Potil","postal_code":94881},{"province":"Sulawesi Tengah","city":"Banggai Kepulauan","district":"Buko","urban":"Olusi","postal_code":94881},{"province":"Sulawesi Tengah","city":"Banggai Kepulauan","district":"Buko","urban":"Malanggong","postal_code":94881},{"province":"Sulawesi Tengah","city":"Banggai Kepulauan","district":"Buko","urban":"Leme-Leme Darat","postal_code":94881},{"province":"Sulawesi Tengah","city":"Banggai Kepulauan","district":"Buko Selatan","urban":"Lumbi-Lumbia","postal_code":94881},{"province":"Sulawesi Tengah","city":"Banggai Kepulauan","district":"Buko","urban":"Leme-Leme Bungin","postal_code":94881},{"province":"Sulawesi Tengah","city":"Banggai Kepulauan","district":"Buko Selatan","urban":"Lelang Matamaling","postal_code":94881},{"province":"Sulawesi Tengah","city":"Banggai Kepulauan","district":"Buko","urban":"Labasiano","postal_code":94881},{"province":"Sulawesi Tengah","city":"Banggai Kepulauan","district":"Buko","urban":"Lalengan","postal_code":94881},{"province":"Sulawesi Tengah","city":"Banggai Kepulauan","district":"Buko Selatan","urban":"Landonan Bebeau","postal_code":94881},{"province":"Sulawesi Tengah","city":"Banggai Kepulauan","district":"Buko Selatan","urban":"Buko","postal_code":94881},{"province":"Sulawesi Tengah","city":"Banggai Kepulauan","district":"Buko Selatan","urban":"Kambani","postal_code":94881},{"province":"Sulawesi Tengah","city":"Banggai Kepulauan","district":"Buko Selatan","urban":"Labangun","postal_code":94881},{"province":"Sulawesi Tengah","city":"Banggai Kepulauan","district":"Buko","urban":"Batangono","postal_code":94881},{"province":"Sulawesi Tengah","city":"Banggai Kepulauan","district":"Buko Selatan","urban":"Apal","postal_code":94881}]