[{"province":"Sulawesi Tengah","city":"Banggai Kepulauan","district":"Banggai Selatan","urban":"Tolokibit","postal_code":94891},{"province":"Sulawesi Tengah","city":"Banggai Kepulauan","district":"Banggai Utara","urban":"Tolise Tubono","postal_code":94891},{"province":"Sulawesi Tengah","city":"Banggai Kepulauan","district":"Banggai Tengah","urban":"Tintingo","postal_code":94891},{"province":"Sulawesi Tengah","city":"Banggai Kepulauan","district":"Banggai","urban":"Tinakin Laut","postal_code":94891},{"province":"Sulawesi Tengah","city":"Banggai Kepulauan","district":"Banggai Tengah","urban":"Timbong Mominit","postal_code":94891},{"province":"Sulawesi Tengah","city":"Banggai Kepulauan","district":"Banggai","urban":"Tano Bonunungan","postal_code":94891},{"province":"Sulawesi Tengah","city":"Banggai Kepulauan","district":"Banggai","urban":"Potil Pololoba","postal_code":94891},{"province":"Sulawesi Tengah","city":"Banggai Kepulauan","district":"Banggai Tengah","urban":"Pososlalongo","postal_code":94891},{"province":"Sulawesi Tengah","city":"Banggai Kepulauan","district":"Banggai Utara","urban":"Popisi","postal_code":94891},{"province":"Sulawesi Tengah","city":"Banggai Kepulauan","district":"Banggai","urban":"Pasir Putih","postal_code":94891},{"province":"Sulawesi Tengah","city":"Banggai Kepulauan","district":"Banggai Utara","urban":"Paisumosoni","postal_code":94891},{"province":"Sulawesi Tengah","city":"Banggai Kepulauan","district":"Banggai Tengah","urban":"Mominit","postal_code":94891},{"province":"Sulawesi Tengah","city":"Banggai Kepulauan","district":"Banggai Tengah","urban":"Monsongan","postal_code":94891},{"province":"Sulawesi Tengah","city":"Banggai Kepulauan","district":"Banggai Selatan","urban":"Matanga","postal_code":94891},{"province":"Sulawesi Tengah","city":"Banggai Kepulauan","district":"Banggai","urban":"Lompio","postal_code":94891},{"province":"Sulawesi Tengah","city":"Banggai Kepulauan","district":"Banggai Selatan","urban":"Malino Padas","postal_code":94891},{"province":"Sulawesi Tengah","city":"Banggai Kepulauan","district":"Banggai Utara","urban":"Lokotoy","postal_code":94891},{"province":"Sulawesi Tengah","city":"Banggai Kepulauan","district":"Banggai","urban":"Lampa","postal_code":94891},{"province":"Sulawesi Tengah","city":"Banggai Kepulauan","district":"Banggai Selatan","urban":"Labuan Kapelak","postal_code":94891},{"province":"Sulawesi Tengah","city":"Banggai Kepulauan","district":"Banggai","urban":"Kokini","postal_code":94891},{"province":"Sulawesi Tengah","city":"Banggai Kepulauan","district":"Banggai","urban":"Lambako","postal_code":94891},{"province":"Sulawesi Tengah","city":"Banggai Kepulauan","district":"Banggai Selatan","urban":"Kelapa Lima","postal_code":94891},{"province":"Sulawesi Tengah","city":"Banggai Kepulauan","district":"Banggai Utara","urban":"Kendek","postal_code":94891},{"province":"Sulawesi Tengah","city":"Banggai Kepulauan","district":"Banggai Tengah","urban":"Gong-Gong","postal_code":94891},{"province":"Sulawesi Tengah","city":"Banggai Kepulauan","district":"Banggai","urban":"Dangkalan","postal_code":94891},{"province":"Sulawesi Tengah","city":"Banggai Kepulauan","district":"Banggai","urban":"Dodung","postal_code":94891},{"province":"Sulawesi Tengah","city":"Banggai Kepulauan","district":"Banggai Utara","urban":"Bone Baru","postal_code":94891},{"province":"Sulawesi Tengah","city":"Banggai Kepulauan","district":"Banggai Selatan","urban":"Bantean","postal_code":94891},{"province":"Sulawesi Tengah","city":"Banggai Kepulauan","district":"Banggai Tengah","urban":"Adean","postal_code":94891},{"province":"Sulawesi Tengah","city":"Banggai Kepulauan","district":"Banggai Tengah","urban":"Badumpayan","postal_code":94891}]