[{"province":"Sulawesi Tengah","city":"Banggai Kepulauan","district":"Bokan Kepulauan","urban":"Toropot","postal_code":94892},{"province":"Sulawesi Tengah","city":"Banggai Kepulauan","district":"Bangkurung","urban":"Togong Sagu","postal_code":94892},{"province":"Sulawesi Tengah","city":"Banggai Kepulauan","district":"Bokan Kepulauan","urban":"Timpaus","postal_code":94892},{"province":"Sulawesi Tengah","city":"Banggai Kepulauan","district":"Bangkurung","urban":"Taduno","postal_code":94892},{"province":"Sulawesi Tengah","city":"Banggai Kepulauan","district":"Bangkurung","urban":"Tabulang","postal_code":94892},{"province":"Sulawesi Tengah","city":"Banggai Kepulauan","district":"Bangkurung","urban":"Tadiana Bungin","postal_code":94892},{"province":"Sulawesi Tengah","city":"Banggai Kepulauan","district":"Bangkurung","urban":"Sasabobok","postal_code":94892},{"province":"Sulawesi Tengah","city":"Banggai Kepulauan","district":"Bokan Kepulauan","urban":"Sonit","postal_code":94892},{"province":"Sulawesi Tengah","city":"Banggai Kepulauan","district":"Bokan Kepulauan","urban":"Panapat","postal_code":94892},{"province":"Sulawesi Tengah","city":"Banggai Kepulauan","district":"Labobo (Lobangkurung)","urban":"Paisulamo","postal_code":94892},{"province":"Sulawesi Tengah","city":"Banggai Kepulauan","district":"Bokan Kepulauan","urban":"Paisubebe","postal_code":94892},{"province":"Sulawesi Tengah","city":"Banggai Kepulauan","district":"Labobo (Lobangkurung)","urban":"Padingkian","postal_code":94892},{"province":"Sulawesi Tengah","city":"Banggai Kepulauan","district":"Bokan Kepulauan","urban":"Ndindibung","postal_code":94892},{"province":"Sulawesi Tengah","city":"Banggai Kepulauan","district":"Bokan Kepulauan","urban":"Nggasuang","postal_code":94892},{"province":"Sulawesi Tengah","city":"Banggai Kepulauan","district":"Bokan Kepulauan","urban":"Mbuang Mbuang","postal_code":94892},{"province":"Sulawesi Tengah","city":"Banggai Kepulauan","district":"Bokan Kepulauan","urban":"Minanga","postal_code":94892},{"province":"Sulawesi Tengah","city":"Banggai Kepulauan","district":"Bangkurung","urban":"Mbeleang","postal_code":94892},{"province":"Sulawesi Tengah","city":"Banggai Kepulauan","district":"Labobo (Lobangkurung)","urban":"Mansalean","postal_code":94892},{"province":"Sulawesi Tengah","city":"Banggai Kepulauan","district":"Bokan Kepulauan","urban":"Mandel","postal_code":94892},{"province":"Sulawesi Tengah","city":"Banggai Kepulauan","district":"Labobo (Lobangkurung)","urban":"Lipu Talas","postal_code":94892},{"province":"Sulawesi Tengah","city":"Banggai Kepulauan","district":"Labobo (Lobangkurung)","urban":"Lipulalongo","postal_code":94892},{"province":"Sulawesi Tengah","city":"Banggai Kepulauan","district":"Bangkurung","urban":"Lantibung","postal_code":94892},{"province":"Sulawesi Tengah","city":"Banggai Kepulauan","district":"Labobo (Lobangkurung)","urban":"Lalong","postal_code":94892},{"province":"Sulawesi Tengah","city":"Banggai Kepulauan","district":"Bangkurung","urban":"Lalong","postal_code":94892},{"province":"Sulawesi Tengah","city":"Banggai Kepulauan","district":"Bokan Kepulauan","urban":"Kokudang","postal_code":94892},{"province":"Sulawesi Tengah","city":"Banggai Kepulauan","district":"Bokan Kepulauan","urban":"Keak","postal_code":94892},{"province":"Sulawesi Tengah","city":"Banggai Kepulauan","district":"Bokan Kepulauan","urban":"Kasuari","postal_code":94892},{"province":"Sulawesi Tengah","city":"Banggai Kepulauan","district":"Bokan Kepulauan","urban":"Kaukes","postal_code":94892},{"province":"Sulawesi Tengah","city":"Banggai Kepulauan","district":"Bangkurung","urban":"Kalupapi","postal_code":94892},{"province":"Sulawesi Tengah","city":"Banggai Kepulauan","district":"Bangkurung","urban":"Kanari","postal_code":94892},{"province":"Sulawesi Tengah","city":"Banggai Kepulauan","district":"Bokan Kepulauan","urban":"Bungin","postal_code":94892},{"province":"Sulawesi Tengah","city":"Banggai Kepulauan","district":"Bangkurung","urban":"Dungkean","postal_code":94892},{"province":"Sulawesi Tengah","city":"Banggai Kepulauan","district":"Bangkurung","urban":"Bone Bone","postal_code":94892},{"province":"Sulawesi Tengah","city":"Banggai Kepulauan","district":"Labobo (Lobangkurung)","urban":"Bontosi","postal_code":94892},{"province":"Sulawesi Tengah","city":"Banggai Kepulauan","district":"Bokan Kepulauan","urban":"Bolokut","postal_code":94892},{"province":"Sulawesi Tengah","city":"Banggai Kepulauan","district":"Labobo (Lobangkurung)","urban":"Alasan","postal_code":94892}]