[{"province":"Sulawesi Tengah","city":"Morowali","district":"Mori Utara","urban":"Wowondula","postal_code":94965},{"province":"Sulawesi Tengah","city":"Morowali","district":"Mori Atas","urban":"Tomui Karya","postal_code":94965},{"province":"Sulawesi Tengah","city":"Morowali","district":"Mori Atas","urban":"Tomata","postal_code":94965},{"province":"Sulawesi Tengah","city":"Morowali","district":"Mori Utara","urban":"Tiwaa","postal_code":94965},{"province":"Sulawesi Tengah","city":"Morowali","district":"Mori Utara","urban":"Tamonjengi","postal_code":94965},{"province":"Sulawesi Tengah","city":"Morowali","district":"Mori Atas","urban":"Taende","postal_code":94965},{"province":"Sulawesi Tengah","city":"Morowali","district":"Mori Utara","urban":"Tabarano","postal_code":94965},{"province":"Sulawesi Tengah","city":"Morowali","district":"Mori Atas","urban":"Saemba Walati","postal_code":94965},{"province":"Sulawesi Tengah","city":"Morowali","district":"Mori Atas","urban":"Saemba","postal_code":94965},{"province":"Sulawesi Tengah","city":"Morowali","district":"Mori Atas","urban":"Peonea","postal_code":94965},{"province":"Sulawesi Tengah","city":"Morowali","district":"Mori Utara","urban":"Peleru","postal_code":94965},{"province":"Sulawesi Tengah","city":"Morowali","district":"Mori Atas","urban":"Pambarea","postal_code":94965},{"province":"Sulawesi Tengah","city":"Morowali","district":"Mori Utara","urban":"Lembontonara","postal_code":94965},{"province":"Sulawesi Tengah","city":"Morowali","district":"Mori Utara","urban":"Mayumba","postal_code":94965},{"province":"Sulawesi Tengah","city":"Morowali","district":"Mori Atas","urban":"Londi","postal_code":94965},{"province":"Sulawesi Tengah","city":"Morowali","district":"Mori Atas","urban":"Lanumor","postal_code":94965},{"province":"Sulawesi Tengah","city":"Morowali","district":"Mori Atas","urban":"Lee","postal_code":94965},{"province":"Sulawesi Tengah","city":"Morowali","district":"Mori Atas","urban":"Kolaka","postal_code":94965},{"province":"Sulawesi Tengah","city":"Morowali","district":"Mori Atas","urban":"Gontara","postal_code":94965},{"province":"Sulawesi Tengah","city":"Morowali","district":"Mori Atas","urban":"Kasingoli","postal_code":94965},{"province":"Sulawesi Tengah","city":"Morowali","district":"Mori Utara","urban":"Era","postal_code":94965},{"province":"Sulawesi Tengah","city":"Morowali","district":"Mori Atas","urban":"Ensa","postal_code":94965}]