[{"province":"Sulawesi Tengah","city":"Morowali","district":"Lembo","urban":"Wawopada","postal_code":94966},{"province":"Sulawesi Tengah","city":"Morowali","district":"Lembo","urban":"Waraa","postal_code":94966},{"province":"Sulawesi Tengah","city":"Morowali","district":"Lembo","urban":"Uluanso","postal_code":94966},{"province":"Sulawesi Tengah","city":"Morowali","district":"Lembo","urban":"Tinompo","postal_code":94966},{"province":"Sulawesi Tengah","city":"Morowali","district":"Lembo","urban":"Tingkeao","postal_code":94966},{"province":"Sulawesi Tengah","city":"Morowali","district":"Lembo Raya","urban":"Ronta","postal_code":94966},{"province":"Sulawesi Tengah","city":"Morowali","district":"Lembo Raya","urban":"Pontangoa","postal_code":94966},{"province":"Sulawesi Tengah","city":"Morowali","district":"Lembo Raya","urban":"Po&#8217;ona","postal_code":94966},{"province":"Sulawesi Tengah","city":"Morowali","district":"Lembo Raya","urban":"Petumbea","postal_code":94966},{"province":"Sulawesi Tengah","city":"Morowali","district":"Lembo Raya","urban":"Pa&#8217;awaru","postal_code":94966},{"province":"Sulawesi Tengah","city":"Morowali","district":"Lembo","urban":"Mora","postal_code":94966},{"province":"Sulawesi Tengah","city":"Morowali","district":"Lembo Raya","urban":"Mandula","postal_code":94966},{"province":"Sulawesi Tengah","city":"Morowali","district":"Lembo","urban":"Lemboroma","postal_code":94966},{"province":"Sulawesi Tengah","city":"Morowali","district":"Lembo Raya","urban":"Lembobelala","postal_code":94966},{"province":"Sulawesi Tengah","city":"Morowali","district":"Lembo","urban":"Lembobaru","postal_code":94966},{"province":"Sulawesi Tengah","city":"Morowali","district":"Lembo","urban":"Kumpi","postal_code":94966},{"province":"Sulawesi Tengah","city":"Morowali","district":"Lembo","urban":"Korowou","postal_code":94966},{"province":"Sulawesi Tengah","city":"Morowali","district":"Lembo","urban":"Korow Alelo","postal_code":94966},{"province":"Sulawesi Tengah","city":"Morowali","district":"Lembo","urban":"Korompeli","postal_code":94966},{"province":"Sulawesi Tengah","city":"Morowali","district":"Lembo","urban":"Korobonde","postal_code":94966},{"province":"Sulawesi Tengah","city":"Morowali","district":"Lembo Raya","urban":"Jamor Jaya","postal_code":94966},{"province":"Sulawesi Tengah","city":"Morowali","district":"Lembo Raya","urban":"Dolupo Karya","postal_code":94966},{"province":"Sulawesi Tengah","city":"Morowali","district":"Lembo Raya","urban":"Bintangor Mukti","postal_code":94966},{"province":"Sulawesi Tengah","city":"Morowali","district":"Lembo","urban":"Beteleme","postal_code":94966}]