[{"province":"Sulawesi Tengah","city":"Morowali","district":"Bungku Barat","urban":"Wosu","postal_code":94976},{"province":"Sulawesi Tengah","city":"Morowali","district":"Bungku Barat","urban":"Umpanga","postal_code":94976},{"province":"Sulawesi Tengah","city":"Morowali","district":"Bungku Barat","urban":"Wata","postal_code":94976},{"province":"Sulawesi Tengah","city":"Morowali","district":"Wita Ponda","urban":"Ungkaya","postal_code":94976},{"province":"Sulawesi Tengah","city":"Morowali","district":"Bungku Barat","urban":"Uedago","postal_code":94976},{"province":"Sulawesi Tengah","city":"Morowali","district":"Bumi Raya","urban":"Umbele","postal_code":94976},{"province":"Sulawesi Tengah","city":"Morowali","district":"Bungku Barat","urban":"Topogaro (Tofogaro)","postal_code":94976},{"province":"Sulawesi Tengah","city":"Morowali","district":"Wita Ponda","urban":"Solonsa Jaya","postal_code":94976},{"province":"Sulawesi Tengah","city":"Morowali","district":"Bungku Barat","urban":"Tondo","postal_code":94976},{"province":"Sulawesi Tengah","city":"Morowali","district":"Bumi Raya","urban":"Samarenda","postal_code":94976},{"province":"Sulawesi Tengah","city":"Morowali","district":"Wita Ponda","urban":"Sampeantaba","postal_code":94976},{"province":"Sulawesi Tengah","city":"Morowali","district":"Wita Ponda","urban":"Solonsa","postal_code":94976},{"province":"Sulawesi Tengah","city":"Morowali","district":"Wita Ponda","urban":"Puntari Makmur","postal_code":94976},{"province":"Sulawesi Tengah","city":"Morowali","district":"Bumi Raya","urban":"Pebotoa","postal_code":94976},{"province":"Sulawesi Tengah","city":"Morowali","district":"Bumi Raya","urban":"Parilangke","postal_code":94976},{"province":"Sulawesi Tengah","city":"Morowali","district":"Bumi Raya","urban":"Pebatae","postal_code":94976},{"province":"Sulawesi Tengah","city":"Morowali","district":"Wita Ponda","urban":"Moahino","postal_code":94976},{"province":"Sulawesi Tengah","city":"Morowali","district":"Bungku Barat","urban":"Marga Mulya","postal_code":94976},{"province":"Sulawesi Tengah","city":"Morowali","district":"Bumi Raya","urban":"Limbo Makmur","postal_code":94976},{"province":"Sulawesi Tengah","city":"Morowali","district":"Bumi Raya","urban":"Lasampi","postal_code":94976},{"province":"Sulawesi Tengah","city":"Morowali","district":"Bungku Barat","urban":"Larobenu","postal_code":94976},{"province":"Sulawesi Tengah","city":"Morowali","district":"Bumi Raya","urban":"Karaupa","postal_code":94976},{"province":"Sulawesi Tengah","city":"Morowali","district":"Bumi Raya","urban":"Lambelu","postal_code":94976},{"province":"Sulawesi Tengah","city":"Morowali","district":"Wita Ponda","urban":"Lantula Jaya","postal_code":94976},{"province":"Sulawesi Tengah","city":"Morowali","district":"Bumi Raya","urban":"Harapan Jaya","postal_code":94976},{"province":"Sulawesi Tengah","city":"Morowali","district":"Wita Ponda","urban":"Emea","postal_code":94976},{"province":"Sulawesi Tengah","city":"Morowali","district":"Wita Ponda","urban":"Bumi Harapan","postal_code":94976},{"province":"Sulawesi Tengah","city":"Morowali","district":"Bumi Raya","urban":"Beringin Jaya","postal_code":94976},{"province":"Sulawesi Tengah","city":"Morowali","district":"Bumi Raya","urban":"Bahonsuai","postal_code":94976},{"province":"Sulawesi Tengah","city":"Morowali","district":"Bungku Barat","urban":"Bahoea Reko Reko","postal_code":94976},{"province":"Sulawesi Tengah","city":"Morowali","district":"Bumi Raya","urban":"Atananga","postal_code":94976},{"province":"Sulawesi Tengah","city":"Morowali","district":"Bungku Barat","urban":"Ambunu","postal_code":94976}]