[{"province":"Sulawesi Tengah","city":"Morowali","district":"Petasia Timur","urban":"Ungkea","postal_code":94971},{"province":"Sulawesi Tengah","city":"Morowali","district":"Petasia Barat","urban":"Ulu Laa","postal_code":94971},{"province":"Sulawesi Tengah","city":"Morowali","district":"Petasia Timur","urban":"Towara","postal_code":94971},{"province":"Sulawesi Tengah","city":"Morowali","district":"Petasia Timur","urban":"Towara Pantai","postal_code":94971},{"province":"Sulawesi Tengah","city":"Morowali","district":"Petasia Barat","urban":"Tontowea","postal_code":94971},{"province":"Sulawesi Tengah","city":"Morowali","district":"Petasia Timur","urban":"Tompira","postal_code":94971},{"province":"Sulawesi Tengah","city":"Morowali","district":"Petasia Barat","urban":"Togo Mulyo","postal_code":94971},{"province":"Sulawesi Tengah","city":"Morowali","district":"Soyo Jaya","urban":"Toddopoli Uebangke","postal_code":94971},{"province":"Sulawesi Tengah","city":"Morowali","district":"Petasia Barat","urban":"Tiu","postal_code":94971},{"province":"Sulawesi Tengah","city":"Morowali","district":"Soyo Jaya","urban":"Tandoyondo","postal_code":94971},{"province":"Sulawesi Tengah","city":"Morowali","district":"Petasia","urban":"Tanauge","postal_code":94971},{"province":"Sulawesi Tengah","city":"Morowali","district":"Soyo Jaya","urban":"Tambayoli","postal_code":94971},{"province":"Sulawesi Tengah","city":"Morowali","district":"Soyo Jaya","urban":"Tamainusi","postal_code":94971},{"province":"Sulawesi Tengah","city":"Morowali","district":"Soyo Jaya","urban":"Sumara Jaya","postal_code":94971},{"province":"Sulawesi Tengah","city":"Morowali","district":"Petasia Barat","urban":"Tadaku Jaya","postal_code":94971},{"province":"Sulawesi Tengah","city":"Morowali","district":"Petasia Barat","urban":"Sampalowo","postal_code":94971},{"province":"Sulawesi Tengah","city":"Morowali","district":"Soyo Jaya","urban":"Panca Makmur","postal_code":94971},{"province":"Sulawesi Tengah","city":"Morowali","district":"Petasia Timur","urban":"Peboa","postal_code":94971},{"province":"Sulawesi Tengah","city":"Morowali","district":"Petasia Barat","urban":"Mondowe","postal_code":94971},{"province":"Sulawesi Tengah","city":"Morowali","district":"Petasia Barat","urban":"Onepute","postal_code":94971},{"province":"Sulawesi Tengah","city":"Morowali","district":"Petasia Timur","urban":"Molores","postal_code":94971},{"province":"Sulawesi Tengah","city":"Morowali","district":"Petasia Barat","urban":"Moleono","postal_code":94971},{"province":"Sulawesi Tengah","city":"Morowali","district":"Petasia Timur","urban":"Molino","postal_code":94971},{"province":"Sulawesi Tengah","city":"Morowali","district":"Petasia Barat","urban":"Maralee","postal_code":94971},{"province":"Sulawesi Tengah","city":"Morowali","district":"Petasia Timur","urban":"Mohoni","postal_code":94971},{"province":"Sulawesi Tengah","city":"Morowali","district":"Soyo Jaya","urban":"Malino Jaya","postal_code":94971},{"province":"Sulawesi Tengah","city":"Morowali","district":"Soyo Jaya","urban":"Lembah Sumara","postal_code":94971},{"province":"Sulawesi Tengah","city":"Morowali","district":"Soyo Jaya","urban":"Malino","postal_code":94971},{"province":"Sulawesi Tengah","city":"Morowali","district":"Petasia","urban":"Koromatantu","postal_code":94971},{"province":"Sulawesi Tengah","city":"Morowali","district":"Petasia","urban":"Koya","postal_code":94971},{"province":"Sulawesi Tengah","city":"Morowali","district":"Petasia","urban":"Kolonodale","postal_code":94971},{"province":"Sulawesi Tengah","city":"Morowali","district":"Petasia","urban":"Korolaki","postal_code":94971},{"province":"Sulawesi Tengah","city":"Morowali","district":"Petasia","urban":"Korolama","postal_code":94971},{"province":"Sulawesi Tengah","city":"Morowali","district":"Petasia","urban":"Gililana","postal_code":94971},{"province":"Sulawesi Tengah","city":"Morowali","district":"Petasia Timur","urban":"Keuno","postal_code":94971},{"province":"Sulawesi Tengah","city":"Morowali","district":"Petasia","urban":"Ganda-Ganda","postal_code":94971},{"province":"Sulawesi Tengah","city":"Morowali","district":"Petasia Timur","urban":"Bunta","postal_code":94971},{"province":"Sulawesi Tengah","city":"Morowali","district":"Petasia Timur","urban":"Binor Jaya","postal_code":94971},{"province":"Sulawesi Tengah","city":"Morowali","district":"Petasia Timur","urban":"Bungintimbe","postal_code":94971},{"province":"Sulawesi Tengah","city":"Morowali","district":"Soyo Jaya","urban":"Bau","postal_code":94971},{"province":"Sulawesi Tengah","city":"Morowali","district":"Petasia","urban":"Bahoue","postal_code":94971},{"province":"Sulawesi Tengah","city":"Morowali","district":"Petasia","urban":"Bahontula","postal_code":94971}]