[{"province":"Sulawesi Tengah","city":"Morowali","district":"Bungku Pesisir","urban":"Were&#8217;a","postal_code":94974},{"province":"Sulawesi Tengah","city":"Morowali","district":"Bungku Selatan","urban":"Waru-Waru","postal_code":94974},{"province":"Sulawesi Tengah","city":"Morowali","district":"Bungku Selatan","urban":"Umbele","postal_code":94974},{"province":"Sulawesi Tengah","city":"Morowali","district":"Bungku Selatan","urban":"Umbele Lama","postal_code":94974},{"province":"Sulawesi Tengah","city":"Morowali","district":"Bungku Pesisir","urban":"Torete","postal_code":94974},{"province":"Sulawesi Tengah","city":"Morowali","district":"Bungku Pesisir","urban":"Tangofa","postal_code":94974},{"province":"Sulawesi Tengah","city":"Morowali","district":"Bahodopi","urban":"Siumbatu","postal_code":94974},{"province":"Sulawesi Tengah","city":"Morowali","district":"Bungku Pesisir","urban":"Tandaoleo","postal_code":94974},{"province":"Sulawesi Tengah","city":"Morowali","district":"Bungku Pesisir","urban":"Sambalagi","postal_code":94974},{"province":"Sulawesi Tengah","city":"Morowali","district":"Bungku Pesisir","urban":"Puungkeu","postal_code":94974},{"province":"Sulawesi Tengah","city":"Morowali","district":"Bungku Selatan","urban":"Sainoa","postal_code":94974},{"province":"Sulawesi Tengah","city":"Morowali","district":"Bungku Selatan","urban":"Pulaubapa","postal_code":94974},{"province":"Sulawesi Tengah","city":"Morowali","district":"Bungku Selatan","urban":"Pulau Dua Darat","postal_code":94974},{"province":"Sulawesi Tengah","city":"Morowali","district":"Bungku Selatan","urban":"Pulau Dua","postal_code":94974},{"province":"Sulawesi Tengah","city":"Morowali","district":"Bungku Selatan","urban":"Polewali","postal_code":94974},{"province":"Sulawesi Tengah","city":"Morowali","district":"Bungku Selatan","urban":"Po&#8217;o","postal_code":94974},{"province":"Sulawesi Tengah","city":"Morowali","district":"Bungku Selatan","urban":"Poaro","postal_code":94974},{"province":"Sulawesi Tengah","city":"Morowali","district":"Bungku Selatan","urban":"Paku","postal_code":94974},{"province":"Sulawesi Tengah","city":"Morowali","district":"Bungku Selatan","urban":"Panimbawang","postal_code":94974},{"province":"Sulawesi Tengah","city":"Morowali","district":"Bungku Selatan","urban":"Pado-Pado","postal_code":94974},{"province":"Sulawesi Tengah","city":"Morowali","district":"Bungku Selatan","urban":"Padabale","postal_code":94974},{"province":"Sulawesi Tengah","city":"Morowali","district":"Bahodopi","urban":"Padabaho","postal_code":94974},{"province":"Sulawesi Tengah","city":"Morowali","district":"Bungku Pesisir","urban":"One Ete","postal_code":94974},{"province":"Sulawesi Tengah","city":"Morowali","district":"Bahodopi","urban":"Makarti Jaya","postal_code":94974},{"province":"Sulawesi Tengah","city":"Morowali","district":"Bungku Selatan","urban":"Lokombulo","postal_code":94974},{"province":"Sulawesi Tengah","city":"Morowali","district":"Bahodopi","urban":"Le-Le","postal_code":94974},{"province":"Sulawesi Tengah","city":"Morowali","district":"Bungku Selatan","urban":"Lamontoli","postal_code":94974},{"province":"Sulawesi Tengah","city":"Morowali","district":"Bungku Pesisir","urban":"Laroenai","postal_code":94974},{"province":"Sulawesi Tengah","city":"Morowali","district":"Bungku Selatan","urban":"Lalemo","postal_code":94974},{"province":"Sulawesi Tengah","city":"Morowali","district":"Bahodopi","urban":"Labota","postal_code":94974},{"province":"Sulawesi Tengah","city":"Morowali","district":"Bahodopi","urban":"Lalampu","postal_code":94974},{"province":"Sulawesi Tengah","city":"Morowali","district":"Bungku Pesisir","urban":"Lafeu","postal_code":94974},{"province":"Sulawesi Tengah","city":"Morowali","district":"Bungku Selatan","urban":"Koburu","postal_code":94974},{"province":"Sulawesi Tengah","city":"Morowali","district":"Bahodopi","urban":"Keurea","postal_code":94974},{"province":"Sulawesi Tengah","city":"Morowali","district":"Bungku Selatan","urban":"Kaleroang","postal_code":94974},{"province":"Sulawesi Tengah","city":"Morowali","district":"Bungku Selatan","urban":"Jawi-Jawi","postal_code":94974},{"province":"Sulawesi Tengah","city":"Morowali","district":"Bahodopi","urban":"Fatufia","postal_code":94974},{"province":"Sulawesi Tengah","city":"Morowali","district":"Bahodopi","urban":"Dampala","postal_code":94974},{"province":"Sulawesi Tengah","city":"Morowali","district":"Bungku Selatan","urban":"Buton","postal_code":94974},{"province":"Sulawesi Tengah","city":"Morowali","district":"Bungku Selatan","urban":"Bungintende","postal_code":94974},{"province":"Sulawesi Tengah","city":"Morowali","district":"Bungku Selatan","urban":"Bungingkela","postal_code":94974},{"province":"Sulawesi Tengah","city":"Morowali","district":"Bungku Pesisir","urban":"Buleleng","postal_code":94974},{"province":"Sulawesi Tengah","city":"Morowali","district":"Bungku Selatan","urban":"Boelimau","postal_code":94974},{"province":"Sulawesi Tengah","city":"Morowali","district":"Bungku Selatan","urban":"Buajangka","postal_code":94974},{"province":"Sulawesi Tengah","city":"Morowali","district":"Bahodopi","urban":"Bete Bete","postal_code":94974},{"province":"Sulawesi Tengah","city":"Morowali","district":"Bungku Selatan","urban":"Bakala","postal_code":94974},{"province":"Sulawesi Tengah","city":"Morowali","district":"Bahodopi","urban":"Bahomakmur","postal_code":94974},{"province":"Sulawesi Tengah","city":"Morowali","district":"Bahodopi","urban":"Bahodopi","postal_code":94974}]