[{"province":"Sulawesi Utara","city":"Manado","district":"Singkil","urban":"Wawonasa","postal_code":95231},{"province":"Sulawesi Utara","city":"Manado","district":"Bunaken","urban":"Molas","postal_code":95231},{"province":"Sulawesi Utara","city":"Manado","district":"Bunaken","urban":"Tongkeina / Tongkaina","postal_code":95231},{"province":"Sulawesi Utara","city":"Manado","district":"Bunaken","urban":"Meras","postal_code":95231},{"province":"Sulawesi Utara","city":"Manado","district":"Bunaken Kepulauan","urban":"Manado Tua Satu","postal_code":95231},{"province":"Sulawesi Utara","city":"Manado","district":"Bunaken Kepulauan","urban":"Manado Tua Dua","postal_code":95231},{"province":"Sulawesi Utara","city":"Manado","district":"Singkil","urban":"Karame","postal_code":95231},{"province":"Sulawesi Utara","city":"Manado","district":"Bunaken","urban":"Bailang","postal_code":95231},{"province":"Sulawesi Utara","city":"Manado","district":"Bunaken Kepulauan","urban":"Alung Banua","postal_code":95231}]