[{"province":"Sulawesi Utara","city":"Minahasa Selatan","district":"Tatapaan","urban":"Wawona","postal_code":95352},{"province":"Sulawesi Utara","city":"Minahasa Selatan","district":"Tatapaan","urban":"Wawontulap","postal_code":95352},{"province":"Sulawesi Utara","city":"Minahasa Selatan","district":"Tumpaan","urban":"Tumpaan Baru","postal_code":95352},{"province":"Sulawesi Utara","city":"Minahasa Selatan","district":"Tumpaan","urban":"Tumpaan Dua","postal_code":95352},{"province":"Sulawesi Utara","city":"Minahasa Selatan","district":"Tumpaan","urban":"Tumpaan Satu","postal_code":95352},{"province":"Sulawesi Utara","city":"Minahasa Selatan","district":"Tumpaan","urban":"Tangkuney","postal_code":95352},{"province":"Sulawesi Utara","city":"Minahasa Selatan","district":"Tumpaan","urban":"Tumpaan","postal_code":95352},{"province":"Sulawesi Utara","city":"Minahasa Selatan","district":"Tatapaan","urban":"Rap-Rap","postal_code":95352},{"province":"Sulawesi Utara","city":"Minahasa Selatan","district":"Tatapaan","urban":"Sondaken","postal_code":95352},{"province":"Sulawesi Utara","city":"Minahasa Selatan","district":"Tatapaan","urban":"Sulu","postal_code":95352},{"province":"Sulawesi Utara","city":"Minahasa Selatan","district":"Tumpaan","urban":"Popontolen","postal_code":95352},{"province":"Sulawesi Utara","city":"Minahasa Selatan","district":"Tatapaan","urban":"Pungkol","postal_code":95352},{"province":"Sulawesi Utara","city":"Minahasa Selatan","district":"Tatapaan","urban":"Paslaten Satu","postal_code":95352},{"province":"Sulawesi Utara","city":"Minahasa Selatan","district":"Tatapaan","urban":"Popareng","postal_code":95352},{"province":"Sulawesi Utara","city":"Minahasa Selatan","district":"Tatapaan","urban":"Paslaten","postal_code":95352},{"province":"Sulawesi Utara","city":"Minahasa Selatan","district":"Tumpaan","urban":"Matani Satu","postal_code":95352},{"province":"Sulawesi Utara","city":"Minahasa Selatan","district":"Tumpaan","urban":"Munte","postal_code":95352},{"province":"Sulawesi Utara","city":"Minahasa Selatan","district":"Tumpaan","urban":"Lelema","postal_code":95352},{"province":"Sulawesi Utara","city":"Minahasa Selatan","district":"Tumpaan","urban":"Matani","postal_code":95352},{"province":"Sulawesi Utara","city":"Minahasa Selatan","district":"Tatapaan","urban":"Bajo","postal_code":95352},{"province":"Sulawesi Utara","city":"Minahasa Selatan","district":"Tatapaan","urban":"Arakan","postal_code":95352}]