[{"province":"Sulawesi Utara","city":"Minahasa Selatan","district":"Maesaan","urban":"Tumani","postal_code":95357},{"province":"Sulawesi Utara","city":"Minahasa Selatan","district":"Tompaso Baru","urban":"Tompaso Baru Satu","postal_code":95357},{"province":"Sulawesi Utara","city":"Minahasa Selatan","district":"Tompaso Baru","urban":"Torout","postal_code":95357},{"province":"Sulawesi Utara","city":"Minahasa Selatan","district":"Tompaso Baru","urban":"Tompaso Baru Dua","postal_code":95357},{"province":"Sulawesi Utara","city":"Minahasa Selatan","district":"Maesaan","urban":"Temboan","postal_code":95357},{"province":"Sulawesi Utara","city":"Minahasa Selatan","district":"Tompaso Baru","urban":"Sion","postal_code":95357},{"province":"Sulawesi Utara","city":"Minahasa Selatan","district":"Maesaan","urban":"Tambelang","postal_code":95357},{"province":"Sulawesi Utara","city":"Minahasa Selatan","district":"Tompaso Baru","urban":"Raraatean","postal_code":95357},{"province":"Sulawesi Utara","city":"Minahasa Selatan","district":"Maesaan","urban":"Lowian Satu","postal_code":95357},{"province":"Sulawesi Utara","city":"Minahasa Selatan","district":"Tompaso Baru","urban":"Pinaesaan","postal_code":95357},{"province":"Sulawesi Utara","city":"Minahasa Selatan","district":"Maesaan","urban":"Liningaan","postal_code":95357},{"province":"Sulawesi Utara","city":"Minahasa Selatan","district":"Maesaan","urban":"Lowian","postal_code":95357},{"province":"Sulawesi Utara","city":"Minahasa Selatan","district":"Tompaso Baru","urban":"Lindangan","postal_code":95357},{"province":"Sulawesi Utara","city":"Minahasa Selatan","district":"Maesaan","urban":"Kinaweruan","postal_code":95357},{"province":"Sulawesi Utara","city":"Minahasa Selatan","district":"Maesaan","urban":"Kinaweruan","postal_code":95357},{"province":"Sulawesi Utara","city":"Minahasa Selatan","district":"Tompaso Baru","urban":"Kinalawiran","postal_code":95357},{"province":"Sulawesi Utara","city":"Minahasa Selatan","district":"Maesaan","urban":"Kinamang","postal_code":95357},{"province":"Sulawesi Utara","city":"Minahasa Selatan","district":"Maesaan","urban":"Kinamang I","postal_code":95357},{"province":"Sulawesi Utara","city":"Minahasa Selatan","district":"Tompaso Baru","urban":"Karowa","postal_code":95357},{"province":"Sulawesi Utara","city":"Minahasa Selatan","district":"Maesaan","urban":"Bojonegoro","postal_code":95357}]