[{"province":"Sulawesi Utara","city":"Minahasa Utara","district":"Airmadidi","urban":"Sawangan","postal_code":95371},{"province":"Sulawesi Utara","city":"Minahasa Utara","district":"Airmadidi","urban":"Sukur","postal_code":95371},{"province":"Sulawesi Utara","city":"Minahasa Utara","district":"Airmadidi","urban":"Tanggari","postal_code":95371},{"province":"Sulawesi Utara","city":"Minahasa Utara","district":"Airmadidi","urban":"Sarongsong Dua","postal_code":95371},{"province":"Sulawesi Utara","city":"Minahasa Utara","district":"Airmadidi","urban":"Sarongsong Satu","postal_code":95371},{"province":"Sulawesi Utara","city":"Minahasa Utara","district":"Airmadidi","urban":"Rap-Rap","postal_code":95371},{"province":"Sulawesi Utara","city":"Minahasa Utara","district":"Airmadidi","urban":"Sampiri","postal_code":95371},{"province":"Sulawesi Utara","city":"Minahasa Utara","district":"Airmadidi","urban":"Airmadidi Atas","postal_code":95371},{"province":"Sulawesi Utara","city":"Minahasa Utara","district":"Airmadidi","urban":"Airmadidi Bawah","postal_code":95371},{"province":"Sulawesi Utara","city":"Minahasa","district":"Tondano Utara","urban":"Tonsea Lama","postal_code":95371}]