[{"province":"Sulawesi Utara","city":"Minahasa Utara","district":"Talawaan","urban":"Winetin","postal_code":95373},{"province":"Sulawesi Utara","city":"Minahasa Utara","district":"Talawaan","urban":"Wusa","postal_code":95373},{"province":"Sulawesi Utara","city":"Minahasa Utara","district":"Talawaan","urban":"Warisa Kampung Baru","postal_code":95373},{"province":"Sulawesi Utara","city":"Minahasa Utara","district":"Dimembe","urban":"Warukapas","postal_code":95373},{"province":"Sulawesi Utara","city":"Minahasa Utara","district":"Dimembe","urban":"Wasian","postal_code":95373},{"province":"Sulawesi Utara","city":"Minahasa Utara","district":"Talawaan","urban":"Warisa","postal_code":95373},{"province":"Sulawesi Utara","city":"Minahasa Utara","district":"Dimembe","urban":"Warisa Kampung Baru","postal_code":95373},{"province":"Sulawesi Utara","city":"Minahasa Utara","district":"Talawaan","urban":"Teep Warisa","postal_code":95373},{"province":"Sulawesi Utara","city":"Minahasa Utara","district":"Talawaan","urban":"Tumbohon","postal_code":95373},{"province":"Sulawesi Utara","city":"Minahasa Utara","district":"Dimembe","urban":"Tetey","postal_code":95373},{"province":"Sulawesi Utara","city":"Minahasa Utara","district":"Dimembe","urban":"Tatelu Rondor","postal_code":95373},{"province":"Sulawesi Utara","city":"Minahasa Utara","district":"Dimembe","urban":"Tatelu Satu","postal_code":95373},{"province":"Sulawesi Utara","city":"Minahasa Utara","district":"Talawaan","urban":"Talawaan","postal_code":95373},{"province":"Sulawesi Utara","city":"Minahasa Utara","district":"Dimembe","urban":"Pinilih","postal_code":95373},{"province":"Sulawesi Utara","city":"Minahasa Utara","district":"Talawaan","urban":"Paniki Baru","postal_code":95373},{"province":"Sulawesi Utara","city":"Minahasa Utara","district":"Talawaan","urban":"Patokaan","postal_code":95373},{"province":"Sulawesi Utara","city":"Minahasa Utara","district":"Dimembe","urban":"Paniki Baru","postal_code":95373},{"province":"Sulawesi Utara","city":"Minahasa Utara","district":"Dimembe","urban":"Matungkas","postal_code":95373},{"province":"Sulawesi Utara","city":"Minahasa Utara","district":"Talawaan","urban":"Paniki Atas","postal_code":95373},{"province":"Sulawesi Utara","city":"Minahasa Utara","district":"Talawaan","urban":"Mapanget","postal_code":95373},{"province":"Sulawesi Utara","city":"Minahasa Utara","district":"Dimembe","urban":"Lumpias","postal_code":95373},{"province":"Sulawesi Utara","city":"Minahasa Utara","district":"Dimembe","urban":"Laikit","postal_code":95373},{"province":"Sulawesi Utara","city":"Minahasa Utara","district":"Dimembe","urban":"Lumpias","postal_code":95373},{"province":"Sulawesi Utara","city":"Minahasa Utara","district":"Dimembe","urban":"Klabat","postal_code":95373},{"province":"Sulawesi Utara","city":"Minahasa Utara","district":"Dimembe","urban":"Dimembe","postal_code":95373}]