[{"province":"Sulawesi Utara","city":"Minahasa Utara","district":"Kema","urban":"Tontalete","postal_code":95379},{"province":"Sulawesi Utara","city":"Minahasa Utara","district":"Kema","urban":"Waleo","postal_code":95379},{"province":"Sulawesi Utara","city":"Minahasa Utara","district":"Kema","urban":"Waleo Dua","postal_code":95379},{"province":"Sulawesi Utara","city":"Minahasa Utara","district":"Kema","urban":"Makalisung","postal_code":95379},{"province":"Sulawesi Utara","city":"Minahasa Utara","district":"Kema","urban":"Tontaalete Rok-rok","postal_code":95379},{"province":"Sulawesi Utara","city":"Minahasa Utara","district":"Kema","urban":"Lansot","postal_code":95379},{"province":"Sulawesi Utara","city":"Minahasa Utara","district":"Kema","urban":"Lilang","postal_code":95379},{"province":"Sulawesi Utara","city":"Minahasa Utara","district":"Kema","urban":"Kema Satu","postal_code":95379},{"province":"Sulawesi Utara","city":"Minahasa Utara","district":"Kema","urban":"Kema Tiga","postal_code":95379},{"province":"Sulawesi Utara","city":"Minahasa Utara","district":"Kema","urban":"Kema Dua","postal_code":95379}]