[{"province":"Sulawesi Utara","city":"Minahasa Utara","district":"Wori","urban":"Wori","postal_code":95376},{"province":"Sulawesi Utara","city":"Minahasa Utara","district":"Wori","urban":"Talawaan Atas","postal_code":95376},{"province":"Sulawesi Utara","city":"Minahasa Utara","district":"Wori","urban":"Talawaan Bantik","postal_code":95376},{"province":"Sulawesi Utara","city":"Minahasa Utara","district":"Wori","urban":"Tiwoho","postal_code":95376},{"province":"Sulawesi Utara","city":"Minahasa Utara","district":"Wori","urban":"Ponto","postal_code":95376},{"province":"Sulawesi Utara","city":"Minahasa Utara","district":"Wori","urban":"Nain Satu","postal_code":95376},{"province":"Sulawesi Utara","city":"Minahasa Utara","district":"Wori","urban":"Nain Tatampi","postal_code":95376},{"province":"Sulawesi Utara","city":"Minahasa Utara","district":"Wori","urban":"Mantehage Tinongko","postal_code":95376},{"province":"Sulawesi Utara","city":"Minahasa Utara","district":"Wori","urban":"Minaesa","postal_code":95376},{"province":"Sulawesi Utara","city":"Minahasa Utara","district":"Wori","urban":"Nain","postal_code":95376},{"province":"Sulawesi Utara","city":"Minahasa Utara","district":"Wori","urban":"Mantehage Buhias","postal_code":95376},{"province":"Sulawesi Utara","city":"Minahasa Utara","district":"Wori","urban":"Mantehage Tangkas","postal_code":95376},{"province":"Sulawesi Utara","city":"Minahasa Utara","district":"Wori","urban":"Mantehage Bango","postal_code":95376},{"province":"Sulawesi Utara","city":"Minahasa Utara","district":"Wori","urban":"Lantung","postal_code":95376},{"province":"Sulawesi Utara","city":"Minahasa Utara","district":"Wori","urban":"Kima Bajo","postal_code":95376},{"province":"Sulawesi Utara","city":"Minahasa Utara","district":"Wori","urban":"Kulu","postal_code":95376},{"province":"Sulawesi Utara","city":"Minahasa Utara","district":"Wori","urban":"Lansa","postal_code":95376},{"province":"Sulawesi Utara","city":"Minahasa Utara","district":"Wori","urban":"Darunu","postal_code":95376},{"province":"Sulawesi Utara","city":"Minahasa Utara","district":"Wori","urban":"Bulo","postal_code":95376},{"province":"Sulawesi Utara","city":"Minahasa Utara","district":"Wori","urban":"Budo","postal_code":95376}]