[{"province":"Sulawesi Utara","city":"Minahasa","district":"Pineleng","urban":"Warembungan","postal_code":95661},{"province":"Sulawesi Utara","city":"Minahasa","district":"Pineleng","urban":"Winangun Atas","postal_code":95661},{"province":"Sulawesi Utara","city":"Minahasa","district":"Mandolang","urban":"Tateli Weru","postal_code":95661},{"province":"Sulawesi Utara","city":"Minahasa","district":"Tombulu","urban":"Tikela","postal_code":95661},{"province":"Sulawesi Utara","city":"Minahasa","district":"Tombulu","urban":"Tombuluan","postal_code":95661},{"province":"Sulawesi Utara","city":"Minahasa","district":"Mandolang","urban":"Tateli Tiga","postal_code":95661},{"province":"Sulawesi Utara","city":"Minahasa","district":"Mandolang","urban":"Tateli Satu","postal_code":95661},{"province":"Sulawesi Utara","city":"Minahasa","district":"Mandolang","urban":"Tateli","postal_code":95661},{"province":"Sulawesi Utara","city":"Minahasa","district":"Mandolang","urban":"Tateli Dua","postal_code":95661},{"province":"Sulawesi Utara","city":"Minahasa","district":"Tombulu","urban":"Suluan","postal_code":95661},{"province":"Sulawesi Utara","city":"Minahasa","district":"Pineleng","urban":"Sea Tumpengan","postal_code":95661},{"province":"Sulawesi Utara","city":"Minahasa","district":"Pineleng","urban":"Sea II","postal_code":95661},{"province":"Sulawesi Utara","city":"Minahasa","district":"Pineleng","urban":"Sea Mitra","postal_code":95661},{"province":"Sulawesi Utara","city":"Minahasa","district":"Pineleng","urban":"Sea","postal_code":95661},{"province":"Sulawesi Utara","city":"Minahasa","district":"Pineleng","urban":"Sea I","postal_code":95661},{"province":"Sulawesi Utara","city":"Minahasa","district":"Tombulu","urban":"Rumengkor Satu","postal_code":95661},{"province":"Sulawesi Utara","city":"Minahasa","district":"Tombulu","urban":"Sawangan","postal_code":95661},{"province":"Sulawesi Utara","city":"Minahasa","district":"Tombulu","urban":"Rumengkor","postal_code":95661},{"province":"Sulawesi Utara","city":"Minahasa","district":"Tombulu","urban":"Rumengkor Dua","postal_code":95661},{"province":"Sulawesi Utara","city":"Minahasa","district":"Pineleng","urban":"Pineleng Satu Timur","postal_code":95661},{"province":"Sulawesi Utara","city":"Minahasa","district":"Pineleng","urban":"Pineleng Satu","postal_code":95661},{"province":"Sulawesi Utara","city":"Minahasa","district":"Pineleng","urban":"Pineleng Dua Indah","postal_code":95661},{"province":"Sulawesi Utara","city":"Minahasa","district":"Pineleng","urban":"Pineleng Dua","postal_code":95661},{"province":"Sulawesi Utara","city":"Minahasa","district":"Pineleng","urban":"Lotta","postal_code":95661},{"province":"Sulawesi Utara","city":"Minahasa","district":"Tombulu","urban":"Koka","postal_code":95661},{"province":"Sulawesi Utara","city":"Minahasa","district":"Mandolang","urban":"Koha Selatan","postal_code":95661},{"province":"Sulawesi Utara","city":"Minahasa","district":"Mandolang","urban":"Koha Timur","postal_code":95661},{"province":"Sulawesi Utara","city":"Minahasa","district":"Mandolang","urban":"Koha Barat","postal_code":95661},{"province":"Sulawesi Utara","city":"Minahasa","district":"Mandolang","urban":"Koha","postal_code":95661},{"province":"Sulawesi Utara","city":"Minahasa","district":"Tombulu","urban":"Kembes Satu","postal_code":95661},{"province":"Sulawesi Utara","city":"Minahasa","district":"Tombulu","urban":"Kembes Dua","postal_code":95661},{"province":"Sulawesi Utara","city":"Minahasa","district":"Tombulu","urban":"Kamangta","postal_code":95661},{"province":"Sulawesi Utara","city":"Minahasa","district":"Pineleng","urban":"Kali Selatan","postal_code":95661},{"province":"Sulawesi Utara","city":"Minahasa","district":"Pineleng","urban":"Kali","postal_code":95661},{"province":"Sulawesi Utara","city":"Minahasa","district":"Mandolang","urban":"Kalasey Satu","postal_code":95661},{"province":"Sulawesi Utara","city":"Minahasa","district":"Mandolang","urban":"Kalasey Dua","postal_code":95661},{"province":"Sulawesi Utara","city":"Minahasa","district":"Mandolang","urban":"Agotey","postal_code":95661}]