[{"province":"Sulawesi Utara","city":"Minahasa","district":"Remboken","urban":"Tampusu","postal_code":95681},{"province":"Sulawesi Utara","city":"Minahasa","district":"Remboken","urban":"Timu","postal_code":95681},{"province":"Sulawesi Utara","city":"Minahasa","district":"Remboken","urban":"Sinuian","postal_code":95681},{"province":"Sulawesi Utara","city":"Minahasa","district":"Remboken","urban":"Talikuran","postal_code":95681},{"province":"Sulawesi Utara","city":"Minahasa","district":"Remboken","urban":"Pulutan","postal_code":95681},{"province":"Sulawesi Utara","city":"Minahasa","district":"Remboken","urban":"Sendangan","postal_code":95681},{"province":"Sulawesi Utara","city":"Minahasa","district":"Remboken","urban":"Parepei (Parepey)","postal_code":95681},{"province":"Sulawesi Utara","city":"Minahasa","district":"Remboken","urban":"Paslaten","postal_code":95681},{"province":"Sulawesi Utara","city":"Minahasa","district":"Remboken","urban":"Kasuratan","postal_code":95681},{"province":"Sulawesi Utara","city":"Minahasa","district":"Remboken","urban":"Leleko","postal_code":95681},{"province":"Sulawesi Utara","city":"Minahasa","district":"Remboken","urban":"Kaima","postal_code":95681}]