[{"province":"Sulawesi Utara","city":"Minahasa","district":"Kakas","urban":"Wineru","postal_code":95682},{"province":"Sulawesi Utara","city":"Minahasa","district":"Kakas Barat","urban":"Wailang","postal_code":95682},{"province":"Sulawesi Utara","city":"Minahasa","district":"Kakas Barat","urban":"Wasian","postal_code":95682},{"province":"Sulawesi Utara","city":"Minahasa","district":"Kakas","urban":"Toulimembet","postal_code":95682},{"province":"Sulawesi Utara","city":"Minahasa","district":"Kakas","urban":"Tumpaan","postal_code":95682},{"province":"Sulawesi Utara","city":"Minahasa","district":"Kakas","urban":"Tounelet","postal_code":95682},{"province":"Sulawesi Utara","city":"Minahasa","district":"Kakas Barat","urban":"Tountimomor","postal_code":95682},{"province":"Sulawesi Utara","city":"Minahasa","district":"Kakas Barat","urban":"Touliang","postal_code":95682},{"province":"Sulawesi Utara","city":"Minahasa","district":"Kakas","urban":"Talikuran","postal_code":95682},{"province":"Sulawesi Utara","city":"Minahasa","district":"Kakas Barat","urban":"Totolan","postal_code":95682},{"province":"Sulawesi Utara","city":"Minahasa","district":"Kakas","urban":"Rinondor","postal_code":95682},{"province":"Sulawesi Utara","city":"Minahasa","district":"Kakas","urban":"Sendangan","postal_code":95682},{"province":"Sulawesi Utara","city":"Minahasa","district":"Kakas Barat","urban":"Simbel","postal_code":95682},{"province":"Sulawesi Utara","city":"Minahasa","district":"Kakas","urban":"Paslaten","postal_code":95682},{"province":"Sulawesi Utara","city":"Minahasa","district":"Kakas Barat","urban":"Passo (Paso)","postal_code":95682},{"province":"Sulawesi Utara","city":"Minahasa","district":"Kakas","urban":"Pahaleten","postal_code":95682},{"province":"Sulawesi Utara","city":"Minahasa","district":"Kakas Barat","urban":"Panasen","postal_code":95682},{"province":"Sulawesi Utara","city":"Minahasa","district":"Kakas","urban":"Mahembang","postal_code":95682},{"province":"Sulawesi Utara","city":"Minahasa","district":"Kakas","urban":"Makalelon","postal_code":95682},{"province":"Sulawesi Utara","city":"Minahasa","district":"Kakas","urban":"Kaweng","postal_code":95682},{"province":"Sulawesi Utara","city":"Minahasa","district":"Kakas","urban":"Kayuwatu","postal_code":95682},{"province":"Sulawesi Utara","city":"Minahasa","district":"Kakas Barat","urban":"Bukit Tinggi","postal_code":95682},{"province":"Sulawesi Utara","city":"Minahasa","district":"Kakas Barat","urban":"Kalawiran","postal_code":95682}]