[{"province":"Sulawesi Utara","city":"Minahasa","district":"Sonder","urban":"Tounelet","postal_code":95691},{"province":"Sulawesi Utara","city":"Minahasa","district":"Sonder","urban":"Tincep","postal_code":95691},{"province":"Sulawesi Utara","city":"Minahasa","district":"Sonder","urban":"Tounelet","postal_code":95691},{"province":"Sulawesi Utara","city":"Minahasa","district":"Sonder","urban":"Talikuran","postal_code":95691},{"province":"Sulawesi Utara","city":"Minahasa","district":"Sonder","urban":"Talikuran Satu","postal_code":95691},{"province":"Sulawesi Utara","city":"Minahasa","district":"Sonder","urban":"Timbukar","postal_code":95691},{"province":"Sulawesi Utara","city":"Minahasa","district":"Sonder","urban":"Sandangan Satu","postal_code":95691},{"province":"Sulawesi Utara","city":"Minahasa","district":"Sonder","urban":"Sawangan","postal_code":95691},{"province":"Sulawesi Utara","city":"Minahasa","district":"Sonder","urban":"Sendangan","postal_code":95691},{"province":"Sulawesi Utara","city":"Minahasa","district":"Sonder","urban":"Rambunan","postal_code":95691},{"province":"Sulawesi Utara","city":"Minahasa","district":"Sonder","urban":"Rambunan Amian","postal_code":95691},{"province":"Sulawesi Utara","city":"Minahasa","district":"Sonder","urban":"Leilem II","postal_code":95691},{"province":"Sulawesi Utara","city":"Minahasa","district":"Sonder","urban":"Leilem III","postal_code":95691},{"province":"Sulawesi Utara","city":"Minahasa","district":"Sonder","urban":"Kotongan Atas Satu","postal_code":95691},{"province":"Sulawesi Utara","city":"Minahasa","district":"Sonder","urban":"Leilem I","postal_code":95691},{"province":"Sulawesi Utara","city":"Minahasa","district":"Sonder","urban":"Kolongan Atas II","postal_code":95691},{"province":"Sulawesi Utara","city":"Minahasa","district":"Sonder","urban":"Kolongan Atas I","postal_code":95691},{"province":"Sulawesi Utara","city":"Minahasa","district":"Sonder","urban":"Kauneran","postal_code":95691},{"province":"Sulawesi Utara","city":"Minahasa","district":"Sonder","urban":"Kauneran Satu","postal_code":95691}]