[{"province":"Sulawesi Utara","city":"Minahasa","district":"Langowan Timur","urban":"Wolaang","postal_code":95694},{"province":"Sulawesi Utara","city":"Minahasa","district":"Langowan Selatan","urban":"Winebetan","postal_code":95694},{"province":"Sulawesi Utara","city":"Minahasa","district":"Langowan Barat","urban":"Walewangko","postal_code":95694},{"province":"Sulawesi Utara","city":"Minahasa","district":"Langowan Timur","urban":"Waleure","postal_code":95694},{"province":"Sulawesi Utara","city":"Minahasa","district":"Langowan Barat","urban":"Tumaratas II","postal_code":95694},{"province":"Sulawesi Utara","city":"Minahasa","district":"Langowan Utara","urban":"Walantakan","postal_code":95694},{"province":"Sulawesi Utara","city":"Minahasa","district":"Langowan Barat","urban":"Tounelet","postal_code":95694},{"province":"Sulawesi Utara","city":"Minahasa","district":"Langowan Barat","urban":"Tumaratas I","postal_code":95694},{"province":"Sulawesi Utara","city":"Minahasa","district":"Langowan Utara","urban":"Tempang III","postal_code":95694},{"province":"Sulawesi Utara","city":"Minahasa","district":"Langowan Utara","urban":"Toraget","postal_code":95694},{"province":"Sulawesi Utara","city":"Minahasa","district":"Langowan Selatan","urban":"Temboan","postal_code":95694},{"province":"Sulawesi Utara","city":"Minahasa","district":"Langowan Utara","urban":"Tempang I","postal_code":95694},{"province":"Sulawesi Utara","city":"Minahasa","district":"Langowan Utara","urban":"Tempang II","postal_code":95694},{"province":"Sulawesi Utara","city":"Minahasa","district":"Langowan Utara","urban":"Taraitak Satu","postal_code":95694},{"province":"Sulawesi Utara","city":"Minahasa","district":"Langowan Timur","urban":"Teep","postal_code":95694},{"province":"Sulawesi Utara","city":"Minahasa","district":"Langowan Utara","urban":"Taraitak","postal_code":95694},{"province":"Sulawesi Utara","city":"Minahasa","district":"Langowan Timur","urban":"Sumarayar","postal_code":95694},{"province":"Sulawesi Utara","city":"Minahasa","district":"Langowan Selatan","urban":"Rumbia","postal_code":95694},{"province":"Sulawesi Utara","city":"Minahasa","district":"Langowan Barat","urban":"Raringis Utara","postal_code":95694},{"province":"Sulawesi Utara","city":"Minahasa","district":"Langowan Barat","urban":"Raringis Selatan","postal_code":95694},{"province":"Sulawesi Utara","city":"Minahasa","district":"Langowan Barat","urban":"Raranon","postal_code":95694},{"province":"Sulawesi Utara","city":"Minahasa","district":"Langowan Barat","urban":"Raringis","postal_code":95694},{"province":"Sulawesi Utara","city":"Minahasa","district":"Langowan Barat","urban":"Noongan III","postal_code":95694},{"province":"Sulawesi Utara","city":"Minahasa","district":"Langowan Selatan","urban":"Palamba","postal_code":95694},{"province":"Sulawesi Utara","city":"Minahasa","district":"Langowan Barat","urban":"Paslateh (Paslaten)","postal_code":95694},{"province":"Sulawesi Utara","city":"Minahasa","district":"Langowan Barat","urban":"Noongan I","postal_code":95694},{"province":"Sulawesi Utara","city":"Minahasa","district":"Langowan Barat","urban":"Noongan II","postal_code":95694},{"province":"Sulawesi Utara","city":"Minahasa","district":"Langowan Barat","urban":"Lowian","postal_code":95694},{"province":"Sulawesi Utara","city":"Minahasa","district":"Langowan Selatan","urban":"Manembo","postal_code":95694},{"province":"Sulawesi Utara","city":"Minahasa","district":"Langowan Barat","urban":"Kopiwangker","postal_code":95694},{"province":"Sulawesi Utara","city":"Minahasa","district":"Langowan Barat","urban":"Koyawas","postal_code":95694},{"province":"Sulawesi Utara","city":"Minahasa","district":"Langowan Utara","urban":"Karumenga","postal_code":95694},{"province":"Sulawesi Utara","city":"Minahasa","district":"Langowan Selatan","urban":"Kawatak","postal_code":95694},{"province":"Sulawesi Utara","city":"Minahasa","district":"Langowan Timur","urban":"Karondoran","postal_code":95694},{"province":"Sulawesi Utara","city":"Minahasa","district":"Langowan Selatan","urban":"Atep Satu","postal_code":95694},{"province":"Sulawesi Utara","city":"Minahasa","district":"Langowan Selatan","urban":"Kaayuran Atas","postal_code":95694},{"province":"Sulawesi Utara","city":"Minahasa","district":"Langowan Selatan","urban":"Kaayuran Bawah","postal_code":95694},{"province":"Sulawesi Utara","city":"Minahasa","district":"Langowan Selatan","urban":"Atep","postal_code":95694},{"province":"Sulawesi Utara","city":"Minahasa","district":"Langowan Barat","urban":"Ampreng","postal_code":95694},{"province":"Sulawesi Utara","city":"Minahasa","district":"Langowan Timur","urban":"Amongena Tiga","postal_code":95694},{"province":"Sulawesi Utara","city":"Minahasa","district":"Langowan Timur","urban":"Amongena Dua (II)","postal_code":95694},{"province":"Sulawesi Utara","city":"Minahasa","district":"Langowan Timur","urban":"Amongena Satu (I)","postal_code":95694}]