[{"province":"Sulawesi Utara","city":"Bolaang Mongondow (Bolmong)","district":"Bolaang Timur","urban":"Tadoy","postal_code":95752},{"province":"Sulawesi Utara","city":"Bolaang Mongondow (Bolmong)","district":"Bolaang Timur","urban":"Tadoy I","postal_code":95752},{"province":"Sulawesi Utara","city":"Bolaang Mongondow (Bolmong)","district":"Bolaang","urban":"Solimandungan Baru","postal_code":95752},{"province":"Sulawesi Utara","city":"Bolaang Mongondow (Bolmong)","district":"Bolaang","urban":"Solimandungan Dua","postal_code":95752},{"province":"Sulawesi Utara","city":"Bolaang Mongondow (Bolmong)","district":"Bolaang","urban":"Solimandungan Satu","postal_code":95752},{"province":"Sulawesi Utara","city":"Bolaang Mongondow (Bolmong)","district":"Bolaang Timur","urban":"Lolan","postal_code":95752},{"province":"Sulawesi Utara","city":"Bolaang Mongondow (Bolmong)","district":"Bolaang Timur","urban":"Lolan Dua","postal_code":95752},{"province":"Sulawesi Utara","city":"Bolaang Mongondow (Bolmong)","district":"Bolaang","urban":"Langagon Dua","postal_code":95752},{"province":"Sulawesi Utara","city":"Bolaang Mongondow (Bolmong)","district":"Bolaang","urban":"Langagon Satu","postal_code":95752},{"province":"Sulawesi Utara","city":"Bolaang Mongondow (Bolmong)","district":"Bolaang","urban":"Inobonto Satu","postal_code":95752},{"province":"Sulawesi Utara","city":"Bolaang Mongondow (Bolmong)","district":"Bolaang","urban":"Komangaan","postal_code":95752},{"province":"Sulawesi Utara","city":"Bolaang Mongondow (Bolmong)","district":"Bolaang","urban":"Langagon","postal_code":95752},{"province":"Sulawesi Utara","city":"Bolaang Mongondow (Bolmong)","district":"Bolaang","urban":"Inobonto Dua","postal_code":95752},{"province":"Sulawesi Utara","city":"Bolaang Mongondow (Bolmong)","district":"Bolaang","urban":"Inobonto","postal_code":95752},{"province":"Sulawesi Utara","city":"Bolaang Mongondow (Bolmong)","district":"Bolaang Timur","urban":"Bolaang","postal_code":95752},{"province":"Sulawesi Utara","city":"Bolaang Mongondow (Bolmong)","district":"Bolaang Timur","urban":"Bolaang Satu","postal_code":95752},{"province":"Sulawesi Utara","city":"Bolaang Mongondow (Bolmong)","district":"Bolaang Timur","urban":"Bantik","postal_code":95752},{"province":"Sulawesi Utara","city":"Bolaang Mongondow (Bolmong)","district":"Bolaang","urban":"Bangomolunow","postal_code":95752},{"province":"Sulawesi Utara","city":"Bolaang Mongondow (Bolmong)","district":"Bolaang Timur","urban":"Ambang I","postal_code":95752},{"province":"Sulawesi Utara","city":"Bolaang Mongondow (Bolmong)","district":"Bolaang Timur","urban":"Ambang II","postal_code":95752}]