[{"province":"Sulawesi Utara","city":"Bolaang Mongondow (Bolmong)","district":"Passi Barat","urban":"Wangga Satu","postal_code":95751},{"province":"Sulawesi Utara","city":"Bolaang Mongondow (Bolmong)","district":"Passi Barat","urban":"Wangga","postal_code":95751},{"province":"Sulawesi Utara","city":"Bolaang Mongondow (Bolmong)","district":"Bilalang","urban":"Tuduaog Baru","postal_code":95751},{"province":"Sulawesi Utara","city":"Bolaang Mongondow (Bolmong)","district":"Passi Timur","urban":"Sinsingon Timur","postal_code":95751},{"province":"Sulawesi Utara","city":"Bolaang Mongondow (Bolmong)","district":"Bilalang","urban":"Tuduaog","postal_code":95751},{"province":"Sulawesi Utara","city":"Bolaang Mongondow (Bolmong)","district":"Passi Timur","urban":"Sinsingon","postal_code":95751},{"province":"Sulawesi Utara","city":"Bolaang Mongondow (Bolmong)","district":"Passi Timur","urban":"Sinsingon Barat","postal_code":95751},{"province":"Sulawesi Utara","city":"Bolaang Mongondow (Bolmong)","district":"Passi Barat","urban":"Poyuyanan","postal_code":95751},{"province":"Sulawesi Utara","city":"Bolaang Mongondow (Bolmong)","district":"Passi Timur","urban":"Poopo Barat","postal_code":95751},{"province":"Sulawesi Utara","city":"Bolaang Mongondow (Bolmong)","district":"Passi Timur","urban":"Poopo Selatan","postal_code":95751},{"province":"Sulawesi Utara","city":"Bolaang Mongondow (Bolmong)","district":"Passi Barat","urban":"Passi 2","postal_code":95751},{"province":"Sulawesi Utara","city":"Bolaang Mongondow (Bolmong)","district":"Passi Timur","urban":"Poopo","postal_code":95751},{"province":"Sulawesi Utara","city":"Bolaang Mongondow (Bolmong)","district":"Passi Barat","urban":"Passi 1","postal_code":95751},{"province":"Sulawesi Utara","city":"Bolaang Mongondow (Bolmong)","district":"Passi Timur","urban":"Pangian Barat","postal_code":95751},{"province":"Sulawesi Utara","city":"Bolaang Mongondow (Bolmong)","district":"Passi Timur","urban":"Pangian Tengah","postal_code":95751},{"province":"Sulawesi Utara","city":"Bolaang Mongondow (Bolmong)","district":"Passi Barat","urban":"Otam Barat","postal_code":95751},{"province":"Sulawesi Utara","city":"Bolaang Mongondow (Bolmong)","district":"Passi Timur","urban":"Pangian","postal_code":95751},{"province":"Sulawesi Utara","city":"Bolaang Mongondow (Bolmong)","district":"Passi Barat","urban":"Muntoi Timur","postal_code":95751},{"province":"Sulawesi Utara","city":"Bolaang Mongondow (Bolmong)","district":"Passi Barat","urban":"Otam","postal_code":95751},{"province":"Sulawesi Utara","city":"Bolaang Mongondow (Bolmong)","district":"Passi Timur","urban":"Mobuya","postal_code":95751},{"province":"Sulawesi Utara","city":"Bolaang Mongondow (Bolmong)","district":"Passi Barat","urban":"Muntoi Induk (Muntoy)","postal_code":95751},{"province":"Sulawesi Utara","city":"Bolaang Mongondow (Bolmong)","district":"Passi Timur","urban":"Manembo","postal_code":95751},{"province":"Sulawesi Utara","city":"Bolaang Mongondow (Bolmong)","district":"Passi Barat","urban":"Lobong","postal_code":95751},{"province":"Sulawesi Utara","city":"Bolaang Mongondow (Bolmong)","district":"Bilalang","urban":"Kolingangaan","postal_code":95751},{"province":"Sulawesi Utara","city":"Bolaang Mongondow (Bolmong)","district":"Passi Barat","urban":"Inuai","postal_code":95751},{"province":"Sulawesi Utara","city":"Bolaang Mongondow (Bolmong)","district":"Passi Timur","urban":"Insil","postal_code":95751},{"province":"Sulawesi Utara","city":"Bolaang Mongondow (Bolmong)","district":"Passi Timur","urban":"Insil Baru","postal_code":95751},{"province":"Sulawesi Utara","city":"Bolaang Mongondow (Bolmong)","district":"Passi Barat","urban":"Bintau","postal_code":95751},{"province":"Sulawesi Utara","city":"Bolaang Mongondow (Bolmong)","district":"Passi Barat","urban":"Bulud","postal_code":95751},{"province":"Sulawesi Utara","city":"Bolaang Mongondow (Bolmong)","district":"Bilalang","urban":"Bilalang IV","postal_code":95751},{"province":"Sulawesi Utara","city":"Bolaang Mongondow (Bolmong)","district":"Bilalang","urban":"Bilalang Baru","postal_code":95751},{"province":"Sulawesi Utara","city":"Bolaang Mongondow (Bolmong)","district":"Bilalang","urban":"Bilalang III","postal_code":95751},{"province":"Sulawesi Utara","city":"Bolaang Mongondow (Bolmong)","district":"Bilalang","urban":"Bilalang III Utara","postal_code":95751}]