[{"province":"Sulawesi Utara","city":"Bolaang Mongondow Utara","district":"Pinogaluman","urban":"Tuntung","postal_code":95765},{"province":"Sulawesi Utara","city":"Bolaang Mongondow Utara","district":"Pinogaluman","urban":"Tuntung Timur","postal_code":95765},{"province":"Sulawesi Utara","city":"Bolaang Mongondow Utara","district":"Pinogaluman","urban":"Tombulang","postal_code":95765},{"province":"Sulawesi Utara","city":"Bolaang Mongondow Utara","district":"Pinogaluman","urban":"Tontulow (Tuntulow)","postal_code":95765},{"province":"Sulawesi Utara","city":"Bolaang Mongondow Utara","district":"Pinogaluman","urban":"Tintulow Utara","postal_code":95765},{"province":"Sulawesi Utara","city":"Bolaang Mongondow Utara","district":"Pinogaluman","urban":"Tambulong Timur","postal_code":95765},{"province":"Sulawesi Utara","city":"Bolaang Mongondow Utara","district":"Pinogaluman","urban":"Tanjung Sidupa","postal_code":95765},{"province":"Sulawesi Utara","city":"Bolaang Mongondow Utara","district":"Pinogaluman","urban":"Tambulong Pantai","postal_code":95765},{"province":"Sulawesi Utara","city":"Bolaang Mongondow Utara","district":"Kaidipang","urban":"Solo","postal_code":95765},{"province":"Sulawesi Utara","city":"Bolaang Mongondow Utara","district":"Kaidipang","urban":"Pontak","postal_code":95765},{"province":"Sulawesi Utara","city":"Bolaang Mongondow Utara","district":"Kaidipang","urban":"Soligir","postal_code":95765},{"province":"Sulawesi Utara","city":"Bolaang Mongondow Utara","district":"Pinogaluman","urban":"Padango","postal_code":95765},{"province":"Sulawesi Utara","city":"Bolaang Mongondow Utara","district":"Pinogaluman","urban":"Komus Satu","postal_code":95765},{"province":"Sulawesi Utara","city":"Bolaang Mongondow Utara","district":"Kaidipang","urban":"Kuala","postal_code":95765},{"province":"Sulawesi Utara","city":"Bolaang Mongondow Utara","district":"Kaidipang","urban":"Kuala Utara","postal_code":95765},{"province":"Sulawesi Utara","city":"Bolaang Mongondow Utara","district":"Kaidipang","urban":"Komus Dua (II)","postal_code":95765},{"province":"Sulawesi Utara","city":"Bolaang Mongondow Utara","district":"Kaidipang","urban":"Komus Dua Timur","postal_code":95765},{"province":"Sulawesi Utara","city":"Bolaang Mongondow Utara","district":"Pinogaluman","urban":"Kayuogu","postal_code":95765},{"province":"Sulawesi Utara","city":"Bolaang Mongondow Utara","district":"Kaidipang","urban":"Inomunga Utara","postal_code":95765},{"province":"Sulawesi Utara","city":"Bolaang Mongondow Utara","district":"Pinogaluman","urban":"Duini","postal_code":95765},{"province":"Sulawesi Utara","city":"Bolaang Mongondow Utara","district":"Kaidipang","urban":"Gihang","postal_code":95765},{"province":"Sulawesi Utara","city":"Bolaang Mongondow Utara","district":"Kaidipang","urban":"Inomunga","postal_code":95765},{"province":"Sulawesi Utara","city":"Bolaang Mongondow Utara","district":"Pinogaluman","urban":"Dalapuli Timur","postal_code":95765},{"province":"Sulawesi Utara","city":"Bolaang Mongondow Utara","district":"Pinogaluman","urban":"Dengi","postal_code":95765},{"province":"Sulawesi Utara","city":"Bolaang Mongondow Utara","district":"Pinogaluman","urban":"Busato","postal_code":95765},{"province":"Sulawesi Utara","city":"Bolaang Mongondow Utara","district":"Pinogaluman","urban":"Dalapuli","postal_code":95765},{"province":"Sulawesi Utara","city":"Bolaang Mongondow Utara","district":"Pinogaluman","urban":"Dalapuli Barat","postal_code":95765},{"province":"Sulawesi Utara","city":"Bolaang Mongondow Utara","district":"Pinogaluman","urban":"Buko Selatan","postal_code":95765},{"province":"Sulawesi Utara","city":"Bolaang Mongondow Utara","district":"Pinogaluman","urban":"Buko Utara","postal_code":95765},{"province":"Sulawesi Utara","city":"Bolaang Mongondow Utara","district":"Kaidipang","urban":"Boroko Utara","postal_code":95765},{"province":"Sulawesi Utara","city":"Bolaang Mongondow Utara","district":"Pinogaluman","urban":"Buko","postal_code":95765},{"province":"Sulawesi Utara","city":"Bolaang Mongondow Utara","district":"Kaidipang","urban":"Boroko","postal_code":95765},{"province":"Sulawesi Utara","city":"Bolaang Mongondow Utara","district":"Kaidipang","urban":"Boroko Timur","postal_code":95765},{"province":"Sulawesi Utara","city":"Bolaang Mongondow Utara","district":"Kaidipang","urban":"Bigo","postal_code":95765},{"province":"Sulawesi Utara","city":"Bolaang Mongondow Utara","district":"Kaidipang","urban":"Bigo Selatan","postal_code":95765},{"province":"Sulawesi Utara","city":"Bolaang Mongondow Utara","district":"Pinogaluman","urban":"Batu Batayo","postal_code":95765},{"province":"Sulawesi Utara","city":"Bolaang Mongondow Utara","district":"Pinogaluman","urban":"Batutajam","postal_code":95765}]