[{"province":"Sulawesi Utara","city":"Bolaang Mongondow (Bolmong)","district":"Dumoga Utara","urban":"Tumokang Baru","postal_code":95772},{"province":"Sulawesi Utara","city":"Bolaang Mongondow (Bolmong)","district":"Dumoga Utara","urban":"Tumokang Timur","postal_code":95772},{"province":"Sulawesi Utara","city":"Bolaang Mongondow (Bolmong)","district":"Dumoga Timur","urban":"Tonom","postal_code":95772},{"province":"Sulawesi Utara","city":"Bolaang Mongondow (Bolmong)","district":"Dumoga","urban":"Toruakat","postal_code":95772},{"province":"Sulawesi Utara","city":"Bolaang Mongondow (Bolmong)","district":"Dumoga Tenggara","urban":"Tapadaka Timur","postal_code":95772},{"province":"Sulawesi Utara","city":"Bolaang Mongondow (Bolmong)","district":"Dumoga Tenggara","urban":"Tapadaka Utara","postal_code":95772},{"province":"Sulawesi Utara","city":"Bolaang Mongondow (Bolmong)","district":"Dumoga Tenggara","urban":"Tapadaka Satu / I","postal_code":95772},{"province":"Sulawesi Utara","city":"Bolaang Mongondow (Bolmong)","district":"Dumoga","urban":"Siniyung Satu","postal_code":95772},{"province":"Sulawesi Utara","city":"Bolaang Mongondow (Bolmong)","district":"Dumoga","urban":"Pusian","postal_code":95772},{"province":"Sulawesi Utara","city":"Bolaang Mongondow (Bolmong)","district":"Dumoga","urban":"Serasi","postal_code":95772},{"province":"Sulawesi Utara","city":"Bolaang Mongondow (Bolmong)","district":"Dumoga","urban":"Siniyung","postal_code":95772},{"province":"Sulawesi Utara","city":"Bolaang Mongondow (Bolmong)","district":"Dumoga Timur","urban":"Pinonobatuan Barat","postal_code":95772},{"province":"Sulawesi Utara","city":"Bolaang Mongondow (Bolmong)","district":"Dumoga","urban":"Ponompian","postal_code":95772},{"province":"Sulawesi Utara","city":"Bolaang Mongondow (Bolmong)","district":"Dumoga Tenggara","urban":"Osion","postal_code":95772},{"province":"Sulawesi Utara","city":"Bolaang Mongondow (Bolmong)","district":"Dumoga Timur","urban":"Pinonobatuan","postal_code":95772},{"province":"Sulawesi Utara","city":"Bolaang Mongondow (Bolmong)","district":"Dumoga","urban":"Mototabian","postal_code":95772},{"province":"Sulawesi Utara","city":"Bolaang Mongondow (Bolmong)","district":"Dumoga Utara","urban":"Mopuya Utara Dua","postal_code":95772},{"province":"Sulawesi Utara","city":"Bolaang Mongondow (Bolmong)","district":"Dumoga Utara","urban":"Mopuya Utara Satu","postal_code":95772},{"province":"Sulawesi Utara","city":"Bolaang Mongondow (Bolmong)","district":"Dumoga Utara","urban":"Mopuya Selatan Satu","postal_code":95772},{"province":"Sulawesi Utara","city":"Bolaang Mongondow (Bolmong)","district":"Dumoga Utara","urban":"Mopuya Utara","postal_code":95772},{"province":"Sulawesi Utara","city":"Bolaang Mongondow (Bolmong)","district":"Dumoga Utara","urban":"Mopuya Selatan Dua","postal_code":95772},{"province":"Sulawesi Utara","city":"Bolaang Mongondow (Bolmong)","district":"Dumoga Utara","urban":"Mopuya Selatan","postal_code":95772},{"province":"Sulawesi Utara","city":"Bolaang Mongondow (Bolmong)","district":"Dumoga Utara","urban":"Mopugad Utara Dua","postal_code":95772},{"province":"Sulawesi Utara","city":"Bolaang Mongondow (Bolmong)","district":"Dumoga Utara","urban":"Mopugad Utara Satu","postal_code":95772},{"province":"Sulawesi Utara","city":"Bolaang Mongondow (Bolmong)","district":"Dumoga Utara","urban":"Mopugad Selatan Satu","postal_code":95772},{"province":"Sulawesi Utara","city":"Bolaang Mongondow (Bolmong)","district":"Dumoga Utara","urban":"Mopugad Utara","postal_code":95772},{"province":"Sulawesi Utara","city":"Bolaang Mongondow (Bolmong)","district":"Dumoga Utara","urban":"Mopugad Selatan","postal_code":95772},{"province":"Sulawesi Utara","city":"Bolaang Mongondow (Bolmong)","district":"Dumoga Timur","urban":"Mogoyunggung Dua","postal_code":95772},{"province":"Sulawesi Utara","city":"Bolaang Mongondow (Bolmong)","district":"Dumoga Timur","urban":"Mogoyunggung Satu","postal_code":95772},{"province":"Sulawesi Utara","city":"Bolaang Mongondow (Bolmong)","district":"Dumoga Timur","urban":"Modomang","postal_code":95772},{"province":"Sulawesi Utara","city":"Bolaang Mongondow (Bolmong)","district":"Dumoga Timur","urban":"Mogoyunggung","postal_code":95772},{"province":"Sulawesi Utara","city":"Bolaang Mongondow (Bolmong)","district":"Dumoga Tenggara","urban":"Konarom","postal_code":95772},{"province":"Sulawesi Utara","city":"Bolaang Mongondow (Bolmong)","district":"Dumoga Tenggara","urban":"Konarom Barat","postal_code":95772},{"province":"Sulawesi Utara","city":"Bolaang Mongondow (Bolmong)","district":"Dumoga Tenggara","urban":"Konarom Utara","postal_code":95772},{"province":"Sulawesi Utara","city":"Bolaang Mongondow (Bolmong)","district":"Dumoga Timur","urban":"Kembang Mertha","postal_code":95772},{"province":"Sulawesi Utara","city":"Bolaang Mongondow (Bolmong)","district":"Dumoga Timur","urban":"Kembang Sari","postal_code":95772},{"province":"Sulawesi Utara","city":"Bolaang Mongondow (Bolmong)","district":"Dumoga","urban":"Kanaan","postal_code":95772},{"province":"Sulawesi Utara","city":"Bolaang Mongondow (Bolmong)","district":"Dumoga Timur","urban":"Imandi","postal_code":95772},{"province":"Sulawesi Utara","city":"Bolaang Mongondow (Bolmong)","district":"Dumoga Tenggara","urban":"Ikuna","postal_code":95772},{"province":"Sulawesi Utara","city":"Bolaang Mongondow (Bolmong)","district":"Dumoga Timur","urban":"Dumoga II","postal_code":95772},{"province":"Sulawesi Utara","city":"Bolaang Mongondow (Bolmong)","district":"Dumoga","urban":"Dumoga I","postal_code":95772},{"province":"Sulawesi Utara","city":"Bolaang Mongondow (Bolmong)","district":"Dumoga Timur","urban":"Dumoga","postal_code":95772},{"province":"Sulawesi Utara","city":"Bolaang Mongondow (Bolmong)","district":"Dumoga Tenggara","urban":"Dumara","postal_code":95772},{"province":"Sulawesi Utara","city":"Bolaang Mongondow (Bolmong)","district":"Dumoga Utara","urban":"Dondomon","postal_code":95772},{"province":"Sulawesi Utara","city":"Bolaang Mongondow (Bolmong)","district":"Dumoga Utara","urban":"Dondomon Selatan","postal_code":95772},{"province":"Sulawesi Utara","city":"Bolaang Mongondow (Bolmong)","district":"Dumoga Utara","urban":"Dondomon Utara","postal_code":95772},{"province":"Sulawesi Utara","city":"Bolaang Mongondow (Bolmong)","district":"Dumoga","urban":"Bumbungon","postal_code":95772},{"province":"Sulawesi Utara","city":"Bolaang Mongondow (Bolmong)","district":"Dumoga Tenggara","urban":"Bonawang","postal_code":95772},{"province":"Sulawesi Utara","city":"Bolaang Mongondow (Bolmong)","district":"Dumoga Timur","urban":"Amertha Sari","postal_code":95772},{"province":"Sulawesi Utara","city":"Bolaang Mongondow (Bolmong)","district":"Dumoga Timur","urban":"Amertha Buana","postal_code":95772}]