[{"province":"Sulawesi Utara","city":"Bolaang Mongondow Selatan","district":"Pinolosian Tengah","urban":"Torosik","postal_code":95775},{"province":"Sulawesi Utara","city":"Bolaang Mongondow Selatan","district":"Pinolosian","urban":"Tolotoyon","postal_code":95775},{"province":"Sulawesi Utara","city":"Bolaang Mongondow Selatan","district":"Pinolosian Tengah","urban":"Tobayagan","postal_code":95775},{"province":"Sulawesi Utara","city":"Bolaang Mongondow Selatan","district":"Pinolosian","urban":"Pinolosian","postal_code":95775},{"province":"Sulawesi Utara","city":"Bolaang Mongondow Selatan","district":"Pinolosian","urban":"Pinolosian Selatan","postal_code":95775},{"province":"Sulawesi Utara","city":"Bolaang Mongondow Selatan","district":"Pinolosian Timur","urban":"Posilagon","postal_code":95775},{"province":"Sulawesi Utara","city":"Bolaang Mongondow Selatan","district":"Pinolosian Timur","urban":"Onggunoi","postal_code":95775},{"province":"Sulawesi Utara","city":"Bolaang Mongondow Selatan","district":"Pinolosian Timur","urban":"Pidung","postal_code":95775},{"province":"Sulawesi Utara","city":"Bolaang Mongondow Selatan","district":"Pinolosian","urban":"Nunuk","postal_code":95775},{"province":"Sulawesi Utara","city":"Bolaang Mongondow Selatan","district":"Pinolosian Timur","urban":"Matandoi (Motandoi)","postal_code":95775},{"province":"Sulawesi Utara","city":"Bolaang Mongondow Selatan","district":"Pinolosian Timur","urban":"Modisi","postal_code":95775},{"province":"Sulawesi Utara","city":"Bolaang Mongondow Selatan","district":"Pinolosian Tengah","urban":"Mataindo","postal_code":95775},{"province":"Sulawesi Utara","city":"Bolaang Mongondow Selatan","district":"Pinolosian","urban":"Lungkap","postal_code":95775},{"province":"Sulawesi Utara","city":"Bolaang Mongondow Selatan","district":"Pinolosian","urban":"Linawan I","postal_code":95775},{"province":"Sulawesi Utara","city":"Bolaang Mongondow Selatan","district":"Pinolosian","urban":"Kombot","postal_code":95775},{"province":"Sulawesi Utara","city":"Bolaang Mongondow Selatan","district":"Pinolosian","urban":"Linawan","postal_code":95775},{"province":"Sulawesi Utara","city":"Bolaang Mongondow Selatan","district":"Pinolosian","urban":"Ilomata","postal_code":95775},{"province":"Sulawesi Utara","city":"Bolaang Mongondow Selatan","district":"Pinolosian Timur","urban":"Dumagin B","postal_code":95775},{"province":"Sulawesi Utara","city":"Bolaang Mongondow Selatan","district":"Pinolosian Timur","urban":"Iligon","postal_code":95775},{"province":"Sulawesi Utara","city":"Bolaang Mongondow Selatan","district":"Pinolosian Timur","urban":"Dumagin A","postal_code":95775},{"province":"Sulawesi Utara","city":"Bolaang Mongondow Selatan","district":"Pinolosian Tengah","urban":"Deaga","postal_code":95775},{"province":"Sulawesi Utara","city":"Bolaang Mongondow Selatan","district":"Pinolosian Timur","urban":"Dayow","postal_code":95775},{"province":"Sulawesi Utara","city":"Bolaang Mongondow Selatan","district":"Pinolosian Tengah","urban":"Adow Selatan","postal_code":95775},{"province":"Sulawesi Utara","city":"Bolaang Mongondow Selatan","district":"Pinolosian Tengah","urban":"Adow","postal_code":95775},{"province":"Sulawesi Utara","city":"Bolaang Mongondow Timur","district":"Nuangan","urban":"Nuangan I","postal_code":95775},{"province":"Sulawesi Utara","city":"Bolaang Mongondow Timur","district":"Nuangan","urban":"Nuangan Selatan","postal_code":95775},{"province":"Sulawesi Utara","city":"Bolaang Mongondow Timur","district":"Nuangan","urban":"Nuangan","postal_code":95775},{"province":"Sulawesi Utara","city":"Bolaang Mongondow Timur","district":"Nuangan","urban":"Nuangan Barat","postal_code":95775},{"province":"Sulawesi Utara","city":"Bolaang Mongondow Timur","district":"Nuangan","urban":"Motongkad Tengah","postal_code":95775},{"province":"Sulawesi Utara","city":"Bolaang Mongondow Timur","district":"Nuangan","urban":"Motongkad Utara","postal_code":95775},{"province":"Sulawesi Utara","city":"Bolaang Mongondow Timur","district":"Nuangan","urban":"Motongkad","postal_code":95775},{"province":"Sulawesi Utara","city":"Bolaang Mongondow Timur","district":"Nuangan","urban":"Motongkad Selatan","postal_code":95775},{"province":"Sulawesi Utara","city":"Bolaang Mongondow Timur","district":"Nuangan","urban":"Molobog","postal_code":95775},{"province":"Sulawesi Utara","city":"Bolaang Mongondow Timur","district":"Nuangan","urban":"Molobog Barat","postal_code":95775},{"province":"Sulawesi Utara","city":"Bolaang Mongondow Timur","district":"Nuangan","urban":"Molobog Timur","postal_code":95775},{"province":"Sulawesi Utara","city":"Bolaang Mongondow Timur","district":"Nuangan","urban":"Matabulu","postal_code":95775},{"province":"Sulawesi Utara","city":"Bolaang Mongondow Timur","district":"Nuangan","urban":"Matabulu Timur","postal_code":95775},{"province":"Sulawesi Utara","city":"Bolaang Mongondow Timur","district":"Nuangan","urban":"Loyow","postal_code":95775},{"province":"Sulawesi Utara","city":"Bolaang Mongondow Timur","district":"Nuangan","urban":"Jiko","postal_code":95775},{"province":"Sulawesi Utara","city":"Bolaang Mongondow Timur","district":"Nuangan","urban":"Jiko Belanga","postal_code":95775},{"province":"Sulawesi Utara","city":"Bolaang Mongondow Timur","district":"Nuangan","urban":"Jiko Utara","postal_code":95775},{"province":"Sulawesi Utara","city":"Bolaang Mongondow Timur","district":"Nuangan","urban":"Iyok","postal_code":95775},{"province":"Sulawesi Utara","city":"Bolaang Mongondow Timur","district":"Nuangan","urban":"Idumun","postal_code":95775},{"province":"Sulawesi Utara","city":"Bolaang Mongondow Timur","district":"Nuangan","urban":"Atoga Timur","postal_code":95775},{"province":"Sulawesi Utara","city":"Bolaang Mongondow Timur","district":"Nuangan","urban":"Bai","postal_code":95775},{"province":"Sulawesi Utara","city":"Bolaang Mongondow Timur","district":"Nuangan","urban":"Atoga","postal_code":95775}]