[{"province":"Sulawesi Utara","city":"Bolaang Mongondow (Bolmong)","district":"Dumoga Tengah","urban":"Werdhi Agung Selatan","postal_code":95773},{"province":"Sulawesi Utara","city":"Bolaang Mongondow (Bolmong)","district":"Dumoga Tengah","urban":"Werdhi Agung Timur","postal_code":95773},{"province":"Sulawesi Utara","city":"Bolaang Mongondow (Bolmong)","district":"Dumoga Tengah","urban":"Werdhi Agung Utara","postal_code":95773},{"province":"Sulawesi Utara","city":"Bolaang Mongondow (Bolmong)","district":"Dumoga Barat","urban":"Wangga Baru","postal_code":95773},{"province":"Sulawesi Utara","city":"Bolaang Mongondow (Bolmong)","district":"Dumoga Tengah","urban":"Werdhi Agung","postal_code":95773},{"province":"Sulawesi Utara","city":"Bolaang Mongondow (Bolmong)","district":"Dumoga Barat","urban":"Uuwan / Uuan","postal_code":95773},{"province":"Sulawesi Utara","city":"Bolaang Mongondow (Bolmong)","district":"Dumoga Barat","urban":"Toraut Utara","postal_code":95773},{"province":"Sulawesi Utara","city":"Bolaang Mongondow (Bolmong)","district":"Dumoga Barat","urban":"Totaut / Toraut","postal_code":95773},{"province":"Sulawesi Utara","city":"Bolaang Mongondow (Bolmong)","district":"Dumoga Barat","urban":"Matayangan","postal_code":95773},{"province":"Sulawesi Utara","city":"Bolaang Mongondow (Bolmong)","district":"Dumoga Barat","urban":"Mekaruo","postal_code":95773},{"province":"Sulawesi Utara","city":"Bolaang Mongondow (Bolmong)","district":"Dumoga Tengah","urban":"Kinomaligan (Kinomalingan)","postal_code":95773},{"province":"Sulawesi Utara","city":"Bolaang Mongondow (Bolmong)","district":"Dumoga Tengah","urban":"Kosio","postal_code":95773},{"province":"Sulawesi Utara","city":"Bolaang Mongondow (Bolmong)","district":"Dumoga Tengah","urban":"Kosio Timur","postal_code":95773},{"province":"Sulawesi Utara","city":"Bolaang Mongondow (Bolmong)","district":"Dumoga Tengah","urban":"Ibolian Satu / I","postal_code":95773},{"province":"Sulawesi Utara","city":"Bolaang Mongondow (Bolmong)","district":"Dumoga Tengah","urban":"Kasio Barat","postal_code":95773},{"province":"Sulawesi Utara","city":"Bolaang Mongondow (Bolmong)","district":"Dumoga Barat","urban":"Ikhwan","postal_code":95773},{"province":"Sulawesi Utara","city":"Bolaang Mongondow (Bolmong)","district":"Dumoga Tengah","urban":"Ibolian","postal_code":95773},{"province":"Sulawesi Utara","city":"Bolaang Mongondow (Bolmong)","district":"Dumoga Tengah","urban":"Ibolian","postal_code":95773},{"province":"Sulawesi Utara","city":"Bolaang Mongondow (Bolmong)","district":"Dumoga Barat","urban":"Doloduo Satu","postal_code":95773},{"province":"Sulawesi Utara","city":"Bolaang Mongondow (Bolmong)","district":"Dumoga Barat","urban":"Doloduo","postal_code":95773},{"province":"Sulawesi Utara","city":"Bolaang Mongondow (Bolmong)","district":"Dumoga Barat","urban":"Doloduo Dua","postal_code":95773}]