[{"province":"Sulawesi Utara","city":"Bolaang Mongondow Timur","district":"Modayag Barat","urban":"Tangaton","postal_code":95781},{"province":"Sulawesi Utara","city":"Bolaang Mongondow Timur","district":"Modayag","urban":"Tobongon","postal_code":95781},{"province":"Sulawesi Utara","city":"Bolaang Mongondow Timur","district":"Modayag","urban":"Purworejo Tengah","postal_code":95781},{"province":"Sulawesi Utara","city":"Bolaang Mongondow Timur","district":"Modayag","urban":"Purworejo Timur","postal_code":95781},{"province":"Sulawesi Utara","city":"Bolaang Mongondow Timur","district":"Modayag","urban":"Sumber Rejo","postal_code":95781},{"province":"Sulawesi Utara","city":"Bolaang Mongondow Timur","district":"Modayag Barat","urban":"Pinonobatuan","postal_code":95781},{"province":"Sulawesi Utara","city":"Bolaang Mongondow Timur","district":"Modayag","urban":"Purworejo","postal_code":95781},{"province":"Sulawesi Utara","city":"Bolaang Mongondow Timur","district":"Modayag Barat","urban":"Moyongkota","postal_code":95781},{"province":"Sulawesi Utara","city":"Bolaang Mongondow Timur","district":"Modayag Barat","urban":"Moyongkota Baru","postal_code":95781},{"province":"Sulawesi Utara","city":"Bolaang Mongondow Timur","district":"Modayag Barat","urban":"Moonow","postal_code":95781},{"province":"Sulawesi Utara","city":"Bolaang Mongondow Timur","district":"Modayag","urban":"Mototompian","postal_code":95781},{"province":"Sulawesi Utara","city":"Bolaang Mongondow Timur","district":"Modayag","urban":"Modayag II","postal_code":95781},{"province":"Sulawesi Utara","city":"Bolaang Mongondow Timur","district":"Modayag","urban":"Modayag III","postal_code":95781},{"province":"Sulawesi Utara","city":"Bolaang Mongondow Timur","district":"Modayag","urban":"Mokitompia","postal_code":95781},{"province":"Sulawesi Utara","city":"Bolaang Mongondow Timur","district":"Modayag","urban":"Moat (Mooat)","postal_code":95781},{"province":"Sulawesi Utara","city":"Bolaang Mongondow Timur","district":"Modayag","urban":"Modayag","postal_code":95781},{"province":"Sulawesi Utara","city":"Bolaang Mongondow Timur","district":"Modayag","urban":"Lanut","postal_code":95781},{"province":"Sulawesi Utara","city":"Bolaang Mongondow Timur","district":"Modayag","urban":"Liberia","postal_code":95781},{"province":"Sulawesi Utara","city":"Bolaang Mongondow Timur","district":"Modayag","urban":"Liberia Timur","postal_code":95781},{"province":"Sulawesi Utara","city":"Bolaang Mongondow Timur","district":"Modayag","urban":"Kokapoi","postal_code":95781},{"province":"Sulawesi Utara","city":"Bolaang Mongondow Timur","district":"Modayag","urban":"Kokapoi Timur","postal_code":95781},{"province":"Sulawesi Utara","city":"Bolaang Mongondow Timur","district":"Modayag","urban":"Guaan","postal_code":95781},{"province":"Sulawesi Utara","city":"Bolaang Mongondow Timur","district":"Modayag Barat","urban":"Inaton","postal_code":95781},{"province":"Sulawesi Utara","city":"Bolaang Mongondow Timur","district":"Modayag","urban":"Candi Rejo","postal_code":95781},{"province":"Sulawesi Utara","city":"Bolaang Mongondow Timur","district":"Modayag","urban":"Bongkudai Utara","postal_code":95781},{"province":"Sulawesi Utara","city":"Bolaang Mongondow Timur","district":"Modayag","urban":"Buyandi","postal_code":95781},{"province":"Sulawesi Utara","city":"Bolaang Mongondow Timur","district":"Modayag","urban":"Bongkudai Timur","postal_code":95781},{"province":"Sulawesi Utara","city":"Bolaang Mongondow Timur","district":"Modayag","urban":"Bongkudai Selatan","postal_code":95781},{"province":"Sulawesi Utara","city":"Bolaang Mongondow Timur","district":"Modayag Barat","urban":"Bongkudai Barat","postal_code":95781},{"province":"Sulawesi Utara","city":"Bolaang Mongondow Timur","district":"Modayag","urban":"Bongkudai Baru","postal_code":95781},{"province":"Sulawesi Utara","city":"Bolaang Mongondow Timur","district":"Modayag Barat","urban":"Bangunan Wuwuk","postal_code":95781},{"province":"Sulawesi Utara","city":"Bolaang Mongondow Timur","district":"Modayag Barat","urban":"Bangunan Wuwuk Timur","postal_code":95781},{"province":"Sulawesi Utara","city":"Bolaang Mongondow Timur","district":"Modayag Barat","urban":"Bangunan Wuwuk Timur","postal_code":95781},{"province":"Sulawesi Utara","city":"Bolaang Mongondow Timur","district":"Modayag","urban":"Badaro","postal_code":95781}]