[{"province":"Sulawesi Utara","city":"Bolaang Mongondow Timur","district":"Tutuyan","urban":"Tutuyan","postal_code":95782},{"province":"Sulawesi Utara","city":"Bolaang Mongondow Timur","district":"Tutuyan","urban":"Tutuyan II","postal_code":95782},{"province":"Sulawesi Utara","city":"Bolaang Mongondow Timur","district":"Tutuyan","urban":"Tutuyan III","postal_code":95782},{"province":"Sulawesi Utara","city":"Bolaang Mongondow Timur","district":"Tutuyan","urban":"Tombolikat Selatan","postal_code":95782},{"province":"Sulawesi Utara","city":"Bolaang Mongondow Timur","district":"Tutuyan","urban":"Togid","postal_code":95782},{"province":"Sulawesi Utara","city":"Bolaang Mongondow Timur","district":"Tutuyan","urban":"Tombolikat","postal_code":95782},{"province":"Sulawesi Utara","city":"Bolaang Mongondow Timur","district":"Kotabunan","urban":"Paret","postal_code":95782},{"province":"Sulawesi Utara","city":"Bolaang Mongondow Timur","district":"Kotabunan","urban":"Paret Timur","postal_code":95782},{"province":"Sulawesi Utara","city":"Bolaang Mongondow Timur","district":"Kotabunan","urban":"Kotabunan Selatan","postal_code":95782},{"province":"Sulawesi Utara","city":"Bolaang Mongondow Timur","district":"Kotabunan","urban":"Kotabunan","postal_code":95782},{"province":"Sulawesi Utara","city":"Bolaang Mongondow Timur","district":"Kotabunan","urban":"Kotabunan Barat","postal_code":95782},{"province":"Sulawesi Utara","city":"Bolaang Mongondow Timur","district":"Tutuyan","urban":"Dodop Mikasa","postal_code":95782},{"province":"Sulawesi Utara","city":"Bolaang Mongondow Timur","district":"Tutuyan","urban":"Kayumoyondi","postal_code":95782},{"province":"Sulawesi Utara","city":"Bolaang Mongondow Timur","district":"Tutuyan","urban":"Dodap","postal_code":95782},{"province":"Sulawesi Utara","city":"Bolaang Mongondow Timur","district":"Tutuyan","urban":"Dodap Pantai","postal_code":95782},{"province":"Sulawesi Utara","city":"Bolaang Mongondow Timur","district":"Kotabunan","urban":"Buyat Selatan","postal_code":95782},{"province":"Sulawesi Utara","city":"Bolaang Mongondow Timur","district":"Kotabunan","urban":"Buyat Tengah","postal_code":95782},{"province":"Sulawesi Utara","city":"Bolaang Mongondow Timur","district":"Kotabunan","urban":"Buyat I","postal_code":95782},{"province":"Sulawesi Utara","city":"Bolaang Mongondow Timur","district":"Kotabunan","urban":"Buyat II","postal_code":95782},{"province":"Sulawesi Utara","city":"Bolaang Mongondow Timur","district":"Kotabunan","urban":"Buyat","postal_code":95782},{"province":"Sulawesi Utara","city":"Bolaang Mongondow Timur","district":"Kotabunan","urban":"Buyat Barat","postal_code":95782},{"province":"Sulawesi Utara","city":"Bolaang Mongondow Timur","district":"Kotabunan","urban":"Bulawan","postal_code":95782},{"province":"Sulawesi Utara","city":"Bolaang Mongondow Timur","district":"Kotabunan","urban":"Bulawan Dua","postal_code":95782},{"province":"Sulawesi Utara","city":"Bolaang Mongondow Timur","district":"Kotabunan","urban":"Bulawan Satu","postal_code":95782},{"province":"Sulawesi Utara","city":"Bolaang Mongondow Timur","district":"Kotabunan","urban":"Bukaka","postal_code":95782}]