[{"province":"Sulawesi Utara","city":"Kepulauan Sangihe","district":"Tatoareng","urban":"Taleko Batusaiki","postal_code":95854},{"province":"Sulawesi Utara","city":"Kepulauan Sangihe","district":"Manganitu Selatan","urban":"Sowaeng (Mawira)","postal_code":95854},{"province":"Sulawesi Utara","city":"Kepulauan Sangihe","district":"Manganitu Selatan","urban":"Pindang","postal_code":95854},{"province":"Sulawesi Utara","city":"Kepulauan Sangihe","district":"Tatoareng","urban":"Para I","postal_code":95854},{"province":"Sulawesi Utara","city":"Kepulauan Sangihe","district":"Tatoareng","urban":"Para","postal_code":95854},{"province":"Sulawesi Utara","city":"Kepulauan Sangihe","district":"Manganitu Selatan","urban":"Ngalipaeng Satu (I)","postal_code":95854},{"province":"Sulawesi Utara","city":"Kepulauan Sangihe","district":"Manganitu Selatan","urban":"Ngalipaeng Dua (II)","postal_code":95854},{"province":"Sulawesi Utara","city":"Kepulauan Sangihe","district":"Manganitu Selatan","urban":"Mawira","postal_code":95854},{"province":"Sulawesi Utara","city":"Kepulauan Sangihe","district":"Tatoareng","urban":"Mahenggetang (Mahengetang)","postal_code":95854},{"province":"Sulawesi Utara","city":"Kepulauan Sangihe","district":"Manganitu Selatan","urban":"Lehimi Tariang","postal_code":95854},{"province":"Sulawesi Utara","city":"Kepulauan Sangihe","district":"Manganitu Selatan","urban":"Lapepahe","postal_code":95854},{"province":"Sulawesi Utara","city":"Kepulauan Sangihe","district":"Manganitu Selatan","urban":"Lapango I","postal_code":95854},{"province":"Sulawesi Utara","city":"Kepulauan Sangihe","district":"Manganitu Selatan","urban":"Lapango","postal_code":95854},{"province":"Sulawesi Utara","city":"Kepulauan Sangihe","district":"Manganitu Selatan","urban":"Kaluwatu","postal_code":95854},{"province":"Sulawesi Utara","city":"Kepulauan Sangihe","district":"Manganitu Selatan","urban":"Laine","postal_code":95854},{"province":"Sulawesi Utara","city":"Kepulauan Sangihe","district":"Tatoareng","urban":"Kalama","postal_code":95854},{"province":"Sulawesi Utara","city":"Kepulauan Sangihe","district":"Tatoareng","urban":"Kahakitang","postal_code":95854},{"province":"Sulawesi Utara","city":"Kepulauan Sangihe","district":"Tatoareng","urban":"Dalako Bembanahe","postal_code":95854},{"province":"Sulawesi Utara","city":"Kepulauan Sangihe","district":"Manganitu Selatan","urban":"Bebalang","postal_code":95854},{"province":"Sulawesi Utara","city":"Kepulauan Sangihe","district":"Manganitu Selatan","urban":"Batunderang","postal_code":95854}]