[{"province":"Sulawesi Utara","city":"Kepulauan Sangihe","district":"Tabukan Selatan Tenggara","urban":"Tumalede","postal_code":95858},{"province":"Sulawesi Utara","city":"Kepulauan Sangihe","district":"Tabukan Selatan Tengah","urban":"Tambung","postal_code":95858},{"province":"Sulawesi Utara","city":"Kepulauan Sangihe","district":"Tabukan Selatan Tengah","urban":"Tenda","postal_code":95858},{"province":"Sulawesi Utara","city":"Kepulauan Sangihe","district":"Tabukan Selatan","urban":"Simueng","postal_code":95858},{"province":"Sulawesi Utara","city":"Kepulauan Sangihe","district":"Tabukan Selatan Tenggara","urban":"Sampakang","postal_code":95858},{"province":"Sulawesi Utara","city":"Kepulauan Sangihe","district":"Tabukan Selatan Tengah","urban":"Salurang","postal_code":95858},{"province":"Sulawesi Utara","city":"Kepulauan Sangihe","district":"Tabukan Selatan Tenggara","urban":"Pintareng","postal_code":95858},{"province":"Sulawesi Utara","city":"Kepulauan Sangihe","district":"Tabukan Selatan","urban":"Mandoi","postal_code":95858},{"province":"Sulawesi Utara","city":"Kepulauan Sangihe","district":"Tabukan Selatan Tenggara","urban":"Malisade","postal_code":95858},{"province":"Sulawesi Utara","city":"Kepulauan Sangihe","district":"Tabukan Selatan","urban":"Palareng","postal_code":95858},{"province":"Sulawesi Utara","city":"Kepulauan Sangihe","district":"Tabukan Selatan","urban":"Malamenggu","postal_code":95858},{"province":"Sulawesi Utara","city":"Kepulauan Sangihe","district":"Tabukan Selatan Tengah","urban":"Lehupu","postal_code":95858},{"province":"Sulawesi Utara","city":"Kepulauan Sangihe","district":"Tabukan Selatan","urban":"Lesabe","postal_code":95858},{"province":"Sulawesi Utara","city":"Kepulauan Sangihe","district":"Tabukan Selatan","urban":"Lesabe I","postal_code":95858},{"province":"Sulawesi Utara","city":"Kepulauan Sangihe","district":"Tabukan Selatan","urban":"Laotongan","postal_code":95858},{"province":"Sulawesi Utara","city":"Kepulauan Sangihe","district":"Tabukan Selatan Tengah","urban":"Hangke","postal_code":95858},{"province":"Sulawesi Utara","city":"Kepulauan Sangihe","district":"Tabukan Selatan","urban":"Kalagheng","postal_code":95858},{"province":"Sulawesi Utara","city":"Kepulauan Sangihe","district":"Tabukan Selatan Tenggara","urban":"Dalokaweng","postal_code":95858},{"province":"Sulawesi Utara","city":"Kepulauan Sangihe","district":"Tabukan Selatan","urban":"Bulo","postal_code":95858},{"province":"Sulawesi Utara","city":"Kepulauan Sangihe","district":"Tabukan Selatan","urban":"Bukide","postal_code":95858},{"province":"Sulawesi Utara","city":"Kepulauan Sangihe","district":"Tabukan Selatan Tengah","urban":"Bowone","postal_code":95858},{"province":"Sulawesi Utara","city":"Kepulauan Sangihe","district":"Tabukan Selatan","urban":"Binebas","postal_code":95858},{"province":"Sulawesi Utara","city":"Kepulauan Sangihe","district":"Tabukan Selatan","urban":"Birahi","postal_code":95858},{"province":"Sulawesi Utara","city":"Kepulauan Sangihe","district":"Tabukan Selatan","urban":"Bentung","postal_code":95858},{"province":"Sulawesi Utara","city":"Kepulauan Sangihe","district":"Tabukan Selatan Tengah","urban":"Beeng Laut","postal_code":95858},{"province":"Sulawesi Utara","city":"Kepulauan Sangihe","district":"Tabukan Selatan Tengah","urban":"Beeng","postal_code":95858},{"province":"Sulawesi Utara","city":"Kepulauan Sangihe","district":"Tabukan Selatan","urban":"Batuwingkung","postal_code":95858},{"province":"Sulawesi Utara","city":"Kepulauan Sangihe","district":"Tabukan Selatan Tenggara","urban":"Basauh","postal_code":95858},{"province":"Sulawesi Utara","city":"Kepulauan Sangihe","district":"Tabukan Selatan Tengah","urban":"Aha Patung","postal_code":95858}]