[{"province":"Sulawesi Utara","city":"Kepulauan Sangihe","district":"Tabukan Utara","urban":"Utaurano","postal_code":95856},{"province":"Sulawesi Utara","city":"Kepulauan Sangihe","district":"Tabukan Utara","urban":"Tola","postal_code":95856},{"province":"Sulawesi Utara","city":"Kepulauan Sangihe","district":"Tabukan Utara","urban":"Tarolang","postal_code":95856},{"province":"Sulawesi Utara","city":"Kepulauan Sangihe","district":"Tabukan Utara","urban":"Raku","postal_code":95856},{"province":"Sulawesi Utara","city":"Kepulauan Sangihe","district":"Tabukan Utara","urban":"Pusunge","postal_code":95856},{"province":"Sulawesi Utara","city":"Kepulauan Sangihe","district":"Tabukan Utara","urban":"Petta Selatan","postal_code":95856},{"province":"Sulawesi Utara","city":"Kepulauan Sangihe","district":"Tabukan Utara","urban":"Petta Timur","postal_code":95856},{"province":"Sulawesi Utara","city":"Kepulauan Sangihe","district":"Tabukan Utara","urban":"Petta Barat","postal_code":95856},{"province":"Sulawesi Utara","city":"Kepulauan Sangihe","district":"Tabukan Utara","urban":"Petta","postal_code":95856},{"province":"Sulawesi Utara","city":"Kepulauan Sangihe","district":"Nusa Tabukan","urban":"Nusa","postal_code":95856},{"province":"Sulawesi Utara","city":"Kepulauan Sangihe","district":"Nusa Tabukan","urban":"Nanusa","postal_code":95856},{"province":"Sulawesi Utara","city":"Kepulauan Sangihe","district":"Nusa Tabukan","urban":"Nanedakele","postal_code":95856},{"province":"Sulawesi Utara","city":"Kepulauan Sangihe","district":"Tabukan Utara","urban":"Naha I","postal_code":95856},{"province":"Sulawesi Utara","city":"Kepulauan Sangihe","district":"Tabukan Utara","urban":"Naha (Nahasahabe)","postal_code":95856},{"province":"Sulawesi Utara","city":"Kepulauan Sangihe","district":"Tabukan Utara","urban":"Moade","postal_code":95856},{"province":"Sulawesi Utara","city":"Kepulauan Sangihe","district":"Kepulauan Marore","urban":"Matutuang","postal_code":95856},{"province":"Sulawesi Utara","city":"Kepulauan Sangihe","district":"Kepulauan Marore","urban":"Marore","postal_code":95856},{"province":"Sulawesi Utara","city":"Kepulauan Sangihe","district":"Tabukan Utara","urban":"Mala","postal_code":95856},{"province":"Sulawesi Utara","city":"Kepulauan Sangihe","district":"Tabukan Utara","urban":"Lenganeng","postal_code":95856},{"province":"Sulawesi Utara","city":"Kepulauan Sangihe","district":"Tabukan Utara","urban":"Likuang","postal_code":95856},{"province":"Sulawesi Utara","city":"Kepulauan Sangihe","district":"Kepulauan Marore","urban":"Kawio","postal_code":95856},{"province":"Sulawesi Utara","city":"Kepulauan Sangihe","district":"Tabukan Utara","urban":"Kalurae","postal_code":95856},{"province":"Sulawesi Utara","city":"Kepulauan Sangihe","district":"Tabukan Utara","urban":"Kalekube I","postal_code":95856},{"province":"Sulawesi Utara","city":"Kepulauan Sangihe","district":"Tabukan Utara","urban":"Kalekube","postal_code":95856},{"province":"Sulawesi Utara","city":"Kepulauan Sangihe","district":"Tabukan Utara","urban":"Kalasuge","postal_code":95856},{"province":"Sulawesi Utara","city":"Kepulauan Sangihe","district":"Nusa Tabukan","urban":"Bukide Timur","postal_code":95856},{"province":"Sulawesi Utara","city":"Kepulauan Sangihe","district":"Nusa Tabukan","urban":"Bukide","postal_code":95856},{"province":"Sulawesi Utara","city":"Kepulauan Sangihe","district":"Tabukan Utara","urban":"Bowongkulu I","postal_code":95856},{"province":"Sulawesi Utara","city":"Kepulauan Sangihe","district":"Tabukan Utara","urban":"Bowongkulu","postal_code":95856},{"province":"Sulawesi Utara","city":"Kepulauan Sangihe","district":"Tabukan Utara","urban":"Beha","postal_code":95856},{"province":"Sulawesi Utara","city":"Kepulauan Sangihe","district":"Tabukan Utara","urban":"Bengketang","postal_code":95856},{"province":"Sulawesi Utara","city":"Kepulauan Sangihe","district":"Tabukan Utara","urban":"Bahu","postal_code":95856}]