[{"province":"Sulawesi Utara","city":"Kepulauan Siau Tagulandang Biaro (Sitaro)","district":"Siau Barat Utara","urban":"Winangun","postal_code":95862},{"province":"Sulawesi Utara","city":"Kepulauan Siau Tagulandang Biaro (Sitaro)","district":"Siau Barat Selatan","urban":"Tanaki","postal_code":95862},{"province":"Sulawesi Utara","city":"Kepulauan Siau Tagulandang Biaro (Sitaro)","district":"Siau Barat Selatan","urban":"Talawid","postal_code":95862},{"province":"Sulawesi Utara","city":"Kepulauan Siau Tagulandang Biaro (Sitaro)","district":"Siau Barat","urban":"Pelingsawang","postal_code":95862},{"province":"Sulawesi Utara","city":"Kepulauan Siau Tagulandang Biaro (Sitaro)","district":"Siau Barat","urban":"Peling","postal_code":95862},{"province":"Sulawesi Utara","city":"Kepulauan Siau Tagulandang Biaro (Sitaro)","district":"Siau Barat","urban":"Pehe","postal_code":95862},{"province":"Sulawesi Utara","city":"Kepulauan Siau Tagulandang Biaro (Sitaro)","district":"Siau Barat","urban":"Paseng","postal_code":95862},{"province":"Sulawesi Utara","city":"Kepulauan Siau Tagulandang Biaro (Sitaro)","district":"Siau Barat","urban":"Paniki","postal_code":95862},{"province":"Sulawesi Utara","city":"Kepulauan Siau Tagulandang Biaro (Sitaro)","district":"Siau Barat","urban":"Ondong","postal_code":95862},{"province":"Sulawesi Utara","city":"Kepulauan Siau Tagulandang Biaro (Sitaro)","district":"Siau Barat Utara","urban":"Nameng","postal_code":95862},{"province":"Sulawesi Utara","city":"Kepulauan Siau Tagulandang Biaro (Sitaro)","district":"Siau Barat Utara","urban":"Mini","postal_code":95862},{"province":"Sulawesi Utara","city":"Kepulauan Siau Tagulandang Biaro (Sitaro)","district":"Siau Barat Selatan","urban":"Makoa (Mekar Sari)","postal_code":95862},{"province":"Sulawesi Utara","city":"Kepulauan Siau Tagulandang Biaro (Sitaro)","district":"Siau Barat","urban":"Makalehi Utara","postal_code":95862},{"province":"Sulawesi Utara","city":"Kepulauan Siau Tagulandang Biaro (Sitaro)","district":"Siau Barat","urban":"Makalehi Timur","postal_code":95862},{"province":"Sulawesi Utara","city":"Kepulauan Siau Tagulandang Biaro (Sitaro)","district":"Siau Barat","urban":"Makalehi","postal_code":95862},{"province":"Sulawesi Utara","city":"Kepulauan Siau Tagulandang Biaro (Sitaro)","district":"Siau Barat Selatan","urban":"Mahuneni","postal_code":95862},{"province":"Sulawesi Utara","city":"Kepulauan Siau Tagulandang Biaro (Sitaro)","district":"Siau Barat","urban":"Lehi","postal_code":95862},{"province":"Sulawesi Utara","city":"Kepulauan Siau Tagulandang Biaro (Sitaro)","district":"Siau Barat Selatan","urban":"Laghaeng","postal_code":95862},{"province":"Sulawesi Utara","city":"Kepulauan Siau Tagulandang Biaro (Sitaro)","district":"Siau Barat Utara","urban":"Kiawang","postal_code":95862},{"province":"Sulawesi Utara","city":"Kepulauan Siau Tagulandang Biaro (Sitaro)","district":"Siau Barat Utara","urban":"Kinali","postal_code":95862},{"province":"Sulawesi Utara","city":"Kepulauan Siau Tagulandang Biaro (Sitaro)","district":"Siau Barat Utara","urban":"Kawahang","postal_code":95862},{"province":"Sulawesi Utara","city":"Kepulauan Siau Tagulandang Biaro (Sitaro)","district":"Siau Barat","urban":"Kanawong","postal_code":95862},{"province":"Sulawesi Utara","city":"Kepulauan Siau Tagulandang Biaro (Sitaro)","district":"Siau Barat Selatan","urban":"Kapeta","postal_code":95862},{"province":"Sulawesi Utara","city":"Kepulauan Siau Tagulandang Biaro (Sitaro)","district":"Siau Barat","urban":"Bumbiha","postal_code":95862},{"province":"Sulawesi Utara","city":"Kepulauan Siau Tagulandang Biaro (Sitaro)","district":"Siau Barat Utara","urban":"Hiung","postal_code":95862},{"province":"Sulawesi Utara","city":"Kepulauan Siau Tagulandang Biaro (Sitaro)","district":"Siau Barat Selatan","urban":"Batusenggo","postal_code":95862},{"province":"Sulawesi Utara","city":"Kepulauan Siau Tagulandang Biaro (Sitaro)","district":"Siau Barat Utara","urban":"Batubulan","postal_code":95862}]