[{"province":"Sulawesi Utara","city":"Kepulauan Siau Tagulandang Biaro (Sitaro)","district":"Siau Timur","urban":"Tatahadeng (Tatehadeng)","postal_code":95861},{"province":"Sulawesi Utara","city":"Kepulauan Siau Tagulandang Biaro (Sitaro)","district":"Siau Timur","urban":"Tarorane","postal_code":95861},{"province":"Sulawesi Utara","city":"Kepulauan Siau Tagulandang Biaro (Sitaro)","district":"Siau Timur Selatan","urban":"Tapile","postal_code":95861},{"province":"Sulawesi Utara","city":"Kepulauan Siau Tagulandang Biaro (Sitaro)","district":"Siau Tengah","urban":"Salili","postal_code":95861},{"province":"Sulawesi Utara","city":"Kepulauan Siau Tagulandang Biaro (Sitaro)","district":"Siau Timur Selatan","urban":"Sawang","postal_code":95861},{"province":"Sulawesi Utara","city":"Kepulauan Siau Tagulandang Biaro (Sitaro)","district":"Siau Timur Selatan","urban":"Pangirolong","postal_code":95861},{"province":"Sulawesi Utara","city":"Kepulauan Siau Tagulandang Biaro (Sitaro)","district":"Siau Timur Selatan","urban":"Pahepa","postal_code":95861},{"province":"Sulawesi Utara","city":"Kepulauan Siau Tagulandang Biaro (Sitaro)","district":"Siau Timur Selatan","urban":"Mala","postal_code":95861},{"province":"Sulawesi Utara","city":"Kepulauan Siau Tagulandang Biaro (Sitaro)","district":"Siau Timur Selatan","urban":"Matole","postal_code":95861},{"province":"Sulawesi Utara","city":"Kepulauan Siau Tagulandang Biaro (Sitaro)","district":"Siau Timur","urban":"Lia Satu","postal_code":95861},{"province":"Sulawesi Utara","city":"Kepulauan Siau Tagulandang Biaro (Sitaro)","district":"Siau Timur","urban":"Lia","postal_code":95861},{"province":"Sulawesi Utara","city":"Kepulauan Siau Tagulandang Biaro (Sitaro)","district":"Siau Tengah","urban":"Lai","postal_code":95861},{"province":"Sulawesi Utara","city":"Kepulauan Siau Tagulandang Biaro (Sitaro)","district":"Siau Timur Selatan","urban":"Lahopang","postal_code":95861},{"province":"Sulawesi Utara","city":"Kepulauan Siau Tagulandang Biaro (Sitaro)","district":"Siau Timur","urban":"Karalung Satu","postal_code":95861},{"province":"Sulawesi Utara","city":"Kepulauan Siau Tagulandang Biaro (Sitaro)","district":"Siau Timur","urban":"Kanang","postal_code":95861},{"province":"Sulawesi Utara","city":"Kepulauan Siau Tagulandang Biaro (Sitaro)","district":"Siau Timur","urban":"Karalung","postal_code":95861},{"province":"Sulawesi Utara","city":"Kepulauan Siau Tagulandang Biaro (Sitaro)","district":"Siau Timur Selatan","urban":"Kalihiang","postal_code":95861},{"province":"Sulawesi Utara","city":"Kepulauan Siau Tagulandang Biaro (Sitaro)","district":"Siau Timur","urban":"Deahe (Beaha)","postal_code":95861},{"province":"Sulawesi Utara","city":"Kepulauan Siau Tagulandang Biaro (Sitaro)","district":"Siau Tengah","urban":"Dompase","postal_code":95861},{"province":"Sulawesi Utara","city":"Kepulauan Siau Tagulandang Biaro (Sitaro)","district":"Siau Timur","urban":"Dame","postal_code":95861},{"province":"Sulawesi Utara","city":"Kepulauan Siau Tagulandang Biaro (Sitaro)","district":"Siau Timur","urban":"Dame I","postal_code":95861},{"province":"Sulawesi Utara","city":"Kepulauan Siau Tagulandang Biaro (Sitaro)","district":"Siau Timur","urban":"Bukide","postal_code":95861},{"province":"Sulawesi Utara","city":"Kepulauan Siau Tagulandang Biaro (Sitaro)","district":"Siau Timur","urban":"Buise","postal_code":95861},{"province":"Sulawesi Utara","city":"Kepulauan Siau Tagulandang Biaro (Sitaro)","district":"Siau Timur Selatan","urban":"Buhias","postal_code":95861},{"province":"Sulawesi Utara","city":"Kepulauan Siau Tagulandang Biaro (Sitaro)","district":"Siau Timur Selatan","urban":"Biau Seha","postal_code":95861},{"province":"Sulawesi Utara","city":"Kepulauan Siau Tagulandang Biaro (Sitaro)","district":"Siau Timur Selatan","urban":"Binalu","postal_code":95861},{"province":"Sulawesi Utara","city":"Kepulauan Siau Tagulandang Biaro (Sitaro)","district":"Siau Timur Selatan","urban":"Biau","postal_code":95861},{"province":"Sulawesi Utara","city":"Kepulauan Siau Tagulandang Biaro (Sitaro)","district":"Siau Timur","urban":"Bebali","postal_code":95861},{"province":"Sulawesi Utara","city":"Kepulauan Siau Tagulandang Biaro (Sitaro)","district":"Siau Tengah","urban":"Beong","postal_code":95861},{"province":"Sulawesi Utara","city":"Kepulauan Siau Tagulandang Biaro (Sitaro)","district":"Siau Timur Selatan","urban":"Bandil","postal_code":95861},{"province":"Sulawesi Utara","city":"Kepulauan Siau Tagulandang Biaro (Sitaro)","district":"Siau Timur Selatan","urban":"Balirangen","postal_code":95861},{"province":"Sulawesi Utara","city":"Kepulauan Siau Tagulandang Biaro (Sitaro)","district":"Siau Timur","urban":"Apelawo","postal_code":95861},{"province":"Sulawesi Utara","city":"Kepulauan Siau Tagulandang Biaro (Sitaro)","district":"Siau Timur","urban":"Bahu","postal_code":95861},{"province":"Sulawesi Utara","city":"Kepulauan Siau Tagulandang Biaro (Sitaro)","district":"Siau Timur","urban":"Akesimbeka","postal_code":95861}]