[{"province":"Sulawesi Utara","city":"Kepulauan Siau Tagulandang Biaro (Sitaro)","district":"Tagulandang Utara","urban":"W O","postal_code":95863},{"province":"Sulawesi Utara","city":"Kepulauan Siau Tagulandang Biaro (Sitaro)","district":"Tagulandang","urban":"Tulusang (Tulusan)","postal_code":95863},{"province":"Sulawesi Utara","city":"Kepulauan Siau Tagulandang Biaro (Sitaro)","district":"Tagulandang","urban":"Pumpente","postal_code":95863},{"province":"Sulawesi Utara","city":"Kepulauan Siau Tagulandang Biaro (Sitaro)","district":"Tagulandang","urban":"Pahiama","postal_code":95863},{"province":"Sulawesi Utara","city":"Kepulauan Siau Tagulandang Biaro (Sitaro)","district":"Tagulandang","urban":"Mulengan (Mulengen)","postal_code":95863},{"province":"Sulawesi Utara","city":"Kepulauan Siau Tagulandang Biaro (Sitaro)","district":"Tagulandang","urban":"Mohonsawang","postal_code":95863},{"province":"Sulawesi Utara","city":"Kepulauan Siau Tagulandang Biaro (Sitaro)","district":"Tagulandang Utara","urban":"Minanga","postal_code":95863},{"province":"Sulawesi Utara","city":"Kepulauan Siau Tagulandang Biaro (Sitaro)","district":"Tagulandang","urban":"Mahangiang","postal_code":95863},{"province":"Sulawesi Utara","city":"Kepulauan Siau Tagulandang Biaro (Sitaro)","district":"Tagulandang","urban":"Lesah Rende","postal_code":95863},{"province":"Sulawesi Utara","city":"Kepulauan Siau Tagulandang Biaro (Sitaro)","district":"Tagulandang Utara","urban":"Lumbo","postal_code":95863},{"province":"Sulawesi Utara","city":"Kepulauan Siau Tagulandang Biaro (Sitaro)","district":"Tagulandang","urban":"Lesah","postal_code":95863},{"province":"Sulawesi Utara","city":"Kepulauan Siau Tagulandang Biaro (Sitaro)","district":"Tagulandang","urban":"Laingpatehi","postal_code":95863},{"province":"Sulawesi Utara","city":"Kepulauan Siau Tagulandang Biaro (Sitaro)","district":"Tagulandang Selatan","urban":"Humbia","postal_code":95863},{"province":"Sulawesi Utara","city":"Kepulauan Siau Tagulandang Biaro (Sitaro)","district":"Tagulandang Selatan","urban":"Kisihang","postal_code":95863},{"province":"Sulawesi Utara","city":"Kepulauan Siau Tagulandang Biaro (Sitaro)","district":"Tagulandang","urban":"Haasi","postal_code":95863},{"province":"Sulawesi Utara","city":"Kepulauan Siau Tagulandang Biaro (Sitaro)","district":"Tagulandang Utara","urban":"Bulangan","postal_code":95863},{"province":"Sulawesi Utara","city":"Kepulauan Siau Tagulandang Biaro (Sitaro)","district":"Tagulandang Selatan","urban":"Buha","postal_code":95863},{"province":"Sulawesi Utara","city":"Kepulauan Siau Tagulandang Biaro (Sitaro)","district":"Tagulandang","urban":"Boto","postal_code":95863},{"province":"Sulawesi Utara","city":"Kepulauan Siau Tagulandang Biaro (Sitaro)","district":"Tagulandang Selatan","urban":"Birarikei","postal_code":95863},{"province":"Sulawesi Utara","city":"Kepulauan Siau Tagulandang Biaro (Sitaro)","district":"Tagulandang Selatan","urban":"Birarikei","postal_code":95863},{"province":"Sulawesi Utara","city":"Kepulauan Siau Tagulandang Biaro (Sitaro)","district":"Tagulandang Selatan","urban":"Bira Kimia (Birakiama)","postal_code":95863},{"province":"Sulawesi Utara","city":"Kepulauan Siau Tagulandang Biaro (Sitaro)","district":"Tagulandang Utara","urban":"Bawoleu","postal_code":95863},{"province":"Sulawesi Utara","city":"Kepulauan Siau Tagulandang Biaro (Sitaro)","district":"Tagulandang Utara","urban":"Bawo","postal_code":95863},{"province":"Sulawesi Utara","city":"Kepulauan Siau Tagulandang Biaro (Sitaro)","district":"Tagulandang Selatan","urban":"Batumawira","postal_code":95863},{"province":"Sulawesi Utara","city":"Kepulauan Siau Tagulandang Biaro (Sitaro)","district":"Tagulandang","urban":"Barangka Pehe","postal_code":95863},{"province":"Sulawesi Utara","city":"Kepulauan Siau Tagulandang Biaro (Sitaro)","district":"Tagulandang","urban":"Balehumara","postal_code":95863},{"province":"Sulawesi Utara","city":"Kepulauan Siau Tagulandang Biaro (Sitaro)","district":"Tagulandang","urban":"Bahoi","postal_code":95863},{"province":"Sulawesi Utara","city":"Kepulauan Siau Tagulandang Biaro (Sitaro)","district":"Tagulandang","urban":"Apengsala","postal_code":95863}]