[{"province":"Sulawesi Utara","city":"Kepulauan Talaud","district":"Lirung","urban":"Talolang","postal_code":95871},{"province":"Sulawesi Utara","city":"Kepulauan Talaud","district":"Lirung","urban":"Sereh I","postal_code":95871},{"province":"Sulawesi Utara","city":"Kepulauan Talaud","district":"Lirung","urban":"Sereh","postal_code":95871},{"province":"Sulawesi Utara","city":"Kepulauan Talaud","district":"Salibabu","urban":"Salibabu","postal_code":95871},{"province":"Sulawesi Utara","city":"Kepulauan Talaud","district":"Salibabu","urban":"Salibabu Utara","postal_code":95871},{"province":"Sulawesi Utara","city":"Kepulauan Talaud","district":"Kalongan","urban":"Musi I","postal_code":95871},{"province":"Sulawesi Utara","city":"Kepulauan Talaud","district":"Lirung","urban":"Musi","postal_code":95871},{"province":"Sulawesi Utara","city":"Kepulauan Talaud","district":"Moronge","urban":"Moronge Selatan II","postal_code":95871},{"province":"Sulawesi Utara","city":"Kepulauan Talaud","district":"Moronge","urban":"Moronge Selatan I","postal_code":95871},{"province":"Sulawesi Utara","city":"Kepulauan Talaud","district":"Moronge","urban":"Moronge Selatan","postal_code":95871},{"province":"Sulawesi Utara","city":"Kepulauan Talaud","district":"Moronge","urban":"Moronge II","postal_code":95871},{"province":"Sulawesi Utara","city":"Kepulauan Talaud","district":"Moronge","urban":"Moronge I","postal_code":95871},{"province":"Sulawesi Utara","city":"Kepulauan Talaud","district":"Moronge","urban":"Moronge","postal_code":95871},{"province":"Sulawesi Utara","city":"Kepulauan Talaud","district":"Lirung","urban":"Lirung Matane","postal_code":95871},{"province":"Sulawesi Utara","city":"Kepulauan Talaud","district":"Lirung","urban":"Lirung I","postal_code":95871},{"province":"Sulawesi Utara","city":"Kepulauan Talaud","district":"Lirung","urban":"Lirung","postal_code":95871},{"province":"Sulawesi Utara","city":"Kepulauan Talaud","district":"Kalongan","urban":"Kalongan Utara","postal_code":95871},{"province":"Sulawesi Utara","city":"Kepulauan Talaud","district":"Kalongan","urban":"Kalongan Selatan","postal_code":95871},{"province":"Sulawesi Utara","city":"Kepulauan Talaud","district":"Kalongan","urban":"Kalongan","postal_code":95871},{"province":"Sulawesi Utara","city":"Kepulauan Talaud","district":"Salibabu","urban":"Dalum","postal_code":95871},{"province":"Sulawesi Utara","city":"Kepulauan Talaud","district":"Salibabu","urban":"Bitunuris Selatan","postal_code":95871},{"province":"Sulawesi Utara","city":"Kepulauan Talaud","district":"Salibabu","urban":"Bitunuris","postal_code":95871},{"province":"Sulawesi Utara","city":"Kepulauan Talaud","district":"Salibabu","urban":"Balang","postal_code":95871},{"province":"Sulawesi Utara","city":"Kepulauan Talaud","district":"Kalongan","urban":"Alude","postal_code":95871}]