[{"province":"Sulawesi Utara","city":"Kepulauan Talaud","district":"Damao (Damau)","urban":"Damau Bawone","postal_code":95872},{"province":"Sulawesi Utara","city":"Kepulauan Talaud","district":"Damao (Damau)","urban":"Damau","postal_code":95872},{"province":"Sulawesi Utara","city":"Kepulauan Talaud","district":"Kabaruan","urban":"Bulude Selatan","postal_code":95872},{"province":"Sulawesi Utara","city":"Kepulauan Talaud","district":"Kabaruan","urban":"Bulude","postal_code":95872},{"province":"Sulawesi Utara","city":"Kepulauan Talaud","district":"Damao (Damau)","urban":"Birang","postal_code":95872},{"province":"Sulawesi Utara","city":"Kepulauan Talaud","district":"Damao (Damau)","urban":"Akas","postal_code":95872},{"province":"Sulawesi Utara","city":"Kepulauan Talaud","district":"Damao (Damau)","urban":"Akas Balane","postal_code":95872},{"province":"Sulawesi Utara","city":"Kepulauan Talaud","district":"Damao (Damau)","urban":"Taduwale","postal_code":95872},{"province":"Sulawesi Utara","city":"Kepulauan Talaud","district":"Kabaruan","urban":"Taduna","postal_code":95872},{"province":"Sulawesi Utara","city":"Kepulauan Talaud","district":"Kabaruan","urban":"Rarange","postal_code":95872},{"province":"Sulawesi Utara","city":"Kepulauan Talaud","district":"Damao (Damau)","urban":"Peret","postal_code":95872},{"province":"Sulawesi Utara","city":"Kepulauan Talaud","district":"Kabaruan","urban":"Pantuge Timur (Patuge Timur)","postal_code":95872},{"province":"Sulawesi Utara","city":"Kepulauan Talaud","district":"Kabaruan","urban":"Pantuge (Patuge)","postal_code":95872},{"province":"Sulawesi Utara","city":"Kepulauan Talaud","district":"Kabaruan","urban":"Pannulan","postal_code":95872},{"province":"Sulawesi Utara","city":"Kepulauan Talaud","district":"Kabaruan","urban":"Pangeran","postal_code":95872},{"province":"Sulawesi Utara","city":"Kepulauan Talaud","district":"Kabaruan","urban":"Mangaran","postal_code":95872},{"province":"Sulawesi Utara","city":"Kepulauan Talaud","district":"Kabaruan","urban":"Kordakel","postal_code":95872},{"province":"Sulawesi Utara","city":"Kepulauan Talaud","district":"Kabaruan","urban":"Kabaruan Timur","postal_code":95872},{"province":"Sulawesi Utara","city":"Kepulauan Talaud","district":"Kabaruan","urban":"Kabaruan","postal_code":95872},{"province":"Sulawesi Utara","city":"Kepulauan Talaud","district":"Damao (Damau)","urban":"Ighik","postal_code":95872}]