[{"province":"Sulawesi Utara","city":"Kepulauan Talaud","district":"Melonguane Timur","urban":"Tule Tengah","postal_code":95885},{"province":"Sulawesi Utara","city":"Kepulauan Talaud","district":"Melonguane Timur","urban":"Tule Utara","postal_code":95885},{"province":"Sulawesi Utara","city":"Kepulauan Talaud","district":"Melonguane Timur","urban":"Tule","postal_code":95885},{"province":"Sulawesi Utara","city":"Kepulauan Talaud","district":"Melonguane","urban":"Tarun Selatan","postal_code":95885},{"province":"Sulawesi Utara","city":"Kepulauan Talaud","district":"Melonguane","urban":"Sawang Utara","postal_code":95885},{"province":"Sulawesi Utara","city":"Kepulauan Talaud","district":"Melonguane","urban":"Tarun","postal_code":95885},{"province":"Sulawesi Utara","city":"Kepulauan Talaud","district":"Melonguane","urban":"Melonguane Timur","postal_code":95885},{"province":"Sulawesi Utara","city":"Kepulauan Talaud","district":"Melonguane","urban":"Sawang","postal_code":95885},{"province":"Sulawesi Utara","city":"Kepulauan Talaud","district":"Melonguane","urban":"Mala Timur I","postal_code":95885},{"province":"Sulawesi Utara","city":"Kepulauan Talaud","district":"Melonguane","urban":"Melonguane","postal_code":95885},{"province":"Sulawesi Utara","city":"Kepulauan Talaud","district":"Melonguane","urban":"Mala Timur","postal_code":95885},{"province":"Sulawesi Utara","city":"Kepulauan Talaud","district":"Melonguane","urban":"Mala","postal_code":95885},{"province":"Sulawesi Utara","city":"Kepulauan Talaud","district":"Melonguane","urban":"Kiama Barat","postal_code":95885},{"province":"Sulawesi Utara","city":"Kepulauan Talaud","district":"Melonguane","urban":"Kiama Maredaren","postal_code":95885},{"province":"Sulawesi Utara","city":"Kepulauan Talaud","district":"Melonguane","urban":"Kiama","postal_code":95885},{"province":"Sulawesi Utara","city":"Kepulauan Talaud","district":"Melonguane Timur","urban":"Bowombaru Utara","postal_code":95885},{"province":"Sulawesi Utara","city":"Kepulauan Talaud","district":"Melonguane Timur","urban":"Bowombaru (Bawombaru)","postal_code":95885},{"province":"Sulawesi Utara","city":"Kepulauan Talaud","district":"Melonguane Timur","urban":"Bowombaru Tengah","postal_code":95885},{"province":"Sulawesi Utara","city":"Kepulauan Talaud","district":"Melonguane","urban":"Ambela","postal_code":95885}]