[{"province":"Sulawesi Utara","city":"Kepulauan Talaud","district":"Miangas","urban":"Miangas","postal_code":95884},{"province":"Sulawesi Utara","city":"Kepulauan Talaud","district":"Nanusa","urban":"Marampit","postal_code":95884},{"province":"Sulawesi Utara","city":"Kepulauan Talaud","district":"Nanusa","urban":"Marampit Timur","postal_code":95884},{"province":"Sulawesi Utara","city":"Kepulauan Talaud","district":"Nanusa","urban":"Karatung Tengah","postal_code":95884},{"province":"Sulawesi Utara","city":"Kepulauan Talaud","district":"Nanusa","urban":"Laluhe","postal_code":95884},{"province":"Sulawesi Utara","city":"Kepulauan Talaud","district":"Nanusa","urban":"Karatung","postal_code":95884},{"province":"Sulawesi Utara","city":"Kepulauan Talaud","district":"Nanusa","urban":"Karatung Selatan","postal_code":95884},{"province":"Sulawesi Utara","city":"Kepulauan Talaud","district":"Nanusa","urban":"Dampulis","postal_code":95884},{"province":"Sulawesi Utara","city":"Kepulauan Talaud","district":"Nanusa","urban":"Dampulis Selatan","postal_code":95884},{"province":"Sulawesi Utara","city":"Kepulauan Talaud","district":"Nanusa","urban":"Kakorotan","postal_code":95884}]