[{"province":"Sulawesi Utara","city":"Kepulauan Talaud","district":"Gemeh","urban":"Taturan","postal_code":95883},{"province":"Sulawesi Utara","city":"Kepulauan Talaud","district":"Essang Selatan","urban":"Sambuara","postal_code":95883},{"province":"Sulawesi Utara","city":"Kepulauan Talaud","district":"Essang Selatan","urban":"Sambuara Satu","postal_code":95883},{"province":"Sulawesi Utara","city":"Kepulauan Talaud","district":"Gemeh","urban":"Taruan","postal_code":95883},{"province":"Sulawesi Utara","city":"Kepulauan Talaud","district":"Essang","urban":"Maririk","postal_code":95883},{"province":"Sulawesi Utara","city":"Kepulauan Talaud","district":"Gemeh","urban":"Mamahan Barat","postal_code":95883},{"province":"Sulawesi Utara","city":"Kepulauan Talaud","district":"Gemeh","urban":"Malat Utara","postal_code":95883},{"province":"Sulawesi Utara","city":"Kepulauan Talaud","district":"Gemeh","urban":"Mamahan","postal_code":95883},{"province":"Sulawesi Utara","city":"Kepulauan Talaud","district":"Essang","urban":"Lalue Utara","postal_code":95883},{"province":"Sulawesi Utara","city":"Kepulauan Talaud","district":"Gemeh","urban":"Malat","postal_code":95883},{"province":"Sulawesi Utara","city":"Kepulauan Talaud","district":"Essang","urban":"Lalue","postal_code":95883},{"province":"Sulawesi Utara","city":"Kepulauan Talaud","district":"Essang","urban":"Lalue Tengah","postal_code":95883},{"province":"Sulawesi Utara","city":"Kepulauan Talaud","district":"Gemeh","urban":"Lahu","postal_code":95883},{"province":"Sulawesi Utara","city":"Kepulauan Talaud","district":"Essang Selatan","urban":"Kuma Selatan","postal_code":95883},{"province":"Sulawesi Utara","city":"Kepulauan Talaud","district":"Essang Selatan","urban":"Kuma","postal_code":95883},{"province":"Sulawesi Utara","city":"Kepulauan Talaud","district":"Gemeh","urban":"Gemeh Wantane","postal_code":95883},{"province":"Sulawesi Utara","city":"Kepulauan Talaud","district":"Gemeh","urban":"Gemeh Raamata","postal_code":95883},{"province":"Sulawesi Utara","city":"Kepulauan Talaud","district":"Gemeh","urban":"Gemeh","postal_code":95883},{"province":"Sulawesi Utara","city":"Kepulauan Talaud","district":"Essang","urban":"Essang Selatan","postal_code":95883},{"province":"Sulawesi Utara","city":"Kepulauan Talaud","district":"Essang","urban":"Essang","postal_code":95883},{"province":"Sulawesi Utara","city":"Kepulauan Talaud","district":"Essang Selatan","urban":"Ensem Timur","postal_code":95883},{"province":"Sulawesi Utara","city":"Kepulauan Talaud","district":"Essang Selatan","urban":"Ensem","postal_code":95883},{"province":"Sulawesi Utara","city":"Kepulauan Talaud","district":"Essang","urban":"Bulude Selatan","postal_code":95883},{"province":"Sulawesi Utara","city":"Kepulauan Talaud","district":"Essang","urban":"Bulude","postal_code":95883},{"province":"Sulawesi Utara","city":"Kepulauan Talaud","district":"Essang Selatan","urban":"Batumbalango","postal_code":95883},{"province":"Sulawesi Utara","city":"Kepulauan Talaud","district":"Gemeh","urban":"Bannada","postal_code":95883},{"province":"Sulawesi Utara","city":"Kepulauan Talaud","district":"Gemeh","urban":"Bambung Timur","postal_code":95883},{"province":"Sulawesi Utara","city":"Kepulauan Talaud","district":"Gemeh","urban":"Bambung","postal_code":95883},{"province":"Sulawesi Utara","city":"Kepulauan Talaud","district":"Gemeh","urban":"Arangkaa","postal_code":95883},{"province":"Sulawesi Utara","city":"Kepulauan Talaud","district":"Gemeh","urban":"Apan","postal_code":95883},{"province":"Sulawesi Utara","city":"Kepulauan Talaud","district":"Essang Selatan","urban":"Ambia Utara","postal_code":95883},{"province":"Sulawesi Utara","city":"Kepulauan Talaud","district":"Essang Selatan","urban":"Ambia","postal_code":95883}]