[{"province":"Sulawesi Utara","city":"Kepulauan Talaud","district":"Beo Selatan","urban":"Tarohan Selatan","postal_code":95881},{"province":"Sulawesi Utara","city":"Kepulauan Talaud","district":"Beo Selatan","urban":"Tarohan","postal_code":95881},{"province":"Sulawesi Utara","city":"Kepulauan Talaud","district":"Beo Selatan","urban":"Rusoh (Russoh/Ruso)","postal_code":95881},{"province":"Sulawesi Utara","city":"Kepulauan Talaud","district":"Beo Utara","urban":"Rae Selatan","postal_code":95881},{"province":"Sulawesi Utara","city":"Kepulauan Talaud","district":"Beo Selatan","urban":"Pampalu (Papmpalu)","postal_code":95881},{"province":"Sulawesi Utara","city":"Kepulauan Talaud","district":"Beo Utara","urban":"Rae","postal_code":95881},{"province":"Sulawesi Utara","city":"Kepulauan Talaud","district":"Beo Selatan","urban":"Niampak Utara","postal_code":95881},{"province":"Sulawesi Utara","city":"Kepulauan Talaud","district":"Beo Selatan","urban":"Matahit","postal_code":95881},{"province":"Sulawesi Utara","city":"Kepulauan Talaud","district":"Beo Utara","urban":"Makatara Timur","postal_code":95881},{"province":"Sulawesi Utara","city":"Kepulauan Talaud","district":"Beo Utara","urban":"Makatara","postal_code":95881},{"province":"Sulawesi Utara","city":"Kepulauan Talaud","district":"Beo Utara","urban":"Lobbo I","postal_code":95881},{"province":"Sulawesi Utara","city":"Kepulauan Talaud","district":"Beo Utara","urban":"Lobbo","postal_code":95881},{"province":"Sulawesi Utara","city":"Kepulauan Talaud","district":"Beo","urban":"Beo Timur","postal_code":95881},{"province":"Sulawesi Utara","city":"Kepulauan Talaud","district":"Beo","urban":"Beo Barat","postal_code":95881},{"province":"Sulawesi Utara","city":"Kepulauan Talaud","district":"Beo","urban":"Beo","postal_code":95881},{"province":"Sulawesi Utara","city":"Kepulauan Talaud","district":"Beo","urban":"Beo Bantik","postal_code":95881},{"province":"Sulawesi Utara","city":"Kepulauan Talaud","district":"Beo","urban":"Bengel","postal_code":95881},{"province":"Sulawesi Utara","city":"Kepulauan Talaud","district":"Beo","urban":"Bantik Lama","postal_code":95881},{"province":"Sulawesi Utara","city":"Kepulauan Talaud","district":"Beo Utara","urban":"Awit Selatan","postal_code":95881},{"province":"Sulawesi Utara","city":"Kepulauan Talaud","district":"Beo Utara","urban":"Awit","postal_code":95881}]