[{"province":"Sulawesi Utara","city":"Minahasa Selatan","district":"Motoling Barat","urban":"Toyopon","postal_code":95956},{"province":"Sulawesi Utara","city":"Minahasa Selatan","district":"Motoling Timur","urban":"Wanga","postal_code":95956},{"province":"Sulawesi Utara","city":"Minahasa Selatan","district":"Motoling Timur","urban":"Wanga Amongena","postal_code":95956},{"province":"Sulawesi Utara","city":"Minahasa Selatan","district":"Motoling Barat","urban":"Tondey Dua","postal_code":95956},{"province":"Sulawesi Utara","city":"Minahasa Selatan","district":"Motoling Barat","urban":"Tondey Satu","postal_code":95956},{"province":"Sulawesi Utara","city":"Minahasa Selatan","district":"Motoling Barat","urban":"Tondey (Tondei)","postal_code":95956},{"province":"Sulawesi Utara","city":"Minahasa Selatan","district":"Motoling Timur","urban":"Tokin","postal_code":95956},{"province":"Sulawesi Utara","city":"Minahasa Selatan","district":"Motoling Timur","urban":"Tokin Baru","postal_code":95956},{"province":"Sulawesi Utara","city":"Minahasa Selatan","district":"Motoling","urban":"Raanan Lama","postal_code":95956},{"province":"Sulawesi Utara","city":"Minahasa Selatan","district":"Motoling Barat","urban":"Raanan Baru Dua","postal_code":95956},{"province":"Sulawesi Utara","city":"Minahasa Selatan","district":"Motoling Barat","urban":"Raanan Baru Satu","postal_code":95956},{"province":"Sulawesi Utara","city":"Minahasa Selatan","district":"Motoling Barat","urban":"Raanan Baru","postal_code":95956},{"province":"Sulawesi Utara","city":"Minahasa Selatan","district":"Motoling","urban":"Picuan Baru","postal_code":95956},{"province":"Sulawesi Utara","city":"Minahasa Selatan","district":"Motoling","urban":"Motoling Mawale","postal_code":95956},{"province":"Sulawesi Utara","city":"Minahasa Selatan","district":"Motoling","urban":"Motoling Satu","postal_code":95956},{"province":"Sulawesi Utara","city":"Minahasa Selatan","district":"Kumelembuai","urban":"Malola Satu","postal_code":95956},{"province":"Sulawesi Utara","city":"Minahasa Selatan","district":"Motoling","urban":"Motoling","postal_code":95956},{"province":"Sulawesi Utara","city":"Minahasa Selatan","district":"Motoling","urban":"Motoling Dua","postal_code":95956},{"province":"Sulawesi Utara","city":"Minahasa Selatan","district":"Kumelembuai","urban":"Lolombulan Makasili","postal_code":95956},{"province":"Sulawesi Utara","city":"Minahasa Selatan","district":"Kumelembuai","urban":"Makasili","postal_code":95956},{"province":"Sulawesi Utara","city":"Minahasa Selatan","district":"Kumelembuai","urban":"Malola","postal_code":95956},{"province":"Sulawesi Utara","city":"Minahasa Selatan","district":"Motoling","urban":"Lalumpe","postal_code":95956},{"province":"Sulawesi Utara","city":"Minahasa Selatan","district":"Kumelembuai","urban":"Kumelembuai Atas","postal_code":95956},{"province":"Sulawesi Utara","city":"Minahasa Selatan","district":"Kumelembuai","urban":"Kumelembuai Dua","postal_code":95956},{"province":"Sulawesi Utara","city":"Minahasa Selatan","district":"Kumelembuai","urban":"Kumelembuai Satu","postal_code":95956},{"province":"Sulawesi Utara","city":"Minahasa Selatan","district":"Kumelembuai","urban":"Kumelembuai","postal_code":95956},{"province":"Sulawesi Utara","city":"Minahasa Selatan","district":"Motoling Barat","urban":"Keroit","postal_code":95956},{"province":"Sulawesi Utara","city":"Minahasa Selatan","district":"Motoling Timur","urban":"Karimbow","postal_code":95956},{"province":"Sulawesi Utara","city":"Minahasa Selatan","district":"Motoling Timur","urban":"Karimbow Talikuran","postal_code":95956}]