[{"province":"Sulawesi Utara","city":"Minahasa Selatan","district":"Amurang","urban":"Uwuran Dua","postal_code":95954},{"province":"Sulawesi Utara","city":"Minahasa Selatan","district":"Amurang","urban":"Uwuran Satu","postal_code":95954},{"province":"Sulawesi Utara","city":"Minahasa Selatan","district":"Amurang Timur","urban":"Ritey","postal_code":95954},{"province":"Sulawesi Utara","city":"Minahasa Selatan","district":"Amurang","urban":"Ranoyapo","postal_code":95954},{"province":"Sulawesi Utara","city":"Minahasa Selatan","district":"Amurang Timur","urban":"Pondang","postal_code":95954},{"province":"Sulawesi Utara","city":"Minahasa Selatan","district":"Amurang Timur","urban":"Ranomea","postal_code":95954},{"province":"Sulawesi Utara","city":"Minahasa Selatan","district":"Amurang","urban":"Ranoketang Tua","postal_code":95954},{"province":"Sulawesi Utara","city":"Minahasa Selatan","district":"Amurang Timur","urban":"Maliku Satu","postal_code":95954},{"province":"Sulawesi Utara","city":"Minahasa Selatan","district":"Amurang Timur","urban":"Pinaling","postal_code":95954},{"province":"Sulawesi Utara","city":"Minahasa Selatan","district":"Amurang Timur","urban":"Lopana","postal_code":95954},{"province":"Sulawesi Utara","city":"Minahasa Selatan","district":"Amurang Timur","urban":"Malenos Baru","postal_code":95954},{"province":"Sulawesi Utara","city":"Minahasa Selatan","district":"Amurang Timur","urban":"Maliku","postal_code":95954},{"province":"Sulawesi Utara","city":"Minahasa Selatan","district":"Amurang Timur","urban":"Kota Menara","postal_code":95954},{"province":"Sulawesi Utara","city":"Minahasa Selatan","district":"Amurang","urban":"Lewet","postal_code":95954},{"province":"Sulawesi Utara","city":"Minahasa Selatan","district":"Amurang","urban":"Kilometer Tiga","postal_code":95954},{"province":"Sulawesi Utara","city":"Minahasa Selatan","district":"Amurang","urban":"Bitung","postal_code":95954},{"province":"Sulawesi Utara","city":"Minahasa Selatan","district":"Amurang","urban":"Buyungon","postal_code":95954}]