[{"province":"Sulawesi Utara","city":"Minahasa Selatan","district":"Tareran","urban":"Wiau Lapi","postal_code":95953},{"province":"Sulawesi Utara","city":"Minahasa Selatan","district":"Tareran","urban":"Wuwuk","postal_code":95953},{"province":"Sulawesi Utara","city":"Minahasa Selatan","district":"Suluun Tareran","urban":"Talaitad Utara","postal_code":95953},{"province":"Sulawesi Utara","city":"Minahasa Selatan","district":"Tareran","urban":"Tumaluntung","postal_code":95953},{"province":"Sulawesi Utara","city":"Minahasa Selatan","district":"Suluun Tareran","urban":"Suluun Tiga","postal_code":95953},{"province":"Sulawesi Utara","city":"Minahasa Selatan","district":"Suluun Tareran","urban":"Talaitad","postal_code":95953},{"province":"Sulawesi Utara","city":"Minahasa Selatan","district":"Suluun Tareran","urban":"Suluun Dua","postal_code":95953},{"province":"Sulawesi Utara","city":"Minahasa Selatan","district":"Suluun Tareran","urban":"Suluun Empat","postal_code":95953},{"province":"Sulawesi Utara","city":"Minahasa Selatan","district":"Suluun Tareran","urban":"Suluun Satu","postal_code":95953},{"province":"Sulawesi Utara","city":"Minahasa Selatan","district":"Tareran","urban":"Romoong Atas","postal_code":95953},{"province":"Sulawesi Utara","city":"Minahasa Selatan","district":"Tareran","urban":"Romoong Atas Dua","postal_code":95953},{"province":"Sulawesi Utara","city":"Minahasa Selatan","district":"Suluun Tareran","urban":"Pinapalangkow (Pinapalangkon)","postal_code":95953},{"province":"Sulawesi Utara","city":"Minahasa Selatan","district":"Tareran","urban":"Lansot Timur","postal_code":95953},{"province":"Sulawesi Utara","city":"Minahasa Selatan","district":"Tareran","urban":"Pinamorongan","postal_code":95953},{"province":"Sulawesi Utara","city":"Minahasa Selatan","district":"Tareran","urban":"Lansot","postal_code":95953},{"province":"Sulawesi Utara","city":"Minahasa Selatan","district":"Tareran","urban":"Koreng","postal_code":95953},{"province":"Sulawesi Utara","city":"Minahasa Selatan","district":"Suluun Tareran","urban":"Kapoyah (Kapoya)","postal_code":95953},{"province":"Sulawesi Utara","city":"Minahasa Selatan","district":"Tareran","urban":"Kaneyan","postal_code":95953}]