[{"province":"Sulawesi Utara","city":"Minahasa Selatan","district":"Amurang Barat","urban":"Tewasen","postal_code":95955},{"province":"Sulawesi Utara","city":"Minahasa Selatan","district":"Amurang Barat","urban":"Wakan","postal_code":95955},{"province":"Sulawesi Utara","city":"Minahasa Selatan","district":"Amurang Barat","urban":"Rumoong Bawah","postal_code":95955},{"province":"Sulawesi Utara","city":"Minahasa Selatan","district":"Amurang Barat","urban":"Teep","postal_code":95955},{"province":"Sulawesi Utara","city":"Minahasa Selatan","district":"Amurang Barat","urban":"Rumong Barat","postal_code":95955},{"province":"Sulawesi Utara","city":"Minahasa Selatan","district":"Amurang Barat","urban":"Kawangkoan Bawah","postal_code":95955},{"province":"Sulawesi Utara","city":"Minahasa Selatan","district":"Amurang Barat","urban":"Pondos","postal_code":95955},{"province":"Sulawesi Utara","city":"Minahasa Selatan","district":"Amurang Barat","urban":"Elusan","postal_code":95955},{"province":"Sulawesi Utara","city":"Minahasa Selatan","district":"Amurang Barat","urban":"Kapitu","postal_code":95955}]