[{"province":"Sulawesi Utara","city":"Minahasa Selatan","district":"Modoinding","urban":"Wulurmaatus","postal_code":95958},{"province":"Sulawesi Utara","city":"Minahasa Selatan","district":"Modoinding","urban":"Sinisir","postal_code":95958},{"province":"Sulawesi Utara","city":"Minahasa Selatan","district":"Modoinding","urban":"Pinasungkulan Utara","postal_code":95958},{"province":"Sulawesi Utara","city":"Minahasa Selatan","district":"Modoinding","urban":"Pinasungkulan","postal_code":95958},{"province":"Sulawesi Utara","city":"Minahasa Selatan","district":"Modoinding","urban":"Palelon","postal_code":95958},{"province":"Sulawesi Utara","city":"Minahasa Selatan","district":"Modoinding","urban":"Linelean","postal_code":95958},{"province":"Sulawesi Utara","city":"Minahasa Selatan","district":"Modoinding","urban":"Makaaruyen","postal_code":95958},{"province":"Sulawesi Utara","city":"Minahasa Selatan","district":"Modoinding","urban":"Mokobang","postal_code":95958},{"province":"Sulawesi Utara","city":"Minahasa Selatan","district":"Modoinding","urban":"Kakenturan Barat","postal_code":95958},{"province":"Sulawesi Utara","city":"Minahasa Selatan","district":"Modoinding","urban":"Kakenturan","postal_code":95958}]