[{"province":"Sulawesi Utara","city":"Minahasa Tenggara","district":"Touluaan","urban":"Toundanouw Atas","postal_code":95998},{"province":"Sulawesi Utara","city":"Minahasa Tenggara","district":"Touluaan","urban":"Toundanouw Satu","postal_code":95998},{"province":"Sulawesi Utara","city":"Minahasa Tenggara","district":"Touluaan","urban":"Toundanouw (Toundanou)","postal_code":95998},{"province":"Sulawesi Utara","city":"Minahasa Tenggara","district":"Touluaan Selatan","urban":"Suhuyon","postal_code":95998},{"province":"Sulawesi Utara","city":"Minahasa Tenggara","district":"Touluaan Selatan","urban":"Tambelang","postal_code":95998},{"province":"Sulawesi Utara","city":"Minahasa Tenggara","district":"Silian Raya","urban":"Silian Utara","postal_code":95998},{"province":"Sulawesi Utara","city":"Minahasa Tenggara","district":"Silian Raya","urban":"Silian Tiga","postal_code":95998},{"province":"Sulawesi Utara","city":"Minahasa Tenggara","district":"Silian Raya","urban":"Silian Timur","postal_code":95998},{"province":"Sulawesi Utara","city":"Minahasa Tenggara","district":"Silian Raya","urban":"Silian Satu","postal_code":95998},{"province":"Sulawesi Utara","city":"Minahasa Tenggara","district":"Silian Raya","urban":"Silian Selatan","postal_code":95998},{"province":"Sulawesi Utara","city":"Minahasa Tenggara","district":"Silian Raya","urban":"Silian Tengah","postal_code":95998},{"province":"Sulawesi Utara","city":"Minahasa Tenggara","district":"Silian Raya","urban":"Silian Dua","postal_code":95998},{"province":"Sulawesi Utara","city":"Minahasa Tenggara","district":"Silian Raya","urban":"Silian Kota","postal_code":95998},{"province":"Sulawesi Utara","city":"Minahasa Tenggara","district":"Silian Raya","urban":"Silian","postal_code":95998},{"province":"Sulawesi Utara","city":"Minahasa Tenggara","district":"Silian Raya","urban":"Silian Barat","postal_code":95998},{"province":"Sulawesi Utara","city":"Minahasa Tenggara","district":"Touluaan Selatan","urban":"Ranoako","postal_code":95998},{"province":"Sulawesi Utara","city":"Minahasa Tenggara","district":"Touluaan","urban":"Ranoketang Atas","postal_code":95998},{"province":"Sulawesi Utara","city":"Minahasa Tenggara","district":"Touluaan","urban":"Ranoketang Atas Satu","postal_code":95998},{"province":"Sulawesi Utara","city":"Minahasa Tenggara","district":"Touluaan Selatan","urban":"Lowatak (Lowantag)","postal_code":95998},{"province":"Sulawesi Utara","city":"Minahasa Tenggara","district":"Touluaan","urban":"Lobu Satu","postal_code":95998},{"province":"Sulawesi Utara","city":"Minahasa Tenggara","district":"Touluaan","urban":"Lobu Atas","postal_code":95998},{"province":"Sulawesi Utara","city":"Minahasa Tenggara","district":"Touluaan","urban":"Lobu Dua","postal_code":95998},{"province":"Sulawesi Utara","city":"Minahasa Tenggara","district":"Touluaan","urban":"Lobu Kota","postal_code":95998},{"province":"Sulawesi Utara","city":"Minahasa Tenggara","district":"Touluaan Selatan","urban":"Kalait Tiga","postal_code":95998},{"province":"Sulawesi Utara","city":"Minahasa Tenggara","district":"Touluaan","urban":"Lobu","postal_code":95998},{"province":"Sulawesi Utara","city":"Minahasa Tenggara","district":"Touluaan Selatan","urban":"Kalait Dua","postal_code":95998},{"province":"Sulawesi Utara","city":"Minahasa Tenggara","district":"Touluaan Selatan","urban":"Kalait Satu","postal_code":95998},{"province":"Sulawesi Utara","city":"Minahasa Tenggara","district":"Touluaan Selatan","urban":"Bunag","postal_code":95998},{"province":"Sulawesi Utara","city":"Minahasa Tenggara","district":"Touluaan Selatan","urban":"Kalait","postal_code":95998},{"province":"Sulawesi Utara","city":"Minahasa Tenggara","district":"Touluaan Selatan","urban":"Banga","postal_code":95998}]