[{"province":"Sulawesi Utara","city":"Minahasa Tenggara","district":"Tombatu Utara","urban":"Winorangian Satu","postal_code":95996},{"province":"Sulawesi Utara","city":"Minahasa Tenggara","district":"Tombatu","urban":"Tonsawang Satu","postal_code":95996},{"province":"Sulawesi Utara","city":"Minahasa Tenggara","district":"Tombatu Utara","urban":"Winorangian","postal_code":95996},{"province":"Sulawesi Utara","city":"Minahasa Tenggara","district":"Tombatu","urban":"Tonsawang","postal_code":95996},{"province":"Sulawesi Utara","city":"Minahasa Tenggara","district":"Tombatu Utara","urban":"Tombatu Tiga Tengah","postal_code":95996},{"province":"Sulawesi Utara","city":"Minahasa Tenggara","district":"Tombatu","urban":"Tombatu Tiga Timur","postal_code":95996},{"province":"Sulawesi Utara","city":"Minahasa Tenggara","district":"Tombatu Utara","urban":"Tombatu Tiga","postal_code":95996},{"province":"Sulawesi Utara","city":"Minahasa Tenggara","district":"Tombatu","urban":"Tombatu Tiga Selatan","postal_code":95996},{"province":"Sulawesi Utara","city":"Minahasa Tenggara","district":"Tombatu Utara","urban":"Tombatu Tiga","postal_code":95996},{"province":"Sulawesi Utara","city":"Minahasa Tenggara","district":"Tombatu Utara","urban":"Tombatu Dua Tengah","postal_code":95996},{"province":"Sulawesi Utara","city":"Minahasa Tenggara","district":"Tombatu Utara","urban":"Tombatu Dua Utara","postal_code":95996},{"province":"Sulawesi Utara","city":"Minahasa Tenggara","district":"Tombatu","urban":"Tombatu","postal_code":95996},{"province":"Sulawesi Utara","city":"Minahasa Tenggara","district":"Tombatu Utara","urban":"Tombatu Dua","postal_code":95996},{"province":"Sulawesi Utara","city":"Minahasa Tenggara","district":"Tombatu Utara","urban":"Tombatu Dua Barat","postal_code":95996},{"province":"Sulawesi Utara","city":"Minahasa Tenggara","district":"Tombatu","urban":"Pisa","postal_code":95996},{"province":"Sulawesi Utara","city":"Minahasa Tenggara","district":"Tombatu Timur","urban":"Mundung Satu","postal_code":95996},{"province":"Sulawesi Utara","city":"Minahasa Tenggara","district":"Tombatu Timur","urban":"Molompar Satu","postal_code":95996},{"province":"Sulawesi Utara","city":"Minahasa Tenggara","district":"Tombatu Timur","urban":"Mundung","postal_code":95996},{"province":"Sulawesi Utara","city":"Minahasa Tenggara","district":"Tombatu Timur","urban":"Molompar Dua Utara","postal_code":95996},{"province":"Sulawesi Utara","city":"Minahasa Tenggara","district":"Tombatu Timur","urban":"Molompar Dua Selatan","postal_code":95996},{"province":"Sulawesi Utara","city":"Minahasa Tenggara","district":"Tombatu Timur","urban":"Molompar","postal_code":95996},{"province":"Sulawesi Utara","city":"Minahasa Tenggara","district":"Tombatu Timur","urban":"Molompar Atas","postal_code":95996},{"province":"Sulawesi Utara","city":"Minahasa Tenggara","district":"Tombatu Timur","urban":"Molompar Dua","postal_code":95996},{"province":"Sulawesi Utara","city":"Minahasa Tenggara","district":"Tombatu Utara","urban":"Kuyanga","postal_code":95996},{"province":"Sulawesi Utara","city":"Minahasa Tenggara","district":"Tombatu Utara","urban":"Kuyanga Satu","postal_code":95996},{"province":"Sulawesi Utara","city":"Minahasa Tenggara","district":"Tombatu","urban":"Kali","postal_code":95996},{"province":"Sulawesi Utara","city":"Minahasa Tenggara","district":"Tombatu","urban":"Kali Oki","postal_code":95996},{"province":"Sulawesi Utara","city":"Minahasa Tenggara","district":"Tombatu Timur","urban":"Esandom Dua","postal_code":95996},{"province":"Sulawesi Utara","city":"Minahasa Tenggara","district":"Tombatu Timur","urban":"Esandom Satu","postal_code":95996},{"province":"Sulawesi Utara","city":"Minahasa Tenggara","district":"Tombatu Timur","urban":"Esandom","postal_code":95996},{"province":"Sulawesi Utara","city":"Minahasa Tenggara","district":"Tombatu","urban":"Betelan Satu","postal_code":95996},{"province":"Sulawesi Utara","city":"Minahasa Tenggara","district":"Tombatu","urban":"Betelan","postal_code":95996}]