[{"province":"Sulawesi Utara","city":"Minahasa Tenggara","district":"Ratahan Timur","urban":"Wongkai Satu","postal_code":95995},{"province":"Sulawesi Utara","city":"Minahasa Tenggara","district":"Ratahan Timur","urban":"Wongkay (Wongkai)","postal_code":95995},{"province":"Sulawesi Utara","city":"Minahasa Tenggara","district":"Ratahan Timur","urban":"Wioi Timur","postal_code":95995},{"province":"Sulawesi Utara","city":"Minahasa Tenggara","district":"Ratahan Timur","urban":"Wioy (Wioi)","postal_code":95995},{"province":"Sulawesi Utara","city":"Minahasa Tenggara","district":"Ratahan Timur","urban":"Wioi Tiga","postal_code":95995},{"province":"Sulawesi Utara","city":"Minahasa Tenggara","district":"Ratahan Timur","urban":"Wioi Satu","postal_code":95995},{"province":"Sulawesi Utara","city":"Minahasa Tenggara","district":"Ratahan Timur","urban":"Wioi Dua","postal_code":95995},{"province":"Sulawesi Utara","city":"Minahasa Tenggara","district":"Ratahan","urban":"Wawali Pasan","postal_code":95995},{"province":"Sulawesi Utara","city":"Minahasa Tenggara","district":"Ratahan","urban":"Wawali","postal_code":95995},{"province":"Sulawesi Utara","city":"Minahasa Tenggara","district":"Pasan","urban":"Towuntu Timur","postal_code":95995},{"province":"Sulawesi Utara","city":"Minahasa Tenggara","district":"Pasan","urban":"Towuntu Barat","postal_code":95995},{"province":"Sulawesi Utara","city":"Minahasa Tenggara","district":"Pasan","urban":"Towuntu","postal_code":95995},{"province":"Sulawesi Utara","city":"Minahasa Tenggara","district":"Ratahan","urban":"Tosuraya Selatan","postal_code":95995},{"province":"Sulawesi Utara","city":"Minahasa Tenggara","district":"Ratahan","urban":"Tosuraya Barat","postal_code":95995},{"province":"Sulawesi Utara","city":"Minahasa Tenggara","district":"Ratahan","urban":"Tosuraya","postal_code":95995},{"province":"Sulawesi Utara","city":"Minahasa Tenggara","district":"Pasan","urban":"Tolombukan Satu","postal_code":95995},{"province":"Sulawesi Utara","city":"Minahasa Tenggara","district":"Pasan","urban":"Tolombukan Barat","postal_code":95995},{"province":"Sulawesi Utara","city":"Minahasa Tenggara","district":"Pasan","urban":"Tolombukan","postal_code":95995},{"province":"Sulawesi Utara","city":"Minahasa Tenggara","district":"Ratahan","urban":"Rasi","postal_code":95995},{"province":"Sulawesi Utara","city":"Minahasa Tenggara","district":"Ratahan","urban":"Rasi Satu","postal_code":95995},{"province":"Sulawesi Utara","city":"Minahasa Tenggara","district":"Pasan","urban":"Poniki","postal_code":95995},{"province":"Sulawesi Utara","city":"Minahasa Tenggara","district":"Ratahan Timur","urban":"Pangu Satu","postal_code":95995},{"province":"Sulawesi Utara","city":"Minahasa Tenggara","district":"Ratahan Timur","urban":"Pangu","postal_code":95995},{"province":"Sulawesi Utara","city":"Minahasa Tenggara","district":"Ratahan Timur","urban":"Pangu Dua","postal_code":95995},{"province":"Sulawesi Utara","city":"Minahasa Tenggara","district":"Ratahan","urban":"Nataan","postal_code":95995},{"province":"Sulawesi Utara","city":"Minahasa Tenggara","district":"Pasan","urban":"Maulit","postal_code":95995},{"province":"Sulawesi Utara","city":"Minahasa Tenggara","district":"Ratahan","urban":"Lowu Satu","postal_code":95995},{"province":"Sulawesi Utara","city":"Minahasa Tenggara","district":"Ratahan","urban":"Lowu Utara","postal_code":95995},{"province":"Sulawesi Utara","city":"Minahasa Tenggara","district":"Ratahan","urban":"Lowu Dua","postal_code":95995},{"province":"Sulawesi Utara","city":"Minahasa Tenggara","district":"Pasan","urban":"Liwutung Dua","postal_code":95995},{"province":"Sulawesi Utara","city":"Minahasa Tenggara","district":"Pasan","urban":"Liwutung Satu","postal_code":95995},{"province":"Sulawesi Utara","city":"Minahasa Tenggara","district":"Pasan","urban":"Liwutung","postal_code":95995}]