[{"province":"Gorontalo","city":"Gorontalo","district":"Pulubala","urban":"Toyidito (Toydito)","postal_code":96127},{"province":"Gorontalo","city":"Gorontalo","district":"Pulubala","urban":"Tridarma","postal_code":96127},{"province":"Gorontalo","city":"Gorontalo","district":"Mootilango","urban":"Talumopatu","postal_code":96127},{"province":"Gorontalo","city":"Gorontalo","district":"Mootilango","urban":"Talumopatu","postal_code":96127},{"province":"Gorontalo","city":"Gorontalo","district":"Mootilango","urban":"Satria","postal_code":96127},{"province":"Gorontalo","city":"Gorontalo","district":"Mootilango","urban":"Sido Mukti","postal_code":96127},{"province":"Gorontalo","city":"Gorontalo","district":"Pulubala","urban":"Pulubala","postal_code":96127},{"province":"Gorontalo","city":"Gorontalo","district":"Pulubala","urban":"Puncak","postal_code":96127},{"province":"Gorontalo","city":"Gorontalo","district":"Kota Tengah","urban":"Pulubala","postal_code":96127},{"province":"Gorontalo","city":"Gorontalo","district":"Pulubala","urban":"Pongongaila","postal_code":96127},{"province":"Gorontalo","city":"Gorontalo","district":"Mootilango","urban":"Payu","postal_code":96127},{"province":"Gorontalo","city":"Gorontalo","district":"Mootilango","urban":"Pilomonu","postal_code":96127},{"province":"Gorontalo","city":"Gorontalo","district":"Mootilango","urban":"Paris","postal_code":96127},{"province":"Gorontalo","city":"Gorontalo","district":"Pulubala","urban":"Mulyonegoro","postal_code":96127},{"province":"Gorontalo","city":"Gorontalo","district":"Pulubala","urban":"Molalahu","postal_code":96127},{"province":"Gorontalo","city":"Gorontalo","district":"Pulubala","urban":"Molamahu","postal_code":96127},{"province":"Gorontalo","city":"Gorontalo","district":"Mootilango","urban":"Helumo","postal_code":96127},{"province":"Gorontalo","city":"Gorontalo","district":"Mootilango","urban":"Huyula","postal_code":96127},{"province":"Gorontalo","city":"Gorontalo","district":"Mootilango","urban":"Karya Mukti","postal_code":96127},{"province":"Gorontalo","city":"Gorontalo","district":"Pulubala","urban":"Bakti","postal_code":96127},{"province":"Gorontalo","city":"Gorontalo","district":"Pulubala","urban":"Bukit Aren","postal_code":96127},{"province":"Gorontalo","city":"Gorontalo","district":"Pulubala","urban":"Ayumolingo","postal_code":96127}]