[{"province":"Gorontalo","city":"Gorontalo","district":"Telaga Biru","urban":"Ulapato A","postal_code":96181},{"province":"Gorontalo","city":"Gorontalo","district":"Telaga Biru","urban":"Ulapato B","postal_code":96181},{"province":"Gorontalo","city":"Gorontalo","district":"Tilango","urban":"Tualango","postal_code":96181},{"province":"Gorontalo","city":"Gorontalo","district":"Telaga Biru","urban":"Tonala","postal_code":96181},{"province":"Gorontalo","city":"Gorontalo","district":"Tilango","urban":"Tinelo","postal_code":96181},{"province":"Gorontalo","city":"Gorontalo","district":"Telaga Biru","urban":"Timuato","postal_code":96181},{"province":"Gorontalo","city":"Gorontalo","district":"Telaga Biru","urban":"Tinelo","postal_code":96181},{"province":"Gorontalo","city":"Gorontalo","district":"Tilango","urban":"Tenggela","postal_code":96181},{"province":"Gorontalo","city":"Gorontalo","district":"Tilango","urban":"Tilote","postal_code":96181},{"province":"Gorontalo","city":"Gorontalo","district":"Tilango","urban":"Tabumela","postal_code":96181},{"province":"Gorontalo","city":"Gorontalo","district":"Telaga Biru","urban":"Talumelito","postal_code":96181},{"province":"Gorontalo","city":"Gorontalo","district":"Telaga Biru","urban":"Tapaluluo","postal_code":96181},{"province":"Gorontalo","city":"Gorontalo","district":"Telaga","urban":"Pilohayanga","postal_code":96181},{"province":"Gorontalo","city":"Gorontalo","district":"Telaga","urban":"Pilohayanga Barat","postal_code":96181},{"province":"Gorontalo","city":"Gorontalo","district":"Telaga Biru","urban":"Pentadio Barat","postal_code":96181},{"province":"Gorontalo","city":"Gorontalo","district":"Telaga Biru","urban":"Pentadio Timur","postal_code":96181},{"province":"Gorontalo","city":"Gorontalo","district":"Telaga Biru","urban":"Pantungo","postal_code":96181},{"province":"Gorontalo","city":"Gorontalo","district":"Telaga","urban":"Mongolato","postal_code":96181},{"province":"Gorontalo","city":"Gorontalo","district":"Telaga Jaya","urban":"Luwoo","postal_code":96181},{"province":"Gorontalo","city":"Gorontalo","district":"Telaga Biru","urban":"Lupoyo","postal_code":96181},{"province":"Gorontalo","city":"Gorontalo","district":"Telaga Biru","urban":"Modelidu (Modellidu)","postal_code":96181},{"province":"Gorontalo","city":"Gorontalo","district":"Tilango","urban":"Lauwonu","postal_code":96181},{"province":"Gorontalo","city":"Gorontalo","district":"Telaga","urban":"Luhu","postal_code":96181},{"province":"Gorontalo","city":"Gorontalo","district":"Tilango","urban":"Ilotideaa","postal_code":96181},{"province":"Gorontalo","city":"Gorontalo","district":"Telaga Jaya","urban":"Hutadaa","postal_code":96181},{"province":"Gorontalo","city":"Gorontalo","district":"Telaga Biru","urban":"Dumati","postal_code":96181},{"province":"Gorontalo","city":"Gorontalo","district":"Telaga","urban":"Dulohupa","postal_code":96181},{"province":"Gorontalo","city":"Gorontalo","district":"Telaga","urban":"Hulawa","postal_code":96181},{"province":"Gorontalo","city":"Gorontalo","district":"Telaga Biru","urban":"Dulamayo Utara","postal_code":96181},{"province":"Gorontalo","city":"Gorontalo","district":"Telaga","urban":"Dulamayo Selatan","postal_code":96181},{"province":"Gorontalo","city":"Gorontalo","district":"Telaga Jaya","urban":"Bunggalo","postal_code":96181},{"province":"Gorontalo","city":"Gorontalo","district":"Telaga","urban":"Dulamayo Barat","postal_code":96181},{"province":"Gorontalo","city":"Gorontalo","district":"Telaga Jaya","urban":"Buhu","postal_code":96181},{"province":"Gorontalo","city":"Gorontalo","district":"Telaga","urban":"Bulila","postal_code":96181}]