[{"province":"Gorontalo","city":"Gorontalo","district":"Tolangohula","urban":"Tamalia Utara","postal_code":96214},{"province":"Gorontalo","city":"Gorontalo","district":"Asparaga","urban":"Tiohu","postal_code":96214},{"province":"Gorontalo","city":"Gorontalo","district":"Limboto","urban":"Tilihua","postal_code":96214},{"province":"Gorontalo","city":"Gorontalo","district":"Tolangohula","urban":"Sukamakmur Utara","postal_code":96214},{"province":"Gorontalo","city":"Gorontalo","district":"Tolangohula","urban":"Tamaila","postal_code":96214},{"province":"Gorontalo","city":"Gorontalo","district":"Tolangohula","urban":"Sidoharjo (Sidoarjo)","postal_code":96214},{"province":"Gorontalo","city":"Gorontalo","district":"Tolangohula","urban":"Sukamakmur","postal_code":96214},{"province":"Gorontalo","city":"Gorontalo","district":"Tolangohula","urban":"Polohungo","postal_code":96214},{"province":"Gorontalo","city":"Gorontalo","district":"Asparaga","urban":"Prima","postal_code":96214},{"province":"Gorontalo","city":"Gorontalo","district":"Tolangohula","urban":"Ombulo Tango","postal_code":96214},{"province":"Gorontalo","city":"Gorontalo","district":"Asparaga","urban":"Pangahu","postal_code":96214},{"province":"Gorontalo","city":"Gorontalo","district":"Tolangohula","urban":"Molohu","postal_code":96214},{"province":"Gorontalo","city":"Gorontalo","district":"Asparaga","urban":"Mohiyolo","postal_code":96214},{"province":"Gorontalo","city":"Gorontalo","district":"Asparaga","urban":"Olimohulo","postal_code":96214},{"province":"Gorontalo","city":"Gorontalo","district":"Tolangohula","urban":"Makmur Abadi","postal_code":96214},{"province":"Gorontalo","city":"Gorontalo","district":"Tolangohula","urban":"Margomulyo","postal_code":96214},{"province":"Gorontalo","city":"Gorontalo","district":"Limboto","urban":"Kayumerah","postal_code":96214},{"province":"Gorontalo","city":"Gorontalo","district":"Tolangohula","urban":"Lakeya","postal_code":96214},{"province":"Gorontalo","city":"Gorontalo","district":"Asparaga","urban":"Karya Indah","postal_code":96214},{"province":"Gorontalo","city":"Gorontalo","district":"Tolangohula","urban":"Himalaya","postal_code":96214},{"province":"Gorontalo","city":"Gorontalo","district":"Asparaga","urban":"Karya Baru","postal_code":96214},{"province":"Gorontalo","city":"Gorontalo","district":"Tolangohula","urban":"Gandasari","postal_code":96214},{"province":"Gorontalo","city":"Gorontalo","district":"Tolangohula","urban":"Gandaria","postal_code":96214},{"province":"Gorontalo","city":"Gorontalo","district":"Asparaga","urban":"Bontulo","postal_code":96214},{"province":"Gorontalo","city":"Gorontalo","district":"Asparaga","urban":"Bululi","postal_code":96214},{"province":"Gorontalo","city":"Gorontalo","district":"Bongomeme","urban":"Bongohulawa","postal_code":96214},{"province":"Gorontalo","city":"Gorontalo","district":"Limboto","urban":"Bongohulawa","postal_code":96214},{"province":"Gorontalo","city":"Gorontalo","district":"Tolangohula","urban":"Bina Jaya","postal_code":96214},{"province":"Gorontalo","city":"Gorontalo","district":"Asparaga","urban":"Bihe","postal_code":96214}]