[{"province":"Gorontalo","city":"Gorontalo","district":"Tibawa","urban":"Tolotio","postal_code":96251},{"province":"Gorontalo","city":"Gorontalo","district":"Tibawa","urban":"Ulobua","postal_code":96251},{"province":"Gorontalo","city":"Gorontalo","district":"Tibawa","urban":"Molowahu","postal_code":96251},{"province":"Gorontalo","city":"Gorontalo","district":"Tibawa","urban":"Motilango","postal_code":96251},{"province":"Gorontalo","city":"Gorontalo","district":"Tibawa","urban":"Reksonegoro","postal_code":96251},{"province":"Gorontalo","city":"Gorontalo","district":"Tibawa","urban":"Isimu Utara","postal_code":96251},{"province":"Gorontalo","city":"Gorontalo","district":"Tibawa","urban":"Labanu","postal_code":96251},{"province":"Gorontalo","city":"Gorontalo","district":"Tibawa","urban":"Isimu Raya","postal_code":96251},{"province":"Gorontalo","city":"Gorontalo","district":"Tibawa","urban":"Isimu Selatan","postal_code":96251},{"province":"Gorontalo","city":"Gorontalo","district":"Tibawa","urban":"Ilomata","postal_code":96251},{"province":"Gorontalo","city":"Gorontalo","district":"Tibawa","urban":"Iloponu","postal_code":96251},{"province":"Gorontalo","city":"Gorontalo","district":"Tibawa","urban":"Datahu","postal_code":96251},{"province":"Gorontalo","city":"Gorontalo","district":"Tibawa","urban":"Dunggala","postal_code":96251},{"province":"Gorontalo","city":"Gorontalo","district":"Tibawa","urban":"Botumoputi","postal_code":96251},{"province":"Gorontalo","city":"Gorontalo","district":"Tibawa","urban":"Buhu","postal_code":96251},{"province":"Gorontalo","city":"Gorontalo","district":"Tibawa","urban":"Balahu","postal_code":96251}]