[{"province":"Gorontalo","city":"Gorontalo Utara","district":"Sumalata Timur","urban":"Wubudu","postal_code":96254},{"province":"Gorontalo","city":"Gorontalo Utara","district":"Sumalata","urban":"Puncak Mandiri","postal_code":96254},{"province":"Gorontalo","city":"Gorontalo Utara","district":"Sumalata","urban":"Tumba","postal_code":96254},{"province":"Gorontalo","city":"Gorontalo Utara","district":"Sumalata","urban":"Pulohenti","postal_code":96254},{"province":"Gorontalo","city":"Gorontalo Utara","district":"Sumalata Timur","urban":"Motihelumo","postal_code":96254},{"province":"Gorontalo","city":"Gorontalo Utara","district":"Sumalata","urban":"Mebongo","postal_code":96254},{"province":"Gorontalo","city":"Gorontalo Utara","district":"Sumalata","urban":"Lelato","postal_code":96254},{"province":"Gorontalo","city":"Gorontalo Utara","district":"Sumalata Timur","urban":"Koluwoka","postal_code":96254},{"province":"Gorontalo","city":"Gorontalo Utara","district":"Sumalata","urban":"Kikia","postal_code":96254},{"province":"Gorontalo","city":"Gorontalo Utara","district":"Sumalata","urban":"Hutakalo","postal_code":96254},{"province":"Gorontalo","city":"Gorontalo Utara","district":"Sumalata","urban":"Kasia","postal_code":96254},{"province":"Gorontalo","city":"Gorontalo Utara","district":"Sumalata Timur","urban":"Hulawa","postal_code":96254},{"province":"Gorontalo","city":"Gorontalo Utara","district":"Sumalata Timur","urban":"Dulukapa","postal_code":96254},{"province":"Gorontalo","city":"Gorontalo Utara","district":"Sumalata Timur","urban":"Deme Dua (Deme II)","postal_code":96254},{"province":"Gorontalo","city":"Gorontalo Utara","district":"Sumalata Timur","urban":"Deme Satu (Deme I)","postal_code":96254},{"province":"Gorontalo","city":"Gorontalo Utara","district":"Sumalata Timur","urban":"Buluwatu","postal_code":96254},{"province":"Gorontalo","city":"Gorontalo Utara","district":"Sumalata","urban":"Bulontio Timur","postal_code":96254},{"province":"Gorontalo","city":"Gorontalo Utara","district":"Sumalata","urban":"Bulontio Barat","postal_code":96254},{"province":"Gorontalo","city":"Gorontalo Utara","district":"Sumalata","urban":"Buloila","postal_code":96254},{"province":"Gorontalo","city":"Gorontalo Utara","district":"Sumalata Timur","urban":"Buladu","postal_code":96254},{"province":"Gorontalo","city":"Gorontalo Utara","district":"Sumalata Timur","urban":"Bubalango","postal_code":96254}]