[{"province":"Gorontalo","city":"Gorontalo Utara","district":"Atinggola","urban":"Wapalo","postal_code":96253},{"province":"Gorontalo","city":"Gorontalo Utara","district":"Atinggola","urban":"Tombulilato","postal_code":96253},{"province":"Gorontalo","city":"Gorontalo Utara","district":"Atinggola","urban":"Sigaso","postal_code":96253},{"province":"Gorontalo","city":"Gorontalo Utara","district":"Atinggola","urban":"Pinontoyonga","postal_code":96253},{"province":"Gorontalo","city":"Gorontalo Utara","district":"Atinggola","urban":"Posono","postal_code":96253},{"province":"Gorontalo","city":"Gorontalo Utara","district":"Atinggola","urban":"Oluhuta","postal_code":96253},{"province":"Gorontalo","city":"Gorontalo Utara","district":"Gentuma Raya","urban":"Pasalae","postal_code":96253},{"province":"Gorontalo","city":"Gorontalo Utara","district":"Gentuma Raya","urban":"Motomingo","postal_code":96253},{"province":"Gorontalo","city":"Gorontalo Utara","district":"Atinggola","urban":"Monggupo","postal_code":96253},{"province":"Gorontalo","city":"Gorontalo Utara","district":"Gentuma Raya","urban":"Nanati Jaya","postal_code":96253},{"province":"Gorontalo","city":"Gorontalo Utara","district":"Gentuma Raya","urban":"Langke","postal_code":96253},{"province":"Gorontalo","city":"Gorontalo Utara","district":"Gentuma Raya","urban":"Molonggota","postal_code":96253},{"province":"Gorontalo","city":"Gorontalo Utara","district":"Atinggola","urban":"Kotajin (Kota Jin)","postal_code":96253},{"province":"Gorontalo","city":"Gorontalo Utara","district":"Atinggola","urban":"Kotajin Utara","postal_code":96253},{"province":"Gorontalo","city":"Gorontalo Utara","district":"Gentuma Raya","urban":"Ipilo","postal_code":96253},{"province":"Gorontalo","city":"Gorontalo Utara","district":"Gentuma Raya","urban":"Ketapang","postal_code":96253},{"province":"Gorontalo","city":"Gorontalo Utara","district":"Atinggola","urban":"Imana","postal_code":96253},{"province":"Gorontalo","city":"Gorontalo Utara","district":"Atinggola","urban":"Inomata (Ilomata)","postal_code":96253},{"province":"Gorontalo","city":"Gorontalo Utara","district":"Gentuma Raya","urban":"Gentuma","postal_code":96253},{"province":"Gorontalo","city":"Gorontalo Utara","district":"Atinggola","urban":"Iloheluma","postal_code":96253},{"province":"Gorontalo","city":"Gorontalo Utara","district":"Gentuma Raya","urban":"Durian","postal_code":96253},{"province":"Gorontalo","city":"Gorontalo Utara","district":"Gentuma Raya","urban":"Bohusami","postal_code":96253},{"province":"Gorontalo","city":"Gorontalo Utara","district":"Gentuma Raya","urban":"Dumolodo","postal_code":96253},{"province":"Gorontalo","city":"Gorontalo Utara","district":"Atinggola","urban":"Buata","postal_code":96253},{"province":"Gorontalo","city":"Gorontalo Utara","district":"Atinggola","urban":"Bintana","postal_code":96253}]