[{"province":"Gorontalo","city":"Gorontalo Utara","district":"Kwandang","urban":"Titidu","postal_code":96252},{"province":"Gorontalo","city":"Gorontalo Utara","district":"Tomolito","urban":"Tanjung Karang","postal_code":96252},{"province":"Gorontalo","city":"Gorontalo Utara","district":"Ponelo Kepulauan","urban":"Tihengo","postal_code":96252},{"province":"Gorontalo","city":"Gorontalo Utara","district":"Kwandang","urban":"Posso","postal_code":96252},{"province":"Gorontalo","city":"Gorontalo Utara","district":"Kwandang","urban":"Pontolo","postal_code":96252},{"province":"Gorontalo","city":"Gorontalo Utara","district":"Kwandang","urban":"Pontolo Atas","postal_code":96252},{"province":"Gorontalo","city":"Gorontalo Utara","district":"Ponelo Kepulauan","urban":"Otiola","postal_code":96252},{"province":"Gorontalo","city":"Gorontalo Utara","district":"Ponelo Kepulauan","urban":"Ponelo","postal_code":96252},{"province":"Gorontalo","city":"Gorontalo Utara","district":"Tomolito","urban":"Mutiara Laut","postal_code":96252},{"province":"Gorontalo","city":"Gorontalo Utara","district":"Kwandang","urban":"Mootinelo","postal_code":96252},{"province":"Gorontalo","city":"Gorontalo Utara","district":"Kwandang","urban":"Ombulodata","postal_code":96252},{"province":"Gorontalo","city":"Gorontalo Utara","district":"Kwandang","urban":"Molingkapoto Selatan","postal_code":96252},{"province":"Gorontalo","city":"Gorontalo Utara","district":"Kwandang","urban":"Moluo","postal_code":96252},{"province":"Gorontalo","city":"Gorontalo Utara","district":"Kwandang","urban":"Molingkapoto (Molinggapoto)","postal_code":96252},{"province":"Gorontalo","city":"Gorontalo Utara","district":"Tomolito","urban":"Molantadu","postal_code":96252},{"province":"Gorontalo","city":"Gorontalo Utara","district":"Tomolito","urban":"Milango","postal_code":96252},{"province":"Gorontalo","city":"Gorontalo Utara","district":"Kwandang","urban":"Masuru","postal_code":96252},{"province":"Gorontalo","city":"Gorontalo Utara","district":"Tomolito","urban":"Leyao","postal_code":96252},{"province":"Gorontalo","city":"Gorontalo Utara","district":"Ponelo Kepulauan","urban":"Malambe","postal_code":96252},{"province":"Gorontalo","city":"Gorontalo Utara","district":"Kwandang","urban":"Leboto","postal_code":96252},{"province":"Gorontalo","city":"Gorontalo Utara","district":"Tomolito","urban":"Huidu Melito","postal_code":96252},{"province":"Gorontalo","city":"Gorontalo Utara","district":"Kwandang","urban":"Katialada","postal_code":96252},{"province":"Gorontalo","city":"Gorontalo Utara","district":"Tomolito","urban":"Jembatan Merah","postal_code":96252},{"province":"Gorontalo","city":"Gorontalo Utara","district":"Tomolito","urban":"Bulango Raya","postal_code":96252},{"province":"Gorontalo","city":"Gorontalo Utara","district":"Tomolito","urban":"Dambalo","postal_code":96252},{"province":"Gorontalo","city":"Gorontalo Utara","district":"Kwandang","urban":"Cisadane","postal_code":96252},{"province":"Gorontalo","city":"Gorontalo Utara","district":"Tomolito","urban":"Bubode","postal_code":96252},{"province":"Gorontalo","city":"Gorontalo Utara","district":"Kwandang","urban":"Bulalo","postal_code":96252},{"province":"Gorontalo","city":"Gorontalo Utara","district":"Kwandang","urban":"Bualemo","postal_code":96252},{"province":"Gorontalo","city":"Gorontalo Utara","district":"Kwandang","urban":"Botuwombata","postal_code":96252},{"province":"Gorontalo","city":"Gorontalo Utara","district":"Kwandang","urban":"Botungobungo","postal_code":96252},{"province":"Gorontalo","city":"Gorontalo Utara","district":"Kwandang","urban":"Alata Karya","postal_code":96252}]