[{"province":"Gorontalo","city":"Pohuwato","district":"Marisa","urban":"Teratai","postal_code":96266},{"province":"Gorontalo","city":"Pohuwato","district":"Buntulia","urban":"Taluduyunu","postal_code":96266},{"province":"Gorontalo","city":"Pohuwato","district":"Buntulia","urban":"Taluduyunu Utara","postal_code":96266},{"province":"Gorontalo","city":"Pohuwato","district":"Patilanggio","urban":"Suka Makmur","postal_code":96266},{"province":"Gorontalo","city":"Pohuwato","district":"Buntulia","urban":"Sipatana","postal_code":96266},{"province":"Gorontalo","city":"Pohuwato","district":"Marisa","urban":"Pohuwato","postal_code":96266},{"province":"Gorontalo","city":"Pohuwato","district":"Marisa","urban":"Pohuwato Timur","postal_code":96266},{"province":"Gorontalo","city":"Pohuwato","district":"Duhiadaa","urban":"Mootilango","postal_code":96266},{"province":"Gorontalo","city":"Pohuwato","district":"Duhiadaa","urban":"Padeng","postal_code":96266},{"province":"Gorontalo","city":"Pohuwato","district":"Marisa","urban":"Palopo","postal_code":96266},{"province":"Gorontalo","city":"Pohuwato","district":"Duhiadaa","urban":"Mekar Jaya","postal_code":96266},{"province":"Gorontalo","city":"Pohuwato","district":"Popayato Timur","urban":"Marisa","postal_code":96266},{"province":"Gorontalo","city":"Pohuwato","district":"Patilanggio","urban":"Manawa","postal_code":96266},{"province":"Gorontalo","city":"Pohuwato","district":"Patilanggio","urban":"Ilo Heluma","postal_code":96266},{"province":"Gorontalo","city":"Pohuwato","district":"Buntulia","urban":"Karya Indah","postal_code":96266},{"province":"Gorontalo","city":"Pohuwato","district":"Patilanggio","urban":"Dulomo","postal_code":96266},{"province":"Gorontalo","city":"Pohuwato","district":"Buntulia","urban":"Hulawa","postal_code":96266},{"province":"Gorontalo","city":"Pohuwato","district":"Duhiadaa","urban":"Duhiadaa","postal_code":96266},{"province":"Gorontalo","city":"Pohuwato","district":"Patilanggio","urban":"Dudepo","postal_code":96266},{"province":"Gorontalo","city":"Pohuwato","district":"Buntulia","urban":"Buntulia Tengah","postal_code":96266},{"province":"Gorontalo","city":"Pohuwato","district":"Buntulia","urban":"Buntulia Utara","postal_code":96266},{"province":"Gorontalo","city":"Pohuwato","district":"Duhiadaa","urban":"Buntulia Selatan","postal_code":96266},{"province":"Gorontalo","city":"Pohuwato","district":"Duhiadaa","urban":"Bulili","postal_code":96266},{"province":"Gorontalo","city":"Pohuwato","district":"Duhiadaa","urban":"Buntulia Barat","postal_code":96266},{"province":"Gorontalo","city":"Pohuwato","district":"Duhiadaa","urban":"Buntulia Jaya","postal_code":96266},{"province":"Gorontalo","city":"Pohuwato","district":"Marisa","urban":"Batubilotahu Indah","postal_code":96266},{"province":"Gorontalo","city":"Pohuwato","district":"Marisa","urban":"Bulangita","postal_code":96266},{"province":"Gorontalo","city":"Pohuwato","district":"Patilanggio","urban":"Balayo","postal_code":96266}]