[{"province":"Gorontalo","city":"Boalemo","district":"Tilamuta","urban":"Tenilo","postal_code":96263},{"province":"Gorontalo","city":"Boalemo","district":"Dulupi","urban":"Tanah Putih","postal_code":96263},{"province":"Gorontalo","city":"Boalemo","district":"Dulupi","urban":"Tangga Barito","postal_code":96263},{"province":"Gorontalo","city":"Boalemo","district":"Dulupi","urban":"Tangga Jaya","postal_code":96263},{"province":"Gorontalo","city":"Boalemo","district":"Dulupi","urban":"Polohungo","postal_code":96263},{"province":"Gorontalo","city":"Boalemo","district":"Dulupi","urban":"Tabongo","postal_code":96263},{"province":"Gorontalo","city":"Boalemo","district":"Tilamuta","urban":"Pentadu Barat","postal_code":96263},{"province":"Gorontalo","city":"Boalemo","district":"Tilamuta","urban":"Pentadu Timur","postal_code":96263},{"province":"Gorontalo","city":"Boalemo","district":"Tilamuta","urban":"Piloliyanga","postal_code":96263},{"province":"Gorontalo","city":"Boalemo","district":"Dulupi","urban":"Pangi","postal_code":96263},{"province":"Gorontalo","city":"Boalemo","district":"Tilamuta","urban":"Mohungo","postal_code":96263},{"province":"Gorontalo","city":"Boalemo","district":"Tilamuta","urban":"Lamu","postal_code":96263},{"province":"Gorontalo","city":"Boalemo","district":"Tilamuta","urban":"Limbato","postal_code":96263},{"province":"Gorontalo","city":"Boalemo","district":"Tilamuta","urban":"Modelomo","postal_code":96263},{"province":"Gorontalo","city":"Boalemo","district":"Dulupi","urban":"Kotaraja","postal_code":96263},{"province":"Gorontalo","city":"Boalemo","district":"Tilamuta","urban":"Lahumbo","postal_code":96263},{"province":"Gorontalo","city":"Boalemo","district":"Dulupi","urban":"Dulupi","postal_code":96263},{"province":"Gorontalo","city":"Boalemo","district":"Tilamuta","urban":"Hungayonaa","postal_code":96263},{"province":"Gorontalo","city":"Boalemo","district":"Tilamuta","urban":"Ayuhulalo","postal_code":96263},{"province":"Gorontalo","city":"Boalemo","district":"Tilamuta","urban":"Bajo","postal_code":96263}]