[{"province":"Gorontalo","city":"Boalemo","district":"Mananggu","urban":"Tabulo Selatan","postal_code":96265},{"province":"Gorontalo","city":"Boalemo","district":"Mananggu","urban":"Tabulo","postal_code":96265},{"province":"Gorontalo","city":"Boalemo","district":"Mananggu","urban":"Salilama","postal_code":96265},{"province":"Gorontalo","city":"Boalemo","district":"Mananggu","urban":"Pontolo","postal_code":96265},{"province":"Gorontalo","city":"Boalemo","district":"Mananggu","urban":"Mananggu","postal_code":96265},{"province":"Gorontalo","city":"Boalemo","district":"Mananggu","urban":"Keramat","postal_code":96265},{"province":"Gorontalo","city":"Boalemo","district":"Mananggu","urban":"Kaaruyan","postal_code":96265},{"province":"Gorontalo","city":"Boalemo","district":"Mananggu","urban":"Buti","postal_code":96265},{"province":"Gorontalo","city":"Boalemo","district":"Mananggu","urban":"Bendungan","postal_code":96265},{"province":"Gorontalo","city":"Pohuwato","district":"Paguat","urban":"Sipayo","postal_code":96265},{"province":"Gorontalo","city":"Pohuwato","district":"Paguat","urban":"Soginti","postal_code":96265},{"province":"Gorontalo","city":"Pohuwato","district":"Dengilo","urban":"Popaya","postal_code":96265},{"province":"Gorontalo","city":"Pohuwato","district":"Paguat","urban":"Siduan","postal_code":96265},{"province":"Gorontalo","city":"Pohuwato","district":"Paguat","urban":"Pentadu","postal_code":96265},{"province":"Gorontalo","city":"Pohuwato","district":"Dengilo","urban":"Padengo","postal_code":96265},{"province":"Gorontalo","city":"Pohuwato","district":"Paguat","urban":"Molamahu","postal_code":96265},{"province":"Gorontalo","city":"Pohuwato","district":"Paguat","urban":"Libuo","postal_code":96265},{"province":"Gorontalo","city":"Pohuwato","district":"Paguat","urban":"Maleo","postal_code":96265},{"province":"Gorontalo","city":"Pohuwato","district":"Dengilo","urban":"Karya Baru","postal_code":96265},{"province":"Gorontalo","city":"Pohuwato","district":"Paguat","urban":"Kamiri","postal_code":96265},{"province":"Gorontalo","city":"Pohuwato","district":"Dengilo","urban":"Karangetang","postal_code":96265},{"province":"Gorontalo","city":"Pohuwato","district":"Dengilo","urban":"Huta Moputi","postal_code":96265},{"province":"Gorontalo","city":"Pohuwato","district":"Paguat","urban":"Bumbulan","postal_code":96265},{"province":"Gorontalo","city":"Pohuwato","district":"Paguat","urban":"Bunuyo","postal_code":96265},{"province":"Gorontalo","city":"Pohuwato","district":"Paguat","urban":"Buhu Jaya","postal_code":96265}]