[{"province":"Gorontalo","city":"Boalemo","district":"Botumoita (Botumoito)","urban":"Tutulo","postal_code":96264},{"province":"Gorontalo","city":"Boalemo","district":"Botumoita (Botumoito)","urban":"Tapadaa","postal_code":96264},{"province":"Gorontalo","city":"Boalemo","district":"Botumoita (Botumoito)","urban":"Potanga","postal_code":96264},{"province":"Gorontalo","city":"Boalemo","district":"Botumoita (Botumoito)","urban":"Rumbia","postal_code":96264},{"province":"Gorontalo","city":"Boalemo","district":"Botumoita (Botumoito)","urban":"Patoameme","postal_code":96264},{"province":"Gorontalo","city":"Boalemo","district":"Botumoita (Botumoito)","urban":"Hutamonu","postal_code":96264},{"province":"Gorontalo","city":"Boalemo","district":"Botumoita (Botumoito)","urban":"Dulangea (Dulangeya)","postal_code":96264},{"province":"Gorontalo","city":"Boalemo","district":"Botumoita (Botumoito)","urban":"Botumoito","postal_code":96264},{"province":"Gorontalo","city":"Boalemo","district":"Botumoita (Botumoito)","urban":"Bolihutuo","postal_code":96264},{"province":"Gorontalo","city":"Gorontalo","district":"Bilato","urban":"Totopo","postal_code":96264},{"province":"Gorontalo","city":"Gorontalo","district":"Bilato","urban":"Taulaa","postal_code":96264},{"province":"Gorontalo","city":"Gorontalo","district":"Boliohuto (Boliyohuto)","urban":"Tolite","postal_code":96264},{"province":"Gorontalo","city":"Gorontalo","district":"Bilato","urban":"Suka Damai","postal_code":96264},{"province":"Gorontalo","city":"Gorontalo","district":"Boliohuto (Boliyohuto)","urban":"Sidomulyo Selatan","postal_code":96264},{"province":"Gorontalo","city":"Gorontalo","district":"Boliohuto (Boliyohuto)","urban":"Sidodadi","postal_code":96264},{"province":"Gorontalo","city":"Gorontalo","district":"Boliohuto (Boliyohuto)","urban":"Sidomulyo","postal_code":96264},{"province":"Gorontalo","city":"Gorontalo","district":"Boliohuto (Boliyohuto)","urban":"Potanga","postal_code":96264},{"province":"Gorontalo","city":"Gorontalo","district":"Bilato","urban":"Pelehu","postal_code":96264},{"province":"Gorontalo","city":"Gorontalo","district":"Bilato","urban":"Musyawarah","postal_code":96264},{"province":"Gorontalo","city":"Gorontalo","district":"Boliohuto (Boliyohuto)","urban":"Parungi","postal_code":96264},{"province":"Gorontalo","city":"Gorontalo","district":"Boliohuto (Boliyohuto)","urban":"Motoduto","postal_code":96264},{"province":"Gorontalo","city":"Gorontalo","district":"Bilato","urban":"Lamahu","postal_code":96264},{"province":"Gorontalo","city":"Gorontalo","district":"Boliohuto (Boliyohuto)","urban":"Monggolito","postal_code":96264},{"province":"Gorontalo","city":"Gorontalo","district":"Bilato","urban":"Ilomata","postal_code":96264},{"province":"Gorontalo","city":"Gorontalo","district":"Bilato","urban":"Juriya","postal_code":96264},{"province":"Gorontalo","city":"Gorontalo","district":"Boliohuto (Boliyohuto)","urban":"Iloheluma","postal_code":96264},{"province":"Gorontalo","city":"Gorontalo","district":"Boliohuto (Boliyohuto)","urban":"Dulohupa","postal_code":96264},{"province":"Gorontalo","city":"Gorontalo","district":"Boliohuto (Boliyohuto)","urban":"Diloniyohu","postal_code":96264},{"province":"Gorontalo","city":"Gorontalo","district":"Bilato","urban":"Bumela","postal_code":96264},{"province":"Gorontalo","city":"Gorontalo","district":"Boliohuto (Boliyohuto)","urban":"Bongongayu","postal_code":96264},{"province":"Gorontalo","city":"Gorontalo","district":"Bilato","urban":"Bilato","postal_code":96264},{"province":"Gorontalo","city":"Gorontalo","district":"Boliohuto (Boliyohuto)","urban":"Bandung Rejo","postal_code":96264}]