[{"province":"Gorontalo","city":"Boalemo","district":"Wonosari","urban":"Tri Rukun","postal_code":96262},{"province":"Gorontalo","city":"Boalemo","district":"Wonosari","urban":"Suka Mulia (Sukamulya)","postal_code":96262},{"province":"Gorontalo","city":"Boalemo","district":"Wonosari","urban":"Tanjung Harapan","postal_code":96262},{"province":"Gorontalo","city":"Boalemo","district":"Wonosari","urban":"Sejahtera **","postal_code":96262},{"province":"Gorontalo","city":"Boalemo","district":"Wonosari","urban":"Suka Maju","postal_code":96262},{"province":"Gorontalo","city":"Boalemo","district":"Wonosari","urban":"Raharja","postal_code":96262},{"province":"Gorontalo","city":"Boalemo","district":"Wonosari","urban":"Sari Tani","postal_code":96262},{"province":"Gorontalo","city":"Boalemo","district":"Wonosari","urban":"Pangeya (Pangea)","postal_code":96262},{"province":"Gorontalo","city":"Boalemo","district":"Wonosari","urban":"Makmur **","postal_code":96262},{"province":"Gorontalo","city":"Boalemo","district":"Wonosari","urban":"Mekar Jaya","postal_code":96262},{"province":"Gorontalo","city":"Boalemo","district":"Wonosari","urban":"Jati Mulya","postal_code":96262},{"province":"Gorontalo","city":"Boalemo","district":"Wonosari","urban":"Dulohupa","postal_code":96262},{"province":"Gorontalo","city":"Boalemo","district":"Wonosari","urban":"Harapan","postal_code":96262},{"province":"Gorontalo","city":"Boalemo","district":"Wonosari","urban":"Bongo III","postal_code":96262},{"province":"Gorontalo","city":"Boalemo","district":"Wonosari","urban":"Dimito","postal_code":96262},{"province":"Gorontalo","city":"Boalemo","district":"Wonosari","urban":"Bongo II","postal_code":96262}]