[{"province":"Gorontalo","city":"Boalemo","district":"Paguyaman","urban":"Wonggahu","postal_code":96261},{"province":"Gorontalo","city":"Boalemo","district":"Paguyaman Pantai","urban":"Towayu","postal_code":96261},{"province":"Gorontalo","city":"Boalemo","district":"Paguyaman","urban":"Tenilo","postal_code":96261},{"province":"Gorontalo","city":"Boalemo","district":"Paguyaman","urban":"Sumber Jaya **","postal_code":96261},{"province":"Gorontalo","city":"Boalemo","district":"Paguyaman","urban":"Tangkobu","postal_code":96261},{"province":"Gorontalo","city":"Boalemo","district":"Paguyaman","urban":"Sosial","postal_code":96261},{"province":"Gorontalo","city":"Boalemo","district":"Paguyaman","urban":"Rejonegoro","postal_code":96261},{"province":"Gorontalo","city":"Boalemo","district":"Paguyaman","urban":"Saripi","postal_code":96261},{"province":"Gorontalo","city":"Boalemo","district":"Paguyaman Pantai","urban":"Olibu","postal_code":96261},{"province":"Gorontalo","city":"Boalemo","district":"Paguyaman","urban":"Permata","postal_code":96261},{"province":"Gorontalo","city":"Boalemo","district":"Paguyaman","urban":"Mustika","postal_code":96261},{"province":"Gorontalo","city":"Boalemo","district":"Paguyaman","urban":"Mutiara","postal_code":96261},{"province":"Gorontalo","city":"Boalemo","district":"Paguyaman Pantai","urban":"Limbatihu","postal_code":96261},{"province":"Gorontalo","city":"Boalemo","district":"Paguyaman","urban":"Molombulahe","postal_code":96261},{"province":"Gorontalo","city":"Boalemo","district":"Paguyaman Pantai","urban":"Lito","postal_code":96261},{"province":"Gorontalo","city":"Boalemo","district":"Paguyaman","urban":"Karya Murni","postal_code":96261},{"province":"Gorontalo","city":"Boalemo","district":"Paguyaman","urban":"Kualalumpur","postal_code":96261},{"province":"Gorontalo","city":"Boalemo","district":"Paguyaman","urban":"Hulawe (Hulawa)","postal_code":96261},{"province":"Gorontalo","city":"Boalemo","district":"Paguyaman","urban":"Huwongo","postal_code":96261},{"province":"Gorontalo","city":"Boalemo","district":"Paguyaman","urban":"Diloato","postal_code":96261},{"province":"Gorontalo","city":"Boalemo","district":"Paguyaman","urban":"Girisa","postal_code":96261},{"province":"Gorontalo","city":"Boalemo","district":"Paguyaman Pantai","urban":"Bubaa","postal_code":96261},{"province":"Gorontalo","city":"Boalemo","district":"Paguyaman Pantai","urban":"Bukit Karya","postal_code":96261},{"province":"Gorontalo","city":"Boalemo","district":"Paguyaman","urban":"Bongo Tua","postal_code":96261},{"province":"Gorontalo","city":"Boalemo","district":"Paguyaman","urban":"Bualo","postal_code":96261},{"province":"Gorontalo","city":"Boalemo","district":"Paguyaman","urban":"Bongo Nol","postal_code":96261},{"province":"Gorontalo","city":"Boalemo","district":"Paguyaman","urban":"Batu Kramat/Keramat","postal_code":96261},{"province":"Gorontalo","city":"Boalemo","district":"Paguyaman","urban":"Bongo IV","postal_code":96261},{"province":"Gorontalo","city":"Boalemo","district":"Paguyaman Pantai","urban":"Bangga","postal_code":96261},{"province":"Gorontalo","city":"Boalemo","district":"Paguyaman","urban":"Balate Jaya","postal_code":96261},{"province":"Gorontalo","city":"Boalemo","district":"Paguyaman Pantai","urban":"Apitalawu (Apitalawo)","postal_code":96261}]