[{"province":"Gorontalo","city":"Gorontalo","district":"Batudaa Pantai","urban":"Olimoo","postal_code":96272},{"province":"Gorontalo","city":"Gorontalo","district":"Batudaa Pantai","urban":"Tontayuo","postal_code":96272},{"province":"Gorontalo","city":"Gorontalo","district":"Biluhu","urban":"Olimeyala","postal_code":96272},{"province":"Gorontalo","city":"Gorontalo","district":"Biluhu","urban":"Luluo","postal_code":96272},{"province":"Gorontalo","city":"Gorontalo","district":"Batudaa Pantai","urban":"Lopo","postal_code":96272},{"province":"Gorontalo","city":"Gorontalo","district":"Biluhu","urban":"Lobuto","postal_code":96272},{"province":"Gorontalo","city":"Gorontalo","district":"Biluhu","urban":"Lobuto Timur","postal_code":96272},{"province":"Gorontalo","city":"Gorontalo","district":"Batudaa Pantai","urban":"Langgula","postal_code":96272},{"province":"Gorontalo","city":"Gorontalo","district":"Batudaa Pantai","urban":"Kayubulan","postal_code":96272},{"province":"Gorontalo","city":"Gorontalo","district":"Batudaa Pantai","urban":"Lamu","postal_code":96272},{"province":"Gorontalo","city":"Gorontalo","district":"Biluhu","urban":"Botubolu&#8217;o (Botuboluo)","postal_code":96272},{"province":"Gorontalo","city":"Gorontalo","district":"Biluhu","urban":"Huwongo","postal_code":96272},{"province":"Gorontalo","city":"Gorontalo","district":"Batudaa Pantai","urban":"Buhudaa","postal_code":96272},{"province":"Gorontalo","city":"Gorontalo","district":"Batudaa Pantai","urban":"Bongo","postal_code":96272},{"province":"Gorontalo","city":"Gorontalo","district":"Batudaa Pantai","urban":"Biluhu Timur","postal_code":96272},{"province":"Gorontalo","city":"Gorontalo","district":"Biluhu","urban":"Biluhu Tengah","postal_code":96272},{"province":"Gorontalo","city":"Gorontalo","district":"Biluhu","urban":"Biluhu Barat","postal_code":96272}]