[{"province":"Gorontalo","city":"Gorontalo","district":"Bongomeme","urban":"Upomela","postal_code":96271},{"province":"Gorontalo","city":"Gorontalo","district":"Bongomeme","urban":"Tohupo","postal_code":96271},{"province":"Gorontalo","city":"Gorontalo","district":"Tabongo","urban":"Tabongo Timur","postal_code":96271},{"province":"Gorontalo","city":"Gorontalo","district":"Tabongo","urban":"Teratai","postal_code":96271},{"province":"Gorontalo","city":"Gorontalo","district":"Tabongo","urban":"Tabongo Barat","postal_code":96271},{"province":"Gorontalo","city":"Gorontalo","district":"Dungaliyo","urban":"Pilolalenga","postal_code":96271},{"province":"Gorontalo","city":"Gorontalo","district":"Batudaa","urban":"Payunga","postal_code":96271},{"province":"Gorontalo","city":"Gorontalo","district":"Batudaa","urban":"Pilobuhuta","postal_code":96271},{"province":"Gorontalo","city":"Gorontalo","district":"Bongomeme","urban":"Otopade","postal_code":96271},{"province":"Gorontalo","city":"Gorontalo","district":"Bongomeme","urban":"Owalanga","postal_code":96271},{"province":"Gorontalo","city":"Gorontalo","district":"Dungaliyo","urban":"Pangadaa","postal_code":96271},{"province":"Gorontalo","city":"Gorontalo","district":"Tabongo","urban":"Motinelo","postal_code":96271},{"province":"Gorontalo","city":"Gorontalo","district":"Dungaliyo","urban":"Momala","postal_code":96271},{"province":"Gorontalo","city":"Gorontalo","district":"Bongomeme","urban":"Molas","postal_code":96271},{"province":"Gorontalo","city":"Gorontalo","district":"Bongomeme","urban":"Molopatodu","postal_code":96271},{"province":"Gorontalo","city":"Gorontalo","district":"Bongomeme","urban":"Molanihu","postal_code":96271},{"province":"Gorontalo","city":"Gorontalo","district":"Tabongo","urban":"Moahudu","postal_code":96271},{"province":"Gorontalo","city":"Gorontalo","district":"Bongomeme","urban":"Liyodu","postal_code":96271},{"province":"Gorontalo","city":"Gorontalo","district":"Bongomeme","urban":"Liyoto","postal_code":96271},{"province":"Gorontalo","city":"Gorontalo","district":"Tabongo","urban":"Limehu","postal_code":96271},{"province":"Gorontalo","city":"Gorontalo","district":"Tabongo","urban":"Limehe Barat","postal_code":96271},{"province":"Gorontalo","city":"Gorontalo","district":"Tabongo","urban":"Limehe Timur","postal_code":96271},{"province":"Gorontalo","city":"Gorontalo","district":"Dungaliyo","urban":"Kaliyoso","postal_code":96271},{"province":"Gorontalo","city":"Gorontalo","district":"Bongomeme","urban":"Kayumerah","postal_code":96271},{"province":"Gorontalo","city":"Gorontalo","district":"Batudaa","urban":"Iluta","postal_code":96271},{"province":"Gorontalo","city":"Gorontalo","district":"Tabongo","urban":"Ilomangga","postal_code":96271},{"province":"Gorontalo","city":"Gorontalo","district":"Batudaa","urban":"Ilohungayo","postal_code":96271},{"province":"Gorontalo","city":"Gorontalo","district":"Bongomeme","urban":"Huntu Lo Hulawa","postal_code":96271},{"province":"Gorontalo","city":"Gorontalo","district":"Batudaa","urban":"Huntu","postal_code":96271},{"province":"Gorontalo","city":"Gorontalo","district":"Dungaliyo","urban":"Duwanga","postal_code":96271},{"province":"Gorontalo","city":"Gorontalo","district":"Batudaa","urban":"Dunggala","postal_code":96271},{"province":"Gorontalo","city":"Gorontalo","district":"Dungaliyo","urban":"Dungaliyo","postal_code":96271},{"province":"Gorontalo","city":"Gorontalo","district":"Batudaa","urban":"Bua","postal_code":96271},{"province":"Gorontalo","city":"Gorontalo","district":"Batudaa","urban":"Bua","postal_code":96271},{"province":"Gorontalo","city":"Gorontalo","district":"Dungaliyo","urban":"Bongomeme","postal_code":96271},{"province":"Gorontalo","city":"Gorontalo","district":"Dungaliyo","urban":"Botubu lowe","postal_code":96271},{"province":"Gorontalo","city":"Gorontalo","district":"Bongomeme","urban":"Batulayar","postal_code":96271},{"province":"Gorontalo","city":"Gorontalo","district":"Bongomeme","urban":"Batu Loreng","postal_code":96271},{"province":"Gorontalo","city":"Gorontalo","district":"Batudaa","urban":"Barakati","postal_code":96271},{"province":"Gorontalo","city":"Gorontalo","district":"Dungaliyo","urban":"Ayuhula","postal_code":96271},{"province":"Gorontalo","city":"Gorontalo","district":"Dungaliyo","urban":"Ambara","postal_code":96271}]