[{"province":"Gorontalo","city":"Pohuwato","district":"Popayato","urban":"Tunas Harapan","postal_code":96467},{"province":"Gorontalo","city":"Pohuwato","district":"Popayato Barat","urban":"Tunas Jaya","postal_code":96467},{"province":"Gorontalo","city":"Pohuwato","district":"Popayato","urban":"Trikora","postal_code":96467},{"province":"Gorontalo","city":"Pohuwato","district":"Popayato","urban":"Torosiaje Jaya","postal_code":96467},{"province":"Gorontalo","city":"Pohuwato","district":"Popayato","urban":"Telaga Biru","postal_code":96467},{"province":"Gorontalo","city":"Pohuwato","district":"Popayato","urban":"Torosiaje","postal_code":96467},{"province":"Gorontalo","city":"Pohuwato","district":"Popayato Timur","urban":"Tahele","postal_code":96467},{"province":"Gorontalo","city":"Pohuwato","district":"Popayato","urban":"Telaga","postal_code":96467},{"province":"Gorontalo","city":"Pohuwato","district":"Popayato Barat","urban":"Persatuan","postal_code":96467},{"province":"Gorontalo","city":"Pohuwato","district":"Popayato","urban":"Popayato","postal_code":96467},{"province":"Gorontalo","city":"Pohuwato","district":"Popayato Barat","urban":"Molosipat Utara","postal_code":96467},{"province":"Gorontalo","city":"Pohuwato","district":"Popayato Barat","urban":"Padengo","postal_code":96467},{"province":"Gorontalo","city":"Pohuwato","district":"Popayato Barat","urban":"Molosipat","postal_code":96467},{"province":"Gorontalo","city":"Pohuwato","district":"Popayato Timur","urban":"Milangodaa","postal_code":96467},{"province":"Gorontalo","city":"Pohuwato","district":"Popayato Timur","urban":"Londoun (Londuun)","postal_code":96467},{"province":"Gorontalo","city":"Pohuwato","district":"Popayato Timur","urban":"Maleo","postal_code":96467},{"province":"Gorontalo","city":"Pohuwato","district":"Popayato Timur","urban":"Kelapa Lima","postal_code":96467},{"province":"Gorontalo","city":"Pohuwato","district":"Popayato","urban":"Dambalo","postal_code":96467},{"province":"Gorontalo","city":"Pohuwato","district":"Popayato Barat","urban":"Dudewulo","postal_code":96467},{"province":"Gorontalo","city":"Pohuwato","district":"Popayato Barat","urban":"Butungale","postal_code":96467},{"province":"Gorontalo","city":"Pohuwato","district":"Popayato Timur","urban":"Bunto","postal_code":96467},{"province":"Gorontalo","city":"Pohuwato","district":"Popayato","urban":"Bumi Bahari","postal_code":96467},{"province":"Gorontalo","city":"Pohuwato","district":"Popayato","urban":"Bukit Tingki","postal_code":96467}]