[{"province":"Gorontalo","city":"Pohuwato","district":"Lemito","urban":"Wonggarasi Tengah","postal_code":96468},{"province":"Gorontalo","city":"Pohuwato","district":"Lemito","urban":"Wonggarasi Barat","postal_code":96468},{"province":"Gorontalo","city":"Pohuwato","district":"Wanggarasi","urban":"Wanggarasi (Wonggarasi Timur)","postal_code":96468},{"province":"Gorontalo","city":"Pohuwato","district":"Lemito","urban":"Suka Damai","postal_code":96468},{"province":"Gorontalo","city":"Pohuwato","district":"Lemito","urban":"Lomuli","postal_code":96468},{"province":"Gorontalo","city":"Pohuwato","district":"Lemito","urban":"Lemito","postal_code":96468},{"province":"Gorontalo","city":"Pohuwato","district":"Lemito","urban":"Lemito Utara","postal_code":96468},{"province":"Gorontalo","city":"Pohuwato","district":"Wanggarasi","urban":"Lembah Permai (Malango II)","postal_code":96468},{"province":"Gorontalo","city":"Pohuwato","district":"Lemito","urban":"Kenari","postal_code":96468},{"province":"Gorontalo","city":"Pohuwato","district":"Wanggarasi","urban":"Bukit Harapan","postal_code":96468},{"province":"Gorontalo","city":"Pohuwato","district":"Wanggarasi","urban":"Bohusami","postal_code":96468},{"province":"Gorontalo","city":"Pohuwato","district":"Lemito","urban":"Babalonge","postal_code":96468}]