[{"province":"Gorontalo","city":"Pohuwato","district":"Randangan","urban":"Yipilo","postal_code":96469},{"province":"Gorontalo","city":"Pohuwato","district":"Randangan","urban":"Tuweya","postal_code":96469},{"province":"Gorontalo","city":"Pohuwato","district":"Taluditi (Taluduti)","urban":"Tirto Asri","postal_code":96469},{"province":"Gorontalo","city":"Pohuwato","district":"Randangan","urban":"Siduwonge","postal_code":96469},{"province":"Gorontalo","city":"Pohuwato","district":"Randangan","urban":"Sidorukun","postal_code":96469},{"province":"Gorontalo","city":"Pohuwato","district":"Randangan","urban":"Sari Murni","postal_code":96469},{"province":"Gorontalo","city":"Pohuwato","district":"Randangan","urban":"Pelambane Perda","postal_code":96469},{"province":"Gorontalo","city":"Pohuwato","district":"Randangan","urban":"Patuhu","postal_code":96469},{"province":"Gorontalo","city":"Pohuwato","district":"Taluditi (Taluduti)","urban":"Panca Karsa I","postal_code":96469},{"province":"Gorontalo","city":"Pohuwato","district":"Taluditi (Taluduti)","urban":"Panca Karsa II","postal_code":96469},{"province":"Gorontalo","city":"Pohuwato","district":"Randangan","urban":"Motolohu Selatan","postal_code":96469},{"province":"Gorontalo","city":"Pohuwato","district":"Randangan","urban":"Omayuwa","postal_code":96469},{"province":"Gorontalo","city":"Pohuwato","district":"Taluditi (Taluduti)","urban":"Marisa IV","postal_code":96469},{"province":"Gorontalo","city":"Pohuwato","district":"Randangan","urban":"Manunggal Karya","postal_code":96469},{"province":"Gorontalo","city":"Pohuwato","district":"Randangan","urban":"Motolohu","postal_code":96469},{"province":"Gorontalo","city":"Pohuwato","district":"Taluditi (Taluduti)","urban":"Makarti Jaya","postal_code":96469},{"province":"Gorontalo","city":"Pohuwato","district":"Taluditi (Taluduti)","urban":"Malango","postal_code":96469},{"province":"Gorontalo","city":"Pohuwato","district":"Taluditi (Taluduti)","urban":"Kalimas","postal_code":96469},{"province":"Gorontalo","city":"Pohuwato","district":"Randangan","urban":"Limbula","postal_code":96469},{"province":"Gorontalo","city":"Pohuwato","district":"Randangan","urban":"Imbodu","postal_code":96469},{"province":"Gorontalo","city":"Pohuwato","district":"Randangan","urban":"Huyula","postal_code":96469},{"province":"Gorontalo","city":"Pohuwato","district":"Randangan","urban":"Ayula","postal_code":96469},{"province":"Gorontalo","city":"Pohuwato","district":"Randangan","urban":"Banuroja","postal_code":96469}]