[{"province":"Gorontalo","city":"Bone Bolango","district":"Suwawa","urban":"Ulanta","postal_code":96584},{"province":"Gorontalo","city":"Bone Bolango","district":"Suwawa Timur","urban":"Tulabolo Barat","postal_code":96584},{"province":"Gorontalo","city":"Bone Bolango","district":"Suwawa Timur","urban":"Tulabolo Timur","postal_code":96584},{"province":"Gorontalo","city":"Bone Bolango","district":"Suwawa Timur","urban":"Tulabolo","postal_code":96584},{"province":"Gorontalo","city":"Bone Bolango","district":"Suwawa Tengah","urban":"Tolomato","postal_code":96584},{"province":"Gorontalo","city":"Bone Bolango","district":"Suwawa","urban":"Tingkohubu","postal_code":96584},{"province":"Gorontalo","city":"Bone Bolango","district":"Suwawa","urban":"Tingkohubu Timur","postal_code":96584},{"province":"Gorontalo","city":"Bone Bolango","district":"Suwawa","urban":"Tinelo","postal_code":96584},{"province":"Gorontalo","city":"Bone Bolango","district":"Suwawa","urban":"Tinelo","postal_code":96584},{"province":"Gorontalo","city":"Bone Bolango","district":"Suwawa Timur","urban":"Tilangobula","postal_code":96584},{"province":"Gorontalo","city":"Bone Bolango","district":"Suwawa Tengah","urban":"Tapadaa","postal_code":96584},{"province":"Gorontalo","city":"Bone Bolango","district":"Pinogu","urban":"Pinogu Permai","postal_code":96584},{"province":"Gorontalo","city":"Bone Bolango","district":"Suwawa Timur","urban":"Poduoma","postal_code":96584},{"province":"Gorontalo","city":"Bone Bolango","district":"Pinogu","urban":"Pinogu","postal_code":96584},{"province":"Gorontalo","city":"Bone Bolango","district":"Suwawa Timur","urban":"Panggulo","postal_code":96584},{"province":"Gorontalo","city":"Bone Bolango","district":"Suwawa Selatan","urban":"Molintogupo","postal_code":96584},{"province":"Gorontalo","city":"Bone Bolango","district":"Suwawa Selatan","urban":"Pancuran","postal_code":96584},{"province":"Gorontalo","city":"Bone Bolango","district":"Suwawa Tengah","urban":"Lompotoo","postal_code":96584},{"province":"Gorontalo","city":"Bone Bolango","district":"Suwawa Tengah","urban":"Lombongo","postal_code":96584},{"province":"Gorontalo","city":"Bone Bolango","district":"Suwawa Selatan","urban":"Libungo","postal_code":96584},{"province":"Gorontalo","city":"Bone Bolango","district":"Suwawa","urban":"Huluduotamo","postal_code":96584},{"province":"Gorontalo","city":"Bone Bolango","district":"Suwawa Timur","urban":"Dumbayabulan","postal_code":96584},{"province":"Gorontalo","city":"Bone Bolango","district":"Suwawa","urban":"Helumo","postal_code":96584},{"province":"Gorontalo","city":"Bone Bolango","district":"Suwawa Timur","urban":"Dumbayabulan Timur","postal_code":96584},{"province":"Gorontalo","city":"Bone Bolango","district":"Suwawa Timur","urban":"Dataran Hijau","postal_code":96584},{"province":"Gorontalo","city":"Bone Bolango","district":"Suwawa Tengah","urban":"Duano","postal_code":96584},{"province":"Gorontalo","city":"Bone Bolango","district":"Pinogu","urban":"Dataran Hijau","postal_code":96584},{"province":"Gorontalo","city":"Bone Bolango","district":"Suwawa Selatan","urban":"Bulontala","postal_code":96584},{"province":"Gorontalo","city":"Bone Bolango","district":"Suwawa Selatan","urban":"Bulontala Timur","postal_code":96584},{"province":"Gorontalo","city":"Bone Bolango","district":"Suwawa","urban":"Bube Baru","postal_code":96584},{"province":"Gorontalo","city":"Bone Bolango","district":"Suwawa","urban":"Bubeya","postal_code":96584},{"province":"Gorontalo","city":"Bone Bolango","district":"Suwawa","urban":"Bube","postal_code":96584},{"province":"Gorontalo","city":"Bone Bolango","district":"Suwawa Selatan","urban":"Bonedaa","postal_code":96584},{"province":"Gorontalo","city":"Bone Bolango","district":"Suwawa Selatan","urban":"Bonda Raya","postal_code":96584},{"province":"Gorontalo","city":"Bone Bolango","district":"Suwawa Selatan","urban":"Bondawuna","postal_code":96584},{"province":"Gorontalo","city":"Bone Bolango","district":"Suwawa","urban":"Boludawa","postal_code":96584},{"province":"Gorontalo","city":"Bone Bolango","district":"Pinogu","urban":"Bangio","postal_code":96584},{"province":"Gorontalo","city":"Bone Bolango","district":"Suwawa Tengah","urban":"Alele","postal_code":96584}]