[{"province":"Gorontalo","city":"Bone Bolango","district":"Bone","urban":"Waluhu","postal_code":96585},{"province":"Gorontalo","city":"Bone Bolango","district":"Bonepantai","urban":"Tunas Jaya","postal_code":96585},{"province":"Gorontalo","city":"Bone Bolango","district":"Bonepantai","urban":"Uabanga","postal_code":96585},{"province":"Gorontalo","city":"Bone Bolango","district":"Bone","urban":"Tumbuh Mekar","postal_code":96585},{"province":"Gorontalo","city":"Bone Bolango","district":"Bonepantai","urban":"Tongo","postal_code":96585},{"province":"Gorontalo","city":"Bone Bolango","district":"Bone Raya","urban":"Tombulilato","postal_code":96585},{"province":"Gorontalo","city":"Bone Bolango","district":"Bonepantai","urban":"Tihu","postal_code":96585},{"province":"Gorontalo","city":"Bone Bolango","district":"Bonepantai","urban":"Tolotio","postal_code":96585},{"province":"Gorontalo","city":"Bone Bolango","district":"Bonepantai","urban":"Tamboo","postal_code":96585},{"province":"Gorontalo","city":"Bone Bolango","district":"Bone","urban":"Taludaa","postal_code":96585},{"province":"Gorontalo","city":"Bone Bolango","district":"Bone","urban":"Permata","postal_code":96585},{"province":"Gorontalo","city":"Bone Bolango","district":"Bone","urban":"Sogitia","postal_code":96585},{"province":"Gorontalo","city":"Bone Bolango","district":"Bone Raya","urban":"Pelita Jaya","postal_code":96585},{"province":"Gorontalo","city":"Bone Bolango","district":"Bonepantai","urban":"Pelita Hijau","postal_code":96585},{"province":"Gorontalo","city":"Bone Bolango","district":"Bulawa","urban":"Patoa","postal_code":96585},{"province":"Gorontalo","city":"Bone Bolango","district":"Bonepantai","urban":"Ombulo Hijau","postal_code":96585},{"province":"Gorontalo","city":"Bone Bolango","district":"Kabila Bone","urban":"Oluhuta","postal_code":96585},{"province":"Gorontalo","city":"Bone Bolango","district":"Bulawa","urban":"Nyiur Hijau","postal_code":96585},{"province":"Gorontalo","city":"Bone Bolango","district":"Kabila Bone","urban":"Olele","postal_code":96585},{"province":"Gorontalo","city":"Bone Bolango","district":"Bone","urban":"Muara Bone","postal_code":96585},{"province":"Gorontalo","city":"Bone Bolango","district":"Bulawa","urban":"Mopuya","postal_code":96585},{"province":"Gorontalo","city":"Bone Bolango","district":"Bone Raya","urban":"Mootayu","postal_code":96585},{"province":"Gorontalo","city":"Bone Bolango","district":"Bone Raya","urban":"Mootinelo","postal_code":96585},{"province":"Gorontalo","city":"Bone Bolango","district":"Bone Raya","urban":"Moopiya (Mopuya)","postal_code":96585},{"province":"Gorontalo","city":"Bone Bolango","district":"Bone Raya","urban":"Mootawa","postal_code":96585},{"province":"Gorontalo","city":"Bone Bolango","district":"Bone","urban":"Moodulio","postal_code":96585},{"province":"Gorontalo","city":"Bone Bolango","district":"Bone","urban":"Monano","postal_code":96585},{"province":"Gorontalo","city":"Bone Bolango","district":"Kabila Bone","urban":"Molotabu (Molutabu)","postal_code":96585},{"province":"Gorontalo","city":"Bone Bolango","district":"Bone","urban":"Molamahu","postal_code":96585},{"province":"Gorontalo","city":"Bone Bolango","district":"Kabila Bone","urban":"Modelomo","postal_code":96585},{"province":"Gorontalo","city":"Bone Bolango","district":"Bone","urban":"Masiaga","postal_code":96585},{"province":"Gorontalo","city":"Bone Bolango","district":"Bulawa","urban":"Mamungaa","postal_code":96585},{"province":"Gorontalo","city":"Bone Bolango","district":"Bulawa","urban":"Mamungaa Timur","postal_code":96585},{"province":"Gorontalo","city":"Bone Bolango","district":"Bonepantai","urban":"Lembah Hijau","postal_code":96585},{"province":"Gorontalo","city":"Bone Bolango","district":"Bone Raya","urban":"Laut Biru","postal_code":96585},{"province":"Gorontalo","city":"Bone Bolango","district":"Bulawa","urban":"Kaidundu Barat","postal_code":96585},{"province":"Gorontalo","city":"Bone Bolango","district":"Bonepantai","urban":"Kemiri","postal_code":96585},{"province":"Gorontalo","city":"Bone Bolango","district":"Bone Raya","urban":"Inomata","postal_code":96585},{"province":"Gorontalo","city":"Bone Bolango","district":"Bulawa","urban":"Kaidundu","postal_code":96585},{"province":"Gorontalo","city":"Bone Bolango","district":"Bone","urban":"Ilohuuwa","postal_code":96585},{"province":"Gorontalo","city":"Bone Bolango","district":"Bone","urban":"Inogaluma","postal_code":96585},{"province":"Gorontalo","city":"Bone Bolango","district":"Bone","urban":"Cendana Putih","postal_code":96585},{"province":"Gorontalo","city":"Bone Bolango","district":"Bulawa","urban":"Bunga Hijau","postal_code":96585},{"province":"Gorontalo","city":"Bone Bolango","district":"Bone Raya","urban":"Bunga","postal_code":96585},{"province":"Gorontalo","city":"Bone Bolango","district":"Bulawa","urban":"Bukit Hijau","postal_code":96585},{"province":"Gorontalo","city":"Bone Bolango","district":"Kabila Bone","urban":"Botutonuo (Botutonua)","postal_code":96585},{"province":"Gorontalo","city":"Bone Bolango","district":"Bonepantai","urban":"Bilungala Utara","postal_code":96585},{"province":"Gorontalo","city":"Bone Bolango","district":"Kabila Bone","urban":"Bintalahe","postal_code":96585},{"province":"Gorontalo","city":"Bone Bolango","district":"Bonepantai","urban":"Bilungala","postal_code":96585},{"province":"Gorontalo","city":"Bone Bolango","district":"Bone","urban":"Bilolantuna","postal_code":96585},{"province":"Gorontalo","city":"Bone Bolango","district":"Bonepantai","urban":"Batu Hijau","postal_code":96585},{"province":"Gorontalo","city":"Bone Bolango","district":"Bone Raya","urban":"Alo","postal_code":96585}]