[{"province":"Gorontalo","city":"Bone Bolango","district":"Bulango Utara","urban":"Tupa","postal_code":96582},{"province":"Gorontalo","city":"Bone Bolango","district":"Bulango Utara","urban":"Tuloa","postal_code":96582},{"province":"Gorontalo","city":"Bone Bolango","district":"Bulango Timur","urban":"Toluwaya (Tuloa)","postal_code":96582},{"province":"Gorontalo","city":"Bone Bolango","district":"Bulango Selatan","urban":"Tinelo Ayula","postal_code":96582},{"province":"Gorontalo","city":"Bone Bolango","district":"Tapa","urban":"Talumopatu","postal_code":96582},{"province":"Gorontalo","city":"Bone Bolango","district":"Tapa","urban":"Talulobutu","postal_code":96582},{"province":"Gorontalo","city":"Bone Bolango","district":"Tapa","urban":"Talulobutu Selatan","postal_code":96582},{"province":"Gorontalo","city":"Bone Bolango","district":"Bulango Utara","urban":"Suka Damai","postal_code":96582},{"province":"Gorontalo","city":"Bone Bolango","district":"Bulango Ulu","urban":"Suka Makmur","postal_code":96582},{"province":"Gorontalo","city":"Bone Bolango","district":"Bulango Selatan","urban":"Sejahtera","postal_code":96582},{"province":"Gorontalo","city":"Bone Bolango","district":"Bulango Timur","urban":"Popodu","postal_code":96582},{"province":"Gorontalo","city":"Bone Bolango","district":"Bulango Ulu","urban":"Owata","postal_code":96582},{"province":"Gorontalo","city":"Bone Bolango","district":"Bulango Ulu","urban":"Pilolaheya","postal_code":96582},{"province":"Gorontalo","city":"Bone Bolango","district":"Bulango Ulu","urban":"Mongiilo","postal_code":96582},{"province":"Gorontalo","city":"Bone Bolango","district":"Bulango Ulu","urban":"Mongiilo Utara","postal_code":96582},{"province":"Gorontalo","city":"Bone Bolango","district":"Bulango Selatan","urban":"Mekar Jaya","postal_code":96582},{"province":"Gorontalo","city":"Bone Bolango","district":"Tapa","urban":"Meranti","postal_code":96582},{"province":"Gorontalo","city":"Bone Bolango","district":"Bulango Utara","urban":"Lomaya","postal_code":96582},{"province":"Gorontalo","city":"Bone Bolango","district":"Bulango Utara","urban":"Longalo","postal_code":96582},{"province":"Gorontalo","city":"Bone Bolango","district":"Bulango Selatan","urban":"Lamahu","postal_code":96582},{"province":"Gorontalo","city":"Bone Bolango","district":"Tapa","urban":"Langge","postal_code":96582},{"province":"Gorontalo","city":"Bone Bolango","district":"Bulango Utara","urban":"Kopi","postal_code":96582},{"province":"Gorontalo","city":"Bone Bolango","district":"Tapa","urban":"Keramat","postal_code":96582},{"province":"Gorontalo","city":"Bone Bolango","district":"Bulango Ulu","urban":"Ilomata","postal_code":96582},{"province":"Gorontalo","city":"Bone Bolango","district":"Bulango Selatan","urban":"Huntu Selatan","postal_code":96582},{"province":"Gorontalo","city":"Bone Bolango","district":"Bulango Selatan","urban":"Huntu Utara","postal_code":96582},{"province":"Gorontalo","city":"Bone Bolango","district":"Bulango Utara","urban":"Bunuo","postal_code":96582},{"province":"Gorontalo","city":"Bone Bolango","district":"Tapa","urban":"Dunggala","postal_code":96582},{"province":"Gorontalo","city":"Bone Bolango","district":"Bulango Timur","urban":"Bulotalangi Barat","postal_code":96582},{"province":"Gorontalo","city":"Bone Bolango","district":"Bulango Timur","urban":"Bulotalangi Timur","postal_code":96582},{"province":"Gorontalo","city":"Bone Bolango","district":"Bulango Timur","urban":"Bulotalangi","postal_code":96582},{"province":"Gorontalo","city":"Bone Bolango","district":"Bulango Utara","urban":"Boidu","postal_code":96582},{"province":"Gorontalo","city":"Bone Bolango","district":"Bulango Utara","urban":"Bandungan","postal_code":96582},{"province":"Gorontalo","city":"Bone Bolango","district":"Bulango Selatan","urban":"Ayula Timur","postal_code":96582},{"province":"Gorontalo","city":"Bone Bolango","district":"Bulango Selatan","urban":"Ayula Utara","postal_code":96582},{"province":"Gorontalo","city":"Bone Bolango","district":"Bulango Selatan","urban":"Ayula Selatan","postal_code":96582},{"province":"Gorontalo","city":"Bone Bolango","district":"Bulango Selatan","urban":"Ayula Tilango","postal_code":96582}]