[{"province":"Gorontalo","city":"Bone Bolango","district":"Tilongkabila","urban":"Tunggulo","postal_code":96583},{"province":"Gorontalo","city":"Bone Bolango","district":"Tilongkabila","urban":"Tunggulo Selatan","postal_code":96583},{"province":"Gorontalo","city":"Bone Bolango","district":"Tilongkabila","urban":"Toto Utara","postal_code":96583},{"province":"Gorontalo","city":"Bone Bolango","district":"Kabila","urban":"Tumbihe","postal_code":96583},{"province":"Gorontalo","city":"Bone Bolango","district":"Kabila","urban":"Toto Selatan","postal_code":96583},{"province":"Gorontalo","city":"Bone Bolango","district":"Botu Pingge","urban":"Timbuolo Timur","postal_code":96583},{"province":"Gorontalo","city":"Bone Bolango","district":"Botu Pingge","urban":"Timbuolo","postal_code":96583},{"province":"Gorontalo","city":"Bone Bolango","district":"Botu Pingge","urban":"Timbuolo Tengah","postal_code":96583},{"province":"Gorontalo","city":"Bone Bolango","district":"Kabila","urban":"Tanggilingo","postal_code":96583},{"province":"Gorontalo","city":"Bone Bolango","district":"Botu Pingge","urban":"Tanah Putih","postal_code":96583},{"province":"Gorontalo","city":"Bone Bolango","district":"Kabila","urban":"Talango","postal_code":96583},{"province":"Gorontalo","city":"Bone Bolango","district":"Tilongkabila","urban":"Tamboo","postal_code":96583},{"province":"Gorontalo","city":"Bone Bolango","district":"Botu Pingge","urban":"Sukma","postal_code":96583},{"province":"Gorontalo","city":"Bone Bolango","district":"Kabila","urban":"Poowo Barat","postal_code":96583},{"province":"Gorontalo","city":"Bone Bolango","district":"Tilongkabila","urban":"Permata","postal_code":96583},{"province":"Gorontalo","city":"Bone Bolango","district":"Kabila","urban":"Poowo","postal_code":96583},{"province":"Gorontalo","city":"Bone Bolango","district":"Botu Pingge","urban":"Panggulo Barat","postal_code":96583},{"province":"Gorontalo","city":"Bone Bolango","district":"Kabila","urban":"Pauwo","postal_code":96583},{"province":"Gorontalo","city":"Bone Bolango","district":"Botu Pingge","urban":"Panggulo","postal_code":96583},{"province":"Gorontalo","city":"Bone Bolango","district":"Kabila","urban":"Oluhuta Utara","postal_code":96583},{"province":"Gorontalo","city":"Bone Bolango","district":"Kabila","urban":"Padengo","postal_code":96583},{"province":"Gorontalo","city":"Bone Bolango","district":"Kabila","urban":"Oluhuta","postal_code":96583},{"province":"Gorontalo","city":"Bone Bolango","district":"Tilongkabila","urban":"Motilango (Mootilango)","postal_code":96583},{"province":"Gorontalo","city":"Bone Bolango","district":"Tilongkabila","urban":"Moutong","postal_code":96583},{"province":"Gorontalo","city":"Bone Bolango","district":"Botu Pingge","urban":"Luwohu","postal_code":96583},{"province":"Gorontalo","city":"Bone Bolango","district":"Tilongkabila","urban":"Lonuo","postal_code":96583},{"province":"Gorontalo","city":"Bone Bolango","district":"Kabila Bone","urban":"Huangobotu","postal_code":96583},{"province":"Gorontalo","city":"Bone Bolango","district":"Tilongkabila","urban":"Iloheluma","postal_code":96583},{"province":"Gorontalo","city":"Bone Bolango","district":"Kabila","urban":"Dutohe","postal_code":96583},{"province":"Gorontalo","city":"Bone Bolango","district":"Kabila","urban":"Dutohe Barat","postal_code":96583},{"province":"Gorontalo","city":"Bone Bolango","district":"Tilongkabila","urban":"Butu","postal_code":96583},{"province":"Gorontalo","city":"Bone Bolango","district":"Botu Pingge","urban":"Buata","postal_code":96583},{"province":"Gorontalo","city":"Bone Bolango","district":"Kabila Bone","urban":"Botubarani","postal_code":96583},{"province":"Gorontalo","city":"Bone Bolango","district":"Tilongkabila","urban":"Bongopini","postal_code":96583},{"province":"Gorontalo","city":"Bone Bolango","district":"Tilongkabila","urban":"Bongoime","postal_code":96583},{"province":"Gorontalo","city":"Bone Bolango","district":"Tilongkabila","urban":"Bongohulowa","postal_code":96583},{"province":"Gorontalo","city":"Bone Bolango","district":"Kabila Bone","urban":"Biluango","postal_code":96583},{"province":"Gorontalo","city":"Bone Bolango","district":"Tilongkabila","urban":"Berlian","postal_code":96583}]