[{"province":"Maluku","city":"Maluku Barat Daya","district":"Pulau Lakor","urban":"Yamluli","postal_code":97454},{"province":"Maluku","city":"Maluku Barat Daya","district":"Moa Lakor","urban":"Werwaru","postal_code":97454},{"province":"Maluku","city":"Maluku Barat Daya","district":"Pulau Pulau Terselatan","urban":"Wonreli","postal_code":97454},{"province":"Maluku","city":"Maluku Barat Daya","district":"Moa Lakor","urban":"Wakarleli","postal_code":97454},{"province":"Maluku","city":"Maluku Barat Daya","district":"Wetar Barat","urban":"Ustutun","postal_code":97454},{"province":"Maluku","city":"Maluku Barat Daya","district":"Wetar Utara","urban":"Uhak","postal_code":97454},{"province":"Maluku","city":"Maluku Barat Daya","district":"Pulau Letti (Leti Moa Lakor)","urban":"Tutuwaru","postal_code":97454},{"province":"Maluku","city":"Maluku Barat Daya","district":"Pulau Letti (Leti Moa Lakor)","urban":"Tutukey","postal_code":97454},{"province":"Maluku","city":"Maluku Barat Daya","district":"Moa Lakor","urban":"Tounwawan","postal_code":97454},{"province":"Maluku","city":"Maluku Barat Daya","district":"Pulau Letti (Leti Moa Lakor)","urban":"Tomra","postal_code":97454},{"province":"Maluku","city":"Maluku Barat Daya","district":"Wetar Timur","urban":"Tomliapat","postal_code":97454},{"province":"Maluku","city":"Maluku Barat Daya","district":"Wetar Barat","urban":"Telemar","postal_code":97454},{"province":"Maluku","city":"Maluku Barat Daya","district":"Kepulauan Romang","urban":"Solath","postal_code":97454},{"province":"Maluku","city":"Maluku Barat Daya","district":"Pulau Lakor","urban":"Sera","postal_code":97454},{"province":"Maluku","city":"Maluku Barat Daya","district":"Kisar Utara","urban":"Purpura (Pur-Pura)","postal_code":97454},{"province":"Maluku","city":"Maluku Barat Daya","district":"Moa Lakor","urban":"Patti","postal_code":97454},{"province":"Maluku","city":"Maluku Barat Daya","district":"Pulau Pulau Terselatan","urban":"Oirata Barat","postal_code":97454},{"province":"Maluku","city":"Maluku Barat Daya","district":"Pulau Pulau Terselatan","urban":"Oirata Timur","postal_code":97454},{"province":"Maluku","city":"Maluku Barat Daya","district":"Pulau Letti (Leti Moa Lakor)","urban":"Nuwewang","postal_code":97454},{"province":"Maluku","city":"Maluku Barat Daya","district":"Kisar Utara","urban":"Nomaha","postal_code":97454},{"province":"Maluku","city":"Maluku Barat Daya","district":"Wetar Utara","urban":"Naumatang","postal_code":97454},{"province":"Maluku","city":"Maluku Barat Daya","district":"Wetar Utara","urban":"Nabar","postal_code":97454},{"province":"Maluku","city":"Maluku Barat Daya","district":"Moa Lakor","urban":"Moain","postal_code":97454},{"province":"Maluku","city":"Maluku Barat Daya","district":"Wetar Timur","urban":"Moning","postal_code":97454},{"province":"Maluku","city":"Maluku Barat Daya","district":"Wetar","urban":"Masapun","postal_code":97454},{"province":"Maluku","city":"Maluku Barat Daya","district":"Wetar","urban":"Mahuan","postal_code":97454},{"province":"Maluku","city":"Maluku Barat Daya","district":"Wetar Utara","urban":"Lurang","postal_code":97454},{"province":"Maluku","city":"Maluku Barat Daya","district":"Pulau Letti (Leti Moa Lakor)","urban":"Luhulely (Luhuleli)","postal_code":97454},{"province":"Maluku","city":"Maluku Barat Daya","district":"Pulau Lakor","urban":"Lolotwara (Lolotuara)","postal_code":97454},{"province":"Maluku","city":"Maluku Barat Daya","district":"Pulau Pulau Terselatan","urban":"Lekloor","postal_code":97454},{"province":"Maluku","city":"Maluku Barat Daya","district":"Pulau Lakor","urban":"Letoda","postal_code":97454},{"province":"Maluku","city":"Maluku Barat Daya","district":"Kisar Utara","urban":"Lebelau","postal_code":97454},{"province":"Maluku","city":"Maluku Barat Daya","district":"Pulau Letti (Leti Moa Lakor)","urban":"Laitutun","postal_code":97454},{"province":"Maluku","city":"Maluku Barat Daya","district":"Pulau Pulau Terselatan","urban":"Kota Lama","postal_code":97454},{"province":"Maluku","city":"Maluku Barat Daya","district":"Wetar Barat","urban":"Klishatu","postal_code":97454},{"province":"Maluku","city":"Maluku Barat Daya","district":"Moa Lakor","urban":"Klis","postal_code":97454},{"province":"Maluku","city":"Maluku Barat Daya","district":"Pulau Lakor","urban":"Kety (Ketty)","postal_code":97454},{"province":"Maluku","city":"Maluku Barat Daya","district":"Wetar Barat","urban":"Karbubu","postal_code":97454},{"province":"Maluku","city":"Maluku Barat Daya","district":"Moa Lakor","urban":"Kaiwatu","postal_code":97454},{"province":"Maluku","city":"Maluku Barat Daya","district":"Wetar Timur","urban":"Kahilin","postal_code":97454},{"province":"Maluku","city":"Maluku Barat Daya","district":"Kepulauan Romang","urban":"Jerusu","postal_code":97454},{"province":"Maluku","city":"Maluku Barat Daya","district":"Wetar Timur","urban":"Ilway","postal_code":97454},{"province":"Maluku","city":"Maluku Barat Daya","district":"Wetar","urban":"Ilputih","postal_code":97454},{"province":"Maluku","city":"Maluku Barat Daya","district":"Wetar","urban":"Ilwaki","postal_code":97454},{"province":"Maluku","city":"Maluku Barat Daya","district":"Wetar Barat","urban":"Ilmamau","postal_code":97454},{"province":"Maluku","city":"Maluku Barat Daya","district":"Wetar Timur","urban":"Ilpokil","postal_code":97454},{"province":"Maluku","city":"Maluku Barat Daya","district":"Kepulauan Romang","urban":"Hila","postal_code":97454},{"province":"Maluku","city":"Maluku Barat Daya","district":"Wetar","urban":"Hiay","postal_code":97454},{"province":"Maluku","city":"Maluku Barat Daya","district":"Wetar Utara","urban":"Eray","postal_code":97454},{"province":"Maluku","city":"Maluku Barat Daya","district":"Wetar Utara","urban":"Elsulith","postal_code":97454},{"province":"Maluku","city":"Maluku Barat Daya","district":"Pulau Letti (Leti Moa Lakor)","urban":"Batumiau","postal_code":97454},{"province":"Maluku","city":"Maluku Barat Daya","district":"Wetar Timur","urban":"Arwala","postal_code":97454},{"province":"Maluku","city":"Maluku Barat Daya","district":"Wetar","urban":"Amau","postal_code":97454},{"province":"Maluku","city":"Maluku Barat Daya","district":"Pulau Pulau Terselatan","urban":"Abusur","postal_code":97454}]