[{"province":"Maluku","city":"Maluku Tenggara Barat","district":"Wuarlabobar","urban":"Wunlah","postal_code":97463},{"province":"Maluku","city":"Maluku Tenggara Barat","district":"Molu Maru","urban":"Wulmasa","postal_code":97463},{"province":"Maluku","city":"Maluku Tenggara Barat","district":"Nirunmas","urban":"Watmuri","postal_code":97463},{"province":"Maluku","city":"Maluku Tenggara Barat","district":"Nirunmas","urban":"Waturu","postal_code":97463},{"province":"Maluku","city":"Maluku Tenggara Barat","district":"Wuarlabobar","urban":"Watmasa","postal_code":97463},{"province":"Maluku","city":"Maluku Tenggara Barat","district":"Tanimbar Utara","urban":"Watidal","postal_code":97463},{"province":"Maluku","city":"Maluku Tenggara Barat","district":"Yaru","urban":"Walerang","postal_code":97463},{"province":"Maluku","city":"Maluku Tenggara Barat","district":"Molu Maru","urban":"Tutunametal","postal_code":97463},{"province":"Maluku","city":"Maluku Tenggara Barat","district":"Molu Maru","urban":"Wadankou (Wadankau)","postal_code":97463},{"province":"Maluku","city":"Maluku Tenggara Barat","district":"Wuarlabobar","urban":"Teineman","postal_code":97463},{"province":"Maluku","city":"Maluku Tenggara Barat","district":"Yaru","urban":"Sofyanin","postal_code":97463},{"province":"Maluku","city":"Maluku Tenggara Barat","district":"Nirunmas","urban":"Tutukembong","postal_code":97463},{"province":"Maluku","city":"Maluku Tenggara Barat","district":"Yaru","urban":"Rumngeur","postal_code":97463},{"province":"Maluku","city":"Maluku Tenggara Barat","district":"Tanimbar Utara","urban":"Ritabel","postal_code":97463},{"province":"Maluku","city":"Maluku Tenggara Barat","district":"Yaru","urban":"Romean","postal_code":97463},{"province":"Maluku","city":"Maluku Tenggara Barat","district":"Tanimbar Utara","urban":"Ridool","postal_code":97463},{"province":"Maluku","city":"Maluku Tenggara Barat","district":"Kormomolin","urban":"Meyanodas","postal_code":97463},{"province":"Maluku","city":"Maluku Tenggara Barat","district":"Molu Maru","urban":"Nurkat","postal_code":97463},{"province":"Maluku","city":"Maluku Tenggara Barat","district":"Kormomolin","urban":"Meyano Raya","postal_code":97463},{"province":"Maluku","city":"Maluku Tenggara Barat","district":"Kormomolin","urban":"Meyanobab","postal_code":97463},{"province":"Maluku","city":"Maluku Tenggara Barat","district":"Kormomolin","urban":"Lorwembun","postal_code":97463},{"province":"Maluku","city":"Maluku Tenggara Barat","district":"Kormomolin","urban":"Lumasebu","postal_code":97463},{"province":"Maluku","city":"Maluku Tenggara Barat","district":"Nirunmas","urban":"Manglusi","postal_code":97463},{"province":"Maluku","city":"Maluku Tenggara Barat","district":"Wuarlabobar","urban":"Lingada","postal_code":97463},{"province":"Maluku","city":"Maluku Tenggara Barat","district":"Tanimbar Utara","urban":"Lelingluan","postal_code":97463},{"province":"Maluku","city":"Maluku Tenggara Barat","district":"Tanimbar Utara","urban":"Lamdesar Barat","postal_code":97463},{"province":"Maluku","city":"Maluku Tenggara Barat","district":"Tanimbar Utara","urban":"Lamdesar Timur","postal_code":97463},{"province":"Maluku","city":"Maluku Tenggara Barat","district":"Wuarlabobar","urban":"Labobar","postal_code":97463},{"province":"Maluku","city":"Maluku Tenggara Barat","district":"Wuarlabobar","urban":"Kilon","postal_code":97463},{"province":"Maluku","city":"Maluku Tenggara Barat","district":"Tanimbar Utara","urban":"Kelaan","postal_code":97463},{"province":"Maluku","city":"Maluku Tenggara Barat","district":"Tanimbar Utara","urban":"Keliober","postal_code":97463},{"province":"Maluku","city":"Maluku Tenggara Barat","district":"Kormomolin","urban":"Kilmasa","postal_code":97463},{"province":"Maluku","city":"Maluku Tenggara Barat","district":"Wuarlabobar","urban":"Karatat","postal_code":97463},{"province":"Maluku","city":"Maluku Tenggara Barat","district":"Wuarlabobar","urban":"Awear Rumngeur","postal_code":97463},{"province":"Maluku","city":"Maluku Tenggara Barat","district":"Yaru","urban":"Awear","postal_code":97463},{"province":"Maluku","city":"Maluku Tenggara Barat","district":"Nirunmas","urban":"Arma","postal_code":97463},{"province":"Maluku","city":"Maluku Tenggara Barat","district":"Kormomolin","urban":"Alusi Tamrian","postal_code":97463},{"province":"Maluku","city":"Maluku Tenggara Barat","district":"Kormomolin","urban":"Alusi Bukyalin (Bukyalim)","postal_code":97463},{"province":"Maluku","city":"Maluku Tenggara Barat","district":"Kormomolin","urban":"Alusi Kelaan","postal_code":97463},{"province":"Maluku","city":"Maluku Tenggara Barat","district":"Kormomolin","urban":"Alusi Krawain","postal_code":97463},{"province":"Maluku","city":"Maluku Tenggara Barat","district":"Kormomolin","urban":"Alusi Batjas","postal_code":97463},{"province":"Maluku","city":"Maluku Tenggara Barat","district":"Molu Maru","urban":"Adodo Molo","postal_code":97463},{"province":"Maluku","city":"Maluku Tenggara Barat","district":"Yaru","urban":"Adodo Fordata","postal_code":97463},{"province":"Maluku","city":"Maluku Tenggara Barat","district":"Wuarlabobar","urban":"Abat","postal_code":97463}]