[{"province":"Maluku","city":"Maluku Tenggara Barat","district":"Tanimbar Selatan","urban":"Wowonda","postal_code":97464},{"province":"Maluku","city":"Maluku Tenggara Barat","district":"Wermakatian (Wer Maktian)","urban":"Wermatang","postal_code":97464},{"province":"Maluku","city":"Maluku Tenggara Barat","district":"Wermakatian (Wer Maktian)","urban":"Welutu","postal_code":97464},{"province":"Maluku","city":"Maluku Tenggara Barat","district":"Wermakatian (Wer Maktian)","urban":"Weratan","postal_code":97464},{"province":"Maluku","city":"Maluku Tenggara Barat","district":"Tanimbar Selatan","urban":"Sifnana","postal_code":97464},{"province":"Maluku","city":"Maluku Tenggara Barat","district":"Wermakatian (Wer Maktian)","urban":"Themin","postal_code":97464},{"province":"Maluku","city":"Maluku Tenggara Barat","district":"Wertamrian","urban":"Tumbur","postal_code":97464},{"province":"Maluku","city":"Maluku Tenggara Barat","district":"Tanimbar Selatan","urban":"Saumlaki","postal_code":97464},{"province":"Maluku","city":"Maluku Tenggara Barat","district":"Wertamrian","urban":"Sangliat Dol","postal_code":97464},{"province":"Maluku","city":"Maluku Tenggara Barat","district":"Wertamrian","urban":"Sangliat Krawain","postal_code":97464},{"province":"Maluku","city":"Maluku Tenggara Barat","district":"Wermakatian (Wer Maktian)","urban":"Rumasalut","postal_code":97464},{"province":"Maluku","city":"Maluku Tenggara Barat","district":"Tanimbar Selatan","urban":"Olilit","postal_code":97464},{"province":"Maluku","city":"Maluku Tenggara Barat","district":"Wermakatian (Wer Maktian)","urban":"Makatiang","postal_code":97464},{"province":"Maluku","city":"Maluku Tenggara Barat","district":"Wermakatian (Wer Maktian)","urban":"Marantutul","postal_code":97464},{"province":"Maluku","city":"Maluku Tenggara Barat","district":"Tanimbar Selatan","urban":"Matakus","postal_code":97464},{"province":"Maluku","city":"Maluku Tenggara Barat","district":"Wertamrian","urban":"Lorulung","postal_code":97464},{"province":"Maluku","city":"Maluku Tenggara Barat","district":"Tanimbar Selatan","urban":"Lermatang","postal_code":97464},{"province":"Maluku","city":"Maluku Tenggara Barat","district":"Tanimbar Selatan","urban":"Latdalam","postal_code":97464},{"province":"Maluku","city":"Maluku Tenggara Barat","district":"Tanimbar Selatan","urban":"Lauran","postal_code":97464},{"province":"Maluku","city":"Maluku Tenggara Barat","district":"Wermakatian (Wer Maktian)","urban":"Kamatubun","postal_code":97464},{"province":"Maluku","city":"Maluku Tenggara Barat","district":"Tanimbar Selatan","urban":"Kabiarat Raya","postal_code":97464},{"province":"Maluku","city":"Maluku Tenggara Barat","district":"Tanimbar Selatan","urban":"Bomaki","postal_code":97464},{"province":"Maluku","city":"Maluku Tenggara Barat","district":"Tanimbar Selatan","urban":"Ilngei","postal_code":97464},{"province":"Maluku","city":"Maluku Tenggara Barat","district":"Wermakatian (Wer Maktian)","urban":"Batu Putih","postal_code":97464},{"province":"Maluku","city":"Maluku Tenggara Barat","district":"Wertamrian","urban":"Arui Das","postal_code":97464},{"province":"Maluku","city":"Maluku Tenggara Barat","district":"Wertamrian","urban":"Atubul Raya (Atabul Dol)","postal_code":97464},{"province":"Maluku","city":"Maluku Tenggara Barat","district":"Wertamrian","urban":"Amdasa","postal_code":97464},{"province":"Maluku","city":"Maluku Tenggara Barat","district":"Wertamrian","urban":"Arui Bab","postal_code":97464}]