[{"province":"Maluku","city":"Seram Bagian Timur","district":"Teluk Waru","urban":"Waru","postal_code":97554},{"province":"Maluku","city":"Seram Bagian Timur","district":"Werinama","urban":"Werinama","postal_code":97554},{"province":"Maluku","city":"Seram Bagian Timur","district":"Bula Barat","urban":"Waiketam Baru","postal_code":97554},{"province":"Maluku","city":"Seram Bagian Timur","district":"Bula Barat","urban":"Waisamet","postal_code":97554},{"province":"Maluku","city":"Seram Bagian Timur","district":"Siwalalat","urban":"Tunsai","postal_code":97554},{"province":"Maluku","city":"Seram Bagian Timur","district":"Bula Barat","urban":"Waematakabo","postal_code":97554},{"province":"Maluku","city":"Seram Bagian Timur","district":"Teluk Waru","urban":"Tubir Wasiwang","postal_code":97554},{"province":"Maluku","city":"Seram Bagian Timur","district":"Werinama","urban":"Tum","postal_code":97554},{"province":"Maluku","city":"Seram Bagian Timur","district":"Werinama","urban":"Tobo","postal_code":97554},{"province":"Maluku","city":"Seram Bagian Timur","district":"Bula","urban":"Tansi Ambon","postal_code":97554},{"province":"Maluku","city":"Seram Bagian Timur","district":"Teluk Waru","urban":"Solang","postal_code":97554},{"province":"Maluku","city":"Seram Bagian Timur","district":"Bula Barat","urban":"Sumber Agung","postal_code":97554},{"province":"Maluku","city":"Seram Bagian Timur","district":"Bula Barat","urban":"Silohan","postal_code":97554},{"province":"Maluku","city":"Seram Bagian Timur","district":"Bula","urban":"Salas","postal_code":97554},{"province":"Maluku","city":"Seram Bagian Timur","district":"Bula","urban":"Sesar","postal_code":97554},{"province":"Maluku","city":"Seram Bagian Timur","district":"Siwalalat","urban":"Sabuai","postal_code":97554},{"province":"Maluku","city":"Seram Bagian Timur","district":"Bula Barat","urban":"Rukun Jaya","postal_code":97554},{"province":"Maluku","city":"Seram Bagian Timur","district":"Siwalalat","urban":"Polin","postal_code":97554},{"province":"Maluku","city":"Seram Bagian Timur","district":"Werinama","urban":"Osong","postal_code":97554},{"province":"Maluku","city":"Seram Bagian Timur","district":"Siwalalat","urban":"Nayet","postal_code":97554},{"province":"Maluku","city":"Seram Bagian Timur","district":"Teluk Waru","urban":"Nama Lena","postal_code":97554},{"province":"Maluku","city":"Seram Bagian Timur","district":"Bula","urban":"Limumir","postal_code":97554},{"province":"Maluku","city":"Seram Bagian Timur","district":"Teluk Waru","urban":"Nama Andan","postal_code":97554},{"province":"Maluku","city":"Seram Bagian Timur","district":"Siwalalat","urban":"Naiwel Ahinulin","postal_code":97554},{"province":"Maluku","city":"Seram Bagian Timur","district":"Siwalalat","urban":"Lapela","postal_code":97554},{"province":"Maluku","city":"Seram Bagian Timur","district":"Siwalalat","urban":"Liliama","postal_code":97554},{"province":"Maluku","city":"Seram Bagian Timur","district":"Teluk Waru","urban":"Karay","postal_code":97554},{"province":"Maluku","city":"Seram Bagian Timur","district":"Bula","urban":"Kampung Gorom","postal_code":97554},{"province":"Maluku","city":"Seram Bagian Timur","district":"Bula","urban":"Kampung Wailola","postal_code":97554},{"province":"Maluku","city":"Seram Bagian Timur","district":"Bula Barat","urban":"Jakarta Baru","postal_code":97554},{"province":"Maluku","city":"Seram Bagian Timur","district":"Bula Barat","urban":"Jembatan Basah","postal_code":97554},{"province":"Maluku","city":"Seram Bagian Timur","district":"Teluk Waru","urban":"Kampung Baru","postal_code":97554},{"province":"Maluku","city":"Seram Bagian Timur","district":"Bula Barat","urban":"Hote","postal_code":97554},{"province":"Maluku","city":"Seram Bagian Timur","district":"Werinama","urban":"Funa Naibaya","postal_code":97554},{"province":"Maluku","city":"Seram Bagian Timur","district":"Werinama","urban":"Gusalaut","postal_code":97554},{"province":"Maluku","city":"Seram Bagian Timur","district":"Werinama","urban":"Hatumeten / Hatuimeten","postal_code":97554},{"province":"Maluku","city":"Seram Bagian Timur","district":"Bula","urban":"Englas","postal_code":97554},{"province":"Maluku","city":"Seram Bagian Timur","district":"Bula","urban":"Fattolo","postal_code":97554},{"province":"Maluku","city":"Seram Bagian Timur","district":"Siwalalat","urban":"Dihil","postal_code":97554},{"province":"Maluku","city":"Seram Bagian Timur","district":"Siwalalat","urban":"Elnusa","postal_code":97554},{"province":"Maluku","city":"Seram Bagian Timur","district":"Bula","urban":"Bula Air Fatolo","postal_code":97554},{"province":"Maluku","city":"Seram Bagian Timur","district":"Teluk Waru","urban":"Dawang","postal_code":97554},{"province":"Maluku","city":"Seram Bagian Timur","district":"Werinama","urban":"Betuasa (Batuasa)","postal_code":97554},{"province":"Maluku","city":"Seram Bagian Timur","district":"Bula Barat","urban":"Benggoi (Banggoi)","postal_code":97554},{"province":"Maluku","city":"Seram Bagian Timur","district":"Werinama","urban":"Bemo","postal_code":97554},{"province":"Maluku","city":"Seram Bagian Timur","district":"Werinama","urban":"Bemo Perak","postal_code":97554},{"province":"Maluku","city":"Seram Bagian Timur","district":"Teluk Waru","urban":"Bellis","postal_code":97554},{"province":"Maluku","city":"Seram Bagian Timur","district":"Werinama","urban":"Atiahu","postal_code":97554},{"province":"Maluku","city":"Seram Bagian Timur","district":"Bula Barat","urban":"Aki Jaya","postal_code":97554},{"province":"Maluku","city":"Seram Bagian Timur","district":"Siwalalat","urban":"Abulate","postal_code":97554},{"province":"Maluku","city":"Seram Bagian Timur","district":"Siwalalat","urban":"Adabai","postal_code":97554}]