[{"province":"Maluku","city":"Maluku Tengah","district":"Seram Utara Timur Kobi","urban":"Way Asih (Waiasih)","postal_code":97557},{"province":"Maluku","city":"Maluku Tengah","district":"Seram Utara Barat","urban":"Warasiwa","postal_code":97557},{"province":"Maluku","city":"Maluku Tengah","district":"Seram Utara Barat","urban":"Waiulu","postal_code":97557},{"province":"Maluku","city":"Maluku Tengah","district":"Seram Utara Timur Kobi","urban":"Waitonipa","postal_code":97557},{"province":"Maluku","city":"Maluku Tengah","district":"Seram Utara Timur Seti","urban":"Waiputih","postal_code":97557},{"province":"Maluku","city":"Maluku Tengah","district":"Seram Utara Timur Seti","urban":"Waitila","postal_code":97557},{"province":"Maluku","city":"Maluku Tengah","district":"Seram Utara Timur Kobi","urban":"Waimusi","postal_code":97557},{"province":"Maluku","city":"Maluku Tengah","district":"Seram Utara Timur Seti","urban":"Wailoping","postal_code":97557},{"province":"Maluku","city":"Maluku Tengah","district":"Seram Utara Timur Seti","urban":"Waimusal","postal_code":97557},{"province":"Maluku","city":"Maluku Tengah","district":"Seram Utara","urban":"Wahai","postal_code":97557},{"province":"Maluku","city":"Maluku Tengah","district":"Seram Utara Timur Seti","urban":"Tanah Merah","postal_code":97557},{"province":"Maluku","city":"Maluku Tengah","district":"Seram Utara Timur Seti","urban":"Tihuanaa","postal_code":97557},{"province":"Maluku","city":"Maluku Tengah","district":"Seram Utara","urban":"Sawai","postal_code":97557},{"province":"Maluku","city":"Maluku Tengah","district":"Seram Utara Timur Seti","urban":"Seti","postal_code":97557},{"province":"Maluku","city":"Maluku Tengah","district":"Seram Utara Timur Kobi","urban":"Samai","postal_code":97557},{"province":"Maluku","city":"Maluku Tengah","district":"Seram Utara Timur Kobi","urban":"Sariputih","postal_code":97557},{"province":"Maluku","city":"Maluku Tengah","district":"Seram Utara Barat","urban":"Saleman","postal_code":97557},{"province":"Maluku","city":"Maluku Tengah","district":"Seram Utara Barat","urban":"Rumahwey","postal_code":97557},{"province":"Maluku","city":"Maluku Tengah","district":"Seram Utara","urban":"Roho","postal_code":97557},{"province":"Maluku","city":"Maluku Tengah","district":"Seram Utara","urban":"Rumah Sokat","postal_code":97557},{"province":"Maluku","city":"Maluku Tengah","district":"Seram Utara Barat","urban":"Pasanea","postal_code":97557},{"province":"Maluku","city":"Maluku Tengah","district":"Seram Utara","urban":"Pasahari","postal_code":97557},{"province":"Maluku","city":"Maluku Tengah","district":"Seram Utara Barat","urban":"Paa","postal_code":97557},{"province":"Maluku","city":"Maluku Tengah","district":"Seram Utara Timur Seti","urban":"Namto","postal_code":97557},{"province":"Maluku","city":"Maluku Tengah","district":"Seram Utara Timur Kobi","urban":"Marasahua","postal_code":97557},{"province":"Maluku","city":"Maluku Tengah","district":"Seram Utara Timur Kobi","urban":"Morokai (Morokay)","postal_code":97557},{"province":"Maluku","city":"Maluku Tengah","district":"Seram Utara Timur Kobi","urban":"Maneo Rendah","postal_code":97557},{"province":"Maluku","city":"Maluku Tengah","district":"Seram Utara","urban":"Manusela","postal_code":97557},{"province":"Maluku","city":"Maluku Tengah","district":"Seram Utara Timur Kobi","urban":"Leaway (Leawai)","postal_code":97557},{"province":"Maluku","city":"Maluku Tengah","district":"Seram Utara","urban":"Malaku","postal_code":97557},{"province":"Maluku","city":"Maluku Tengah","district":"Seram Utara Barat","urban":"Lisabata Timur","postal_code":97557},{"province":"Maluku","city":"Maluku Tengah","district":"Seram Utara Barat","urban":"Labuan","postal_code":97557},{"province":"Maluku","city":"Maluku Tengah","district":"Seram Utara Barat","urban":"Latea","postal_code":97557},{"province":"Maluku","city":"Maluku Tengah","district":"Seram Utara Timur Seti","urban":"Kobisonta","postal_code":97557},{"province":"Maluku","city":"Maluku Tengah","district":"Seram Utara Timur Kobi","urban":"Kobi","postal_code":97557},{"province":"Maluku","city":"Maluku Tengah","district":"Seram Utara Timur Kobi","urban":"Kobimukti","postal_code":97557},{"province":"Maluku","city":"Maluku Tengah","district":"Seram Utara","urban":"Kanikeh (Kanike)","postal_code":97557},{"province":"Maluku","city":"Maluku Tengah","district":"Seram Utara Barat","urban":"Kalutu (Karlutu Kara)","postal_code":97557},{"province":"Maluku","city":"Maluku Tengah","district":"Seram Utara","urban":"Huaulu","postal_code":97557},{"province":"Maluku","city":"Maluku Tengah","district":"Seram Utara","urban":"Kaloa","postal_code":97557},{"province":"Maluku","city":"Maluku Tengah","district":"Seram Utara Barat","urban":"Gale-Gale","postal_code":97557},{"province":"Maluku","city":"Maluku Tengah","district":"Seram Utara Barat","urban":"Horale","postal_code":97557},{"province":"Maluku","city":"Maluku Tengah","district":"Seram Utara Timur Seti","urban":"Aketernate","postal_code":97557},{"province":"Maluku","city":"Maluku Tengah","district":"Seram Utara","urban":"Besi","postal_code":97557},{"province":"Maluku","city":"Maluku Tengah","district":"Seram Utara","urban":"Air Besar","postal_code":97557}]