[{"province":"Maluku","city":"Maluku Tengah","district":"Telutih","urban":"Wolu","postal_code":97553},{"province":"Maluku","city":"Maluku Tengah","district":"Telutih","urban":"Yamalatu","postal_code":97553},{"province":"Maluku","city":"Maluku Tengah","district":"Tehoru","urban":"Yaputih","postal_code":97553},{"province":"Maluku","city":"Maluku Tengah","district":"Telutih","urban":"Ulahahan","postal_code":97553},{"province":"Maluku","city":"Maluku Tengah","district":"Telutih","urban":"Tehua","postal_code":97553},{"province":"Maluku","city":"Maluku Tengah","district":"Tehoru","urban":"Tehoru","postal_code":97553},{"province":"Maluku","city":"Maluku Tengah","district":"Tehoru","urban":"Teluti Baru","postal_code":97553},{"province":"Maluku","city":"Maluku Tengah","district":"Tehoru","urban":"Salamahu","postal_code":97553},{"province":"Maluku","city":"Maluku Tengah","district":"Tehoru","urban":"Saunulu","postal_code":97553},{"province":"Maluku","city":"Maluku Tengah","district":"Telutih","urban":"Maneo Ratu","postal_code":97553},{"province":"Maluku","city":"Maluku Tengah","district":"Tehoru","urban":"Mosso","postal_code":97553},{"province":"Maluku","city":"Maluku Tengah","district":"Tehoru","urban":"Piliama (Piliana)","postal_code":97553},{"province":"Maluku","city":"Maluku Tengah","district":"Telutih","urban":"Lahakaba","postal_code":97553},{"province":"Maluku","city":"Maluku Tengah","district":"Telutih","urban":"Laimu","postal_code":97553},{"province":"Maluku","city":"Maluku Tengah","district":"Telutih","urban":"Lafa","postal_code":97553},{"province":"Maluku","city":"Maluku Tengah","district":"Telutih","urban":"Laha","postal_code":97553},{"province":"Maluku","city":"Maluku Tengah","district":"Telutih","urban":"Hunisi","postal_code":97553},{"province":"Maluku","city":"Maluku Tengah","district":"Tehoru","urban":"Haya","postal_code":97553},{"province":"Maluku","city":"Maluku Tengah","district":"Tehoru","urban":"Hatu","postal_code":97553},{"province":"Maluku","city":"Maluku Tengah","district":"Tehoru","urban":"Hatumete","postal_code":97553}]