[{"province":"Maluku","city":"Seram Bagian Barat","district":"Elpaputih","urban":"Watuy (Watui)","postal_code":97566},{"province":"Maluku","city":"Seram Bagian Barat","district":"Kairatu Barat","urban":"Waisarisa","postal_code":97566},{"province":"Maluku","city":"Seram Bagian Barat","district":"Elpaputih","urban":"Waisa","postal_code":97566},{"province":"Maluku","city":"Seram Bagian Barat","district":"Kairatu","urban":"Waipirit","postal_code":97566},{"province":"Maluku","city":"Seram Bagian Barat","district":"Kairatu","urban":"Waimital","postal_code":97566},{"province":"Maluku","city":"Seram Bagian Barat","district":"Kairatu Barat","urban":"Waihatu","postal_code":97566},{"province":"Maluku","city":"Seram Bagian Barat","district":"Kairatu Barat","urban":"Waesamu (Waisamu)","postal_code":97566},{"province":"Maluku","city":"Seram Bagian Barat","district":"Kairatu","urban":"Uraur","postal_code":97566},{"province":"Maluku","city":"Seram Bagian Barat","district":"Amalatu","urban":"Tomalehu","postal_code":97566},{"province":"Maluku","city":"Seram Bagian Barat","district":"Amalatu","urban":"Tihulale","postal_code":97566},{"province":"Maluku","city":"Seram Bagian Barat","district":"Amalatu","urban":"Tala","postal_code":97566},{"province":"Maluku","city":"Seram Bagian Barat","district":"Elpaputih","urban":"Sumeith/Sameith Pasinaro","postal_code":97566},{"province":"Maluku","city":"Seram Bagian Barat","district":"Kairatu","urban":"Seruawan","postal_code":97566},{"province":"Maluku","city":"Seram Bagian Barat","district":"Amalatu","urban":"Seriholo","postal_code":97566},{"province":"Maluku","city":"Seram Bagian Barat","district":"Inamosol","urban":"Rumberu","postal_code":97566},{"province":"Maluku","city":"Seram Bagian Barat","district":"Elpaputih","urban":"Sanahu","postal_code":97566},{"province":"Maluku","city":"Seram Bagian Barat","district":"Amalatu","urban":"Rumahkay","postal_code":97566},{"province":"Maluku","city":"Seram Bagian Barat","district":"Inamosol","urban":"Rambatu","postal_code":97566},{"province":"Maluku","city":"Seram Bagian Barat","district":"Kairatu Barat","urban":"Nuruwe (Nurue)","postal_code":97566},{"province":"Maluku","city":"Seram Bagian Barat","district":"Inamosol","urban":"Manusa","postal_code":97566},{"province":"Maluku","city":"Seram Bagian Barat","district":"Kairatu Barat","urban":"Lohiatala","postal_code":97566},{"province":"Maluku","city":"Seram Bagian Barat","district":"Amalatu","urban":"Latu","postal_code":97566},{"province":"Maluku","city":"Seram Bagian Barat","district":"Kairatu","urban":"Kamarian","postal_code":97566},{"province":"Maluku","city":"Seram Bagian Barat","district":"Kairatu Barat","urban":"Kamal","postal_code":97566},{"province":"Maluku","city":"Seram Bagian Barat","district":"Kairatu","urban":"Kairatu","postal_code":97566},{"province":"Maluku","city":"Seram Bagian Barat","district":"Elpaputih","urban":"Huku Kecil","postal_code":97566},{"province":"Maluku","city":"Seram Bagian Barat","district":"Inamosol","urban":"Hunitetu","postal_code":97566},{"province":"Maluku","city":"Seram Bagian Barat","district":"Inamosol","urban":"Huku Anakota","postal_code":97566},{"province":"Maluku","city":"Seram Bagian Barat","district":"Amalatu","urban":"Hualoy","postal_code":97566},{"province":"Maluku","city":"Seram Bagian Barat","district":"Kairatu","urban":"Hatusua","postal_code":97566},{"province":"Maluku","city":"Seram Bagian Barat","district":"Elpaputih","urban":"Elpaputih","postal_code":97566},{"province":"Maluku","city":"Seram Bagian Barat","district":"Elpaputih","urban":"Abio Ahiolo","postal_code":97566}]