[{"province":"Maluku","city":"Seram Bagian Barat","district":"Seram Barat","urban":"Neniari / Niniari","postal_code":97562},{"province":"Maluku","city":"Seram Bagian Barat","district":"Seram Barat","urban":"Piru","postal_code":97562},{"province":"Maluku","city":"Seram Bagian Barat","district":"Seram Barat","urban":"Lumoly (Lumoli)","postal_code":97562},{"province":"Maluku","city":"Seram Bagian Barat","district":"Seram Barat","urban":"Morekau","postal_code":97562},{"province":"Maluku","city":"Seram Bagian Barat","district":"Huamual","urban":"Luhu","postal_code":97562},{"province":"Maluku","city":"Seram Bagian Barat","district":"Huamual","urban":"Lokki","postal_code":97562},{"province":"Maluku","city":"Seram Bagian Barat","district":"Huamual","urban":"Kulur","postal_code":97562},{"province":"Maluku","city":"Seram Bagian Barat","district":"Seram Barat","urban":"Kaibobo (Kaibobu)","postal_code":97562},{"province":"Maluku","city":"Seram Bagian Barat","district":"Seram Barat","urban":"Kawa","postal_code":97562},{"province":"Maluku","city":"Seram Bagian Barat","district":"Seram Barat","urban":"Eti / Ety","postal_code":97562},{"province":"Maluku","city":"Seram Bagian Barat","district":"Huamual","urban":"Iha","postal_code":97562},{"province":"Maluku","city":"Seram Bagian Barat","district":"Huamual","urban":"Ariate","postal_code":97562}]