[{"province":"Maluku","city":"Seram Bagian Barat","district":"Huamual Belakang (Waisala)","urban":"Waesala (Waisala)","postal_code":97567},{"province":"Maluku","city":"Seram Bagian Barat","district":"Kepulauan Manipa","urban":"Tuniwara","postal_code":97567},{"province":"Maluku","city":"Seram Bagian Barat","district":"Huamual Belakang (Waisala)","urban":"Tonujaya","postal_code":97567},{"province":"Maluku","city":"Seram Bagian Barat","district":"Kepulauan Manipa","urban":"Tomalehu Barat (Tumalehu Barat)","postal_code":97567},{"province":"Maluku","city":"Seram Bagian Barat","district":"Kepulauan Manipa","urban":"Tomalehu Timur (Tumalehu Timur)","postal_code":97567},{"province":"Maluku","city":"Seram Bagian Barat","district":"Huamual Belakang (Waisala)","urban":"Tahalupu","postal_code":97567},{"province":"Maluku","city":"Seram Bagian Barat","district":"Kepulauan Manipa","urban":"Masawoi","postal_code":97567},{"province":"Maluku","city":"Seram Bagian Barat","district":"Huamual Belakang (Waisala)","urban":"Sole","postal_code":97567},{"province":"Maluku","city":"Seram Bagian Barat","district":"Kepulauan Manipa","urban":"Luhutuban","postal_code":97567},{"province":"Maluku","city":"Seram Bagian Barat","district":"Kepulauan Manipa","urban":"Kelang Asaude","postal_code":97567},{"province":"Maluku","city":"Seram Bagian Barat","district":"Huamual Belakang (Waisala)","urban":"Buano/Boano Utara","postal_code":97567},{"province":"Maluku","city":"Seram Bagian Barat","district":"Huamual Belakang (Waisala)","urban":"Buano/Boano Selatan","postal_code":97567},{"province":"Maluku","city":"Seram Bagian Barat","district":"Kepulauan Manipa","urban":"Buano Hatuputih","postal_code":97567},{"province":"Maluku","city":"Seram Bagian Barat","district":"Huamual Belakang (Waisala)","urban":"Alang Asaude","postal_code":97567}]