[{"province":"Maluku","city":"Seram Bagian Barat","district":"Taniwel Timur","urban":"Waraloin","postal_code":97561},{"province":"Maluku","city":"Seram Bagian Barat","district":"Taniwel Timur","urban":"Walakone","postal_code":97561},{"province":"Maluku","city":"Seram Bagian Barat","district":"Taniwel","urban":"Wakolo","postal_code":97561},{"province":"Maluku","city":"Seram Bagian Barat","district":"Taniwel Timur","urban":"Uwen Pantai","postal_code":97561},{"province":"Maluku","city":"Seram Bagian Barat","district":"Taniwel","urban":"Uweth / Uweh","postal_code":97561},{"province":"Maluku","city":"Seram Bagian Barat","district":"Taniwel Timur","urban":"Tounusa","postal_code":97561},{"province":"Maluku","city":"Seram Bagian Barat","district":"Taniwel","urban":"Taniwel","postal_code":97561},{"province":"Maluku","city":"Seram Bagian Barat","district":"Taniwel Timur","urban":"Solea","postal_code":97561},{"province":"Maluku","city":"Seram Bagian Barat","district":"Taniwel Timur","urban":"Sukaraja","postal_code":97561},{"province":"Maluku","city":"Seram Bagian Barat","district":"Taniwel Timur","urban":"Soakasale","postal_code":97561},{"province":"Maluku","city":"Seram Bagian Barat","district":"Taniwel Timur","urban":"Sohuwe","postal_code":97561},{"province":"Maluku","city":"Seram Bagian Barat","district":"Taniwel","urban":"Nukuhai","postal_code":97561},{"province":"Maluku","city":"Seram Bagian Barat","district":"Taniwel","urban":"Rumahsoal","postal_code":97561},{"province":"Maluku","city":"Seram Bagian Barat","district":"Taniwel","urban":"Nuniali","postal_code":97561},{"province":"Maluku","city":"Seram Bagian Barat","district":"Taniwel","urban":"Riring","postal_code":97561},{"province":"Maluku","city":"Seram Bagian Barat","district":"Taniwel","urban":"Pasinalo","postal_code":97561},{"province":"Maluku","city":"Seram Bagian Barat","district":"Taniwel","urban":"Patahuwe","postal_code":97561},{"province":"Maluku","city":"Seram Bagian Barat","district":"Taniwel","urban":"Niwelehu","postal_code":97561},{"province":"Maluku","city":"Seram Bagian Barat","district":"Taniwel","urban":"Niniari","postal_code":97561},{"province":"Maluku","city":"Seram Bagian Barat","district":"Taniwel","urban":"Murnaten / Mornaten","postal_code":97561},{"province":"Maluku","city":"Seram Bagian Barat","district":"Taniwel","urban":"Nikulukan","postal_code":97561},{"province":"Maluku","city":"Seram Bagian Barat","district":"Taniwel Timur","urban":"Maloang","postal_code":97561},{"province":"Maluku","city":"Seram Bagian Barat","district":"Taniwel Timur","urban":"Masihuwey (Musihbuway)","postal_code":97561},{"province":"Maluku","city":"Seram Bagian Barat","district":"Taniwel Timur","urban":"Matapa","postal_code":97561},{"province":"Maluku","city":"Seram Bagian Barat","district":"Taniwel Timur","urban":"Lumahpelu (Lumapelu)","postal_code":97561},{"province":"Maluku","city":"Seram Bagian Barat","district":"Taniwel Timur","urban":"Makububui","postal_code":97561},{"province":"Maluku","city":"Seram Bagian Barat","district":"Taniwel","urban":"Lohia Sapalewa","postal_code":97561},{"province":"Maluku","city":"Seram Bagian Barat","district":"Taniwel","urban":"Lisabata (Lisabata Barat)","postal_code":97561},{"province":"Maluku","city":"Seram Bagian Barat","district":"Taniwel Timur","urban":"Lumahlatal (Lumalatal)","postal_code":97561},{"province":"Maluku","city":"Seram Bagian Barat","district":"Taniwel","urban":"Kasieh","postal_code":97561},{"province":"Maluku","city":"Seram Bagian Barat","district":"Taniwel","urban":"Laturake","postal_code":97561},{"province":"Maluku","city":"Seram Bagian Barat","district":"Taniwel","urban":"Hulung","postal_code":97561},{"province":"Maluku","city":"Seram Bagian Barat","district":"Taniwel Timur","urban":"Hatunuru","postal_code":97561},{"province":"Maluku","city":"Seram Bagian Barat","district":"Taniwel","urban":"Buria","postal_code":97561}]