[{"province":"Maluku","city":"Buru Selatan","district":"Waesama","urban":"Waeteba (Waetaba)","postal_code":97574},{"province":"Maluku","city":"Buru Selatan","district":"Waesama","urban":"Waesili","postal_code":97574},{"province":"Maluku","city":"Buru Selatan","district":"Waesama","urban":"Waetawa","postal_code":97574},{"province":"Maluku","city":"Buru Selatan","district":"Waesama","urban":"Waemasing","postal_code":97574},{"province":"Maluku","city":"Buru Selatan","district":"Waesama","urban":"Waelikut","postal_code":97574},{"province":"Maluku","city":"Buru Selatan","district":"Waesama","urban":"Simi","postal_code":97574},{"province":"Maluku","city":"Buru Selatan","district":"Waesama","urban":"Pohon Batu","postal_code":97574},{"province":"Maluku","city":"Buru Selatan","district":"Waesama","urban":"Lena","postal_code":97574},{"province":"Maluku","city":"Buru Selatan","district":"Waesama","urban":"Hote","postal_code":97574},{"province":"Maluku","city":"Buru Selatan","district":"Waesama","urban":"Batu Kasa","postal_code":97574},{"province":"Maluku","city":"Buru","district":"Waelata","urban":"Widit","postal_code":97574},{"province":"Maluku","city":"Buru","district":"Lolong Guba","urban":"Wapsalit","postal_code":97574},{"province":"Maluku","city":"Buru","district":"Waeapo","urban":"Wanareja","postal_code":97574},{"province":"Maluku","city":"Buru","district":"Lolong Guba","urban":"Wanakarta","postal_code":97574},{"province":"Maluku","city":"Buru","district":"Waelata","urban":"Waetina","postal_code":97574},{"province":"Maluku","city":"Buru","district":"Waelata","urban":"Waflan","postal_code":97574},{"province":"Maluku","city":"Buru","district":"Waelata","urban":"Waflan","postal_code":97574},{"province":"Maluku","city":"Buru","district":"Waeapo","urban":"Waetele","postal_code":97574},{"province":"Maluku","city":"Buru","district":"Waeapo","urban":"Waenetat","postal_code":97574},{"province":"Maluku","city":"Buru","district":"Batabual","urban":"Waemorat","postal_code":97574},{"province":"Maluku","city":"Buru","district":"Waelata","urban":"Waelo","postal_code":97574},{"province":"Maluku","city":"Buru","district":"Teluk Kaiely","urban":"Waelapia","postal_code":97574},{"province":"Maluku","city":"Buru","district":"Waelata","urban":"Waeleman","postal_code":97574},{"province":"Maluku","city":"Buru","district":"Waeapo","urban":"Waekasar","postal_code":97574},{"province":"Maluku","city":"Buru","district":"Waeapo","urban":"Waekerta","postal_code":97574},{"province":"Maluku","city":"Buru","district":"Waelata","urban":"Waehata","postal_code":97574},{"province":"Maluku","city":"Buru","district":"Lolong Guba","urban":"Wabloy","postal_code":97574},{"province":"Maluku","city":"Buru","district":"Lolong Guba","urban":"Waegeren","postal_code":97574},{"province":"Maluku","city":"Buru","district":"Teluk Kaiely","urban":"Seith","postal_code":97574},{"province":"Maluku","city":"Buru","district":"Lolong Guba","urban":"Tifu","postal_code":97574},{"province":"Maluku","city":"Buru","district":"Waeapo","urban":"Savana Jaya","postal_code":97574},{"province":"Maluku","city":"Buru","district":"Waelata","urban":"Parbulu","postal_code":97574},{"province":"Maluku","city":"Buru","district":"Lolong Guba","urban":"Ohilahin","postal_code":97574},{"province":"Maluku","city":"Buru","district":"Batabual","urban":"Pela","postal_code":97574},{"province":"Maluku","city":"Buru","district":"Lolong Guba","urban":"Nafrua","postal_code":97574},{"province":"Maluku","city":"Buru","district":"Batabual","urban":"Namlea Ilath","postal_code":97574},{"province":"Maluku","city":"Buru","district":"Teluk Kaiely","urban":"Masarete","postal_code":97574},{"province":"Maluku","city":"Buru","district":"Lolong Guba","urban":"Kubalahin","postal_code":97574},{"province":"Maluku","city":"Buru","district":"Lolong Guba","urban":"Lele","postal_code":97574},{"province":"Maluku","city":"Buru","district":"Teluk Kaiely","urban":"Kaiely (Kayeli)","postal_code":97574},{"province":"Maluku","city":"Buru","district":"Teluk Kaiely","urban":"Kaki Air","postal_code":97574},{"province":"Maluku","city":"Buru","district":"Batabual","urban":"Ilath","postal_code":97574},{"province":"Maluku","city":"Buru","district":"Lolong Guba","urban":"Grandeng","postal_code":97574},{"province":"Maluku","city":"Buru","district":"Waeapo","urban":"Gogorea","postal_code":97574},{"province":"Maluku","city":"Buru","district":"Waelata","urban":"Deboway / Debowae","postal_code":97574},{"province":"Maluku","city":"Buru","district":"Waelata","urban":"Dava","postal_code":97574},{"province":"Maluku","city":"Buru","district":"Batabual","urban":"Batu Jungku","postal_code":97574},{"province":"Maluku","city":"Buru","district":"Waelata","urban":"Basalale","postal_code":97574}]