[{"province":"Maluku","city":"Buru","district":"Waplau","urban":"Waprea","postal_code":97571},{"province":"Maluku","city":"Buru","district":"Lilialy","urban":"Waimiting (Waemiting)","postal_code":97571},{"province":"Maluku","city":"Buru","district":"Waplau","urban":"Waplau","postal_code":97571},{"province":"Maluku","city":"Buru","district":"Waplau","urban":"Wailihang (Waelihang)","postal_code":97571},{"province":"Maluku","city":"Buru","district":"Waplau","urban":"Waeura","postal_code":97571},{"province":"Maluku","city":"Buru","district":"Waplau","urban":"Waepotih","postal_code":97571},{"province":"Maluku","city":"Buru","district":"Lilialy","urban":"Waeperang","postal_code":97571},{"province":"Maluku","city":"Buru","district":"Lilialy","urban":"Ubung","postal_code":97571},{"province":"Maluku","city":"Buru","district":"Waplau","urban":"Skikilale","postal_code":97571},{"province":"Maluku","city":"Buru","district":"Namlea","urban":"Siahoni","postal_code":97571},{"province":"Maluku","city":"Buru","district":"Lilialy","urban":"Sawa","postal_code":97571},{"province":"Maluku","city":"Buru","district":"Namlea","urban":"Sanleko","postal_code":97571},{"province":"Maluku","city":"Buru","district":"Waplau","urban":"Samalagi","postal_code":97571},{"province":"Maluku","city":"Buru","district":"Namlea","urban":"Namlea","postal_code":97571},{"province":"Maluku","city":"Buru","district":"Namlea","urban":"Namlea","postal_code":97571},{"province":"Maluku","city":"Buru","district":"Namlea","urban":"Lala","postal_code":97571},{"province":"Maluku","city":"Buru","district":"Waplau","urban":"Lamahang","postal_code":97571},{"province":"Maluku","city":"Buru","district":"Lilialy","urban":"Jikumarasa (Jikumerasa)","postal_code":97571},{"province":"Maluku","city":"Buru","district":"Namlea","urban":"Karang Jaya","postal_code":97571},{"province":"Maluku","city":"Buru","district":"Namlea","urban":"Jamilu","postal_code":97571},{"province":"Maluku","city":"Buru","district":"Waplau","urban":"Hatawano","postal_code":97571},{"province":"Maluku","city":"Buru","district":"Namlea","urban":"Batu Boy","postal_code":97571}]