[{"province":"Maluku","city":"Buru Selatan","district":"Kepala Madan","urban":"Walbele","postal_code":97572},{"province":"Maluku","city":"Buru Selatan","district":"Kepala Madan","urban":"Waepandan","postal_code":97572},{"province":"Maluku","city":"Buru Selatan","district":"Kepala Madan","urban":"Waeha","postal_code":97572},{"province":"Maluku","city":"Buru Selatan","district":"Kepala Madan","urban":"Waekeka","postal_code":97572},{"province":"Maluku","city":"Buru Selatan","district":"Kepala Madan","urban":"Siopot","postal_code":97572},{"province":"Maluku","city":"Buru Selatan","district":"Kepala Madan","urban":"Sekat","postal_code":97572},{"province":"Maluku","city":"Buru Selatan","district":"Kepala Madan","urban":"Nanali","postal_code":97572},{"province":"Maluku","city":"Buru Selatan","district":"Kepala Madan","urban":"Pasir Putih","postal_code":97572},{"province":"Maluku","city":"Buru Selatan","district":"Kepala Madan","urban":"Fogi","postal_code":97572},{"province":"Maluku","city":"Buru Selatan","district":"Kepala Madan","urban":"Biloro","postal_code":97572},{"province":"Maluku","city":"Buru Selatan","district":"Kepala Madan","urban":"Emhugen","postal_code":97572},{"province":"Maluku","city":"Buru Selatan","district":"Kepala Madan","urban":"Batu Layar","postal_code":97572},{"province":"Maluku","city":"Buru Selatan","district":"Kepala Madan","urban":"Balpetu","postal_code":97572},{"province":"Maluku","city":"Buru Selatan","district":"Kepala Madan","urban":"Balpetu","postal_code":97572},{"province":"Maluku","city":"Buru Selatan","district":"Kepala Madan","urban":"Air Ternate","postal_code":97572},{"province":"Maluku","city":"Buru Selatan","district":"Kepala Madan","urban":"Bala-bala","postal_code":97572},{"province":"Maluku","city":"Buru","district":"Fena Leisela","urban":"Wasi","postal_code":97572},{"province":"Maluku","city":"Buru","district":"Fena Leisela","urban":"Waspait","postal_code":97572},{"province":"Maluku","city":"Buru","district":"Airbuaya","urban":"Wasbaka","postal_code":97572},{"province":"Maluku","city":"Buru","district":"Fena Leisela","urban":"Wamlana","postal_code":97572},{"province":"Maluku","city":"Buru","district":"Fena Leisela","urban":"Wamana Baru","postal_code":97572},{"province":"Maluku","city":"Buru","district":"Fena Leisela","urban":"Wainibe (Waenibe)","postal_code":97572},{"province":"Maluku","city":"Buru","district":"Airbuaya","urban":"Waipure (Waepure)","postal_code":97572},{"province":"Maluku","city":"Buru","district":"Fena Leisela","urban":"Waereman","postal_code":97572},{"province":"Maluku","city":"Buru","district":"Airbuaya","urban":"Waimangit (Waemangit)","postal_code":97572},{"province":"Maluku","city":"Buru","district":"Fena Leisela","urban":"Waelana-lana","postal_code":97572},{"province":"Maluku","city":"Buru","district":"Fena Leisela","urban":"Waemite","postal_code":97572},{"province":"Maluku","city":"Buru","district":"Fena Leisela","urban":"Waekose","postal_code":97572},{"province":"Maluku","city":"Buru","district":"Airbuaya","urban":"Tanjung Karang","postal_code":97572},{"province":"Maluku","city":"Buru","district":"Fena Leisela","urban":"Waedanga","postal_code":97572},{"province":"Maluku","city":"Buru","district":"Airbuaya","urban":"Selwadu","postal_code":97572},{"province":"Maluku","city":"Buru","district":"Fena Leisela","urban":"Raheriat","postal_code":97572},{"province":"Maluku","city":"Buru","district":"Fena Leisela","urban":"Lemanpoli","postal_code":97572},{"province":"Maluku","city":"Buru","district":"Airbuaya","urban":"Kampung Baru","postal_code":97572},{"province":"Maluku","city":"Buru","district":"Airbuaya","urban":"Batlale","postal_code":97572},{"province":"Maluku","city":"Buru","district":"Fena Leisela","urban":"Balbalu","postal_code":97572},{"province":"Maluku","city":"Buru","district":"Airbuaya","urban":"Awilinan","postal_code":97572},{"province":"Maluku","city":"Buru","district":"Airbuaya","urban":"Air Buaya","postal_code":97572}]