[{"province":"Maluku","city":"Seram Bagian Timur","district":"Wakate","urban":"Wunin Eldedora","postal_code":97595},{"province":"Maluku","city":"Seram Bagian Timur","district":"Wakate","urban":"Tamher Timur","postal_code":97595},{"province":"Maluku","city":"Seram Bagian Timur","district":"Wakate","urban":"Tanah Baru","postal_code":97595},{"province":"Maluku","city":"Seram Bagian Timur","district":"Wakate","urban":"Utiia","postal_code":97595},{"province":"Maluku","city":"Seram Bagian Timur","district":"Wakate","urban":"Tamher Barat","postal_code":97595},{"province":"Maluku","city":"Seram Bagian Timur","district":"Pulau Gorong (Gorom)","urban":"Sera","postal_code":97595},{"province":"Maluku","city":"Seram Bagian Timur","district":"Wakate","urban":"Otademan","postal_code":97595},{"province":"Maluku","city":"Seram Bagian Timur","district":"Pulau Gorong (Gorom)","urban":"Ondor","postal_code":97595},{"province":"Maluku","city":"Seram Bagian Timur","district":"Pulau Gorong (Gorom)","urban":"Rumeon","postal_code":97595},{"province":"Maluku","city":"Seram Bagian Timur","district":"Pulau Gorong (Gorom)","urban":"Miran Gota","postal_code":97595},{"province":"Maluku","city":"Seram Bagian Timur","district":"Pulau Gorong (Gorom)","urban":"Namalean","postal_code":97595},{"province":"Maluku","city":"Seram Bagian Timur","district":"Pulau Gorong (Gorom)","urban":"Loko","postal_code":97595},{"province":"Maluku","city":"Seram Bagian Timur","district":"Pulau Gorong (Gorom)","urban":"Mida","postal_code":97595},{"province":"Maluku","city":"Seram Bagian Timur","district":"Wakate","urban":"Lahema","postal_code":97595},{"province":"Maluku","city":"Seram Bagian Timur","district":"Pulau Gorong (Gorom)","urban":"Kelibingan","postal_code":97595},{"province":"Maluku","city":"Seram Bagian Timur","district":"Pulau Gorong (Gorom)","urban":"Kulugowa","postal_code":97595},{"province":"Maluku","city":"Seram Bagian Timur","district":"Wakate","urban":"Keldor","postal_code":97595},{"province":"Maluku","city":"Seram Bagian Timur","district":"Pulau Gorong (Gorom)","urban":"Kataloka","postal_code":97595},{"province":"Maluku","city":"Seram Bagian Timur","district":"Wakate","urban":"Kelangan","postal_code":97595},{"province":"Maluku","city":"Seram Bagian Timur","district":"Wakate","urban":"Ilili","postal_code":97595},{"province":"Maluku","city":"Seram Bagian Timur","district":"Wakate","urban":"Karlomin","postal_code":97595},{"province":"Maluku","city":"Seram Bagian Timur","district":"Pulau Gorong (Gorom)","urban":"Ilili","postal_code":97595},{"province":"Maluku","city":"Seram Bagian Timur","district":"Wakate","urban":"Guliar","postal_code":97595},{"province":"Maluku","city":"Seram Bagian Timur","district":"Pulau Gorong (Gorom)","urban":"Day (Dai)","postal_code":97595},{"province":"Maluku","city":"Seram Bagian Timur","district":"Wakate","urban":"Efa (Effa)","postal_code":97595},{"province":"Maluku","city":"Seram Bagian Timur","district":"Pulau Gorong (Gorom)","urban":"Amarsekaru","postal_code":97595},{"province":"Maluku","city":"Seram Bagian Timur","district":"Wakate","urban":"Amar Laut","postal_code":97595}]