[{"province":"Maluku","city":"Maluku Tengah","district":"Pulau Haruku","urban":"Wassu","postal_code":97591},{"province":"Maluku","city":"Maluku Tengah","district":"Pulau Haruku","urban":"Sameth","postal_code":97591},{"province":"Maluku","city":"Maluku Tengah","district":"Pulau Haruku","urban":"Pelauw","postal_code":97591},{"province":"Maluku","city":"Maluku Tengah","district":"Pulau Haruku","urban":"Rohomoni","postal_code":97591},{"province":"Maluku","city":"Maluku Tengah","district":"Pulau Haruku","urban":"Kariuw","postal_code":97591},{"province":"Maluku","city":"Maluku Tengah","district":"Pulau Haruku","urban":"Oma","postal_code":97591},{"province":"Maluku","city":"Maluku Tengah","district":"Pulau Haruku","urban":"Hulaliu","postal_code":97591},{"province":"Maluku","city":"Maluku Tengah","district":"Pulau Haruku","urban":"Kabau","postal_code":97591},{"province":"Maluku","city":"Maluku Tengah","district":"Pulau Haruku","urban":"Kailolo (Kailolopia)","postal_code":97591},{"province":"Maluku","city":"Maluku Tengah","district":"Pulau Haruku","urban":"Aboru","postal_code":97591},{"province":"Maluku","city":"Maluku Tengah","district":"Pulau Haruku","urban":"Haruku","postal_code":97591}]