[{"province":"Maluku","city":"Seram Bagian Timur","district":"Kian Darat","urban":"Watu Watu","postal_code":97594},{"province":"Maluku","city":"Seram Bagian Timur","district":"Tutuk Tolu","urban":"Walang Tenga","postal_code":97594},{"province":"Maluku","city":"Seram Bagian Timur","district":"Tutuk Tolu","urban":"Waras Waras","postal_code":97594},{"province":"Maluku","city":"Seram Bagian Timur","district":"Seram Timur","urban":"Urung","postal_code":97594},{"province":"Maluku","city":"Seram Bagian Timur","district":"Kilmury","urban":"Undur","postal_code":97594},{"province":"Maluku","city":"Seram Bagian Timur","district":"Tutuk Tolu","urban":"Taruy","postal_code":97594},{"province":"Maluku","city":"Seram Bagian Timur","district":"Kilmury","urban":"Sumbawa","postal_code":97594},{"province":"Maluku","city":"Seram Bagian Timur","district":"Tutuk Tolu","urban":"Sesar","postal_code":97594},{"province":"Maluku","city":"Seram Bagian Timur","district":"Kilmury","urban":"Selor","postal_code":97594},{"province":"Maluku","city":"Seram Bagian Timur","district":"Kian Darat","urban":"Rumoga","postal_code":97594},{"province":"Maluku","city":"Seram Bagian Timur","district":"Kian Darat","urban":"Rumfakar","postal_code":97594},{"province":"Maluku","city":"Seram Bagian Timur","district":"Kilmury","urban":"Mising","postal_code":97594},{"province":"Maluku","city":"Seram Bagian Timur","district":"Kilmury","urban":"Nekan","postal_code":97594},{"province":"Maluku","city":"Seram Bagian Timur","district":"Kilmury","urban":"Kumelang","postal_code":97594},{"province":"Maluku","city":"Seram Bagian Timur","district":"Seram Timur","urban":"Kilwaru","postal_code":97594},{"province":"Maluku","city":"Seram Bagian Timur","district":"Seram Timur","urban":"Kiltay (Kiltai)","postal_code":97594},{"province":"Maluku","city":"Seram Bagian Timur","district":"Kilmury","urban":"Kilmury","postal_code":97594},{"province":"Maluku","city":"Seram Bagian Timur","district":"Tutuk Tolu","urban":"Kilmoy (Kilmoi)","postal_code":97594},{"province":"Maluku","city":"Seram Bagian Timur","district":"Kian Darat","urban":"Kilga Kilwouw","postal_code":97594},{"province":"Maluku","city":"Seram Bagian Timur","district":"Kian Darat","urban":"Kilga Watubau","postal_code":97594},{"province":"Maluku","city":"Seram Bagian Timur","district":"Seram Timur","urban":"Kilfura","postal_code":97594},{"province":"Maluku","city":"Seram Bagian Timur","district":"Kian Darat","urban":"Kileser","postal_code":97594},{"province":"Maluku","city":"Seram Bagian Timur","district":"Seram Timur","urban":"Kilbon Kway","postal_code":97594},{"province":"Maluku","city":"Seram Bagian Timur","district":"Tutuk Tolu","urban":"Kilbat","postal_code":97594},{"province":"Maluku","city":"Seram Bagian Timur","district":"Kian Darat","urban":"Kian Darat","postal_code":97594},{"province":"Maluku","city":"Seram Bagian Timur","district":"Seram Timur","urban":"Kellu","postal_code":97594},{"province":"Maluku","city":"Seram Bagian Timur","district":"Kian Darat","urban":"Kelaba","postal_code":97594},{"province":"Maluku","city":"Seram Bagian Timur","district":"Seram Timur","urban":"Keffing","postal_code":97594},{"province":"Maluku","city":"Seram Bagian Timur","district":"Kilmury","urban":"Kamar","postal_code":97594},{"province":"Maluku","city":"Seram Bagian Timur","district":"Kilmury","urban":"Gunak","postal_code":97594},{"province":"Maluku","city":"Seram Bagian Timur","district":"Seram Timur","urban":"Geser","postal_code":97594},{"province":"Maluku","city":"Seram Bagian Timur","district":"Tutuk Tolu","urban":"Gah","postal_code":97594},{"province":"Maluku","city":"Seram Bagian Timur","district":"Tutuk Tolu","urban":"Bati Kilwouw","postal_code":97594},{"province":"Maluku","city":"Seram Bagian Timur","district":"Tutuk Tolu","urban":"Danama","postal_code":97594},{"province":"Maluku","city":"Seram Bagian Timur","district":"Kian Darat","urban":"Angar","postal_code":97594},{"province":"Maluku","city":"Seram Bagian Timur","district":"Kian Darat","urban":"Artafela","postal_code":97594},{"province":"Maluku","city":"Seram Bagian Timur","district":"Tutuk Tolu","urban":"Airkasar","postal_code":97594},{"province":"Maluku","city":"Seram Bagian Timur","district":"Kilmury","urban":"Afang Kota","postal_code":97594},{"province":"Maluku","city":"Seram Bagian Timur","district":"Kilmury","urban":"Afang Defol","postal_code":97594}]