[{"province":"Maluku","city":"Seram Bagian Timur","district":"Siritaun Wida Timur","urban":"Salagor Kota","postal_code":97598},{"province":"Maluku","city":"Seram Bagian Timur","district":"Siritaun Wida Timur","urban":"Suru","postal_code":97598},{"province":"Maluku","city":"Seram Bagian Timur","district":"Siritaun Wida Timur","urban":"Kwaos (Kuwaos)","postal_code":97598},{"province":"Maluku","city":"Seram Bagian Timur","district":"Siritaun Wida Timur","urban":"Lian Tasik","postal_code":97598},{"province":"Maluku","city":"Seram Bagian Timur","district":"Siritaun Wida Timur","urban":"Salagor Air","postal_code":97598},{"province":"Maluku","city":"Seram Bagian Timur","district":"Siritaun Wida Timur","urban":"Keta Rumadan","postal_code":97598},{"province":"Maluku","city":"Seram Bagian Timur","district":"Siritaun Wida Timur","urban":"Kian Laut","postal_code":97598},{"province":"Maluku","city":"Seram Bagian Timur","district":"Siritaun Wida Timur","urban":"Aruan Gaur","postal_code":97598},{"province":"Maluku","city":"Seram Bagian Timur","district":"Siritaun Wida Timur","urban":"Keta","postal_code":97598},{"province":"Maluku","city":"Seram Bagian Timur","district":"Siritaun Wida Timur","urban":"Air Nanang","postal_code":97598}]