[{"province":"Maluku","city":"Maluku Tengah","district":"Saparua Timur","urban":"Tuhaha","postal_code":97592},{"province":"Maluku","city":"Maluku Tengah","district":"Saparua Timur","urban":"Ullath","postal_code":97592},{"province":"Maluku","city":"Maluku Tengah","district":"Saparua","urban":"Tiouw","postal_code":97592},{"province":"Maluku","city":"Maluku Tengah","district":"Saparua Timur","urban":"Siri-Sori Amalatu","postal_code":97592},{"province":"Maluku","city":"Maluku Tengah","district":"Saparua","urban":"Saparua","postal_code":97592},{"province":"Maluku","city":"Maluku Tengah","district":"Saparua Timur","urban":"Siri Sori","postal_code":97592},{"province":"Maluku","city":"Maluku Tengah","district":"Saparua","urban":"Paperu","postal_code":97592},{"province":"Maluku","city":"Maluku Tengah","district":"Saparua","urban":"Portho","postal_code":97592},{"province":"Maluku","city":"Maluku Tengah","district":"Saparua Timur","urban":"Noloth","postal_code":97592},{"province":"Maluku","city":"Maluku Tengah","district":"Saparua Timur","urban":"Ouw","postal_code":97592},{"province":"Maluku","city":"Maluku Tengah","district":"Saparua","urban":"Kulur","postal_code":97592},{"province":"Maluku","city":"Maluku Tengah","district":"Saparua Timur","urban":"Itawaka","postal_code":97592},{"province":"Maluku","city":"Maluku Tengah","district":"Saparua Timur","urban":"Mahu","postal_code":97592},{"province":"Maluku","city":"Maluku Tengah","district":"Saparua Timur","urban":"Iha","postal_code":97592},{"province":"Maluku","city":"Maluku Tengah","district":"Saparua Timur","urban":"Ihamahu","postal_code":97592},{"province":"Maluku","city":"Maluku Tengah","district":"Saparua","urban":"Haria","postal_code":97592},{"province":"Maluku","city":"Maluku Tengah","district":"Saparua","urban":"Booi","postal_code":97592}]