[{"province":"Maluku","city":"Maluku Tenggara","district":"Kei Kecil Barat","urban":"Yatwav","postal_code":97615},{"province":"Maluku","city":"Maluku Tenggara","district":"Kei Kecil Timur","urban":"Watngon","postal_code":97615},{"province":"Maluku","city":"Maluku Tenggara","district":"Kei Kecil Timur","urban":"Yafavun","postal_code":97615},{"province":"Maluku","city":"Maluku Tenggara","district":"Kei Kecil Timur","urban":"Wain Baru","postal_code":97615},{"province":"Maluku","city":"Maluku Tenggara","district":"Kei Kecil Barat","urban":"Warbal","postal_code":97615},{"province":"Maluku","city":"Maluku Tenggara","district":"Kei Kecil Barat","urban":"Ur Pulau","postal_code":97615},{"province":"Maluku","city":"Maluku Tenggara","district":"Kei Kecil Timur","urban":"Wain","postal_code":97615},{"province":"Maluku","city":"Maluku Tenggara","district":"Kei Kecil Timur Selatan","urban":"Uf","postal_code":97615},{"province":"Maluku","city":"Maluku Tenggara","district":"Kei Kecil Timur","urban":"Tenbuk","postal_code":97615},{"province":"Maluku","city":"Maluku Tenggara","district":"Kei Kecil Barat","urban":"Tanimbar Kei","postal_code":97615},{"province":"Maluku","city":"Maluku Tenggara","district":"Kei Kecil Barat","urban":"Somlain","postal_code":97615},{"province":"Maluku","city":"Maluku Tenggara","district":"Kei Kecil Timur Selatan","urban":"Sare","postal_code":97615},{"province":"Maluku","city":"Maluku Tenggara","district":"Kei Kecil Timur","urban":"Semawi","postal_code":97615},{"province":"Maluku","city":"Maluku Tenggara","district":"Kei Kecil Timur","urban":"Revav (Rewav)","postal_code":97615},{"province":"Maluku","city":"Maluku Tenggara","district":"Kei Kecil Timur","urban":"Rumat","postal_code":97615},{"province":"Maluku","city":"Maluku Tenggara","district":"Kei Kecil Barat","urban":"Ohoiren","postal_code":97615},{"province":"Maluku","city":"Maluku Tenggara","district":"Kei Kecil Timur","urban":"Raat","postal_code":97615},{"province":"Maluku","city":"Maluku Tenggara","district":"Kei Kecil Barat","urban":"Ohoira","postal_code":97615},{"province":"Maluku","city":"Maluku Tenggara","district":"Kei Kecil Timur","urban":"Ohoinol","postal_code":97615},{"province":"Maluku","city":"Maluku Tenggara","district":"Kei Kecil Barat","urban":"Ohoidertutu","postal_code":97615},{"province":"Maluku","city":"Maluku Tenggara","district":"Kei Kecil Timur","urban":"Ohoilus","postal_code":97615},{"province":"Maluku","city":"Maluku Tenggara","district":"Kei Kecil Timur Selatan","urban":"Ngurwul","postal_code":97615},{"province":"Maluku","city":"Maluku Tenggara","district":"Kei Kecil Barat","urban":"Ohoidertom","postal_code":97615},{"province":"Maluku","city":"Maluku Tenggara","district":"Kei Kecil Barat","urban":"Matwair (Madwaer)","postal_code":97615},{"province":"Maluku","city":"Maluku Tenggara","district":"Kei Kecil Timur","urban":"Mastur","postal_code":97615},{"province":"Maluku","city":"Maluku Tenggara","district":"Kei Kecil Timur","urban":"Mastur","postal_code":97615},{"province":"Maluku","city":"Maluku Tenggara","district":"Kei Kecil Timur","urban":"Marfun","postal_code":97615},{"province":"Maluku","city":"Maluku Tenggara","district":"Kei Kecil Timur Selatan","urban":"Maar","postal_code":97615},{"province":"Maluku","city":"Maluku Tenggara","district":"Kei Kecil Timur","urban":"Iso","postal_code":97615},{"province":"Maluku","city":"Maluku Tenggara","district":"Kei Kecil Timur Selatan","urban":"Garara","postal_code":97615},{"province":"Maluku","city":"Maluku Tenggara","district":"Kei Kecil Timur Selatan","urban":"Elaar Ngursoin","postal_code":97615},{"province":"Maluku","city":"Maluku Tenggara","district":"Kei Kecil Timur Selatan","urban":"Elaar Lamagorang","postal_code":97615},{"province":"Maluku","city":"Maluku Tenggara","district":"Kei Kecil Timur Selatan","urban":"Elaar Let","postal_code":97615},{"province":"Maluku","city":"Maluku Tenggara","district":"Kei Kecil Timur","urban":"Denwet","postal_code":97615},{"province":"Maluku","city":"Maluku Tenggara","district":"Kei Kecil Timur","urban":"Disuk","postal_code":97615},{"province":"Maluku","city":"Maluku Tenggara","district":"Kei Kecil Timur Selatan","urban":"Danar Ohoiseb","postal_code":97615},{"province":"Maluku","city":"Maluku Tenggara","district":"Kei Kecil Timur Selatan","urban":"Danar Ternate","postal_code":97615},{"province":"Maluku","city":"Maluku Tenggara","district":"Kei Kecil Timur","urban":"Abean","postal_code":97615},{"province":"Maluku","city":"Maluku Tenggara","district":"Kei Kecil Timur Selatan","urban":"Danar Lumefar","postal_code":97615}]