[{"province":"Maluku","city":"Maluku Tenggara","district":"Hoat Sorbay","urban":"Wirin","postal_code":97611},{"province":"Maluku","city":"Maluku Tenggara","district":"Hoat Sorbay","urban":"Watngil","postal_code":97611},{"province":"Maluku","city":"Maluku Tenggara","district":"Kei Kecil","urban":"Wearlilir","postal_code":97611},{"province":"Maluku","city":"Maluku Tenggara","district":"Hoat Sorbay","urban":"Wab","postal_code":97611},{"province":"Maluku","city":"Maluku Tenggara","district":"Hoat Sorbay","urban":"Warwut","postal_code":97611},{"province":"Maluku","city":"Maluku Tenggara","district":"Hoat Sorbay","urban":"Tetoat","postal_code":97611},{"province":"Maluku","city":"Maluku Tenggara","district":"Manyeuw","urban":"Selayar","postal_code":97611},{"province":"Maluku","city":"Maluku Tenggara","district":"Kei Kecil","urban":"Sitniohoi","postal_code":97611},{"province":"Maluku","city":"Maluku Tenggara","district":"Kei Kecil","urban":"Sathean","postal_code":97611},{"province":"Maluku","city":"Maluku Tenggara","district":"Manyeuw","urban":"Rumadian","postal_code":97611},{"province":"Maluku","city":"Maluku Tenggara","district":"Manyeuw","urban":"Ohoiluk","postal_code":97611},{"province":"Maluku","city":"Maluku Tenggara","district":"Manyeuw","urban":"Ohoililir","postal_code":97611},{"province":"Maluku","city":"Maluku Tenggara","district":"Kei Kecil","urban":"Ohoider Atas","postal_code":97611},{"province":"Maluku","city":"Maluku Tenggara","district":"Kei Kecil","urban":"Ohoijang/Ohoiyong Watdek","postal_code":97611},{"province":"Maluku","city":"Maluku Tenggara","district":"Hoat Sorbay","urban":"Ohoibadar","postal_code":97611},{"province":"Maluku","city":"Maluku Tenggara","district":"Kei Kecil","urban":"Ohodertawun","postal_code":97611},{"province":"Maluku","city":"Maluku Tenggara","district":"Hoat Sorbay","urban":"Ngursit","postal_code":97611},{"province":"Maluku","city":"Maluku Tenggara","district":"Manyeuw","urban":"Ngilngof","postal_code":97611},{"province":"Maluku","city":"Maluku Tenggara","district":"Manyeuw","urban":"Ngayub","postal_code":97611},{"province":"Maluku","city":"Maluku Tenggara","district":"Kei Kecil","urban":"Ngabub","postal_code":97611},{"province":"Maluku","city":"Maluku Tenggara","district":"Manyeuw","urban":"Namar","postal_code":97611},{"province":"Maluku","city":"Maluku Tenggara","district":"Hoat Sorbay","urban":"Madwat","postal_code":97611},{"province":"Maluku","city":"Maluku Tenggara","district":"Kei Kecil","urban":"Loon","postal_code":97611},{"province":"Maluku","city":"Maluku Tenggara","district":"Kei Kecil","urban":"Letman","postal_code":97611},{"province":"Maluku","city":"Maluku Tenggara","district":"Hoat Sorbay","urban":"Letvuan","postal_code":97611},{"province":"Maluku","city":"Maluku Tenggara","district":"Kei Kecil","urban":"Langgur","postal_code":97611},{"province":"Maluku","city":"Maluku Tenggara","district":"Manyeuw","urban":"Lairngangas","postal_code":97611},{"province":"Maluku","city":"Maluku Tenggara","district":"Kei Kecil","urban":"Kolser","postal_code":97611},{"province":"Maluku","city":"Maluku Tenggara","district":"Kei Kecil","urban":"Ibra","postal_code":97611},{"province":"Maluku","city":"Maluku Tenggara","district":"Kei Kecil","urban":"Kelanit","postal_code":97611},{"province":"Maluku","city":"Maluku Tenggara","district":"Kei Kecil","urban":"Faan","postal_code":97611},{"province":"Maluku","city":"Maluku Tenggara","district":"Hoat Sorbay","urban":"Evu","postal_code":97611},{"province":"Maluku","city":"Maluku Tenggara","district":"Kei Kecil","urban":"Dudunwahan","postal_code":97611},{"province":"Maluku","city":"Maluku Tenggara","district":"Hoat Sorbay","urban":"Dian Pulau","postal_code":97611},{"province":"Maluku","city":"Maluku Tenggara","district":"Manyeuw","urban":"Debut","postal_code":97611},{"province":"Maluku","city":"Maluku Tenggara","district":"Hoat Sorbay","urban":"Dian Darat","postal_code":97611},{"province":"Maluku","city":"Maluku Tenggara","district":"Hoat Sorbay","urban":"Arso","postal_code":97611},{"province":"Maluku","city":"Tual","district":"Pulau Dullah Selatan","urban":"Tual","postal_code":97611},{"province":"Maluku","city":"Tual","district":"Pulau Tayando Tam","urban":"Tayando Yamru","postal_code":97611},{"province":"Maluku","city":"Tual","district":"Pulau Tayando Tam","urban":"Tayando Yamtel","postal_code":97611},{"province":"Maluku","city":"Tual","district":"Pulau Tayando Tam","urban":"Tayando Ohoiel","postal_code":97611},{"province":"Maluku","city":"Tual","district":"Pulau Tayando Tam","urban":"Tayando Langgiar","postal_code":97611},{"province":"Maluku","city":"Tual","district":"Pulau Dullah Utara","urban":"Tamedan","postal_code":97611},{"province":"Maluku","city":"Tual","district":"Pulau Tayando Tam","urban":"Tam Ngurhir","postal_code":97611},{"province":"Maluku","city":"Tual","district":"Pulau Dullah Selatan","urban":"Taar","postal_code":97611},{"province":"Maluku","city":"Tual","district":"Pulau Dullah Utara","urban":"Ohoitel","postal_code":97611},{"province":"Maluku","city":"Tual","district":"Pulau Dullah Utara","urban":"Ohoitahit","postal_code":97611},{"province":"Maluku","city":"Tual","district":"Pulau Dullah Utara","urban":"Ngadi","postal_code":97611},{"province":"Maluku","city":"Tual","district":"Pulau Dullah Selatan","urban":"Masrum","postal_code":97611},{"province":"Maluku","city":"Tual","district":"Pulau Dullah Selatan","urban":"Lodar Ell","postal_code":97611},{"province":"Maluku","city":"Tual","district":"Pulau Dullah Utara","urban":"Labetawi","postal_code":97611},{"province":"Maluku","city":"Tual","district":"Pulau Dullah Selatan","urban":"Ketsoblak","postal_code":97611},{"province":"Maluku","city":"Tual","district":"Pulau Dullah Utara","urban":"Fiditan","postal_code":97611},{"province":"Maluku","city":"Tual","district":"Pulau Dullah Utara","urban":"Dullah (Darat)","postal_code":97611},{"province":"Maluku","city":"Tual","district":"Pulau Dullah Utara","urban":"Dullah Laut","postal_code":97611}]