[{"province":"Maluku","city":"Maluku Barat Daya","district":"Pulau-Pulau Babar Timur","urban":"Yatoke","postal_code":97652},{"province":"Maluku","city":"Maluku Barat Daya","district":"Damer","urban":"Wulur","postal_code":97652},{"province":"Maluku","city":"Maluku Barat Daya","district":"Dawelor Dawera","urban":"Welora","postal_code":97652},{"province":"Maluku","city":"Maluku Barat Daya","district":"Dawelor Dawera","urban":"Watuwey (Watuwei)","postal_code":97652},{"province":"Maluku","city":"Maluku Barat Daya","district":"Pulau-Pulau Babar Timur","urban":"Wakpapapi","postal_code":97652},{"province":"Maluku","city":"Maluku Barat Daya","district":"Pulau-Pulau Babar Timur","urban":"Tutuwawang","postal_code":97652},{"province":"Maluku","city":"Maluku Barat Daya","district":"Dawelor Dawera","urban":"Wairatan (Wiratan/Wiratang)","postal_code":97652},{"province":"Maluku","city":"Maluku Barat Daya","district":"Mdona Hyera/Hiera","urban":"Rotnama","postal_code":97652},{"province":"Maluku","city":"Maluku Barat Daya","district":"Pulau Masela","urban":"Serili","postal_code":97652},{"province":"Maluku","city":"Maluku Barat Daya","district":"Pulau Masela","urban":"Telalora &#8211; Letoda","postal_code":97652},{"province":"Maluku","city":"Maluku Barat Daya","district":"Mdona Hyera/Hiera","urban":"Romkisar","postal_code":97652},{"province":"Maluku","city":"Maluku Barat Daya","district":"Mdona Hyera/Hiera","urban":"Pupioliora","postal_code":97652},{"province":"Maluku","city":"Maluku Barat Daya","district":"Mdona Hyera/Hiera","urban":"Regoha","postal_code":97652},{"province":"Maluku","city":"Maluku Barat Daya","district":"Mdona Hyera/Hiera","urban":"Romdara","postal_code":97652},{"province":"Maluku","city":"Maluku Barat Daya","district":"Dawelor Dawera","urban":"Nurnyaman","postal_code":97652},{"province":"Maluku","city":"Maluku Barat Daya","district":"Pulau Masela","urban":"Nura","postal_code":97652},{"province":"Maluku","city":"Maluku Barat Daya","district":"Pulau-Pulau Babar Timur","urban":"Nakarhamto","postal_code":97652},{"province":"Maluku","city":"Maluku Barat Daya","district":"Pulau Masela","urban":"Marsela","postal_code":97652},{"province":"Maluku","city":"Maluku Barat Daya","district":"Pulau-Pulau Babar Timur","urban":"Manuweri (Manuari)","postal_code":97652},{"province":"Maluku","city":"Maluku Barat Daya","district":"Mdona Hyera/Hiera","urban":"Luang Timur","postal_code":97652},{"province":"Maluku","city":"Maluku Barat Daya","district":"Mdona Hyera/Hiera","urban":"Mahaleta","postal_code":97652},{"province":"Maluku","city":"Maluku Barat Daya","district":"Mdona Hyera/Hiera","urban":"Luang Barat","postal_code":97652},{"province":"Maluku","city":"Maluku Barat Daya","district":"Dawelor Dawera","urban":"Letmasa","postal_code":97652},{"province":"Maluku","city":"Maluku Barat Daya","district":"Pulau-Pulau Babar Timur","urban":"Letwurung","postal_code":97652},{"province":"Maluku","city":"Maluku Barat Daya","district":"Mdona Hyera/Hiera","urban":"Lelang","postal_code":97652},{"province":"Maluku","city":"Maluku Barat Daya","district":"Pulau Masela","urban":"Latalola Kecil","postal_code":97652},{"province":"Maluku","city":"Maluku Barat Daya","district":"Pulau Masela","urban":"Lawawang","postal_code":97652},{"province":"Maluku","city":"Maluku Barat Daya","district":"Damer","urban":"Kumur","postal_code":97652},{"province":"Maluku","city":"Maluku Barat Daya","district":"Pulau Masela","urban":"Latalola Besar","postal_code":97652},{"province":"Maluku","city":"Maluku Barat Daya","district":"Damer","urban":"Kuay Melu","postal_code":97652},{"province":"Maluku","city":"Maluku Barat Daya","district":"Pulau-Pulau Babar Timur","urban":"Kroing","postal_code":97652},{"province":"Maluku","city":"Maluku Barat Daya","district":"Damer","urban":"Kehli","postal_code":97652},{"province":"Maluku","city":"Maluku Barat Daya","district":"Pulau-Pulau Babar Timur","urban":"Kokwari","postal_code":97652},{"province":"Maluku","city":"Maluku Barat Daya","district":"Dawelor Dawera","urban":"Ilmarang","postal_code":97652},{"province":"Maluku","city":"Maluku Barat Daya","district":"Damer","urban":"Ilih","postal_code":97652},{"province":"Maluku","city":"Maluku Barat Daya","district":"Pulau Masela","urban":"Ilbutung","postal_code":97652},{"province":"Maluku","city":"Maluku Barat Daya","district":"Pulau Masela","urban":"Iblatmuntah","postal_code":97652},{"province":"Maluku","city":"Maluku Barat Daya","district":"Pulau-Pulau Babar Timur","urban":"Emplawas (Empalwas)","postal_code":97652},{"province":"Maluku","city":"Maluku Barat Daya","district":"Pulau Masela","urban":"Bululora","postal_code":97652},{"province":"Maluku","city":"Maluku Barat Daya","district":"Mdona Hyera/Hiera","urban":"Elo","postal_code":97652},{"province":"Maluku","city":"Maluku Barat Daya","district":"Mdona Hyera/Hiera","urban":"Batu Gajah","postal_code":97652},{"province":"Maluku","city":"Maluku Barat Daya","district":"Damer","urban":"Bebar Timur","postal_code":97652},{"province":"Maluku","city":"Maluku Barat Daya","district":"Pulau Masela","urban":"Babyotang (Babiotang)","postal_code":97652},{"province":"Maluku","city":"Maluku Barat Daya","district":"Pulau-Pulau Babar Timur","urban":"Ahanari","postal_code":97652},{"province":"Maluku","city":"Maluku Barat Daya","district":"Pulau-Pulau Babar Timur","urban":"Analutur","postal_code":97652},{"province":"Maluku","city":"Tual","district":"Kur Selatan","urban":"Yapas","postal_code":97652},{"province":"Maluku","city":"Tual","district":"Kur Selatan","urban":"Warkar","postal_code":97652},{"province":"Maluku","city":"Tual","district":"Kur Selatan","urban":"Tiflean","postal_code":97652},{"province":"Maluku","city":"Tual","district":"Pulau-Pulau Kur","urban":"Tubyal","postal_code":97652},{"province":"Maluku","city":"Tual","district":"Kur Selatan","urban":"Romoin","postal_code":97652},{"province":"Maluku","city":"Tual","district":"Kur Selatan","urban":"Mangur Niela","postal_code":97652},{"province":"Maluku","city":"Tual","district":"Pulau-Pulau Kur","urban":"Lokwirin","postal_code":97652},{"province":"Maluku","city":"Tual","district":"Kur Selatan","urban":"Kanara","postal_code":97652},{"province":"Maluku","city":"Tual","district":"Pulau-Pulau Kur","urban":"Kaimear","postal_code":97652},{"province":"Maluku","city":"Tual","district":"Kur Selatan","urban":"Hirit","postal_code":97652},{"province":"Maluku","city":"Tual","district":"Pulau-Pulau Kur","urban":"Finualen","postal_code":97652}]