[{"province":"Maluku","city":"Kepulauan Aru","district":"Pulau-Pulau Aru","urban":"Wokam","postal_code":97662},{"province":"Maluku","city":"Kepulauan Aru","district":"Aru Utara","urban":"Wahayum / Wahayun","postal_code":97662},{"province":"Maluku","city":"Kepulauan Aru","district":"Aru Utara","urban":"Warialau","postal_code":97662},{"province":"Maluku","city":"Kepulauan Aru","district":"Pulau-Pulau Aru","urban":"Wangel","postal_code":97662},{"province":"Maluku","city":"Kepulauan Aru","district":"Aru Utara","urban":"Wahangulangula","postal_code":97662},{"province":"Maluku","city":"Kepulauan Aru","district":"Pulau-Pulau Aru","urban":"Ujir","postal_code":97662},{"province":"Maluku","city":"Kepulauan Aru","district":"Aru Utara","urban":"Tasin Waha","postal_code":97662},{"province":"Maluku","city":"Kepulauan Aru","district":"Pulau-Pulau Aru","urban":"Tungu","postal_code":97662},{"province":"Maluku","city":"Kepulauan Aru","district":"Pulau-Pulau Aru","urban":"Tunguwatu","postal_code":97662},{"province":"Maluku","city":"Kepulauan Aru","district":"Pulau-Pulau Aru","urban":"Siwalima","postal_code":97662},{"province":"Maluku","city":"Kepulauan Aru","district":"Aru Utara","urban":"Selmona","postal_code":97662},{"province":"Maluku","city":"Kepulauan Aru","district":"Pulau-Pulau Aru","urban":"Nafar (Napar)","postal_code":97662},{"province":"Maluku","city":"Kepulauan Aru","district":"Pulau-Pulau Aru","urban":"Samang","postal_code":97662},{"province":"Maluku","city":"Kepulauan Aru","district":"Aru Utara","urban":"Marlasi","postal_code":97662},{"province":"Maluku","city":"Kepulauan Aru","district":"Aru Utara","urban":"Mesidang","postal_code":97662},{"province":"Maluku","city":"Kepulauan Aru","district":"Pulau-Pulau Aru","urban":"Lau-Lau","postal_code":97662},{"province":"Maluku","city":"Kepulauan Aru","district":"Aru Utara","urban":"Kolamar","postal_code":97662},{"province":"Maluku","city":"Kepulauan Aru","district":"Pulau-Pulau Aru","urban":"Kobraur","postal_code":97662},{"province":"Maluku","city":"Kepulauan Aru","district":"Aru Utara","urban":"Kaibolafin","postal_code":97662},{"province":"Maluku","city":"Kepulauan Aru","district":"Pulau-Pulau Aru","urban":"Karangguli","postal_code":97662},{"province":"Maluku","city":"Kepulauan Aru","district":"Aru Utara","urban":"Jerwatu","postal_code":97662},{"province":"Maluku","city":"Kepulauan Aru","district":"Aru Utara","urban":"Kabufin","postal_code":97662},{"province":"Maluku","city":"Kepulauan Aru","district":"Pulau-Pulau Aru","urban":"Jabulenga","postal_code":97662},{"province":"Maluku","city":"Kepulauan Aru","district":"Pulau-Pulau Aru","urban":"Galai Dubu","postal_code":97662},{"province":"Maluku","city":"Kepulauan Aru","district":"Pulau-Pulau Aru","urban":"Gorar","postal_code":97662},{"province":"Maluku","city":"Kepulauan Aru","district":"Aru Utara","urban":"Foket","postal_code":97662},{"province":"Maluku","city":"Kepulauan Aru","district":"Pulau-Pulau Aru","urban":"Durjela","postal_code":97662}]