[{"province":"Maluku","city":"Kepulauan Aru","district":"Aru Tengah Timur","urban":"Warloy","postal_code":97665},{"province":"Maluku","city":"Kepulauan Aru","district":"Aru Tengah Timur","urban":"Warjukur","postal_code":97665},{"province":"Maluku","city":"Kepulauan Aru","district":"Aru Tengah Selatan","urban":"Warabal","postal_code":97665},{"province":"Maluku","city":"Kepulauan Aru","district":"Aru Tengah","urban":"Wakua","postal_code":97665},{"province":"Maluku","city":"Kepulauan Aru","district":"Aru Tengah Timur","urban":"Wailay","postal_code":97665},{"province":"Maluku","city":"Kepulauan Aru","district":"Aru Tengah","urban":"Tanah Miring","postal_code":97665},{"province":"Maluku","city":"Kepulauan Aru","district":"Aru Tengah","urban":"Selilau","postal_code":97665},{"province":"Maluku","city":"Kepulauan Aru","district":"Aru Tengah","urban":"Selibata-Bata","postal_code":97665},{"province":"Maluku","city":"Kepulauan Aru","district":"Aru Tengah Timur","urban":"Ponom","postal_code":97665},{"province":"Maluku","city":"Kepulauan Aru","district":"Aru Tengah","urban":"Papakula","postal_code":97665},{"province":"Maluku","city":"Kepulauan Aru","district":"Aru Tengah","urban":"Namara","postal_code":97665},{"province":"Maluku","city":"Kepulauan Aru","district":"Aru Tengah","urban":"Murai","postal_code":97665},{"province":"Maluku","city":"Kepulauan Aru","district":"Aru Tengah Selatan","urban":"Mesiang","postal_code":97665},{"province":"Maluku","city":"Kepulauan Aru","district":"Aru Tengah","urban":"Maririmar","postal_code":97665},{"province":"Maluku","city":"Kepulauan Aru","district":"Aru Tengah","urban":"Manjau","postal_code":97665},{"province":"Maluku","city":"Kepulauan Aru","district":"Aru Tengah Timur","urban":"Mariri","postal_code":97665},{"province":"Maluku","city":"Kepulauan Aru","district":"Aru Tengah","urban":"Lorang","postal_code":97665},{"province":"Maluku","city":"Kepulauan Aru","district":"Aru Tengah","urban":"Maijuring","postal_code":97665},{"province":"Maluku","city":"Kepulauan Aru","district":"Aru Tengah","urban":"Kwarbola","postal_code":97665},{"province":"Maluku","city":"Kepulauan Aru","district":"Aru Tengah Selatan","urban":"Longgar","postal_code":97665},{"province":"Maluku","city":"Kepulauan Aru","district":"Aru Tengah Timur","urban":"Lola","postal_code":97665},{"province":"Maluku","city":"Kepulauan Aru","district":"Aru Tengah Timur","urban":"Koijabi","postal_code":97665},{"province":"Maluku","city":"Kepulauan Aru","district":"Aru Tengah","urban":"Kobasel Timur","postal_code":97665},{"province":"Maluku","city":"Kepulauan Aru","district":"Aru Tengah Timur","urban":"Kobror","postal_code":97665},{"province":"Maluku","city":"Kepulauan Aru","district":"Aru Tengah","urban":"Kobadangar","postal_code":97665},{"province":"Maluku","city":"Kepulauan Aru","district":"Aru Tengah","urban":"Kobasel Fara","postal_code":97665},{"province":"Maluku","city":"Kepulauan Aru","district":"Aru Tengah Timur","urban":"Kaiwabar","postal_code":97665},{"province":"Maluku","city":"Kepulauan Aru","district":"Aru Tengah Timur","urban":"Karawai (Karawain)","postal_code":97665},{"province":"Maluku","city":"Kepulauan Aru","district":"Aru Tengah","urban":"Jirlay","postal_code":97665},{"province":"Maluku","city":"Kepulauan Aru","district":"Aru Tengah Selatan","urban":"Jambu Air","postal_code":97665},{"province":"Maluku","city":"Kepulauan Aru","district":"Aru Tengah","urban":"Irloy","postal_code":97665},{"province":"Maluku","city":"Kepulauan Aru","district":"Aru Tengah","urban":"Gulili","postal_code":97665},{"province":"Maluku","city":"Kepulauan Aru","district":"Aru Tengah Selatan","urban":"Gomo Gomo","postal_code":97665},{"province":"Maluku","city":"Kepulauan Aru","district":"Aru Tengah","urban":"Fatlabata","postal_code":97665},{"province":"Maluku","city":"Kepulauan Aru","district":"Aru Tengah","urban":"Gardakau","postal_code":97665},{"province":"Maluku","city":"Kepulauan Aru","district":"Aru Tengah Timur","urban":"Dosinamalau","postal_code":97665},{"province":"Maluku","city":"Kepulauan Aru","district":"Aru Tengah","urban":"Benjina","postal_code":97665},{"province":"Maluku","city":"Kepulauan Aru","district":"Aru Tengah Selatan","urban":"Bemun","postal_code":97665},{"province":"Maluku","city":"Kepulauan Aru","district":"Aru Tengah Timur","urban":"Balatan","postal_code":97665},{"province":"Maluku","city":"Kepulauan Aru","district":"Aru Tengah Timur","urban":"Basada","postal_code":97665},{"province":"Maluku","city":"Kepulauan Aru","district":"Aru Tengah Selatan","urban":"Apara","postal_code":97665},{"province":"Maluku","city":"Kepulauan Aru","district":"Aru Tengah","urban":"Algadang","postal_code":97665}]