[{"province":"Maluku","city":"Kepulauan Aru","district":"Aru Utara Timur Batuley","urban":"Sewer","postal_code":97663},{"province":"Maluku","city":"Kepulauan Aru","district":"Aru Utara Timur Batuley","urban":"Waria","postal_code":97663},{"province":"Maluku","city":"Kepulauan Aru","district":"Aru Utara Timur Batuley","urban":"Kompane","postal_code":97663},{"province":"Maluku","city":"Kepulauan Aru","district":"Aru Utara Timur Batuley","urban":"Kumul","postal_code":97663},{"province":"Maluku","city":"Kepulauan Aru","district":"Aru Utara Timur Batuley","urban":"Jursiang","postal_code":97663},{"province":"Maluku","city":"Kepulauan Aru","district":"Aru Utara Timur Batuley","urban":"Kabalsiang","postal_code":97663},{"province":"Maluku","city":"Kepulauan Aru","district":"Aru Utara Timur Batuley","urban":"Kobamar","postal_code":97663},{"province":"Maluku","city":"Kepulauan Aru","district":"Aru Utara Timur Batuley","urban":"Batulei (Batuley)","postal_code":97663},{"province":"Maluku","city":"Kepulauan Aru","district":"Aru Utara Timur Batuley","urban":"Benjuring","postal_code":97663}]