[{"province":"Maluku Utara","city":"Halmahera Barat","district":"Ibu Utara","urban":"Tukuoku","postal_code":97754},{"province":"Maluku Utara","city":"Halmahera Barat","district":"Ibu Selatan","urban":"Tosoa","postal_code":97754},{"province":"Maluku Utara","city":"Halmahera Barat","district":"Ibu Utara","urban":"Todoke","postal_code":97754},{"province":"Maluku Utara","city":"Halmahera Barat","district":"Ibu Selatan","urban":"Tuguaer","postal_code":97754},{"province":"Maluku Utara","city":"Halmahera Barat","district":"Ibu Selatan","urban":"Tobobol (Tabobol)","postal_code":97754},{"province":"Maluku Utara","city":"Halmahera Barat","district":"Ibu Utara","urban":"Tuguis","postal_code":97754},{"province":"Maluku Utara","city":"Halmahera Barat","district":"Ibu","urban":"Tobaol","postal_code":97754},{"province":"Maluku Utara","city":"Halmahera Barat","district":"Ibu","urban":"Tongute Ternate Selatan","postal_code":97754},{"province":"Maluku Utara","city":"Halmahera Barat","district":"Ibu Selatan","urban":"Tobelos","postal_code":97754},{"province":"Maluku Utara","city":"Halmahera Barat","district":"Ibu Utara","urban":"Tengowango (Teongowango)","postal_code":97754},{"province":"Maluku Utara","city":"Halmahera Barat","district":"Ibu","urban":"Tongute Ternate","postal_code":97754},{"province":"Maluku Utara","city":"Halmahera Barat","district":"Ibu Selatan","urban":"Talaga","postal_code":97754},{"province":"Maluku Utara","city":"Halmahera Barat","district":"Ibu","urban":"Tongute Goin","postal_code":97754},{"province":"Maluku Utara","city":"Halmahera Barat","district":"Ibu","urban":"Tongute Sungi","postal_code":97754},{"province":"Maluku Utara","city":"Halmahera Barat","district":"Ibu Utara","urban":"Soasangaji","postal_code":97754},{"province":"Maluku Utara","city":"Halmahera Barat","district":"Ibu Utara","urban":"Togowo","postal_code":97754},{"province":"Maluku Utara","city":"Halmahera Barat","district":"Ibu","urban":"Tahafo","postal_code":97754},{"province":"Maluku Utara","city":"Halmahera Barat","district":"Ibu Utara","urban":"Tolisaor","postal_code":97754},{"province":"Maluku Utara","city":"Halmahera Barat","district":"Ibu","urban":"Soana Masungi","postal_code":97754},{"province":"Maluku Utara","city":"Halmahera Barat","district":"Ibu Utara","urban":"Togoreba Sungi (Tugureba Sungi)","postal_code":97754},{"province":"Maluku Utara","city":"Halmahera Barat","district":"Ibu Selatan","urban":"Sarau","postal_code":97754},{"province":"Maluku Utara","city":"Halmahera Barat","district":"Ibu Utara","urban":"Togoreba Tua","postal_code":97754},{"province":"Maluku Utara","city":"Halmahera Barat","district":"Ibu Utara","urban":"Podol","postal_code":97754},{"province":"Maluku Utara","city":"Halmahera Barat","district":"Ibu","urban":"Togola Sanger/Sangir","postal_code":97754},{"province":"Maluku Utara","city":"Halmahera Barat","district":"Ibu Utara","urban":"Sangaji Nyeku","postal_code":97754},{"province":"Maluku Utara","city":"Halmahera Barat","district":"Ibu","urban":"Togola Wayolo/Wayoli","postal_code":97754},{"province":"Maluku Utara","city":"Halmahera Barat","district":"Ibu Utara","urban":"Pasalulu","postal_code":97754},{"province":"Maluku Utara","city":"Halmahera Barat","district":"Ibu Selatan","urban":"Ngawet","postal_code":97754},{"province":"Maluku Utara","city":"Halmahera Barat","district":"Ibu Selatan","urban":"Ngalo Ngalo","postal_code":97754},{"province":"Maluku Utara","city":"Halmahera Barat","district":"Ibu Selatan","urban":"Nanas","postal_code":97754},{"province":"Maluku Utara","city":"Halmahera Barat","district":"Ibu Selatan","urban":"Jere","postal_code":97754},{"province":"Maluku Utara","city":"Halmahera Barat","district":"Ibu","urban":"Naga","postal_code":97754},{"province":"Maluku Utara","city":"Halmahera Barat","district":"Ibu Utara","urban":"Goin","postal_code":97754},{"province":"Maluku Utara","city":"Halmahera Barat","district":"Ibu","urban":"Kie Lei (Kie Ici)","postal_code":97754},{"province":"Maluku Utara","city":"Halmahera Barat","district":"Ibu Selatan","urban":"Gamsungi","postal_code":97754},{"province":"Maluku Utara","city":"Halmahera Barat","district":"Ibu","urban":"Maritango","postal_code":97754},{"province":"Maluku Utara","city":"Halmahera Barat","district":"Ibu Selatan","urban":"Gamsida","postal_code":97754},{"province":"Maluku Utara","city":"Halmahera Barat","district":"Ibu","urban":"Kampung Baru","postal_code":97754},{"province":"Maluku Utara","city":"Halmahera Barat","district":"Ibu Selatan","urban":"Gamkonora","postal_code":97754},{"province":"Maluku Utara","city":"Halmahera Barat","district":"Ibu","urban":"Gam Lamo","postal_code":97754},{"province":"Maluku Utara","city":"Halmahera Barat","district":"Ibu","urban":"Gam Ici","postal_code":97754},{"province":"Maluku Utara","city":"Halmahera Barat","district":"Ibu Utara","urban":"Duono","postal_code":97754},{"province":"Maluku Utara","city":"Halmahera Barat","district":"Ibu Utara","urban":"Borona","postal_code":97754},{"province":"Maluku Utara","city":"Halmahera Barat","district":"Ibu Selatan","urban":"Bataka","postal_code":97754},{"province":"Maluku Utara","city":"Halmahera Barat","district":"Ibu Selatan","urban":"Baru","postal_code":97754},{"province":"Maluku Utara","city":"Halmahera Barat","district":"Ibu Utara","urban":"Aru Jaya","postal_code":97754},{"province":"Maluku Utara","city":"Halmahera Barat","district":"Ibu","urban":"Akesibu","postal_code":97754},{"province":"Maluku Utara","city":"Halmahera Barat","district":"Ibu","urban":"Ake Boso","postal_code":97754},{"province":"Maluku Utara","city":"Halmahera Barat","district":"Ibu Selatan","urban":"Adu","postal_code":97754}]