[{"province":"Maluku Utara","city":"Halmahera Barat","district":"Loloda","urban":"Tuguis","postal_code":97755},{"province":"Maluku Utara","city":"Halmahera Barat","district":"Loloda","urban":"Totala Jaya","postal_code":97755},{"province":"Maluku Utara","city":"Halmahera Barat","district":"Loloda","urban":"Tuakara","postal_code":97755},{"province":"Maluku Utara","city":"Halmahera Barat","district":"Loloda","urban":"Tomodo","postal_code":97755},{"province":"Maluku Utara","city":"Halmahera Barat","district":"Loloda","urban":"Tosomolo","postal_code":97755},{"province":"Maluku Utara","city":"Halmahera Barat","district":"Loloda","urban":"Totala","postal_code":97755},{"province":"Maluku Utara","city":"Halmahera Barat","district":"Loloda","urban":"Tolofuo","postal_code":97755},{"province":"Maluku Utara","city":"Halmahera Barat","district":"Loloda","urban":"Tolofuo","postal_code":97755},{"province":"Maluku Utara","city":"Halmahera Barat","district":"Loloda","urban":"Tasye","postal_code":97755},{"province":"Maluku Utara","city":"Halmahera Barat","district":"Loloda","urban":"Soa-Sio","postal_code":97755},{"province":"Maluku Utara","city":"Halmahera Barat","district":"Loloda","urban":"Salu","postal_code":97755},{"province":"Maluku Utara","city":"Halmahera Barat","district":"Loloda","urban":"Pumadada","postal_code":97755},{"province":"Maluku Utara","city":"Halmahera Barat","district":"Loloda","urban":"Linggua","postal_code":97755},{"province":"Maluku Utara","city":"Halmahera Barat","district":"Loloda","urban":"Jano","postal_code":97755},{"province":"Maluku Utara","city":"Halmahera Barat","district":"Loloda","urban":"Laba Besar","postal_code":97755},{"province":"Maluku Utara","city":"Halmahera Barat","district":"Loloda","urban":"Laba Kecil","postal_code":97755},{"province":"Maluku Utara","city":"Halmahera Barat","district":"Loloda","urban":"Jangailulu","postal_code":97755},{"province":"Maluku Utara","city":"Halmahera Barat","district":"Loloda","urban":"Kedi","postal_code":97755},{"province":"Maluku Utara","city":"Halmahera Barat","district":"Loloda","urban":"Gamkahe","postal_code":97755},{"province":"Maluku Utara","city":"Halmahera Barat","district":"Loloda","urban":"Kahatola","postal_code":97755},{"province":"Maluku Utara","city":"Halmahera Barat","district":"Loloda","urban":"Bantol","postal_code":97755},{"province":"Maluku Utara","city":"Halmahera Barat","district":"Loloda","urban":"Baja","postal_code":97755},{"province":"Maluku Utara","city":"Halmahera Barat","district":"Loloda","urban":"Bakun","postal_code":97755},{"province":"Maluku Utara","city":"Halmahera Barat","district":"Loloda","urban":"Aruku","postal_code":97755},{"province":"Maluku Utara","city":"Halmahera Barat","district":"Loloda","urban":"Buo","postal_code":97755},{"province":"Maluku Utara","city":"Halmahera Barat","district":"Loloda","urban":"Bosala","postal_code":97755},{"province":"Maluku Utara","city":"Halmahera Barat","district":"Loloda","urban":"Bilote","postal_code":97755},{"province":"Maluku Utara","city":"Halmahera Barat","district":"Loloda","urban":"Barataku","postal_code":97755},{"province":"Maluku Utara","city":"Halmahera Barat","district":"Loloda","urban":"Bakun Pantai","postal_code":97755},{"province":"Maluku Utara","city":"Halmahera Utara","district":"Loloda Utara","urban":"Wori Moi","postal_code":97755},{"province":"Maluku Utara","city":"Halmahera Utara","district":"Loloda Kepulauan","urban":"Tuakara","postal_code":97755},{"province":"Maluku Utara","city":"Halmahera Utara","district":"Loloda Kepulauan","urban":"Tobo Tobo","postal_code":97755},{"province":"Maluku Utara","city":"Halmahera Utara","district":"Loloda Utara","urban":"Tate","postal_code":97755},{"province":"Maluku Utara","city":"Halmahera Utara","district":"Loloda Utara","urban":"Supu","postal_code":97755},{"province":"Maluku Utara","city":"Halmahera Utara","district":"Loloda Kepulauan","urban":"Salube","postal_code":97755},{"province":"Maluku Utara","city":"Halmahera Utara","district":"Loloda Utara","urban":"Posi Posi","postal_code":97755},{"province":"Maluku Utara","city":"Halmahera Utara","district":"Loloda Utara","urban":"Pocao","postal_code":97755},{"province":"Maluku Utara","city":"Halmahera Utara","district":"Loloda Utara","urban":"Podol","postal_code":97755},{"province":"Maluku Utara","city":"Halmahera Utara","district":"Loloda Utara","urban":"Momojiu","postal_code":97755},{"province":"Maluku Utara","city":"Halmahera Utara","district":"Loloda Utara","urban":"Ngajam","postal_code":97755},{"province":"Maluku Utara","city":"Halmahera Utara","district":"Loloda Kepulauan","urban":"Jikolamo","postal_code":97755},{"province":"Maluku Utara","city":"Halmahera Utara","district":"Loloda Utara","urban":"Kapa Kapa","postal_code":97755},{"province":"Maluku Utara","city":"Halmahera Utara","district":"Loloda Utara","urban":"Igo","postal_code":97755},{"province":"Maluku Utara","city":"Halmahera Utara","district":"Loloda Utara","urban":"Galao","postal_code":97755},{"province":"Maluku Utara","city":"Halmahera Utara","district":"Loloda Utara","urban":"Kailupa","postal_code":97755},{"province":"Maluku Utara","city":"Halmahera Utara","district":"Loloda Utara","urban":"Gisik","postal_code":97755},{"province":"Maluku Utara","city":"Halmahera Utara","district":"Loloda Kepulauan","urban":"Dowonggila","postal_code":97755},{"province":"Maluku Utara","city":"Halmahera Utara","district":"Loloda Kepulauan","urban":"Fitako","postal_code":97755},{"province":"Maluku Utara","city":"Halmahera Utara","district":"Loloda Utara","urban":"Dorume","postal_code":97755},{"province":"Maluku Utara","city":"Halmahera Utara","district":"Loloda Utara","urban":"Asimiro (Asmiro)","postal_code":97755},{"province":"Maluku Utara","city":"Halmahera Utara","district":"Loloda Utara","urban":"Dotia (Doitia)","postal_code":97755},{"province":"Maluku Utara","city":"Halmahera Utara","district":"Loloda Kepulauan","urban":"Dama","postal_code":97755},{"province":"Maluku Utara","city":"Halmahera Utara","district":"Loloda Utara","urban":"Apulea","postal_code":97755},{"province":"Maluku Utara","city":"Halmahera Utara","district":"Loloda Kepulauan","urban":"Dedeta","postal_code":97755},{"province":"Maluku Utara","city":"Halmahera Utara","district":"Loloda Kepulauan","urban":"Cera","postal_code":97755},{"province":"Maluku Utara","city":"Halmahera Utara","district":"Loloda Kepulauan","urban":"Dagasuli","postal_code":97755}]