[{"province":"Maluku Utara","city":"Halmahera Barat","district":"Sahu","urban":"Worat Worat","postal_code":97753},{"province":"Maluku Utara","city":"Halmahera Barat","district":"Sahu","urban":"Taraudu","postal_code":97753},{"province":"Maluku Utara","city":"Halmahera Barat","district":"Sahu","urban":"Todahe","postal_code":97753},{"province":"Maluku Utara","city":"Halmahera Barat","district":"Sahu","urban":"Tacim","postal_code":97753},{"province":"Maluku Utara","city":"Halmahera Barat","district":"Sahu Timur","urban":"Tibobo","postal_code":97753},{"province":"Maluku Utara","city":"Halmahera Barat","district":"Sahu","urban":"Tacici","postal_code":97753},{"province":"Maluku Utara","city":"Halmahera Barat","district":"Sahu Timur","urban":"Taraudu Kusu","postal_code":97753},{"province":"Maluku Utara","city":"Halmahera Barat","district":"Sahu","urban":"Susupu","postal_code":97753},{"province":"Maluku Utara","city":"Halmahera Barat","district":"Sahu","urban":"Taruba","postal_code":97753},{"province":"Maluku Utara","city":"Halmahera Barat","district":"Sahu Timur","urban":"Taba Campaka","postal_code":97753},{"province":"Maluku Utara","city":"Halmahera Barat","district":"Sahu","urban":"Sasur Pantai","postal_code":97753},{"province":"Maluku Utara","city":"Halmahera Barat","district":"Sahu Timur","urban":"Sidodadi","postal_code":97753},{"province":"Maluku Utara","city":"Halmahera Barat","district":"Sahu","urban":"Sasur","postal_code":97753},{"province":"Maluku Utara","city":"Halmahera Barat","district":"Sahu","urban":"Ropu Tengah Hulu","postal_code":97753},{"province":"Maluku Utara","city":"Halmahera Barat","district":"Sahu Timur","urban":"Loce","postal_code":97753},{"province":"Maluku Utara","city":"Halmahera Barat","district":"Sahu Timur","urban":"Ngaon","postal_code":97753},{"province":"Maluku Utara","city":"Halmahera Barat","district":"Sahu","urban":"Peot","postal_code":97753},{"province":"Maluku Utara","city":"Halmahera Barat","district":"Sahu Timur","urban":"Golago Kusuma","postal_code":97753},{"province":"Maluku Utara","city":"Halmahera Barat","district":"Sahu","urban":"Lako Akediri","postal_code":97753},{"province":"Maluku Utara","city":"Halmahera Barat","district":"Sahu Timur","urban":"Gamnyial","postal_code":97753},{"province":"Maluku Utara","city":"Halmahera Barat","district":"Sahu","urban":"Lako Akelamo","postal_code":97753},{"province":"Maluku Utara","city":"Halmahera Barat","district":"Sahu Timur","urban":"Gamomeng","postal_code":97753},{"province":"Maluku Utara","city":"Halmahera Barat","district":"Sahu","urban":"Jaraoke","postal_code":97753},{"province":"Maluku Utara","city":"Halmahera Barat","district":"Sahu Timur","urban":"Gamsungi","postal_code":97753},{"province":"Maluku Utara","city":"Halmahera Barat","district":"Sahu Timur","urban":"Hoku Hoku Gam","postal_code":97753},{"province":"Maluku Utara","city":"Halmahera Barat","district":"Sahu Timur","urban":"Campaka","postal_code":97753},{"province":"Maluku Utara","city":"Halmahera Barat","district":"Sahu Timur","urban":"Idamgamlamo","postal_code":97753},{"province":"Maluku Utara","city":"Halmahera Barat","district":"Sahu","urban":"Dere","postal_code":97753},{"province":"Maluku Utara","city":"Halmahera Barat","district":"Sahu","urban":"Golo","postal_code":97753},{"province":"Maluku Utara","city":"Halmahera Barat","district":"Sahu","urban":"Balisoan","postal_code":97753},{"province":"Maluku Utara","city":"Halmahera Barat","district":"Sahu","urban":"Goro Goro","postal_code":97753},{"province":"Maluku Utara","city":"Halmahera Barat","district":"Sahu","urban":"Balisoan Utara","postal_code":97753},{"province":"Maluku Utara","city":"Halmahera Barat","district":"Sahu Timur","urban":"Goal","postal_code":97753},{"province":"Maluku Utara","city":"Halmahera Barat","district":"Sahu Timur","urban":"Awer","postal_code":97753},{"province":"Maluku Utara","city":"Halmahera Barat","district":"Sahu Timur","urban":"Akelamo","postal_code":97753},{"province":"Maluku Utara","city":"Halmahera Barat","district":"Sahu Timur","urban":"Aketola","postal_code":97753},{"province":"Maluku Utara","city":"Halmahera Barat","district":"Sahu Timur","urban":"Air Panas","postal_code":97753}]