[{"province":"Maluku Utara","city":"Ternate","district":"Pulau Hiri","urban":"Tomajiko","postal_code":97751},{"province":"Maluku Utara","city":"Ternate","district":"Ternate Utara (Kota)","urban":"Tubo","postal_code":97751},{"province":"Maluku Utara","city":"Ternate","district":"Pulau Hiri","urban":"Togolobe","postal_code":97751},{"province":"Maluku Utara","city":"Ternate","district":"Pulau Ternate","urban":"Tobololo","postal_code":97751},{"province":"Maluku Utara","city":"Ternate","district":"Pulau Ternate","urban":"Togafo","postal_code":97751},{"province":"Maluku Utara","city":"Ternate","district":"Pulau Batang Dua","urban":"Tifure","postal_code":97751},{"province":"Maluku Utara","city":"Ternate","district":"Pulau Batang Dua","urban":"Tifure","postal_code":97751},{"province":"Maluku Utara","city":"Ternate","district":"Moti (Pulau Moti)","urban":"Takofi","postal_code":97751},{"province":"Maluku Utara","city":"Ternate","district":"Pulau Hiri","urban":"Tafraka","postal_code":97751},{"province":"Maluku Utara","city":"Ternate","district":"Pulau Ternate","urban":"Takome","postal_code":97751},{"province":"Maluku Utara","city":"Ternate","district":"Moti (Pulau Moti)","urban":"Tafaga","postal_code":97751},{"province":"Maluku Utara","city":"Ternate","district":"Moti (Pulau Moti)","urban":"Tafamutu","postal_code":97751},{"province":"Maluku Utara","city":"Ternate","district":"Pulau Ternate","urban":"Sulamadaha","postal_code":97751},{"province":"Maluku Utara","city":"Ternate","district":"Moti (Pulau Moti)","urban":"Tadenas","postal_code":97751},{"province":"Maluku Utara","city":"Ternate","district":"Ternate Tengah (Kota)","urban":"Salahuddin","postal_code":97751},{"province":"Maluku Utara","city":"Ternate","district":"Ternate Utara (Kota)","urban":"Sangaji Utara","postal_code":97751},{"province":"Maluku Utara","city":"Ternate","district":"Pulau Batang Dua","urban":"Perum Bersatu","postal_code":97751},{"province":"Maluku Utara","city":"Ternate","district":"Pulau Ternate","urban":"Rua","postal_code":97751},{"province":"Maluku Utara","city":"Ternate","district":"Pulau Batang Dua","urban":"Pantai Sagu","postal_code":97751},{"province":"Maluku Utara","city":"Ternate","district":"Moti (Pulau Moti)","urban":"Moti Kota","postal_code":97751},{"province":"Maluku Utara","city":"Ternate","district":"Pulau Batang Dua","urban":"Mayau","postal_code":97751},{"province":"Maluku Utara","city":"Ternate","district":"Ternate Selatan (Kota)","urban":"Mangga Dua","postal_code":97751},{"province":"Maluku Utara","city":"Ternate","district":"Pulau Hiri","urban":"Mado","postal_code":97751},{"province":"Maluku Utara","city":"Ternate","district":"Pulau Batang Dua","urban":"Lelewi","postal_code":97751},{"province":"Maluku Utara","city":"Ternate","district":"Pulau Ternate","urban":"Loto","postal_code":97751},{"province":"Maluku Utara","city":"Ternate","district":"Ternate Tengah (Kota)","urban":"Kota Baru","postal_code":97751},{"province":"Maluku Utara","city":"Ternate","district":"Pulau Ternate","urban":"Kulaba","postal_code":97751},{"province":"Maluku Utara","city":"Ternate","district":"Ternate Selatan (Kota)","urban":"Kayu Merah","postal_code":97751},{"province":"Maluku Utara","city":"Ternate","district":"Pulau Ternate","urban":"Kastela","postal_code":97751},{"province":"Maluku Utara","city":"Ternate","district":"Moti (Pulau Moti)","urban":"Figur","postal_code":97751},{"province":"Maluku Utara","city":"Ternate","district":"Pulau Ternate","urban":"Foramadiahi","postal_code":97751},{"province":"Maluku Utara","city":"Ternate","district":"Pulau Ternate","urban":"Jambula","postal_code":97751},{"province":"Maluku Utara","city":"Ternate","district":"Pulau Hiri","urban":"Faudu","postal_code":97751},{"province":"Maluku Utara","city":"Ternate","district":"Pulau Ternate","urban":"Dorpedu","postal_code":97751},{"province":"Maluku Utara","city":"Ternate","district":"Pulau Hiri","urban":"Dorari Isa","postal_code":97751},{"province":"Maluku Utara","city":"Ternate","district":"Pulau Ternate","urban":"Bula","postal_code":97751},{"province":"Maluku Utara","city":"Ternate","district":"Pulau Batang Dua","urban":"Bido","postal_code":97751},{"province":"Maluku Utara","city":"Ternate","district":"Ternate Utara (Kota)","urban":"Akehuda","postal_code":97751},{"province":"Maluku Utara","city":"Ternate","district":"Pulau Ternate","urban":"Afe Taduma","postal_code":97751}]