[{"province":"Maluku Utara","city":"Halmahera Utara","district":"Galela Utara","urban":"Tutumaloleo","postal_code":97761},{"province":"Maluku Utara","city":"Halmahera Utara","district":"Galela","urban":"Torawa","postal_code":97761},{"province":"Maluku Utara","city":"Halmahera Utara","district":"Galela","urban":"Toweka","postal_code":97761},{"province":"Maluku Utara","city":"Halmahera Utara","district":"Galela Selatan","urban":"Togawa","postal_code":97761},{"province":"Maluku Utara","city":"Halmahera Utara","district":"Galela Selatan","urban":"Togawabesi","postal_code":97761},{"province":"Maluku Utara","city":"Halmahera Utara","district":"Galela Utara","urban":"Togasa","postal_code":97761},{"province":"Maluku Utara","city":"Halmahera Utara","district":"Galela Selatan","urban":"Soakonora","postal_code":97761},{"province":"Maluku Utara","city":"Halmahera Utara","district":"Galela Barat","urban":"Soatobaru","postal_code":97761},{"province":"Maluku Utara","city":"Halmahera Utara","district":"Galela","urban":"Simau","postal_code":97761},{"province":"Maluku Utara","city":"Halmahera Utara","district":"Galela","urban":"Soa Sio","postal_code":97761},{"province":"Maluku Utara","city":"Halmahera Utara","district":"Galela Barat","urban":"Samuda (Samudra)","postal_code":97761},{"province":"Maluku Utara","city":"Halmahera Utara","district":"Galela Selatan","urban":"Seki","postal_code":97761},{"province":"Maluku Utara","city":"Halmahera Utara","district":"Galela Utara","urban":"Salimuli","postal_code":97761},{"province":"Maluku Utara","city":"Halmahera Utara","district":"Galela Utara","urban":"Saluta","postal_code":97761},{"province":"Maluku Utara","city":"Halmahera Utara","district":"Galela Barat","urban":"Roko","postal_code":97761},{"province":"Maluku Utara","city":"Halmahera Utara","district":"Galela Utara","urban":"Pelita","postal_code":97761},{"province":"Maluku Utara","city":"Halmahera Utara","district":"Galela","urban":"Pune","postal_code":97761},{"province":"Maluku Utara","city":"Halmahera Utara","district":"Galela Selatan","urban":"Ori","postal_code":97761},{"province":"Maluku Utara","city":"Halmahera Utara","district":"Galela Barat","urban":"Ngidiho","postal_code":97761},{"province":"Maluku Utara","city":"Halmahera Utara","district":"Galela","urban":"Mamuya","postal_code":97761},{"province":"Maluku Utara","city":"Halmahera Utara","district":"Galela Utara","urban":"Limau","postal_code":97761},{"province":"Maluku Utara","city":"Halmahera Utara","district":"Galela Barat","urban":"Makete","postal_code":97761},{"province":"Maluku Utara","city":"Halmahera Utara","district":"Galela Utara","urban":"Jere Tua","postal_code":97761},{"province":"Maluku Utara","city":"Halmahera Utara","district":"Galela Utara","urban":"Lalonga","postal_code":97761},{"province":"Maluku Utara","city":"Halmahera Utara","district":"Galela Barat","urban":"Kira","postal_code":97761},{"province":"Maluku Utara","city":"Halmahera Utara","district":"Galela Utara","urban":"Jare (Jere)","postal_code":97761},{"province":"Maluku Utara","city":"Halmahera Utara","district":"Galela Selatan","urban":"Igobula","postal_code":97761},{"province":"Maluku Utara","city":"Halmahera Utara","district":"Galela Barat","urban":"Dokulamo","postal_code":97761},{"province":"Maluku Utara","city":"Halmahera Utara","district":"Galela Utara","urban":"Jare (Jere)","postal_code":97761},{"province":"Maluku Utara","city":"Halmahera Utara","district":"Galela Barat","urban":"Duma","postal_code":97761},{"province":"Maluku Utara","city":"Halmahera Utara","district":"Galela Utara","urban":"Bobi Singo","postal_code":97761},{"province":"Maluku Utara","city":"Halmahera Utara","district":"Galela Utara","urban":"Dodowo","postal_code":97761},{"province":"Maluku Utara","city":"Halmahera Utara","district":"Galela","urban":"Barataku","postal_code":97761},{"province":"Maluku Utara","city":"Halmahera Utara","district":"Galela Utara","urban":"Beringin Jaya","postal_code":97761},{"province":"Maluku Utara","city":"Halmahera Utara","district":"Galela Selatan","urban":"Bale","postal_code":97761}]