[{"province":"Maluku Utara","city":"Halmahera Utara","district":"Kao Barat","urban":"Wonosari","postal_code":97764},{"province":"Maluku Utara","city":"Halmahera Utara","district":"Kao Utara","urban":"Wateto","postal_code":97764},{"province":"Maluku Utara","city":"Halmahera Utara","district":"Kao Utara","urban":"Warudu","postal_code":97764},{"province":"Maluku Utara","city":"Halmahera Utara","district":"Kao","urban":"Waringin Lelewi","postal_code":97764},{"province":"Maluku Utara","city":"Halmahera Utara","district":"Malifut","urban":"Wangeotek (Wangeotak)","postal_code":97764},{"province":"Maluku Utara","city":"Halmahera Utara","district":"Kao","urban":"Waringin Lamo","postal_code":97764},{"province":"Maluku Utara","city":"Halmahera Utara","district":"Kao Utara","urban":"Tunuo","postal_code":97764},{"province":"Maluku Utara","city":"Halmahera Utara","district":"Kao Barat","urban":"Tuguis","postal_code":97764},{"province":"Maluku Utara","city":"Halmahera Utara","district":"Kao Barat","urban":"Toliwang","postal_code":97764},{"province":"Maluku Utara","city":"Halmahera Utara","district":"Kao Barat","urban":"Torawat","postal_code":97764},{"province":"Maluku Utara","city":"Halmahera Utara","district":"Kao Barat","urban":"Toboulamo","postal_code":97764},{"province":"Maluku Utara","city":"Halmahera Utara","district":"Kao Barat","urban":"Tolabit","postal_code":97764},{"province":"Maluku Utara","city":"Halmahera Utara","district":"Malifut","urban":"Tobobo","postal_code":97764},{"province":"Maluku Utara","city":"Halmahera Utara","district":"Kao Teluk","urban":"Tiowor","postal_code":97764},{"province":"Maluku Utara","city":"Halmahera Utara","district":"Kao Teluk","urban":"Tobanoma","postal_code":97764},{"province":"Maluku Utara","city":"Halmahera Utara","district":"Malifut","urban":"Talapao","postal_code":97764},{"province":"Maluku Utara","city":"Halmahera Utara","district":"Malifut","urban":"Terpadu","postal_code":97764},{"province":"Maluku Utara","city":"Halmahera Utara","district":"Malifut","urban":"Tahane","postal_code":97764},{"province":"Maluku Utara","city":"Halmahera Utara","district":"Kao Barat","urban":"Takimo","postal_code":97764},{"province":"Maluku Utara","city":"Halmahera Utara","district":"Malifut","urban":"Tafasoho","postal_code":97764},{"province":"Maluku Utara","city":"Halmahera Utara","district":"Malifut","urban":"Tagono","postal_code":97764},{"province":"Maluku Utara","city":"Halmahera Utara","district":"Kao","urban":"Sumber Agung","postal_code":97764},{"province":"Maluku Utara","city":"Halmahera Utara","district":"Malifut","urban":"Sosol","postal_code":97764},{"province":"Maluku Utara","city":"Halmahera Utara","district":"Malifut","urban":"Soma","postal_code":97764},{"province":"Maluku Utara","city":"Halmahera Utara","district":"Kao","urban":"Soasangaji Dim Dim","postal_code":97764},{"province":"Maluku Utara","city":"Halmahera Utara","district":"Kao Barat","urban":"Soa Hukum","postal_code":97764},{"province":"Maluku Utara","city":"Halmahera Utara","district":"Kao Barat","urban":"Soamaetek","postal_code":97764},{"province":"Maluku Utara","city":"Halmahera Utara","district":"Kao","urban":"Sasur","postal_code":97764},{"province":"Maluku Utara","city":"Halmahera Utara","district":"Kao Barat","urban":"Sangaji Jaya","postal_code":97764},{"province":"Maluku Utara","city":"Halmahera Utara","district":"Kao","urban":"Popon","postal_code":97764},{"province":"Maluku Utara","city":"Halmahera Utara","district":"Malifut","urban":"Sabaleh","postal_code":97764},{"province":"Maluku Utara","city":"Halmahera Utara","district":"Malifut","urban":"Samsuma","postal_code":97764},{"province":"Maluku Utara","city":"Halmahera Utara","district":"Kao Barat","urban":"Pitago","postal_code":97764},{"province":"Maluku Utara","city":"Halmahera Utara","district":"Malifut","urban":"Peleri","postal_code":97764},{"province":"Maluku Utara","city":"Halmahera Utara","district":"Kao Utara","urban":"Pediwang (Pidiwang)","postal_code":97764},{"province":"Maluku Utara","city":"Halmahera Utara","district":"Kao","urban":"Patang","postal_code":97764},{"province":"Maluku Utara","city":"Halmahera Utara","district":"Kao Barat","urban":"Parseba","postal_code":97764},{"province":"Maluku Utara","city":"Halmahera Utara","district":"Malifut","urban":"Ngofagita","postal_code":97764},{"province":"Maluku Utara","city":"Halmahera Utara","district":"Malifut","urban":"Ngofakiaha","postal_code":97764},{"province":"Maluku Utara","city":"Halmahera Utara","district":"Malifut","urban":"Ngofabobawa","postal_code":97764},{"province":"Maluku Utara","city":"Halmahera Utara","district":"Kao Barat","urban":"Momoda","postal_code":97764},{"province":"Maluku Utara","city":"Halmahera Utara","district":"Kao Barat","urban":"Ngoali","postal_code":97764},{"province":"Maluku Utara","city":"Halmahera Utara","district":"Kao Barat","urban":"Margomolyo (Margomoyo)","postal_code":97764},{"province":"Maluku Utara","city":"Halmahera Utara","district":"Malifut","urban":"Malapa","postal_code":97764},{"province":"Maluku Utara","city":"Halmahera Utara","district":"Malifut","urban":"Matsa","postal_code":97764},{"province":"Maluku Utara","city":"Halmahera Utara","district":"Kao Teluk","urban":"Makaeling","postal_code":97764},{"province":"Maluku Utara","city":"Halmahera Utara","district":"Kao Barat","urban":"Makarti","postal_code":97764},{"province":"Maluku Utara","city":"Halmahera Utara","district":"Kao Barat","urban":"Leleseng (Lelesang)","postal_code":97764},{"province":"Maluku Utara","city":"Halmahera Utara","district":"Malifut","urban":"Mailoa","postal_code":97764},{"province":"Maluku Utara","city":"Halmahera Utara","district":"Kao","urban":"Kusu","postal_code":97764},{"province":"Maluku Utara","city":"Halmahera Utara","district":"Kao","urban":"Kusu Lofra","postal_code":97764},{"province":"Maluku Utara","city":"Halmahera Utara","district":"Kao Teluk","urban":"Kuntum Mekar","postal_code":97764},{"province":"Maluku Utara","city":"Halmahera Utara","district":"Kao","urban":"Kukumutuk","postal_code":97764},{"province":"Maluku Utara","city":"Halmahera Utara","district":"Kao Barat","urban":"Kai","postal_code":97764},{"province":"Maluku Utara","city":"Halmahera Utara","district":"Kao Barat","urban":"Kai","postal_code":97764},{"province":"Maluku Utara","city":"Halmahera Utara","district":"Kao","urban":"Jati","postal_code":97764},{"province":"Maluku Utara","city":"Halmahera Utara","district":"Kao Utara","urban":"Gulo","postal_code":97764},{"province":"Maluku Utara","city":"Halmahera Utara","district":"Kao","urban":"Goruang","postal_code":97764},{"province":"Maluku Utara","city":"Halmahera Utara","district":"Kao Utara","urban":"Gamlaha","postal_code":97764},{"province":"Maluku Utara","city":"Halmahera Utara","district":"Malifut","urban":"Gayok","postal_code":97764},{"province":"Maluku Utara","city":"Halmahera Utara","district":"Kao Utara","urban":"Dowongimaiti","postal_code":97764},{"province":"Maluku Utara","city":"Halmahera Utara","district":"Kao Barat","urban":"Gagaapok","postal_code":97764},{"province":"Maluku Utara","city":"Halmahera Utara","district":"Kao Utara","urban":"Daru","postal_code":97764},{"province":"Maluku Utara","city":"Halmahera Utara","district":"Kao Utara","urban":"Doro","postal_code":97764},{"province":"Maluku Utara","city":"Halmahera Utara","district":"Kao Utara","urban":"Boulamo","postal_code":97764},{"province":"Maluku Utara","city":"Halmahera Utara","district":"Malifut","urban":"Bukit Tinggi","postal_code":97764},{"province":"Maluku Utara","city":"Halmahera Utara","district":"Kao Utara","urban":"Bobale","postal_code":97764},{"province":"Maluku Utara","city":"Halmahera Utara","district":"Kao Utara","urban":"Bori","postal_code":97764},{"province":"Maluku Utara","city":"Halmahera Utara","district":"Malifut","urban":"Bobawa","postal_code":97764},{"province":"Maluku Utara","city":"Halmahera Utara","district":"Kao","urban":"Biang","postal_code":97764},{"province":"Maluku Utara","city":"Halmahera Utara","district":"Kao Teluk","urban":"Barumadehe","postal_code":97764},{"province":"Maluku Utara","city":"Halmahera Utara","district":"Kao Barat","urban":"Beringin Agung","postal_code":97764},{"province":"Maluku Utara","city":"Halmahera Utara","district":"Malifut","urban":"Balisosang","postal_code":97764}]