[{"province":"Maluku Utara","city":"Halmahera Utara","district":"Tobelo Timur","urban":"Yaro","postal_code":97762},{"province":"Maluku Utara","city":"Halmahera Utara","district":"Tobelo Timur","urban":"Yaro","postal_code":97762},{"province":"Maluku Utara","city":"Halmahera Utara","district":"Tobelo Tengah","urban":"WKO","postal_code":97762},{"province":"Maluku Utara","city":"Halmahera Utara","district":"Tobelo Tengah","urban":"Wosi (Wosia)","postal_code":97762},{"province":"Maluku Utara","city":"Halmahera Utara","district":"Tobelo","urban":"Wari","postal_code":97762},{"province":"Maluku Utara","city":"Halmahera Utara","district":"Tobelo","urban":"Wari Ino","postal_code":97762},{"province":"Maluku Utara","city":"Halmahera Utara","district":"Tobelo Barat","urban":"Wangongira","postal_code":97762},{"province":"Maluku Utara","city":"Halmahera Utara","district":"Tobelo Selatan","urban":"Toma Halu","postal_code":97762},{"province":"Maluku Utara","city":"Halmahera Utara","district":"Tobelo Tengah","urban":"Upa","postal_code":97762},{"province":"Maluku Utara","city":"Halmahera Utara","district":"Tobelo Utara","urban":"Tolonua Selatan","postal_code":97762},{"province":"Maluku Utara","city":"Halmahera Utara","district":"Tobelo Utara","urban":"Tolonuo","postal_code":97762},{"province":"Maluku Utara","city":"Halmahera Utara","district":"Tobelo Barat","urban":"Togoliua","postal_code":97762},{"province":"Maluku Utara","city":"Halmahera Utara","district":"Tobelo Selatan","urban":"Tobe","postal_code":97762},{"province":"Maluku Utara","city":"Halmahera Utara","district":"Tobelo Timur","urban":"Todokuiha","postal_code":97762},{"province":"Maluku Utara","city":"Halmahera Utara","district":"Tobelo Selatan","urban":"Talaga Paca","postal_code":97762},{"province":"Maluku Utara","city":"Halmahera Utara","district":"Tobelo Selatan","urban":"Tioua","postal_code":97762},{"province":"Maluku Utara","city":"Halmahera Utara","district":"Tobelo Tengah","urban":"Tanjung Niara (Wosi/Wosia Selatan)","postal_code":97762},{"province":"Maluku Utara","city":"Halmahera Utara","district":"Tobelo","urban":"Tagalaya","postal_code":97762},{"province":"Maluku Utara","city":"Halmahera Utara","district":"Tobelo Barat","urban":"Sukamaju","postal_code":97762},{"province":"Maluku Utara","city":"Halmahera Utara","district":"Tobelo","urban":"Rawajaya","postal_code":97762},{"province":"Maluku Utara","city":"Halmahera Utara","district":"Tobelo Utara","urban":"Ruko","postal_code":97762},{"province":"Maluku Utara","city":"Halmahera Utara","district":"Tobelo Utara","urban":"Popila Utara","postal_code":97762},{"province":"Maluku Utara","city":"Halmahera Utara","district":"Tobelo Utara","urban":"Popilo","postal_code":97762},{"province":"Maluku Utara","city":"Halmahera Utara","district":"Tobelo Selatan","urban":"Pale","postal_code":97762},{"province":"Maluku Utara","city":"Halmahera Utara","district":"Tobelo Tengah","urban":"Pitu","postal_code":97762},{"province":"Maluku Utara","city":"Halmahera Utara","district":"Tobelo","urban":"MKCM","postal_code":97762},{"province":"Maluku Utara","city":"Halmahera Utara","district":"Tobelo Selatan","urban":"Paca","postal_code":97762},{"province":"Maluku Utara","city":"Halmahera Utara","district":"Tobelo Timur","urban":"Mawea","postal_code":97762},{"province":"Maluku Utara","city":"Halmahera Utara","district":"Tobelo Timur","urban":"Meti","postal_code":97762},{"province":"Maluku Utara","city":"Halmahera Utara","district":"Tobelo Utara","urban":"Luari","postal_code":97762},{"province":"Maluku Utara","city":"Halmahera Utara","district":"Tobelo Tengah","urban":"Lina Ino","postal_code":97762},{"province":"Maluku Utara","city":"Halmahera Utara","district":"Tobelo Tengah","urban":"Mahia (Wosi/Wosia Tengah)","postal_code":97762},{"province":"Maluku Utara","city":"Halmahera Utara","district":"Tobelo Selatan","urban":"Leleoto","postal_code":97762},{"province":"Maluku Utara","city":"Halmahera Utara","district":"Tobelo Selatan","urban":"Lemah Ino","postal_code":97762},{"province":"Maluku Utara","city":"Halmahera Utara","district":"Tobelo Selatan","urban":"Kupa Kupa Selatan","postal_code":97762},{"province":"Maluku Utara","city":"Halmahera Utara","district":"Tobelo Barat","urban":"Kusuri","postal_code":97762},{"province":"Maluku Utara","city":"Halmahera Utara","district":"Tobelo","urban":"Kumo","postal_code":97762},{"province":"Maluku Utara","city":"Halmahera Utara","district":"Tobelo Selatan","urban":"Kupa Kupa","postal_code":97762},{"province":"Maluku Utara","city":"Halmahera Utara","district":"Tobelo Utara","urban":"Kokota Jaya (Kokotua Jaya)","postal_code":97762},{"province":"Maluku Utara","city":"Halmahera Utara","district":"Tobelo Timur","urban":"Katana","postal_code":97762},{"province":"Maluku Utara","city":"Halmahera Utara","district":"Tobelo Tengah","urban":"Kalipitu","postal_code":97762},{"province":"Maluku Utara","city":"Halmahera Utara","district":"Tobelo Tengah","urban":"Kali Upa","postal_code":97762},{"province":"Maluku Utara","city":"Halmahera Utara","district":"Tobelo Selatan","urban":"Kakara B","postal_code":97762},{"province":"Maluku Utara","city":"Halmahera Utara","district":"Tobelo","urban":"Kakara A","postal_code":97762},{"province":"Maluku Utara","city":"Halmahera Utara","district":"Tobelo","urban":"Gosoma","postal_code":97762},{"province":"Maluku Utara","city":"Halmahera Utara","district":"Tobelo","urban":"Gura","postal_code":97762},{"province":"Maluku Utara","city":"Halmahera Utara","district":"Tobelo Utara","urban":"Gorua Selatan","postal_code":97762},{"province":"Maluku Utara","city":"Halmahera Utara","district":"Tobelo Utara","urban":"Gorua Utara","postal_code":97762},{"province":"Maluku Utara","city":"Halmahera Utara","district":"Tobelo Timur","urban":"Gonga","postal_code":97762},{"province":"Maluku Utara","city":"Halmahera Utara","district":"Tobelo Utara","urban":"Gorua","postal_code":97762},{"province":"Maluku Utara","city":"Halmahera Utara","district":"Tobelo","urban":"Gamsungi","postal_code":97762},{"province":"Maluku Utara","city":"Halmahera Utara","district":"Tobelo Selatan","urban":"Gamhoku","postal_code":97762},{"province":"Maluku Utara","city":"Halmahera Utara","district":"Tobelo Selatan","urban":"Efi Efi","postal_code":97762},{"province":"Maluku Utara","city":"Halmahera Utara","district":"Tobelo Barat","urban":"Birinoa","postal_code":97762}]