[{"province":"Maluku Utara","city":"Pulau Morotai","district":"Morotai Selatan","urban":"Yayasan","postal_code":97771},{"province":"Maluku Utara","city":"Pulau Morotai","district":"Morotai Selatan Barat","urban":"Wayabula","postal_code":97771},{"province":"Maluku Utara","city":"Pulau Morotai","district":"Morotai Selatan","urban":"Wawama","postal_code":97771},{"province":"Maluku Utara","city":"Pulau Morotai","district":"Morotai Selatan Barat","urban":"Waringin","postal_code":97771},{"province":"Maluku Utara","city":"Pulau Morotai","district":"Morotai Selatan","urban":"Totodoku","postal_code":97771},{"province":"Maluku Utara","city":"Pulau Morotai","district":"Morotai Selatan Barat","urban":"Tutuhu (Tuthu)","postal_code":97771},{"province":"Maluku Utara","city":"Pulau Morotai","district":"Morotai Selatan Barat","urban":"Usbar Pantai","postal_code":97771},{"province":"Maluku Utara","city":"Pulau Morotai","district":"Morotai Selatan Barat","urban":"Tiley Pantai","postal_code":97771},{"province":"Maluku Utara","city":"Pulau Morotai","district":"Morotai Timur","urban":"Sangowo Timur","postal_code":97771},{"province":"Maluku Utara","city":"Pulau Morotai","district":"Morotai Selatan Barat","urban":"Tiley Kusu","postal_code":97771},{"province":"Maluku Utara","city":"Pulau Morotai","district":"Morotai Timur","urban":"Sangowo","postal_code":97771},{"province":"Maluku Utara","city":"Pulau Morotai","district":"Morotai Timur","urban":"Sangowo Barat","postal_code":97771},{"province":"Maluku Utara","city":"Pulau Morotai","district":"Morotai Selatan Barat","urban":"Saminyamau","postal_code":97771},{"province":"Maluku Utara","city":"Pulau Morotai","district":"Morotai Timur","urban":"Sambiki","postal_code":97771},{"province":"Maluku Utara","city":"Pulau Morotai","district":"Morotai Timur","urban":"Sambiki Baru","postal_code":97771},{"province":"Maluku Utara","city":"Pulau Morotai","district":"Morotai Selatan","urban":"Sabatai Baru","postal_code":97771},{"province":"Maluku Utara","city":"Pulau Morotai","district":"Morotai Selatan","urban":"Sabatai Tua","postal_code":97771},{"province":"Maluku Utara","city":"Pulau Morotai","district":"Morotai Selatan","urban":"Sabala","postal_code":97771},{"province":"Maluku Utara","city":"Pulau Morotai","district":"Morotai Selatan Barat","urban":"Raja","postal_code":97771},{"province":"Maluku Utara","city":"Pulau Morotai","district":"Morotai Selatan","urban":"Pilowo","postal_code":97771},{"province":"Maluku Utara","city":"Pulau Morotai","district":"Morotai Selatan Barat","urban":"Posi Posi Rao","postal_code":97771},{"province":"Maluku Utara","city":"Pulau Morotai","district":"Morotai Selatan","urban":"Pandangan","postal_code":97771},{"province":"Maluku Utara","city":"Pulau Morotai","district":"Morotai Selatan Barat","urban":"Ngele Ngele Besar","postal_code":97771},{"province":"Maluku Utara","city":"Pulau Morotai","district":"Morotai Selatan Barat","urban":"Ngele Ngele Kecil","postal_code":97771},{"province":"Maluku Utara","city":"Pulau Morotai","district":"Morotai Selatan","urban":"Muhajirin","postal_code":97771},{"province":"Maluku Utara","city":"Pulau Morotai","district":"Morotai Selatan","urban":"Nakamura","postal_code":97771},{"province":"Maluku Utara","city":"Pulau Morotai","district":"Morotai Selatan","urban":"Mandiri","postal_code":97771},{"province":"Maluku Utara","city":"Pulau Morotai","district":"Morotai Selatan","urban":"Momojiu","postal_code":97771},{"province":"Maluku Utara","city":"Pulau Morotai","district":"Morotai Selatan","urban":"Morodadi","postal_code":97771},{"province":"Maluku Utara","city":"Pulau Morotai","district":"Morotai Selatan Barat","urban":"Leo Leo","postal_code":97771},{"province":"Maluku Utara","city":"Pulau Morotai","district":"Morotai Selatan Barat","urban":"Lou Madoro","postal_code":97771},{"province":"Maluku Utara","city":"Pulau Morotai","district":"Morotai Selatan","urban":"Koloray (Kolorai)","postal_code":97771},{"province":"Maluku Utara","city":"Pulau Morotai","district":"Morotai Selatan","urban":"Joubela","postal_code":97771},{"province":"Maluku Utara","city":"Pulau Morotai","district":"Morotai Selatan","urban":"Juanga","postal_code":97771},{"province":"Maluku Utara","city":"Pulau Morotai","district":"Morotai Selatan","urban":"Falila","postal_code":97771},{"province":"Maluku Utara","city":"Pulau Morotai","district":"Morotai Selatan","urban":"Galo Galo","postal_code":97771},{"province":"Maluku Utara","city":"Pulau Morotai","district":"Morotai Selatan","urban":"Gotalamo","postal_code":97771},{"province":"Maluku Utara","city":"Pulau Morotai","district":"Morotai Selatan","urban":"Daruba","postal_code":97771},{"province":"Maluku Utara","city":"Pulau Morotai","district":"Morotai Selatan","urban":"Dehegila","postal_code":97771},{"province":"Maluku Utara","city":"Pulau Morotai","district":"Morotai Selatan","urban":"Daeo","postal_code":97771},{"province":"Maluku Utara","city":"Pulau Morotai","district":"Morotai Selatan","urban":"Daeo Majiko","postal_code":97771},{"province":"Maluku Utara","city":"Pulau Morotai","district":"Morotai Selatan","urban":"Darame","postal_code":97771},{"province":"Maluku Utara","city":"Pulau Morotai","district":"Morotai Selatan Barat","urban":"Cio Maloleo","postal_code":97771},{"province":"Maluku Utara","city":"Pulau Morotai","district":"Morotai Selatan Barat","urban":"Cucumare","postal_code":97771},{"province":"Maluku Utara","city":"Pulau Morotai","district":"Morotai Selatan Barat","urban":"Cio Dalam","postal_code":97771},{"province":"Maluku Utara","city":"Pulau Morotai","district":"Morotai Selatan Barat","urban":"Cio Gerong","postal_code":97771},{"province":"Maluku Utara","city":"Pulau Morotai","district":"Morotai Selatan Barat","urban":"Aru Burung","postal_code":97771},{"province":"Maluku Utara","city":"Pulau Morotai","district":"Morotai Selatan Barat","urban":"Aru Irian","postal_code":97771},{"province":"Maluku Utara","city":"Pulau Morotai","district":"Morotai Selatan Barat","urban":"Bobula","postal_code":97771},{"province":"Maluku Utara","city":"Pulau Morotai","district":"Morotai Selatan","urban":"Aha","postal_code":97771}]