[{"province":"Maluku Utara","city":"Pulau Morotai","district":"Morotai Utara","urban":"Yao","postal_code":97772},{"province":"Maluku Utara","city":"Pulau Morotai","district":"Morotai Timur","urban":"Wewemo","postal_code":97772},{"province":"Maluku Utara","city":"Pulau Morotai","district":"Morotai Jaya","urban":"Titigogoli","postal_code":97772},{"province":"Maluku Utara","city":"Pulau Morotai","district":"Morotai Jaya","urban":"Towara","postal_code":97772},{"province":"Maluku Utara","city":"Pulau Morotai","district":"Morotai Utara","urban":"Tawakali","postal_code":97772},{"province":"Maluku Utara","city":"Pulau Morotai","district":"Morotai Utara","urban":"Tanjung Saleh","postal_code":97772},{"province":"Maluku Utara","city":"Pulau Morotai","district":"Morotai Jaya","urban":"Sopi","postal_code":97772},{"province":"Maluku Utara","city":"Pulau Morotai","district":"Morotai Jaya","urban":"Sopi Majiko","postal_code":97772},{"province":"Maluku Utara","city":"Pulau Morotai","district":"Morotai Utara","urban":"Sakita","postal_code":97772},{"province":"Maluku Utara","city":"Pulau Morotai","district":"Morotai Timur","urban":"Rahmat","postal_code":97772},{"province":"Maluku Utara","city":"Pulau Morotai","district":"Morotai Jaya","urban":"Podimor Padange","postal_code":97772},{"province":"Maluku Utara","city":"Pulau Morotai","district":"Morotai Jaya","urban":"Pangeo","postal_code":97772},{"province":"Maluku Utara","city":"Pulau Morotai","district":"Morotai Timur","urban":"Mira","postal_code":97772},{"province":"Maluku Utara","city":"Pulau Morotai","district":"Morotai Utara","urban":"Maba","postal_code":97772},{"province":"Maluku Utara","city":"Pulau Morotai","district":"Morotai Utara","urban":"Losuo","postal_code":97772},{"province":"Maluku Utara","city":"Pulau Morotai","district":"Morotai Utara","urban":"Loleo Jaya","postal_code":97772},{"province":"Maluku Utara","city":"Pulau Morotai","district":"Morotai Timur","urban":"Lifao","postal_code":97772},{"province":"Maluku Utara","city":"Pulau Morotai","district":"Morotai Jaya","urban":"Loleo","postal_code":97772},{"province":"Maluku Utara","city":"Pulau Morotai","district":"Morotai Jaya","urban":"Libano","postal_code":97772},{"province":"Maluku Utara","city":"Pulau Morotai","district":"Morotai Utara","urban":"Korago","postal_code":97772},{"province":"Maluku Utara","city":"Pulau Morotai","district":"Morotai Utara","urban":"Kenari","postal_code":97772},{"province":"Maluku Utara","city":"Pulau Morotai","district":"Morotai Jaya","urban":"Hapo","postal_code":97772},{"province":"Maluku Utara","city":"Pulau Morotai","district":"Morotai Jaya","urban":"Gorugo","postal_code":97772},{"province":"Maluku Utara","city":"Pulau Morotai","district":"Morotai Utara","urban":"Gorua Selatan","postal_code":97772},{"province":"Maluku Utara","city":"Pulau Morotai","district":"Morotai Utara","urban":"Gorua","postal_code":97772},{"province":"Maluku Utara","city":"Pulau Morotai","district":"Morotai Utara","urban":"Goa Hira","postal_code":97772},{"province":"Maluku Utara","city":"Pulau Morotai","district":"Morotai Jaya","urban":"Cendana","postal_code":97772},{"province":"Maluku Utara","city":"Pulau Morotai","district":"Morotai Jaya","urban":"Cempaka","postal_code":97772},{"province":"Maluku Utara","city":"Pulau Morotai","district":"Morotai Timur","urban":"Buho Buho","postal_code":97772},{"province":"Maluku Utara","city":"Pulau Morotai","district":"Morotai Utara","urban":"Bido","postal_code":97772},{"province":"Maluku Utara","city":"Pulau Morotai","district":"Morotai Utara","urban":"Bere Bere","postal_code":97772},{"province":"Maluku Utara","city":"Pulau Morotai","district":"Morotai Jaya","urban":"Bere Bere Kecil","postal_code":97772},{"province":"Maluku Utara","city":"Pulau Morotai","district":"Morotai Jaya","urban":"Aru","postal_code":97772}]