[{"province":"Maluku Utara","city":"Halmahera Selatan","district":"Gane Timur","urban":"Wosi","postal_code":97783},{"province":"Maluku Utara","city":"Halmahera Selatan","district":"Gane Timur","urban":"Tanjung Jere","postal_code":97783},{"province":"Maluku Utara","city":"Halmahera Selatan","district":"Gane Timur","urban":"Tobaru","postal_code":97783},{"province":"Maluku Utara","city":"Halmahera Selatan","district":"Gane Timur Tengah","urban":"Tabahijrah","postal_code":97783},{"province":"Maluku Utara","city":"Halmahera Selatan","district":"Gane Timur Tengah","urban":"Tagea","postal_code":97783},{"province":"Maluku Utara","city":"Halmahera Selatan","district":"Gane Timur Tengah","urban":"Tabahidayah","postal_code":97783},{"province":"Maluku Utara","city":"Halmahera Selatan","district":"Gane Timur","urban":"Sumber Makmur","postal_code":97783},{"province":"Maluku Utara","city":"Halmahera Selatan","district":"Gane Timur Selatan","urban":"Sawat","postal_code":97783},{"province":"Maluku Utara","city":"Halmahera Selatan","district":"Gane Timur Tengah","urban":"Matuting Tanjung","postal_code":97783},{"province":"Maluku Utara","city":"Halmahera Selatan","district":"Gane Timur","urban":"Sakita (Saketa/Botonam)","postal_code":97783},{"province":"Maluku Utara","city":"Halmahera Selatan","district":"Gane Timur Selatan","urban":"Ranga Ranga","postal_code":97783},{"province":"Maluku Utara","city":"Halmahera Selatan","district":"Gane Timur","urban":"Maffa","postal_code":97783},{"province":"Maluku Utara","city":"Halmahera Selatan","district":"Gane Timur Tengah","urban":"Matuting","postal_code":97783},{"province":"Maluku Utara","city":"Halmahera Selatan","district":"Gane Timur Tengah","urban":"Lelewi","postal_code":97783},{"province":"Maluku Utara","city":"Halmahera Selatan","district":"Gane Timur Tengah","urban":"Luim","postal_code":97783},{"province":"Maluku Utara","city":"Halmahera Selatan","district":"Gane Timur","urban":"Lalubi","postal_code":97783},{"province":"Maluku Utara","city":"Halmahera Selatan","district":"Gane Timur Selatan","urban":"Kuwo","postal_code":97783},{"province":"Maluku Utara","city":"Halmahera Selatan","district":"Gane Timur","urban":"Kebun Raja","postal_code":97783},{"province":"Maluku Utara","city":"Halmahera Selatan","district":"Gane Timur","urban":"Kotalou","postal_code":97783},{"province":"Maluku Utara","city":"Halmahera Selatan","district":"Gane Timur Selatan","urban":"Gane Luar","postal_code":97783},{"province":"Maluku Utara","city":"Halmahera Selatan","district":"Gane Timur Selatan","urban":"Gaimu","postal_code":97783},{"province":"Maluku Utara","city":"Halmahera Selatan","district":"Gane Timur Tengah","urban":"Bisui","postal_code":97783},{"province":"Maluku Utara","city":"Halmahera Selatan","district":"Gane Timur","urban":"Foya","postal_code":97783},{"province":"Maluku Utara","city":"Halmahera Selatan","district":"Gane Timur","urban":"Foya Tobaru","postal_code":97783},{"province":"Maluku Utara","city":"Halmahera Selatan","district":"Gane Timur","urban":"Akelamo/Fida","postal_code":97783}]