[{"province":"Maluku Utara","city":"Halmahera Selatan","district":"Kepulauan Joronga","urban":"Yomen","postal_code":97782},{"province":"Maluku Utara","city":"Halmahera Selatan","district":"Gane Barat Selatan","urban":"Yamly","postal_code":97782},{"province":"Maluku Utara","city":"Halmahera Selatan","district":"Kepulauan Joronga","urban":"Tawabi","postal_code":97782},{"province":"Maluku Utara","city":"Halmahera Selatan","district":"Gane Barat Selatan","urban":"Tawa","postal_code":97782},{"province":"Maluku Utara","city":"Halmahera Selatan","district":"Gane Barat Utara","urban":"Tokaka","postal_code":97782},{"province":"Maluku Utara","city":"Halmahera Selatan","district":"Gane Barat","urban":"Tabamasa","postal_code":97782},{"province":"Maluku Utara","city":"Halmahera Selatan","district":"Gane Barat Selatan","urban":"Sekely","postal_code":97782},{"province":"Maluku Utara","city":"Halmahera Selatan","district":"Gane Barat Utara","urban":"Suka Damai","postal_code":97782},{"province":"Maluku Utara","city":"Halmahera Selatan","district":"Gane Barat Utara","urban":"Samat","postal_code":97782},{"province":"Maluku Utara","city":"Halmahera Selatan","district":"Gane Barat Utara","urban":"Samo","postal_code":97782},{"province":"Maluku Utara","city":"Halmahera Selatan","district":"Gane Barat Utara","urban":"Posi Posi","postal_code":97782},{"province":"Maluku Utara","city":"Halmahera Selatan","district":"Gane Barat","urban":"Saketa","postal_code":97782},{"province":"Maluku Utara","city":"Halmahera Selatan","district":"Kepulauan Joronga","urban":"Pulau Gala","postal_code":97782},{"province":"Maluku Utara","city":"Halmahera Selatan","district":"Gane Barat","urban":"Oha","postal_code":97782},{"province":"Maluku Utara","city":"Halmahera Selatan","district":"Gane Barat","urban":"Papaceda","postal_code":97782},{"province":"Maluku Utara","city":"Halmahera Selatan","district":"Gane Barat Selatan","urban":"Pasi Palele","postal_code":97782},{"province":"Maluku Utara","city":"Halmahera Selatan","district":"Gane Barat Utara","urban":"Moloku","postal_code":97782},{"province":"Maluku Utara","city":"Halmahera Selatan","district":"Gane Barat Utara","urban":"Nurjihat","postal_code":97782},{"province":"Maluku Utara","city":"Halmahera Selatan","district":"Gane Barat","urban":"Lemo Lemo","postal_code":97782},{"province":"Maluku Utara","city":"Halmahera Selatan","district":"Kepulauan Joronga","urban":"Kurunga","postal_code":97782},{"province":"Maluku Utara","city":"Halmahera Selatan","district":"Kepulauan Joronga","urban":"Liboba Hijrah","postal_code":97782},{"province":"Maluku Utara","city":"Halmahera Selatan","district":"Gane Barat","urban":"Koititi","postal_code":97782},{"province":"Maluku Utara","city":"Halmahera Selatan","district":"Kepulauan Joronga","urban":"Kukupang","postal_code":97782},{"province":"Maluku Utara","city":"Halmahera Selatan","district":"Gane Barat Selatan","urban":"Jibubu","postal_code":97782},{"province":"Maluku Utara","city":"Halmahera Selatan","district":"Gane Barat Utara","urban":"Gumirah (Gumira)","postal_code":97782},{"province":"Maluku Utara","city":"Halmahera Selatan","district":"Kepulauan Joronga","urban":"Gonone","postal_code":97782},{"province":"Maluku Utara","city":"Halmahera Selatan","district":"Gane Barat Selatan","urban":"Gane Dalam","postal_code":97782},{"province":"Maluku Utara","city":"Halmahera Selatan","district":"Gane Barat Utara","urban":"Fulai (Jikolamo/Fulay)","postal_code":97782},{"province":"Maluku Utara","city":"Halmahera Selatan","district":"Gane Barat Selatan","urban":"Dowora","postal_code":97782},{"province":"Maluku Utara","city":"Halmahera Selatan","district":"Gane Barat","urban":"Doro","postal_code":97782},{"province":"Maluku Utara","city":"Halmahera Selatan","district":"Gane Barat Utara","urban":"Dolik","postal_code":97782},{"province":"Maluku Utara","city":"Halmahera Selatan","district":"Gane Barat","urban":"Bumi Rahmat","postal_code":97782},{"province":"Maluku Utara","city":"Halmahera Selatan","district":"Gane Barat","urban":"Cango","postal_code":97782},{"province":"Maluku Utara","city":"Halmahera Selatan","district":"Gane Barat Utara","urban":"Boso","postal_code":97782},{"province":"Maluku Utara","city":"Halmahera Selatan","district":"Gane Barat Utara","urban":"Batulak","postal_code":97782},{"province":"Maluku Utara","city":"Halmahera Selatan","district":"Gane Barat","urban":"Balitata","postal_code":97782},{"province":"Maluku Utara","city":"Halmahera Selatan","district":"Gane Barat Selatan","urban":"Awis","postal_code":97782}]