[{"province":"Maluku Utara","city":"Halmahera Selatan","district":"Kayoa Utara","urban":"Wayasipang","postal_code":97781},{"province":"Maluku Utara","city":"Halmahera Selatan","district":"Kayoa","urban":"Tawabi","postal_code":97781},{"province":"Maluku Utara","city":"Halmahera Selatan","district":"Kayoa","urban":"Talimau","postal_code":97781},{"province":"Maluku Utara","city":"Halmahera Selatan","district":"Kayoa Selatan","urban":"Sagawele","postal_code":97781},{"province":"Maluku Utara","city":"Halmahera Selatan","district":"Kayoa","urban":"Siko","postal_code":97781},{"province":"Maluku Utara","city":"Halmahera Selatan","district":"Kayoa Selatan","urban":"Pasir Putih","postal_code":97781},{"province":"Maluku Utara","city":"Halmahera Selatan","district":"Kayoa Selatan","urban":"Posi Posi","postal_code":97781},{"province":"Maluku Utara","city":"Halmahera Selatan","district":"Kayoa Selatan","urban":"Ngute Ngute","postal_code":97781},{"province":"Maluku Utara","city":"Halmahera Selatan","district":"Kayoa Selatan","urban":"Orimakurunga","postal_code":97781},{"province":"Maluku Utara","city":"Halmahera Selatan","district":"Kayoa Utara","urban":"Modayama","postal_code":97781},{"province":"Maluku Utara","city":"Halmahera Selatan","district":"Kayoa Utara","urban":"Ngokomalako","postal_code":97781},{"province":"Maluku Utara","city":"Halmahera Selatan","district":"Kayoa","urban":"Ligua","postal_code":97781},{"province":"Maluku Utara","city":"Halmahera Selatan","district":"Kayoa","urban":"Lelei","postal_code":97781},{"province":"Maluku Utara","city":"Halmahera Selatan","district":"Kayoa Utara","urban":"Laromabati (Loromabati)","postal_code":97781},{"province":"Maluku Utara","city":"Halmahera Selatan","district":"Kayoa Selatan","urban":"Laluin","postal_code":97781},{"province":"Maluku Utara","city":"Halmahera Selatan","district":"Kayoa","urban":"Kida","postal_code":97781},{"province":"Maluku Utara","city":"Halmahera Selatan","district":"Kayoa","urban":"Laigoma","postal_code":97781},{"province":"Maluku Utara","city":"Halmahera Selatan","district":"Kayoa","urban":"Karamat","postal_code":97781},{"province":"Maluku Utara","city":"Halmahera Selatan","district":"Kayoa Barat","urban":"Hatejawa","postal_code":97781},{"province":"Maluku Utara","city":"Halmahera Selatan","district":"Kayoa","urban":"Gunange","postal_code":97781},{"province":"Maluku Utara","city":"Halmahera Selatan","district":"Kayoa","urban":"Guruapin","postal_code":97781},{"province":"Maluku Utara","city":"Halmahera Selatan","district":"Kayoa Utara","urban":"Gayap","postal_code":97781},{"province":"Maluku Utara","city":"Halmahera Selatan","district":"Kayoa Barat","urban":"Fofao","postal_code":97781},{"province":"Maluku Utara","city":"Halmahera Selatan","district":"Kayoa","urban":"Gafi","postal_code":97781},{"province":"Maluku Utara","city":"Halmahera Selatan","district":"Kayoa","urban":"Dorolamo","postal_code":97781},{"province":"Maluku Utara","city":"Halmahera Selatan","district":"Kayoa Barat","urban":"Busua","postal_code":97781},{"province":"Maluku Utara","city":"Halmahera Selatan","district":"Kayoa","urban":"Buli","postal_code":97781},{"province":"Maluku Utara","city":"Halmahera Selatan","district":"Kayoa Barat","urban":"Bokimiake","postal_code":97781},{"province":"Maluku Utara","city":"Halmahera Selatan","district":"Kayoa","urban":"Bajo","postal_code":97781},{"province":"Maluku Utara","city":"Halmahera Selatan","district":"Kayoa Utara","urban":"Ake Jailolo","postal_code":97781}]