[{"province":"Maluku Utara","city":"Kepulauan Sula","district":"Sulabesi Timur","urban":"Waisepa","postal_code":97795},{"province":"Maluku Utara","city":"Kepulauan Sula","district":"Sanana Utara","urban":"Wainin","postal_code":97795},{"province":"Maluku Utara","city":"Kepulauan Sula","district":"Sulabesi Tengah","urban":"Waiman","postal_code":97795},{"province":"Maluku Utara","city":"Kepulauan Sula","district":"Sulabesi Selatan","urban":"Wainib","postal_code":97795},{"province":"Maluku Utara","city":"Kepulauan Sula","district":"Sulabesi Timur","urban":"Wailia","postal_code":97795},{"province":"Maluku Utara","city":"Kepulauan Sula","district":"Sanana","urban":"Wailau","postal_code":97795},{"province":"Maluku Utara","city":"Kepulauan Sula","district":"Sulabesi Timur","urban":"Waigoiyofa","postal_code":97795},{"province":"Maluku Utara","city":"Kepulauan Sula","district":"Sanana","urban":"Waihama","postal_code":97795},{"province":"Maluku Utara","city":"Kepulauan Sula","district":"Sanana","urban":"Waibau","postal_code":97795},{"province":"Maluku Utara","city":"Kepulauan Sula","district":"Sulabesi Tengah","urban":"Waiboga","postal_code":97795},{"province":"Maluku Utara","city":"Kepulauan Sula","district":"Sulabesi Selatan","urban":"Waigai","postal_code":97795},{"province":"Maluku Utara","city":"Kepulauan Sula","district":"Sanana","urban":"Wai Ipa","postal_code":97795},{"province":"Maluku Utara","city":"Kepulauan Sula","district":"Sulabesi Selatan","urban":"Wai Tamua","postal_code":97795},{"province":"Maluku Utara","city":"Kepulauan Sula","district":"Sulabesi Barat","urban":"Wai Ina","postal_code":97795},{"province":"Maluku Utara","city":"Kepulauan Sula","district":"Sanana","urban":"Umaloya","postal_code":97795},{"province":"Maluku Utara","city":"Kepulauan Sula","district":"Sulabesi Selatan","urban":"Skom","postal_code":97795},{"province":"Maluku Utara","city":"Kepulauan Sula","district":"Sulabesi Tengah","urban":"Soamole","postal_code":97795},{"province":"Maluku Utara","city":"Kepulauan Sula","district":"Sanana Utara","urban":"Pohea","postal_code":97795},{"province":"Maluku Utara","city":"Kepulauan Sula","district":"Sulabesi Timur","urban":"Sama","postal_code":97795},{"province":"Maluku Utara","city":"Kepulauan Sula","district":"Sulabesi Barat","urban":"Paratina","postal_code":97795},{"province":"Maluku Utara","city":"Kepulauan Sula","district":"Sanana","urban":"Pastina","postal_code":97795},{"province":"Maluku Utara","city":"Kepulauan Sula","district":"Sulabesi Barat","urban":"Nahi","postal_code":97795},{"province":"Maluku Utara","city":"Kepulauan Sula","district":"Sulabesi Barat","urban":"Ona","postal_code":97795},{"province":"Maluku Utara","city":"Kepulauan Sula","district":"Sanana","urban":"Mangon","postal_code":97795},{"province":"Maluku Utara","city":"Kepulauan Sula","district":"Sanana Utara","urban":"Man-Gega","postal_code":97795},{"province":"Maluku Utara","city":"Kepulauan Sula","district":"Sulabesi Tengah","urban":"Manaf","postal_code":97795},{"province":"Maluku Utara","city":"Kepulauan Sula","district":"Sanana Utara","urban":"Malbufa","postal_code":97795},{"province":"Maluku Utara","city":"Kepulauan Sula","district":"Sulabesi Barat","urban":"Kabau Pantai","postal_code":97795},{"province":"Maluku Utara","city":"Kepulauan Sula","district":"Sulabesi Barat","urban":"Kabau Darat","postal_code":97795},{"province":"Maluku Utara","city":"Kepulauan Sula","district":"Sanana Utara","urban":"Fukweu","postal_code":97795},{"province":"Maluku Utara","city":"Kepulauan Sula","district":"Sulabesi Selatan","urban":"Fuata","postal_code":97795},{"province":"Maluku Utara","city":"Kepulauan Sula","district":"Sanana Utara","urban":"Fokalik","postal_code":97795},{"province":"Maluku Utara","city":"Kepulauan Sula","district":"Sanana","urban":"Fogi","postal_code":97795},{"province":"Maluku Utara","city":"Kepulauan Sula","district":"Sulabesi Timur","urban":"Fatkauyon","postal_code":97795},{"province":"Maluku Utara","city":"Kepulauan Sula","district":"Sanana","urban":"Fatcei","postal_code":97795},{"province":"Maluku Utara","city":"Kepulauan Sula","district":"Sulabesi Tengah","urban":"Fat Iba","postal_code":97795},{"province":"Maluku Utara","city":"Kepulauan Sula","district":"Sanana","urban":"Fagudu","postal_code":97795},{"province":"Maluku Utara","city":"Kepulauan Sula","district":"Sanana","urban":"Falahu","postal_code":97795},{"province":"Maluku Utara","city":"Kepulauan Sula","district":"Sulabesi Tengah","urban":"Bega","postal_code":97795},{"province":"Maluku Utara","city":"Kepulauan Sula","district":"Sulabesi Timur","urban":"Baleha","postal_code":97795},{"province":"Maluku Utara","city":"Kepulauan Sula","district":"Sanana Utara","urban":"Bajo","postal_code":97795}]