[{"province":"Maluku Utara","city":"Kepulauan Sula","district":"Taliabu Utara","urban":"Ufung","postal_code":97794},{"province":"Maluku Utara","city":"Kepulauan Sula","district":"Taliabu Barat","urban":"Timpaus","postal_code":97794},{"province":"Maluku Utara","city":"Kepulauan Sula","district":"Taliabu Barat","urban":"Wayo","postal_code":97794},{"province":"Maluku Utara","city":"Kepulauan Sula","district":"Taliabu Utara","urban":"Tanjung Una","postal_code":97794},{"province":"Maluku Utara","city":"Kepulauan Sula","district":"Taliabu Utara","urban":"Tanjung Una","postal_code":97794},{"province":"Maluku Utara","city":"Kepulauan Sula","district":"Taliabu Utara","urban":"Tikong","postal_code":97794},{"province":"Maluku Utara","city":"Kepulauan Sula","district":"Taliabu Selatan","urban":"Sumbong","postal_code":97794},{"province":"Maluku Utara","city":"Kepulauan Sula","district":"Taliabu Selatan","urban":"Tabona","postal_code":97794},{"province":"Maluku Utara","city":"Kepulauan Sula","district":"Taliabu Barat","urban":"Pancoran","postal_code":97794},{"province":"Maluku Utara","city":"Kepulauan Sula","district":"Taliabu Barat Laut","urban":"Salati","postal_code":97794},{"province":"Maluku Utara","city":"Kepulauan Sula","district":"Taliabu Utara","urban":"Sahu","postal_code":97794},{"province":"Maluku Utara","city":"Kepulauan Sula","district":"Taliabu Selatan","urban":"Pancado","postal_code":97794},{"province":"Maluku Utara","city":"Kepulauan Sula","district":"Taliabu Utara","urban":"Padang","postal_code":97794},{"province":"Maluku Utara","city":"Kepulauan Sula","district":"Taliabu Barat Laut","urban":"Nggele","postal_code":97794},{"province":"Maluku Utara","city":"Kepulauan Sula","district":"Taliabu Utara","urban":"Nunca","postal_code":97794},{"province":"Maluku Utara","city":"Kepulauan Sula","district":"Taliabu Selatan","urban":"Nggaki","postal_code":97794},{"province":"Maluku Utara","city":"Kepulauan Sula","district":"Taliabu Utara","urban":"Mbono","postal_code":97794},{"province":"Maluku Utara","city":"Kepulauan Sula","district":"Taliabu Utara","urban":"Minton","postal_code":97794},{"province":"Maluku Utara","city":"Kepulauan Sula","district":"Taliabu Barat","urban":"Masonit","postal_code":97794},{"province":"Maluku Utara","city":"Kepulauan Sula","district":"Taliabu Utara","urban":"Mananga","postal_code":97794},{"province":"Maluku Utara","city":"Kepulauan Sula","district":"Taliabu Barat","urban":"Maranti Jaya","postal_code":97794},{"province":"Maluku Utara","city":"Kepulauan Sula","district":"Taliabu Barat","urban":"Kramat","postal_code":97794},{"province":"Maluku Utara","city":"Kepulauan Sula","district":"Taliabu Barat","urban":"Limbo","postal_code":97794},{"province":"Maluku Utara","city":"Kepulauan Sula","district":"Taliabu Barat","urban":"Loho Bubba","postal_code":97794},{"province":"Maluku Utara","city":"Kepulauan Sula","district":"Taliabu Barat","urban":"Kawalo","postal_code":97794},{"province":"Maluku Utara","city":"Kepulauan Sula","district":"Taliabu Selatan","urban":"Kilo","postal_code":97794},{"province":"Maluku Utara","city":"Kepulauan Sula","district":"Taliabu Barat Laut","urban":"Kasong","postal_code":97794},{"province":"Maluku Utara","city":"Kepulauan Sula","district":"Taliabu Barat","urban":"Kasuari","postal_code":97794},{"province":"Maluku Utara","city":"Kepulauan Sula","district":"Taliabu Utara","urban":"Hai","postal_code":97794},{"province":"Maluku Utara","city":"Kepulauan Sula","district":"Taliabu Utara","urban":"Jorjoga","postal_code":97794},{"province":"Maluku Utara","city":"Kepulauan Sula","district":"Taliabu Barat","urban":"Holbota","postal_code":97794},{"province":"Maluku Utara","city":"Kepulauan Sula","district":"Taliabu Utara","urban":"Gela","postal_code":97794},{"province":"Maluku Utara","city":"Kepulauan Sula","district":"Taliabu Barat","urban":"Gurua","postal_code":97794},{"province":"Maluku Utara","city":"Kepulauan Sula","district":"Taliabu Utara","urban":"Dege","postal_code":97794},{"province":"Maluku Utara","city":"Kepulauan Sula","district":"Taliabu Barat","urban":"Bobong","postal_code":97794},{"province":"Maluku Utara","city":"Kepulauan Sula","district":"Taliabu Barat Laut","urban":"Beringin Jaya","postal_code":97794},{"province":"Maluku Utara","city":"Kepulauan Sula","district":"Taliabu Selatan","urban":"Bapenu","postal_code":97794},{"province":"Maluku Utara","city":"Kepulauan Sula","district":"Taliabu Selatan","urban":"Bahu","postal_code":97794},{"province":"Maluku Utara","city":"Kepulauan Sula","district":"Taliabu Utara","urban":"Air Bulan","postal_code":97794},{"province":"Maluku Utara","city":"Kepulauan Sula","district":"Taliabu Utara","urban":"Air Kalimat","postal_code":97794}]