[{"province":"Maluku Utara","city":"Halmahera Selatan","district":"Obi Timur","urban":"Wooi","postal_code":97792},{"province":"Maluku Utara","city":"Halmahera Selatan","district":"Obi Selatan","urban":"Wayaloar","postal_code":97792},{"province":"Maluku Utara","city":"Halmahera Selatan","district":"Obi Utara","urban":"Waringi","postal_code":97792},{"province":"Maluku Utara","city":"Halmahera Selatan","district":"Obi Timur","urban":"Sum","postal_code":97792},{"province":"Maluku Utara","city":"Halmahera Selatan","district":"Obi Barat","urban":"Tapa","postal_code":97792},{"province":"Maluku Utara","city":"Halmahera Selatan","district":"Obi Selatan","urban":"Soligi","postal_code":97792},{"province":"Maluku Utara","city":"Halmahera Selatan","district":"Obi Timur","urban":"Sosepe","postal_code":97792},{"province":"Maluku Utara","city":"Halmahera Selatan","district":"Obi Barat","urban":"Soasangaji","postal_code":97792},{"province":"Maluku Utara","city":"Halmahera Selatan","district":"Obi","urban":"Sambiki","postal_code":97792},{"province":"Maluku Utara","city":"Halmahera Selatan","district":"Obi Utara","urban":"Pasir Putih","postal_code":97792},{"province":"Maluku Utara","city":"Halmahera Selatan","district":"Obi Selatan","urban":"Mano","postal_code":97792},{"province":"Maluku Utara","city":"Halmahera Selatan","district":"Obi Selatan","urban":"Ocimaloleo","postal_code":97792},{"province":"Maluku Utara","city":"Halmahera Selatan","district":"Obi Utara","urban":"Madapolo Timur","postal_code":97792},{"province":"Maluku Utara","city":"Halmahera Selatan","district":"Obi Barat","urban":"Manatahan","postal_code":97792},{"province":"Maluku Utara","city":"Halmahera Selatan","district":"Obi Selatan","urban":"Loleo","postal_code":97792},{"province":"Maluku Utara","city":"Halmahera Selatan","district":"Obi Utara","urban":"Madapolo","postal_code":97792},{"province":"Maluku Utara","city":"Halmahera Selatan","district":"Obi Utara","urban":"Madapolo Barat","postal_code":97792},{"province":"Maluku Utara","city":"Halmahera Selatan","district":"Obi Timur","urban":"Kello (Kelo)","postal_code":97792},{"province":"Maluku Utara","city":"Halmahera Selatan","district":"Obi","urban":"Laiwui","postal_code":97792},{"province":"Maluku Utara","city":"Halmahera Selatan","district":"Obi","urban":"Kawasi","postal_code":97792},{"province":"Maluku Utara","city":"Halmahera Selatan","district":"Obi","urban":"Jikotamo","postal_code":97792},{"province":"Maluku Utara","city":"Halmahera Selatan","district":"Obi Selatan","urban":"Gambaru","postal_code":97792},{"province":"Maluku Utara","city":"Halmahera Selatan","district":"Obi Barat","urban":"Jikohai (Jikohay)","postal_code":97792},{"province":"Maluku Utara","city":"Halmahera Selatan","district":"Obi Selatan","urban":"Fluks (Fluk)","postal_code":97792},{"province":"Maluku Utara","city":"Halmahera Selatan","district":"Obi Utara","urban":"Galala","postal_code":97792},{"province":"Maluku Utara","city":"Halmahera Selatan","district":"Obi Utara","urban":"Cap","postal_code":97792},{"province":"Maluku Utara","city":"Halmahera Selatan","district":"Obi Selatan","urban":"Bobo","postal_code":97792},{"province":"Maluku Utara","city":"Halmahera Selatan","district":"Obi","urban":"Buton","postal_code":97792},{"province":"Maluku Utara","city":"Halmahera Selatan","district":"Mandioli Utara","urban":"Bobo","postal_code":97792},{"province":"Maluku Utara","city":"Halmahera Selatan","district":"Obi","urban":"Baru","postal_code":97792},{"province":"Maluku Utara","city":"Halmahera Selatan","district":"Obi","urban":"Anggai","postal_code":97792},{"province":"Maluku Utara","city":"Halmahera Selatan","district":"Obi Barat","urban":"Alam Kenanga","postal_code":97792},{"province":"Maluku Utara","city":"Halmahera Selatan","district":"Obi Barat","urban":"Alam Pelita","postal_code":97792},{"province":"Maluku Utara","city":"Halmahera Selatan","district":"Obi","urban":"Air Mangga Indah","postal_code":97792},{"province":"Maluku Utara","city":"Halmahera Selatan","district":"Obi","urban":"Akegula","postal_code":97792},{"province":"Maluku Utara","city":"Kepulauan Sula","district":"Mangoli Barat","urban":"Pelita","postal_code":97792},{"province":"Maluku Utara","city":"Kepulauan Sula","district":"Mangoli Barat","urban":"Pas Ipa","postal_code":97792},{"province":"Maluku Utara","city":"Kepulauan Sula","district":"Mangoli Barat","urban":"Lelyaba","postal_code":97792},{"province":"Maluku Utara","city":"Kepulauan Sula","district":"Mangoli Barat","urban":"Lekokadai","postal_code":97792},{"province":"Maluku Utara","city":"Kepulauan Sula","district":"Mangoli Barat","urban":"Lekosula","postal_code":97792},{"province":"Maluku Utara","city":"Kepulauan Sula","district":"Mangoli Barat","urban":"Johor Perda","postal_code":97792},{"province":"Maluku Utara","city":"Kepulauan Sula","district":"Mangoli Barat","urban":"Dofa","postal_code":97792}]