[{"province":"Maluku Utara","city":"Halmahera Selatan","district":"Mandioli Selatan","urban":"Yoyok","postal_code":97791},{"province":"Maluku Utara","city":"Halmahera Selatan","district":"Bacan Barat Utara","urban":"Yaba","postal_code":97791},{"province":"Maluku Utara","city":"Halmahera Selatan","district":"Bacan Timur Selatan","urban":"Wayaua","postal_code":97791},{"province":"Maluku Utara","city":"Halmahera Selatan","district":"Bacan Barat","urban":"Wiring","postal_code":97791},{"province":"Maluku Utara","city":"Halmahera Selatan","district":"Bacan Timur","urban":"Wayamiga","postal_code":97791},{"province":"Maluku Utara","city":"Halmahera Selatan","district":"Bacan Timur Tengah","urban":"Wayatim","postal_code":97791},{"province":"Maluku Utara","city":"Halmahera Selatan","district":"Bacan Timur Selatan","urban":"Wayakuba","postal_code":97791},{"province":"Maluku Utara","city":"Halmahera Selatan","district":"Mandioli Utara","urban":"Waya","postal_code":97791},{"province":"Maluku Utara","city":"Halmahera Selatan","district":"Bacan Selatan","urban":"Tuwokona (Tuakona)","postal_code":97791},{"province":"Maluku Utara","city":"Halmahera Selatan","district":"Bacan Timur Tengah","urban":"Tutupa","postal_code":97791},{"province":"Maluku Utara","city":"Halmahera Selatan","district":"Bacan","urban":"Tomori","postal_code":97791},{"province":"Maluku Utara","city":"Halmahera Selatan","district":"Kasiruta Timur","urban":"Tutuha","postal_code":97791},{"province":"Maluku Utara","city":"Halmahera Selatan","district":"Kepulauan Botanglomang","urban":"Toin","postal_code":97791},{"province":"Maluku Utara","city":"Halmahera Selatan","district":"Bacan Timur","urban":"Timlonga","postal_code":97791},{"province":"Maluku Utara","city":"Halmahera Selatan","district":"Bacan Timur","urban":"Timlonga","postal_code":97791},{"province":"Maluku Utara","city":"Halmahera Selatan","district":"Bacan Barat","urban":"Tawabi","postal_code":97791},{"province":"Maluku Utara","city":"Halmahera Selatan","district":"Bacan Selatan","urban":"Tembal","postal_code":97791},{"province":"Maluku Utara","city":"Halmahera Selatan","district":"Bacan Timur Tengah","urban":"Tawa","postal_code":97791},{"province":"Maluku Utara","city":"Halmahera Selatan","district":"Kasiruta Timur","urban":"Tawa","postal_code":97791},{"province":"Maluku Utara","city":"Halmahera Selatan","district":"Kepulauan Botanglomang","urban":"Tanjung Obit","postal_code":97791},{"province":"Maluku Utara","city":"Halmahera Selatan","district":"Bacan Timur Tengah","urban":"Tabapoma","postal_code":97791},{"province":"Maluku Utara","city":"Halmahera Selatan","district":"Bacan Timur Selatan","urban":"Tabangame","postal_code":97791},{"province":"Maluku Utara","city":"Halmahera Selatan","district":"Mandioli Selatan","urban":"Tabalema","postal_code":97791},{"province":"Maluku Utara","city":"Halmahera Selatan","district":"Bacan Timur Selatan","urban":"Tabajaya","postal_code":97791},{"province":"Maluku Utara","city":"Halmahera Selatan","district":"Bacan","urban":"Sumae","postal_code":97791},{"province":"Maluku Utara","city":"Halmahera Selatan","district":"Bacan","urban":"Suma Tinggi","postal_code":97791},{"province":"Maluku Utara","city":"Halmahera Selatan","district":"Bacan Barat Utara","urban":"Sidopo","postal_code":97791},{"province":"Maluku Utara","city":"Halmahera Selatan","district":"Bacan Timur Selatan","urban":"Silang","postal_code":97791},{"province":"Maluku Utara","city":"Halmahera Selatan","district":"Bacan Timur Tengah","urban":"Songa","postal_code":97791},{"province":"Maluku Utara","city":"Halmahera Selatan","district":"Kasiruta Barat","urban":"Sengga Baru","postal_code":97791},{"province":"Maluku Utara","city":"Halmahera Selatan","district":"Kasiruta Barat","urban":"Sidanga","postal_code":97791},{"province":"Maluku Utara","city":"Halmahera Selatan","district":"Kepulauan Botanglomang","urban":"Sawanakar (Sawangakar/Sawangkang)","postal_code":97791},{"province":"Maluku Utara","city":"Halmahera Selatan","district":"Bacan Selatan","urban":"Sawadai","postal_code":97791},{"province":"Maluku Utara","city":"Halmahera Selatan","district":"Bacan Timur","urban":"Sayoang","postal_code":97791},{"province":"Maluku Utara","city":"Halmahera Selatan","district":"Bacan Timur","urban":"Sabatang","postal_code":97791},{"province":"Maluku Utara","city":"Halmahera Selatan","district":"Bacan Timur","urban":"Sali Kecil","postal_code":97791},{"province":"Maluku Utara","city":"Halmahera Selatan","district":"Bacan Timur Selatan","urban":"Pigaraja","postal_code":97791},{"province":"Maluku Utara","city":"Halmahera Selatan","district":"Kepulauan Botanglomang","urban":"Prapakanda","postal_code":97791},{"province":"Maluku Utara","city":"Halmahera Selatan","district":"Mandioli Utara","urban":"Pelita (Pelita Jaya)","postal_code":97791},{"province":"Maluku Utara","city":"Halmahera Selatan","district":"Kepulauan Botanglomang","urban":"Pasimbaos","postal_code":97791},{"province":"Maluku Utara","city":"Halmahera Selatan","district":"Bacan Selatan","urban":"Panamboang","postal_code":97791},{"province":"Maluku Utara","city":"Halmahera Selatan","district":"Bacan Selatan","urban":"Papaloang","postal_code":97791},{"province":"Maluku Utara","city":"Halmahera Selatan","district":"Kasiruta Barat","urban":"Palamea","postal_code":97791},{"province":"Maluku Utara","city":"Halmahera Selatan","district":"Bacan Barat Utara","urban":"Nusa Babullah (Nusa Babi)","postal_code":97791},{"province":"Maluku Utara","city":"Halmahera Selatan","district":"Bacan Timur","urban":"Nyonyifi","postal_code":97791},{"province":"Maluku Utara","city":"Halmahera Selatan","district":"Kasiruta Timur","urban":"Marituso (Maritosu)","postal_code":97791},{"province":"Maluku Utara","city":"Halmahera Selatan","district":"Bacan Barat","urban":"Nondang (Mondang)","postal_code":97791},{"province":"Maluku Utara","city":"Halmahera Selatan","district":"Kasiruta Barat","urban":"Marikapal","postal_code":97791},{"province":"Maluku Utara","city":"Halmahera Selatan","district":"Bacan","urban":"Marabose","postal_code":97791},{"province":"Maluku Utara","city":"Halmahera Selatan","district":"Bacan Selatan","urban":"Makian (Kampung Makian)","postal_code":97791},{"province":"Maluku Utara","city":"Halmahera Selatan","district":"Bacan Selatan","urban":"Mandawong (Mandaong)","postal_code":97791},{"province":"Maluku Utara","city":"Halmahera Selatan","district":"Mandioli Utara","urban":"Loleongusu","postal_code":97791},{"province":"Maluku Utara","city":"Halmahera Selatan","district":"Kasiruta Timur","urban":"Loleo Jaya","postal_code":97791},{"province":"Maluku Utara","city":"Halmahera Selatan","district":"Kasiruta Timur","urban":"Loleomekar","postal_code":97791},{"province":"Maluku Utara","city":"Halmahera Selatan","district":"Bacan Timur Selatan","urban":"Liaro","postal_code":97791},{"province":"Maluku Utara","city":"Halmahera Selatan","district":"Kasiruta Barat","urban":"Lata Lata","postal_code":97791},{"province":"Maluku Utara","city":"Halmahera Selatan","district":"Mandioli Selatan","urban":"Lele","postal_code":97791},{"province":"Maluku Utara","city":"Halmahera Selatan","district":"Bacan","urban":"Labuha","postal_code":97791},{"province":"Maluku Utara","city":"Halmahera Selatan","district":"Bacan Barat","urban":"Kusubibi","postal_code":97791},{"province":"Maluku Utara","city":"Halmahera Selatan","district":"Kasiruta Barat","urban":"Kukupang (Kakupang)","postal_code":97791},{"province":"Maluku Utara","city":"Halmahera Selatan","district":"Bacan Selatan","urban":"Kubung","postal_code":97791},{"province":"Maluku Utara","city":"Halmahera Selatan","district":"Bacan Selatan","urban":"Kupal","postal_code":97791},{"province":"Maluku Utara","city":"Halmahera Selatan","district":"Kasiruta Timur","urban":"Koubalabala","postal_code":97791},{"province":"Maluku Utara","city":"Halmahera Selatan","district":"Bacan Barat","urban":"Kokotu","postal_code":97791},{"province":"Maluku Utara","city":"Halmahera Selatan","district":"Bacan Barat","urban":"Kotunang (Kukutunang)","postal_code":97791},{"province":"Maluku Utara","city":"Halmahera Selatan","district":"Kasiruta Timur","urban":"Kasiruta Dalam","postal_code":97791},{"province":"Maluku Utara","city":"Halmahera Selatan","district":"Bacan","urban":"Kaputusan (Kaputusang)","postal_code":97791},{"province":"Maluku Utara","city":"Halmahera Selatan","district":"Kepulauan Botanglomang","urban":"Kampung Baru","postal_code":97791},{"province":"Maluku Utara","city":"Halmahera Selatan","district":"Bacan Timur","urban":"Kaireu","postal_code":97791},{"province":"Maluku Utara","city":"Halmahera Selatan","district":"Mandioli Selatan","urban":"Jiko (Jeko)","postal_code":97791},{"province":"Maluku Utara","city":"Halmahera Selatan","district":"Bacan Barat Utara","urban":"Jojame","postal_code":97791},{"province":"Maluku Utara","city":"Halmahera Selatan","district":"Kasiruta Timur","urban":"Jeret","postal_code":97791},{"province":"Maluku Utara","city":"Halmahera Selatan","district":"Bacan","urban":"Indomut","postal_code":97791},{"province":"Maluku Utara","city":"Halmahera Selatan","district":"Mandioli Utara","urban":"Indong","postal_code":97791},{"province":"Maluku Utara","city":"Halmahera Selatan","district":"Bacan Barat","urban":"Indari","postal_code":97791},{"province":"Maluku Utara","city":"Halmahera Selatan","district":"Kasiruta Barat","urban":"Imbu Imbu","postal_code":97791},{"province":"Maluku Utara","city":"Halmahera Selatan","district":"Bacan Barat Utara","urban":"Gorua Lolaro (Lolorogurua)","postal_code":97791},{"province":"Maluku Utara","city":"Halmahera Selatan","district":"Bacan","urban":"Hidayat","postal_code":97791},{"province":"Maluku Utara","city":"Halmahera Selatan","district":"Bacan Barat Utara","urban":"Gilalang","postal_code":97791},{"province":"Maluku Utara","city":"Halmahera Selatan","district":"Bacan Timur","urban":"Goro Goro","postal_code":97791},{"province":"Maluku Utara","city":"Halmahera Selatan","district":"Bacan Barat Utara","urban":"Geti Baru","postal_code":97791},{"province":"Maluku Utara","city":"Halmahera Selatan","district":"Bacan Barat Utara","urban":"Geti Lama","postal_code":97791},{"province":"Maluku Utara","city":"Halmahera Selatan","district":"Kasiruta Barat","urban":"Doko (Doku)","postal_code":97791},{"province":"Maluku Utara","city":"Halmahera Selatan","district":"Mandioli Selatan","urban":"Galala","postal_code":97791},{"province":"Maluku Utara","city":"Halmahera Selatan","district":"Bacan Selatan","urban":"Dgandasuli (Gandasuli)","postal_code":97791},{"province":"Maluku Utara","city":"Halmahera Selatan","district":"Kasiruta Barat","urban":"Bisori","postal_code":97791},{"province":"Maluku Utara","city":"Halmahera Selatan","district":"Bacan Timur","urban":"Bori","postal_code":97791},{"province":"Maluku Utara","city":"Halmahera Selatan","district":"Bacan Timur Tengah","urban":"Bibinoi","postal_code":97791},{"province":"Maluku Utara","city":"Halmahera Selatan","district":"Bacan","urban":"Belang Belang","postal_code":97791},{"province":"Maluku Utara","city":"Halmahera Selatan","district":"Kepulauan Botanglomang","urban":"Bajo","postal_code":97791},{"province":"Maluku Utara","city":"Halmahera Selatan","district":"Kepulauan Botanglomang","urban":"Batutaga","postal_code":97791},{"province":"Maluku Utara","city":"Halmahera Selatan","district":"Mandioli Selatan","urban":"Bahu","postal_code":97791},{"province":"Maluku Utara","city":"Halmahera Selatan","district":"Bacan","urban":"Awanggoa","postal_code":97791},{"province":"Maluku Utara","city":"Halmahera Selatan","district":"Bacan Timur","urban":"Babang","postal_code":97791},{"province":"Maluku Utara","city":"Halmahera Selatan","district":"Kasiruta Barat","urban":"Arumamang","postal_code":97791},{"province":"Maluku Utara","city":"Halmahera Selatan","district":"Bacan","urban":"Amasing Kota","postal_code":97791},{"province":"Maluku Utara","city":"Halmahera Selatan","district":"Bacan","urban":"Amasing Kota Barat","postal_code":97791},{"province":"Maluku Utara","city":"Halmahera Selatan","district":"Bacan","urban":"Amasing Kota Utara","postal_code":97791},{"province":"Maluku Utara","city":"Halmahera Selatan","district":"Bacan","urban":"Amasing Kali","postal_code":97791},{"province":"Maluku Utara","city":"Halmahera Selatan","district":"Mandioli Utara","urban":"Akedabo","postal_code":97791}]