[{"province":"Maluku Utara","city":"Kepulauan Sula","district":"Mangoli Tengah","urban":"Waitulia","postal_code":97793},{"province":"Maluku Utara","city":"Kepulauan Sula","district":"Mangoli Timur","urban":"Waitina","postal_code":97793},{"province":"Maluku Utara","city":"Kepulauan Sula","district":"Mangoli Utara Timur","urban":"Waisum","postal_code":97793},{"province":"Maluku Utara","city":"Kepulauan Sula","district":"Mangoli Timur","urban":"Waitamela","postal_code":97793},{"province":"Maluku Utara","city":"Kepulauan Sula","district":"Mangoli Selatan","urban":"Wailab","postal_code":97793},{"province":"Maluku Utara","city":"Kepulauan Sula","district":"Mangoli Tengah","urban":"Wailoba","postal_code":97793},{"province":"Maluku Utara","city":"Kepulauan Sula","district":"Mangoli Utara Timur","urban":"Waisakai","postal_code":97793},{"province":"Maluku Utara","city":"Kepulauan Sula","district":"Taliabu Timur Selatan","urban":"Waikoka","postal_code":97793},{"province":"Maluku Utara","city":"Kepulauan Sula","district":"Mangoli Selatan","urban":"Waikafia","postal_code":97793},{"province":"Maluku Utara","city":"Kepulauan Sula","district":"Taliabu Timur Selatan","urban":"Waikadai","postal_code":97793},{"province":"Maluku Utara","city":"Kepulauan Sula","district":"Taliabu Timur Selatan","urban":"Waikadai Sula","postal_code":97793},{"province":"Maluku Utara","city":"Kepulauan Sula","district":"Mangoli Tengah","urban":"Urifola","postal_code":97793},{"province":"Maluku Utara","city":"Kepulauan Sula","district":"Mangoli Tengah","urban":"Wai U","postal_code":97793},{"province":"Maluku Utara","city":"Kepulauan Sula","district":"Taliabu Timur","urban":"Tubang","postal_code":97793},{"province":"Maluku Utara","city":"Kepulauan Sula","district":"Lede","urban":"Todoli","postal_code":97793},{"province":"Maluku Utara","city":"Kepulauan Sula","district":"Lede","urban":"Tolong","postal_code":97793},{"province":"Maluku Utara","city":"Kepulauan Sula","district":"Taliabu Timur Selatan","urban":"Sofan","postal_code":97793},{"province":"Maluku Utara","city":"Kepulauan Sula","district":"Mangoli Utara","urban":"Saniahaya","postal_code":97793},{"province":"Maluku Utara","city":"Kepulauan Sula","district":"Lede","urban":"Natang Kuning","postal_code":97793},{"province":"Maluku Utara","city":"Kepulauan Sula","district":"Taliabu Timur","urban":"Samuya","postal_code":97793},{"province":"Maluku Utara","city":"Kepulauan Sula","district":"Mangoli Utara","urban":"Modapuhi Trans","postal_code":97793},{"province":"Maluku Utara","city":"Kepulauan Sula","district":"Taliabu Timur","urban":"Penu","postal_code":97793},{"province":"Maluku Utara","city":"Kepulauan Sula","district":"Mangoli Timur","urban":"Naflo","postal_code":97793},{"province":"Maluku Utara","city":"Kepulauan Sula","district":"Mangoli Utara Timur","urban":"Pelita Jaya","postal_code":97793},{"province":"Maluku Utara","city":"Kepulauan Sula","district":"Mangoli Utara","urban":"Modapia","postal_code":97793},{"province":"Maluku Utara","city":"Kepulauan Sula","district":"Mangoli Utara","urban":"Pastabulu","postal_code":97793},{"province":"Maluku Utara","city":"Kepulauan Sula","district":"Mangoli Utara","urban":"Modapuhi","postal_code":97793},{"province":"Maluku Utara","city":"Kepulauan Sula","district":"Mangoli Tengah","urban":"Paslal","postal_code":97793},{"province":"Maluku Utara","city":"Kepulauan Sula","district":"Taliabu Timur Selatan","urban":"Mantarara","postal_code":97793},{"province":"Maluku Utara","city":"Kepulauan Sula","district":"Taliabu Timur","urban":"Parigi","postal_code":97793},{"province":"Maluku Utara","city":"Kepulauan Sula","district":"Mangoli Utara","urban":"Minaluli","postal_code":97793},{"province":"Maluku Utara","city":"Kepulauan Sula","district":"Taliabu Timur Selatan","urban":"Losseng","postal_code":97793},{"province":"Maluku Utara","city":"Kepulauan Sula","district":"Mangoli Tengah","urban":"Mangoli","postal_code":97793},{"province":"Maluku Utara","city":"Kepulauan Sula","district":"Lede","urban":"Lede","postal_code":97793},{"province":"Maluku Utara","city":"Kepulauan Sula","district":"Lede","urban":"Langganu","postal_code":97793},{"province":"Maluku Utara","city":"Kepulauan Sula","district":"Mangoli Utara Timur","urban":"Kawata","postal_code":97793},{"province":"Maluku Utara","city":"Kepulauan Sula","district":"Mangoli Timur","urban":"Kau/Kou (Kow)","postal_code":97793},{"province":"Maluku Utara","city":"Kepulauan Sula","district":"Taliabu Timur Selatan","urban":"Kawadang","postal_code":97793},{"province":"Maluku Utara","city":"Kepulauan Sula","district":"Mangoli Timur","urban":"Karamat Titdoy","postal_code":97793},{"province":"Maluku Utara","city":"Kepulauan Sula","district":"Mangoli Selatan","urban":"Kaporo","postal_code":97793},{"province":"Maluku Utara","city":"Kepulauan Sula","district":"Taliabu Timur Selatan","urban":"Kabunu","postal_code":97793},{"province":"Maluku Utara","city":"Kepulauan Sula","district":"Taliabu Timur Selatan","urban":"Kamaya","postal_code":97793},{"province":"Maluku Utara","city":"Kepulauan Sula","district":"Mangoli Utara","urban":"Falabisahaya","postal_code":97793},{"province":"Maluku Utara","city":"Kepulauan Sula","district":"Mangoli Tengah","urban":"Buruakol","postal_code":97793},{"province":"Maluku Utara","city":"Kepulauan Sula","district":"Mangoli Tengah","urban":"Capalulu","postal_code":97793},{"province":"Maluku Utara","city":"Kepulauan Sula","district":"Mangoli Selatan","urban":"Buya","postal_code":97793},{"province":"Maluku Utara","city":"Kepulauan Sula","district":"Taliabu Timur Selatan","urban":"Belo","postal_code":97793},{"province":"Maluku Utara","city":"Kepulauan Sula","district":"Mangoli Selatan","urban":"Auponhia","postal_code":97793}]