[{"province":"Maluku Utara","city":"Tidore Kepulauan","district":"Tidore Timur (Pulau Tidore)","urban":"Tosa","postal_code":97813},{"province":"Maluku Utara","city":"Tidore Kepulauan","district":"Tidore Selatan","urban":"Tuguiha","postal_code":97813},{"province":"Maluku Utara","city":"Tidore Kepulauan","district":"Tidore (Pulau Tidore)","urban":"Topo Tiga","postal_code":97813},{"province":"Maluku Utara","city":"Tidore Kepulauan","district":"Tidore (Pulau Tidore)","urban":"Topo","postal_code":97813},{"province":"Maluku Utara","city":"Tidore Kepulauan","district":"Tidore Selatan","urban":"Tongowai","postal_code":97813},{"province":"Maluku Utara","city":"Tidore Kepulauan","district":"Tidore Selatan","urban":"Tomalou","postal_code":97813},{"province":"Maluku Utara","city":"Tidore Kepulauan","district":"Tidore (Pulau Tidore)","urban":"Tomagoba","postal_code":97813},{"province":"Maluku Utara","city":"Tidore Kepulauan","district":"Tidore (Pulau Tidore)","urban":"Soadara","postal_code":97813},{"province":"Maluku Utara","city":"Tidore Kepulauan","district":"Tidore Selatan","urban":"Toloa","postal_code":97813},{"province":"Maluku Utara","city":"Tidore Kepulauan","district":"Tidore Utara","urban":"Sirongo Folaraha","postal_code":97813},{"province":"Maluku Utara","city":"Tidore Kepulauan","district":"Tidore (Pulau Tidore)","urban":"Seli","postal_code":97813},{"province":"Maluku Utara","city":"Tidore Kepulauan","district":"Tidore Utara","urban":"Rum","postal_code":97813},{"province":"Maluku Utara","city":"Tidore Kepulauan","district":"Tidore Utara","urban":"Rum Balibunga","postal_code":97813},{"province":"Maluku Utara","city":"Tidore Kepulauan","district":"Tidore Utara","urban":"Ome","postal_code":97813},{"province":"Maluku Utara","city":"Tidore Kepulauan","district":"Tidore Utara","urban":"Mareku","postal_code":97813},{"province":"Maluku Utara","city":"Tidore Kepulauan","district":"Tidore Selatan","urban":"Marekofo","postal_code":97813},{"province":"Maluku Utara","city":"Tidore Kepulauan","district":"Tidore Selatan","urban":"Maregam","postal_code":97813},{"province":"Maluku Utara","city":"Tidore Kepulauan","district":"Tidore Utara","urban":"Maitara","postal_code":97813},{"province":"Maluku Utara","city":"Tidore Kepulauan","district":"Tidore Utara","urban":"Maitara Selatan","postal_code":97813},{"province":"Maluku Utara","city":"Tidore Kepulauan","district":"Tidore Timur (Pulau Tidore)","urban":"Mafututu","postal_code":97813},{"province":"Maluku Utara","city":"Tidore Kepulauan","district":"Tidore Timur (Pulau Tidore)","urban":"Kalaodi","postal_code":97813},{"province":"Maluku Utara","city":"Tidore Kepulauan","district":"Tidore Utara","urban":"Jaya","postal_code":97813},{"province":"Maluku Utara","city":"Tidore Kepulauan","district":"Tidore (Pulau Tidore)","urban":"Indonesiana","postal_code":97813},{"province":"Maluku Utara","city":"Tidore Kepulauan","district":"Tidore Selatan","urban":"Gurabati","postal_code":97813},{"province":"Maluku Utara","city":"Tidore Kepulauan","district":"Tidore (Pulau Tidore)","urban":"Gura-Bunga","postal_code":97813},{"province":"Maluku Utara","city":"Tidore Kepulauan","district":"Tidore (Pulau Tidore)","urban":"Goto","postal_code":97813},{"province":"Maluku Utara","city":"Tidore Kepulauan","district":"Tidore Utara","urban":"Gubu Kusuma","postal_code":97813},{"province":"Maluku Utara","city":"Tidore Kepulauan","district":"Tidore (Pulau Tidore)","urban":"Folarora","postal_code":97813},{"province":"Maluku Utara","city":"Tidore Kepulauan","district":"Tidore Utara","urban":"Fobaharu","postal_code":97813},{"province":"Maluku Utara","city":"Tidore Kepulauan","district":"Tidore Timur (Pulau Tidore)","urban":"Dowora","postal_code":97813},{"province":"Maluku Utara","city":"Tidore Kepulauan","district":"Tidore Selatan","urban":"Dokiri","postal_code":97813},{"province":"Maluku Utara","city":"Tidore Kepulauan","district":"Tidore Utara","urban":"Bobo","postal_code":97813},{"province":"Maluku Utara","city":"Tidore Kepulauan","district":"Tidore Utara","urban":"Afa Afa","postal_code":97813}]