[{"province":"Maluku Utara","city":"Halmahera Tengah","district":"Weda Tengah","urban":"Woekob","postal_code":97853},{"province":"Maluku Utara","city":"Halmahera Tengah","district":"Weda Utara","urban":"Yeke","postal_code":97853},{"province":"Maluku Utara","city":"Halmahera Tengah","district":"Weda Tengah","urban":"Woejerana","postal_code":97853},{"province":"Maluku Utara","city":"Halmahera Tengah","district":"Weda","urban":"Were","postal_code":97853},{"province":"Maluku Utara","city":"Halmahera Tengah","district":"Weda Utara","urban":"Waleh","postal_code":97853},{"province":"Maluku Utara","city":"Halmahera Tengah","district":"Weda","urban":"Weda / Wedana","postal_code":97853},{"province":"Maluku Utara","city":"Halmahera Tengah","district":"Weda Selatan","urban":"Wairoro Indah","postal_code":97853},{"province":"Maluku Utara","city":"Halmahera Tengah","district":"Weda Selatan","urban":"Sumber Sari","postal_code":97853},{"province":"Maluku Utara","city":"Halmahera Tengah","district":"Weda Selatan","urban":"Tilope (Tiloppe)","postal_code":97853},{"province":"Maluku Utara","city":"Halmahera Tengah","district":"Weda Selatan","urban":"Sosowomo","postal_code":97853},{"province":"Maluku Utara","city":"Halmahera Tengah","district":"Weda","urban":"Sidanga","postal_code":97853},{"province":"Maluku Utara","city":"Halmahera Tengah","district":"Weda Tengah","urban":"Sawai Itepo","postal_code":97853},{"province":"Maluku Utara","city":"Halmahera Tengah","district":"Weda","urban":"Nusliko","postal_code":97853},{"province":"Maluku Utara","city":"Halmahera Tengah","district":"Weda Utara","urban":"Sagea","postal_code":97853},{"province":"Maluku Utara","city":"Halmahera Tengah","district":"Weda Selatan","urban":"Loleo","postal_code":97853},{"province":"Maluku Utara","city":"Halmahera Tengah","district":"Weda","urban":"Nurweda","postal_code":97853},{"province":"Maluku Utara","city":"Halmahera Tengah","district":"Weda Utara","urban":"Messa","postal_code":97853},{"province":"Maluku Utara","city":"Halmahera Tengah","district":"Weda Selatan","urban":"Lembah Asri","postal_code":97853},{"province":"Maluku Utara","city":"Halmahera Tengah","district":"Weda Tengah","urban":"Lelilef Sawai","postal_code":97853},{"province":"Maluku Utara","city":"Halmahera Tengah","district":"Weda Tengah","urban":"Lelilef Waibulen","postal_code":97853},{"province":"Maluku Utara","city":"Halmahera Tengah","district":"Weda Tengah","urban":"Kobe","postal_code":97853},{"province":"Maluku Utara","city":"Halmahera Tengah","district":"Weda Tengah","urban":"Kulo Jaya","postal_code":97853},{"province":"Maluku Utara","city":"Halmahera Tengah","district":"Weda Utara","urban":"Kotalo","postal_code":97853},{"province":"Maluku Utara","city":"Halmahera Tengah","district":"Weda Selatan","urban":"Kluting Jaya","postal_code":97853},{"province":"Maluku Utara","city":"Halmahera Tengah","district":"Weda Utara","urban":"Kiya","postal_code":97853},{"province":"Maluku Utara","city":"Halmahera Tengah","district":"Weda","urban":"Goeng","postal_code":97853},{"province":"Maluku Utara","city":"Halmahera Tengah","district":"Weda Utara","urban":"Gemaf","postal_code":97853},{"province":"Maluku Utara","city":"Halmahera Tengah","district":"Weda","urban":"Fidy Jaya","postal_code":97853},{"province":"Maluku Utara","city":"Halmahera Tengah","district":"Weda Utara","urban":"Fritu (Sepoh)","postal_code":97853},{"province":"Maluku Utara","city":"Halmahera Tengah","district":"Weda Utara","urban":"Dotte","postal_code":97853},{"province":"Maluku Utara","city":"Halmahera Tengah","district":"Weda Selatan","urban":"Air Salobar","postal_code":97853}]