[{"province":"Maluku Utara","city":"Halmahera Tengah","district":"Patani","urban":"Yondeliu","postal_code":97854},{"province":"Maluku Utara","city":"Halmahera Tengah","district":"Pulau Gebe","urban":"Yang","postal_code":97854},{"province":"Maluku Utara","city":"Halmahera Tengah","district":"Patani","urban":"Yeisowo","postal_code":97854},{"province":"Maluku Utara","city":"Halmahera Tengah","district":"Pulau Gebe","urban":"Umiyal","postal_code":97854},{"province":"Maluku Utara","city":"Halmahera Tengah","district":"Patani","urban":"Wailegi","postal_code":97854},{"province":"Maluku Utara","city":"Halmahera Tengah","district":"Pulau Gebe","urban":"Umera","postal_code":97854},{"province":"Maluku Utara","city":"Halmahera Tengah","district":"Patani Utara","urban":"Tepeleo Batudua","postal_code":97854},{"province":"Maluku Utara","city":"Halmahera Tengah","district":"Patani Utara","urban":"Tilope (Tepeleo)","postal_code":97854},{"province":"Maluku Utara","city":"Halmahera Tengah","district":"Patani Barat","urban":"Sibenpopo","postal_code":97854},{"province":"Maluku Utara","city":"Halmahera Tengah","district":"Pulau Gebe","urban":"Sanafi","postal_code":97854},{"province":"Maluku Utara","city":"Halmahera Tengah","district":"Pulau Gebe","urban":"Sonof Kacepo","postal_code":97854},{"province":"Maluku Utara","city":"Halmahera Tengah","district":"Patani Utara","urban":"Peniti","postal_code":97854},{"province":"Maluku Utara","city":"Halmahera Tengah","district":"Patani Utara","urban":"Sakam","postal_code":97854},{"province":"Maluku Utara","city":"Halmahera Tengah","district":"Patani Utara","urban":"Palo","postal_code":97854},{"province":"Maluku Utara","city":"Halmahera Tengah","district":"Patani Utara","urban":"Pantura Jaya","postal_code":97854},{"province":"Maluku Utara","city":"Halmahera Tengah","district":"Patani Utara","urban":"Nursifa","postal_code":97854},{"province":"Maluku Utara","city":"Halmahera Tengah","district":"Patani Barat","urban":"Moreala","postal_code":97854},{"province":"Maluku Utara","city":"Halmahera Tengah","district":"Patani Utara","urban":"Maliforo","postal_code":97854},{"province":"Maluku Utara","city":"Halmahera Tengah","district":"Patani Utara","urban":"Masure","postal_code":97854},{"province":"Maluku Utara","city":"Halmahera Tengah","district":"Patani","urban":"Kipai","postal_code":97854},{"province":"Maluku Utara","city":"Halmahera Tengah","district":"Pulau Gebe","urban":"Kacepi","postal_code":97854},{"province":"Maluku Utara","city":"Halmahera Tengah","district":"Pulau Gebe","urban":"Kapaleo","postal_code":97854},{"province":"Maluku Utara","city":"Halmahera Tengah","district":"Patani Utara","urban":"Gemia","postal_code":97854},{"province":"Maluku Utara","city":"Halmahera Tengah","district":"Pulau Gebe","urban":"Elfanun","postal_code":97854},{"province":"Maluku Utara","city":"Halmahera Tengah","district":"Patani Utara","urban":"Damuli","postal_code":97854},{"province":"Maluku Utara","city":"Halmahera Tengah","district":"Patani Barat","urban":"Bobane Jaya","postal_code":97854},{"province":"Maluku Utara","city":"Halmahera Tengah","district":"Patani Utara","urban":"Bilifitu","postal_code":97854},{"province":"Maluku Utara","city":"Halmahera Tengah","district":"Patani Barat","urban":"Bobane Indah","postal_code":97854},{"province":"Maluku Utara","city":"Halmahera Tengah","district":"Patani Barat","urban":"Banemo","postal_code":97854},{"province":"Maluku Utara","city":"Halmahera Tengah","district":"Patani","urban":"Baka Jaya","postal_code":97854}]