[{"province":"Maluku Utara","city":"Tidore Kepulauan","district":"Oba","urban":"Woda","postal_code":97852},{"province":"Maluku Utara","city":"Tidore Kepulauan","district":"Oba Selatan","urban":"Wama","postal_code":97852},{"province":"Maluku Utara","city":"Tidore Kepulauan","district":"Oba","urban":"Toseho","postal_code":97852},{"province":"Maluku Utara","city":"Tidore Kepulauan","district":"Oba","urban":"Tului Talagamori","postal_code":97852},{"province":"Maluku Utara","city":"Tidore Kepulauan","district":"Oba Tengah","urban":"Tadupi","postal_code":97852},{"province":"Maluku Utara","city":"Tidore Kepulauan","district":"Oba Tengah","urban":"Togema","postal_code":97852},{"province":"Maluku Utara","city":"Tidore Kepulauan","district":"Oba Selatan","urban":"Tagalaya","postal_code":97852},{"province":"Maluku Utara","city":"Tidore Kepulauan","district":"Oba Utara","urban":"Sofifi","postal_code":97852},{"province":"Maluku Utara","city":"Tidore Kepulauan","district":"Oba Utara","urban":"Somahode","postal_code":97852},{"province":"Maluku Utara","city":"Tidore Kepulauan","district":"Oba","urban":"Payahe","postal_code":97852},{"province":"Maluku Utara","city":"Tidore Kepulauan","district":"Oba Selatan","urban":"Selamalofo","postal_code":97852},{"province":"Maluku Utara","city":"Tidore Kepulauan","district":"Oba Selatan","urban":"Nuku","postal_code":97852},{"province":"Maluku Utara","city":"Tidore Kepulauan","district":"Oba Utara","urban":"Oba","postal_code":97852},{"province":"Maluku Utara","city":"Tidore Kepulauan","district":"Oba Tengah","urban":"Lola","postal_code":97852},{"province":"Maluku Utara","city":"Tidore Kepulauan","district":"Oba Selatan","urban":"Maidi","postal_code":97852},{"province":"Maluku Utara","city":"Tidore Kepulauan","district":"Oba","urban":"Kusu Sinopa","postal_code":97852},{"province":"Maluku Utara","city":"Tidore Kepulauan","district":"Oba Selatan","urban":"Lifofa","postal_code":97852},{"province":"Maluku Utara","city":"Tidore Kepulauan","district":"Oba","urban":"Kusu Sinopa","postal_code":97852},{"province":"Maluku Utara","city":"Tidore Kepulauan","district":"Oba","urban":"Koli","postal_code":97852},{"province":"Maluku Utara","city":"Tidore Kepulauan","district":"Oba","urban":"Kosa","postal_code":97852},{"province":"Maluku Utara","city":"Tidore Kepulauan","district":"Oba Selatan","urban":"Hager","postal_code":97852},{"province":"Maluku Utara","city":"Tidore Kepulauan","district":"Oba Utara","urban":"Kaiyasa","postal_code":97852},{"province":"Maluku Utara","city":"Tidore Kepulauan","district":"Oba Utara","urban":"Gorojou","postal_code":97852},{"province":"Maluku Utara","city":"Tidore Kepulauan","district":"Oba Utara","urban":"Guraping","postal_code":97852},{"province":"Maluku Utara","city":"Tidore Kepulauan","district":"Oba","urban":"Gita (Gita Raja)","postal_code":97852},{"province":"Maluku Utara","city":"Tidore Kepulauan","district":"Oba Utara","urban":"Galala","postal_code":97852},{"province":"Maluku Utara","city":"Tidore Kepulauan","district":"Oba","urban":"Bale","postal_code":97852},{"province":"Maluku Utara","city":"Tidore Kepulauan","district":"Oba Utara","urban":"Bukit Durian","postal_code":97852},{"province":"Maluku Utara","city":"Tidore Kepulauan","district":"Oba Utara","urban":"Ampera","postal_code":97852},{"province":"Maluku Utara","city":"Tidore Kepulauan","district":"Oba Utara","urban":"Balbar","postal_code":97852},{"province":"Maluku Utara","city":"Tidore Kepulauan","district":"Oba Tengah","urban":"Aketobato","postal_code":97852},{"province":"Maluku Utara","city":"Tidore Kepulauan","district":"Oba Tengah","urban":"Aketobololo","postal_code":97852},{"province":"Maluku Utara","city":"Tidore Kepulauan","district":"Oba Tengah","urban":"Akelamo","postal_code":97852},{"province":"Maluku Utara","city":"Tidore Kepulauan","district":"Oba Tengah","urban":"Akesai","postal_code":97852},{"province":"Maluku Utara","city":"Tidore Kepulauan","district":"Oba Utara","urban":"Akekolano","postal_code":97852},{"province":"Maluku Utara","city":"Tidore Kepulauan","district":"Oba Tengah","urban":"Akeguraci","postal_code":97852},{"province":"Maluku Utara","city":"Tidore Kepulauan","district":"Oba Tengah","urban":"Akedotilou","postal_code":97852}]