[{"province":"Maluku Utara","city":"Halmahera Timur","district":"Wasile Timur","urban":"Woka Jaya","postal_code":97863},{"province":"Maluku Utara","city":"Halmahera Timur","district":"Wasile Selatan","urban":"Yawal","postal_code":97863},{"province":"Maluku Utara","city":"Halmahera Timur","district":"Wasile","urban":"Waisuba","postal_code":97863},{"province":"Maluku Utara","city":"Halmahera Timur","district":"Wasile Selatan","urban":"Waijoi","postal_code":97863},{"province":"Maluku Utara","city":"Halmahera Timur","district":"Wasile Selatan","urban":"Wasile","postal_code":97863},{"province":"Maluku Utara","city":"Halmahera Timur","district":"Wasile Timur","urban":"Tutuling Jaya","postal_code":97863},{"province":"Maluku Utara","city":"Halmahera Timur","district":"Wasile Timur","urban":"Toboino","postal_code":97863},{"province":"Maluku Utara","city":"Halmahera Timur","district":"Wasile Utara","urban":"Tatam","postal_code":97863},{"province":"Maluku Utara","city":"Halmahera Timur","district":"Wasile Selatan","urban":"Tomares","postal_code":97863},{"province":"Maluku Utara","city":"Halmahera Timur","district":"Wasile Selatan","urban":"Tabanalou (Tabanoli)","postal_code":97863},{"province":"Maluku Utara","city":"Halmahera Timur","district":"Wasile Selatan","urban":"Talaga Jaya","postal_code":97863},{"province":"Maluku Utara","city":"Halmahera Timur","district":"Wasile Selatan","urban":"Tanure","postal_code":97863},{"province":"Maluku Utara","city":"Halmahera Timur","district":"Wasile","urban":"Subaim","postal_code":97863},{"province":"Maluku Utara","city":"Halmahera Timur","district":"Wasile Selatan","urban":"Sondo-Sondo","postal_code":97863},{"province":"Maluku Utara","city":"Halmahera Timur","district":"Wasile Timur","urban":"Sidomulyo","postal_code":97863},{"province":"Maluku Utara","city":"Halmahera Timur","district":"Wasile Tengah","urban":"Silalaysang (Silalayang)","postal_code":97863},{"province":"Maluku Utara","city":"Halmahera Timur","district":"Wasile Selatan","urban":"Saolat","postal_code":97863},{"province":"Maluku Utara","city":"Halmahera Timur","district":"Wasile Selatan","urban":"Saramake (Saramaake)","postal_code":97863},{"province":"Maluku Utara","city":"Halmahera Timur","district":"Wasile Selatan","urban":"Pintatu","postal_code":97863},{"province":"Maluku Utara","city":"Halmahera Timur","district":"Wasile Tengah","urban":"Puao","postal_code":97863},{"province":"Maluku Utara","city":"Halmahera Timur","district":"Wasile Selatan","urban":"Pintatu","postal_code":97863},{"province":"Maluku Utara","city":"Halmahera Timur","district":"Wasile Selatan","urban":"Nusa Jaya","postal_code":97863},{"province":"Maluku Utara","city":"Halmahera Timur","district":"Wasile Tengah","urban":"Nyaolako","postal_code":97863},{"province":"Maluku Utara","city":"Halmahera Timur","district":"Wasile Selatan","urban":"Nanas","postal_code":97863},{"province":"Maluku Utara","city":"Halmahera Timur","district":"Wasile Selatan","urban":"Nusa Ambu (Nusa Ambo)","postal_code":97863},{"province":"Maluku Utara","city":"Halmahera Timur","district":"Wasile Selatan","urban":"Minamin","postal_code":97863},{"province":"Maluku Utara","city":"Halmahera Timur","district":"Wasile","urban":"Mekar Sari","postal_code":97863},{"province":"Maluku Utara","city":"Halmahera Timur","district":"Wasile Utara","urban":"Marimoi","postal_code":97863},{"province":"Maluku Utara","city":"Halmahera Timur","district":"Wasile Utara","urban":"Majiko Tongone","postal_code":97863},{"province":"Maluku Utara","city":"Halmahera Timur","district":"Wasile Tengah","urban":"Lolobata","postal_code":97863},{"province":"Maluku Utara","city":"Halmahera Timur","district":"Wasile Selatan","urban":"Loleba","postal_code":97863},{"province":"Maluku Utara","city":"Halmahera Timur","district":"Wasile Utara","urban":"Labi Labi","postal_code":97863},{"province":"Maluku Utara","city":"Halmahera Timur","district":"Wasile Selatan","urban":"Ino Jaya","postal_code":97863},{"province":"Maluku Utara","city":"Halmahera Timur","district":"Wasile Selatan","urban":"Jiko Moi","postal_code":97863},{"province":"Maluku Utara","city":"Halmahera Timur","district":"Wasile Tengah","urban":"Kakaraino","postal_code":97863},{"province":"Maluku Utara","city":"Halmahera Timur","district":"Wasile Utara","urban":"Helaitetor","postal_code":97863},{"province":"Maluku Utara","city":"Halmahera Timur","district":"Wasile Utara","urban":"Iga","postal_code":97863},{"province":"Maluku Utara","city":"Halmahera Timur","district":"Wasile","urban":"Gulapapo","postal_code":97863},{"province":"Maluku Utara","city":"Halmahera Timur","district":"Wasile Tengah","urban":"Foli (Foly)","postal_code":97863},{"province":"Maluku Utara","city":"Halmahera Timur","district":"Wasile Tengah","urban":"Hatetabako","postal_code":97863},{"province":"Maluku Utara","city":"Halmahera Timur","district":"Wasile Selatan","urban":"Ekorino","postal_code":97863},{"province":"Maluku Utara","city":"Halmahera Timur","district":"Wasile Selatan","urban":"Fayaul","postal_code":97863},{"province":"Maluku Utara","city":"Halmahera Timur","district":"Wasile Selatan","urban":"Ekor","postal_code":97863},{"province":"Maluku Utara","city":"Halmahera Timur","district":"Wasile Utara","urban":"Dowongi Jaya","postal_code":97863},{"province":"Maluku Utara","city":"Halmahera Timur","district":"Wasile Timur","urban":"Dodaga","postal_code":97863},{"province":"Maluku Utara","city":"Halmahera Timur","district":"Wasile Timur","urban":"Daka Ino","postal_code":97863},{"province":"Maluku Utara","city":"Halmahera Timur","district":"Wasile","urban":"Bumi Restu","postal_code":97863},{"province":"Maluku Utara","city":"Halmahera Timur","district":"Wasile","urban":"Cemara Jaya","postal_code":97863},{"province":"Maluku Utara","city":"Halmahera Timur","district":"Wasile Selatan","urban":"Bukutio","postal_code":97863},{"province":"Maluku Utara","city":"Halmahera Timur","district":"Wasile Utara","urban":"Bololo","postal_code":97863},{"province":"Maluku Utara","city":"Halmahera Timur","district":"Wasile Tengah","urban":"Boki Miake (Bokimaake)","postal_code":97863},{"province":"Maluku Utara","city":"Halmahera Timur","district":"Wasile Selatan","urban":"Binagara","postal_code":97863},{"province":"Maluku Utara","city":"Halmahera Timur","district":"Wasile","urban":"Batu Raja","postal_code":97863},{"province":"Maluku Utara","city":"Halmahera Timur","district":"Wasile Timur","urban":"Ake Daga","postal_code":97863},{"province":"Maluku Utara","city":"Halmahera Timur","district":"Wasile Selatan","urban":"Ake Jawi","postal_code":97863}]