[{"province":"Maluku Utara","city":"Halmahera Timur","district":"Maba Tengah","urban":"Wayamli (Wayamly)","postal_code":97862},{"province":"Maluku Utara","city":"Halmahera Timur","district":"Maba Tengah","urban":"Yawanli","postal_code":97862},{"province":"Maluku Utara","city":"Halmahera Timur","district":"Maba","urban":"Wayafli (Wayamli)","postal_code":97862},{"province":"Maluku Utara","city":"Halmahera Timur","district":"Maba Utara","urban":"Wasileo","postal_code":97862},{"province":"Maluku Utara","city":"Halmahera Timur","district":"Kota Maba","urban":"Tewil","postal_code":97862},{"province":"Maluku Utara","city":"Halmahera Timur","district":"Maba Selatan","urban":"Waci","postal_code":97862},{"province":"Maluku Utara","city":"Halmahera Timur","district":"Kota Maba","urban":"Wailukum","postal_code":97862},{"province":"Maluku Utara","city":"Halmahera Timur","district":"Maba","urban":"Teluk Buli","postal_code":97862},{"province":"Maluku Utara","city":"Halmahera Timur","district":"Maba Tengah","urban":"Tatangapu","postal_code":97862},{"province":"Maluku Utara","city":"Halmahera Timur","district":"Maba Selatan","urban":"Sowoli","postal_code":97862},{"province":"Maluku Utara","city":"Halmahera Timur","district":"Maba Utara","urban":"Sosolat","postal_code":97862},{"province":"Maluku Utara","city":"Halmahera Timur","district":"Kota Maba","urban":"Soa Laipoh","postal_code":97862},{"province":"Maluku Utara","city":"Halmahera Timur","district":"Kota Maba","urban":"Soa Sangaji","postal_code":97862},{"province":"Maluku Utara","city":"Halmahera Timur","district":"Kota Maba","urban":"Soa Gimalaha","postal_code":97862},{"province":"Maluku Utara","city":"Halmahera Timur","district":"Maba Selatan","urban":"Sil","postal_code":97862},{"province":"Maluku Utara","city":"Halmahera Timur","district":"Maba Utara","urban":"Pumlanga","postal_code":97862},{"province":"Maluku Utara","city":"Halmahera Timur","district":"Maba","urban":"Pekaulan","postal_code":97862},{"province":"Maluku Utara","city":"Halmahera Timur","district":"Maba","urban":"Sailal","postal_code":97862},{"province":"Maluku Utara","city":"Halmahera Timur","district":"Maba Utara","urban":"Patlean","postal_code":97862},{"province":"Maluku Utara","city":"Halmahera Timur","district":"Maba Utara","urban":"Patlean Jaya","postal_code":97862},{"province":"Maluku Utara","city":"Halmahera Timur","district":"Maba Selatan","urban":"Momole","postal_code":97862},{"province":"Maluku Utara","city":"Halmahera Timur","district":"Maba Selatan","urban":"Pateley (Petelei)","postal_code":97862},{"province":"Maluku Utara","city":"Halmahera Timur","district":"Maba Tengah","urban":"Marasipno","postal_code":97862},{"province":"Maluku Utara","city":"Halmahera Timur","district":"Maba Tengah","urban":"Maratana (Marathana Jaya )","postal_code":97862},{"province":"Maluku Utara","city":"Halmahera Timur","district":"Maba Tengah","urban":"Miaf","postal_code":97862},{"province":"Maluku Utara","city":"Halmahera Timur","district":"Kota Maba","urban":"Maba Sangaji (Gotowasi)","postal_code":97862},{"province":"Maluku Utara","city":"Halmahera Timur","district":"Maba Selatan","urban":"Loloelamo","postal_code":97862},{"province":"Maluku Utara","city":"Halmahera Timur","district":"Maba Utara","urban":"Lili","postal_code":97862},{"province":"Maluku Utara","city":"Halmahera Timur","district":"Maba Utara","urban":"Lolasita","postal_code":97862},{"province":"Maluku Utara","city":"Halmahera Timur","district":"Maba Utara","urban":"Jarajara","postal_code":97862},{"province":"Maluku Utara","city":"Halmahera Timur","district":"Maba Selatan","urban":"Kasuba","postal_code":97862},{"province":"Maluku Utara","city":"Halmahera Timur","district":"Maba","urban":"Gamesan","postal_code":97862},{"province":"Maluku Utara","city":"Halmahera Timur","district":"Maba","urban":"Geltoli","postal_code":97862},{"province":"Maluku Utara","city":"Halmahera Timur","district":"Maba Selatan","urban":"Gotowasi","postal_code":97862},{"province":"Maluku Utara","city":"Halmahera Timur","district":"Maba Utara","urban":"Doromoi","postal_code":97862},{"province":"Maluku Utara","city":"Halmahera Timur","district":"Maba Utara","urban":"Dorosago (Dorosagu)","postal_code":97862},{"province":"Maluku Utara","city":"Halmahera Timur","district":"Maba Tengah","urban":"Gaifoli","postal_code":97862},{"province":"Maluku Utara","city":"Halmahera Timur","district":"Maba Tengah","urban":"Dorolamo","postal_code":97862},{"province":"Maluku Utara","city":"Halmahera Timur","district":"Maba","urban":"Buli","postal_code":97862},{"province":"Maluku Utara","city":"Halmahera Timur","district":"Maba","urban":"Buli Asal","postal_code":97862},{"province":"Maluku Utara","city":"Halmahera Timur","district":"Maba","urban":"Buli Karya","postal_code":97862},{"province":"Maluku Utara","city":"Halmahera Timur","district":"Maba Tengah","urban":"Beringin Lamo (Baringin)","postal_code":97862},{"province":"Maluku Utara","city":"Halmahera Timur","district":"Maba Selatan","urban":"Bicoli","postal_code":97862},{"province":"Maluku Utara","city":"Halmahera Timur","district":"Maba Tengah","urban":"Bangul","postal_code":97862},{"province":"Maluku Utara","city":"Halmahera Timur","district":"Maba Tengah","urban":"Bebsili","postal_code":97862},{"province":"Maluku Utara","city":"Halmahera Timur","district":"Maba","urban":"Baburino","postal_code":97862},{"province":"Maluku Utara","city":"Halmahera Timur","district":"Maba Tengah","urban":"Babasaram","postal_code":97862}]