[{"province":"Papua","city":"Biak Numfor","district":"Oridek","urban":"Yensama","postal_code":98152},{"province":"Papua","city":"Biak Numfor","district":"Biak Timur","urban":"Yenusi","postal_code":98152},{"province":"Papua","city":"Biak Numfor","district":"Biak Timur","urban":"Woniki","postal_code":98152},{"province":"Papua","city":"Biak Numfor","district":"Biak Timur","urban":"Yenberok","postal_code":98152},{"province":"Papua","city":"Biak Numfor","district":"Biak Timur","urban":"Yendakem","postal_code":98152},{"province":"Papua","city":"Biak Numfor","district":"Biak Timur","urban":"Wasori","postal_code":98152},{"province":"Papua","city":"Biak Numfor","district":"Oridek","urban":"Wadibu","postal_code":98152},{"province":"Papua","city":"Biak Numfor","district":"Biak Timur","urban":"Waderbo","postal_code":98152},{"province":"Papua","city":"Biak Numfor","district":"Oridek","urban":"Tanjung Barari","postal_code":98152},{"province":"Papua","city":"Biak Numfor","district":"Biak Timur","urban":"Soryar","postal_code":98152},{"province":"Papua","city":"Biak Numfor","district":"Biak Timur","urban":"Sunde","postal_code":98152},{"province":"Papua","city":"Biak Numfor","district":"Biak Timur","urban":"Seepse (Sepse)","postal_code":98152},{"province":"Papua","city":"Biak Numfor","district":"Biak Timur","urban":"Soon","postal_code":98152},{"province":"Papua","city":"Biak Numfor","district":"Oridek","urban":"Sawadori","postal_code":98152},{"province":"Papua","city":"Biak Numfor","district":"Oridek","urban":"Sauri","postal_code":98152},{"province":"Papua","city":"Biak Numfor","district":"Oridek","urban":"Sawa","postal_code":98152},{"province":"Papua","city":"Biak Numfor","district":"Biak Timur","urban":"Sareidi (Saraeidi)","postal_code":98152},{"province":"Papua","city":"Biak Numfor","district":"Biak Timur","urban":"Ruar","postal_code":98152},{"province":"Papua","city":"Biak Numfor","district":"Biak Timur","urban":"Rim","postal_code":98152},{"province":"Papua","city":"Biak Numfor","district":"Biak Timur","urban":"Rimba Jaya","postal_code":98152},{"province":"Papua","city":"Biak Numfor","district":"Biak Timur","urban":"Owi","postal_code":98152},{"province":"Papua","city":"Biak Numfor","district":"Oridek","urban":"Opiaref","postal_code":98152},{"province":"Papua","city":"Biak Numfor","district":"Biak Timur","urban":"Orwer","postal_code":98152},{"province":"Papua","city":"Biak Numfor","district":"Oridek","urban":"Makmakerbo","postal_code":98152},{"province":"Papua","city":"Biak Numfor","district":"Oridek","urban":"Marao","postal_code":98152},{"province":"Papua","city":"Biak Numfor","district":"Biak Timur","urban":"Mandon","postal_code":98152},{"province":"Papua","city":"Biak Numfor","district":"Biak Timur","urban":"Kajasi","postal_code":98152},{"province":"Papua","city":"Biak Numfor","district":"Oridek","urban":"Kakur","postal_code":98152},{"province":"Papua","city":"Biak Numfor","district":"Biak Timur","urban":"Insumamires (Insumarires)","postal_code":98152},{"province":"Papua","city":"Biak Numfor","district":"Biak Timur","urban":"Kajasbo","postal_code":98152},{"province":"Papua","city":"Biak Numfor","district":"Biak Timur","urban":"Inofi","postal_code":98152},{"province":"Papua","city":"Biak Numfor","district":"Biak Timur","urban":"Inmdi","postal_code":98152},{"province":"Papua","city":"Biak Numfor","district":"Biak Timur","urban":"Bindusi","postal_code":98152},{"province":"Papua","city":"Biak Numfor","district":"Biak Timur","urban":"Bosnik Sup","postal_code":98152},{"province":"Papua","city":"Biak Numfor","district":"Oridek","urban":"Animi","postal_code":98152},{"province":"Papua","city":"Biak Numfor","district":"Oridek","urban":"Bakribo","postal_code":98152},{"province":"Papua","city":"Biak Numfor","district":"Oridek","urban":"Anggaduber","postal_code":98152},{"province":"Papua","city":"Biak Numfor","district":"Oridek","urban":"Anggopi","postal_code":98152},{"province":"Papua","city":"Biak Numfor","district":"Biak Timur","urban":"Adorbari","postal_code":98152},{"province":"Papua","city":"Biak Numfor","district":"Biak Timur","urban":"Afefbo","postal_code":98152}]