[{"province":"Papua","city":"Biak Numfor","district":"Aimando Padaido","urban":"Yeri","postal_code":98158},{"province":"Papua","city":"Biak Numfor","district":"Padaido","urban":"Wundi","postal_code":98158},{"province":"Papua","city":"Biak Numfor","district":"Aimando Padaido","urban":"Supraima","postal_code":98158},{"province":"Papua","city":"Biak Numfor","district":"Aimando Padaido","urban":"Yen Manaina","postal_code":98158},{"province":"Papua","city":"Biak Numfor","district":"Padaido","urban":"Sokani","postal_code":98158},{"province":"Papua","city":"Biak Numfor","district":"Padaido","urban":"Sorina","postal_code":98158},{"province":"Papua","city":"Biak Numfor","district":"Aimando Padaido","urban":"Sasari","postal_code":98158},{"province":"Papua","city":"Biak Numfor","district":"Padaido","urban":"Sandidori (Sandedori)","postal_code":98158},{"province":"Papua","city":"Biak Numfor","district":"Aimando Padaido","urban":"Saribra","postal_code":98158},{"province":"Papua","city":"Biak Numfor","district":"Padaido","urban":"Paidori","postal_code":98158},{"province":"Papua","city":"Biak Numfor","district":"Aimando Padaido","urban":"Pasi","postal_code":98158},{"province":"Papua","city":"Biak Numfor","district":"Aimando Padaido","urban":"Samber Pasi","postal_code":98158},{"province":"Papua","city":"Biak Numfor","district":"Padaido","urban":"Pai","postal_code":98158},{"province":"Papua","city":"Biak Numfor","district":"Aimando Padaido","urban":"Padaido","postal_code":98158},{"province":"Papua","city":"Biak Numfor","district":"Padaido","urban":"Nusi Babaruk","postal_code":98158},{"province":"Papua","city":"Biak Numfor","district":"Aimando Padaido","urban":"Nyansoren","postal_code":98158},{"province":"Papua","city":"Biak Numfor","district":"Padaido","urban":"Nusi","postal_code":98158},{"province":"Papua","city":"Biak Numfor","district":"Aimando Padaido","urban":"Meos Manguandi (Mangguandi)","postal_code":98158},{"province":"Papua","city":"Biak Numfor","district":"Aimando Padaido","urban":"Mbromsi","postal_code":98158},{"province":"Papua","city":"Biak Numfor","district":"Padaido","urban":"Kanai","postal_code":98158},{"province":"Papua","city":"Biak Numfor","district":"Aimando Padaido","urban":"Karabai","postal_code":98158},{"province":"Papua","city":"Biak Numfor","district":"Padaido","urban":"Inyebomi (Inbeyomi)","postal_code":98158},{"province":"Papua","city":"Biak Numfor","district":"Padaido","urban":"Auki","postal_code":98158},{"province":"Papua","city":"Biak Numfor","district":"Aimando Padaido","urban":"Anobo","postal_code":98158}]