[{"province":"Papua","city":"Biak Numfor","district":"Yawosi","urban":"Yawosi (Fanindi)","postal_code":98157},{"province":"Papua","city":"Biak Numfor","district":"Warsa","urban":"Yeruboy","postal_code":98157},{"province":"Papua","city":"Biak Numfor","district":"Andey (Andei)","urban":"Wouna","postal_code":98157},{"province":"Papua","city":"Biak Numfor","district":"Bondifuar","urban":"Wopes","postal_code":98157},{"province":"Papua","city":"Biak Numfor","district":"Andey (Andei)","urban":"Wodu (Makuker)","postal_code":98157},{"province":"Papua","city":"Biak Numfor","district":"Warsa","urban":"Wir Insos","postal_code":98157},{"province":"Papua","city":"Biak Numfor","district":"Yawosi","urban":"Wasori","postal_code":98157},{"province":"Papua","city":"Biak Numfor","district":"Warsa","urban":"Wasani","postal_code":98157},{"province":"Papua","city":"Biak Numfor","district":"Warsa","urban":"Warawaf","postal_code":98157},{"province":"Papua","city":"Biak Numfor","district":"Bondifuar","urban":"Wandos","postal_code":98157},{"province":"Papua","city":"Biak Numfor","district":"Andey (Andei)","urban":"Sup Mbrur","postal_code":98157},{"province":"Papua","city":"Biak Numfor","district":"Bondifuar","urban":"Syurdori","postal_code":98157},{"province":"Papua","city":"Biak Numfor","district":"Yawosi","urban":"Soor (Sor)","postal_code":98157},{"province":"Papua","city":"Biak Numfor","district":"Warsa","urban":"Saway","postal_code":98157},{"province":"Papua","city":"Biak Numfor","district":"Bondifuar","urban":"Sansundi","postal_code":98157},{"province":"Papua","city":"Biak Numfor","district":"Warsa","urban":"Marur","postal_code":98157},{"province":"Papua","city":"Biak Numfor","district":"Warsa","urban":"Maniri","postal_code":98157},{"province":"Papua","city":"Biak Numfor","district":"Warsa","urban":"Manbeori","postal_code":98157},{"province":"Papua","city":"Biak Numfor","district":"Warsa","urban":"Mamfias","postal_code":98157},{"province":"Papua","city":"Biak Numfor","district":"Yawosi","urban":"Madirai","postal_code":98157},{"province":"Papua","city":"Biak Numfor","district":"Warsa","urban":"Koyomi","postal_code":98157},{"province":"Papua","city":"Biak Numfor","district":"Warsa","urban":"Komboy","postal_code":98157},{"province":"Papua","city":"Biak Numfor","district":"Warsa","urban":"Karuiberik","postal_code":98157},{"province":"Papua","city":"Biak Numfor","district":"Yawosi","urban":"Karmon","postal_code":98157},{"province":"Papua","city":"Biak Numfor","district":"Warsa","urban":"Inyobi","postal_code":98157},{"province":"Papua","city":"Biak Numfor","district":"Warsa","urban":"Inswanbesi Sup","postal_code":98157},{"province":"Papua","city":"Biak Numfor","district":"Warsa","urban":"Inswanbesi","postal_code":98157},{"province":"Papua","city":"Biak Numfor","district":"Yawosi","urban":"Indawi","postal_code":98157},{"province":"Papua","city":"Biak Numfor","district":"Warsa","urban":"Imbari","postal_code":98157},{"province":"Papua","city":"Biak Numfor","district":"Bondifuar","urban":"Doubo","postal_code":98157},{"province":"Papua","city":"Biak Numfor","district":"Warsa","urban":"Biawer","postal_code":98157},{"province":"Papua","city":"Biak Numfor","district":"Warsa","urban":"Diano","postal_code":98157},{"province":"Papua","city":"Biak Numfor","district":"Warsa","urban":"Ammoy","postal_code":98157},{"province":"Papua","city":"Biak Numfor","district":"Warsa","urban":"Aman","postal_code":98157}]