[{"province":"Papua","city":"Biak Numfor","district":"Biak Utara","urban":"Yobdi","postal_code":98153},{"province":"Papua","city":"Biak Numfor","district":"Andey (Andei)","urban":"Wonabraidi","postal_code":98153},{"province":"Papua","city":"Biak Numfor","district":"Biak Utara","urban":"Warsansan","postal_code":98153},{"province":"Papua","city":"Biak Numfor","district":"Andey (Andei)","urban":"Wodu","postal_code":98153},{"province":"Papua","city":"Biak Numfor","district":"Biak Utara","urban":"Waromi","postal_code":98153},{"province":"Papua","city":"Biak Numfor","district":"Biak Utara","urban":"Warbon","postal_code":98153},{"province":"Papua","city":"Biak Numfor","district":"Biak Utara","urban":"Wari","postal_code":98153},{"province":"Papua","city":"Biak Numfor","district":"Andey (Andei)","urban":"Warbinsi","postal_code":98153},{"province":"Papua","city":"Biak Numfor","district":"Biak Utara","urban":"Saukobye","postal_code":98153},{"province":"Papua","city":"Biak Numfor","district":"Andey (Andei)","urban":"Rumbin","postal_code":98153},{"province":"Papua","city":"Biak Numfor","district":"Biak Utara","urban":"Rosayendo","postal_code":98153},{"province":"Papua","city":"Biak Numfor","district":"Biak Utara","urban":"Sarwom","postal_code":98153},{"province":"Papua","city":"Biak Numfor","district":"Andey (Andei)","urban":"Rodifu","postal_code":98153},{"province":"Papua","city":"Biak Numfor","district":"Biak Utara","urban":"Nermnu","postal_code":98153},{"province":"Papua","city":"Biak Numfor","district":"Andey (Andei)","urban":"Mamorbo","postal_code":98153},{"province":"Papua","city":"Biak Numfor","district":"Biak Utara","urban":"Mnuswor","postal_code":98153},{"province":"Papua","city":"Biak Numfor","district":"Biak Utara","urban":"Korem","postal_code":98153},{"province":"Papua","city":"Biak Numfor","district":"Biak Utara","urban":"Mambesak","postal_code":98153},{"province":"Papua","city":"Biak Numfor","district":"Biak Utara","urban":"Dofyo Wafor","postal_code":98153},{"province":"Papua","city":"Biak Numfor","district":"Andey (Andei)","urban":"Faknikdi","postal_code":98153},{"province":"Papua","city":"Biak Numfor","district":"Biak Utara","urban":"Kobeoser","postal_code":98153},{"province":"Papua","city":"Biak Numfor","district":"Biak Utara","urban":"Dernafi","postal_code":98153},{"province":"Papua","city":"Biak Numfor","district":"Andey (Andei)","urban":"Dasdo","postal_code":98153},{"province":"Papua","city":"Biak Numfor","district":"Yawosi","urban":"Asur","postal_code":98153},{"province":"Papua","city":"Biak Numfor","district":"Yawosi","urban":"Bosnabraidi","postal_code":98153},{"province":"Papua","city":"Biak Numfor","district":"Andey (Andei)","urban":"Armnu","postal_code":98153},{"province":"Papua","city":"Biak Numfor","district":"Biak Utara","urban":"Andei","postal_code":98153}]