[{"province":"Papua","city":"Biak Numfor","district":"Biak Barat","urban":"Yomdori","postal_code":98154},{"province":"Papua","city":"Biak Numfor","district":"Swandiwe","urban":"Wombrisauw","postal_code":98154},{"province":"Papua","city":"Biak Numfor","district":"Swandiwe","urban":"Yenbepioper (Yembepioper)","postal_code":98154},{"province":"Papua","city":"Biak Numfor","district":"Biak Barat","urban":"Warberik (Waberik)","postal_code":98154},{"province":"Papua","city":"Biak Numfor","district":"Biak Barat","urban":"Wasyai","postal_code":98154},{"province":"Papua","city":"Biak Numfor","district":"Swandiwe","urban":"Swainober","postal_code":98154},{"province":"Papua","city":"Biak Numfor","district":"Biak Barat","urban":"Sumbinya (Sunbinya)","postal_code":98154},{"province":"Papua","city":"Biak Numfor","district":"Swandiwe","urban":"Swaipak","postal_code":98154},{"province":"Papua","city":"Biak Numfor","district":"Biak Barat","urban":"Sopendo Sup Karkir","postal_code":98154},{"province":"Papua","city":"Biak Numfor","district":"Biak Barat","urban":"Sosmay / Sosmai","postal_code":98154},{"province":"Papua","city":"Biak Numfor","district":"Biak Barat","urban":"Sopendo","postal_code":98154},{"province":"Papua","city":"Biak Numfor","district":"Swandiwe","urban":"Saswarbo","postal_code":98154},{"province":"Papua","city":"Biak Numfor","district":"Biak Barat","urban":"Rarsbari","postal_code":98154},{"province":"Papua","city":"Biak Numfor","district":"Swandiwe","urban":"Ramdori","postal_code":98154},{"province":"Papua","city":"Biak Numfor","district":"Swandiwe","urban":"Sarwa","postal_code":98154},{"province":"Papua","city":"Biak Numfor","district":"Biak Barat","urban":"Opuri","postal_code":98154},{"province":"Papua","city":"Biak Numfor","district":"Swandiwe","urban":"Orkdori","postal_code":98154},{"province":"Papua","city":"Biak Numfor","district":"Biak Barat","urban":"Marisen","postal_code":98154},{"province":"Papua","city":"Biak Numfor","district":"Swandiwe","urban":"Napdori","postal_code":98154},{"province":"Papua","city":"Biak Numfor","district":"Swandiwe","urban":"Mandenderi","postal_code":98154},{"province":"Papua","city":"Biak Numfor","district":"Biak Barat","urban":"Mamoribo","postal_code":98154},{"province":"Papua","city":"Biak Numfor","district":"Swandiwe","urban":"Mardori","postal_code":98154},{"province":"Papua","city":"Biak Numfor","district":"Biak Barat","urban":"Karnindi","postal_code":98154},{"province":"Papua","city":"Biak Numfor","district":"Biak Barat","urban":"Kababur","postal_code":98154},{"province":"Papua","city":"Biak Numfor","district":"Biak Barat","urban":"Kanaan","postal_code":98154},{"province":"Papua","city":"Biak Numfor","district":"Biak Barat","urban":"Insiri","postal_code":98154},{"province":"Papua","city":"Biak Numfor","district":"Swandiwe","urban":"Farusi","postal_code":98154},{"province":"Papua","city":"Biak Numfor","district":"Swandiwe","urban":"Insusbari","postal_code":98154},{"province":"Papua","city":"Biak Numfor","district":"Biak Barat","urban":"Dedifu","postal_code":98154},{"province":"Papua","city":"Biak Numfor","district":"Biak Barat","urban":"Dousi","postal_code":98154},{"province":"Papua","city":"Biak Numfor","district":"Biak Barat","urban":"Banasrares","postal_code":98154},{"province":"Papua","city":"Biak Numfor","district":"Swandiwe","urban":"Busdori","postal_code":98154},{"province":"Papua","city":"Biak Numfor","district":"Biak Barat","urban":"Asarkir","postal_code":98154},{"province":"Papua","city":"Biak Numfor","district":"Biak Barat","urban":"Asaryendi","postal_code":98154},{"province":"Papua","city":"Biak Numfor","district":"Swandiwe","urban":"Andoina","postal_code":98154},{"province":"Papua","city":"Biak Numfor","district":"Biak Barat","urban":"Andei","postal_code":98154},{"province":"Papua","city":"Biak Numfor","district":"Biak Barat","urban":"Amponbukor","postal_code":98154}]