[{"province":"Papua","city":"Supiori","district":"Supiori Barat","urban":"Wayori (Mayori)","postal_code":98162},{"province":"Papua","city":"Supiori","district":"Supiori Barat","urban":"Waryei (Wariyei)","postal_code":98162},{"province":"Papua","city":"Supiori","district":"Supiori Utara","urban":"Warsa","postal_code":98162},{"province":"Papua","city":"Supiori","district":"Supiori Utara","urban":"Warbor","postal_code":98162},{"province":"Papua","city":"Supiori","district":"Supiori Utara","urban":"Puweri","postal_code":98162},{"province":"Papua","city":"Supiori","district":"Supiori Barat","urban":"Napisandi","postal_code":98162},{"province":"Papua","city":"Supiori","district":"Supiori Barat","urban":"Mapia","postal_code":98162},{"province":"Papua","city":"Supiori","district":"Supiori Barat","urban":"Masyai","postal_code":98162},{"province":"Papua","city":"Supiori","district":"Supiori Utara","urban":"Kobari Jaya","postal_code":98162},{"province":"Papua","city":"Supiori","district":"Supiori Barat","urban":"Koryakam (Koiryakam)","postal_code":98162},{"province":"Papua","city":"Supiori","district":"Supiori Utara","urban":"Fanjur","postal_code":98162},{"province":"Papua","city":"Supiori","district":"Supiori Barat","urban":"Amyas","postal_code":98162}]