[{"province":"Papua","city":"Supiori","district":"Kepulauan Aruri","urban":"Yamnaisu","postal_code":98161},{"province":"Papua","city":"Supiori","district":"Supiori Timur","urban":"Yawerma","postal_code":98161},{"province":"Papua","city":"Supiori","district":"Kepulauan Aruri","urban":"Wonggeina (Wongkeina)","postal_code":98161},{"province":"Papua","city":"Supiori","district":"Supiori Timur","urban":"Wombonda","postal_code":98161},{"province":"Papua","city":"Supiori","district":"Supiori Timur","urban":"Wafor","postal_code":98161},{"province":"Papua","city":"Supiori","district":"Supiori Timur","urban":"Waryesi","postal_code":98161},{"province":"Papua","city":"Supiori","district":"Supiori Selatan","urban":"Waberfondi (Warbepondi)","postal_code":98161},{"province":"Papua","city":"Supiori","district":"Supiori Timur","urban":"Sorendidori (Sorendiweri)","postal_code":98161},{"province":"Papua","city":"Supiori","district":"Supiori Timur","urban":"Syurdori","postal_code":98161},{"province":"Papua","city":"Supiori","district":"Supiori Timur","urban":"Sauyas","postal_code":98161},{"province":"Papua","city":"Supiori","district":"Kepulauan Aruri","urban":"Rayori","postal_code":98161},{"province":"Papua","city":"Supiori","district":"Kepulauan Aruri","urban":"Rayori","postal_code":98161},{"province":"Papua","city":"Supiori","district":"Supiori Selatan","urban":"Maryaidori","postal_code":98161},{"province":"Papua","city":"Supiori","district":"Kepulauan Aruri","urban":"Mbruwandi (Bruwandi)","postal_code":98161},{"province":"Papua","city":"Supiori","district":"Supiori Timur","urban":"Marsram","postal_code":98161},{"province":"Papua","city":"Supiori","district":"Kepulauan Aruri","urban":"Manggonswan (Mangoswan)","postal_code":98161},{"province":"Papua","city":"Supiori","district":"Kepulauan Aruri","urban":"Imbrisbari (Imbirsbari)","postal_code":98161},{"province":"Papua","city":"Supiori","district":"Kepulauan Aruri","urban":"Ineki","postal_code":98161},{"province":"Papua","city":"Supiori","district":"Kepulauan Aruri","urban":"Insumbrei","postal_code":98161},{"province":"Papua","city":"Supiori","district":"Supiori Selatan","urban":"Fanindi","postal_code":98161},{"province":"Papua","city":"Supiori","district":"Supiori Timur","urban":"Duber","postal_code":98161},{"province":"Papua","city":"Supiori","district":"Supiori Timur","urban":"Douwbo (Doubo)","postal_code":98161},{"province":"Papua","city":"Supiori","district":"Supiori Selatan","urban":"Didiabolo","postal_code":98161},{"province":"Papua","city":"Supiori","district":"Supiori Selatan","urban":"Biniki","postal_code":98161},{"province":"Papua","city":"Supiori","district":"Kepulauan Aruri","urban":"Aruri","postal_code":98161},{"province":"Papua","city":"Supiori","district":"Supiori Selatan","urban":"Awaki","postal_code":98161}]