[{"province":"Papua","city":"Biak Numfor","district":"Orkeri","urban":"Yenbebon (Yenbepon)","postal_code":98172},{"province":"Papua","city":"Biak Numfor","district":"Orkeri","urban":"Yenbeba","postal_code":98172},{"province":"Papua","city":"Biak Numfor","district":"Numfor Barat","urban":"Warido","postal_code":98172},{"province":"Papua","city":"Biak Numfor","district":"Numfor Barat","urban":"Subangungsi (Submanggunsi)","postal_code":98172},{"province":"Papua","city":"Biak Numfor","district":"Orkeri","urban":"Supmander","postal_code":98172},{"province":"Papua","city":"Biak Numfor","district":"Orkeri","urban":"Wansra","postal_code":98172},{"province":"Papua","city":"Biak Numfor","district":"Numfor Barat","urban":"Serbin","postal_code":98172},{"province":"Papua","city":"Biak Numfor","district":"Numfor Barat","urban":"Semayen","postal_code":98172},{"province":"Papua","city":"Biak Numfor","district":"Orkeri","urban":"Saribi","postal_code":98172},{"province":"Papua","city":"Biak Numfor","district":"Numfor Barat","urban":"Rimbaraya","postal_code":98172},{"province":"Papua","city":"Biak Numfor","district":"Orkeri","urban":"Rawar","postal_code":98172},{"province":"Papua","city":"Biak Numfor","district":"Numfor Barat","urban":"Pondori (Pomdori)","postal_code":98172},{"province":"Papua","city":"Biak Numfor","district":"Numfor Barat","urban":"Pomdori Sup","postal_code":98172},{"province":"Papua","city":"Biak Numfor","district":"Orkeri","urban":"Pakreki","postal_code":98172},{"province":"Papua","city":"Biak Numfor","district":"Numfor Barat","urban":"Namber","postal_code":98172},{"province":"Papua","city":"Biak Numfor","district":"Orkeri","urban":"Masyara","postal_code":98172},{"province":"Papua","city":"Biak Numfor","district":"Orkeri","urban":"Manwor Indah","postal_code":98172},{"province":"Papua","city":"Biak Numfor","district":"Numfor Barat","urban":"Kansai","postal_code":98172},{"province":"Papua","city":"Biak Numfor","district":"Numfor Barat","urban":"Mambodo Sawai","postal_code":98172},{"province":"Papua","city":"Biak Numfor","district":"Numfor Barat","urban":"Kameri","postal_code":98172},{"province":"Papua","city":"Biak Numfor","district":"Numfor Barat","urban":"Baruki","postal_code":98172}]