[{"province":"Papua","city":"Biak Numfor","district":"Numfor Timur","urban":"Yenmaru","postal_code":98171},{"province":"Papua","city":"Biak Numfor","district":"Bruyadori","urban":"Warbukor","postal_code":98171},{"province":"Papua","city":"Biak Numfor","district":"Numfor Timur","urban":"Yenburwo","postal_code":98171},{"province":"Papua","city":"Biak Numfor","district":"Poiru","urban":"Syoribo","postal_code":98171},{"province":"Papua","city":"Biak Numfor","district":"Poiru","urban":"Serdori","postal_code":98171},{"province":"Papua","city":"Biak Numfor","district":"Poiru","urban":"Saunbri (Sauribru)","postal_code":98171},{"province":"Papua","city":"Biak Numfor","district":"Poiru","urban":"Sauri","postal_code":98171},{"province":"Papua","city":"Biak Numfor","district":"Bruyadori","urban":"Sandou (Sandau)","postal_code":98171},{"province":"Papua","city":"Biak Numfor","district":"Numfor Timur","urban":"Rarsibo","postal_code":98171},{"province":"Papua","city":"Biak Numfor","district":"Poiru","urban":"Manggari","postal_code":98171},{"province":"Papua","city":"Biak Numfor","district":"Numfor Timur","urban":"Pyefuri","postal_code":98171},{"province":"Papua","city":"Biak Numfor","district":"Bruyadori","urban":"Mandori","postal_code":98171},{"province":"Papua","city":"Biak Numfor","district":"Bruyadori","urban":"Mandori Sup","postal_code":98171},{"province":"Papua","city":"Biak Numfor","district":"Poiru","urban":"Koryakam","postal_code":98171},{"province":"Papua","city":"Biak Numfor","district":"Numfor Timur","urban":"Kornasoren","postal_code":98171},{"province":"Papua","city":"Biak Numfor","district":"Bruyadori","urban":"Kamumi","postal_code":98171},{"province":"Papua","city":"Biak Numfor","district":"Numfor Timur","urban":"Indaibori","postal_code":98171},{"province":"Papua","city":"Biak Numfor","district":"Bruyadori","urban":"Bruyadori","postal_code":98171},{"province":"Papua","city":"Biak Numfor","district":"Bruyadori","urban":"Dafi","postal_code":98171},{"province":"Papua","city":"Biak Numfor","district":"Bruyadori","urban":"Duai","postal_code":98171},{"province":"Papua","city":"Biak Numfor","district":"Numfor Timur","urban":"Barkori","postal_code":98171},{"province":"Papua","city":"Biak Numfor","district":"Poiru","urban":"Bawei","postal_code":98171},{"province":"Papua","city":"Biak Numfor","district":"Numfor Timur","urban":"Asaibori","postal_code":98171},{"province":"Papua","city":"Biak Numfor","district":"Numfor Timur","urban":"Asaryendi","postal_code":98171},{"province":"Papua","city":"Biak Numfor","district":"Bruyadori","urban":"Arimi Jaya","postal_code":98171},{"province":"Papua","city":"Biak Numfor","district":"Poiru","urban":"Andei","postal_code":98171},{"province":"Papua","city":"Biak Numfor","district":"Poiru","urban":"Andei Sup","postal_code":98171},{"province":"Papua","city":"Biak Numfor","district":"Bruyadori","urban":"Amberparem (Amperem)","postal_code":98171}]