[{"province":"Papua","city":"Kepulauan Yapen (Yapen Waropen)","district":"Yapen Utara","urban":"Yobi","postal_code":98252},{"province":"Papua","city":"Kepulauan Yapen (Yapen Waropen)","district":"Yapen Timur","urban":"Woinsupi (Waisopi)","postal_code":98252},{"province":"Papua","city":"Kepulauan Yapen (Yapen Waropen)","district":"Raimbawi","urban":"Woda","postal_code":98252},{"province":"Papua","city":"Kepulauan Yapen (Yapen Waropen)","district":"Teluk Ampimoi","urban":"Warironi","postal_code":98252},{"province":"Papua","city":"Kepulauan Yapen (Yapen Waropen)","district":"Teluk Ampimoi","urban":"Waita","postal_code":98252},{"province":"Papua","city":"Kepulauan Yapen (Yapen Waropen)","district":"Raimbawi","urban":"Waindu","postal_code":98252},{"province":"Papua","city":"Kepulauan Yapen (Yapen Waropen)","district":"Teluk Ampimoi","urban":"Wabuayar (Wabuayer)","postal_code":98252},{"province":"Papua","city":"Kepulauan Yapen (Yapen Waropen)","district":"Yapen Timur","urban":"Wabompi","postal_code":98252},{"province":"Papua","city":"Kepulauan Yapen (Yapen Waropen)","district":"Yapen Timur","urban":"Wabo","postal_code":98252},{"province":"Papua","city":"Kepulauan Yapen (Yapen Waropen)","district":"Yapen Utara","urban":"Tindaret","postal_code":98252},{"province":"Papua","city":"Kepulauan Yapen (Yapen Waropen)","district":"Teluk Ampimoi","urban":"Tarei","postal_code":98252},{"province":"Papua","city":"Kepulauan Yapen (Yapen Waropen)","district":"Yapen Utara","urban":"Soromasen (Soromasem)","postal_code":98252},{"province":"Papua","city":"Kepulauan Yapen (Yapen Waropen)","district":"Teluk Ampimoi","urban":"Siromi","postal_code":98252},{"province":"Papua","city":"Kepulauan Yapen (Yapen Waropen)","district":"Yapen Timur","urban":"Sere Sere","postal_code":98252},{"province":"Papua","city":"Kepulauan Yapen (Yapen Waropen)","district":"Raimbawi","urban":"Sawenui (Sawenoi)","postal_code":98252},{"province":"Papua","city":"Kepulauan Yapen (Yapen Waropen)","district":"Yapen Utara","urban":"Sambrawai (Samrawai)","postal_code":98252},{"province":"Papua","city":"Kepulauan Yapen (Yapen Waropen)","district":"Raimbawi","urban":"Sawendui","postal_code":98252},{"province":"Papua","city":"Kepulauan Yapen (Yapen Waropen)","district":"Yapen Utara","urban":"Roswari (Artaneng)","postal_code":98252},{"province":"Papua","city":"Kepulauan Yapen (Yapen Waropen)","district":"Teluk Ampimoi","urban":"Randawaya","postal_code":98252},{"province":"Papua","city":"Kepulauan Yapen (Yapen Waropen)","district":"Yapen Timur","urban":"Nunsembai (Hunsembai)","postal_code":98252},{"province":"Papua","city":"Kepulauan Yapen (Yapen Waropen)","district":"Yapen Timur","urban":"Nunsiari","postal_code":98252},{"province":"Papua","city":"Kepulauan Yapen (Yapen Waropen)","district":"Pulau Kurudu","urban":"Mnukwar","postal_code":98252},{"province":"Papua","city":"Kepulauan Yapen (Yapen Waropen)","district":"Yapen Timur","urban":"Mereruni (Maseruni)","postal_code":98252},{"province":"Papua","city":"Kepulauan Yapen (Yapen Waropen)","district":"Pulau Kurudu","urban":"Mansesi","postal_code":98252},{"province":"Papua","city":"Kepulauan Yapen (Yapen Waropen)","district":"Pulau Kurudu","urban":"Manusundu","postal_code":98252},{"province":"Papua","city":"Kepulauan Yapen (Yapen Waropen)","district":"Pulau Kurudu","urban":"Kurudu","postal_code":98252},{"province":"Papua","city":"Kepulauan Yapen (Yapen Waropen)","district":"Raimbawi","urban":"Kororompui","postal_code":98252},{"province":"Papua","city":"Kepulauan Yapen (Yapen Waropen)","district":"Yapen Utara","urban":"Kiriyou (Kiriyow)","postal_code":98252},{"province":"Papua","city":"Kepulauan Yapen (Yapen Waropen)","district":"Yapen Timur","urban":"Korombobi (Karombobi)","postal_code":98252},{"province":"Papua","city":"Kepulauan Yapen (Yapen Waropen)","district":"Pulau Kurudu","urban":"Kirimbri","postal_code":98252},{"province":"Papua","city":"Kepulauan Yapen (Yapen Waropen)","district":"Yapen Utara","urban":"Karawi","postal_code":98252},{"province":"Papua","city":"Kepulauan Yapen (Yapen Waropen)","district":"Teluk Ampimoi","urban":"Karoaipi (Koroapi)","postal_code":98252},{"province":"Papua","city":"Kepulauan Yapen (Yapen Waropen)","district":"Pulau Kurudu","urban":"Kaipuri","postal_code":98252},{"province":"Papua","city":"Kepulauan Yapen (Yapen Waropen)","district":"Yapen Timur","urban":"Dawai","postal_code":98252},{"province":"Papua","city":"Kepulauan Yapen (Yapen Waropen)","district":"Yapen Timur","urban":"Duai","postal_code":98252},{"province":"Papua","city":"Kepulauan Yapen (Yapen Waropen)","district":"Pulau Kurudu","urban":"Doreiamini (Doreianmini)","postal_code":98252},{"province":"Papua","city":"Kepulauan Yapen (Yapen Waropen)","district":"Teluk Ampimoi","urban":"Bareraipi (Barerai/Bareraif)","postal_code":98252},{"province":"Papua","city":"Kepulauan Yapen (Yapen Waropen)","district":"Raimbawi","urban":"Barawai II","postal_code":98252},{"province":"Papua","city":"Kepulauan Yapen (Yapen Waropen)","district":"Teluk Ampimoi","urban":"Ayari","postal_code":98252},{"province":"Papua","city":"Kepulauan Yapen (Yapen Waropen)","district":"Yapen Timur","urban":"Awunawai","postal_code":98252},{"province":"Papua","city":"Kepulauan Yapen (Yapen Waropen)","district":"Raimbawi","urban":"Barawai","postal_code":98252},{"province":"Papua","city":"Kepulauan Yapen (Yapen Waropen)","district":"Teluk Ampimoi","urban":"Arareni","postal_code":98252},{"province":"Papua","city":"Kepulauan Yapen (Yapen Waropen)","district":"Pulau Kurudu","urban":"Andesaria (Andersaria)","postal_code":98252},{"province":"Papua","city":"Kepulauan Yapen (Yapen Waropen)","district":"Teluk Ampimoi","urban":"Ampimoi","postal_code":98252},{"province":"Papua","city":"Kepulauan Yapen (Yapen Waropen)","district":"Raimbawi","urban":"Aisau","postal_code":98252}]