[{"province":"Papua","city":"Kepulauan Yapen (Yapen Waropen)","district":"Yapen Barat","urban":"Yenusi Marau","postal_code":98253},{"province":"Papua","city":"Kepulauan Yapen (Yapen Waropen)","district":"Pulau Yerui","urban":"Yeituarau","postal_code":98253},{"province":"Papua","city":"Kepulauan Yapen (Yapen Waropen)","district":"Wonawa","urban":"Wooi","postal_code":98253},{"province":"Papua","city":"Kepulauan Yapen (Yapen Waropen)","district":"Yapen Barat","urban":"Yarori","postal_code":98253},{"province":"Papua","city":"Kepulauan Yapen (Yapen Waropen)","district":"Wonawa","urban":"Woinap","postal_code":98253},{"province":"Papua","city":"Kepulauan Yapen (Yapen Waropen)","district":"Yapen Barat","urban":"Woiwani","postal_code":98253},{"province":"Papua","city":"Kepulauan Yapen (Yapen Waropen)","district":"Yapen Barat","urban":"Webi","postal_code":98253},{"province":"Papua","city":"Kepulauan Yapen (Yapen Waropen)","district":"Yapen Barat","urban":"Wimoni","postal_code":98253},{"province":"Papua","city":"Kepulauan Yapen (Yapen Waropen)","district":"Yapen Barat","urban":"Warabori","postal_code":98253},{"province":"Papua","city":"Kepulauan Yapen (Yapen Waropen)","district":"Pulau Yerui","urban":"Umpeki","postal_code":98253},{"province":"Papua","city":"Kepulauan Yapen (Yapen Waropen)","district":"Yapen Barat","urban":"Toweta","postal_code":98253},{"province":"Papua","city":"Kepulauan Yapen (Yapen Waropen)","district":"Yapen Barat","urban":"Sasawa","postal_code":98253},{"province":"Papua","city":"Kepulauan Yapen (Yapen Waropen)","district":"Wonawa","urban":"Rembai","postal_code":98253},{"province":"Papua","city":"Kepulauan Yapen (Yapen Waropen)","district":"Yapen Barat","urban":"Natabui","postal_code":98253},{"province":"Papua","city":"Kepulauan Yapen (Yapen Waropen)","district":"Yapen Barat","urban":"Nuiwiora","postal_code":98253},{"province":"Papua","city":"Kepulauan Yapen (Yapen Waropen)","district":"Yapen Barat","urban":"Papuma (Papuama)","postal_code":98253},{"province":"Papua","city":"Kepulauan Yapen (Yapen Waropen)","district":"Pulau Yerui","urban":"Miosnum","postal_code":98253},{"province":"Papua","city":"Kepulauan Yapen (Yapen Waropen)","district":"Yapen Barat","urban":"Narei","postal_code":98253},{"province":"Papua","city":"Kepulauan Yapen (Yapen Waropen)","district":"Yapen Barat","urban":"Marau","postal_code":98253},{"province":"Papua","city":"Kepulauan Yapen (Yapen Waropen)","district":"Yapen Barat","urban":"Maniri","postal_code":98253},{"province":"Papua","city":"Kepulauan Yapen (Yapen Waropen)","district":"Wonawa","urban":"Karemoni","postal_code":98253},{"province":"Papua","city":"Kepulauan Yapen (Yapen Waropen)","district":"Windesi","urban":"Kaonda","postal_code":98253},{"province":"Papua","city":"Kepulauan Yapen (Yapen Waropen)","district":"Wonawa","urban":"Kanaki","postal_code":98253},{"province":"Papua","city":"Kepulauan Yapen (Yapen Waropen)","district":"Yapen Barat","urban":"Kairawi","postal_code":98253},{"province":"Papua","city":"Kepulauan Yapen (Yapen Waropen)","district":"Pulau Yerui","urban":"Jeniari","postal_code":98253},{"province":"Papua","city":"Kepulauan Yapen (Yapen Waropen)","district":"Wonawa","urban":"Jaimaria","postal_code":98253},{"province":"Papua","city":"Kepulauan Yapen (Yapen Waropen)","district":"Yapen Barat","urban":"Inowa","postal_code":98253},{"province":"Papua","city":"Kepulauan Yapen (Yapen Waropen)","district":"Wonawa","urban":"Dumani","postal_code":98253},{"province":"Papua","city":"Kepulauan Yapen (Yapen Waropen)","district":"Wonawa","urban":"Haihorei","postal_code":98253},{"province":"Papua","city":"Kepulauan Yapen (Yapen Waropen)","district":"Pulau Yerui","urban":"Ausem","postal_code":98253},{"province":"Papua","city":"Kepulauan Yapen (Yapen Waropen)","district":"Wonawa","urban":"Awado","postal_code":98253},{"province":"Papua","city":"Kepulauan Yapen (Yapen Waropen)","district":"Yapen Barat","urban":"Ansus","postal_code":98253},{"province":"Papua","city":"Kepulauan Yapen (Yapen Waropen)","district":"Wonawa","urban":"Aibondeni","postal_code":98253}]