[{"province":"Papua","city":"Kepulauan Yapen (Yapen Waropen)","district":"Poom","urban":"Worioi (Wariori)","postal_code":98254},{"province":"Papua","city":"Kepulauan Yapen (Yapen Waropen)","district":"Windesi","urban":"Windesi","postal_code":98254},{"province":"Papua","city":"Kepulauan Yapen (Yapen Waropen)","district":"Windesi","urban":"Waisani","postal_code":98254},{"province":"Papua","city":"Kepulauan Yapen (Yapen Waropen)","district":"Poom","urban":"Serewen","postal_code":98254},{"province":"Papua","city":"Kepulauan Yapen (Yapen Waropen)","district":"Windesi","urban":"Saruman","postal_code":98254},{"province":"Papua","city":"Kepulauan Yapen (Yapen Waropen)","district":"Windesi","urban":"Rosbori","postal_code":98254},{"province":"Papua","city":"Kepulauan Yapen (Yapen Waropen)","district":"Poom","urban":"Rasiri (Woisiri)","postal_code":98254},{"province":"Papua","city":"Kepulauan Yapen (Yapen Waropen)","district":"Poom","urban":"Poom II","postal_code":98254},{"province":"Papua","city":"Kepulauan Yapen (Yapen Waropen)","district":"Poom","urban":"Nurawi","postal_code":98254},{"province":"Papua","city":"Kepulauan Yapen (Yapen Waropen)","district":"Poom","urban":"Poom I","postal_code":98254},{"province":"Papua","city":"Kepulauan Yapen (Yapen Waropen)","district":"Windesi","urban":"Kairawi (Karawi)","postal_code":98254},{"province":"Papua","city":"Kepulauan Yapen (Yapen Waropen)","district":"Windesi","urban":"Munggui","postal_code":98254},{"province":"Papua","city":"Kepulauan Yapen (Yapen Waropen)","district":"Poom","urban":"Makiroan (Mokiroan)","postal_code":98254},{"province":"Papua","city":"Kepulauan Yapen (Yapen Waropen)","district":"Poom","urban":"Humbe Awai","postal_code":98254},{"province":"Papua","city":"Kepulauan Yapen (Yapen Waropen)","district":"Windesi","urban":"Asai","postal_code":98254},{"province":"Papua","city":"Kepulauan Yapen (Yapen Waropen)","district":"Windesi","urban":"Aryobu","postal_code":98254}]