[{"province":"Papua","city":"Kepulauan Yapen (Yapen Waropen)","district":"Angkaisera","urban":"Wawuti","postal_code":98255},{"province":"Papua","city":"Kepulauan Yapen (Yapen Waropen)","district":"Angkaisera","urban":"Yapanani","postal_code":98255},{"province":"Papua","city":"Kepulauan Yapen (Yapen Waropen)","district":"Angkaisera","urban":"Waniwon","postal_code":98255},{"province":"Papua","city":"Kepulauan Yapen (Yapen Waropen)","district":"Angkaisera","urban":"Wanampompi","postal_code":98255},{"province":"Papua","city":"Kepulauan Yapen (Yapen Waropen)","district":"Kepulauan Ambai","urban":"Wamori","postal_code":98255},{"province":"Papua","city":"Kepulauan Yapen (Yapen Waropen)","district":"Angkaisera","urban":"Wadapi","postal_code":98255},{"province":"Papua","city":"Kepulauan Yapen (Yapen Waropen)","district":"Kepulauan Ambai","urban":"Umani","postal_code":98255},{"province":"Papua","city":"Kepulauan Yapen (Yapen Waropen)","district":"Kepulauan Ambai","urban":"Saweru","postal_code":98255},{"province":"Papua","city":"Kepulauan Yapen (Yapen Waropen)","district":"Kepulauan Ambai","urban":"Toroa","postal_code":98255},{"province":"Papua","city":"Kepulauan Yapen (Yapen Waropen)","district":"Angkaisera","urban":"Sanayoka","postal_code":98255},{"province":"Papua","city":"Kepulauan Yapen (Yapen Waropen)","district":"Kepulauan Ambai","urban":"Rondepi","postal_code":98255},{"province":"Papua","city":"Kepulauan Yapen (Yapen Waropen)","district":"Angkaisera","urban":"Roipi","postal_code":98255},{"province":"Papua","city":"Kepulauan Yapen (Yapen Waropen)","district":"Angkaisera","urban":"Roipi Dua","postal_code":98255},{"province":"Papua","city":"Kepulauan Yapen (Yapen Waropen)","district":"Angkaisera","urban":"Rambai","postal_code":98255},{"province":"Papua","city":"Kepulauan Yapen (Yapen Waropen)","district":"Angkaisera","urban":"Ransarnoni (Ramsamoni)","postal_code":98255},{"province":"Papua","city":"Kepulauan Yapen (Yapen Waropen)","district":"Kepulauan Ambai","urban":"Perea","postal_code":98255},{"province":"Papua","city":"Kepulauan Yapen (Yapen Waropen)","district":"Kepulauan Ambai","urban":"Nuniandei","postal_code":98255},{"province":"Papua","city":"Kepulauan Yapen (Yapen Waropen)","district":"Angkaisera","urban":"Menawi","postal_code":98255},{"province":"Papua","city":"Kepulauan Yapen (Yapen Waropen)","district":"Angkaisera","urban":"Mananayam","postal_code":98255},{"province":"Papua","city":"Kepulauan Yapen (Yapen Waropen)","district":"Kepulauan Ambai","urban":"Marawi","postal_code":98255},{"province":"Papua","city":"Kepulauan Yapen (Yapen Waropen)","district":"Kepulauan Ambai","urban":"Mambawi (Ambai III)","postal_code":98255},{"province":"Papua","city":"Kepulauan Yapen (Yapen Waropen)","district":"Angkaisera","urban":"Kontiunai (Kontinuai)","postal_code":98255},{"province":"Papua","city":"Kepulauan Yapen (Yapen Waropen)","district":"Kepulauan Ambai","urban":"Kawipi","postal_code":98255},{"province":"Papua","city":"Kepulauan Yapen (Yapen Waropen)","district":"Angkaisera","urban":"Kainui II","postal_code":98255},{"province":"Papua","city":"Kepulauan Yapen (Yapen Waropen)","district":"Angkaisera","urban":"Kabuaena","postal_code":98255},{"province":"Papua","city":"Kepulauan Yapen (Yapen Waropen)","district":"Angkaisera","urban":"Kainui I","postal_code":98255},{"province":"Papua","city":"Kepulauan Yapen (Yapen Waropen)","district":"Kepulauan Ambai","urban":"Imboriawa","postal_code":98255},{"province":"Papua","city":"Kepulauan Yapen (Yapen Waropen)","district":"Angkaisera","urban":"Borai","postal_code":98255},{"province":"Papua","city":"Kepulauan Yapen (Yapen Waropen)","district":"Kepulauan Ambai","urban":"Dorau","postal_code":98255},{"province":"Papua","city":"Kepulauan Yapen (Yapen Waropen)","district":"Kepulauan Ambai","urban":"Baisore","postal_code":98255},{"province":"Papua","city":"Kepulauan Yapen (Yapen Waropen)","district":"Kepulauan Ambai","urban":"Bairei","postal_code":98255},{"province":"Papua","city":"Kepulauan Yapen (Yapen Waropen)","district":"Kepulauan Ambai","urban":"Baisore","postal_code":98255},{"province":"Papua","city":"Kepulauan Yapen (Yapen Waropen)","district":"Kepulauan Ambai","urban":"Ambai II","postal_code":98255},{"province":"Papua","city":"Kepulauan Yapen (Yapen Waropen)","district":"Kepulauan Ambai","urban":"Ambai I","postal_code":98255},{"province":"Papua","city":"Kepulauan Yapen (Yapen Waropen)","district":"Kepulauan Ambai","urban":"Aiwaraggani","postal_code":98255},{"province":"Papua","city":"Kepulauan Yapen (Yapen Waropen)","district":"Angkaisera","urban":"Aitiri","postal_code":98255},{"province":"Papua","city":"Kepulauan Yapen (Yapen Waropen)","district":"Kepulauan Ambai","urban":"Adiwipi","postal_code":98255}]