[{"province":"Papua","city":"Waropen","district":"Demba Masirei","urban":"Wonti Bokadaro","postal_code":98263},{"province":"Papua","city":"Waropen","district":"Demba Masirei","urban":"Wanda","postal_code":98263},{"province":"Papua","city":"Waropen","district":"Risei Sayati","urban":"Wobari","postal_code":98263},{"province":"Papua","city":"Waropen","district":"Kirihi","urban":"Wafuka","postal_code":98263},{"province":"Papua","city":"Waropen","district":"Demba Masirei","urban":"Tetui","postal_code":98263},{"province":"Papua","city":"Waropen","district":"Demba Masirei","urban":"Urato","postal_code":98263},{"province":"Papua","city":"Waropen","district":"Risei Sayati","urban":"Soyoi","postal_code":98263},{"province":"Papua","city":"Waropen","district":"Kirihi","urban":"Sooh","postal_code":98263},{"province":"Papua","city":"Waropen","district":"Kirihi","urban":"Spoiri","postal_code":98263},{"province":"Papua","city":"Waropen","district":"Masirei","urban":"Saurisirami","postal_code":98263},{"province":"Papua","city":"Waropen","district":"Masirei","urban":"Sinonde","postal_code":98263},{"province":"Papua","city":"Waropen","district":"Risei Sayati","urban":"Risei Sayati","postal_code":98263},{"province":"Papua","city":"Waropen","district":"Kirihi","urban":"Poira","postal_code":98263},{"province":"Papua","city":"Waropen","district":"Demba Masirei","urban":"Odase","postal_code":98263},{"province":"Papua","city":"Waropen","district":"Masirei","urban":"Odase","postal_code":98263},{"province":"Papua","city":"Waropen","district":"Demba Masirei","urban":"Mayaghaido","postal_code":98263},{"province":"Papua","city":"Waropen","district":"Risei Sayati","urban":"Napani","postal_code":98263},{"province":"Papua","city":"Waropen","district":"Risei Sayati","urban":"Mambai","postal_code":98263},{"province":"Papua","city":"Waropen","district":"Masirei","urban":"Mayagaido (Mayaghaido)","postal_code":98263},{"province":"Papua","city":"Waropen","district":"Kirihi","urban":"Kuaisa","postal_code":98263},{"province":"Papua","city":"Waropen","district":"Masirei","urban":"Koweda","postal_code":98263},{"province":"Papua","city":"Waropen","district":"Demba Masirei","urban":"Fafai","postal_code":98263},{"province":"Papua","city":"Waropen","district":"Kirihi","urban":"Kawari","postal_code":98263},{"province":"Papua","city":"Waropen","district":"Kirihi","urban":"Dirou","postal_code":98263},{"province":"Papua","city":"Waropen","district":"Kirihi","urban":"Diwa","postal_code":98263},{"province":"Papua","city":"Waropen","district":"Demba Masirei","urban":"Demba","postal_code":98263},{"province":"Papua","city":"Waropen","district":"Risei Sayati","urban":"Daimboa","postal_code":98263},{"province":"Papua","city":"Waropen","district":"Kirihi","urban":"Dairi","postal_code":98263},{"province":"Papua","city":"Waropen","district":"Kirihi","urban":"Antu Aru","postal_code":98263},{"province":"Papua","city":"Waropen","district":"Demba Masirei","urban":"Aniboi","postal_code":98263}]