[{"province":"Papua","city":"Mamberamo Raya","district":"Benuki","urban":"Teuw","postal_code":98262},{"province":"Papua","city":"Mamberamo Raya","district":"Benuki","urban":"Watiaro","postal_code":98262},{"province":"Papua","city":"Mamberamo Raya","district":"Benuki","urban":"Taya","postal_code":98262},{"province":"Papua","city":"Mamberamo Raya","district":"Sawai","urban":"Tamakuri","postal_code":98262},{"province":"Papua","city":"Mamberamo Raya","district":"Waropen Atas","urban":"Sipisi","postal_code":98262},{"province":"Papua","city":"Mamberamo Raya","district":"Waropen Atas","urban":"Sorabi","postal_code":98262},{"province":"Papua","city":"Mamberamo Raya","district":"Sawai","urban":"Sawai","postal_code":98262},{"province":"Papua","city":"Mamberamo Raya","district":"Waropen Atas","urban":"Rawiwa","postal_code":98262},{"province":"Papua","city":"Mamberamo Raya","district":"Sawai","urban":"Poiwai","postal_code":98262},{"province":"Papua","city":"Mamberamo Raya","district":"Sawai","urban":"Rapamarei","postal_code":98262},{"province":"Papua","city":"Mamberamo Raya","district":"Waropen Atas","urban":"Nandofoai (Nadofoai/Nadofuai)","postal_code":98262},{"province":"Papua","city":"Mamberamo Raya","district":"Waropen Atas","urban":"Marikai","postal_code":98262},{"province":"Papua","city":"Mamberamo Raya","district":"Benuki","urban":"Kerema","postal_code":98262},{"province":"Papua","city":"Mamberamo Raya","district":"Benuki","urban":"Gesa Baru","postal_code":98262},{"province":"Papua","city":"Mamberamo Raya","district":"Benuki","urban":"Kamai","postal_code":98262},{"province":"Papua","city":"Mamberamo Raya","district":"Benuki","urban":"Dadat","postal_code":98262},{"province":"Papua","city":"Mamberamo Raya","district":"Sawai","urban":"Bonoi","postal_code":98262},{"province":"Papua","city":"Mamberamo Raya","district":"Waropen Atas","urban":"Barapasi (Baradasi)","postal_code":98262},{"province":"Papua","city":"Mamberamo Raya","district":"Waropen Atas","urban":"Bariwaro","postal_code":98262},{"province":"Papua","city":"Mamberamo Raya","district":"Waropen Atas","urban":"Bensor","postal_code":98262},{"province":"Papua","city":"Mamberamo Raya","district":"Benuki","urban":"Baitanasa","postal_code":98262},{"province":"Papua","city":"Mamberamo Raya","district":"Sawai","urban":"Anasi","postal_code":98262},{"province":"Papua","city":"Waropen","district":"Oudate Waropen","urban":"Sowiwa","postal_code":98262},{"province":"Papua","city":"Waropen","district":"Oudate Waropen","urban":"Ruambak Jaya","postal_code":98262},{"province":"Papua","city":"Waropen","district":"Oudate Waropen","urban":"Rasawa","postal_code":98262},{"province":"Papua","city":"Waropen","district":"Oudate Waropen","urban":"Nau","postal_code":98262},{"province":"Papua","city":"Waropen","district":"Oudate Waropen","urban":"Oiboa","postal_code":98262},{"province":"Papua","city":"Waropen","district":"Oudate Waropen","urban":"Moroa","postal_code":98262},{"province":"Papua","city":"Waropen","district":"Oudate Waropen","urban":"Botawa","postal_code":98262},{"province":"Papua","city":"Waropen","district":"Oudate Waropen","urban":"Baino Jaya","postal_code":98262}]