[{"province":"Papua","city":"Waropen","district":"Wapoga Inggerus","urban":"Waweri","postal_code":98261},{"province":"Papua","city":"Waropen","district":"Waropen Bawah","urban":"Waren Dua (II)","postal_code":98261},{"province":"Papua","city":"Waropen","district":"Waropen Bawah","urban":"Waren Satu (I)","postal_code":98261},{"province":"Papua","city":"Waropen","district":"Wapoga Inggerus","urban":"Wapoga","postal_code":98261},{"province":"Papua","city":"Waropen","district":"Ureifasei","urban":"Usaiwa","postal_code":98261},{"province":"Papua","city":"Waropen","district":"Waropen Bawah","urban":"Uri","postal_code":98261},{"province":"Papua","city":"Waropen","district":"Ureifasei","urban":"Ureifasei Satu (I)","postal_code":98261},{"province":"Papua","city":"Waropen","district":"Ureifasei","urban":"Ureifasei Tiga (III)","postal_code":98261},{"province":"Papua","city":"Waropen","district":"Wapoga Inggerus","urban":"Syewa Merare","postal_code":98261},{"province":"Papua","city":"Waropen","district":"Ureifasei","urban":"Ureifasei Dua (II)","postal_code":98261},{"province":"Papua","city":"Waropen","district":"Waropen Bawah","urban":"Ruambak Jaya","postal_code":98261},{"province":"Papua","city":"Waropen","district":"Waropen Bawah","urban":"Sawara Jaya","postal_code":98261},{"province":"Papua","city":"Waropen","district":"Wapoga Inggerus","urban":"Pirare","postal_code":98261},{"province":"Papua","city":"Waropen","district":"Ureifasei","urban":"Ronggaiwa","postal_code":98261},{"province":"Papua","city":"Waropen","district":"Ureifasei","urban":"Rorisi","postal_code":98261},{"province":"Papua","city":"Waropen","district":"Inggerus","urban":"Pirare","postal_code":98261},{"province":"Papua","city":"Waropen","district":"Ureifasei","urban":"Paradoi","postal_code":98261},{"province":"Papua","city":"Waropen","district":"Inggerus","urban":"Otodemo","postal_code":98261},{"province":"Papua","city":"Waropen","district":"Ureifasei","urban":"Nubuai","postal_code":98261},{"province":"Papua","city":"Waropen","district":"Waropen Bawah","urban":"Nonomi","postal_code":98261},{"province":"Papua","city":"Waropen","district":"Waropen Bawah","urban":"Nau","postal_code":98261},{"province":"Papua","city":"Waropen","district":"Ureifasei","urban":"Kemon Jaya","postal_code":98261},{"province":"Papua","city":"Waropen","district":"Ureifasei","urban":"Mambui","postal_code":98261},{"province":"Papua","city":"Waropen","district":"Inggerus","urban":"Harapan Jaya","postal_code":98261},{"province":"Papua","city":"Waropen","district":"Wapoga Inggerus","urban":"Kamarisano","postal_code":98261},{"province":"Papua","city":"Waropen","district":"Inggerus","urban":"Demisa","postal_code":98261},{"province":"Papua","city":"Waropen","district":"Wapoga Inggerus","urban":"Dokis","postal_code":98261},{"province":"Papua","city":"Waropen","district":"Ureifasei","urban":"Ghoyui","postal_code":98261},{"province":"Papua","city":"Waropen","district":"Wapoga Inggerus","urban":"Awera","postal_code":98261},{"province":"Papua","city":"Waropen","district":"Ureifasei","urban":"Apainabo","postal_code":98261},{"province":"Papua","city":"Waropen","district":"Inggerus","urban":"Awaso","postal_code":98261},{"province":"Papua","city":"Waropen","district":"Inggerus","urban":"Awera","postal_code":98261},{"province":"Papua","city":"Waropen","district":"Inggerus","urban":"Aiboa","postal_code":98261}]