[{"province":"Papua Barat","city":"Manokwari","district":"Manokwari Utara","urban":"Yoom II","postal_code":98315},{"province":"Papua Barat","city":"Manokwari","district":"Tanah Rubuh","urban":"Wedoni","postal_code":98315},{"province":"Papua Barat","city":"Manokwari","district":"Manokwari Utara","urban":"Yonggam","postal_code":98315},{"province":"Papua Barat","city":"Manokwari","district":"Manokwari Utara","urban":"Yoom I","postal_code":98315},{"province":"Papua Barat","city":"Manokwari","district":"Manokwari Selatan","urban":"Waruri (Weluri)","postal_code":98315},{"province":"Papua Barat","city":"Manokwari","district":"Manokwari Selatan","urban":"Wasay (Wasai)","postal_code":98315},{"province":"Papua Barat","city":"Manokwari","district":"Manokwari Selatan","urban":"Warmumi (Warmomi)","postal_code":98315},{"province":"Papua Barat","city":"Manokwari","district":"Tanah Rubuh","urban":"Warnyeti","postal_code":98315},{"province":"Papua Barat","city":"Manokwari","district":"Manokwari Selatan","urban":"Warsuami (Waswami)","postal_code":98315},{"province":"Papua Barat","city":"Manokwari","district":"Manokwari Selatan","urban":"Warkomi","postal_code":98315},{"province":"Papua Barat","city":"Manokwari","district":"Tanah Rubuh","urban":"Warmawai","postal_code":98315},{"province":"Papua Barat","city":"Manokwari","district":"Tanah Rubuh","urban":"Wariari","postal_code":98315},{"province":"Papua Barat","city":"Manokwari","district":"Tanah Rubuh","urban":"Warkapi","postal_code":98315},{"province":"Papua Barat","city":"Manokwari","district":"Manokwari Utara","urban":"Warbefor","postal_code":98315},{"province":"Papua Barat","city":"Manokwari","district":"Tanah Rubuh","urban":"Umnum","postal_code":98315},{"province":"Papua Barat","city":"Manokwari","district":"Tanah Rubuh","urban":"Warami","postal_code":98315},{"province":"Papua Barat","city":"Manokwari","district":"Manokwari Utara","urban":"Tanah Rubu","postal_code":98315},{"province":"Papua Barat","city":"Manokwari","district":"Tanah Rubuh","urban":"Ukemboisi","postal_code":98315},{"province":"Papua Barat","city":"Manokwari","district":"Manokwari Utara","urban":"Teluk Mubri","postal_code":98315},{"province":"Papua Barat","city":"Manokwari","district":"Manokwari Selatan","urban":"Sowi","postal_code":98315},{"province":"Papua Barat","city":"Manokwari","district":"Manokwari Utara","urban":"Sayro","postal_code":98315},{"province":"Papua Barat","city":"Manokwari","district":"Manokwari Utara","urban":"Singgimeba","postal_code":98315},{"province":"Papua Barat","city":"Manokwari","district":"Manokwari Utara","urban":"Pami","postal_code":98315},{"province":"Papua Barat","city":"Manokwari","district":"Manokwari Utara","urban":"Saubeba","postal_code":98315},{"province":"Papua Barat","city":"Manokwari","district":"Tanah Rubuh","urban":"Rembuy","postal_code":98315},{"province":"Papua Barat","city":"Manokwari","district":"Tanah Rubuh","urban":"Ningdip","postal_code":98315},{"province":"Papua Barat","city":"Manokwari","district":"Manokwari Selatan","urban":"Ngunibouw (Nginibouw/Nginybou)","postal_code":98315},{"province":"Papua Barat","city":"Manokwari","district":"Manokwari Selatan","urban":"Nimbiauw (Nimbauw)","postal_code":98315},{"province":"Papua Barat","city":"Manokwari","district":"Manokwari Selatan","urban":"Mupi","postal_code":98315},{"province":"Papua Barat","city":"Manokwari","district":"Manokwari Utara","urban":"Mubraidiba","postal_code":98315},{"province":"Papua Barat","city":"Manokwari","district":"Manokwari Utara","urban":"Mubri","postal_code":98315},{"province":"Papua Barat","city":"Manokwari","district":"Tanah Rubuh","urban":"Mironi","postal_code":98315},{"province":"Papua Barat","city":"Manokwari","district":"Tanah Rubuh","urban":"Misabugoid","postal_code":98315},{"province":"Papua Barat","city":"Manokwari","district":"Manokwari Selatan","urban":"Misapmeysi","postal_code":98315},{"province":"Papua Barat","city":"Manokwari","district":"Manokwari Utara","urban":"Meyes","postal_code":98315},{"province":"Papua Barat","city":"Manokwari","district":"Manokwari Utara","urban":"Meyunfoka","postal_code":98315},{"province":"Papua Barat","city":"Manokwari","district":"Tanah Rubuh","urban":"Menyumfoku","postal_code":98315},{"province":"Papua Barat","city":"Manokwari","district":"Prafi","urban":"Mebiji / Mebji","postal_code":98315},{"province":"Papua Barat","city":"Manokwari","district":"Manokwari Utara","urban":"Mebji","postal_code":98315},{"province":"Papua Barat","city":"Manokwari","district":"Tanah Rubuh","urban":"Mbatma","postal_code":98315},{"province":"Papua Barat","city":"Manokwari","district":"Manokwari Selatan","urban":"Maruni","postal_code":98315},{"province":"Papua Barat","city":"Manokwari","district":"Manokwari Selatan","urban":"Masiepi (Masyepi)","postal_code":98315},{"province":"Papua Barat","city":"Manokwari","district":"Manokwari Utara","urban":"Lebau","postal_code":98315},{"province":"Papua Barat","city":"Manokwari","district":"Manokwari Utara","urban":"Mandopi","postal_code":98315},{"province":"Papua Barat","city":"Manokwari","district":"Manokwari Selatan","urban":"Katebu","postal_code":98315},{"province":"Papua Barat","city":"Manokwari","district":"Manokwari Utara","urban":"Inya","postal_code":98315},{"province":"Papua Barat","city":"Manokwari","district":"Manokwari Utara","urban":"Iroduas","postal_code":98315},{"province":"Papua Barat","city":"Manokwari","district":"Tanah Rubuh","urban":"Indibo","postal_code":98315},{"province":"Papua Barat","city":"Manokwari","district":"Manokwari Utara","urban":"Indo Oufa","postal_code":98315},{"province":"Papua Barat","city":"Manokwari","district":"Tanah Rubuh","urban":"Imhasuma","postal_code":98315},{"province":"Papua Barat","city":"Manokwari","district":"Tanah Rubuh","urban":"Imboisika","postal_code":98315},{"province":"Papua Barat","city":"Manokwari","district":"Tanah Rubuh","urban":"Imboiti","postal_code":98315},{"province":"Papua Barat","city":"Manokwari","district":"Tanah Rubuh","urban":"Imbeisika","postal_code":98315},{"province":"Papua Barat","city":"Manokwari","district":"Tanah Rubuh","urban":"Hanghouw","postal_code":98315},{"province":"Papua Barat","city":"Manokwari","district":"Manokwari Selatan","urban":"Dobut (Doopud/Doput)","postal_code":98315},{"province":"Papua Barat","city":"Manokwari","district":"Manokwari Selatan","urban":"Dihara","postal_code":98315},{"province":"Papua Barat","city":"Manokwari","district":"Tanah Rubuh","urban":"Cuyehep","postal_code":98315},{"province":"Papua Barat","city":"Manokwari","district":"Manokwari Utara","urban":"Bremi","postal_code":98315},{"province":"Papua Barat","city":"Manokwari","district":"Manokwari Utara","urban":"Caban Dua","postal_code":98315},{"province":"Papua Barat","city":"Manokwari","district":"Manokwari Utara","urban":"Asai","postal_code":98315},{"province":"Papua Barat","city":"Manokwari","district":"Tanah Rubuh","urban":"Ayawi","postal_code":98315},{"province":"Papua Barat","city":"Manokwari","district":"Manokwari Selatan","urban":"Angrisi (Anggresi)","postal_code":98315},{"province":"Papua Barat","city":"Manokwari","district":"Manokwari Selatan","urban":"Acemo","postal_code":98315},{"province":"Papua Barat","city":"Manokwari","district":"Manokwari Selatan","urban":"Anday","postal_code":98315},{"province":"Papua Barat","city":"Pegunungan Arfak","district":"Testega","urban":"Testega","postal_code":98315},{"province":"Papua Barat","city":"Pegunungan Arfak","district":"Testega","urban":"Testega","postal_code":98315},{"province":"Papua Barat","city":"Pegunungan Arfak","district":"Testega","urban":"Mofoukeda","postal_code":98315},{"province":"Papua Barat","city":"Pegunungan Arfak","district":"Testega","urban":"Morumfeyi","postal_code":98315},{"province":"Papua Barat","city":"Pegunungan Arfak","district":"Testega","urban":"Mengehena (Meigehenawu)","postal_code":98315},{"province":"Papua Barat","city":"Pegunungan Arfak","district":"Testega","urban":"Menjugiji (Mejugiji)","postal_code":98315},{"province":"Papua Barat","city":"Pegunungan Arfak","district":"Testega","urban":"Meifowoska","postal_code":98315},{"province":"Papua Barat","city":"Pegunungan Arfak","district":"Testega","urban":"Meimersa","postal_code":98315},{"province":"Papua Barat","city":"Pegunungan Arfak","district":"Testega","urban":"Meksi","postal_code":98315},{"province":"Papua Barat","city":"Pegunungan Arfak","district":"Testega","urban":"Meidogda","postal_code":98315},{"province":"Papua Barat","city":"Pegunungan Arfak","district":"Testega","urban":"Meifekeni","postal_code":98315},{"province":"Papua Barat","city":"Pegunungan Arfak","district":"Testega","urban":"Jigja (Jijga)","postal_code":98315},{"province":"Papua Barat","city":"Pegunungan Arfak","district":"Testega","urban":"Iba","postal_code":98315},{"province":"Papua Barat","city":"Pegunungan Arfak","district":"Menyambouw (Minyambouw)","urban":"Figoud","postal_code":98315},{"province":"Papua Barat","city":"Pegunungan Arfak","district":"Testega","urban":"Dumbre (Dumbrey)","postal_code":98315},{"province":"Papua Barat","city":"Pegunungan Arfak","district":"Testega","urban":"Demoura (Demuora)","postal_code":98315}]