[{"province":"Papua Barat","city":"Manokwari","district":"Tanah Rubuh","urban":"Urwambei","postal_code":98354},{"province":"Papua Barat","city":"Pegunungan Arfak","district":"Membey","urban":"Usti","postal_code":98354},{"province":"Papua Barat","city":"Pegunungan Arfak","district":"Anggi","urban":"Uper","postal_code":98354},{"province":"Papua Barat","city":"Pegunungan Arfak","district":"Taige","urban":"Ubeisa","postal_code":98354},{"province":"Papua Barat","city":"Pegunungan Arfak","district":"Anggi Gida","urban":"Tubyam (Tuabyam)","postal_code":98354},{"province":"Papua Barat","city":"Pegunungan Arfak","district":"Anggi","urban":"Ulong (Ullong)","postal_code":98354},{"province":"Papua Barat","city":"Pegunungan Arfak","district":"Taige","urban":"Tridaga","postal_code":98354},{"province":"Papua Barat","city":"Pegunungan Arfak","district":"Anggi Gida","urban":"Tombrok","postal_code":98354},{"province":"Papua Barat","city":"Pegunungan Arfak","district":"Taige","urban":"Taiga (Taige)","postal_code":98354},{"province":"Papua Barat","city":"Pegunungan Arfak","district":"Anggi","urban":"Suteibei (Suteibey)","postal_code":98354},{"province":"Papua Barat","city":"Pegunungan Arfak","district":"Anggi","urban":"Testega Pamaha","postal_code":98354},{"province":"Papua Barat","city":"Pegunungan Arfak","district":"Anggi","urban":"Spiyougup","postal_code":98354},{"province":"Papua Barat","city":"Pegunungan Arfak","district":"Anggi","urban":"Srubey","postal_code":98354},{"province":"Papua Barat","city":"Pegunungan Arfak","district":"Anggi","urban":"Susi","postal_code":98354},{"province":"Papua Barat","city":"Pegunungan Arfak","district":"Membey","urban":"Sisrang (Seseran)","postal_code":98354},{"province":"Papua Barat","city":"Pegunungan Arfak","district":"Taige","urban":"Siskedouw (Siskedowo)","postal_code":98354},{"province":"Papua Barat","city":"Pegunungan Arfak","district":"Anggi Gida","urban":"Sakumi (Sakuni/Sakurai)","postal_code":98354},{"province":"Papua Barat","city":"Pegunungan Arfak","district":"Anggi Gida","urban":"Sibiogud","postal_code":98354},{"province":"Papua Barat","city":"Pegunungan Arfak","district":"Anggi","urban":"Mentubei (Mentubey)","postal_code":98354},{"province":"Papua Barat","city":"Pegunungan Arfak","district":"Anggi","urban":"Pamaha","postal_code":98354},{"province":"Papua Barat","city":"Pegunungan Arfak","district":"Anggi Gida","urban":"Ngisrow (Ingisrow)","postal_code":98354},{"province":"Papua Barat","city":"Pegunungan Arfak","district":"Membey","urban":"Membey","postal_code":98354},{"province":"Papua Barat","city":"Pegunungan Arfak","district":"Membey","urban":"Memti","postal_code":98354},{"province":"Papua Barat","city":"Pegunungan Arfak","district":"Anggi Gida","urban":"Krobut (Kiwot)","postal_code":98354},{"province":"Papua Barat","city":"Pegunungan Arfak","district":"Membey","urban":"Koney","postal_code":98354},{"province":"Papua Barat","city":"Pegunungan Arfak","district":"Anggi Gida","urban":"Itkau","postal_code":98354},{"province":"Papua Barat","city":"Pegunungan Arfak","district":"Membey","urban":"Inyebow (Inyebouw)","postal_code":98354},{"province":"Papua Barat","city":"Pegunungan Arfak","district":"Anggi","urban":"Iraiweri","postal_code":98354},{"province":"Papua Barat","city":"Pegunungan Arfak","district":"Taige","urban":"Irbos","postal_code":98354},{"province":"Papua Barat","city":"Pegunungan Arfak","district":"Membey","urban":"Imbeisaba","postal_code":98354},{"province":"Papua Barat","city":"Pegunungan Arfak","district":"Anggi","urban":"Igmbai (Igembai/Imbeisba)","postal_code":98354},{"province":"Papua Barat","city":"Pegunungan Arfak","district":"Anggi","urban":"Imbai","postal_code":98354},{"province":"Papua Barat","city":"Pegunungan Arfak","district":"Taige","urban":"Horeta","postal_code":98354},{"province":"Papua Barat","city":"Pegunungan Arfak","district":"Anggi","urban":"Hungku","postal_code":98354},{"province":"Papua Barat","city":"Pegunungan Arfak","district":"Taige","urban":"Genyu","postal_code":98354},{"province":"Papua Barat","city":"Pegunungan Arfak","district":"Taige","urban":"Disura","postal_code":98354},{"province":"Papua Barat","city":"Pegunungan Arfak","district":"Anggi","urban":"Ayau (Ayaubey)","postal_code":98354},{"province":"Papua Barat","city":"Pegunungan Arfak","district":"Taige","urban":"Deroubu (Deuroba)","postal_code":98354},{"province":"Papua Barat","city":"Pegunungan Arfak","district":"Taige","urban":"Asum (Ansum)","postal_code":98354},{"province":"Papua Barat","city":"Pegunungan Arfak","district":"Taige","urban":"Awigau (Awaikum/Awaigau)","postal_code":98354}]