[{"province":"Papua Barat","city":"Manokwari","district":"Masni","urban":"Yonsoribo (Yen Soribo)","postal_code":98357},{"province":"Papua Barat","city":"Manokwari","district":"Masni","urban":"Wariori","postal_code":98357},{"province":"Papua Barat","city":"Manokwari","district":"Masni","urban":"Wariori Indah","postal_code":98357},{"province":"Papua Barat","city":"Manokwari","district":"Masni","urban":"Yensum","postal_code":98357},{"province":"Papua Barat","city":"Manokwari","district":"Sidey","urban":"Wariki","postal_code":98357},{"province":"Papua Barat","city":"Manokwari","district":"Sidey","urban":"Waramui (Waramoi)","postal_code":98357},{"province":"Papua Barat","city":"Manokwari","district":"Sidey","urban":"Wamnowi (Womnowi)","postal_code":98357},{"province":"Papua Barat","city":"Manokwari","district":"Masni","urban":"Wamfoura (Wam Bola)","postal_code":98357},{"province":"Papua Barat","city":"Manokwari","district":"Masni","urban":"Undi","postal_code":98357},{"province":"Papua Barat","city":"Manokwari","district":"Masni","urban":"Urey","postal_code":98357},{"province":"Papua Barat","city":"Manokwari","district":"Sidey","urban":"Sidey Makmur","postal_code":98357},{"province":"Papua Barat","city":"Manokwari","district":"Sidey","urban":"Sidey Baru","postal_code":98357},{"province":"Papua Barat","city":"Manokwari","district":"Sidey","urban":"Sidey Jaya","postal_code":98357},{"province":"Papua Barat","city":"Manokwari","district":"Masni","urban":"Sibuni","postal_code":98357},{"province":"Papua Barat","city":"Manokwari","district":"Sidey","urban":"Sidey","postal_code":98357},{"province":"Papua Barat","city":"Manokwari","district":"Masni","urban":"Sembab","postal_code":98357},{"province":"Papua Barat","city":"Manokwari","district":"Sidey","urban":"Saray","postal_code":98357},{"province":"Papua Barat","city":"Manokwari","district":"Masni","urban":"Ririnfos","postal_code":98357},{"province":"Papua Barat","city":"Manokwari","district":"Masni","urban":"Prafi Barat","postal_code":98357},{"province":"Papua Barat","city":"Manokwari","district":"Masni","urban":"Muara Wariori","postal_code":98357},{"province":"Papua Barat","city":"Manokwari","district":"Masni","urban":"Mowbja (Moubja/Mobja)","postal_code":98357},{"province":"Papua Barat","city":"Manokwari","district":"Masni","urban":"Muara Prafi","postal_code":98357},{"province":"Papua Barat","city":"Manokwari","district":"Masni","urban":"Meyof II","postal_code":98357},{"province":"Papua Barat","city":"Manokwari","district":"Sidey","urban":"Meyof I","postal_code":98357},{"province":"Papua Barat","city":"Manokwari","district":"Masni","urban":"Meyeruk","postal_code":98357},{"province":"Papua Barat","city":"Manokwari","district":"Masni","urban":"Merejemeg (Merejneg)","postal_code":98357},{"province":"Papua Barat","city":"Manokwari","district":"Masni","urban":"Meiforga","postal_code":98357},{"province":"Papua Barat","city":"Manokwari","district":"Masni","urban":"Membowi","postal_code":98357},{"province":"Papua Barat","city":"Manokwari","district":"Masni","urban":"Masni","postal_code":98357},{"province":"Papua Barat","city":"Manokwari","district":"Sidey","urban":"Manggupi","postal_code":98357},{"province":"Papua Barat","city":"Manokwari","district":"Masni","urban":"Mansaburi (Smaryam)","postal_code":98357},{"province":"Papua Barat","city":"Manokwari","district":"Masni","urban":"Mantedi","postal_code":98357},{"province":"Papua Barat","city":"Manokwari","district":"Masni","urban":"Macuan","postal_code":98357},{"province":"Papua Barat","city":"Manokwari","district":"Masni","urban":"Makwan","postal_code":98357},{"province":"Papua Barat","city":"Manokwari","district":"Masni","urban":"Koyani (Koyami)","postal_code":98357},{"province":"Papua Barat","city":"Manokwari","district":"Sidey","urban":"Kasi (Kassi)","postal_code":98357},{"province":"Papua Barat","city":"Manokwari","district":"Masni","urban":"Kali Merah","postal_code":98357},{"province":"Papua Barat","city":"Manokwari","district":"Sidey","urban":"Kaironi","postal_code":98357},{"province":"Papua Barat","city":"Manokwari","district":"Masni","urban":"Jowen","postal_code":98357},{"province":"Papua Barat","city":"Manokwari","district":"Masni","urban":"Inyei","postal_code":98357},{"province":"Papua Barat","city":"Manokwari","district":"Masni","urban":"Igor","postal_code":98357},{"province":"Papua Barat","city":"Manokwari","district":"Masni","urban":"Bowi Subur","postal_code":98357},{"province":"Papua Barat","city":"Manokwari","district":"Masni","urban":"Aurmios","postal_code":98357},{"province":"Papua Barat","city":"Manokwari","district":"Masni","urban":"Aska","postal_code":98357},{"province":"Papua Barat","city":"Pegunungan Arfak","district":"Hingk","urban":"Urwong","postal_code":98357},{"province":"Papua Barat","city":"Pegunungan Arfak","district":"Hingk","urban":"Tumbeibehei","postal_code":98357},{"province":"Papua Barat","city":"Pegunungan Arfak","district":"Hingk","urban":"Umcep","postal_code":98357},{"province":"Papua Barat","city":"Pegunungan Arfak","district":"Hingk","urban":"Tigau Comti","postal_code":98357},{"province":"Papua Barat","city":"Pegunungan Arfak","district":"Hingk","urban":"Tingkwoikio (Tingwoikiou)","postal_code":98357},{"province":"Papua Barat","city":"Pegunungan Arfak","district":"Hingk","urban":"Tingkwoikio (Tingwoikiou)","postal_code":98357},{"province":"Papua Barat","city":"Pegunungan Arfak","district":"Hingk","urban":"Sopnyai","postal_code":98357},{"province":"Papua Barat","city":"Pegunungan Arfak","district":"Hingk","urban":"Punggung (Pungug)","postal_code":98357},{"province":"Papua Barat","city":"Pegunungan Arfak","district":"Hingk","urban":"Nungkimor","postal_code":98357},{"province":"Papua Barat","city":"Pegunungan Arfak","district":"Hingk","urban":"Penibut","postal_code":98357},{"province":"Papua Barat","city":"Pegunungan Arfak","district":"Hingk","urban":"Ntap","postal_code":98357},{"province":"Papua Barat","city":"Pegunungan Arfak","district":"Hingk","urban":"Ngimoubre (Ngimoubri)","postal_code":98357},{"province":"Papua Barat","city":"Pegunungan Arfak","district":"Hingk","urban":"Monut","postal_code":98357},{"province":"Papua Barat","city":"Pegunungan Arfak","district":"Hingk","urban":"Minggot (Manggot)","postal_code":98357},{"province":"Papua Barat","city":"Pegunungan Arfak","district":"Hingk","urban":"Minyeimemut (Minyeimemud)","postal_code":98357},{"province":"Papua Barat","city":"Pegunungan Arfak","district":"Hingk","urban":"Mbrande","postal_code":98357},{"province":"Papua Barat","city":"Pegunungan Arfak","district":"Hingk","urban":"Mbegau","postal_code":98357},{"province":"Papua Barat","city":"Pegunungan Arfak","district":"Hingk","urban":"Leiheak (Liehak)","postal_code":98357},{"province":"Papua Barat","city":"Pegunungan Arfak","district":"Hingk","urban":"Kwok II (Kwokwisngung)","postal_code":98357},{"province":"Papua Barat","city":"Pegunungan Arfak","district":"Hingk","urban":"Kwok I","postal_code":98357},{"province":"Papua Barat","city":"Pegunungan Arfak","district":"Hingk","urban":"Kwaiyehep","postal_code":98357},{"province":"Papua Barat","city":"Pegunungan Arfak","district":"Hingk","urban":"Kisap","postal_code":98357},{"province":"Papua Barat","city":"Pegunungan Arfak","district":"Hingk","urban":"Ikimabow (Ikimabou)","postal_code":98357},{"province":"Papua Barat","city":"Pegunungan Arfak","district":"Hingk","urban":"Humeysi (Humeisi)","postal_code":98357},{"province":"Papua Barat","city":"Pegunungan Arfak","district":"Hingk","urban":"Gweipingbai (Gueipinbai)","postal_code":98357},{"province":"Papua Barat","city":"Pegunungan Arfak","district":"Hingk","urban":"Heatie Bouw (Haktiebou)","postal_code":98357},{"province":"Papua Barat","city":"Pegunungan Arfak","district":"Hingk","urban":"Guweuti (Gueiuti/Guwei Uti)","postal_code":98357},{"province":"Papua Barat","city":"Pegunungan Arfak","district":"Hingk","urban":"Demunti","postal_code":98357},{"province":"Papua Barat","city":"Pegunungan Arfak","district":"Hingk","urban":"Cangoisi","postal_code":98357},{"province":"Papua Barat","city":"Pegunungan Arfak","district":"Testega","urban":"Asai II (Asay II)","postal_code":98357},{"province":"Papua Barat","city":"Pegunungan Arfak","district":"Hingk","urban":"Arion (Aryon)","postal_code":98357}]