[{"province":"Papua Barat","city":"Manokwari Selatan","district":"Momi Waren","urban":"Yekwandi","postal_code":98355},{"province":"Papua Barat","city":"Manokwari Selatan","district":"Tahota (Tohota)","urban":"Yermatum","postal_code":98355},{"province":"Papua Barat","city":"Manokwari Selatan","district":"Ransiki","urban":"Yamboy (Yamboi)","postal_code":98355},{"province":"Papua Barat","city":"Manokwari Selatan","district":"Neney (Nenei)","urban":"Wama","postal_code":98355},{"province":"Papua Barat","city":"Manokwari Selatan","district":"Momi Waren","urban":"Waren","postal_code":98355},{"province":"Papua Barat","city":"Manokwari Selatan","district":"Ransiki","urban":"Toboo (Tobouw/Tobou)","postal_code":98355},{"province":"Papua Barat","city":"Manokwari Selatan","district":"Ransiki","urban":"Wamcei","postal_code":98355},{"province":"Papua Barat","city":"Manokwari Selatan","district":"Ransiki","urban":"Susmorof","postal_code":98355},{"province":"Papua Barat","city":"Manokwari Selatan","district":"Ransiki","urban":"Swer","postal_code":98355},{"province":"Papua Barat","city":"Manokwari Selatan","district":"Momi Waren","urban":"Siwi","postal_code":98355},{"province":"Papua Barat","city":"Manokwari Selatan","district":"Tahota (Tohota)","urban":"Seimeba","postal_code":98355},{"province":"Papua Barat","city":"Manokwari Selatan","district":"Neney (Nenei)","urban":"Sesum","postal_code":98355},{"province":"Papua Barat","city":"Manokwari Selatan","district":"Ransiki","urban":"Sabri","postal_code":98355},{"province":"Papua Barat","city":"Manokwari Selatan","district":"Tahota (Tohota)","urban":"Reyob","postal_code":98355},{"province":"Papua Barat","city":"Manokwari Selatan","district":"Ransiki","urban":"Nuhuwai (Nuhuei/Nuhuwei)","postal_code":98355},{"province":"Papua Barat","city":"Manokwari Selatan","district":"Ransiki","urban":"Ransiki Kota","postal_code":98355},{"province":"Papua Barat","city":"Manokwari Selatan","district":"Momi Waren","urban":"Neny Pantai (Nenei Pantai/Nij)","postal_code":98355},{"province":"Papua Barat","city":"Manokwari Selatan","district":"Neney (Nenei)","urban":"Nenei (Neney)","postal_code":98355},{"province":"Papua Barat","city":"Manokwari Selatan","district":"Ransiki","urban":"Kobrey","postal_code":98355},{"province":"Papua Barat","city":"Manokwari Selatan","district":"Ransiki","urban":"Mambrema","postal_code":98355},{"province":"Papua Barat","city":"Manokwari Selatan","district":"Tahota (Tohota)","urban":"Kaprus","postal_code":98355},{"province":"Papua Barat","city":"Manokwari Selatan","district":"Neney (Nenei)","urban":"Hiyou","postal_code":98355},{"province":"Papua Barat","city":"Manokwari Selatan","district":"Ransiki","urban":"Hamawi","postal_code":98355},{"province":"Papua Barat","city":"Manokwari Selatan","district":"Ransiki","urban":"Hamor","postal_code":98355},{"province":"Papua Barat","city":"Manokwari Selatan","district":"Momi Waren","urban":"Gaya Baru","postal_code":98355},{"province":"Papua Barat","city":"Manokwari Selatan","district":"Neney (Nenei)","urban":"Disi","postal_code":98355},{"province":"Papua Barat","city":"Manokwari Selatan","district":"Momi Waren","urban":"Dembek","postal_code":98355},{"province":"Papua Barat","city":"Manokwari Selatan","district":"Momi Waren","urban":"Demini","postal_code":98355},{"province":"Papua Barat","city":"Manokwari Selatan","district":"Ransiki","urban":"Bamaha","postal_code":98355},{"province":"Papua Barat","city":"Manokwari Selatan","district":"Neney (Nenei)","urban":"Benyas","postal_code":98355},{"province":"Papua Barat","city":"Manokwari Selatan","district":"Neney (Nenei)","urban":"Aryawen Moho (Aryawenm)","postal_code":98355},{"province":"Papua Barat","city":"Manokwari Selatan","district":"Ransiki","urban":"Abresso (Abreso)","postal_code":98355}]