[{"province":"Papua Barat","city":"Manokwari","district":"Prafi","urban":"Wasegi/Waseki Indah","postal_code":98356},{"province":"Papua Barat","city":"Manokwari","district":"Prafi","urban":"Wasegi Pop (Waseki)","postal_code":98356},{"province":"Papua Barat","city":"Manokwari","district":"Prafi","urban":"Wanggonoma","postal_code":98356},{"province":"Papua Barat","city":"Manokwari","district":"Prafi","urban":"Umbui (Umbuy)","postal_code":98356},{"province":"Papua Barat","city":"Manokwari","district":"Prafi","urban":"Uhyehekbrig (Ogyehek/Oyehek Brig)","postal_code":98356},{"province":"Papua Barat","city":"Manokwari","district":"Prafi","urban":"Udapi Hilir (Udap Hilir)","postal_code":98356},{"province":"Papua Barat","city":"Manokwari","district":"Prafi","urban":"Prafi Mulia/Mulya","postal_code":98356},{"province":"Papua Barat","city":"Manokwari","district":"Prafi","urban":"Semi (Somi)","postal_code":98356},{"province":"Papua Barat","city":"Manokwari","district":"Prafi","urban":"Lismaungu (Lismanggu)","postal_code":98356},{"province":"Papua Barat","city":"Manokwari","district":"Prafi","urban":"Krenu (Kerenu/Krenui)","postal_code":98356},{"province":"Papua Barat","city":"Manokwari","district":"Prafi","urban":"Kali Amin","postal_code":98356},{"province":"Papua Barat","city":"Manokwari","district":"Prafi","urban":"Inguisi (Ingkwoisi)","postal_code":98356},{"province":"Papua Barat","city":"Manokwari","district":"Prafi","urban":"Desay","postal_code":98356},{"province":"Papua Barat","city":"Manokwari","district":"Prafi","urban":"Bogor","postal_code":98356},{"province":"Papua Barat","city":"Manokwari","district":"Prafi","urban":"Bendip Matoa (Debit Motoa)","postal_code":98356},{"province":"Papua Barat","city":"Manokwari","district":"Prafi","urban":"Aimasi","postal_code":98356}]