[{"province":"Papua Barat","city":"Manokwari Selatan","district":"Dataran Isim","urban":"Umuhousi (Umousi)","postal_code":98359},{"province":"Papua Barat","city":"Manokwari Selatan","district":"Dataran Isim","urban":"Tubes","postal_code":98359},{"province":"Papua Barat","city":"Manokwari Selatan","district":"Dataran Isim","urban":"Tahosta (Tohosta)","postal_code":98359},{"province":"Papua Barat","city":"Manokwari Selatan","district":"Dataran Isim","urban":"Sibjo","postal_code":98359},{"province":"Papua Barat","city":"Manokwari Selatan","district":"Dataran Isim","urban":"Mindermes","postal_code":98359},{"province":"Papua Barat","city":"Manokwari Selatan","district":"Dataran Isim","urban":"Isim","postal_code":98359},{"province":"Papua Barat","city":"Manokwari Selatan","district":"Dataran Isim","urban":"Inyuara","postal_code":98359},{"province":"Papua Barat","city":"Manokwari Selatan","district":"Dataran Isim","urban":"Hugamod (Hugomot)","postal_code":98359},{"province":"Papua Barat","city":"Manokwari Selatan","district":"Dataran Isim","urban":"Duhugesa","postal_code":98359},{"province":"Papua Barat","city":"Manokwari Selatan","district":"Dataran Isim","urban":"Disra (Desra)","postal_code":98359},{"province":"Papua Barat","city":"Manokwari Selatan","district":"Dataran Isim","urban":"Disihu (Dihisu)","postal_code":98359},{"province":"Papua Barat","city":"Manokwari Selatan","district":"Dataran Isim","urban":"Dibera","postal_code":98359},{"province":"Papua Barat","city":"Pegunungan Arfak","district":"Sururey","urban":"Tomstera","postal_code":98359},{"province":"Papua Barat","city":"Pegunungan Arfak","district":"Sururey","urban":"Tuhubea (Duhubeya)","postal_code":98359},{"province":"Papua Barat","city":"Pegunungan Arfak","district":"Didohu","urban":"Tomsir","postal_code":98359},{"province":"Papua Barat","city":"Pegunungan Arfak","district":"Sururey","urban":"Sungedes (Sungudes)","postal_code":98359},{"province":"Papua Barat","city":"Pegunungan Arfak","district":"Didohu","urban":"Sneraner (Sneremer)","postal_code":98359},{"province":"Papua Barat","city":"Pegunungan Arfak","district":"Sururey","urban":"Sururey (Sururai)","postal_code":98359},{"province":"Papua Barat","city":"Pegunungan Arfak","district":"Didohu","urban":"Sirgemeih (Sergemeh)","postal_code":98359},{"province":"Papua Barat","city":"Pegunungan Arfak","district":"Didohu","urban":"Miseda","postal_code":98359},{"province":"Papua Barat","city":"Pegunungan Arfak","district":"Sururey","urban":"Saugemeba","postal_code":98359},{"province":"Papua Barat","city":"Pegunungan Arfak","district":"Didohu","urban":"Kusmenau","postal_code":98359},{"province":"Papua Barat","city":"Pegunungan Arfak","district":"Sururey","urban":"Menesrij","postal_code":98359},{"province":"Papua Barat","city":"Pegunungan Arfak","district":"Sururey","urban":"Kopo","postal_code":98359},{"province":"Papua Barat","city":"Pegunungan Arfak","district":"Sururey","urban":"Kostera","postal_code":98359},{"province":"Papua Barat","city":"Pegunungan Arfak","district":"Sururey","urban":"Kobrey","postal_code":98359},{"province":"Papua Barat","city":"Pegunungan Arfak","district":"Didohu","urban":"Iranmeba","postal_code":98359},{"province":"Papua Barat","city":"Pegunungan Arfak","district":"Sururey","urban":"Inyaub","postal_code":98359},{"province":"Papua Barat","city":"Pegunungan Arfak","district":"Didohu","urban":"Gedeira","postal_code":98359},{"province":"Papua Barat","city":"Pegunungan Arfak","district":"Sururey","urban":"Duguhani (Dugahani)","postal_code":98359},{"province":"Papua Barat","city":"Pegunungan Arfak","district":"Didohu","urban":"Dugrimog","postal_code":98359},{"province":"Papua Barat","city":"Pegunungan Arfak","district":"Didohu","urban":"Desra (Disra)","postal_code":98359},{"province":"Papua Barat","city":"Pegunungan Arfak","district":"Didohu","urban":"Debetik (Dibetik)","postal_code":98359},{"province":"Papua Barat","city":"Pegunungan Arfak","district":"Didohu","urban":"Demdamei","postal_code":98359},{"province":"Papua Barat","city":"Pegunungan Arfak","district":"Didohu","urban":"Cirnohu","postal_code":98359},{"province":"Papua Barat","city":"Pegunungan Arfak","district":"Didohu","urban":"Danmou","postal_code":98359},{"province":"Papua Barat","city":"Pegunungan Arfak","district":"Didohu","urban":"Cigera","postal_code":98359},{"province":"Papua Barat","city":"Pegunungan Arfak","district":"Sururey","urban":"Anuk","postal_code":98359}]