[{"province":"Papua Barat","city":"Teluk Bintuni","district":"Aroba","urban":"Yaru","postal_code":98363},{"province":"Papua Barat","city":"Teluk Bintuni","district":"Aroba","urban":"Wimbro (Nelayan Wimbro)","postal_code":98363},{"province":"Papua Barat","city":"Teluk Bintuni","district":"Kaitaro","urban":"Warganusa I (Warbanusa I)","postal_code":98363},{"province":"Papua Barat","city":"Teluk Bintuni","district":"Kaitaro","urban":"Warga Nusa II","postal_code":98363},{"province":"Papua Barat","city":"Teluk Bintuni","district":"Kuri","urban":"Wagura","postal_code":98363},{"province":"Papua Barat","city":"Teluk Bintuni","district":"Kaitaro","urban":"Suga","postal_code":98363},{"province":"Papua Barat","city":"Teluk Bintuni","district":"Kaitaro","urban":"Tugarama (Tugerama)","postal_code":98363},{"province":"Papua Barat","city":"Teluk Bintuni","district":"Kuri","urban":"Sarbe","postal_code":98363},{"province":"Papua Barat","city":"Teluk Bintuni","district":"Sumuri (Simuri)","urban":"Tanah Merah","postal_code":98363},{"province":"Papua Barat","city":"Teluk Bintuni","district":"Kaitaro","urban":"Sara","postal_code":98363},{"province":"Papua Barat","city":"Teluk Bintuni","district":"Sumuri (Simuri)","urban":"Tofoi","postal_code":98363},{"province":"Papua Barat","city":"Teluk Bintuni","district":"Aroba","urban":"Sangguar","postal_code":98363},{"province":"Papua Barat","city":"Teluk Bintuni","district":"Aroba","urban":"Sido Makmur","postal_code":98363},{"province":"Papua Barat","city":"Teluk Bintuni","district":"Sumuri (Simuri)","urban":"Saengga","postal_code":98363},{"province":"Papua Barat","city":"Teluk Bintuni","district":"Fafurwar (Irorutu)","urban":"Riendo","postal_code":98363},{"province":"Papua Barat","city":"Teluk Bintuni","district":"Kuri","urban":"Refideso","postal_code":98363},{"province":"Papua Barat","city":"Teluk Bintuni","district":"Kuri","urban":"Naramasa","postal_code":98363},{"province":"Papua Barat","city":"Teluk Bintuni","district":"Kuri","urban":"Obo","postal_code":98363},{"province":"Papua Barat","city":"Teluk Bintuni","district":"Babo","urban":"Nusei","postal_code":98363},{"province":"Papua Barat","city":"Teluk Bintuni","district":"Fafurwar (Irorutu)","urban":"Meryedi (Maryedi)","postal_code":98363},{"province":"Papua Barat","city":"Teluk Bintuni","district":"Babo","urban":"Kasira","postal_code":98363},{"province":"Papua Barat","city":"Teluk Bintuni","district":"Sumuri (Simuri)","urban":"Materabu Jaya","postal_code":98363},{"province":"Papua Barat","city":"Teluk Bintuni","district":"Babo","urban":"Irarutu III","postal_code":98363},{"province":"Papua Barat","city":"Teluk Bintuni","district":"Fafurwar (Irorutu)","urban":"Fruata (Fuata/Irorutu II)","postal_code":98363},{"province":"Papua Barat","city":"Teluk Bintuni","district":"Sumuri (Simuri)","urban":"Forada","postal_code":98363},{"province":"Papua Barat","city":"Teluk Bintuni","district":"Babo","urban":"Amutu","postal_code":98363},{"province":"Papua Barat","city":"Teluk Bintuni","district":"Aroba","urban":"Aroba","postal_code":98363}]