[{"province":"Papua Barat","city":"Teluk Bintuni","district":"Weriagar","urban":"Weriagar Utara","postal_code":98365},{"province":"Papua Barat","city":"Teluk Bintuni","district":"Weriagar","urban":"Weriagar","postal_code":98365},{"province":"Papua Barat","city":"Teluk Bintuni","district":"Weriagar","urban":"Weriagar Baru","postal_code":98365},{"province":"Papua Barat","city":"Teluk Bintuni","district":"Mayado","urban":"Vasco Damneen (Vesco Damnem/Sten)","postal_code":98365},{"province":"Papua Barat","city":"Teluk Bintuni","district":"Weriagar","urban":"Tuanaikin","postal_code":98365},{"province":"Papua Barat","city":"Teluk Bintuni","district":"Tomu","urban":"Sebyar Rejosasi/Rejosari","postal_code":98365},{"province":"Papua Barat","city":"Teluk Bintuni","district":"Tomu","urban":"Taroy (Toray/Taroi)","postal_code":98365},{"province":"Papua Barat","city":"Teluk Bintuni","district":"Tomu","urban":"Tomu","postal_code":98365},{"province":"Papua Barat","city":"Teluk Bintuni","district":"Weriagar","urban":"Mogotira (Mogmesa)","postal_code":98365},{"province":"Papua Barat","city":"Teluk Bintuni","district":"Moskona Selatan","urban":"Rawara","postal_code":98365},{"province":"Papua Barat","city":"Teluk Bintuni","district":"Moskona Barat","urban":"Meyerga (Mayerga)","postal_code":98365},{"province":"Papua Barat","city":"Teluk Bintuni","district":"Moskona Selatan","urban":"Meyenda","postal_code":98365},{"province":"Papua Barat","city":"Teluk Bintuni","district":"Aranday","urban":"Manunggal Karya/Jaya","postal_code":98365},{"province":"Papua Barat","city":"Teluk Bintuni","district":"Mayado","urban":"Meyado (Mayado/Meyabo)","postal_code":98365},{"province":"Papua Barat","city":"Teluk Bintuni","district":"Moskona Barat","urban":"Mejnic (Majnic/Majnik)","postal_code":98365},{"province":"Papua Barat","city":"Teluk Bintuni","district":"Moskona Barat","urban":"Macok","postal_code":98365},{"province":"Papua Barat","city":"Teluk Bintuni","district":"Kamundan","urban":"Kenara","postal_code":98365},{"province":"Papua Barat","city":"Teluk Bintuni","district":"Kamundan","urban":"Kalitama II (Kalitami II)","postal_code":98365},{"province":"Papua Barat","city":"Teluk Bintuni","district":"Aranday","urban":"Kecap","postal_code":98365},{"province":"Papua Barat","city":"Teluk Bintuni","district":"Moskona Barat","urban":"Istiwkem (Istikem)","postal_code":98365},{"province":"Papua Barat","city":"Teluk Bintuni","district":"Moskona Selatan","urban":"Jagiro","postal_code":98365},{"province":"Papua Barat","city":"Teluk Bintuni","district":"Kamundan","urban":"Kalitama I (Kalitami I)","postal_code":98365},{"province":"Papua Barat","city":"Teluk Bintuni","district":"Moskona Selatan","urban":"Inggof","postal_code":98365},{"province":"Papua Barat","city":"Teluk Bintuni","district":"Tomu","urban":"Ekam","postal_code":98365},{"province":"Papua Barat","city":"Teluk Bintuni","district":"Kamundan","urban":"Bibiram","postal_code":98365},{"province":"Papua Barat","city":"Teluk Bintuni","district":"Mayado","urban":"Barma Baru (Stencool)","postal_code":98365},{"province":"Papua Barat","city":"Teluk Bintuni","district":"Aranday","urban":"Baru (Kampung Baru)","postal_code":98365},{"province":"Papua Barat","city":"Teluk Bintuni","district":"Moskona Selatan","urban":"Barma Barat","postal_code":98365},{"province":"Papua Barat","city":"Teluk Bintuni","district":"Mayado","urban":"Barma","postal_code":98365},{"province":"Papua Barat","city":"Teluk Bintuni","district":"Aranday","urban":"Aranday (Arandai)","postal_code":98365}]