[{"province":"Papua Barat","city":"Teluk Wondama","district":"Roswar","urban":"Yomber","postal_code":98361},{"province":"Papua Barat","city":"Teluk Wondama","district":"Windesi","urban":"Yopmios","postal_code":98361},{"province":"Papua Barat","city":"Teluk Wondama","district":"Rumberpon","urban":"Yembekiri II","postal_code":98361},{"province":"Papua Barat","city":"Teluk Wondama","district":"Rumberpon","urban":"Yomakan","postal_code":98361},{"province":"Papua Barat","city":"Teluk Wondama","district":"Rumberpon","urban":"Yombekiri I (Yembe Kiri)","postal_code":98361},{"province":"Papua Barat","city":"Teluk Wondama","district":"Soug Jaya","urban":"Yarmatum (Yermatum)","postal_code":98361},{"province":"Papua Barat","city":"Teluk Wondama","district":"Wamesa","urban":"Yarpate","postal_code":98361},{"province":"Papua Barat","city":"Teluk Wondama","district":"Rumberpon","urban":"Yariari","postal_code":98361},{"province":"Papua Barat","city":"Teluk Wondama","district":"Windesi","urban":"Windesi","postal_code":98361},{"province":"Papua Barat","city":"Teluk Wondama","district":"Nikiwar","urban":"Werianggi","postal_code":98361},{"province":"Papua Barat","city":"Teluk Wondama","district":"Rumberpon","urban":"Wetitindau","postal_code":98361},{"province":"Papua Barat","city":"Teluk Wondama","district":"Nikiwar","urban":"Werabur","postal_code":98361},{"province":"Papua Barat","city":"Teluk Wondama","district":"Windesi","urban":"Wamesa Tengah","postal_code":98361},{"province":"Papua Barat","city":"Teluk Wondama","district":"Roswar","urban":"Waprak","postal_code":98361},{"province":"Papua Barat","city":"Teluk Wondama","district":"Roswar","urban":"Syeiwar","postal_code":98361},{"province":"Papua Barat","city":"Teluk Wondama","district":"Nikiwar","urban":"Tamoge","postal_code":98361},{"province":"Papua Barat","city":"Teluk Wondama","district":"Windesi","urban":"Sombokoro","postal_code":98361},{"province":"Papua Barat","city":"Teluk Wondama","district":"Soug Jaya","urban":"Siresi","postal_code":98361},{"province":"Papua Barat","city":"Teluk Wondama","district":"Windesi","urban":"Sandey","postal_code":98361},{"province":"Papua Barat","city":"Teluk Wondama","district":"Soug Jaya","urban":"Reyob (Rayob)","postal_code":98361},{"province":"Papua Barat","city":"Teluk Wondama","district":"Wamesa","urban":"Sabubar","postal_code":98361},{"province":"Papua Barat","city":"Teluk Wondama","district":"Soug Jaya","urban":"Nuspairo","postal_code":98361},{"province":"Papua Barat","city":"Teluk Wondama","district":"Wamesa","urban":"Nordiwar","postal_code":98361},{"province":"Papua Barat","city":"Teluk Wondama","district":"Nikiwar","urban":"Mamisi","postal_code":98361},{"province":"Papua Barat","city":"Teluk Wondama","district":"Nikiwar","urban":"Kurei","postal_code":98361},{"province":"Papua Barat","city":"Teluk Wondama","district":"Wamesa","urban":"Karuan","postal_code":98361},{"province":"Papua Barat","city":"Teluk Wondama","district":"Soug Jaya","urban":"Kaprus","postal_code":98361},{"province":"Papua Barat","city":"Teluk Wondama","district":"Rumberpon","urban":"Isenebuai (Senebuay/Senebuai)","postal_code":98361},{"province":"Papua Barat","city":"Teluk Wondama","district":"Rumberpon","urban":"Iseren (Isren)","postal_code":98361},{"province":"Papua Barat","city":"Teluk Wondama","district":"Wamesa","urban":"Ambuar","postal_code":98361}]