[{"province":"Papua Barat","city":"Teluk Wondama","district":"Roon","urban":"Yende","postal_code":98362},{"province":"Papua Barat","city":"Teluk Wondama","district":"Naikere (Wasior Barat)","urban":"Wosimi (Wosimo)","postal_code":98362},{"province":"Papua Barat","city":"Teluk Wondama","district":"Naikere (Wasior Barat)","urban":"Yabore","postal_code":98362},{"province":"Papua Barat","city":"Teluk Wondama","district":"Roon","urban":"Yende","postal_code":98362},{"province":"Papua Barat","city":"Teluk Wondama","district":"Wondiboy (Wasior Selatan)","urban":"Wondiboi (Wondiboy)","postal_code":98362},{"province":"Papua Barat","city":"Teluk Wondama","district":"Teluk Duairi (Wasior Utara)","urban":"Yopanggar (Yopengar)","postal_code":98362},{"province":"Papua Barat","city":"Teluk Wondama","district":"Wasior","urban":"Wondamawi","postal_code":98362},{"province":"Papua Barat","city":"Teluk Wondama","district":"Wasior","urban":"Wasior II","postal_code":98362},{"province":"Papua Barat","city":"Teluk Wondama","district":"Rasiei","urban":"Webi","postal_code":98362},{"province":"Papua Barat","city":"Teluk Wondama","district":"Wasior","urban":"Wasior I","postal_code":98362},{"province":"Papua Barat","city":"Teluk Wondama","district":"Naikere (Wasior Barat)","urban":"Undurara","postal_code":98362},{"province":"Papua Barat","city":"Teluk Wondama","district":"Rasiei","urban":"Uryemi (Uriyem/Uriemi)","postal_code":98362},{"province":"Papua Barat","city":"Teluk Wondama","district":"Rasiei","urban":"Torey","postal_code":98362},{"province":"Papua Barat","city":"Teluk Wondama","district":"Rasiei","urban":"Tandia","postal_code":98362},{"province":"Papua Barat","city":"Teluk Wondama","district":"Roon","urban":"Syabes","postal_code":98362},{"province":"Papua Barat","city":"Teluk Wondama","district":"Teluk Duairi (Wasior Utara)","urban":"Sobey Indah","postal_code":98362},{"province":"Papua Barat","city":"Teluk Wondama","district":"Kuri Wamesa","urban":"Sobiar","postal_code":98362},{"province":"Papua Barat","city":"Teluk Wondama","district":"Teluk Duairi (Wasior Utara)","urban":"Sobei (Sobey)","postal_code":98362},{"province":"Papua Barat","city":"Teluk Wondama","district":"Kuri Wamesa","urban":"Simei (Simiei)","postal_code":98362},{"province":"Papua Barat","city":"Teluk Wondama","district":"Rasiei","urban":"Sasirey (Sasirei)","postal_code":98362},{"province":"Papua Barat","city":"Teluk Wondama","district":"Rasiei","urban":"Senderawoy / Senderawoi (Sindrawoi)","postal_code":98362},{"province":"Papua Barat","city":"Teluk Wondama","district":"Roon","urban":"Sariay","postal_code":98362},{"province":"Papua Barat","city":"Teluk Wondama","district":"Naikere (Wasior Barat)","urban":"Sararti","postal_code":98362},{"province":"Papua Barat","city":"Teluk Wondama","district":"Wasior","urban":"Ramiki","postal_code":98362},{"province":"Papua Barat","city":"Teluk Wondama","district":"Rasiei","urban":"Rasiey (Rasiei)","postal_code":98362},{"province":"Papua Barat","city":"Teluk Wondama","district":"Wasior","urban":"Rado","postal_code":98362},{"province":"Papua Barat","city":"Teluk Wondama","district":"Naikere (Wasior Barat)","urban":"Oya (Oyaa)","postal_code":98362},{"province":"Papua Barat","city":"Teluk Wondama","district":"Rasiei","urban":"Nggatum","postal_code":98362},{"province":"Papua Barat","city":"Teluk Wondama","district":"Roon","urban":"Niab","postal_code":98362},{"province":"Papua Barat","city":"Teluk Wondama","district":"Wasior","urban":"Moru (Gayabaru)","postal_code":98362},{"province":"Papua Barat","city":"Teluk Wondama","district":"Kuri Wamesa","urban":"Nanimori","postal_code":98362},{"province":"Papua Barat","city":"Teluk Wondama","district":"Roon","urban":"Menarbu","postal_code":98362},{"province":"Papua Barat","city":"Teluk Wondama","district":"Roon","urban":"Mena","postal_code":98362},{"province":"Papua Barat","city":"Teluk Wondama","district":"Wondiboy (Wasior Selatan)","urban":"Manopi","postal_code":98362},{"province":"Papua Barat","city":"Teluk Wondama","district":"Wasior","urban":"Maniwak","postal_code":98362},{"province":"Papua Barat","city":"Teluk Wondama","district":"Wasior","urban":"Maimare (Maimari)","postal_code":98362},{"province":"Papua Barat","city":"Teluk Wondama","district":"Wondiboy (Wasior Selatan)","urban":"Kaibi","postal_code":98362},{"province":"Papua Barat","city":"Teluk Wondama","district":"Wondiboy (Wasior Selatan)","urban":"Isuy (Issui)","postal_code":98362},{"province":"Papua Barat","city":"Teluk Wondama","district":"Wondiboy (Wasior Selatan)","urban":"Kabouw (Kabuow)","postal_code":98362},{"province":"Papua Barat","city":"Teluk Wondama","district":"Rasiei","urban":"Isey (Isei)","postal_code":98362},{"province":"Papua Barat","city":"Teluk Wondama","district":"Wasior","urban":"Iriati","postal_code":98362},{"province":"Papua Barat","city":"Teluk Wondama","district":"Naikere (Wasior Barat)","urban":"Inyora","postal_code":98362},{"province":"Papua Barat","city":"Teluk Wondama","district":"Roon","urban":"Inday","postal_code":98362},{"province":"Papua Barat","city":"Teluk Wondama","district":"Kuri Wamesa","urban":"Dusner","postal_code":98362},{"province":"Papua Barat","city":"Teluk Wondama","district":"Wasior","urban":"Dotir","postal_code":98362},{"province":"Papua Barat","city":"Teluk Wondama","district":"Kuri Wamesa","urban":"Ambumi","postal_code":98362},{"province":"Papua Barat","city":"Teluk Wondama","district":"Teluk Duairi (Wasior Utara)","urban":"Aisandami","postal_code":98362}]