[{"province":"Papua Barat","city":"Teluk Bintuni","district":"Wamesa (Idoor)","urban":"Yansei (Yansey/Ensei/Yensei)","postal_code":98364},{"province":"Papua Barat","city":"Teluk Bintuni","district":"Bintuni","urban":"Wesiri","postal_code":98364},{"province":"Papua Barat","city":"Teluk Bintuni","district":"Manimeri","urban":"Waraitama","postal_code":98364},{"province":"Papua Barat","city":"Teluk Bintuni","district":"Dataran Beimes","urban":"Ugdohop","postal_code":98364},{"province":"Papua Barat","city":"Teluk Bintuni","district":"Wamesa (Idoor)","urban":"Wamesa I &#8211; Idoor","postal_code":98364},{"province":"Papua Barat","city":"Teluk Bintuni","district":"Wamesa (Idoor)","urban":"Wamesa II &#8211; Yakati","postal_code":98364},{"province":"Papua Barat","city":"Teluk Bintuni","district":"Tuhiba","urban":"Tuhiba","postal_code":98364},{"province":"Papua Barat","city":"Teluk Bintuni","district":"Bintuni","urban":"Tuasai","postal_code":98364},{"province":"Papua Barat","city":"Teluk Bintuni","district":"Tuhiba","urban":"Tisaida","postal_code":98364},{"province":"Papua Barat","city":"Teluk Bintuni","district":"Dataran Beimes","urban":"Sir","postal_code":98364},{"province":"Papua Barat","city":"Teluk Bintuni","district":"Tuhiba","urban":"Sibena Raya (I)","postal_code":98364},{"province":"Papua Barat","city":"Teluk Bintuni","district":"Tembuni","urban":"Tembuni","postal_code":98364},{"province":"Papua Barat","city":"Teluk Bintuni","district":"Tuhiba","urban":"Sibena Permai (II)","postal_code":98364},{"province":"Papua Barat","city":"Teluk Bintuni","district":"Manimeri","urban":"Pasamai","postal_code":98364},{"province":"Papua Barat","city":"Teluk Bintuni","district":"Dataran Beimes","urban":"Menci","postal_code":98364},{"province":"Papua Barat","city":"Teluk Bintuni","district":"Tembuni","urban":"Mogoi Baru","postal_code":98364},{"province":"Papua Barat","city":"Teluk Bintuni","district":"Bintuni","urban":"Masina","postal_code":98364},{"province":"Papua Barat","city":"Teluk Bintuni","district":"Wamesa (Idoor)","urban":"Mamuranu","postal_code":98364},{"province":"Papua Barat","city":"Teluk Bintuni","district":"Tuhiba","urban":"Kucir","postal_code":98364},{"province":"Papua Barat","city":"Teluk Bintuni","district":"Manimeri","urban":"Korano Jaya","postal_code":98364},{"province":"Papua Barat","city":"Teluk Bintuni","district":"Bintuni","urban":"Iguriji","postal_code":98364},{"province":"Papua Barat","city":"Teluk Bintuni","district":"Dataran Beimes","urban":"Cumnaji","postal_code":98364},{"province":"Papua Barat","city":"Teluk Bintuni","district":"Dataran Beimes","urban":"Huss","postal_code":98364},{"province":"Papua Barat","city":"Teluk Bintuni","district":"Dataran Beimes","urban":"Horna (Homa)","postal_code":98364},{"province":"Papua Barat","city":"Teluk Bintuni","district":"Bintuni","urban":"Bintuni Timur","postal_code":98364},{"province":"Papua Barat","city":"Teluk Bintuni","district":"Manimeri","urban":"Bumi Saniari","postal_code":98364},{"province":"Papua Barat","city":"Teluk Bintuni","district":"Bintuni","urban":"Beimes","postal_code":98364},{"province":"Papua Barat","city":"Teluk Bintuni","district":"Bintuni","urban":"Bintuni Barat","postal_code":98364},{"province":"Papua Barat","city":"Teluk Bintuni","district":"Manimeri","urban":"Banjar Ausoy","postal_code":98364},{"province":"Papua Barat","city":"Teluk Bintuni","district":"Tembuni","urban":"Bangun Mulyo/Mulia","postal_code":98364},{"province":"Papua Barat","city":"Teluk Bintuni","district":"Manimeri","urban":"Atibo Manimeri","postal_code":98364},{"province":"Papua Barat","city":"Teluk Bintuni","district":"Bintuni","urban":"Argosigemerai","postal_code":98364},{"province":"Papua Barat","city":"Teluk Bintuni","district":"Tembuni","urban":"Araisum","postal_code":98364}]