[{"province":"Papua Barat","city":"Tambrauw","district":"Senopi","urban":"Wausin (Asiti)","postal_code":98372},{"province":"Papua Barat","city":"Tambrauw","district":"Kebar","urban":"Nekori","postal_code":98372},{"province":"Papua Barat","city":"Tambrauw","district":"Senopi","urban":"Senopi","postal_code":98372},{"province":"Papua Barat","city":"Tambrauw","district":"Kebar","urban":"Injai","postal_code":98372},{"province":"Papua Barat","city":"Tambrauw","district":"Kebar","urban":"Jandurau","postal_code":98372},{"province":"Papua Barat","city":"Tambrauw","district":"Kebar","urban":"Inam","postal_code":98372},{"province":"Papua Barat","city":"Tambrauw","district":"Kebar","urban":"Inambuari","postal_code":98372},{"province":"Papua Barat","city":"Tambrauw","district":"Kebar","urban":"Ajami","postal_code":98372},{"province":"Papua Barat","city":"Tambrauw","district":"Kebar","urban":"Akmuri","postal_code":98372},{"province":"Papua Barat","city":"Tambrauw","district":"Kebar","urban":"Atai","postal_code":98372},{"province":"Papua Barat","city":"Tambrauw","district":"Senopi","urban":"Afrawi","postal_code":98372}]