[{"province":"Papua Barat","city":"Teluk Bintuni","district":"Moskona Timur","urban":"Sumuy (Sumui)","postal_code":98373},{"province":"Papua Barat","city":"Teluk Bintuni","district":"Moskona Utara","urban":"Moyeba","postal_code":98373},{"province":"Papua Barat","city":"Teluk Bintuni","district":"Biscoop","urban":"Mowitka","postal_code":98373},{"province":"Papua Barat","city":"Teluk Bintuni","district":"Moskona Utara","urban":"Mosum","postal_code":98373},{"province":"Papua Barat","city":"Teluk Bintuni","district":"Merdey","urban":"Morombuy","postal_code":98373},{"province":"Papua Barat","city":"Teluk Bintuni","district":"Merdey","urban":"Mogromus","postal_code":98373},{"province":"Papua Barat","city":"Teluk Bintuni","district":"Biscoop","urban":"Meyorga","postal_code":98373},{"province":"Papua Barat","city":"Teluk Bintuni","district":"Merdey","urban":"Meyom","postal_code":98373},{"province":"Papua Barat","city":"Teluk Bintuni","district":"Merdey","urban":"Meyetga","postal_code":98373},{"province":"Papua Barat","city":"Teluk Bintuni","district":"Masyeta","urban":"Mesomda","postal_code":98373},{"province":"Papua Barat","city":"Teluk Bintuni","district":"Moskona Timur","urban":"Mesna","postal_code":98373},{"province":"Papua Barat","city":"Teluk Bintuni","district":"Merdey","urban":"Meryeb","postal_code":98373},{"province":"Papua Barat","city":"Teluk Bintuni","district":"Moskona Utara","urban":"Merestim (Maristim)","postal_code":98373},{"province":"Papua Barat","city":"Teluk Bintuni","district":"Merdey","urban":"Merdey","postal_code":98373},{"province":"Papua Barat","city":"Teluk Bintuni","district":"Biscoop","urban":"Menyembrui (Menyembru)","postal_code":98373},{"province":"Papua Barat","city":"Teluk Bintuni","district":"Merdey","urban":"Mekiesefeb","postal_code":98373},{"province":"Papua Barat","city":"Teluk Bintuni","district":"Merdey","urban":"Menggerba","postal_code":98373},{"province":"Papua Barat","city":"Teluk Bintuni","district":"Masyeta","urban":"Masyeta","postal_code":98373},{"province":"Papua Barat","city":"Teluk Bintuni","district":"Masyeta","urban":"Maestofu (Mestofu)","postal_code":98373},{"province":"Papua Barat","city":"Teluk Bintuni","district":"Biscoop","urban":"Laudoho","postal_code":98373},{"province":"Papua Barat","city":"Teluk Bintuni","district":"Masyeta","urban":"Kalibiru","postal_code":98373},{"province":"Papua Barat","city":"Teluk Bintuni","district":"Biscoop","urban":"Jahabra","postal_code":98373},{"province":"Papua Barat","city":"Teluk Bintuni","district":"Moskona Utara","urban":"Inofina","postal_code":98373},{"province":"Papua Barat","city":"Teluk Bintuni","district":"Moskona Timur","urban":"Igomu","postal_code":98373},{"province":"Papua Barat","city":"Teluk Bintuni","district":"Biscoop","urban":"Ibori","postal_code":98373},{"province":"Papua Barat","city":"Teluk Bintuni","district":"Biscoop","urban":"Eniba","postal_code":98373},{"province":"Papua Barat","city":"Teluk Bintuni","district":"Merdey","urban":"Anajero","postal_code":98373}]