[{"province":"Papua Barat","city":"Tambrauw","district":"Mubrani","urban":"Wasnebri (Warsnembri/Wasnembri)","postal_code":98371},{"province":"Papua Barat","city":"Tambrauw","district":"Amberbaken","urban":"Wefiani","postal_code":98371},{"province":"Papua Barat","city":"Tambrauw","district":"Amberbaken","urban":"Wasarak","postal_code":98371},{"province":"Papua Barat","city":"Tambrauw","district":"Amberbaken","urban":"Soukorem (Saukorem)","postal_code":98371},{"province":"Papua Barat","city":"Tambrauw","district":"Mubrani","urban":"Waru","postal_code":98371},{"province":"Papua Barat","city":"Tambrauw","district":"Amberbaken","urban":"Sasuy (Sasui)","postal_code":98371},{"province":"Papua Barat","city":"Tambrauw","district":"Amberbaken","urban":"Serayo","postal_code":98371},{"province":"Papua Barat","city":"Tambrauw","district":"Mubrani","urban":"Meriambeke (Meriambeker)","postal_code":98371},{"province":"Papua Barat","city":"Tambrauw","district":"Amberbaken","urban":"Mangganek (Arupi)","postal_code":98371},{"province":"Papua Barat","city":"Tambrauw","district":"Amberbaken","urban":"Bondopi","postal_code":98371},{"province":"Papua Barat","city":"Tambrauw","district":"Mubrani","urban":"Atori","postal_code":98371},{"province":"Papua Barat","city":"Tambrauw","district":"Mubrani","urban":"Bawey","postal_code":98371},{"province":"Papua Barat","city":"Tambrauw","district":"Mubrani","urban":"Bijanfou (Bijamfou/Buanfou)","postal_code":98371},{"province":"Papua Barat","city":"Tambrauw","district":"Mubrani","urban":"Arfu","postal_code":98371}]