[{"province":"Papua Barat","city":"Sorong","district":"Moisegen","urban":"Wonosobo","postal_code":98451},{"province":"Papua Barat","city":"Sorong","district":"Mayamuk","urban":"Wen","postal_code":98451},{"province":"Papua Barat","city":"Sorong","district":"Salawati","urban":"Walal","postal_code":98451},{"province":"Papua Barat","city":"Sorong","district":"Moisegen","urban":"Ninjemur","postal_code":98451},{"province":"Papua Barat","city":"Sorong","district":"Salawati","urban":"Matawolot","postal_code":98451},{"province":"Papua Barat","city":"Sorong","district":"Salawati","urban":"Rawa Sugi","postal_code":98451},{"province":"Papua Barat","city":"Sorong","district":"Mayamuk","urban":"Makotyamsa","postal_code":98451},{"province":"Papua Barat","city":"Sorong","district":"Salawati","urban":"Malaus","postal_code":98451},{"province":"Papua Barat","city":"Sorong","district":"Mayamuk","urban":"Makbalim","postal_code":98451},{"province":"Papua Barat","city":"Sorong","district":"Mayamuk","urban":"Makbusun (Makbusum)","postal_code":98451},{"province":"Papua Barat","city":"Sorong","district":"Salawati","urban":"Majaran","postal_code":98451},{"province":"Papua Barat","city":"Sorong","district":"Salawati","urban":"Majener","postal_code":98451},{"province":"Papua Barat","city":"Sorong","district":"Moisegen","urban":"Klawoton","postal_code":98451},{"province":"Papua Barat","city":"Sorong","district":"Moisegen","urban":"Klasof","postal_code":98451},{"province":"Papua Barat","city":"Sorong","district":"Mayamuk","urban":"Klasmelek","postal_code":98451},{"province":"Papua Barat","city":"Sorong","district":"Moisegen","urban":"Klasarin","postal_code":98451},{"province":"Papua Barat","city":"Sorong","district":"Mayamuk","urban":"Klalin (Klain)","postal_code":98451},{"province":"Papua Barat","city":"Sorong","district":"Moisegen","urban":"Klafdalim","postal_code":98451},{"province":"Papua Barat","city":"Sorong","district":"Moisegen","urban":"Klaforo","postal_code":98451},{"province":"Papua Barat","city":"Sorong","district":"Salawati","urban":"Katinim","postal_code":98451},{"province":"Papua Barat","city":"Sorong","district":"Mayamuk","urban":"Arar","postal_code":98451},{"province":"Papua Barat","city":"Sorong","district":"Mayamuk","urban":"Jeflio (Yeflio/Yefilio)","postal_code":98451}]