[{"province":"Papua Barat","city":"Sorong","district":"Seget","urban":"Wasingsan","postal_code":98452},{"province":"Papua Barat","city":"Sorong","district":"Seget","urban":"Wayenkede","postal_code":98452},{"province":"Papua Barat","city":"Sorong","district":"Seget","urban":"Wajin","postal_code":98452},{"province":"Papua Barat","city":"Sorong","district":"Salawati Selatan","urban":"Waliam","postal_code":98452},{"province":"Papua Barat","city":"Sorong","district":"Segun","urban":"Segun","postal_code":98452},{"province":"Papua Barat","city":"Sorong","district":"Segun","urban":"Waimon","postal_code":98452},{"province":"Papua Barat","city":"Sorong","district":"Segun","urban":"Wainlabat","postal_code":98452},{"province":"Papua Barat","city":"Sorong","district":"Seget","urban":"Seget","postal_code":98452},{"province":"Papua Barat","city":"Sorong","district":"Salawati Selatan","urban":"Sakapul","postal_code":98452},{"province":"Papua Barat","city":"Sorong","district":"Salawati Selatan","urban":"Maralol","postal_code":98452},{"province":"Papua Barat","city":"Sorong","district":"Salawati Selatan","urban":"Sailolof","postal_code":98452},{"province":"Papua Barat","city":"Sorong","district":"Segun","urban":"Majemau","postal_code":98452},{"province":"Papua Barat","city":"Sorong","district":"Seget","urban":"Malabam (Malaban)","postal_code":98452},{"province":"Papua Barat","city":"Sorong","district":"Salawati Selatan","urban":"Manoket","postal_code":98452},{"province":"Papua Barat","city":"Sorong","district":"Segun","urban":"Klasigon (Klasegun)","postal_code":98452},{"province":"Papua Barat","city":"Sorong","district":"Seget","urban":"Klayas","postal_code":98452},{"province":"Papua Barat","city":"Sorong","district":"Seget","urban":"Kasimle","postal_code":98452},{"province":"Papua Barat","city":"Sorong","district":"Salawati Selatan","urban":"Katlol (Klotlof/Katlof)","postal_code":98452},{"province":"Papua Barat","city":"Sorong","district":"Seget","urban":"Kasim","postal_code":98452},{"province":"Papua Barat","city":"Sorong","district":"Segun","urban":"Gisim","postal_code":98452},{"province":"Papua Barat","city":"Sorong","district":"Salawati Selatan","urban":"Dulbatan","postal_code":98452},{"province":"Papua Barat","city":"Sorong","district":"Salawati Selatan","urban":"Duriankari","postal_code":98452}]