[{"province":"Papua Barat","city":"Sorong Selatan","district":"Sawiat","urban":"Wenslolo","postal_code":98456},{"province":"Papua Barat","city":"Sorong Selatan","district":"Sawiat","urban":"Wenslolo","postal_code":98456},{"province":"Papua Barat","city":"Sorong Selatan","district":"Sawiat","urban":"Wensough","postal_code":98456},{"province":"Papua Barat","city":"Sorong Selatan","district":"Fokour","urban":"Welek","postal_code":98456},{"province":"Papua Barat","city":"Sorong Selatan","district":"Sawiat","urban":"Wendi","postal_code":98456},{"province":"Papua Barat","city":"Sorong Selatan","district":"Sawiat","urban":"Ween","postal_code":98456},{"province":"Papua Barat","city":"Sorong Selatan","district":"Fokour","urban":"Wandum","postal_code":98456},{"province":"Papua Barat","city":"Sorong Selatan","district":"Sawiat","urban":"Sawiat","postal_code":98456},{"province":"Papua Barat","city":"Sorong Selatan","district":"Sawiat","urban":"Sfakyo","postal_code":98456},{"province":"Papua Barat","city":"Sorong Selatan","district":"Sawiat","urban":"Sodrofoyo","postal_code":98456},{"province":"Papua Barat","city":"Sorong Selatan","district":"Sawiat","urban":"Sasnek","postal_code":98456},{"province":"Papua Barat","city":"Sorong Selatan","district":"Fokour","urban":"Pasir Putih","postal_code":98456},{"province":"Papua Barat","city":"Sorong Selatan","district":"Sawiat","urban":"Mlabolo","postal_code":98456},{"province":"Papua Barat","city":"Sorong Selatan","district":"Sawiat","urban":"Kofalit","postal_code":98456},{"province":"Papua Barat","city":"Sorong Selatan","district":"Sawiat","urban":"Klamit","postal_code":98456},{"province":"Papua Barat","city":"Sorong Selatan","district":"Fokour","urban":"Bemus","postal_code":98456},{"province":"Papua Barat","city":"Sorong Selatan","district":"Sawiat","urban":"Elles","postal_code":98456},{"province":"Papua Barat","city":"Sorong Selatan","district":"Sawiat","urban":"Alma","postal_code":98456},{"province":"Papua Barat","city":"Sorong","district":"Klamono","urban":"Wariayau","postal_code":98456},{"province":"Papua Barat","city":"Sorong","district":"Klamono","urban":"Mlais","postal_code":98456},{"province":"Papua Barat","city":"Sorong","district":"Klamono","urban":"Malajapa","postal_code":98456},{"province":"Papua Barat","city":"Sorong","district":"Klamono","urban":"Malasigit","postal_code":98456},{"province":"Papua Barat","city":"Sorong","district":"Klamono","urban":"Klawana","postal_code":98456},{"province":"Papua Barat","city":"Sorong","district":"Klamono","urban":"Klamugun","postal_code":98456},{"province":"Papua Barat","city":"Sorong","district":"Klamono","urban":"Klasman","postal_code":98456},{"province":"Papua Barat","city":"Sorong","district":"Klamono","urban":"Klalomon","postal_code":98456},{"province":"Papua Barat","city":"Sorong","district":"Klamono","urban":"Klamano","postal_code":98456},{"province":"Papua Barat","city":"Sorong","district":"Klamono","urban":"Keladum","postal_code":98456},{"province":"Papua Barat","city":"Sorong","district":"Klamono","urban":"Klagulu","postal_code":98456},{"province":"Papua Barat","city":"Sorong","district":"Klamono","urban":"Gisim Darat","postal_code":98456}]