[{"province":"Papua Barat","city":"Sorong","district":"Beraur","urban":"Wisbiak","postal_code":98453},{"province":"Papua Barat","city":"Sorong","district":"Beraur","urban":"Wanurian","postal_code":98453},{"province":"Papua Barat","city":"Sorong","district":"Beraur","urban":"Wensi","postal_code":98453},{"province":"Papua Barat","city":"Sorong","district":"Klawak","urban":"Wilty","postal_code":98453},{"province":"Papua Barat","city":"Sorong","district":"Klawak","urban":"Tarsa","postal_code":98453},{"province":"Papua Barat","city":"Sorong","district":"Klawak","urban":"Totjin","postal_code":98453},{"province":"Papua Barat","city":"Sorong","district":"Klawak","urban":"Mlawen","postal_code":98453},{"province":"Papua Barat","city":"Sorong","district":"Klawak","urban":"Sas","postal_code":98453},{"province":"Papua Barat","city":"Sorong","district":"Klabot","urban":"Mlawes","postal_code":98453},{"province":"Papua Barat","city":"Sorong","district":"Beraur","urban":"Mumpi","postal_code":98453},{"province":"Papua Barat","city":"Sorong","district":"Klabot","urban":"Mlakhan","postal_code":98453},{"province":"Papua Barat","city":"Sorong","district":"Klabot","urban":"Mlat","postal_code":98453},{"province":"Papua Barat","city":"Sorong","district":"Klawak","urban":"Klamne","postal_code":98453},{"province":"Papua Barat","city":"Sorong","district":"Klabot","urban":"Mimpe","postal_code":98453},{"province":"Papua Barat","city":"Sorong","district":"Beraur","urban":"Klarion","postal_code":98453},{"province":"Papua Barat","city":"Sorong","district":"Klabot","urban":"Klais","postal_code":98453},{"province":"Papua Barat","city":"Sorong","district":"Beraur","urban":"Klabra","postal_code":98453},{"province":"Papua Barat","city":"Sorong","district":"Klabot","urban":"Klabot","postal_code":98453},{"province":"Papua Barat","city":"Sorong","district":"Beraur","urban":"Kaas","postal_code":98453},{"province":"Papua Barat","city":"Sorong","district":"Klawak","urban":"Hobard","postal_code":98453},{"province":"Papua Barat","city":"Sorong","district":"Klabot","urban":"Indiwi","postal_code":98453},{"province":"Papua Barat","city":"Sorong","district":"Klabot","urban":"Buk","postal_code":98453},{"province":"Papua Barat","city":"Sorong","district":"Beraur","urban":"Disfra","postal_code":98453},{"province":"Papua Barat","city":"Sorong","district":"Beraur","urban":"Bagung","postal_code":98453},{"province":"Papua Barat","city":"Sorong","district":"Klawak","urban":"Brianlo","postal_code":98453},{"province":"Papua Barat","city":"Sorong","district":"Klawak","urban":"Ayolokle","postal_code":98453}]