[{"province":"Papua Barat","city":"Sorong","district":"Aimas","urban":"Warmon","postal_code":98457},{"province":"Papua Barat","city":"Sorong","district":"Mariat","urban":"Mariyai","postal_code":98457},{"province":"Papua Barat","city":"Sorong","district":"Aimas","urban":"Mariat Pantai","postal_code":98457},{"province":"Papua Barat","city":"Sorong","district":"Aimas","urban":"Mariat Gunung","postal_code":98457},{"province":"Papua Barat","city":"Sorong","district":"Aimas","urban":"Malawele","postal_code":98457},{"province":"Papua Barat","city":"Sorong","district":"Aimas","urban":"Malawili","postal_code":98457},{"province":"Papua Barat","city":"Sorong","district":"Aimas","urban":"Maibo","postal_code":98457},{"province":"Papua Barat","city":"Sorong","district":"Aimas","urban":"Malasom","postal_code":98457},{"province":"Papua Barat","city":"Sorong","district":"Mariat","urban":"Klasukuk","postal_code":98457},{"province":"Papua Barat","city":"Sorong","district":"Mariat","urban":"Klamalu","postal_code":98457},{"province":"Papua Barat","city":"Sorong","district":"Mariat","urban":"Klamasen","postal_code":98457},{"province":"Papua Barat","city":"Sorong","district":"Aimas","urban":"Klabinain","postal_code":98457},{"province":"Papua Barat","city":"Sorong","district":"Aimas","urban":"Klaigit","postal_code":98457},{"province":"Papua Barat","city":"Sorong","district":"Aimas","urban":"Aimas","postal_code":98457},{"province":"Papua Barat","city":"Sorong","district":"Mariat","urban":"Klaben","postal_code":98457}]