[{"province":"Papua Barat","city":"Sorong Selatan","district":"Teminabuan","urban":"Wersar","postal_code":98454},{"province":"Papua Barat","city":"Sorong Selatan","district":"Seremuk","urban":"Woloin","postal_code":98454},{"province":"Papua Barat","city":"Sorong Selatan","district":"Teminabuan","urban":"Wernas","postal_code":98454},{"province":"Papua Barat","city":"Sorong Selatan","district":"Teminabuan","urban":"Wehali","postal_code":98454},{"province":"Papua Barat","city":"Sorong Selatan","district":"Teminabuan","urban":"Wermit","postal_code":98454},{"province":"Papua Barat","city":"Sorong Selatan","district":"Wayer","urban":"Wayer","postal_code":98454},{"province":"Papua Barat","city":"Sorong Selatan","district":"Konda","urban":"Wamargege","postal_code":98454},{"province":"Papua Barat","city":"Sorong Selatan","district":"Wayer","urban":"Wardik","postal_code":98454},{"province":"Papua Barat","city":"Sorong Selatan","district":"Wayer","urban":"Ungi (unggi)","postal_code":98454},{"province":"Papua Barat","city":"Sorong Selatan","district":"Wayer","urban":"Waigo","postal_code":98454},{"province":"Papua Barat","city":"Sorong Selatan","district":"Moswaren","urban":"Tokass","postal_code":98454},{"province":"Papua Barat","city":"Sorong Selatan","district":"Seremuk","urban":"Tofot","postal_code":98454},{"province":"Papua Barat","city":"Sorong Selatan","district":"Teminabuan","urban":"Tapiri","postal_code":98454},{"province":"Papua Barat","city":"Sorong Selatan","district":"Teminabuan","urban":"Tegirolo","postal_code":98454},{"province":"Papua Barat","city":"Sorong Selatan","district":"Wayer","urban":"Sungguer","postal_code":98454},{"province":"Papua Barat","city":"Sorong Selatan","district":"Seremuk","urban":"Srer","postal_code":98454},{"province":"Papua Barat","city":"Sorong Selatan","district":"Saifi","urban":"Sisir","postal_code":98454},{"province":"Papua Barat","city":"Sorong Selatan","district":"Teminabuan","urban":"Seyolo","postal_code":98454},{"province":"Papua Barat","city":"Sorong Selatan","district":"Teminabuan","urban":"Siribau","postal_code":98454},{"province":"Papua Barat","city":"Sorong Selatan","district":"Teminabuan","urban":"Siribau","postal_code":98454},{"province":"Papua Barat","city":"Sorong Selatan","district":"Wayer","urban":"Sesor","postal_code":98454},{"province":"Papua Barat","city":"Sorong Selatan","district":"Seremuk","urban":"Sbir","postal_code":98454},{"province":"Papua Barat","city":"Sorong Selatan","district":"Saifi","urban":"Sayal","postal_code":98454},{"province":"Papua Barat","city":"Sorong Selatan","district":"Teminabuan","urban":"Nambro","postal_code":98454},{"province":"Papua Barat","city":"Sorong Selatan","district":"Konda","urban":"Nagna","postal_code":98454},{"province":"Papua Barat","city":"Sorong Selatan","district":"Moswaren","urban":"Moswaren","postal_code":98454},{"province":"Papua Barat","city":"Sorong Selatan","district":"Saifi","urban":"Mlaswat","postal_code":98454},{"province":"Papua Barat","city":"Sorong Selatan","district":"Saifi","urban":"Manggroholo","postal_code":98454},{"province":"Papua Barat","city":"Sorong Selatan","district":"Konda","urban":"Manelek","postal_code":98454},{"province":"Papua Barat","city":"Sorong Selatan","district":"Saifi","urban":"Kwowok","postal_code":98454},{"province":"Papua Barat","city":"Sorong Selatan","district":"Teminabuan","urban":"Magis","postal_code":98454},{"province":"Papua Barat","city":"Sorong Selatan","district":"Konda","urban":"Konda","postal_code":98454},{"province":"Papua Barat","city":"Sorong Selatan","district":"Saifi","urban":"Komanggaret","postal_code":98454},{"province":"Papua Barat","city":"Sorong Selatan","district":"Seremuk","urban":"Klaogin","postal_code":98454},{"province":"Papua Barat","city":"Sorong Selatan","district":"Teminabuan","urban":"Keyen","postal_code":98454},{"province":"Papua Barat","city":"Sorong Selatan","district":"Teminabuan","urban":"Kohoin","postal_code":98454},{"province":"Papua Barat","city":"Sorong Selatan","district":"Saifi","urban":"Kayabo","postal_code":98454},{"province":"Papua Barat","city":"Sorong Selatan","district":"Saifi","urban":"Kenaya","postal_code":98454},{"province":"Papua Barat","city":"Sorong Selatan","district":"Moswaren","urban":"Kamisabe","postal_code":98454},{"province":"Papua Barat","city":"Sorong Selatan","district":"Moswaren","urban":"Kamisabe","postal_code":98454},{"province":"Papua Barat","city":"Sorong Selatan","district":"Teminabuan","urban":"Kaibus","postal_code":98454},{"province":"Papua Barat","city":"Sorong Selatan","district":"Moswaren","urban":"Joshiro","postal_code":98454},{"province":"Papua Barat","city":"Sorong Selatan","district":"Seremuk","urban":"Kakas","postal_code":98454},{"province":"Papua Barat","city":"Sorong Selatan","district":"Moswaren","urban":"Hararo","postal_code":98454},{"province":"Papua Barat","city":"Sorong Selatan","district":"Moswaren","urban":"Hasik Jaya","postal_code":98454},{"province":"Papua Barat","city":"Sorong Selatan","district":"Teminabuan","urban":"Gorolo","postal_code":98454},{"province":"Papua Barat","city":"Sorong Selatan","district":"Seremuk","urban":"Haha","postal_code":98454},{"province":"Papua Barat","city":"Sorong Selatan","district":"Moswaren","urban":"Bumi Ajo","postal_code":98454},{"province":"Papua Barat","city":"Sorong Selatan","district":"Saifi","urban":"Botain","postal_code":98454},{"province":"Papua Barat","city":"Sorong Selatan","district":"Wayer","urban":"Baldon (Boldon)","postal_code":98454},{"province":"Papua Barat","city":"Sorong Selatan","district":"Konda","urban":"Bariat","postal_code":98454},{"province":"Papua Barat","city":"Sorong Selatan","district":"Wayer","urban":"Bagraga (Bagaraga)","postal_code":98454},{"province":"Papua Barat","city":"Sorong Selatan","district":"Teminabuan","urban":"Aibobor","postal_code":98454},{"province":"Papua Barat","city":"Sorong Selatan","district":"Teminabuan","urban":"Ani Sesna","postal_code":98454}]