[{"province":"Papua Barat","city":"Sorong Selatan","district":"Kais (Matemani Kais)","urban":"Yahadian","postal_code":98455},{"province":"Papua Barat","city":"Sorong Selatan","district":"Inanwatan (Inawatan)","urban":"Wadoi","postal_code":98455},{"province":"Papua Barat","city":"Sorong Selatan","district":"Kokoda Utara","urban":"Udagaga","postal_code":98455},{"province":"Papua Barat","city":"Sorong Selatan","district":"Matemani","urban":"Tawanggire","postal_code":98455},{"province":"Papua Barat","city":"Sorong Selatan","district":"Kokoda","urban":"Topdan","postal_code":98455},{"province":"Papua Barat","city":"Sorong Selatan","district":"Kokoda","urban":"Totona","postal_code":98455},{"province":"Papua Barat","city":"Sorong Selatan","district":"Kokoda","urban":"Tarof","postal_code":98455},{"province":"Papua Barat","city":"Sorong Selatan","district":"Kais (Matemani Kais)","urban":"Tapuri","postal_code":98455},{"province":"Papua Barat","city":"Sorong Selatan","district":"Kokoda","urban":"Tambani","postal_code":98455},{"province":"Papua Barat","city":"Sorong Selatan","district":"Kokoda","urban":"Tapas","postal_code":98455},{"province":"Papua Barat","city":"Sorong Selatan","district":"Inanwatan (Inawatan)","urban":"Solta Baru","postal_code":98455},{"province":"Papua Barat","city":"Sorong Selatan","district":"Kais (Matemani Kais)","urban":"Sumano","postal_code":98455},{"province":"Papua Barat","city":"Sorong Selatan","district":"Kokoda","urban":"Siwatori","postal_code":98455},{"province":"Papua Barat","city":"Sorong Selatan","district":"Inanwatan (Inawatan)","urban":"Siri-siri","postal_code":98455},{"province":"Papua Barat","city":"Sorong Selatan","district":"Kais (Matemani Kais)","urban":"Siranggo","postal_code":98455},{"province":"Papua Barat","city":"Sorong Selatan","district":"Inanwatan (Inawatan)","urban":"Serkos","postal_code":98455},{"province":"Papua Barat","city":"Sorong Selatan","district":"Inanwatan (Inawatan)","urban":"Sibae","postal_code":98455},{"province":"Papua Barat","city":"Sorong Selatan","district":"Matemani","urban":"Puragi","postal_code":98455},{"province":"Papua Barat","city":"Sorong Selatan","district":"Matemani","urban":"Saga","postal_code":98455},{"province":"Papua Barat","city":"Sorong Selatan","district":"Inanwatan (Inawatan)","urban":"Odeare","postal_code":98455},{"province":"Papua Barat","city":"Sorong Selatan","district":"Kais (Matemani Kais)","urban":"Onimsefa","postal_code":98455},{"province":"Papua Barat","city":"Sorong Selatan","district":"Matemani","urban":"Nusa","postal_code":98455},{"province":"Papua Barat","city":"Sorong Selatan","district":"Kokoda","urban":"Negeri Besar","postal_code":98455},{"province":"Papua Barat","city":"Sorong Selatan","district":"Kokoda","urban":"Nayakore","postal_code":98455},{"province":"Papua Barat","city":"Sorong Selatan","district":"Kais (Matemani Kais)","urban":"Mukamat","postal_code":98455},{"province":"Papua Barat","city":"Sorong Selatan","district":"Matemani","urban":"Mugim","postal_code":98455},{"province":"Papua Barat","city":"Sorong Selatan","district":"Kais (Matemani Kais)","urban":"Mogotemin (Mogatemin)","postal_code":98455},{"province":"Papua Barat","city":"Sorong Selatan","district":"Inanwatan (Inawatan)","urban":"Mogibi","postal_code":98455},{"province":"Papua Barat","city":"Sorong Selatan","district":"Kokoda","urban":"Migrito","postal_code":98455},{"province":"Papua Barat","city":"Sorong Selatan","district":"Kokoda","urban":"Migori","postal_code":98455},{"province":"Papua Barat","city":"Sorong Selatan","district":"Inanwatan (Inawatan)","urban":"Mate","postal_code":98455},{"province":"Papua Barat","city":"Sorong Selatan","district":"Inanwatan (Inawatan)","urban":"Mate","postal_code":98455},{"province":"Papua Barat","city":"Sorong Selatan","district":"Kokoda","urban":"Korewatara","postal_code":98455},{"province":"Papua Barat","city":"Sorong Selatan","district":"Kokoda Utara","urban":"Kayubiro","postal_code":98455},{"province":"Papua Barat","city":"Sorong Selatan","district":"Kokoda","urban":"Kasuweri","postal_code":98455},{"province":"Papua Barat","city":"Sorong Selatan","district":"Kokoda Utara","urban":"Kamundan Satu","postal_code":98455},{"province":"Papua Barat","city":"Sorong Selatan","district":"Kokoda Utara","urban":"Karirif","postal_code":98455},{"province":"Papua Barat","city":"Sorong Selatan","district":"Kais (Matemani Kais)","urban":"Kais","postal_code":98455},{"province":"Papua Barat","city":"Sorong Selatan","district":"Kokoda Utara","urban":"Kamundan Dua","postal_code":98455},{"province":"Papua Barat","city":"Sorong Selatan","district":"Inanwatan (Inawatan)","urban":"Isogo","postal_code":98455},{"province":"Papua Barat","city":"Sorong Selatan","district":"Kais (Matemani Kais)","urban":"Haemaran (Kurana)","postal_code":98455},{"province":"Papua Barat","city":"Sorong Selatan","district":"Kais (Matemani Kais)","urban":"Ikana","postal_code":98455},{"province":"Papua Barat","city":"Sorong Selatan","district":"Kokoda Utara","urban":"Bubuko","postal_code":98455},{"province":"Papua Barat","city":"Sorong Selatan","district":"Kokoda","urban":"Daimar","postal_code":98455},{"province":"Papua Barat","city":"Sorong Selatan","district":"Kokoda","urban":"Daubak","postal_code":98455},{"province":"Papua Barat","city":"Sorong Selatan","district":"Kokoda Utara","urban":"Benawa II","postal_code":98455},{"province":"Papua Barat","city":"Sorong Selatan","district":"Kokoda","urban":"Birawaku","postal_code":98455},{"province":"Papua Barat","city":"Sorong Selatan","district":"Matemani","urban":"Bedare","postal_code":98455},{"province":"Papua Barat","city":"Sorong Selatan","district":"Kais (Matemani Kais)","urban":"Benawa I","postal_code":98455},{"province":"Papua Barat","city":"Sorong Selatan","district":"Kokoda","urban":"Arbasina","postal_code":98455},{"province":"Papua Barat","city":"Sorong Selatan","district":"Kokoda Utara","urban":"Atori","postal_code":98455},{"province":"Papua Barat","city":"Sorong Selatan","district":"Kokoda Utara","urban":"Adona","postal_code":98455}]