[{"province":"Papua Barat","city":"Maybrat","district":"Aitinyo Raya","urban":"Yumame","postal_code":98462},{"province":"Papua Barat","city":"Maybrat","district":"Aitinyo Tengah","urban":"Wrait U","postal_code":98462},{"province":"Papua Barat","city":"Maybrat","district":"Aitinyo Tengah","urban":"Yaksoro","postal_code":98462},{"province":"Papua Barat","city":"Maybrat","district":"Aitinyo","urban":"Wiho","postal_code":98462},{"province":"Papua Barat","city":"Maybrat","district":"Aitinyo Barat","urban":"Waybomatah","postal_code":98462},{"province":"Papua Barat","city":"Maybrat","district":"Aitinyo Tengah","urban":"Tohmri","postal_code":98462},{"province":"Papua Barat","city":"Maybrat","district":"Aitinyo Tengah","urban":"Way U","postal_code":98462},{"province":"Papua Barat","city":"Maybrat","district":"Aitinyo Utara","urban":"Tehak Tee","postal_code":98462},{"province":"Papua Barat","city":"Maybrat","district":"Aitinyo","urban":"Tehak Kecil","postal_code":98462},{"province":"Papua Barat","city":"Maybrat","district":"Aitinyo Utara","urban":"Tehak Besar","postal_code":98462},{"province":"Papua Barat","city":"Maybrat","district":"Aitinyo","urban":"Sumanis","postal_code":98462},{"province":"Papua Barat","city":"Maybrat","district":"Aitinyo Utara","urban":"Subrit","postal_code":98462},{"province":"Papua Barat","city":"Maybrat","district":"Aitinyo","urban":"Subin","postal_code":98462},{"province":"Papua Barat","city":"Maybrat","district":"Aitinyo","urban":"Sris","postal_code":98462},{"province":"Papua Barat","city":"Maybrat","district":"Aitinyo Raya","urban":"Srirtabam","postal_code":98462},{"province":"Papua Barat","city":"Maybrat","district":"Aitinyo","urban":"Sowai Sau","postal_code":98462},{"province":"Papua Barat","city":"Maybrat","district":"Aitinyo Barat","urban":"Siyo","postal_code":98462},{"province":"Papua Barat","city":"Maybrat","district":"Aitinyo Tengah","urban":"Sira Tee","postal_code":98462},{"province":"Papua Barat","city":"Maybrat","district":"Aitinyo","urban":"Sira Aya","postal_code":98462},{"province":"Papua Barat","city":"Maybrat","district":"Aitinyo Raya","urban":"Sarimo","postal_code":98462},{"province":"Papua Barat","city":"Maybrat","district":"Aitinyo Tengah","urban":"Sira","postal_code":98462},{"province":"Papua Barat","city":"Maybrat","district":"Aitinyo Tengah","urban":"Sabun","postal_code":98462},{"province":"Papua Barat","city":"Maybrat","district":"Aitinyo Utara","urban":"Mirafan","postal_code":98462},{"province":"Papua Barat","city":"Maybrat","district":"Aitinyo","urban":"Korom","postal_code":98462},{"province":"Papua Barat","city":"Maybrat","district":"Aitinyo","urban":"Karsu","postal_code":98462},{"province":"Papua Barat","city":"Maybrat","district":"Aitinyo","urban":"Kamro Selatan","postal_code":98462},{"province":"Papua Barat","city":"Maybrat","district":"Aitinyo","urban":"Kamro","postal_code":98462},{"province":"Papua Barat","city":"Maybrat","district":"Aitinyo Barat","urban":"Kambufatem Utara","postal_code":98462},{"province":"Papua Barat","city":"Maybrat","district":"Aitinyo Raya","urban":"Kambusabo","postal_code":98462},{"province":"Papua Barat","city":"Maybrat","district":"Aitinyo Barat","urban":"Kambufatem","postal_code":98462},{"province":"Papua Barat","city":"Maybrat","district":"Aitinyo Raya","urban":"Jitmau Timur","postal_code":98462},{"province":"Papua Barat","city":"Maybrat","district":"Aitinyo Raya","urban":"Jitmau","postal_code":98462},{"province":"Papua Barat","city":"Maybrat","district":"Aitinyo Tengah","urban":"Itigah","postal_code":98462},{"province":"Papua Barat","city":"Maybrat","district":"Aitinyo Raya","urban":"Isir","postal_code":98462},{"province":"Papua Barat","city":"Maybrat","district":"Aitinyo","urban":"Irohmrar","postal_code":98462},{"province":"Papua Barat","city":"Maybrat","district":"Aitinyo Utara","urban":"Inta","postal_code":98462},{"province":"Papua Barat","city":"Maybrat","district":"Aitinyo Tengah","urban":"Iroh Sohser","postal_code":98462},{"province":"Papua Barat","city":"Maybrat","district":"Aitinyo Raya","urban":"Ikuf Utara","postal_code":98462},{"province":"Papua Barat","city":"Maybrat","district":"Aitinyo Raya","urban":"Ikuf","postal_code":98462},{"province":"Papua Barat","city":"Maybrat","district":"Aitinyo","urban":"Ihore","postal_code":98462},{"province":"Papua Barat","city":"Maybrat","district":"Aitinyo","urban":"Ibasuf","postal_code":98462},{"province":"Papua Barat","city":"Maybrat","district":"Aitinyo Barat","urban":"Hosyo Ata","postal_code":98462},{"province":"Papua Barat","city":"Maybrat","district":"Aitinyo Utara","urban":"Gohsames","postal_code":98462},{"province":"Papua Barat","city":"Maybrat","district":"Aitinyo Barat","urban":"Hasweh","postal_code":98462},{"province":"Papua Barat","city":"Maybrat","district":"Aitinyo Tengah","urban":"Framboh","postal_code":98462},{"province":"Papua Barat","city":"Maybrat","district":"Aitinyo Utara","urban":"Fategomi","postal_code":98462},{"province":"Papua Barat","city":"Maybrat","district":"Aitinyo Utara","urban":"Framafir","postal_code":98462},{"province":"Papua Barat","city":"Maybrat","district":"Aitinyo Barat","urban":"Fatem","postal_code":98462},{"province":"Papua Barat","city":"Maybrat","district":"Aitinyo Barat","urban":"Fatase","postal_code":98462},{"province":"Papua Barat","city":"Maybrat","district":"Aitinyo Raya","urban":"Faithowes","postal_code":98462},{"province":"Papua Barat","city":"Maybrat","district":"Aitinyo Utara","urban":"Fan","postal_code":98462},{"province":"Papua Barat","city":"Maybrat","district":"Aitinyo Tengah","urban":"Eway","postal_code":98462},{"province":"Papua Barat","city":"Maybrat","district":"Aitinyo Tengah","urban":"Erokwero","postal_code":98462},{"province":"Papua Barat","city":"Maybrat","district":"Aitinyo Utara","urban":"Bohwat","postal_code":98462},{"province":"Papua Barat","city":"Maybrat","district":"Aitinyo Tengah","urban":"Awit","postal_code":98462},{"province":"Papua Barat","city":"Maybrat","district":"Aitinyo","urban":"Bofait","postal_code":98462},{"province":"Papua Barat","city":"Maybrat","district":"Aitinyo Tengah","urban":"Asnaif","postal_code":98462},{"province":"Papua Barat","city":"Maybrat","district":"Aitinyo Utara","urban":"Asmuruf Tee","postal_code":98462},{"province":"Papua Barat","city":"Maybrat","district":"Aitinyo Utara","urban":"Asmuruf U","postal_code":98462},{"province":"Papua Barat","city":"Maybrat","district":"Aitinyo","urban":"Afkrem","postal_code":98462},{"province":"Papua Barat","city":"Maybrat","district":"Aitinyo","urban":"Aitinyo","postal_code":98462}]