[{"province":"Papua Barat","city":"Maybrat","district":"Ayamaru Jaya","urban":"Woman","postal_code":98461},{"province":"Papua Barat","city":"Maybrat","district":"Ayamaru Tengah","urban":"Yohwer","postal_code":98461},{"province":"Papua Barat","city":"Maybrat","district":"Mare Selatan","urban":"Waren I","postal_code":98461},{"province":"Papua Barat","city":"Maybrat","district":"Mare Selatan","urban":"Waren II","postal_code":98461},{"province":"Papua Barat","city":"Maybrat","district":"Ayamaru Jaya","urban":"Warbo","postal_code":98461},{"province":"Papua Barat","city":"Maybrat","district":"Mare","urban":"Wabam","postal_code":98461},{"province":"Papua Barat","city":"Maybrat","district":"Mare Selatan","urban":"Uri","postal_code":98461},{"province":"Papua Barat","city":"Maybrat","district":"Ayamaru Tengah","urban":"Tut","postal_code":98461},{"province":"Papua Barat","city":"Maybrat","district":"Ayamaru","urban":"Tuso","postal_code":98461},{"province":"Papua Barat","city":"Maybrat","district":"Ayamaru","urban":"Twer","postal_code":98461},{"province":"Papua Barat","city":"Maybrat","district":"Ayamaru Utara Timur","urban":"Tomase","postal_code":98461},{"province":"Papua Barat","city":"Maybrat","district":"Ayamaru Utara","urban":"Tehak Tee","postal_code":98461},{"province":"Papua Barat","city":"Maybrat","district":"Ayamaru Jaya","urban":"Temel","postal_code":98461},{"province":"Papua Barat","city":"Maybrat","district":"Ayamaru Utara Timur","urban":"Suwiam","postal_code":98461},{"province":"Papua Barat","city":"Maybrat","district":"Ayamaru Utara","urban":"Tehak Besar","postal_code":98461},{"province":"Papua Barat","city":"Maybrat","district":"Ayamaru Barat","urban":"Tbo","postal_code":98461},{"province":"Papua Barat","city":"Maybrat","district":"Mare","urban":"Suswa","postal_code":98461},{"province":"Papua Barat","city":"Maybrat","district":"Ayamaru Selatan Jaya","urban":"Sufu","postal_code":98461},{"province":"Papua Barat","city":"Maybrat","district":"Ayamaru Utara","urban":"Subrit","postal_code":98461},{"province":"Papua Barat","city":"Maybrat","district":"Ayamaru Jaya","urban":"Sosian","postal_code":98461},{"province":"Papua Barat","city":"Maybrat","district":"Ayamaru","urban":"Smusuwioh","postal_code":98461},{"province":"Papua Barat","city":"Maybrat","district":"Ayamaru Jaya","urban":"Soan","postal_code":98461},{"province":"Papua Barat","city":"Maybrat","district":"Ayamaru Barat","urban":"Sorowan","postal_code":98461},{"province":"Papua Barat","city":"Maybrat","district":"Ayamaru Timur Selatan","urban":"Sipat","postal_code":98461},{"province":"Papua Barat","city":"Maybrat","district":"Ayamaru Selatan","urban":"Simiyah","postal_code":98461},{"province":"Papua Barat","city":"Maybrat","district":"Ayamaru Barat","urban":"Sien","postal_code":98461},{"province":"Papua Barat","city":"Maybrat","district":"Ayamaru Selatan","urban":"Sfarare","postal_code":98461},{"province":"Papua Barat","city":"Maybrat","district":"Ayamaru Barat","urban":"Sfacko","postal_code":98461},{"province":"Papua Barat","city":"Maybrat","district":"Ayamaru Barat","urban":"Sfakraka","postal_code":98461},{"province":"Papua Barat","city":"Maybrat","district":"Ayamaru Selatan","urban":"Seneh","postal_code":98461},{"province":"Papua Barat","city":"Maybrat","district":"Mare","urban":"Seya","postal_code":98461},{"province":"Papua Barat","city":"Maybrat","district":"Ayamaru Selatan","urban":"Sembaro","postal_code":98461},{"province":"Papua Barat","city":"Maybrat","district":"Ayamaru Tengah","urban":"Semu","postal_code":98461},{"province":"Papua Barat","city":"Maybrat","district":"Ayamaru Timur","urban":"Sefayit","postal_code":98461},{"province":"Papua Barat","city":"Maybrat","district":"Ayamaru Barat","urban":"Sehu","postal_code":98461},{"province":"Papua Barat","city":"Maybrat","district":"Ayamaru Jaya","urban":"Segior","postal_code":98461},{"province":"Papua Barat","city":"Maybrat","district":"Mare Selatan","urban":"Sawara Jaya","postal_code":98461},{"province":"Papua Barat","city":"Maybrat","district":"Mare","urban":"Sawo","postal_code":98461},{"province":"Papua Barat","city":"Maybrat","district":"Mare Selatan","urban":"Sarafambai","postal_code":98461},{"province":"Papua Barat","city":"Maybrat","district":"Ayamaru Selatan","urban":"Sauf","postal_code":98461},{"province":"Papua Barat","city":"Maybrat","district":"Ayamaru Selatan","urban":"Sagrim","postal_code":98461},{"province":"Papua Barat","city":"Maybrat","district":"Ayamaru Tengah","urban":"Rindu","postal_code":98461},{"province":"Papua Barat","city":"Maybrat","district":"Ayamaru Selatan","urban":"Sagrim","postal_code":98461},{"province":"Papua Barat","city":"Maybrat","district":"Ayamaru Jaya","urban":"Orsu","postal_code":98461},{"province":"Papua Barat","city":"Maybrat","district":"Ayamaru Jaya","urban":"Rawas","postal_code":98461},{"province":"Papua Barat","city":"Maybrat","district":"Ayamaru Jaya","urban":"Orain","postal_code":98461},{"province":"Papua Barat","city":"Maybrat","district":"Mare Selatan","urban":"Nonomi","postal_code":98461},{"province":"Papua Barat","city":"Maybrat","district":"Mare Selatan","urban":"Mopi","postal_code":98461},{"province":"Papua Barat","city":"Maybrat","district":"Mare","urban":"Nafasi","postal_code":98461},{"province":"Papua Barat","city":"Maybrat","district":"Ayamaru Tengah","urban":"Men","postal_code":98461},{"province":"Papua Barat","city":"Maybrat","district":"Ayamaru Utara","urban":"Mirafan","postal_code":98461},{"province":"Papua Barat","city":"Maybrat","district":"Ayamaru Utara Timur","urban":"Mapura","postal_code":98461},{"province":"Papua Barat","city":"Maybrat","district":"Ayamaru","urban":"Mefkajim II","postal_code":98461},{"province":"Papua Barat","city":"Maybrat","district":"Ayamaru Selatan","urban":"Lemauk Klit","postal_code":98461},{"province":"Papua Barat","city":"Maybrat","district":"Ayamaru Timur Selatan","urban":"Mano","postal_code":98461},{"province":"Papua Barat","city":"Maybrat","district":"Mare","urban":"Mahos","postal_code":98461},{"province":"Papua Barat","city":"Maybrat","district":"Ayamaru Utara Timur","urban":"Kona","postal_code":98461},{"province":"Papua Barat","city":"Maybrat","district":"Ayamaru Utara Timur","urban":"Kosah","postal_code":98461},{"province":"Papua Barat","city":"Maybrat","district":"Ayamaru Selatan","urban":"Koma Koma","postal_code":98461},{"province":"Papua Barat","city":"Maybrat","district":"Mare","urban":"Kombif","postal_code":98461},{"province":"Papua Barat","city":"Maybrat","district":"Ayamaru Selatan Jaya","urban":"Kofait","postal_code":98461},{"province":"Papua Barat","city":"Maybrat","district":"Ayamaru Tengah","urban":"Kartapura","postal_code":98461},{"province":"Papua Barat","city":"Maybrat","district":"Ayamaru Timur","urban":"Keyum","postal_code":98461},{"province":"Papua Barat","city":"Maybrat","district":"Ayamaru Utara Timur","urban":"Karfa","postal_code":98461},{"province":"Papua Barat","city":"Maybrat","district":"Ayamaru Selatan","urban":"Kanisabar","postal_code":98461},{"province":"Papua Barat","city":"Maybrat","district":"Ayamaru Timur Selatan","urban":"Kambuskato Utara","postal_code":98461},{"province":"Papua Barat","city":"Maybrat","district":"Mare Selatan","urban":"Kanggilo","postal_code":98461},{"province":"Papua Barat","city":"Maybrat","district":"Ayamaru Timur Selatan","urban":"Kambuifa","postal_code":98461},{"province":"Papua Barat","city":"Maybrat","district":"Ayamaru Timur Selatan","urban":"Kambuskato","postal_code":98461},{"province":"Papua Barat","city":"Maybrat","district":"Ayamaru Timur","urban":"Kambuaya","postal_code":98461},{"province":"Papua Barat","city":"Maybrat","district":"Ayamaru Selatan Jaya","urban":"Isnum","postal_code":98461},{"province":"Papua Barat","city":"Maybrat","district":"Ayamaru Timur Selatan","urban":"Isusu","postal_code":98461},{"province":"Papua Barat","city":"Maybrat","district":"Ayamaru Tengah","urban":"Isme","postal_code":98461},{"province":"Papua Barat","city":"Maybrat","district":"Ayamaru Timur","urban":"Ismayu","postal_code":98461},{"province":"Papua Barat","city":"Maybrat","district":"Ayamaru Timur","urban":"Insas","postal_code":98461},{"province":"Papua Barat","city":"Maybrat","district":"Ayamaru Utara","urban":"Inta","postal_code":98461},{"province":"Papua Barat","city":"Maybrat","district":"Ayamaru Tengah","urban":"Hufioh","postal_code":98461},{"province":"Papua Barat","city":"Maybrat","district":"Ayamaru Timur","urban":"Huberita","postal_code":98461},{"province":"Papua Barat","city":"Maybrat","district":"Ayamaru Utara","urban":"Gohsames","postal_code":98461},{"province":"Papua Barat","city":"Maybrat","district":"Ayamaru Selatan","urban":"Hawioh","postal_code":98461},{"province":"Papua Barat","city":"Maybrat","district":"Ayamaru","urban":"Framu","postal_code":98461},{"province":"Papua Barat","city":"Maybrat","district":"Ayamaru Utara","urban":"Framafir","postal_code":98461},{"province":"Papua Barat","city":"Maybrat","district":"Ayamaru Utara Timur","urban":"Frabo","postal_code":98461},{"province":"Papua Barat","city":"Maybrat","district":"Ayamaru","urban":"Fraharo","postal_code":98461},{"province":"Papua Barat","city":"Maybrat","district":"Ayamaru Tengah","urban":"Fiane","postal_code":98461},{"province":"Papua Barat","city":"Maybrat","district":"Ayamaru Utara","urban":"Fategomi","postal_code":98461},{"province":"Papua Barat","city":"Maybrat","district":"Ayamaru Barat","urban":"Fanse","postal_code":98461},{"province":"Papua Barat","city":"Maybrat","district":"Ayamaru Utara","urban":"Fan","postal_code":98461},{"province":"Papua Barat","city":"Maybrat","district":"Ayamaru Timur Selatan","urban":"Faitwosur","postal_code":98461},{"province":"Papua Barat","city":"Maybrat","district":"Ayamaru Selatan Jaya","urban":"Faitsimar","postal_code":98461},{"province":"Papua Barat","city":"Maybrat","district":"Ayamaru Timur","urban":"Faitsiur","postal_code":98461},{"province":"Papua Barat","city":"Maybrat","district":"Ayamaru Timur","urban":"Faitmajin","postal_code":98461},{"province":"Papua Barat","city":"Maybrat","district":"Ayamaru Selatan Jaya","urban":"Fait Nggre","postal_code":98461},{"province":"Papua Barat","city":"Maybrat","district":"Ayamaru Barat","urban":"Chaliat","postal_code":98461},{"province":"Papua Barat","city":"Maybrat","district":"Ayamaru Utara","urban":"Bohwat","postal_code":98461},{"province":"Papua Barat","city":"Maybrat","district":"Ayamaru Tengah","urban":"Bawy","postal_code":98461},{"province":"Papua Barat","city":"Maybrat","district":"Mare Selatan","urban":"Batu Zaman","postal_code":98461},{"province":"Papua Barat","city":"Maybrat","district":"Mare","urban":"Bakrabi","postal_code":98461},{"province":"Papua Barat","city":"Maybrat","district":"Ayamaru","urban":"Ayamaru","postal_code":98461},{"province":"Papua Barat","city":"Maybrat","district":"Ayamaru Selatan Jaya","urban":"Asses","postal_code":98461},{"province":"Papua Barat","city":"Maybrat","district":"Ayamaru Utara","urban":"Asmuruf U","postal_code":98461},{"province":"Papua Barat","city":"Maybrat","district":"Ayamaru Utara","urban":"Asmuruf Tee","postal_code":98461},{"province":"Papua Barat","city":"Maybrat","district":"Ayamaru Selatan Jaya","urban":"Arus","postal_code":98461},{"province":"Papua Barat","city":"Maybrat","district":"Ayamaru","urban":"Afes","postal_code":98461},{"province":"Papua Barat","city":"Maybrat","district":"Ayamaru Jaya","urban":"Adoh","postal_code":98461}]