[{"province":"Papua Barat","city":"Maybrat","district":"Aifat Selatan","urban":"Yeek","postal_code":98463},{"province":"Papua Barat","city":"Maybrat","district":"Aifat Utara","urban":"Yarat","postal_code":98463},{"province":"Papua Barat","city":"Maybrat","district":"Aifat Utara","urban":"Yarat Timur","postal_code":98463},{"province":"Papua Barat","city":"Maybrat","district":"Aifat Timur Selatan","urban":"Womba","postal_code":98463},{"province":"Papua Barat","city":"Maybrat","district":"Aifat Timur Selatan","urban":"Wormu","postal_code":98463},{"province":"Papua Barat","city":"Maybrat","district":"Aifat","urban":"Werjaya","postal_code":98463},{"province":"Papua Barat","city":"Maybrat","district":"Aifat Utara","urban":"Wayane","postal_code":98463},{"province":"Papua Barat","city":"Maybrat","district":"Aifat Timur Selatan","urban":"Winuni","postal_code":98463},{"province":"Papua Barat","city":"Maybrat","district":"Aifat Selatan","urban":"Tolak","postal_code":98463},{"province":"Papua Barat","city":"Maybrat","district":"Aifat Timur","urban":"Wakom","postal_code":98463},{"province":"Papua Barat","city":"Maybrat","district":"Aifat Timur Selatan","urban":"Warba","postal_code":98463},{"province":"Papua Barat","city":"Maybrat","district":"Aifat Selatan","urban":"Tahsimara","postal_code":98463},{"province":"Papua Barat","city":"Maybrat","district":"Aifat Timur Tengah","urban":"Tiam","postal_code":98463},{"province":"Papua Barat","city":"Maybrat","district":"Aifat Timur Jauh","urban":"Tiefromen","postal_code":98463},{"province":"Papua Barat","city":"Maybrat","district":"Aifat","urban":"Susumuk","postal_code":98463},{"province":"Papua Barat","city":"Maybrat","district":"Aifat","urban":"Tahahite","postal_code":98463},{"province":"Papua Barat","city":"Maybrat","district":"Aifat Utara","urban":"Susai","postal_code":98463},{"province":"Papua Barat","city":"Maybrat","district":"Aifat","urban":"Sunei","postal_code":98463},{"province":"Papua Barat","city":"Maybrat","district":"Aifat Timur Selatan","urban":"Srumate","postal_code":98463},{"province":"Papua Barat","city":"Maybrat","district":"Aifat Selatan","urban":"Sorry","postal_code":98463},{"province":"Papua Barat","city":"Maybrat","district":"Aifat","urban":"Sikof","postal_code":98463},{"province":"Papua Barat","city":"Maybrat","district":"Aifat Timur","urban":"Sawin","postal_code":98463},{"province":"Papua Barat","city":"Maybrat","district":"Aifat Timur Tengah","urban":"Saud","postal_code":98463},{"province":"Papua Barat","city":"Maybrat","district":"Aifat Timur","urban":"Sanem","postal_code":98463},{"province":"Papua Barat","city":"Maybrat","district":"Aifat Timur Jauh","urban":"Sasior Nafe","postal_code":98463},{"province":"Papua Barat","city":"Maybrat","district":"Aifat Selatan","urban":"Same Rakator","postal_code":98463},{"province":"Papua Barat","city":"Maybrat","district":"Aifat","urban":"Sampika","postal_code":98463},{"province":"Papua Barat","city":"Maybrat","district":"Aifat Selatan","urban":"Sabah","postal_code":98463},{"province":"Papua Barat","city":"Maybrat","district":"Aifat Timur","urban":"Sabah","postal_code":98463},{"province":"Papua Barat","city":"Maybrat","district":"Aifat Selatan","urban":"Roma","postal_code":98463},{"province":"Papua Barat","city":"Maybrat","district":"Aifat Utara","urban":"Raha","postal_code":98463},{"province":"Papua Barat","city":"Maybrat","district":"Aifat Timur Tengah","urban":"Pitor","postal_code":98463},{"province":"Papua Barat","city":"Maybrat","district":"Aifat Utara","urban":"Mowes","postal_code":98463},{"province":"Papua Barat","city":"Maybrat","district":"Aifat Utara","urban":"Neset","postal_code":98463},{"province":"Papua Barat","city":"Maybrat","district":"Aifat Timur Tengah","urban":"Mupas","postal_code":98463},{"province":"Papua Barat","city":"Maybrat","district":"Aifat Utara","urban":"Mosun Timur","postal_code":98463},{"province":"Papua Barat","city":"Maybrat","district":"Aifat Utara","urban":"Mosun Utara","postal_code":98463},{"province":"Papua Barat","city":"Maybrat","district":"Aifat Utara","urban":"Mosun","postal_code":98463},{"province":"Papua Barat","city":"Maybrat","district":"Aifat Timur Selatan","urban":"Makiri","postal_code":98463},{"province":"Papua Barat","city":"Maybrat","district":"Aifat Timur Jauh","urban":"Mesyam","postal_code":98463},{"province":"Papua Barat","city":"Maybrat","district":"Aifat Utara","urban":"Man","postal_code":98463},{"province":"Papua Barat","city":"Maybrat","district":"Aifat","urban":"Kumurkek Barat","postal_code":98463},{"province":"Papua Barat","city":"Maybrat","district":"Aifat","urban":"Kumurkek","postal_code":98463},{"province":"Papua Barat","city":"Maybrat","district":"Aifat Selatan","urban":"Krus","postal_code":98463},{"province":"Papua Barat","city":"Maybrat","district":"Aifat Utara","urban":"Konja Barat","postal_code":98463},{"province":"Papua Barat","city":"Maybrat","district":"Aifat","urban":"Konja","postal_code":98463},{"province":"Papua Barat","city":"Maybrat","district":"Aifat Utara","urban":"Konja","postal_code":98463},{"province":"Papua Barat","city":"Maybrat","district":"Aifat","urban":"Kocuas Utara","postal_code":98463},{"province":"Papua Barat","city":"Maybrat","district":"Aifat","urban":"Kocuwer","postal_code":98463},{"province":"Papua Barat","city":"Maybrat","district":"Aifat","urban":"Kocuwer Selatan","postal_code":98463},{"province":"Papua Barat","city":"Maybrat","district":"Aifat Timur Tengah","urban":"Kamat","postal_code":98463},{"province":"Papua Barat","city":"Maybrat","district":"Aifat Selatan","urban":"Kisor","postal_code":98463},{"province":"Papua Barat","city":"Maybrat","district":"Aifat Selatan","urban":"Kaitana","postal_code":98463},{"province":"Papua Barat","city":"Maybrat","district":"Aifat Utara","urban":"Irata","postal_code":98463},{"province":"Papua Barat","city":"Maybrat","district":"Aifat Selatan","urban":"Hora Iek","postal_code":98463},{"province":"Papua Barat","city":"Maybrat","district":"Aifat Selatan","urban":"Imsun","postal_code":98463},{"province":"Papua Barat","city":"Maybrat","district":"Aifat Utara","urban":"Howait","postal_code":98463},{"province":"Papua Barat","city":"Maybrat","district":"Aifat","urban":"Futon","postal_code":98463},{"province":"Papua Barat","city":"Maybrat","district":"Aifat Utara","urban":"Haenkanes","postal_code":98463},{"province":"Papua Barat","city":"Maybrat","district":"Aifat Timur","urban":"Fuog","postal_code":98463},{"province":"Papua Barat","city":"Maybrat","district":"Aifat Selatan","urban":"Fuog","postal_code":98463},{"province":"Papua Barat","city":"Maybrat","district":"Aifat Selatan","urban":"Fuog Selatan","postal_code":98463},{"province":"Papua Barat","city":"Maybrat","district":"Aifat","urban":"Frawebo","postal_code":98463},{"province":"Papua Barat","city":"Maybrat","district":"Aifat Timur Jauh","urban":"Framneway","postal_code":98463},{"province":"Papua Barat","city":"Maybrat","district":"Aifat Timur Tengah","urban":"Frambu","postal_code":98463},{"province":"Papua Barat","city":"Maybrat","district":"Aifat Utara","urban":"Fonatu","postal_code":98463},{"province":"Papua Barat","city":"Maybrat","district":"Aifat","urban":"Faitmayaf","postal_code":98463},{"province":"Papua Barat","city":"Maybrat","district":"Aifat","urban":"Faitmayat Barat","postal_code":98463},{"province":"Papua Barat","city":"Maybrat","district":"Aifat Timur Tengah","urban":"Faan","postal_code":98463},{"province":"Papua Barat","city":"Maybrat","district":"Aifat Timur","urban":"Buoh Sa","postal_code":98463},{"province":"Papua Barat","city":"Maybrat","district":"Aifat","urban":"Bori","postal_code":98463},{"province":"Papua Barat","city":"Maybrat","district":"Aifat","urban":"Bori Timur","postal_code":98463},{"province":"Papua Barat","city":"Maybrat","district":"Aifat","urban":"Bori Timur","postal_code":98463},{"province":"Papua Barat","city":"Maybrat","district":"Aifat Utara","urban":"Ayawasi","postal_code":98463},{"province":"Papua Barat","city":"Maybrat","district":"Aifat Utara","urban":"Ayawasi Selatan","postal_code":98463},{"province":"Papua Barat","city":"Maybrat","district":"Aifat Timur Tengah","urban":"Ayata","postal_code":98463},{"province":"Papua Barat","city":"Maybrat","district":"Aifat Selatan","urban":"Awet Main","postal_code":98463},{"province":"Papua Barat","city":"Maybrat","district":"Aifat Timur Tengah","urban":"Assem","postal_code":98463},{"province":"Papua Barat","city":"Maybrat","district":"Aifat Selatan","urban":"Asiaf Zaman","postal_code":98463},{"province":"Papua Barat","city":"Maybrat","district":"Aifat Timur Jauh","urban":"Akingging","postal_code":98463},{"province":"Papua Barat","city":"Maybrat","district":"Aifat Timur Tengah","urban":"Aiwesa","postal_code":98463},{"province":"Papua Barat","city":"Maybrat","district":"Aifat","urban":"Aisyo","postal_code":98463},{"province":"Papua Barat","city":"Maybrat","district":"Aifat Timur","urban":"Aitrem","postal_code":98463},{"province":"Papua Barat","city":"Maybrat","district":"Aifat","urban":"Ainod","postal_code":98463},{"province":"Papua Barat","city":"Maybrat","district":"Aifat Timur","urban":"Aisa","postal_code":98463},{"province":"Papua Barat","city":"Maybrat","district":"Aifat Timur Jauh","urban":"Ainesra","postal_code":98463},{"province":"Papua Barat","city":"Maybrat","district":"Aifat Timur Jauh","urban":"Aimau","postal_code":98463},{"province":"Papua Barat","city":"Maybrat","district":"Aifat Timur Tengah","urban":"Aikus","postal_code":98463},{"province":"Papua Barat","city":"Maybrat","district":"Aifat Timur","urban":"Aikrer","postal_code":98463},{"province":"Papua Barat","city":"Maybrat","district":"Aifat Timur Tengah","urban":"Aifam","postal_code":98463}]