[{"province":"Papua Barat","city":"Tambrauw","district":"Miyah (Meyah)","urban":"Yabuow (Jabouw)","postal_code":98473},{"province":"Papua Barat","city":"Tambrauw","district":"Sausapor","urban":"Werwaf","postal_code":98473},{"province":"Papua Barat","city":"Tambrauw","district":"Abun","urban":"Weyaf","postal_code":98473},{"province":"Papua Barat","city":"Tambrauw","district":"Sausapor","urban":"Wertam","postal_code":98473},{"province":"Papua Barat","city":"Tambrauw","district":"Sausapor","urban":"Werur","postal_code":98473},{"province":"Papua Barat","city":"Tambrauw","district":"Sausapor","urban":"Werur Besar","postal_code":98473},{"province":"Papua Barat","city":"Tambrauw","district":"Fef (Peef)","urban":"Wayo","postal_code":98473},{"province":"Papua Barat","city":"Tambrauw","district":"Abun","urban":"Wau","postal_code":98473},{"province":"Papua Barat","city":"Tambrauw","district":"Sausapor","urban":"Uigwem","postal_code":98473},{"province":"Papua Barat","city":"Tambrauw","district":"Abun","urban":"Waibem (Waiben)","postal_code":98473},{"province":"Papua Barat","city":"Tambrauw","district":"Abun","urban":"Warmandi","postal_code":98473},{"province":"Papua Barat","city":"Tambrauw","district":"Miyah (Meyah)","urban":"Tabamsere","postal_code":98473},{"province":"Papua Barat","city":"Tambrauw","district":"Kwoor","urban":"Syumbab","postal_code":98473},{"province":"Papua Barat","city":"Tambrauw","district":"Syujak","urban":"Syujak (Sujak)","postal_code":98473},{"province":"Papua Barat","city":"Tambrauw","district":"Kwoor","urban":"Syukwes","postal_code":98473},{"province":"Papua Barat","city":"Tambrauw","district":"Fef (Peef)","urban":"Syubun","postal_code":98473},{"province":"Papua Barat","city":"Tambrauw","district":"Kwoor","urban":"Syuau","postal_code":98473},{"province":"Papua Barat","city":"Tambrauw","district":"Syujak","urban":"Soon","postal_code":98473},{"province":"Papua Barat","city":"Tambrauw","district":"Miyah (Meyah)","urban":"Siakwa","postal_code":98473},{"province":"Papua Barat","city":"Tambrauw","district":"Fef (Peef)","urban":"Sikor","postal_code":98473},{"province":"Papua Barat","city":"Tambrauw","district":"Sausapor","urban":"Sausapor","postal_code":98473},{"province":"Papua Barat","city":"Tambrauw","district":"Miyah (Meyah)","urban":"Ruf","postal_code":98473},{"province":"Papua Barat","city":"Tambrauw","district":"Abun","urban":"Saubeba","postal_code":98473},{"province":"Papua Barat","city":"Tambrauw","district":"Miyah (Meyah)","urban":"Miri/ Ibiah","postal_code":98473},{"province":"Papua Barat","city":"Tambrauw","district":"Miyah (Meyah)","urban":"Revewes (Ruvewes)","postal_code":98473},{"province":"Papua Barat","city":"Tambrauw","district":"Kwoor","urban":"Kwoor","postal_code":98473},{"province":"Papua Barat","city":"Tambrauw","district":"Fef (Peef)","urban":"Mawor","postal_code":98473},{"province":"Papua Barat","city":"Tambrauw","district":"Miyah (Meyah)","urban":"Meis","postal_code":98473},{"province":"Papua Barat","city":"Tambrauw","district":"Kwoor","urban":"Krisnos","postal_code":98473},{"province":"Papua Barat","city":"Tambrauw","district":"Kwoor","urban":"Kwesefo (Kosefa)","postal_code":98473},{"province":"Papua Barat","city":"Tambrauw","district":"Kwoor","urban":"Kranfotsu","postal_code":98473},{"province":"Papua Barat","city":"Tambrauw","district":"Sausapor","urban":"Jokte","postal_code":98473},{"province":"Papua Barat","city":"Tambrauw","district":"Syujak","urban":"Iof","postal_code":98473},{"province":"Papua Barat","city":"Tambrauw","district":"Kwoor","urban":"Hopmare","postal_code":98473},{"province":"Papua Barat","city":"Tambrauw","district":"Kwoor","urban":"Batde (Baddei)","postal_code":98473},{"province":"Papua Barat","city":"Tambrauw","district":"Fef (Peef)","urban":"Fef","postal_code":98473},{"province":"Papua Barat","city":"Tambrauw","district":"Syujak","urban":"Banso","postal_code":98473},{"province":"Papua Barat","city":"Tambrauw","district":"Syujak","urban":"Frafane","postal_code":98473},{"province":"Papua Barat","city":"Tambrauw","district":"Miyah (Meyah)","urban":"Ayiamane","postal_code":98473},{"province":"Papua Barat","city":"Tambrauw","district":"Sausapor","urban":"Bikar","postal_code":98473},{"province":"Papua Barat","city":"Tambrauw","district":"Fef (Peef)","urban":"Ases","postal_code":98473},{"province":"Papua Barat","city":"Tambrauw","district":"Sausapor","urban":"Emaos","postal_code":98473},{"province":"Papua Barat","city":"Tambrauw","district":"Miyah (Meyah)","urban":"Ayae","postal_code":98473},{"province":"Papua Barat","city":"Tambrauw","district":"Miyah (Meyah)","urban":"Aibogiar","postal_code":98473}]