[{"province":"Papua Barat","city":"Sorong","district":"Makbon","urban":"Sawatuk","postal_code":98471},{"province":"Papua Barat","city":"Sorong","district":"Makbon","urban":"Teluk Dore","postal_code":98471},{"province":"Papua Barat","city":"Sorong","district":"Sayosa","urban":"Sailala","postal_code":98471},{"province":"Papua Barat","city":"Sorong","district":"Sayosa","urban":"Saluk","postal_code":98471},{"province":"Papua Barat","city":"Sorong","district":"Klayili","urban":"Malalilis","postal_code":98471},{"province":"Papua Barat","city":"Sorong","district":"Makbon","urban":"Malaumkarta","postal_code":98471},{"province":"Papua Barat","city":"Sorong","district":"Klayili","urban":"Malakobutu","postal_code":98471},{"province":"Papua Barat","city":"Sorong","district":"Sayosa","urban":"Maladofok","postal_code":98471},{"province":"Papua Barat","city":"Sorong","district":"Klayili","urban":"Kwakeik","postal_code":98471},{"province":"Papua Barat","city":"Sorong","district":"Makbon","urban":"Makbon","postal_code":98471},{"province":"Papua Barat","city":"Sorong","district":"Sayosa","urban":"Luwelala (Suwelala)","postal_code":98471},{"province":"Papua Barat","city":"Sorong","district":"Makbon","urban":"Kuadas (Kwadas)","postal_code":98471},{"province":"Papua Barat","city":"Sorong","district":"Klayili","urban":"Klayali","postal_code":98471},{"province":"Papua Barat","city":"Sorong","district":"Sayosa","urban":"Klatin (Klatim)","postal_code":98471},{"province":"Papua Barat","city":"Sorong","district":"Klayili","urban":"Klawuluh","postal_code":98471},{"province":"Papua Barat","city":"Sorong","district":"Sayosa","urban":"Klatin (Klatim)","postal_code":98471},{"province":"Papua Barat","city":"Sorong","district":"Sayosa","urban":"Dasri","postal_code":98471},{"province":"Papua Barat","city":"Sorong","district":"Sayosa","urban":"Batu Payung","postal_code":98471},{"province":"Papua Barat","city":"Sorong","district":"Makbon","urban":"Batu Lubang/Lobang","postal_code":98471},{"province":"Papua Barat","city":"Sorong","district":"Makbon","urban":"Batu Lubang/Lobang Pantai","postal_code":98471},{"province":"Papua Barat","city":"Sorong","district":"Makbon","urban":"Asbaken","postal_code":98471},{"province":"Papua Barat","city":"Sorong","district":"Makbon","urban":"Bainkete","postal_code":98471}]