[{"province":"Papua Barat","city":"Sorong","district":"Maudus","urban":"Suluh","postal_code":98472},{"province":"Papua Barat","city":"Sorong","district":"Maudus","urban":"Warbo","postal_code":98472},{"province":"Papua Barat","city":"Sorong","district":"Klaso","urban":"Siwis","postal_code":98472},{"province":"Papua Barat","city":"Sorong","district":"Klaso","urban":"Selekobo","postal_code":98472},{"province":"Papua Barat","city":"Sorong","district":"Klaso","urban":"Miskum","postal_code":98472},{"province":"Papua Barat","city":"Sorong","district":"Klaso","urban":"Saengkeduk","postal_code":98472},{"province":"Papua Barat","city":"Sorong","district":"Klaso","urban":"Klamugun","postal_code":98472},{"province":"Papua Barat","city":"Sorong","district":"Maudus","urban":"Masos","postal_code":98472},{"province":"Papua Barat","city":"Sorong","district":"Maudus","urban":"Klaos","postal_code":98472},{"province":"Papua Barat","city":"Sorong","district":"Maudus","urban":"Ketawas","postal_code":98472},{"province":"Papua Barat","city":"Sorong","district":"Maudus","urban":"Klatim","postal_code":98472},{"province":"Papua Barat","city":"Sorong","district":"Maudus","urban":"Dasri","postal_code":98472},{"province":"Papua Barat","city":"Tambrauw","district":"Moraid","urban":"Siwis","postal_code":98472},{"province":"Papua Barat","city":"Tambrauw","district":"Moraid","urban":"Sengkeduk (Saengkeduk)","postal_code":98472},{"province":"Papua Barat","city":"Tambrauw","district":"Moraid","urban":"Salewok (Selewok)","postal_code":98472},{"province":"Papua Barat","city":"Tambrauw","district":"Moraid","urban":"Selekebu (Selekopi)","postal_code":98472},{"province":"Papua Barat","city":"Tambrauw","district":"Moraid","urban":"Malawarsai (Malaworsai)","postal_code":98472},{"province":"Papua Barat","city":"Tambrauw","district":"Moraid","urban":"Mega","postal_code":98472},{"province":"Papua Barat","city":"Tambrauw","district":"Moraid","urban":"Malawarsai (Malaworsai)","postal_code":98472},{"province":"Papua Barat","city":"Tambrauw","district":"Moraid","urban":"Dela (Della)","postal_code":98472}]