[{"province":"Papua Barat","city":"Raja Ampat","district":"Misool Selatan","urban":"Yellu","postal_code":98483},{"province":"Papua Barat","city":"Raja Ampat","district":"Kepulauan Sembilan","urban":"Wejim Barat","postal_code":98483},{"province":"Papua Barat","city":"Raja Ampat","district":"Kepulauan Sembilan","urban":"Wejim Timur","postal_code":98483},{"province":"Papua Barat","city":"Raja Ampat","district":"Misool Timur","urban":"Usaha Jaya","postal_code":98483},{"province":"Papua Barat","city":"Raja Ampat","district":"Misool (Misool Utara)","urban":"Wejim","postal_code":98483},{"province":"Papua Barat","city":"Raja Ampat","district":"Misool Selatan","urban":"Usaha Jaya","postal_code":98483},{"province":"Papua Barat","city":"Raja Ampat","district":"Misool Timur","urban":"Tomolol","postal_code":98483},{"province":"Papua Barat","city":"Raja Ampat","district":"Misool (Misool Utara)","urban":"Tomolol","postal_code":98483},{"province":"Papua Barat","city":"Raja Ampat","district":"Kofiau","urban":"Tolabi (Tolobi)","postal_code":98483},{"province":"Papua Barat","city":"Raja Ampat","district":"Kepulauan Sembilan","urban":"Satukurano","postal_code":98483},{"province":"Papua Barat","city":"Raja Ampat","district":"Misool (Misool Utara)","urban":"Satukorano (Sato Kurana)","postal_code":98483},{"province":"Papua Barat","city":"Raja Ampat","district":"Kepulauan Sembilan","urban":"Pulau Tikus","postal_code":98483},{"province":"Papua Barat","city":"Raja Ampat","district":"Kofiau","urban":"Mikiran","postal_code":98483},{"province":"Papua Barat","city":"Raja Ampat","district":"Misool Barat","urban":"Magey","postal_code":98483},{"province":"Papua Barat","city":"Raja Ampat","district":"Misool Timur","urban":"Limalas Barat","postal_code":98483},{"province":"Papua Barat","city":"Raja Ampat","district":"Misool Timur","urban":"Limalas Timur","postal_code":98483},{"province":"Papua Barat","city":"Raja Ampat","district":"Misool (Misool Utara)","urban":"Lenmalas","postal_code":98483},{"province":"Papua Barat","city":"Raja Ampat","district":"Misool Barat","urban":"Kapatcol","postal_code":98483},{"province":"Papua Barat","city":"Raja Ampat","district":"Misool Barat","urban":"Lilinta","postal_code":98483},{"province":"Papua Barat","city":"Raja Ampat","district":"Misool Selatan","urban":"Harapan Jaya","postal_code":98483},{"province":"Papua Barat","city":"Raja Ampat","district":"Misool Barat","urban":"Gamta","postal_code":98483},{"province":"Papua Barat","city":"Raja Ampat","district":"Misool Timur","urban":"Folley","postal_code":98483},{"province":"Papua Barat","city":"Raja Ampat","district":"Misool (Misool Utara)","urban":"Folley","postal_code":98483},{"province":"Papua Barat","city":"Raja Ampat","district":"Misool Selatan","urban":"Fafanlap","postal_code":98483},{"province":"Papua Barat","city":"Raja Ampat","district":"Kofiau","urban":"Dibalal","postal_code":98483},{"province":"Papua Barat","city":"Raja Ampat","district":"Misool Selatan","urban":"Dabatan","postal_code":98483},{"province":"Papua Barat","city":"Raja Ampat","district":"Kofiau","urban":"Deer","postal_code":98483},{"province":"Papua Barat","city":"Raja Ampat","district":"Misool Barat","urban":"Biga","postal_code":98483},{"province":"Papua Barat","city":"Raja Ampat","district":"Kofiau","urban":"Awat","postal_code":98483},{"province":"Papua Barat","city":"Raja Ampat","district":"Misool Timur","urban":"Audam","postal_code":98483}]