[{"province":"Papua Barat","city":"Raja Ampat","district":"Waigeo Timur","urban":"Yensener (Yesner)","postal_code":98482},{"province":"Papua Barat","city":"Raja Ampat","district":"Meos Mansar","urban":"Yenwaupnoor (Yenwaupnor)","postal_code":98482},{"province":"Papua Barat","city":"Raja Ampat","district":"Meos Mansar","urban":"Yenbuba","postal_code":98482},{"province":"Papua Barat","city":"Raja Ampat","district":"Waigeo Selatan","urban":"Yenbeser","postal_code":98482},{"province":"Papua Barat","city":"Raja Ampat","district":"Meos Mansar","urban":"Yembekwan","postal_code":98482},{"province":"Papua Barat","city":"Raja Ampat","district":"Waigeo Timur","urban":"Yembekaki","postal_code":98482},{"province":"Papua Barat","city":"Raja Ampat","district":"Kota Waisai","urban":"Warmasen","postal_code":98482},{"province":"Papua Barat","city":"Raja Ampat","district":"Waigeo Selatan","urban":"Wawiyai","postal_code":98482},{"province":"Papua Barat","city":"Raja Ampat","district":"Teluk Mayalibit","urban":"Warsamdin","postal_code":98482},{"province":"Papua Barat","city":"Raja Ampat","district":"Kota Waisai","urban":"Waisai","postal_code":98482},{"province":"Papua Barat","city":"Raja Ampat","district":"Tiplol Mayalibit","urban":"Warimak","postal_code":98482},{"province":"Papua Barat","city":"Raja Ampat","district":"Tiplol Mayalibit","urban":"Waifoi","postal_code":98482},{"province":"Papua Barat","city":"Raja Ampat","district":"Waigeo Timur","urban":"Urbinasopen","postal_code":98482},{"province":"Papua Barat","city":"Raja Ampat","district":"Meos Mansar","urban":"Sawandarek","postal_code":98482},{"province":"Papua Barat","city":"Raja Ampat","district":"Meos Mansar","urban":"Sawinggrai","postal_code":98482},{"province":"Papua Barat","city":"Raja Ampat","district":"Waigeo Selatan","urban":"Saporkren","postal_code":98482},{"province":"Papua Barat","city":"Raja Ampat","district":"Kota Waisai","urban":"Sapordanco","postal_code":98482},{"province":"Papua Barat","city":"Raja Ampat","district":"Waigeo Timur","urban":"Puper","postal_code":98482},{"province":"Papua Barat","city":"Raja Ampat","district":"Waigeo Selatan","urban":"Saonek","postal_code":98482},{"province":"Papua Barat","city":"Raja Ampat","district":"Teluk Mayalibit","urban":"Mumes","postal_code":98482},{"province":"Papua Barat","city":"Raja Ampat","district":"Teluk Mayalibit","urban":"Lopintol","postal_code":98482},{"province":"Papua Barat","city":"Raja Ampat","district":"Meos Mansar","urban":"Kurkapa","postal_code":98482},{"province":"Papua Barat","city":"Raja Ampat","district":"Teluk Mayalibit","urban":"Kalitoko","postal_code":98482},{"province":"Papua Barat","city":"Raja Ampat","district":"Meos Mansar","urban":"Kapisawar","postal_code":98482},{"province":"Papua Barat","city":"Raja Ampat","district":"Tiplol Mayalibit","urban":"Kabilol","postal_code":98482},{"province":"Papua Barat","city":"Raja Ampat","district":"Meos Mansar","urban":"Kabuy (Kabui)","postal_code":98482},{"province":"Papua Barat","city":"Raja Ampat","district":"Tiplol Mayalibit","urban":"Go","postal_code":98482},{"province":"Papua Barat","city":"Raja Ampat","district":"Waigeo Selatan","urban":"Friwen","postal_code":98482},{"province":"Papua Barat","city":"Raja Ampat","district":"Kota Waisai","urban":"Bonwakir","postal_code":98482},{"province":"Papua Barat","city":"Raja Ampat","district":"Tiplol Mayalibit","urban":"Arway","postal_code":98482},{"province":"Papua Barat","city":"Raja Ampat","district":"Tiplol Mayalibit","urban":"Beo","postal_code":98482},{"province":"Papua Barat","city":"Raja Ampat","district":"Meos Mansar","urban":"Arborek","postal_code":98482}]