[{"province":"Papua Barat","city":"Raja Ampat","district":"Warwabomi","urban":"Warmanai","postal_code":98481},{"province":"Papua Barat","city":"Raja Ampat","district":"Kepulauan Ayau","urban":"Yenkawir","postal_code":98481},{"province":"Papua Barat","city":"Raja Ampat","district":"Warwabomi","urban":"Warkori","postal_code":98481},{"province":"Papua Barat","city":"Raja Ampat","district":"Waigeo Barat","urban":"Waisilip","postal_code":98481},{"province":"Papua Barat","city":"Raja Ampat","district":"Waigeo Barat Kepulauan","urban":"Saupapir","postal_code":98481},{"province":"Papua Barat","city":"Raja Ampat","district":"Supnin","urban":"Urai","postal_code":98481},{"province":"Papua Barat","city":"Raja Ampat","district":"Waigeo Barat","urban":"Selpele","postal_code":98481},{"province":"Papua Barat","city":"Raja Ampat","district":"Waigeo Barat Kepulauan","urban":"Saukabu","postal_code":98481},{"province":"Papua Barat","city":"Raja Ampat","district":"Waigeo Barat","urban":"Saleo","postal_code":98481},{"province":"Papua Barat","city":"Raja Ampat","district":"Ayau","urban":"Rutum","postal_code":98481},{"province":"Papua Barat","city":"Raja Ampat","district":"Kepulauan Ayau","urban":"Rutum","postal_code":98481},{"province":"Papua Barat","city":"Raja Ampat","district":"Ayau","urban":"Reni","postal_code":98481},{"province":"Papua Barat","city":"Raja Ampat","district":"Kepulauan Ayau","urban":"Reni","postal_code":98481},{"province":"Papua Barat","city":"Raja Ampat","district":"Supnin","urban":"Rauki","postal_code":98481},{"province":"Papua Barat","city":"Raja Ampat","district":"Waigeo Barat Kepulauan","urban":"Pam","postal_code":98481},{"province":"Papua Barat","city":"Raja Ampat","district":"Warwabomi","urban":"Mnier","postal_code":98481},{"province":"Papua Barat","city":"Raja Ampat","district":"Waigeo Barat","urban":"Mutus","postal_code":98481},{"province":"Papua Barat","city":"Raja Ampat","district":"Ayau","urban":"Meosbekwan","postal_code":98481},{"province":"Papua Barat","city":"Raja Ampat","district":"Kepulauan Ayau","urban":"Meosbekwan","postal_code":98481},{"province":"Papua Barat","city":"Raja Ampat","district":"Waigeo Barat Kepulauan","urban":"Meosmanggara","postal_code":98481},{"province":"Papua Barat","city":"Raja Ampat","district":"Waigeo Barat Kepulauan","urban":"Manyaifun","postal_code":98481},{"province":"Papua Barat","city":"Raja Ampat","district":"Waigeo Utara","urban":"Kalisade","postal_code":98481},{"province":"Papua Barat","city":"Raja Ampat","district":"Supnin","urban":"Kapadiri","postal_code":98481},{"province":"Papua Barat","city":"Raja Ampat","district":"Waigeo Utara","urban":"Kabare","postal_code":98481},{"province":"Papua Barat","city":"Raja Ampat","district":"Waigeo Barat Kepulauan","urban":"Gag","postal_code":98481},{"province":"Papua Barat","city":"Raja Ampat","district":"Supnin","urban":"Duber","postal_code":98481},{"province":"Papua Barat","city":"Raja Ampat","district":"Kepulauan Ayau","urban":"Doreker (Dorekar)","postal_code":98481},{"province":"Papua Barat","city":"Raja Ampat","district":"Waigeo Utara","urban":"Darumbab","postal_code":98481},{"province":"Papua Barat","city":"Raja Ampat","district":"Waigeo Utara","urban":"Bonsayor","postal_code":98481},{"province":"Papua Barat","city":"Raja Ampat","district":"Warwabomi","urban":"Boni","postal_code":98481},{"province":"Papua Barat","city":"Raja Ampat","district":"Waigeo Barat","urban":"Bianci","postal_code":98481},{"province":"Papua Barat","city":"Raja Ampat","district":"Waigeo Utara","urban":"Asukweri","postal_code":98481},{"province":"Papua Barat","city":"Raja Ampat","district":"Waigeo Utara","urban":"Andey","postal_code":98481},{"province":"Papua Barat","city":"Raja Ampat","district":"Ayau","urban":"Abidon","postal_code":98481}]