[{"province":"Papua Barat","city":"Raja Ampat","district":"Batanta Utara","urban":"Yensawai Timur","postal_code":98484},{"province":"Papua Barat","city":"Raja Ampat","district":"Salawati Utara (Samate)","urban":"Wamega","postal_code":98484},{"province":"Papua Barat","city":"Raja Ampat","district":"Batanta Selatan","urban":"Yenanas","postal_code":98484},{"province":"Papua Barat","city":"Raja Ampat","district":"Batanta Utara","urban":"Yensawai Barat","postal_code":98484},{"province":"Papua Barat","city":"Raja Ampat","district":"Salawati Tengah","urban":"Waimeci","postal_code":98484},{"province":"Papua Barat","city":"Raja Ampat","district":"Batanta Selatan","urban":"Waiman","postal_code":98484},{"province":"Papua Barat","city":"Raja Ampat","district":"Salawati Tengah","urban":"Wailen","postal_code":98484},{"province":"Papua Barat","city":"Raja Ampat","district":"Salawati Tengah","urban":"Wailen","postal_code":98484},{"province":"Papua Barat","city":"Raja Ampat","district":"Salawati Tengah","urban":"Waijan","postal_code":98484},{"province":"Papua Barat","city":"Raja Ampat","district":"Salawati Tengah","urban":"Wailabu","postal_code":98484},{"province":"Papua Barat","city":"Raja Ampat","district":"Salawati Utara (Samate)","urban":"Waidim","postal_code":98484},{"province":"Papua Barat","city":"Raja Ampat","district":"Salawati Barat","urban":"Waibon","postal_code":98484},{"province":"Papua Barat","city":"Raja Ampat","district":"Salawati Tengah","urban":"Waibu","postal_code":98484},{"province":"Papua Barat","city":"Raja Ampat","district":"Salawati Barat","urban":"Solol","postal_code":98484},{"province":"Papua Barat","city":"Raja Ampat","district":"Salawati Utara (Samate)","urban":"Samate","postal_code":98484},{"province":"Papua Barat","city":"Raja Ampat","district":"Salawati Tengah","urban":"Sakabu","postal_code":98484},{"province":"Papua Barat","city":"Raja Ampat","district":"Salawati Utara (Samate)","urban":"Kapatlap","postal_code":98484},{"province":"Papua Barat","city":"Raja Ampat","district":"Salawati Barat","urban":"Kalwal","postal_code":98484},{"province":"Papua Barat","city":"Raja Ampat","district":"Salawati Tengah","urban":"Kalobo","postal_code":98484},{"province":"Papua Barat","city":"Raja Ampat","district":"Salawati Barat","urban":"Kaliam","postal_code":98484},{"province":"Papua Barat","city":"Raja Ampat","district":"Salawati Utara (Samate)","urban":"Jefman Barat","postal_code":98484},{"province":"Papua Barat","city":"Raja Ampat","district":"Salawati Utara (Samate)","urban":"Jefman Timur","postal_code":98484},{"province":"Papua Barat","city":"Raja Ampat","district":"Batanta Utara","urban":"Arefi Timur","postal_code":98484},{"province":"Papua Barat","city":"Raja Ampat","district":"Batanta Selatan","urban":"Amdui","postal_code":98484},{"province":"Papua Barat","city":"Raja Ampat","district":"Batanta Utara","urban":"Arefi Selatan","postal_code":98484}]