[{"province":"Papua Barat","city":"Kaimana","district":"Yamor","urban":"Wagoha (Wagioha)","postal_code":98655},{"province":"Papua Barat","city":"Kaimana","district":"Yamor","urban":"Wosokuno","postal_code":98655},{"province":"Papua Barat","city":"Kaimana","district":"Yamor","urban":"Ure (Mury/Uray)","postal_code":98655},{"province":"Papua Barat","city":"Kaimana","district":"Yamor","urban":"Urubika","postal_code":98655},{"province":"Papua Barat","city":"Kaimana","district":"Yamor","urban":"Omba Pamuku","postal_code":98655},{"province":"Papua Barat","city":"Kaimana","district":"Teluk Etna","urban":"Rurumo","postal_code":98655},{"province":"Papua Barat","city":"Kaimana","district":"Teluk Etna","urban":"Siawatan","postal_code":98655},{"province":"Papua Barat","city":"Kaimana","district":"Teluk Etna","urban":"Nariki","postal_code":98655},{"province":"Papua Barat","city":"Kaimana","district":"Yamor","urban":"Hairapara","postal_code":98655},{"province":"Papua Barat","city":"Kaimana","district":"Teluk Etna","urban":"Boiya","postal_code":98655},{"province":"Papua Barat","city":"Kaimana","district":"Teluk Etna","urban":"Bamana","postal_code":98655}]