[{"province":"Papua Barat","city":"Kaimana","district":"Buruway","urban":"Nusaulan Jaya","postal_code":98656},{"province":"Papua Barat","city":"Kaimana","district":"Buruway","urban":"Tairi","postal_code":98656},{"province":"Papua Barat","city":"Kaimana","district":"Buruway","urban":"Yarona","postal_code":98656},{"province":"Papua Barat","city":"Kaimana","district":"Buruway","urban":"Guriasa","postal_code":98656},{"province":"Papua Barat","city":"Kaimana","district":"Buruway","urban":"Hia","postal_code":98656},{"province":"Papua Barat","city":"Kaimana","district":"Buruway","urban":"Kambala","postal_code":98656},{"province":"Papua Barat","city":"Kaimana","district":"Buruway","urban":"Esania","postal_code":98656},{"province":"Papua Barat","city":"Kaimana","district":"Buruway","urban":"Gaka","postal_code":98656},{"province":"Papua Barat","city":"Kaimana","district":"Buruway","urban":"Adijaya","postal_code":98656},{"province":"Papua Barat","city":"Kaimana","district":"Buruway","urban":"Edor","postal_code":98656}]