[{"province":"Papua Barat","city":"Kaimana","district":"Kambraw (Kamberau)","urban":"Werafuta","postal_code":98654},{"province":"Papua Barat","city":"Kaimana","district":"Kaimana","urban":"Werua","postal_code":98654},{"province":"Papua Barat","city":"Kaimana","district":"Kambraw (Kamberau)","urban":"Waho","postal_code":98654},{"province":"Papua Barat","city":"Kaimana","district":"Kambraw (Kamberau)","urban":"Wamesa","postal_code":98654},{"province":"Papua Barat","city":"Kaimana","district":"Kaimana","urban":"Trikora","postal_code":98654},{"province":"Papua Barat","city":"Kaimana","district":"Kambraw (Kamberau)","urban":"Sermuku (Ubia Sermuku)","postal_code":98654},{"province":"Papua Barat","city":"Kaimana","district":"Kaimana","urban":"Sisir","postal_code":98654},{"province":"Papua Barat","city":"Kaimana","district":"Kaimana","urban":"Tanggaromi","postal_code":98654},{"province":"Papua Barat","city":"Kaimana","district":"Kaimana","urban":"Sara","postal_code":98654},{"province":"Papua Barat","city":"Kaimana","district":"Kaimana","urban":"Saria","postal_code":98654},{"province":"Papua Barat","city":"Kaimana","district":"Kambraw (Kamberau)","urban":"Rauna","postal_code":98654},{"province":"Papua Barat","city":"Kaimana","district":"Kaimana","urban":"Oray","postal_code":98654},{"province":"Papua Barat","city":"Kaimana","district":"Kaimana","urban":"Marsi","postal_code":98654},{"province":"Papua Barat","city":"Kaimana","district":"Kaimana","urban":"Murano","postal_code":98654},{"province":"Papua Barat","city":"Kaimana","district":"Kaimana","urban":"Namatota","postal_code":98654},{"province":"Papua Barat","city":"Kaimana","district":"Kaimana","urban":"Lumira","postal_code":98654},{"province":"Papua Barat","city":"Kaimana","district":"Kaimana","urban":"Mai Mai","postal_code":98654},{"province":"Papua Barat","city":"Kaimana","district":"Kambraw (Kamberau)","urban":"Kooy","postal_code":98654},{"province":"Papua Barat","city":"Kaimana","district":"Kaimana","urban":"Krooy","postal_code":98654},{"province":"Papua Barat","city":"Kaimana","district":"Kambraw (Kamberau)","urban":"Kooy","postal_code":98654},{"province":"Papua Barat","city":"Kaimana","district":"Kaimana","urban":"Kaimana Kota","postal_code":98654},{"province":"Papua Barat","city":"Kaimana","district":"Kaimana","urban":"Kamaka","postal_code":98654},{"province":"Papua Barat","city":"Kaimana","district":"Kaimana","urban":"Foroma Jaya","postal_code":98654},{"province":"Papua Barat","city":"Kaimana","district":"Kaimana","urban":"Jarati","postal_code":98654},{"province":"Papua Barat","city":"Kaimana","district":"Kambraw (Kamberau)","urban":"Bahumia","postal_code":98654},{"province":"Papua Barat","city":"Kaimana","district":"Kaimana","urban":"Coa","postal_code":98654}]