[{"province":"Papua Barat","city":"Fakfak","district":"Fakfak Barat","urban":"Werpigan","postal_code":98661},{"province":"Papua Barat","city":"Fakfak","district":"Fakfak Barat","urban":"Wurkendik","postal_code":98661},{"province":"Papua Barat","city":"Fakfak","district":"Teluk Patipi","urban":"Werfa (Werfra)","postal_code":98661},{"province":"Papua Barat","city":"Fakfak","district":"Fakfak Barat","urban":"Werba","postal_code":98661},{"province":"Papua Barat","city":"Fakfak","district":"Fakfak Barat","urban":"Wartutin","postal_code":98661},{"province":"Papua Barat","city":"Fakfak","district":"Fakfak Barat","urban":"Werabuan","postal_code":98661},{"province":"Papua Barat","city":"Fakfak","district":"Teluk Patipi","urban":"Us","postal_code":98661},{"province":"Papua Barat","city":"Fakfak","district":"Teluk Patipi","urban":"Tuimar","postal_code":98661},{"province":"Papua Barat","city":"Fakfak","district":"Teluk Patipi","urban":"Teluk Patipi","postal_code":98661},{"province":"Papua Barat","city":"Fakfak","district":"Teluk Patipi","urban":"Tetar","postal_code":98661},{"province":"Papua Barat","city":"Fakfak","district":"Teluk Patipi","urban":"Tibatibananam","postal_code":98661},{"province":"Papua Barat","city":"Fakfak","district":"Teluk Patipi","urban":"Tanehamur","postal_code":98661},{"province":"Papua Barat","city":"Fakfak","district":"Teluk Patipi","urban":"Tanisapata (Tanisapatu)","postal_code":98661},{"province":"Papua Barat","city":"Fakfak","district":"Teluk Patipi","urban":"Tawar","postal_code":98661},{"province":"Papua Barat","city":"Fakfak","district":"Teluk Patipi","urban":"Sum","postal_code":98661},{"province":"Papua Barat","city":"Fakfak","district":"Fakfak Barat","urban":"Siboru","postal_code":98661},{"province":"Papua Barat","city":"Fakfak","district":"Fakfak Barat","urban":"Sipatnanam","postal_code":98661},{"province":"Papua Barat","city":"Fakfak","district":"Teluk Patipi","urban":"Salakiti","postal_code":98661},{"province":"Papua Barat","city":"Fakfak","district":"Fakfak Barat","urban":"Purwasak","postal_code":98661},{"province":"Papua Barat","city":"Fakfak","district":"Teluk Patipi","urban":"Rumbati","postal_code":98661},{"province":"Papua Barat","city":"Fakfak","district":"Teluk Patipi","urban":"Patipi Pasir","postal_code":98661},{"province":"Papua Barat","city":"Fakfak","district":"Teluk Patipi","urban":"Patipi Pulau (Nusa)","postal_code":98661},{"province":"Papua Barat","city":"Fakfak","district":"Teluk Patipi","urban":"Puar","postal_code":98661},{"province":"Papua Barat","city":"Fakfak","district":"Teluk Patipi","urban":"Mawar","postal_code":98661},{"province":"Papua Barat","city":"Fakfak","district":"Teluk Patipi","urban":"Ofie","postal_code":98661},{"province":"Papua Barat","city":"Fakfak","district":"Teluk Patipi","urban":"Degen","postal_code":98661},{"province":"Papua Barat","city":"Fakfak","district":"Fakfak Barat","urban":"Kiat","postal_code":98661},{"province":"Papua Barat","city":"Fakfak","district":"Teluk Patipi","urban":"Adora","postal_code":98661}]