[{"province":"Papua Barat","city":"Fakfak","district":"Fakfak Timur","urban":"Wayati Timur","postal_code":98662},{"province":"Papua Barat","city":"Fakfak","district":"Fakfak Timur","urban":"Weri","postal_code":98662},{"province":"Papua Barat","city":"Fakfak","district":"Bombarai (Bomberay)","urban":"Wonodadi Mulya","postal_code":98662},{"province":"Papua Barat","city":"Fakfak","district":"Fakfak Timur","urban":"Wayati","postal_code":98662},{"province":"Papua Barat","city":"Fakfak","district":"Fakfak Timur","urban":"Wayati Barat (Faukia)","postal_code":98662},{"province":"Papua Barat","city":"Fakfak","district":"Fakfak Timur","urban":"Waserat","postal_code":98662},{"province":"Papua Barat","city":"Fakfak","district":"Bombarai (Bomberay)","urban":"Warisa Mulya","postal_code":98662},{"province":"Papua Barat","city":"Fakfak","district":"Bombarai (Bomberay)","urban":"Wawosan","postal_code":98662},{"province":"Papua Barat","city":"Fakfak","district":"Fakfak Timur","urban":"Urat","postal_code":98662},{"province":"Papua Barat","city":"Fakfak","district":"Fakfak Timur","urban":"Wambar (Wambrar)","postal_code":98662},{"province":"Papua Barat","city":"Fakfak","district":"Karas","urban":"Tuberwasak","postal_code":98662},{"province":"Papua Barat","city":"Fakfak","district":"Fakfak Timur","urban":"Tunas Gain","postal_code":98662},{"province":"Papua Barat","city":"Fakfak","district":"Bombarai (Bomberay)","urban":"Tesha","postal_code":98662},{"province":"Papua Barat","city":"Fakfak","district":"Bombarai (Bomberay)","urban":"Tomage","postal_code":98662},{"province":"Papua Barat","city":"Fakfak","district":"Karas","urban":"Tarak","postal_code":98662},{"province":"Papua Barat","city":"Fakfak","district":"Fakfak Timur","urban":"Saharei","postal_code":98662},{"province":"Papua Barat","city":"Fakfak","district":"Fakfak Timur","urban":"Sanggram","postal_code":98662},{"province":"Papua Barat","city":"Fakfak","district":"Bombarai (Bomberay)","urban":"Otoweri","postal_code":98662},{"province":"Papua Barat","city":"Fakfak","district":"Bombarai (Bomberay)","urban":"Pinang Agung","postal_code":98662},{"province":"Papua Barat","city":"Fakfak","district":"Bombarai (Bomberay)","urban":"Mekarsari","postal_code":98662},{"province":"Papua Barat","city":"Fakfak","district":"Bombarai (Bomberay)","urban":"Onimsari","postal_code":98662},{"province":"Papua Barat","city":"Fakfak","district":"Bombarai (Bomberay)","urban":"Mbimajaya","postal_code":98662},{"province":"Papua Barat","city":"Fakfak","district":"Karas","urban":"Mas (Maas)","postal_code":98662},{"province":"Papua Barat","city":"Fakfak","district":"Fakfak Timur","urban":"Kwama","postal_code":98662},{"province":"Papua Barat","city":"Fakfak","district":"Karas","urban":"Malakuli (Tanjung Purkadi)","postal_code":98662},{"province":"Papua Barat","city":"Fakfak","district":"Fakfak Timur","urban":"Kiria Bisa (Air Bisa)","postal_code":98662},{"province":"Papua Barat","city":"Fakfak","district":"Fakfak Timur","urban":"Kotam","postal_code":98662},{"province":"Papua Barat","city":"Fakfak","district":"Karas","urban":"Kiaba","postal_code":98662},{"province":"Papua Barat","city":"Fakfak","district":"Fakfak Timur","urban":"Kalamanuk","postal_code":98662},{"province":"Papua Barat","city":"Fakfak","district":"Bombarai (Bomberay)","urban":"Bumimoroh Indah","postal_code":98662},{"province":"Papua Barat","city":"Fakfak","district":"Karas","urban":"Faur","postal_code":98662},{"province":"Papua Barat","city":"Fakfak","district":"Karas","urban":"Antalisa","postal_code":98662}]