[{"province":"Papua","city":"Paniai","district":"Paniai Timur","urban":"Wage","postal_code":98711},{"province":"Papua","city":"Paniai","district":"Paniai Timur","urban":"Waidede","postal_code":98711},{"province":"Papua","city":"Paniai","district":"Paniai Timur","urban":"Toko","postal_code":98711},{"province":"Papua","city":"Paniai","district":"Paniai Timur","urban":"Uwibutu","postal_code":98711},{"province":"Papua","city":"Paniai","district":"Paniai Timur","urban":"Pugo","postal_code":98711},{"province":"Papua","city":"Paniai","district":"Paniai Timur","urban":"Kogekotu","postal_code":98711},{"province":"Papua","city":"Paniai","district":"Paniai Timur","urban":"Kopaidagi","postal_code":98711},{"province":"Papua","city":"Paniai","district":"Paniai Timur","urban":"Papato","postal_code":98711},{"province":"Papua","city":"Paniai","district":"Paniai Timur","urban":"Kagupago","postal_code":98711},{"province":"Papua","city":"Paniai","district":"Paniai Timur","urban":"Ipakiye","postal_code":98711},{"province":"Papua","city":"Paniai","district":"Paniai Timur","urban":"Geibu","postal_code":98711},{"province":"Papua","city":"Paniai","district":"Paniai Timur","urban":"Geko","postal_code":98711},{"province":"Papua","city":"Paniai","district":"Paniai Timur","urban":"Aikai","postal_code":98711},{"province":"Papua","city":"Paniai","district":"Paniai Timur","urban":"Badawo","postal_code":98711},{"province":"Papua","city":"Paniai","district":"Paniai Timur","urban":"Dagouto","postal_code":98711}]