[{"province":"Papua","city":"Paniai","district":"Paniai Barat","urban":"Totiyo","postal_code":98763},{"province":"Papua","city":"Paniai","district":"Paniai Barat","urban":"Ukauwo","postal_code":98763},{"province":"Papua","city":"Paniai","district":"Paniai Barat","urban":"Waipa","postal_code":98763},{"province":"Papua","city":"Paniai","district":"Siriwo","urban":"Tadia (Kepi/Todia/Tadia Ayaikebo)","postal_code":98763},{"province":"Papua","city":"Paniai","district":"Paniai Barat","urban":"Tipakotu","postal_code":98763},{"province":"Papua","city":"Paniai","district":"Siriwo","urban":"Siriwo (Dadou)","postal_code":98763},{"province":"Papua","city":"Paniai","district":"Paniai Barat","urban":"Okaitadi","postal_code":98763},{"province":"Papua","city":"Paniai","district":"Paniai Barat","urban":"Muyetadi","postal_code":98763},{"province":"Papua","city":"Paniai","district":"Paniai Barat","urban":"Obano","postal_code":98763},{"province":"Papua","city":"Paniai","district":"Paniai Barat","urban":"Kegouda","postal_code":98763},{"province":"Papua","city":"Paniai","district":"Paniai Barat","urban":"Kito","postal_code":98763},{"province":"Papua","city":"Paniai","district":"Paniai Barat","urban":"Mogoya","postal_code":98763},{"province":"Papua","city":"Paniai","district":"Paniai Barat","urban":"Geiketago","postal_code":98763},{"province":"Papua","city":"Paniai","district":"Siriwo","urban":"Bua (Kotu/Ikotu)","postal_code":98763},{"province":"Papua","city":"Paniai","district":"Paniai Barat","urban":"Epabutu","postal_code":98763},{"province":"Papua","city":"Paniai","district":"Paniai Barat","urban":"Beko","postal_code":98763}]