[{"province":"Papua","city":"Paniai","district":"Aradide","urban":"Yabomaida","postal_code":98766},{"province":"Papua","city":"Paniai","district":"Aradide","urban":"Toyaimoti","postal_code":98766},{"province":"Papua","city":"Paniai","district":"Aradide","urban":"Tuguwai","postal_code":98766},{"province":"Papua","city":"Paniai","district":"Aradide","urban":"Makidini","postal_code":98766},{"province":"Papua","city":"Paniai","district":"Ekadide","urban":"Obaipugaida","postal_code":98766},{"province":"Papua","city":"Paniai","district":"Ekadide","urban":"Pasir Putih","postal_code":98766},{"province":"Papua","city":"Paniai","district":"Aradide","urban":"Deta","postal_code":98766},{"province":"Papua","city":"Paniai","district":"Ekadide","urban":"Eyagitaida","postal_code":98766},{"province":"Papua","city":"Paniai","district":"Ekadide","urban":"Geida","postal_code":98766},{"province":"Papua","city":"Paniai","district":"Aradide","urban":"Dauwagu","postal_code":98766},{"province":"Papua","city":"Paniai","district":"Aradide","urban":"Akoubaida","postal_code":98766},{"province":"Papua","city":"Paniai","district":"Aradide","urban":"Baguwo","postal_code":98766},{"province":"Papua","city":"Paniai","district":"Aradide","urban":"Agapo","postal_code":98766},{"province":"Papua","city":"Paniai","district":"Ekadide","urban":"Agapo","postal_code":98766},{"province":"Papua","city":"Paniai","district":"Aradide","urban":"Abatadi","postal_code":98766}]