[{"province":"Papua","city":"Intan Jaya","district":"Sugapa","urban":"Titigi","postal_code":98769},{"province":"Papua","city":"Intan Jaya","district":"Sugapa","urban":"Ndugusiga","postal_code":98769},{"province":"Papua","city":"Intan Jaya","district":"Sugapa","urban":"Eknemba / Enemba","postal_code":98769},{"province":"Papua","city":"Intan Jaya","district":"Homeo (Homeyo)","urban":"Bonogo","postal_code":98769},{"province":"Papua","city":"Paniai","district":"Bogobaida","urban":"Youtadi","postal_code":98769},{"province":"Papua","city":"Paniai","district":"Bogobaida","urban":"Uwagi","postal_code":98769},{"province":"Papua","city":"Paniai","district":"Bogobaida","urban":"Nawipauwo","postal_code":98769},{"province":"Papua","city":"Paniai","district":"Bogobaida","urban":"Nomouwodide","postal_code":98769},{"province":"Papua","city":"Paniai","district":"Bogobaida","urban":"Ipouwa","postal_code":98769},{"province":"Papua","city":"Paniai","district":"Bogobaida","urban":"Bogobaida","postal_code":98769}]