[{"province":"Papua","city":"Intan Jaya","district":"Sugapa","urban":"Yoparu","postal_code":98768},{"province":"Papua","city":"Intan Jaya","district":"Sugapa","urban":"Yalai (Jabai/Jalai)","postal_code":98768},{"province":"Papua","city":"Intan Jaya","district":"Sugapa","urban":"Yokatapa (Tokatapa)","postal_code":98768},{"province":"Papua","city":"Intan Jaya","district":"Hitadipa","urban":"Wabui","postal_code":98768},{"province":"Papua","city":"Intan Jaya","district":"Sugapa","urban":"Ugimba","postal_code":98768},{"province":"Papua","city":"Intan Jaya","district":"Sugapa","urban":"Wandoga","postal_code":98768},{"province":"Papua","city":"Intan Jaya","district":"Hitadipa","urban":"Sanaba (Sanamba)","postal_code":98768},{"province":"Papua","city":"Intan Jaya","district":"Hitadipa","urban":"Soagama","postal_code":98768},{"province":"Papua","city":"Intan Jaya","district":"Hitadipa","urban":"Titigi","postal_code":98768},{"province":"Papua","city":"Intan Jaya","district":"Sugapa","urban":"Mindau","postal_code":98768},{"province":"Papua","city":"Intan Jaya","district":"Sugapa","urban":"Puyagiya","postal_code":98768},{"province":"Papua","city":"Intan Jaya","district":"Sugapa","urban":"Mamba","postal_code":98768},{"province":"Papua","city":"Intan Jaya","district":"Sugapa","urban":"Mbilusiga","postal_code":98768},{"province":"Papua","city":"Intan Jaya","district":"Sugapa","urban":"Kumlagupa","postal_code":98768},{"province":"Papua","city":"Intan Jaya","district":"Hitadipa","urban":"Kulapa","postal_code":98768},{"province":"Papua","city":"Intan Jaya","district":"Sugapa","urban":"Emondi (Kemondi)","postal_code":98768},{"province":"Papua","city":"Intan Jaya","district":"Hitadipa","urban":"Hitadipa","postal_code":98768},{"province":"Papua","city":"Intan Jaya","district":"Hitadipa","urban":"Danggomba","postal_code":98768},{"province":"Papua","city":"Intan Jaya","district":"Sugapa","urban":"Degeyabu","postal_code":98768},{"province":"Papua","city":"Intan Jaya","district":"Hitadipa","urban":"Eknemba/Elenemba","postal_code":98768},{"province":"Papua","city":"Intan Jaya","district":"Sugapa","urban":"Bilogai","postal_code":98768}]