[{"province":"Papua","city":"Intan Jaya","district":"Agisiga","urban":"Unabindaga (Unabundaga/Unabundoga)","postal_code":98783},{"province":"Papua","city":"Intan Jaya","district":"Agisiga","urban":"Tomasiga","postal_code":98783},{"province":"Papua","city":"Intan Jaya","district":"Agisiga","urban":"Kombogasiga","postal_code":98783},{"province":"Papua","city":"Intan Jaya","district":"Agisiga","urban":"Solip","postal_code":98783},{"province":"Papua","city":"Intan Jaya","district":"Agisiga","urban":"Tausiga (Tousiga)","postal_code":98783},{"province":"Papua","city":"Intan Jaya","district":"Agisiga","urban":"Jawasiga","postal_code":98783},{"province":"Papua","city":"Intan Jaya","district":"Agisiga","urban":"Kembagel","postal_code":98783},{"province":"Papua","city":"Intan Jaya","district":"Agisiga","urban":"Dapiaga","postal_code":98783},{"province":"Papua","city":"Intan Jaya","district":"Agisiga","urban":"Fugisiga (Pugisiga)","postal_code":98783},{"province":"Papua","city":"Intan Jaya","district":"Agisiga","urban":"Bamogo (MBamogo)","postal_code":98783},{"province":"Papua","city":"Intan Jaya","district":"Agisiga","urban":"Dangkoa","postal_code":98783},{"province":"Papua","city":"Intan Jaya","district":"Agisiga","urban":"Agisiga","postal_code":98783},{"province":"Papua","city":"Intan Jaya","district":"Agisiga","urban":"Balamai (Balaimai)","postal_code":98783}]