[{"province":"Papua","city":"Intan Jaya","district":"Biandoga","urban":"Yagaito (Jagaito/Tagito)","postal_code":98784},{"province":"Papua","city":"Intan Jaya","district":"Biandoga","urban":"Yanei (Janei/Yamei)","postal_code":98784},{"province":"Papua","city":"Intan Jaya","district":"Biandoga","urban":"Yanei (Janei/Yamei)","postal_code":98784},{"province":"Papua","city":"Intan Jaya","district":"Wandai","urban":"Mogalo Pemda","postal_code":98784},{"province":"Papua","city":"Intan Jaya","district":"Wandai","urban":"Mbugulo Pemda","postal_code":98784},{"province":"Papua","city":"Intan Jaya","district":"Biandoga","urban":"Mbialapa","postal_code":98784},{"province":"Papua","city":"Intan Jaya","district":"Biandoga","urban":"Kalawa","postal_code":98784},{"province":"Papua","city":"Intan Jaya","district":"Biandoga","urban":"Kigitadi","postal_code":98784},{"province":"Papua","city":"Intan Jaya","district":"Wandai","urban":"Isandoga Pemda","postal_code":98784},{"province":"Papua","city":"Intan Jaya","district":"Wandai","urban":"Jae Pemda","postal_code":98784},{"province":"Papua","city":"Intan Jaya","district":"Wandai","urban":"Hulapuga","postal_code":98784},{"province":"Papua","city":"Intan Jaya","district":"Biandoga","urban":"Isan Doga","postal_code":98784},{"province":"Papua","city":"Intan Jaya","district":"Wandai","urban":"Dubasiga Pemda","postal_code":98784},{"province":"Papua","city":"Intan Jaya","district":"Biandoga","urban":"Hipadipa (Hitadipa)","postal_code":98784},{"province":"Papua","city":"Intan Jaya","district":"Wandai","urban":"Debasiga Pemda","postal_code":98784},{"province":"Papua","city":"Intan Jaya","district":"Wandai","urban":"Debasiga Dua Pemda","postal_code":98784},{"province":"Papua","city":"Intan Jaya","district":"Biandoga","urban":"Debasiga","postal_code":98784},{"province":"Papua","city":"Intan Jaya","district":"Biandoga","urban":"Debasiga Dua / II","postal_code":98784},{"province":"Papua","city":"Intan Jaya","district":"Biandoga","urban":"Bugalaga","postal_code":98784},{"province":"Papua","city":"Intan Jaya","district":"Biandoga","urban":"Danggatadi","postal_code":98784},{"province":"Papua","city":"Intan Jaya","district":"Biandoga","urban":"Biandoga","postal_code":98784},{"province":"Papua","city":"Intan Jaya","district":"Biandoga","urban":"Biatapa","postal_code":98784},{"province":"Papua","city":"Intan Jaya","district":"Biandoga","urban":"Aneya","postal_code":98784}]