[{"province":"Papua","city":"Nabire","district":"Uwapa","urban":"Urumusu","postal_code":98853},{"province":"Papua","city":"Nabire","district":"Menou","urban":"Yageugi","postal_code":98853},{"province":"Papua","city":"Nabire","district":"Dipa","urban":"Tagauto (Tadautu)","postal_code":98853},{"province":"Papua","city":"Nabire","district":"Uwapa","urban":"Topo","postal_code":98853},{"province":"Papua","city":"Nabire","district":"Uwapa","urban":"Topo Jaya","postal_code":98853},{"province":"Papua","city":"Nabire","district":"Yaro (Yaro Kabisay)","urban":"Ororodo","postal_code":98853},{"province":"Papua","city":"Nabire","district":"Yaro (Yaro Kabisay)","urban":"Parauto","postal_code":98853},{"province":"Papua","city":"Nabire","district":"Uwapa","urban":"Margajaya","postal_code":98853},{"province":"Papua","city":"Nabire","district":"Menou","urban":"Ogiyai (Ogiay/Waisai)","postal_code":98853},{"province":"Papua","city":"Nabire","district":"Menou","urban":"Kunupi / Obaipoto","postal_code":98853},{"province":"Papua","city":"Nabire","district":"Menou","urban":"Lokodimi / Bokomidi","postal_code":98853},{"province":"Papua","city":"Nabire","district":"Dipa","urban":"Jainoa","postal_code":98853},{"province":"Papua","city":"Nabire","district":"Dipa","urban":"Jigikebo","postal_code":98853},{"province":"Papua","city":"Nabire","district":"Dipa","urban":"Epouwa (Epowa)","postal_code":98853},{"province":"Papua","city":"Nabire","district":"Uwapa","urban":"Gamei Jaya","postal_code":98853},{"province":"Papua","city":"Nabire","district":"Dipa","urban":"Dikia (Dikiya)","postal_code":98853},{"province":"Papua","city":"Nabire","district":"Yaro (Yaro Kabisay)","urban":"Bomopai","postal_code":98853},{"province":"Papua","city":"Nabire","district":"Uwapa","urban":"Argomulyo","postal_code":98853}]