[{"province":"Papua","city":"Dogiyai","district":"Piyaiye (Sukikai)","urban":"Yegiyepa (Yegeiyepa)","postal_code":98857},{"province":"Papua","city":"Dogiyai","district":"Sukikai Selatan","urban":"Wigoumakida","postal_code":98857},{"province":"Papua","city":"Dogiyai","district":"Sukikai Selatan","urban":"Unito","postal_code":98857},{"province":"Papua","city":"Dogiyai","district":"Piyaiye (Sukikai)","urban":"Ukagu","postal_code":98857},{"province":"Papua","city":"Dogiyai","district":"Piyaiye (Sukikai)","urban":"Tipaugi","postal_code":98857},{"province":"Papua","city":"Dogiyai","district":"Sukikai Selatan","urban":"Sukikai","postal_code":98857},{"province":"Papua","city":"Dogiyai","district":"Sukikai Selatan","urban":"Iyaro","postal_code":98857},{"province":"Papua","city":"Dogiyai","district":"Piyaiye (Sukikai)","urban":"Kegata","postal_code":98857},{"province":"Papua","city":"Dogiyai","district":"Piyaiye (Sukikai)","urban":"Ideduwa","postal_code":98857},{"province":"Papua","city":"Dogiyai","district":"Piyaiye (Sukikai)","urban":"Egipa","postal_code":98857},{"province":"Papua","city":"Dogiyai","district":"Piyaiye (Sukikai)","urban":"Deniyode (Deneiode)","postal_code":98857},{"province":"Papua","city":"Dogiyai","district":"Piyaiye (Sukikai)","urban":"Apogomakida (Aporomakida)","postal_code":98857}]