[{"province":"Papua","city":"Dogiyai","district":"Mapia Barat","urban":"Yegoukotu","postal_code":98854},{"province":"Papua","city":"Dogiyai","district":"Mapia Tengah","urban":"Upibega (Ukudawata)","postal_code":98854},{"province":"Papua","city":"Dogiyai","district":"Mapia Barat","urban":"Toubaikebo (Tobaikebo)","postal_code":98854},{"province":"Papua","city":"Dogiyai","district":"Mapia Tengah","urban":"Timepa","postal_code":98854},{"province":"Papua","city":"Dogiyai","district":"Mapia Tengah","urban":"Putapa","postal_code":98854},{"province":"Papua","city":"Dogiyai","district":"Mapia Tengah","urban":"Piyakunu","postal_code":98854},{"province":"Papua","city":"Dogiyai","district":"Mapia","urban":"Obaikagopa (Abaugi)","postal_code":98854},{"province":"Papua","city":"Dogiyai","district":"Mapia Tengah","urban":"Modio","postal_code":98854},{"province":"Papua","city":"Dogiyai","district":"Mapia Barat","urban":"Maikotu","postal_code":98854},{"province":"Papua","city":"Dogiyai","district":"Mapia Barat","urban":"Maikotu","postal_code":98854},{"province":"Papua","city":"Dogiyai","district":"Mapia","urban":"Magode (Magone)","postal_code":98854},{"province":"Papua","city":"Dogiyai","district":"Mapia","urban":"Gapoya","postal_code":98854},{"province":"Papua","city":"Dogiyai","district":"Mapia Tengah","urban":"Gabaikunu","postal_code":98854},{"province":"Papua","city":"Dogiyai","district":"Mapia","urban":"Diyoudimi","postal_code":98854},{"province":"Papua","city":"Dogiyai","district":"Mapia Tengah","urban":"Diyeugi","postal_code":98854},{"province":"Papua","city":"Dogiyai","district":"Mapia","urban":"Dawaikunu","postal_code":98854},{"province":"Papua","city":"Dogiyai","district":"Mapia Tengah","urban":"Atou (Tuamani)","postal_code":98854},{"province":"Papua","city":"Dogiyai","district":"Mapia","urban":"Bomomani","postal_code":98854},{"province":"Papua","city":"Dogiyai","district":"Mapia Tengah","urban":"Adauwo","postal_code":98854},{"province":"Papua","city":"Dogiyai","district":"Mapia Barat","urban":"Abouyaga","postal_code":98854},{"province":"Papua","city":"Dogiyai","district":"Mapia","urban":"Abaimaida","postal_code":98854},{"province":"Papua","city":"Nabire","district":"Siriwo","urban":"Ugida","postal_code":98854},{"province":"Papua","city":"Nabire","district":"Siriwo","urban":"Tibai","postal_code":98854},{"province":"Papua","city":"Nabire","district":"Siriwo","urban":"Siriwo (Unipo)","postal_code":98854},{"province":"Papua","city":"Nabire","district":"Siriwo","urban":"Mabua / Mabou","postal_code":98854},{"province":"Papua","city":"Nabire","district":"Siriwo","urban":"Epomani","postal_code":98854},{"province":"Papua","city":"Nabire","district":"Siriwo","urban":"Aibore","postal_code":98854}]