[{"province":"Papua","city":"Nabire","district":"Yaro (Yaro Kabisay)","urban":"Yaro Makmur","postal_code":98856},{"province":"Papua","city":"Nabire","district":"Yaro (Yaro Kabisay)","urban":"Wiraska","postal_code":98856},{"province":"Papua","city":"Nabire","district":"Nabire Barat","urban":"Waroki","postal_code":98856},{"province":"Papua","city":"Nabire","district":"Yaro (Yaro Kabisay)","urban":"Wanggar Sari","postal_code":98856},{"province":"Papua","city":"Nabire","district":"Yaro (Yaro Kabisay)","urban":"Wanggar Pantai","postal_code":98856},{"province":"Papua","city":"Nabire","district":"Wanggar","urban":"Wanggar Makmur","postal_code":98856},{"province":"Papua","city":"Nabire","district":"Wanggar","urban":"Karadiri","postal_code":98856},{"province":"Papua","city":"Nabire","district":"Nabire Barat","urban":"Wadio","postal_code":98856},{"province":"Papua","city":"Nabire","district":"Nabire Barat","urban":"Kalisemen","postal_code":98856},{"province":"Papua","city":"Nabire","district":"Yaro (Yaro Kabisay)","urban":"Jaya Mukti","postal_code":98856},{"province":"Papua","city":"Nabire","district":"Nabire Barat","urban":"Gerbang Sadu","postal_code":98856},{"province":"Papua","city":"Nabire","district":"Nabire Barat","urban":"Bumi Raya","postal_code":98856},{"province":"Papua","city":"Nabire","district":"Wanggar","urban":"Bumi Mulya (Bumimulia)","postal_code":98856}]