[{"province":"Papua","city":"Nabire","district":"Wapoga","urban":"Totoberi","postal_code":98861},{"province":"Papua","city":"Nabire","district":"Napan","urban":"Weinami","postal_code":98861},{"province":"Papua","city":"Nabire","district":"Wapoga","urban":"Samanui","postal_code":98861},{"province":"Papua","city":"Nabire","district":"Wapoga","urban":"Taumi","postal_code":98861},{"province":"Papua","city":"Nabire","district":"Makimi","urban":"Nifasi","postal_code":98861},{"province":"Papua","city":"Nabire","district":"Napan","urban":"Napan","postal_code":98861},{"province":"Papua","city":"Nabire","district":"Napan","urban":"Masipawa","postal_code":98861},{"province":"Papua","city":"Nabire","district":"Moora","urban":"Moor","postal_code":98861},{"province":"Papua","city":"Nabire","district":"Makimi","urban":"Manunggal Jaya","postal_code":98861},{"province":"Papua","city":"Nabire","district":"Makimi","urban":"Maidei","postal_code":98861},{"province":"Papua","city":"Nabire","district":"Makimi","urban":"Makimi","postal_code":98861},{"province":"Papua","city":"Nabire","district":"Moora","urban":"Mambor","postal_code":98861},{"province":"Papua","city":"Nabire","district":"Makimi","urban":"Legari Jaya","postal_code":98861},{"province":"Papua","city":"Nabire","district":"Wapoga","urban":"Keuw","postal_code":98861},{"province":"Papua","city":"Nabire","district":"Wapoga","urban":"Kamarisanoi","postal_code":98861},{"province":"Papua","city":"Nabire","district":"Moora","urban":"Kama","postal_code":98861},{"province":"Papua","city":"Nabire","district":"Moora","urban":"Hariti","postal_code":98861},{"province":"Papua","city":"Nabire","district":"Makimi","urban":"Biha","postal_code":98861},{"province":"Papua","city":"Nabire","district":"Moora","urban":"Arui","postal_code":98861}]