[{"province":"Papua","city":"Dogiyai","district":"Kamu Selatan","urban":"Yepo (Makidimi)","postal_code":98862},{"province":"Papua","city":"Dogiyai","district":"Kamu Selatan","urban":"Tuwaida","postal_code":98862},{"province":"Papua","city":"Dogiyai","district":"Kamu Selatan","urban":"Ugikagouda","postal_code":98862},{"province":"Papua","city":"Dogiyai","district":"Kamu","urban":"Putapa (Uputapa)","postal_code":98862},{"province":"Papua","city":"Dogiyai","district":"Kamu Selatan","urban":"Ugikebo","postal_code":98862},{"province":"Papua","city":"Dogiyai","district":"Kamu Selatan","urban":"Pouwoda (Pouwuoda)","postal_code":98862},{"province":"Papua","city":"Dogiyai","district":"Kamu Selatan","urban":"Puweta/Pueta I","postal_code":98862},{"province":"Papua","city":"Dogiyai","district":"Dogiyai","urban":"Pona (Sukamaju)","postal_code":98862},{"province":"Papua","city":"Dogiyai","district":"Kamu Selatan","urban":"Puweta/Pueta II","postal_code":98862},{"province":"Papua","city":"Dogiyai","district":"Kamu Selatan","urban":"Obaibega","postal_code":98862},{"province":"Papua","city":"Dogiyai","district":"Dogiyai","urban":"Motito","postal_code":98862},{"province":"Papua","city":"Dogiyai","district":"Dogiyai","urban":"Makidimi (Makidini)","postal_code":98862},{"province":"Papua","city":"Dogiyai","district":"Kamu","urban":"Mauwa","postal_code":98862},{"province":"Papua","city":"Dogiyai","district":"Kamu Selatan","urban":"Matadi","postal_code":98862},{"province":"Papua","city":"Dogiyai","district":"Kamu","urban":"Kimipugi (Kimupugi)","postal_code":98862},{"province":"Papua","city":"Dogiyai","district":"Dogiyai","urban":"Kegemani (Kigamani)","postal_code":98862},{"province":"Papua","city":"Dogiyai","district":"Kamu","urban":"Idakotu","postal_code":98862},{"province":"Papua","city":"Dogiyai","district":"Kamu","urban":"Ikebo (Moanemani)","postal_code":98862},{"province":"Papua","city":"Dogiyai","district":"Dogiyai","urban":"Idadagi","postal_code":98862},{"province":"Papua","city":"Dogiyai","district":"Kamu","urban":"Ekemanida (Ekemenida)","postal_code":98862},{"province":"Papua","city":"Dogiyai","district":"Dogiyai","urban":"Egebutu","postal_code":98862},{"province":"Papua","city":"Dogiyai","district":"Kamu","urban":"Dikiyouwa/Dikiyouma (Tokapo)","postal_code":98862},{"province":"Papua","city":"Dogiyai","district":"Kamu Selatan","urban":"Digikebo","postal_code":98862},{"province":"Papua","city":"Dogiyai","district":"Dogiyai","urban":"Dogimani (Abgoigi)","postal_code":98862},{"province":"Papua","city":"Dogiyai","district":"Dogiyai","urban":"Denemani","postal_code":98862},{"province":"Papua","city":"Dogiyai","district":"Dogiyai","urban":"Denemani","postal_code":98862},{"province":"Papua","city":"Dogiyai","district":"Kamu Selatan","urban":"Bogiyateugi","postal_code":98862},{"province":"Papua","city":"Dogiyai","district":"Kamu Selatan","urban":"Botumuma (Botumoma)","postal_code":98862},{"province":"Papua","city":"Dogiyai","district":"Dogiyai","urban":"Bobubutu","postal_code":98862}]