[{"province":"Papua","city":"Dogiyai","district":"Kamu Timur","urban":"Yotapuga","postal_code":98863},{"province":"Papua","city":"Dogiyai","district":"Kamu Utara (Ikrar/Ikrat)","urban":"Yawetadi","postal_code":98863},{"province":"Papua","city":"Dogiyai","district":"Kamu Utara (Ikrar/Ikrat)","urban":"Pugatadi Satu (I)","postal_code":98863},{"province":"Papua","city":"Dogiyai","district":"Kamu Timur","urban":"Ugapuga","postal_code":98863},{"province":"Papua","city":"Dogiyai","district":"Kamu Utara (Ikrar/Ikrat)","urban":"Obayo","postal_code":98863},{"province":"Papua","city":"Dogiyai","district":"Kamu Utara (Ikrar/Ikrat)","urban":"Pugatadi Dua (II)","postal_code":98863},{"province":"Papua","city":"Dogiyai","district":"Kamu Utara (Ikrar/Ikrat)","urban":"Mogou","postal_code":98863},{"province":"Papua","city":"Dogiyai","district":"Kamu Timur","urban":"Nuwa (Nua)","postal_code":98863},{"province":"Papua","city":"Dogiyai","district":"Kamu Utara (Ikrar/Ikrat)","urban":"Idakebo","postal_code":98863},{"province":"Papua","city":"Dogiyai","district":"Kamu Utara (Ikrar/Ikrat)","urban":"Ikrar","postal_code":98863},{"province":"Papua","city":"Dogiyai","district":"Kamu Utara (Ikrar/Ikrat)","urban":"Koyakago (Kuyakago)","postal_code":98863},{"province":"Papua","city":"Dogiyai","district":"Kamu Utara (Ikrar/Ikrat)","urban":"Duntek (Dumtek)","postal_code":98863},{"province":"Papua","city":"Dogiyai","district":"Kamu Utara (Ikrar/Ikrat)","urban":"Ekimani (Ekiwani)","postal_code":98863},{"province":"Papua","city":"Dogiyai","district":"Kamu Timur","urban":"Bunauwo","postal_code":98863},{"province":"Papua","city":"Dogiyai","district":"Kamu Timur","urban":"Deiyapa (Deiyepa)","postal_code":98863},{"province":"Papua","city":"Dogiyai","district":"Kamu Timur","urban":"Boduda","postal_code":98863},{"province":"Papua","city":"Dogiyai","district":"Kamu Timur","urban":"Bokaibutu (Bukaibuto)","postal_code":98863}]