[{"province":"Papua","city":"Puncak Jaya","district":"Tingginambut","urban":"Yunggwi","postal_code":98912},{"province":"Papua","city":"Puncak Jaya","district":"Tingginambut","urban":"Yonggun","postal_code":98912},{"province":"Papua","city":"Puncak Jaya","district":"Tingginambut","urban":"Yogorini","postal_code":98912},{"province":"Papua","city":"Puncak Jaya","district":"Tingginambut","urban":"Yaniruk","postal_code":98912},{"province":"Papua","city":"Puncak Jaya","district":"Tingginambut","urban":"Yarmukum","postal_code":98912},{"province":"Papua","city":"Puncak Jaya","district":"Tingginambut","urban":"Yamengga","postal_code":98912},{"province":"Papua","city":"Puncak Jaya","district":"Tingginambut","urban":"Yanenggawi","postal_code":98912},{"province":"Papua","city":"Puncak Jaya","district":"Tingginambut","urban":"Wurungkime","postal_code":98912},{"province":"Papua","city":"Puncak Jaya","district":"Tingginambut","urban":"Yalibate","postal_code":98912},{"province":"Papua","city":"Puncak Jaya","district":"Tingginambut","urban":"Wurabume","postal_code":98912},{"province":"Papua","city":"Puncak Jaya","district":"Tingginambut","urban":"Wonwi","postal_code":98912},{"province":"Papua","city":"Puncak Jaya","district":"Tingginambut","urban":"Wundini","postal_code":98912},{"province":"Papua","city":"Puncak Jaya","district":"Tingginambut","urban":"Uragi","postal_code":98912},{"province":"Papua","city":"Puncak Jaya","district":"Tingginambut","urban":"Wiyage","postal_code":98912},{"province":"Papua","city":"Puncak Jaya","district":"Tingginambut","urban":"Turotaro","postal_code":98912},{"province":"Papua","city":"Puncak Jaya","district":"Tingginambut","urban":"Torage","postal_code":98912},{"province":"Papua","city":"Puncak Jaya","district":"Tingginambut","urban":"Towoluk","postal_code":98912},{"province":"Papua","city":"Puncak Jaya","district":"Tingginambut","urban":"Tingginime","postal_code":98912},{"province":"Papua","city":"Puncak Jaya","district":"Tingginambut","urban":"Tombo","postal_code":98912},{"province":"Papua","city":"Puncak Jaya","district":"Tingginambut","urban":"Tenolok","postal_code":98912},{"province":"Papua","city":"Puncak Jaya","district":"Tingginambut","urban":"Tingginambut","postal_code":98912},{"province":"Papua","city":"Puncak Jaya","district":"Tingginambut","urban":"Tinggineri","postal_code":98912},{"province":"Papua","city":"Puncak Jaya","district":"Tingginambut","urban":"Ponggoname","postal_code":98912},{"province":"Papua","city":"Puncak Jaya","district":"Tingginambut","urban":"Purugi","postal_code":98912},{"province":"Papua","city":"Puncak Jaya","district":"Tingginambut","urban":"Pilibur","postal_code":98912},{"province":"Papua","city":"Puncak Jaya","district":"Tingginambut","urban":"Pernaluk","postal_code":98912},{"province":"Papua","city":"Puncak Jaya","district":"Tingginambut","urban":"Pilia","postal_code":98912},{"province":"Papua","city":"Puncak Jaya","district":"Tingginambut","urban":"Paralo","postal_code":98912},{"province":"Papua","city":"Puncak Jaya","district":"Tingginambut","urban":"Pelalo","postal_code":98912},{"province":"Papua","city":"Puncak Jaya","district":"Tingginambut","urban":"Palumagi","postal_code":98912},{"province":"Papua","city":"Puncak Jaya","district":"Tingginambut","urban":"Papua","postal_code":98912},{"province":"Papua","city":"Puncak Jaya","district":"Tingginambut","urban":"Pagarugom","postal_code":98912},{"province":"Papua","city":"Puncak Jaya","district":"Tingginambut","urban":"Nuwi","postal_code":98912},{"province":"Papua","city":"Puncak Jaya","district":"Tingginambut","urban":"Oriluk","postal_code":98912},{"province":"Papua","city":"Puncak Jaya","district":"Tingginambut","urban":"Nenegame","postal_code":98912},{"province":"Papua","city":"Puncak Jaya","district":"Tingginambut","urban":"Nggegen","postal_code":98912},{"province":"Papua","city":"Puncak Jaya","district":"Tingginambut","urban":"Naburage","postal_code":98912},{"province":"Papua","city":"Puncak Jaya","district":"Tingginambut","urban":"Nakongwe","postal_code":98912},{"province":"Papua","city":"Puncak Jaya","district":"Tingginambut","urban":"Melekom","postal_code":98912},{"province":"Papua","city":"Puncak Jaya","district":"Tingginambut","urban":"Mondogoneri","postal_code":98912},{"province":"Papua","city":"Puncak Jaya","district":"Tingginambut","urban":"Monia","postal_code":98912},{"province":"Papua","city":"Puncak Jaya","district":"Tingginambut","urban":"Lura Bara","postal_code":98912},{"province":"Papua","city":"Puncak Jaya","district":"Tingginambut","urban":"Lerawera","postal_code":98912},{"province":"Papua","city":"Puncak Jaya","district":"Tingginambut","urban":"Longgawi","postal_code":98912},{"province":"Papua","city":"Puncak Jaya","district":"Tingginambut","urban":"Lumbuk","postal_code":98912},{"province":"Papua","city":"Puncak Jaya","district":"Tingginambut","urban":"Kiburu","postal_code":98912},{"province":"Papua","city":"Puncak Jaya","district":"Tingginambut","urban":"Kalome","postal_code":98912},{"province":"Papua","city":"Puncak Jaya","district":"Tingginambut","urban":"Kayogebur","postal_code":98912},{"province":"Papua","city":"Puncak Jaya","district":"Tingginambut","urban":"Jugumblawi","postal_code":98912},{"province":"Papua","city":"Puncak Jaya","district":"Tingginambut","urban":"Jinggwi","postal_code":98912},{"province":"Papua","city":"Puncak Jaya","district":"Tingginambut","urban":"Jiramok","postal_code":98912},{"province":"Papua","city":"Puncak Jaya","district":"Tingginambut","urban":"Jiwone","postal_code":98912},{"province":"Papua","city":"Puncak Jaya","district":"Tingginambut","urban":"Jibinggame","postal_code":98912},{"province":"Papua","city":"Puncak Jaya","district":"Tingginambut","urban":"Jigobak","postal_code":98912},{"province":"Papua","city":"Puncak Jaya","district":"Tingginambut","urban":"Gubupur","postal_code":98912},{"province":"Papua","city":"Puncak Jaya","district":"Tingginambut","urban":"Gwenggu","postal_code":98912},{"province":"Papua","city":"Puncak Jaya","district":"Tingginambut","urban":"Inikimaluk","postal_code":98912},{"province":"Papua","city":"Puncak Jaya","district":"Tingginambut","urban":"Ginipago","postal_code":98912},{"province":"Papua","city":"Puncak Jaya","district":"Tingginambut","urban":"Greja Lama","postal_code":98912},{"province":"Papua","city":"Puncak Jaya","district":"Tingginambut","urban":"Gigume","postal_code":98912},{"province":"Papua","city":"Puncak Jaya","district":"Tingginambut","urban":"Gimanggen","postal_code":98912},{"province":"Papua","city":"Puncak Jaya","district":"Tingginambut","urban":"Ginilome","postal_code":98912},{"province":"Papua","city":"Puncak Jaya","district":"Tingginambut","urban":"Diraluk","postal_code":98912},{"province":"Papua","city":"Puncak Jaya","district":"Tingginambut","urban":"Gibume","postal_code":98912},{"province":"Papua","city":"Puncak Jaya","district":"Tingginambut","urban":"Cilome","postal_code":98912},{"province":"Papua","city":"Puncak Jaya","district":"Tingginambut","urban":"Degi","postal_code":98912},{"province":"Papua","city":"Puncak Jaya","district":"Tingginambut","urban":"Bime","postal_code":98912},{"province":"Papua","city":"Puncak Jaya","district":"Tingginambut","urban":"Binggelakme","postal_code":98912},{"province":"Papua","city":"Puncak Jaya","district":"Tingginambut","urban":"Bonaluk","postal_code":98912},{"province":"Papua","city":"Puncak Jaya","district":"Tingginambut","urban":"Berem","postal_code":98912},{"province":"Papua","city":"Puncak Jaya","district":"Tingginambut","urban":"Berime","postal_code":98912},{"province":"Papua","city":"Puncak Jaya","district":"Tingginambut","urban":"Bigirage","postal_code":98912},{"province":"Papua","city":"Puncak Jaya","district":"Tingginambut","urban":"Aulakmu","postal_code":98912},{"province":"Papua","city":"Puncak Jaya","district":"Tingginambut","urban":"Aulame","postal_code":98912},{"province":"Papua","city":"Puncak Jaya","district":"Tingginambut","urban":"Agape","postal_code":98912}]