[{"province":"Papua","city":"Puncak Jaya","district":"Ilu","urban":"Yamoneri","postal_code":98916},{"province":"Papua","city":"Puncak Jaya","district":"Ilu","urban":"Wurak","postal_code":98916},{"province":"Papua","city":"Puncak Jaya","district":"Ilu","urban":"Yagaluk","postal_code":98916},{"province":"Papua","city":"Puncak Jaya","district":"Ilu","urban":"Wugiwagi","postal_code":98916},{"province":"Papua","city":"Puncak Jaya","district":"Ilu","urban":"Tirigoi","postal_code":98916},{"province":"Papua","city":"Puncak Jaya","district":"Ilu","urban":"Tenomanggen","postal_code":98916},{"province":"Papua","city":"Puncak Jaya","district":"Ilu","urban":"Piyapigi","postal_code":98916},{"province":"Papua","city":"Puncak Jaya","district":"Ilu","urban":"Pulau Timur","postal_code":98916},{"province":"Papua","city":"Puncak Jaya","district":"Ilu","urban":"Pulogengga","postal_code":98916},{"province":"Papua","city":"Puncak Jaya","district":"Ilu","urban":"Pereya","postal_code":98916},{"province":"Papua","city":"Puncak Jaya","district":"Ilu","urban":"Pindebaga","postal_code":98916},{"province":"Papua","city":"Puncak Jaya","district":"Ilu","urban":"Ngginigum","postal_code":98916},{"province":"Papua","city":"Puncak Jaya","district":"Ilu","urban":"Ninom","postal_code":98916},{"province":"Papua","city":"Puncak Jaya","district":"Ilu","urban":"Numbukenggawi","postal_code":98916},{"province":"Papua","city":"Puncak Jaya","district":"Ilu","urban":"Mobigi","postal_code":98916},{"province":"Papua","city":"Puncak Jaya","district":"Ilu","urban":"Moulo","postal_code":98916},{"province":"Papua","city":"Puncak Jaya","district":"Ilu","urban":"Laworege","postal_code":98916},{"province":"Papua","city":"Puncak Jaya","district":"Ilu","urban":"Maka","postal_code":98916},{"province":"Papua","city":"Puncak Jaya","district":"Ilu","urban":"Kurikpulok","postal_code":98916},{"province":"Papua","city":"Puncak Jaya","district":"Ilu","urban":"Lambo","postal_code":98916},{"province":"Papua","city":"Puncak Jaya","district":"Ilu","urban":"Kirigimaduk","postal_code":98916},{"province":"Papua","city":"Puncak Jaya","district":"Ilu","urban":"Kobarak","postal_code":98916},{"province":"Papua","city":"Puncak Jaya","district":"Ilu","urban":"Juria I","postal_code":98916},{"province":"Papua","city":"Puncak Jaya","district":"Ilu","urban":"Kalengga","postal_code":98916},{"province":"Papua","city":"Puncak Jaya","district":"Ilu","urban":"Jigelo","postal_code":98916},{"province":"Papua","city":"Puncak Jaya","district":"Ilu","urban":"Jiguluk","postal_code":98916},{"province":"Papua","city":"Puncak Jaya","district":"Ilu","urban":"Jimbanime","postal_code":98916},{"province":"Papua","city":"Puncak Jaya","district":"Ilu","urban":"Jibonok","postal_code":98916},{"province":"Papua","city":"Puncak Jaya","district":"Ilu","urban":"Gubulome","postal_code":98916},{"province":"Papua","city":"Puncak Jaya","district":"Ilu","urban":"Gumawi","postal_code":98916},{"province":"Papua","city":"Puncak Jaya","district":"Ilu","urban":"Jembeneri","postal_code":98916},{"province":"Papua","city":"Puncak Jaya","district":"Ilu","urban":"Galonegame","postal_code":98916},{"province":"Papua","city":"Puncak Jaya","district":"Ilu","urban":"Girmor","postal_code":98916},{"province":"Papua","city":"Puncak Jaya","district":"Ilu","urban":"Bunume","postal_code":98916},{"province":"Papua","city":"Puncak Jaya","district":"Ilu","urban":"Digulome","postal_code":98916},{"province":"Papua","city":"Puncak Jaya","district":"Ilu","urban":"Dolinggame","postal_code":98916},{"province":"Papua","city":"Puncak Jaya","district":"Ilu","urban":"Aulukme","postal_code":98916},{"province":"Papua","city":"Puncak Jaya","district":"Ilu","urban":"Belantara","postal_code":98916},{"province":"Papua","city":"Puncak Jaya","district":"Ilu","urban":"Andiron","postal_code":98916},{"province":"Papua","city":"Puncak Jaya","district":"Ilu","urban":"Anggutari","postal_code":98916},{"province":"Papua","city":"Puncak Jaya","district":"Ilu","urban":"Aringgak","postal_code":98916},{"province":"Papua","city":"Puncak Jaya","district":"Ilu","urban":"Agopaga","postal_code":98916},{"province":"Papua","city":"Puncak Jaya","district":"Ilu","urban":"Ambit-Mbit","postal_code":98916},{"province":"Papua","city":"Puncak Jaya","district":"Ilu","urban":"Aberiambut","postal_code":98916}]