[{"province":"Papua","city":"Puncak Jaya","district":"Yamo","urban":"Yogolawi","postal_code":98913},{"province":"Papua","city":"Puncak Jaya","district":"Yamo","urban":"Yalimambu","postal_code":98913},{"province":"Papua","city":"Puncak Jaya","district":"Yamo","urban":"Yamo","postal_code":98913},{"province":"Papua","city":"Puncak Jaya","district":"Yamo","urban":"Wurage","postal_code":98913},{"province":"Papua","city":"Puncak Jaya","district":"Yamo","urban":"Yalikambi","postal_code":98913},{"province":"Papua","city":"Puncak Jaya","district":"Yamo","urban":"Wunagelo","postal_code":98913},{"province":"Papua","city":"Puncak Jaya","district":"Yamo","urban":"Wundu","postal_code":98913},{"province":"Papua","city":"Puncak Jaya","district":"Yamo","urban":"Wiyaktini","postal_code":98913},{"province":"Papua","city":"Puncak Jaya","district":"Yamo","urban":"Wolame","postal_code":98913},{"province":"Papua","city":"Puncak Jaya","district":"Yamo","urban":"Wolame","postal_code":98913},{"province":"Papua","city":"Puncak Jaya","district":"Yamo","urban":"Tiogeme","postal_code":98913},{"province":"Papua","city":"Puncak Jaya","district":"Yamo","urban":"Temu","postal_code":98913},{"province":"Papua","city":"Puncak Jaya","district":"Yamo","urban":"Pulau Yamo","postal_code":98913},{"province":"Papua","city":"Puncak Jaya","district":"Yamo","urban":"Purbalo","postal_code":98913},{"province":"Papua","city":"Puncak Jaya","district":"Yamo","urban":"Sanoba","postal_code":98913},{"province":"Papua","city":"Puncak Jaya","district":"Yamo","urban":"Nowoneri","postal_code":98913},{"province":"Papua","city":"Puncak Jaya","district":"Yamo","urban":"Niruwi","postal_code":98913},{"province":"Papua","city":"Puncak Jaya","district":"Yamo","urban":"Nowome","postal_code":98913},{"province":"Papua","city":"Puncak Jaya","district":"Yamo","urban":"Molobak","postal_code":98913},{"province":"Papua","city":"Puncak Jaya","district":"Yamo","urban":"Nami","postal_code":98913},{"province":"Papua","city":"Puncak Jaya","district":"Yamo","urban":"Kimibut","postal_code":98913},{"province":"Papua","city":"Puncak Jaya","district":"Yamo","urban":"Kwatineri","postal_code":98913},{"province":"Papua","city":"Puncak Jaya","district":"Yamo","urban":"Imulineri","postal_code":98913},{"province":"Papua","city":"Puncak Jaya","district":"Yamo","urban":"Jigunikime","postal_code":98913},{"province":"Papua","city":"Puncak Jaya","district":"Yamo","urban":"Kabilimbut","postal_code":98913},{"province":"Papua","city":"Puncak Jaya","district":"Yamo","urban":"Gibaga","postal_code":98913},{"province":"Papua","city":"Puncak Jaya","district":"Yamo","urban":"Goyage","postal_code":98913},{"province":"Papua","city":"Puncak Jaya","district":"Yamo","urban":"Dokome","postal_code":98913},{"province":"Papua","city":"Puncak Jaya","district":"Yamo","urban":"Dondo","postal_code":98913},{"province":"Papua","city":"Puncak Jaya","district":"Yamo","urban":"Aligapaga","postal_code":98913},{"province":"Papua","city":"Puncak Jaya","district":"Yamo","urban":"Binime","postal_code":98913}]