[{"province":"Papua","city":"Puncak Jaya","district":"Jigonikme","urban":"Yawor","postal_code":98915},{"province":"Papua","city":"Puncak Jaya","district":"Jigonikme","urban":"Yonggi","postal_code":98915},{"province":"Papua","city":"Puncak Jaya","district":"Jigonikme","urban":"Wumbiri","postal_code":98915},{"province":"Papua","city":"Puncak Jaya","district":"Jigonikme","urban":"Wutime","postal_code":98915},{"province":"Papua","city":"Puncak Jaya","district":"Jigonikme","urban":"Wanduri","postal_code":98915},{"province":"Papua","city":"Puncak Jaya","district":"Jigonikme","urban":"Wongi","postal_code":98915},{"province":"Papua","city":"Puncak Jaya","district":"Jigonikme","urban":"Woraluk","postal_code":98915},{"province":"Papua","city":"Puncak Jaya","district":"Jigonikme","urban":"Walon","postal_code":98915},{"province":"Papua","city":"Puncak Jaya","district":"Jigonikme","urban":"Wambagalo","postal_code":98915},{"province":"Papua","city":"Puncak Jaya","district":"Jigonikme","urban":"Tombok","postal_code":98915},{"province":"Papua","city":"Puncak Jaya","district":"Jigonikme","urban":"Tinggirege","postal_code":98915},{"province":"Papua","city":"Puncak Jaya","district":"Jigonikme","urban":"Pugunom","postal_code":98915},{"province":"Papua","city":"Puncak Jaya","district":"Jigonikme","urban":"Pugunom","postal_code":98915},{"province":"Papua","city":"Puncak Jaya","district":"Jigonikme","urban":"Palilome","postal_code":98915},{"province":"Papua","city":"Puncak Jaya","district":"Jigonikme","urban":"Papak","postal_code":98915},{"province":"Papua","city":"Puncak Jaya","district":"Jigonikme","urban":"Onendu","postal_code":98915},{"province":"Papua","city":"Puncak Jaya","district":"Jigonikme","urban":"Oum","postal_code":98915},{"province":"Papua","city":"Puncak Jaya","district":"Jigonikme","urban":"Pagolome","postal_code":98915},{"province":"Papua","city":"Puncak Jaya","district":"Jigonikme","urban":"Numbok","postal_code":98915},{"province":"Papua","city":"Puncak Jaya","district":"Jigonikme","urban":"Nume","postal_code":98915},{"province":"Papua","city":"Puncak Jaya","district":"Jigonikme","urban":"Noba Noba","postal_code":98915},{"province":"Papua","city":"Puncak Jaya","district":"Jigonikme","urban":"Nogi","postal_code":98915},{"province":"Papua","city":"Puncak Jaya","district":"Jigonikme","urban":"Ndugwir","postal_code":98915},{"province":"Papua","city":"Puncak Jaya","district":"Jigonikme","urban":"Nioga","postal_code":98915},{"province":"Papua","city":"Puncak Jaya","district":"Jigonikme","urban":"Niyoluk Abili","postal_code":98915},{"province":"Papua","city":"Puncak Jaya","district":"Jigonikme","urban":"Modu","postal_code":98915},{"province":"Papua","city":"Puncak Jaya","district":"Jigonikme","urban":"Muruwi","postal_code":98915},{"province":"Papua","city":"Puncak Jaya","district":"Jigonikme","urban":"Milineri","postal_code":98915},{"province":"Papua","city":"Puncak Jaya","district":"Jigonikme","urban":"Meyongga","postal_code":98915},{"province":"Papua","city":"Puncak Jaya","district":"Jigonikme","urban":"Melela","postal_code":98915},{"province":"Papua","city":"Puncak Jaya","district":"Jigonikme","urban":"Mepar","postal_code":98915},{"province":"Papua","city":"Puncak Jaya","district":"Jigonikme","urban":"Lugubago","postal_code":98915},{"province":"Papua","city":"Puncak Jaya","district":"Jigonikme","urban":"Mabuk Timur","postal_code":98915},{"province":"Papua","city":"Puncak Jaya","district":"Jigonikme","urban":"Mandura","postal_code":98915},{"province":"Papua","city":"Puncak Jaya","district":"Jigonikme","urban":"Kerin","postal_code":98915},{"province":"Papua","city":"Puncak Jaya","district":"Jigonikme","urban":"Komanggi","postal_code":98915},{"province":"Papua","city":"Puncak Jaya","district":"Jigonikme","urban":"Jigonikme","postal_code":98915},{"province":"Papua","city":"Puncak Jaya","district":"Jigonikme","urban":"Jinggi","postal_code":98915},{"province":"Papua","city":"Puncak Jaya","district":"Jigonikme","urban":"Kenendaga","postal_code":98915},{"province":"Papua","city":"Puncak Jaya","district":"Jigonikme","urban":"Guna","postal_code":98915},{"province":"Papua","city":"Puncak Jaya","district":"Jigonikme","urban":"Gubume","postal_code":98915},{"province":"Papua","city":"Puncak Jaya","district":"Jigonikme","urban":"Gubuneri","postal_code":98915},{"province":"Papua","city":"Puncak Jaya","district":"Jigonikme","urban":"Ginilume","postal_code":98915},{"province":"Papua","city":"Puncak Jaya","district":"Jigonikme","urban":"Gibaga","postal_code":98915},{"province":"Papua","city":"Puncak Jaya","district":"Jigonikme","urban":"Gilome","postal_code":98915},{"province":"Papua","city":"Puncak Jaya","district":"Jigonikme","urban":"Anebalui","postal_code":98915},{"province":"Papua","city":"Puncak Jaya","district":"Jigonikme","urban":"Apelome","postal_code":98915},{"province":"Papua","city":"Puncak Jaya","district":"Jigonikme","urban":"Akwibaga","postal_code":98915}]