[{"province":"Papua","city":"Puncak Jaya","district":"Mulia","urban":"Yoboluk","postal_code":98911},{"province":"Papua","city":"Puncak Jaya","district":"Mulia","urban":"Yoga","postal_code":98911},{"province":"Papua","city":"Puncak Jaya","district":"Mulia","urban":"Yalinggua","postal_code":98911},{"province":"Papua","city":"Puncak Jaya","district":"Mulia","urban":"Yambi","postal_code":98911},{"province":"Papua","city":"Puncak Jaya","district":"Mulia","urban":"Yambidugun","postal_code":98911},{"province":"Papua","city":"Puncak Jaya","district":"Mulia","urban":"Wuyukwi","postal_code":98911},{"province":"Papua","city":"Puncak Jaya","district":"Mulia","urban":"Wuyuneri","postal_code":98911},{"province":"Papua","city":"Puncak Jaya","district":"Mulia","urban":"Wanduri","postal_code":98911},{"province":"Papua","city":"Puncak Jaya","district":"Mulia","urban":"Wondenggobak","postal_code":98911},{"province":"Papua","city":"Puncak Jaya","district":"Mulia","urban":"Wonome","postal_code":98911},{"province":"Papua","city":"Puncak Jaya","district":"Mulia","urban":"Urgele","postal_code":98911},{"province":"Papua","city":"Puncak Jaya","district":"Mulia","urban":"Usir","postal_code":98911},{"province":"Papua","city":"Puncak Jaya","district":"Mulia","urban":"Towogi","postal_code":98911},{"province":"Papua","city":"Puncak Jaya","district":"Mulia","urban":"Trikora","postal_code":98911},{"province":"Papua","city":"Puncak Jaya","district":"Mulia","urban":"Towemarib","postal_code":98911},{"province":"Papua","city":"Puncak Jaya","district":"Mulia","urban":"Talilome","postal_code":98911},{"province":"Papua","city":"Puncak Jaya","district":"Mulia","urban":"Tenolok","postal_code":98911},{"province":"Papua","city":"Puncak Jaya","district":"Mulia","urban":"Pruleme","postal_code":98911},{"province":"Papua","city":"Puncak Jaya","district":"Mulia","urban":"Puncak Senyum","postal_code":98911},{"province":"Papua","city":"Puncak Jaya","district":"Mulia","urban":"Omabut","postal_code":98911},{"province":"Papua","city":"Puncak Jaya","district":"Mulia","urban":"Pagaleme","postal_code":98911},{"province":"Papua","city":"Puncak Jaya","district":"Mulia","urban":"Pepera","postal_code":98911},{"province":"Papua","city":"Puncak Jaya","district":"Mulia","urban":"Muliagambut","postal_code":98911},{"province":"Papua","city":"Puncak Jaya","district":"Mulia","urban":"Muliambut","postal_code":98911},{"province":"Papua","city":"Puncak Jaya","district":"Mulia","urban":"Moulo","postal_code":98911},{"province":"Papua","city":"Puncak Jaya","district":"Mulia","urban":"Mondu","postal_code":98911},{"province":"Papua","city":"Puncak Jaya","district":"Mulia","urban":"Lunggineri","postal_code":98911},{"province":"Papua","city":"Puncak Jaya","district":"Mulia","urban":"Kulok Enggame","postal_code":98911},{"province":"Papua","city":"Puncak Jaya","district":"Mulia","urban":"Lulame","postal_code":98911},{"province":"Papua","city":"Puncak Jaya","district":"Mulia","urban":"Kilunggwi","postal_code":98911},{"province":"Papua","city":"Puncak Jaya","district":"Mulia","urban":"Kulirik","postal_code":98911},{"province":"Papua","city":"Puncak Jaya","district":"Mulia","urban":"Ilamburawi","postal_code":98911},{"province":"Papua","city":"Puncak Jaya","district":"Mulia","urban":"Jiginikime","postal_code":98911},{"province":"Papua","city":"Puncak Jaya","district":"Mulia","urban":"Karubate","postal_code":98911},{"province":"Papua","city":"Puncak Jaya","district":"Mulia","urban":"Dangenpaga","postal_code":98911},{"province":"Papua","city":"Puncak Jaya","district":"Mulia","urban":"Doligobak","postal_code":98911},{"province":"Papua","city":"Puncak Jaya","district":"Mulia","urban":"Ginigom","postal_code":98911},{"province":"Papua","city":"Puncak Jaya","district":"Mulia","urban":"Anggutare","postal_code":98911},{"province":"Papua","city":"Puncak Jaya","district":"Mulia","urban":"Berelema","postal_code":98911},{"province":"Papua","city":"Puncak Jaya","district":"Mulia","urban":"Birak Ambut","postal_code":98911},{"province":"Papua","city":"Puncak Jaya","district":"Mulia","urban":"Amulome","postal_code":98911}]