[{"province":"Papua","city":"Puncak Jaya","district":"Fawi","urban":"Yerei","postal_code":98917},{"province":"Papua","city":"Puncak Jaya","district":"Fawi","urban":"Turumo","postal_code":98917},{"province":"Papua","city":"Puncak Jaya","district":"Fawi","urban":"Wanggiba","postal_code":98917},{"province":"Papua","city":"Puncak Jaya","district":"Fawi","urban":"Yeihneri","postal_code":98917},{"province":"Papua","city":"Puncak Jaya","district":"Fawi","urban":"Soi","postal_code":98917},{"province":"Papua","city":"Puncak Jaya","district":"Fawi","urban":"Tenggabanggwi","postal_code":98917},{"province":"Papua","city":"Puncak Jaya","district":"Fawi","urban":"Mbomban","postal_code":98917},{"province":"Papua","city":"Puncak Jaya","district":"Fawi","urban":"Kaho","postal_code":98917},{"province":"Papua","city":"Puncak Jaya","district":"Fawi","urban":"Kiyage","postal_code":98917},{"province":"Papua","city":"Puncak Jaya","district":"Fawi","urban":"Mandara Lani","postal_code":98917},{"province":"Papua","city":"Puncak Jaya","district":"Fawi","urban":"Fii","postal_code":98917},{"province":"Papua","city":"Puncak Jaya","district":"Fawi","urban":"Gueri","postal_code":98917},{"province":"Papua","city":"Puncak Jaya","district":"Fawi","urban":"Farride","postal_code":98917},{"province":"Papua","city":"Puncak Jaya","district":"Fawi","urban":"Fawi","postal_code":98917},{"province":"Papua","city":"Puncak Jaya","district":"Fawi","urban":"Deide","postal_code":98917},{"province":"Papua","city":"Puncak Jaya","district":"Fawi","urban":"Dorey","postal_code":98917},{"province":"Papua","city":"Puncak Jaya","district":"Fawi","urban":"Evo","postal_code":98917},{"province":"Papua","city":"Puncak Jaya","district":"Fawi","urban":"Dagai 2","postal_code":98917},{"province":"Papua","city":"Puncak Jaya","district":"Fawi","urban":"Debite","postal_code":98917},{"province":"Papua","city":"Puncak Jaya","district":"Fawi","urban":"Bakusi","postal_code":98917},{"province":"Papua","city":"Puncak Jaya","district":"Fawi","urban":"Biricare","postal_code":98917},{"province":"Papua","city":"Puncak Jaya","district":"Fawi","urban":"Dagai","postal_code":98917},{"province":"Papua","city":"Puncak Jaya","district":"Fawi","urban":"Amuringgik","postal_code":98917},{"province":"Papua","city":"Puncak Jaya","district":"Fawi","urban":"Atoli","postal_code":98917},{"province":"Papua","city":"Puncak Jaya","district":"Fawi","urban":"Ambo","postal_code":98917}]