[{"province":"Papua","city":"Puncak","district":"Beoga","urban":"Yulokoma","postal_code":98971},{"province":"Papua","city":"Puncak","district":"Wangbe","urban":"Wonalbe","postal_code":98971},{"province":"Papua","city":"Puncak","district":"Wangbe","urban":"Wangbe","postal_code":98971},{"province":"Papua","city":"Puncak","district":"Beoga","urban":"Wamki (Dengkibuma)","postal_code":98971},{"province":"Papua","city":"Puncak","district":"Wangbe","urban":"Ulipia","postal_code":98971},{"province":"Papua","city":"Puncak","district":"Beoga","urban":"Tinggilbet","postal_code":98971},{"province":"Papua","city":"Puncak","district":"Wangbe","urban":"Pungki","postal_code":98971},{"province":"Papua","city":"Puncak","district":"Beoga","urban":"Puluk","postal_code":98971},{"province":"Papua","city":"Puncak","district":"Beoga","urban":"Pubet / Gimorit","postal_code":98971},{"province":"Papua","city":"Puncak","district":"Beoga","urban":"Ogamki","postal_code":98971},{"province":"Papua","city":"Puncak","district":"Wangbe","urban":"Pilokoma","postal_code":98971},{"province":"Papua","city":"Puncak","district":"Beoga","urban":"Nungai","postal_code":98971},{"province":"Papua","city":"Puncak","district":"Wangbe","urban":"Mirilaukin","postal_code":98971},{"province":"Papua","city":"Puncak","district":"Beoga","urban":"Milawak","postal_code":98971},{"province":"Papua","city":"Puncak","district":"Beoga","urban":"Kelandiruma","postal_code":98971},{"province":"Papua","city":"Puncak","district":"Wangbe","urban":"Jindak","postal_code":98971},{"province":"Papua","city":"Puncak","district":"Beoga","urban":"Jambul","postal_code":98971},{"province":"Papua","city":"Puncak","district":"Wangbe","urban":"Hikinat (Ikinat)","postal_code":98971},{"province":"Papua","city":"Puncak","district":"Wangbe","urban":"Daung","postal_code":98971},{"province":"Papua","city":"Puncak","district":"Wangbe","urban":"Erong Berong/Berang","postal_code":98971},{"province":"Papua","city":"Puncak","district":"Beoga","urban":"Dambet (Dangbet/Kalemogom)","postal_code":98971},{"province":"Papua","city":"Puncak","district":"Beoga","urban":"Babe","postal_code":98971},{"province":"Papua","city":"Puncak","district":"Wangbe","urban":"Ailpalin (Alpalin)","postal_code":98971}]