[{"province":"Papua","city":"Puncak","district":"Pogoma","urban":"Wiha","postal_code":98973},{"province":"Papua","city":"Puncak","district":"Sinak","urban":"Yauria (Wambru)","postal_code":98973},{"province":"Papua","city":"Puncak","district":"Pogoma","urban":"Wakme","postal_code":98973},{"province":"Papua","city":"Puncak","district":"Sinak","urban":"Weni (Isweli/Weli)","postal_code":98973},{"province":"Papua","city":"Puncak","district":"Pogoma","urban":"Pogoma (Bokoma)","postal_code":98973},{"province":"Papua","city":"Puncak","district":"Agadugume","urban":"Tuput","postal_code":98973},{"province":"Papua","city":"Puncak","district":"Sinak","urban":"Pamebut","postal_code":98973},{"province":"Papua","city":"Puncak","district":"Pogoma","urban":"Molu","postal_code":98973},{"province":"Papua","city":"Puncak","district":"Sinak","urban":"Nikoleme (Nigolome/Nikoame)","postal_code":98973},{"province":"Papua","city":"Puncak","district":"Sinak","urban":"Kunikomo (Kumikomo)","postal_code":98973},{"province":"Papua","city":"Puncak","district":"Sinak","urban":"Kelemame","postal_code":98973},{"province":"Papua","city":"Puncak","district":"Sinak","urban":"Kilugame","postal_code":98973},{"province":"Papua","city":"Puncak","district":"Pogoma","urban":"Kembru (Yimuk)","postal_code":98973},{"province":"Papua","city":"Puncak","district":"Sinak","urban":"Kalibuk (Kalebut/Kawibut)","postal_code":98973},{"province":"Papua","city":"Puncak","district":"Agadugume","urban":"Jiwot","postal_code":98973},{"province":"Papua","city":"Puncak","district":"Sinak","urban":"Jigiunggi (Jiginggi)","postal_code":98973},{"province":"Papua","city":"Puncak","district":"Pogoma","urban":"Golu","postal_code":98973},{"province":"Papua","city":"Puncak","district":"Sinak","urban":"Gigobak (Gogobak)","postal_code":98973},{"province":"Papua","city":"Puncak","district":"Pogoma","urban":"Bina","postal_code":98973},{"province":"Papua","city":"Puncak","district":"Pogoma","urban":"Bina","postal_code":98973},{"province":"Papua","city":"Puncak","district":"Sinak","urban":"Amulame (Amulume)","postal_code":98973},{"province":"Papua","city":"Puncak","district":"Pogoma","urban":"Bacini (Bakcini)","postal_code":98973},{"province":"Papua","city":"Puncak","district":"Sinak","urban":"Akenggen","postal_code":98973},{"province":"Papua","city":"Puncak","district":"Pogoma","urban":"Aguit (Aguwit)","postal_code":98973},{"province":"Papua","city":"Puncak","district":"Agadugume","urban":"Agadugume","postal_code":98973}]