[{"province":"Papua","city":"Puncak","district":"Gome","urban":"Yaikimaki","postal_code":98972},{"province":"Papua","city":"Puncak","district":"Ilaga","urban":"Wuloni","postal_code":98972},{"province":"Papua","city":"Puncak","district":"Gome","urban":"Yenggrenok (Yanggerenok)","postal_code":98972},{"province":"Papua","city":"Puncak","district":"Gome","urban":"Upaga","postal_code":98972},{"province":"Papua","city":"Puncak","district":"Gome","urban":"Wako","postal_code":98972},{"province":"Papua","city":"Puncak","district":"Gome","urban":"Toanggi","postal_code":98972},{"province":"Papua","city":"Puncak","district":"Ilaga","urban":"Pinggil (Piggil)","postal_code":98972},{"province":"Papua","city":"Puncak","district":"Ilaga","urban":"Ognanim (Oknanim)","postal_code":98972},{"province":"Papua","city":"Puncak","district":"Ilaga","urban":"Paluga","postal_code":98972},{"province":"Papua","city":"Puncak","district":"Ilaga","urban":"Pinapa","postal_code":98972},{"province":"Papua","city":"Puncak","district":"Gome","urban":"Misimaga","postal_code":98972},{"province":"Papua","city":"Puncak","district":"Gome","urban":"Mundidok","postal_code":98972},{"province":"Papua","city":"Puncak","district":"Ilaga","urban":"Mayuberi","postal_code":98972},{"province":"Papua","city":"Puncak","district":"Ilaga","urban":"Mindiba (Miandiwa/Mudiba)","postal_code":98972},{"province":"Papua","city":"Puncak","district":"Ilaga","urban":"Kimak (Kimale)","postal_code":98972},{"province":"Papua","city":"Puncak","district":"Ilaga","urban":"Kunga (Kuiga)","postal_code":98972},{"province":"Papua","city":"Puncak","district":"Ilaga","urban":"Maki","postal_code":98972},{"province":"Papua","city":"Puncak","district":"Ilaga","urban":"Kago","postal_code":98972},{"province":"Papua","city":"Puncak","district":"Gome","urban":"Gome","postal_code":98972},{"province":"Papua","city":"Puncak","district":"Ilaga","urban":"Eromaga (Eromoga)","postal_code":98972},{"province":"Papua","city":"Puncak","district":"Ilaga","urban":"Gilini","postal_code":98972},{"province":"Papua","city":"Puncak","district":"Ilaga","urban":"Bubet","postal_code":98972},{"province":"Papua","city":"Puncak","district":"Gome","urban":"Erelmekawia","postal_code":98972},{"province":"Papua","city":"Puncak","district":"Ilaga","urban":"Bologobak (Pologobak/Pologobale)","postal_code":98972},{"province":"Papua","city":"Puncak","district":"Gome","urban":"Bela","postal_code":98972},{"province":"Papua","city":"Puncak","district":"Gome","urban":"Amungkalpia (Amungkalipia)","postal_code":98972},{"province":"Papua","city":"Puncak","district":"Gome","urban":"Agiyome","postal_code":98972}]