[{"province":"Papua","city":"Jayapura","district":"Ravenirara","urban":"Yongsu Sapari","postal_code":99353},{"province":"Papua","city":"Jayapura","district":"Depapre","urban":"Yefase (Yepase)","postal_code":99353},{"province":"Papua","city":"Jayapura","district":"Depapre","urban":"Yewena","postal_code":99353},{"province":"Papua","city":"Jayapura","district":"Ravenirara","urban":"Yongsu Besar (Dosoyo)","postal_code":99353},{"province":"Papua","city":"Jayapura","district":"Depapre","urban":"Waiya","postal_code":99353},{"province":"Papua","city":"Jayapura","district":"Depapre","urban":"Wambena","postal_code":99353},{"province":"Papua","city":"Jayapura","district":"Depapre","urban":"Tablasupa","postal_code":99353},{"province":"Papua","city":"Jayapura","district":"Ravenirara","urban":"Ormuwari (Newa)","postal_code":99353},{"province":"Papua","city":"Jayapura","district":"Ravenirara","urban":"Nehibe (Nacha Tawa)","postal_code":99353},{"province":"Papua","city":"Jayapura","district":"Depapre","urban":"Doromena","postal_code":99353},{"province":"Papua","city":"Jayapura","district":"Depapre","urban":"Entiyebo","postal_code":99353},{"province":"Papua","city":"Jayapura","district":"Depapre","urban":"Kendate","postal_code":99353}]