[{"province":"Papua","city":"Sarmi","district":"Bonggo","urban":"Tetom","postal_code":99355},{"province":"Papua","city":"Sarmi","district":"Bonggo Timur","urban":"Tamas Sari","postal_code":99355},{"province":"Papua","city":"Sarmi","district":"Bonggo","urban":"Rotea","postal_code":99355},{"province":"Papua","city":"Sarmi","district":"Bonggo","urban":"Taronta Srum","postal_code":99355},{"province":"Papua","city":"Sarmi","district":"Bonggo","urban":"Maweswares (Mawesres)","postal_code":99355},{"province":"Papua","city":"Sarmi","district":"Bonggo","urban":"Rimser Sari","postal_code":99355},{"province":"Papua","city":"Sarmi","district":"Bonggo","urban":"Krim Podena","postal_code":99355},{"province":"Papua","city":"Sarmi","district":"Bonggo Timur","urban":"Mawes Mukti","postal_code":99355},{"province":"Papua","city":"Sarmi","district":"Bonggo Timur","urban":"Mawesday","postal_code":99355},{"province":"Papua","city":"Sarmi","district":"Bonggo","urban":"Kiren","postal_code":99355},{"province":"Papua","city":"Sarmi","district":"Bonggo Timur","urban":"Kaptiau","postal_code":99355},{"province":"Papua","city":"Sarmi","district":"Bonggo","urban":"Bebon Jaya","postal_code":99355},{"province":"Papua","city":"Sarmi","district":"Bonggo Timur","urban":"Gwin Jaya","postal_code":99355},{"province":"Papua","city":"Sarmi","district":"Bonggo","urban":"Anus","postal_code":99355},{"province":"Papua","city":"Sarmi","district":"Bonggo","urban":"Armopa","postal_code":99355}]