[{"province":"Papua","city":"Jayapura","district":"Kemtuk Gresi","urban":"Swentab","postal_code":99357},{"province":"Papua","city":"Jayapura","district":"Kemtuk","urban":"Soaib","postal_code":99357},{"province":"Papua","city":"Jayapura","district":"Kemtuk Gresi","urban":"Yanbra (Yanim)","postal_code":99357},{"province":"Papua","city":"Jayapura","district":"Kemtuk","urban":"Sekori","postal_code":99357},{"province":"Papua","city":"Jayapura","district":"Kemtuk","urban":"Skoaim","postal_code":99357},{"province":"Papua","city":"Jayapura","district":"Kemtuk","urban":"Sama","postal_code":99357},{"province":"Papua","city":"Jayapura","district":"Kemtuk","urban":"Sabeab Kecil","postal_code":99357},{"province":"Papua","city":"Jayapura","district":"Kemtuk Gresi","urban":"Pupehabu","postal_code":99357},{"province":"Papua","city":"Jayapura","district":"Kemtuk Gresi","urban":"Omon","postal_code":99357},{"province":"Papua","city":"Jayapura","district":"Gresi Selatan","urban":"Omon","postal_code":99357},{"province":"Papua","city":"Jayapura","district":"Kemtuk","urban":"Namei","postal_code":99357},{"province":"Papua","city":"Jayapura","district":"Kemtuk Gresi","urban":"Nembu Gresi","postal_code":99357},{"province":"Papua","city":"Jayapura","district":"Kemtuk","urban":"Mandayawan","postal_code":99357},{"province":"Papua","city":"Jayapura","district":"Kemtuk","urban":"Nambon","postal_code":99357},{"province":"Papua","city":"Jayapura","district":"Kemtuk","urban":"Mamda","postal_code":99357},{"province":"Papua","city":"Jayapura","district":"Gresi Selatan","urban":"Klaisu","postal_code":99357},{"province":"Papua","city":"Jayapura","district":"Kemtuk","urban":"Kwansu","postal_code":99357},{"province":"Papua","city":"Jayapura","district":"Kemtuk Gresi","urban":"Jagrang","postal_code":99357},{"province":"Papua","city":"Jayapura","district":"Gresi Selatan","urban":"Iwon","postal_code":99357},{"province":"Papua","city":"Jayapura","district":"Kemtuk Gresi","urban":"Hatib","postal_code":99357},{"province":"Papua","city":"Jayapura","district":"Kemtuk Gresi","urban":"Ibub","postal_code":99357},{"province":"Papua","city":"Jayapura","district":"Kemtuk Gresi","urban":"Damoi Kati","postal_code":99357},{"province":"Papua","city":"Jayapura","district":"Kemtuk Gresi","urban":"Demetin","postal_code":99357},{"province":"Papua","city":"Jayapura","district":"Kemtuk Gresi","urban":"Braso","postal_code":99357},{"province":"Papua","city":"Jayapura","district":"Kemtuk Gresi","urban":"Bring","postal_code":99357},{"province":"Papua","city":"Jayapura","district":"Gresi Selatan","urban":"Bangai","postal_code":99357},{"province":"Papua","city":"Jayapura","district":"Kemtuk","urban":"Bengguin Progo","postal_code":99357},{"province":"Papua","city":"Jayapura","district":"Kemtuk","urban":"Aib","postal_code":99357}]