[{"province":"Papua","city":"Jayapura","district":"Waibu","urban":"Yakonde","postal_code":99358},{"province":"Papua","city":"Jayapura","district":"Sentani Barat","urban":"Waibron","postal_code":99358},{"province":"Papua","city":"Jayapura","district":"Waibu","urban":"Sosiri","postal_code":99358},{"province":"Papua","city":"Jayapura","district":"Sentani Barat","urban":"Sabron Sari","postal_code":99358},{"province":"Papua","city":"Jayapura","district":"Sentani Barat","urban":"Sabron Yaru (Sabro Yaru)","postal_code":99358},{"province":"Papua","city":"Jayapura","district":"Waibu","urban":"Kwadeware (Kanda)","postal_code":99358},{"province":"Papua","city":"Jayapura","district":"Sentani Barat","urban":"Maribu","postal_code":99358},{"province":"Papua","city":"Jayapura","district":"Waibu","urban":"Doyo Baru","postal_code":99358},{"province":"Papua","city":"Jayapura","district":"Waibu","urban":"Doyo Lama","postal_code":99358},{"province":"Papua","city":"Jayapura","district":"Waibu","urban":"Dondai (Donday)","postal_code":99358},{"province":"Papua","city":"Jayapura","district":"Sentani Barat","urban":"Dosay (Dosai)","postal_code":99358},{"province":"Papua","city":"Jayapura","district":"Waibu","urban":"Bambar","postal_code":99358}]