[{"province":"Papua","city":"Jayapura","district":"Heram","urban":"Yoka","postal_code":99351},{"province":"Papua","city":"Jayapura","district":"Heram","urban":"Yabansai","postal_code":99351},{"province":"Papua","city":"Jayapura","district":"Heram","urban":"Yabansai","postal_code":99351},{"province":"Papua","city":"Jayapura","district":"Heram","urban":"Waena","postal_code":99351},{"province":"Papua","city":"Jayapura","district":"Muara Tami","urban":"Skow Sae (Skouw Sae)","postal_code":99351},{"province":"Papua","city":"Jayapura","district":"Muara Tami","urban":"Skow Yambe (Skouw Yambe)","postal_code":99351},{"province":"Papua","city":"Jayapura","district":"Abepura","urban":"Nafri","postal_code":99351},{"province":"Papua","city":"Jayapura","district":"Muara Tami","urban":"Mosso","postal_code":99351},{"province":"Papua","city":"Jayapura","district":"Muara Tami","urban":"Skow Mabo (Skouw Mabo )","postal_code":99351},{"province":"Papua","city":"Jayapura","district":"Muara Tami","urban":"Koya Tengah","postal_code":99351},{"province":"Papua","city":"Jayapura","district":"Muara Tami","urban":"Koya Timur","postal_code":99351},{"province":"Papua","city":"Jayapura","district":"Muara Tami","urban":"Koya Barat","postal_code":99351},{"province":"Papua","city":"Jayapura","district":"Abepura","urban":"Koya Koso","postal_code":99351},{"province":"Papua","city":"Jayapura","district":"Muara Tami","urban":"Holtekamp","postal_code":99351},{"province":"Papua","city":"Jayapura","district":"Abepura","urban":"Kota Baru","postal_code":99351},{"province":"Papua","city":"Jayapura","district":"Heram","urban":"Hedam","postal_code":99351},{"province":"Papua","city":"Jayapura","district":"Abepura","urban":"Engros (Enggros)","postal_code":99351},{"province":"Papua","city":"Jayapura","district":"Abepura","urban":"Asano","postal_code":99351},{"province":"Papua","city":"Jayapura","district":"Abepura","urban":"Awiyo","postal_code":99351},{"province":"Papua","city":"Jayapura","district":"Abepura","urban":"Abepantai","postal_code":99351}]