[{"province":"Papua","city":"Jayapura","district":"Sentani","urban":"Yobeh","postal_code":99352},{"province":"Papua","city":"Jayapura","district":"Sentani","urban":"Yoboy","postal_code":99352},{"province":"Papua","city":"Jayapura","district":"Ebungfau (Ebungfa)","urban":"Simporo (Babo/Yosiba/Homf)","postal_code":99352},{"province":"Papua","city":"Jayapura","district":"Sentani","urban":"Sereh","postal_code":99352},{"province":"Papua","city":"Jayapura","district":"Sentani","urban":"Keheran (Kehiran)","postal_code":99352},{"province":"Papua","city":"Jayapura","district":"Sentani","urban":"Sentani Kota","postal_code":99352},{"province":"Papua","city":"Jayapura","district":"Ebungfau (Ebungfa)","urban":"Khameyaka (Kameyoka/Khamaeka)","postal_code":99352},{"province":"Papua","city":"Jayapura","district":"Sentani","urban":"Ifale (Ilfele)","postal_code":99352},{"province":"Papua","city":"Jayapura","district":"Sentani","urban":"Ifar Besar","postal_code":99352},{"province":"Papua","city":"Jayapura","district":"Sentani","urban":"Hinekombe","postal_code":99352},{"province":"Papua","city":"Jayapura","district":"Sentani","urban":"Hobong","postal_code":99352},{"province":"Papua","city":"Jayapura","district":"Sentani","urban":"Dobonsolo","postal_code":99352},{"province":"Papua","city":"Jayapura","district":"Ebungfau (Ebungfa)","urban":"Ebungfa","postal_code":99352},{"province":"Papua","city":"Jayapura","district":"Ebungfau (Ebungfa)","urban":"Abar (Atabar)","postal_code":99352},{"province":"Papua","city":"Jayapura","district":"Ebungfau (Ebungfa)","urban":"Babrongko (Ifar Bobrongko)","postal_code":99352}]