[{"province":"Papua","city":"Jayapura","district":"Yokari","urban":"Snamay","postal_code":99354},{"province":"Papua","city":"Jayapura","district":"Demta","urban":"Yaugapsa (Yougapsa)","postal_code":99354},{"province":"Papua","city":"Jayapura","district":"Yokari","urban":"Snamay","postal_code":99354},{"province":"Papua","city":"Jayapura","district":"Demta","urban":"Muaif","postal_code":99354},{"province":"Papua","city":"Jayapura","district":"Demta","urban":"Muris Kecil","postal_code":99354},{"province":"Papua","city":"Jayapura","district":"Yokari","urban":"Maruway","postal_code":99354},{"province":"Papua","city":"Jayapura","district":"Yokari","urban":"Meukisi","postal_code":99354},{"province":"Papua","city":"Jayapura","district":"Demta","urban":"Kamdera","postal_code":99354},{"province":"Papua","city":"Jayapura","district":"Yokari","urban":"Buseryo","postal_code":99354},{"province":"Papua","city":"Jayapura","district":"Yokari","urban":"Endokisi","postal_code":99354},{"province":"Papua","city":"Jayapura","district":"Demta","urban":"Demta Kota","postal_code":99354},{"province":"Papua","city":"Jayapura","district":"Demta","urban":"Ambora","postal_code":99354}]