[{"province":"Papua","city":"Jayapura","district":"Nimboran","urban":"Yenggu Baru","postal_code":99361},{"province":"Papua","city":"Jayapura","district":"Nambluong","urban":"Yakasib (Yakasip/Yokasib)","postal_code":99361},{"province":"Papua","city":"Jayapura","district":"Nimboran","urban":"Yenggu (Yenggu Lama)","postal_code":99361},{"province":"Papua","city":"Jayapura","district":"Nambluong","urban":"Sumbe","postal_code":99361},{"province":"Papua","city":"Jayapura","district":"Nimboran","urban":"Tabri","postal_code":99361},{"province":"Papua","city":"Jayapura","district":"Nimboran","urban":"Singgriway (Singgriwai)","postal_code":99361},{"province":"Papua","city":"Jayapura","district":"Nambluong","urban":"Sarmai Bawah","postal_code":99361},{"province":"Papua","city":"Jayapura","district":"Nimboran","urban":"Singgri","postal_code":99361},{"province":"Papua","city":"Jayapura","district":"Nambluong","urban":"Sarmai Atas","postal_code":99361},{"province":"Papua","city":"Jayapura","district":"Nimboran","urban":"Pobaim","postal_code":99361},{"province":"Papua","city":"Jayapura","district":"Nambluong","urban":"Sanggai","postal_code":99361},{"province":"Papua","city":"Jayapura","district":"Nimboran","urban":"Meyu","postal_code":99361},{"province":"Papua","city":"Jayapura","district":"Nimboran","urban":"Oyengsi","postal_code":99361},{"province":"Papua","city":"Jayapura","district":"Nimboran","urban":"Kuipon (Kuipons)","postal_code":99361},{"province":"Papua","city":"Jayapura","district":"Nimboran","urban":"Kuwase","postal_code":99361},{"province":"Papua","city":"Jayapura","district":"Nambluong","urban":"Karya Bumi","postal_code":99361},{"province":"Papua","city":"Jayapura","district":"Nimboran","urban":"Kaitemung (Kautemung)","postal_code":99361},{"province":"Papua","city":"Jayapura","district":"Nambluong","urban":"Hanggaiy Hamong","postal_code":99361},{"province":"Papua","city":"Jayapura","district":"Nambluong","urban":"Imestum (Imustum)","postal_code":99361},{"province":"Papua","city":"Jayapura","district":"Nimboran","urban":"Imsar","postal_code":99361},{"province":"Papua","city":"Jayapura","district":"Nambluong","urban":"Besum","postal_code":99361},{"province":"Papua","city":"Jayapura","district":"Nimboran","urban":"Gemebs","postal_code":99361},{"province":"Papua","city":"Jayapura","district":"Nimboran","urban":"Benyom","postal_code":99361}]