[{"province":"Papua","city":"Sarmi","district":"Pantai Timur","urban":"Yamben (Jamber/Beneraf)","postal_code":99371},{"province":"Papua","city":"Sarmi","district":"Pantai Timur Barat","urban":"Timron","postal_code":99371},{"province":"Papua","city":"Sarmi","district":"Pantai Timur Barat","urban":"Vinyabor","postal_code":99371},{"province":"Papua","city":"Sarmi","district":"Pantai Timur","urban":"Sunum (Yamna)","postal_code":99371},{"province":"Papua","city":"Sarmi","district":"Pantai Timur Barat","urban":"Nengke II (Nengke Baru)","postal_code":99371},{"province":"Papua","city":"Sarmi","district":"Pantai Timur Barat","urban":"Tabrawar","postal_code":99371},{"province":"Papua","city":"Sarmi","district":"Pantai Timur Barat","urban":"Nengke","postal_code":99371},{"province":"Papua","city":"Sarmi","district":"Pantai Timur","urban":"Komra","postal_code":99371},{"province":"Papua","city":"Sarmi","district":"Pantai Timur Barat","urban":"Fito","postal_code":99371},{"province":"Papua","city":"Sarmi","district":"Pantai Timur Barat","urban":"Keder II","postal_code":99371},{"province":"Papua","city":"Sarmi","district":"Pantai Timur Barat","urban":"Dabe","postal_code":99371},{"province":"Papua","city":"Sarmi","district":"Pantai Timur Barat","urban":"Dabe II","postal_code":99371},{"province":"Papua","city":"Sarmi","district":"Pantai Timur","urban":"Betaf","postal_code":99371},{"province":"Papua","city":"Sarmi","district":"Pantai Timur","urban":"Betaf II (Tamnir)","postal_code":99371},{"province":"Papua","city":"Sarmi","district":"Pantai Timur Barat","urban":"Arare","postal_code":99371},{"province":"Papua","city":"Sarmi","district":"Pantai Timur","urban":"Ansudu (Ansubi)","postal_code":99371},{"province":"Papua","city":"Sarmi","district":"Pantai Timur","urban":"Ansudu II (Srem)","postal_code":99371},{"province":"Papua","city":"Sarmi","district":"Pantai Timur Barat","urban":"Ampera","postal_code":99371}]