[{"province":"Papua","city":"Sarmi","district":"Pantai Barat","urban":"Webro","postal_code":99374},{"province":"Papua","city":"Sarmi","district":"Pantai Barat","urban":"Waim","postal_code":99374},{"province":"Papua","city":"Sarmi","district":"Pantai Barat","urban":"Wari","postal_code":99374},{"province":"Papua","city":"Sarmi","district":"Apawer Hulu","urban":"Wamariri","postal_code":99374},{"province":"Papua","city":"Sarmi","district":"Apawer Hulu","urban":"Surimania (Syurimania)","postal_code":99374},{"province":"Papua","city":"Sarmi","district":"Apawer Hulu","urban":"Tamaya","postal_code":99374},{"province":"Papua","city":"Sarmi","district":"Pantai Barat","urban":"Siantoa","postal_code":99374},{"province":"Papua","city":"Sarmi","district":"Apawer Hulu","urban":"Sasawapece","postal_code":99374},{"province":"Papua","city":"Sarmi","district":"Pantai Barat","urban":"Subu","postal_code":99374},{"province":"Papua","city":"Sarmi","district":"Pantai Barat","urban":"Niwerawar","postal_code":99374},{"province":"Papua","city":"Sarmi","district":"Pantai Barat","urban":"Samorkena","postal_code":99374},{"province":"Papua","city":"Sarmi","district":"Pantai Barat","urban":"Nisro","postal_code":99374},{"province":"Papua","city":"Sarmi","district":"Apawer Hulu","urban":"Murara","postal_code":99374},{"province":"Papua","city":"Sarmi","district":"Pantai Barat","urban":"Martewar","postal_code":99374},{"province":"Papua","city":"Sarmi","district":"Pantai Barat","urban":"Masep","postal_code":99374},{"province":"Papua","city":"Sarmi","district":"Apawer Hulu","urban":"Maniwa","postal_code":99374},{"province":"Papua","city":"Sarmi","district":"Pantai Barat","urban":"Karfasia","postal_code":99374},{"province":"Papua","city":"Sarmi","district":"Apawer Hulu","urban":"Kwawitania","postal_code":99374},{"province":"Papua","city":"Sarmi","district":"Pantai Barat","urban":"Burgena","postal_code":99374},{"province":"Papua","city":"Sarmi","district":"Pantai Barat","urban":"Kamenawari","postal_code":99374},{"province":"Papua","city":"Sarmi","district":"Pantai Barat","urban":"Kapeso","postal_code":99374},{"province":"Papua","city":"Sarmi","district":"Apawer Hulu","urban":"Aurimi","postal_code":99374},{"province":"Papua","city":"Sarmi","district":"Apawer Hulu","urban":"Bina","postal_code":99374},{"province":"Papua","city":"Sarmi","district":"Pantai Barat","urban":"Arbais","postal_code":99374},{"province":"Papua","city":"Sarmi","district":"Pantai Barat","urban":"Aruswar","postal_code":99374},{"province":"Papua","city":"Sarmi","district":"Apawer Hulu","urban":"Airoran","postal_code":99374}]