[{"province":"Papua","city":"Mamberamo Raya","district":"Mamberamo Tengah Timur","urban":"Towao (Tuwao)","postal_code":99376},{"province":"Papua","city":"Mamberamo Raya","district":"Mamberamo Tengah Timur","urban":"Wakeyadi","postal_code":99376},{"province":"Papua","city":"Mamberamo Raya","district":"Mamberamo Tengah","urban":"Saswa Kwesar (Sausaua Kwesar/Sasawakwesar)","postal_code":99376},{"province":"Papua","city":"Mamberamo Raya","district":"Mamberamo Tengah","urban":"Towao","postal_code":99376},{"province":"Papua","city":"Mamberamo Raya","district":"Mamberamo Tengah Timur","urban":"Obagoi (Obogoi)","postal_code":99376},{"province":"Papua","city":"Mamberamo Raya","district":"Mamberamo Tengah","urban":"Namunaweja","postal_code":99376},{"province":"Papua","city":"Mamberamo Raya","district":"Mamberamo Tengah Timur","urban":"Noyadi","postal_code":99376},{"province":"Papua","city":"Mamberamo Raya","district":"Mamberamo Tengah","urban":"Metaweja","postal_code":99376},{"province":"Papua","city":"Mamberamo Raya","district":"Mamberamo Tengah","urban":"Murumare (Muaramarei)","postal_code":99376},{"province":"Papua","city":"Mamberamo Raya","district":"Mamberamo Tengah","urban":"Marina Valen (Marine Valen)","postal_code":99376},{"province":"Papua","city":"Mamberamo Raya","district":"Mamberamo Tengah","urban":"Marina Valen (Marine Valen)","postal_code":99376},{"province":"Papua","city":"Mamberamo Raya","district":"Mamberamo Tengah Timur","urban":"Kustra","postal_code":99376},{"province":"Papua","city":"Mamberamo Raya","district":"Mamberamo Tengah","urban":"Kuastra","postal_code":99376},{"province":"Papua","city":"Mamberamo Raya","district":"Mamberamo Tengah Timur","urban":"Ery (Eri)","postal_code":99376},{"province":"Papua","city":"Mamberamo Raya","district":"Mamberamo Tengah","urban":"Kasonaweja","postal_code":99376},{"province":"Papua","city":"Mamberamo Raya","district":"Mamberamo Tengah Timur","urban":"Biri","postal_code":99376},{"province":"Papua","city":"Mamberamo Raya","district":"Mamberamo Tengah","urban":"Burmeso","postal_code":99376},{"province":"Papua","city":"Mamberamo Raya","district":"Mamberamo Tengah","urban":"Danau Bira","postal_code":99376},{"province":"Papua","city":"Mamberamo Raya","district":"Mamberamo Tengah","urban":"Babija","postal_code":99376},{"province":"Papua","city":"Mamberamo Raya","district":"Mamberamo Tengah","urban":"Anggreso","postal_code":99376}]