[{"province":"Papua","city":"Mamberamo Raya","district":"Mamberamo Hulu/Ulu","urban":"Tayali","postal_code":99377},{"province":"Papua","city":"Mamberamo Raya","district":"Mamberamo Hulu/Ulu","urban":"Tayai","postal_code":99377},{"province":"Papua","city":"Mamberamo Raya","district":"Rofaer (Rufaer)","urban":"Tayai (Taiyai)","postal_code":99377},{"province":"Papua","city":"Mamberamo Raya","district":"Mamberamo Hulu/Ulu","urban":"Taiyeve","postal_code":99377},{"province":"Papua","city":"Mamberamo Raya","district":"Rofaer (Rufaer)","urban":"Sikari","postal_code":99377},{"province":"Papua","city":"Mamberamo Raya","district":"Mamberamo Hulu/Ulu","urban":"Sikari","postal_code":99377},{"province":"Papua","city":"Mamberamo Raya","district":"Mamberamo Hulu/Ulu","urban":"Pepasena II","postal_code":99377},{"province":"Papua","city":"Mamberamo Raya","district":"Mamberamo Hulu/Ulu","urban":"Pepasena I","postal_code":99377},{"province":"Papua","city":"Mamberamo Raya","district":"Mamberamo Hulu/Ulu","urban":"Kaly","postal_code":99377},{"province":"Papua","city":"Mamberamo Raya","district":"Rofaer (Rufaer)","urban":"Kai (Kayi/Kay Seta)","postal_code":99377},{"province":"Papua","city":"Mamberamo Raya","district":"Rofaer (Rufaer)","urban":"Haiya (Haya)","postal_code":99377},{"province":"Papua","city":"Mamberamo Raya","district":"Mamberamo Hulu/Ulu","urban":"Haiya","postal_code":99377},{"province":"Papua","city":"Mamberamo Raya","district":"Mamberamo Hulu/Ulu","urban":"Fuao","postal_code":99377},{"province":"Papua","city":"Mamberamo Raya","district":"Rofaer (Rufaer)","urban":"Fona","postal_code":99377},{"province":"Papua","city":"Mamberamo Raya","district":"Mamberamo Hulu/Ulu","urban":"Fona","postal_code":99377},{"province":"Papua","city":"Mamberamo Raya","district":"Mamberamo Hulu/Ulu","urban":"Fokri","postal_code":99377},{"province":"Papua","city":"Mamberamo Raya","district":"Mamberamo Hulu/Ulu","urban":"Fokri","postal_code":99377},{"province":"Papua","city":"Mamberamo Raya","district":"Mamberamo Hulu/Ulu","urban":"Faria","postal_code":99377},{"province":"Papua","city":"Mamberamo Raya","district":"Mamberamo Hulu/Ulu","urban":"Dou","postal_code":99377},{"province":"Papua","city":"Mamberamo Raya","district":"Mamberamo Hulu/Ulu","urban":"Dou","postal_code":99377},{"province":"Papua","city":"Mamberamo Raya","district":"Mamberamo Hulu/Ulu","urban":"Dabra","postal_code":99377},{"province":"Papua","city":"Mamberamo Raya","district":"Rofaer (Rufaer)","urban":"Bareri","postal_code":99377}]