[{"province":"Papua","city":"Sarmi","district":"Sarmi Timur","urban":"Waskey / Tanjung Batu","postal_code":99373},{"province":"Papua","city":"Sarmi","district":"Sarmi Timur","urban":"Waskey","postal_code":99373},{"province":"Papua","city":"Sarmi","district":"Sarmi","urban":"Tefarewar","postal_code":99373},{"province":"Papua","city":"Sarmi","district":"Sarmi Selatan","urban":"Wapo","postal_code":99373},{"province":"Papua","city":"Sarmi","district":"Sarmi Timur","urban":"Tanjung Batu","postal_code":99373},{"province":"Papua","city":"Sarmi","district":"Sarmi Selatan","urban":"Siaratesa","postal_code":99373},{"province":"Papua","city":"Sarmi","district":"Sarmi","urban":"Sawar","postal_code":99373},{"province":"Papua","city":"Sarmi","district":"Sarmi Timur","urban":"Sewan","postal_code":99373},{"province":"Papua","city":"Sarmi","district":"Sarmi","urban":"Pulau Armo","postal_code":99373},{"province":"Papua","city":"Sarmi","district":"Sarmi","urban":"Sarmi","postal_code":99373},{"province":"Papua","city":"Sarmi","district":"Sarmi","urban":"Sarmo","postal_code":99373},{"province":"Papua","city":"Sarmi","district":"Sarmi","urban":"Mararena","postal_code":99373},{"province":"Papua","city":"Sarmi","district":"Sarmi Selatan","urban":"Manukania","postal_code":99373},{"province":"Papua","city":"Sarmi","district":"Sarmi","urban":"Liki","postal_code":99373},{"province":"Papua","city":"Sarmi","district":"Sarmi","urban":"Lembah Neidam","postal_code":99373},{"province":"Papua","city":"Sarmi","district":"Sarmi Selatan","urban":"Kasukwe","postal_code":99373},{"province":"Papua","city":"Sarmi","district":"Sarmi Timur","urban":"Holmafen (Holmafem)","postal_code":99373},{"province":"Papua","city":"Sarmi","district":"Sarmi Timur","urban":"Ebram","postal_code":99373},{"province":"Papua","city":"Sarmi","district":"Sarmi Timur","urban":"Ebram","postal_code":99373},{"province":"Papua","city":"Sarmi","district":"Sarmi Timur","urban":"Binyer","postal_code":99373},{"province":"Papua","city":"Sarmi","district":"Sarmi Timur","urban":"Biyer","postal_code":99373},{"province":"Papua","city":"Sarmi","district":"Sarmi Timur","urban":"Bagaisewar Dua / II","postal_code":99373},{"province":"Papua","city":"Sarmi","district":"Sarmi","urban":"Bagaisewar II","postal_code":99373},{"province":"Papua","city":"Sarmi","district":"Sarmi","urban":"Bagaiserwar","postal_code":99373},{"province":"Papua","city":"Sarmi","district":"Sarmi","urban":"Armo","postal_code":99373},{"province":"Papua","city":"Sarmi","district":"Sarmi Selatan","urban":"Angkasa Dua","postal_code":99373},{"province":"Papua","city":"Sarmi","district":"Sarmi Selatan","urban":"Amsira","postal_code":99373}]