[{"province":"Papua","city":"Keerom","district":"Arso Timur","urban":"Yetty","postal_code":99468},{"province":"Papua","city":"Keerom","district":"Arso","urban":"Yuwanaim (Arso 2)","postal_code":99468},{"province":"Papua","city":"Keerom","district":"Arso","urban":"Yamta (PIR 2)","postal_code":99468},{"province":"Papua","city":"Keerom","district":"Arso","urban":"Yanama (PIR 1)","postal_code":99468},{"province":"Papua","city":"Keerom","district":"Arso","urban":"Yaturaharja (Arso 10)","postal_code":99468},{"province":"Papua","city":"Keerom","district":"Arso","urban":"Yammua (Yamua/Arso 6)","postal_code":99468},{"province":"Papua","city":"Keerom","district":"Arso Timur","urban":"Yamara (PIR 5)","postal_code":99468},{"province":"Papua","city":"Keerom","district":"Arso","urban":"Workwana","postal_code":99468},{"province":"Papua","city":"Keerom","district":"Arso Timur","urban":"Wembi Dalam","postal_code":99468},{"province":"Papua","city":"Keerom","district":"Arso Timur","urban":"Wonorejo (PIR 4)","postal_code":99468},{"province":"Papua","city":"Keerom","district":"Arso Timur","urban":"Wambes Luar","postal_code":99468},{"province":"Papua","city":"Keerom","district":"Arso","urban":"Warbo (Arso 7)","postal_code":99468},{"province":"Papua","city":"Keerom","district":"Arso Timur","urban":"Skofro","postal_code":99468},{"province":"Papua","city":"Keerom","district":"Arso Timur","urban":"Suskun (Wambes Dalam)","postal_code":99468},{"province":"Papua","city":"Keerom","district":"Arso","urban":"Ubiyau","postal_code":99468},{"province":"Papua","city":"Keerom","district":"Arso Timur","urban":"Sangke","postal_code":99468},{"province":"Papua","city":"Keerom","district":"Arso","urban":"Sawiatami (Sawyatami)","postal_code":99468},{"province":"Papua","city":"Keerom","district":"Arso Timur","urban":"Pyawi (Wembi Luar)","postal_code":99468},{"province":"Papua","city":"Keerom","district":"Arso","urban":"Nawa (Sawanawa)","postal_code":99468},{"province":"Papua","city":"Keerom","district":"Arso","urban":"Sanggaria (Arso 1)","postal_code":99468},{"province":"Papua","city":"Keerom","district":"Arso Timur","urban":"Kriku","postal_code":99468},{"province":"Papua","city":"Keerom","district":"Arso","urban":"Kwimi (Kwime)","postal_code":99468},{"province":"Papua","city":"Keerom","district":"Arso Timur","urban":"Kibay","postal_code":99468},{"province":"Papua","city":"Keerom","district":"Arso","urban":"Dukwia (Arso 8)","postal_code":99468},{"province":"Papua","city":"Keerom","district":"Arso","urban":"Ifia-fia (Arso 11)","postal_code":99468},{"province":"Papua","city":"Keerom","district":"Arso","urban":"Arso Swakarsa (Asiaman)","postal_code":99468},{"province":"Papua","city":"Keerom","district":"Arso","urban":"Bagia (PIR 3)","postal_code":99468},{"province":"Papua","city":"Keerom","district":"Arso","urban":"Arso Kota","postal_code":99468}]