[{"province":"Papua","city":"Keerom","district":"Web","urban":"Yuruf","postal_code":99466},{"province":"Papua","city":"Keerom","district":"Web","urban":"Umuaf","postal_code":99466},{"province":"Papua","city":"Keerom","district":"Towe","urban":"Towe Hitam","postal_code":99466},{"province":"Papua","city":"Keerom","district":"Towe","urban":"Towe Atas","postal_code":99466},{"province":"Papua","city":"Keerom","district":"Towe","urban":"Terfones / Terpones","postal_code":99466},{"province":"Papua","city":"Keerom","district":"Towe","urban":"Tefanma","postal_code":99466},{"province":"Papua","city":"Keerom","district":"Web","urban":"Semografi","postal_code":99466},{"province":"Papua","city":"Keerom","district":"Towe","urban":"Milky (Milki)","postal_code":99466},{"province":"Papua","city":"Keerom","district":"Web","urban":"Embi","postal_code":99466},{"province":"Papua","city":"Keerom","district":"Towe","urban":"Lules","postal_code":99466},{"province":"Papua","city":"Keerom","district":"Web","urban":"Dubu","postal_code":99466},{"province":"Papua","city":"Keerom","district":"Towe","urban":"Bias","postal_code":99466},{"province":"Papua","city":"Keerom","district":"Web","urban":"Amgotro","postal_code":99466}]