[{"province":"Papua","city":"Jayawijaya","district":"Siepkosi","urban":"Yumogima (Isibitlah)","postal_code":99511},{"province":"Papua","city":"Jayawijaya","district":"Napua","urban":"Yomaima","postal_code":99511},{"province":"Papua","city":"Jayawijaya","district":"Popugoba","urban":"Yomote","postal_code":99511},{"province":"Papua","city":"Jayawijaya","district":"Popugoba","urban":"Yelelo","postal_code":99511},{"province":"Papua","city":"Jayawijaya","district":"Itlay Hisage","urban":"Yogonima","postal_code":99511},{"province":"Papua","city":"Jayawijaya","district":"Asolokobal","urban":"Yapema","postal_code":99511},{"province":"Papua","city":"Jayawijaya","district":"Walaik","urban":"Yelai","postal_code":99511},{"province":"Papua","city":"Jayawijaya","district":"Napua","urban":"Yelekama","postal_code":99511},{"province":"Papua","city":"Jayawijaya","district":"Wesaput","urban":"Yaloaput","postal_code":99511},{"province":"Papua","city":"Jayawijaya","district":"Welesi","urban":"Yagara","postal_code":99511},{"province":"Papua","city":"Jayawijaya","district":"Napua","urban":"Wilekama","postal_code":99511},{"province":"Papua","city":"Jayawijaya","district":"Asolokobal","urban":"Wiaima","postal_code":99511},{"province":"Papua","city":"Jayawijaya","district":"Wouma","urban":"Wouma","postal_code":99511},{"province":"Papua","city":"Jayawijaya","district":"Wouma","urban":"Wesakin","postal_code":99511},{"province":"Papua","city":"Jayawijaya","district":"Wouma","urban":"Wesakma","postal_code":99511},{"province":"Papua","city":"Jayawijaya","district":"Welesi","urban":"Welesi","postal_code":99511},{"province":"Papua","city":"Jayawijaya","district":"Wesaput","urban":"Wesaganya","postal_code":99511},{"province":"Papua","city":"Jayawijaya","district":"Walaik","urban":"Welekama","postal_code":99511},{"province":"Papua","city":"Jayawijaya","district":"Siepkosi","urban":"Wekia","postal_code":99511},{"province":"Papua","city":"Jayawijaya","district":"Itlay Hisage","urban":"Waoba (Wuroba/Waroba)","postal_code":99511},{"province":"Papua","city":"Jayawijaya","district":"Walelagama","urban":"Wamusage","postal_code":99511},{"province":"Papua","city":"Jayawijaya","district":"Wamena","urban":"Wamaroma","postal_code":99511},{"province":"Papua","city":"Jayawijaya","district":"Wamena","urban":"Wamena Kota","postal_code":99511},{"province":"Papua","city":"Jayawijaya","district":"Walaik","urban":"Walaik","postal_code":99511},{"province":"Papua","city":"Jayawijaya","district":"Popugoba","urban":"Waima","postal_code":99511},{"province":"Papua","city":"Jayawijaya","district":"Walelagama","urban":"Walelagama","postal_code":99511},{"province":"Papua","city":"Jayawijaya","district":"Welesi","urban":"Tulima","postal_code":99511},{"province":"Papua","city":"Jayawijaya","district":"Trikora","urban":"Trikora","postal_code":99511},{"province":"Papua","city":"Jayawijaya","district":"Itlay Hisage","urban":"Sumunikama","postal_code":99511},{"province":"Papua","city":"Jayawijaya","district":"Itlay Hisage","urban":"Tomisa","postal_code":99511},{"province":"Papua","city":"Jayawijaya","district":"Asolokobal","urban":"Sinata","postal_code":99511},{"province":"Papua","city":"Jayawijaya","district":"Asotipo","urban":"Sogokmo (Sogomo)","postal_code":99511},{"province":"Papua","city":"Jayawijaya","district":"Wamena","urban":"Sinapuk","postal_code":99511},{"province":"Papua","city":"Jayawijaya","district":"Wouma","urban":"Sinarekowa","postal_code":99511},{"province":"Papua","city":"Jayawijaya","district":"Wesaput","urban":"Silumarek","postal_code":99511},{"province":"Papua","city":"Jayawijaya","district":"Itlay Hisage","urban":"Siliwa","postal_code":99511},{"province":"Papua","city":"Jayawijaya","district":"Wamena","urban":"Sinakma","postal_code":99511},{"province":"Papua","city":"Jayawijaya","district":"Siepkosi","urban":"Sekan Dalam","postal_code":99511},{"province":"Papua","city":"Jayawijaya","district":"Siepkosi","urban":"Siepkosi","postal_code":99511},{"province":"Papua","city":"Jayawijaya","district":"Napua","urban":"Sapalek","postal_code":99511},{"province":"Papua","city":"Jayawijaya","district":"Napua","urban":"Sapalek","postal_code":99511},{"province":"Papua","city":"Jayawijaya","district":"Siepkosi","urban":"Sekan","postal_code":99511},{"province":"Papua","city":"Jayawijaya","district":"Popugoba","urban":"Pupugoba (Popugoba)","postal_code":99511},{"province":"Papua","city":"Jayawijaya","district":"Walelagama","urban":"Pugima","postal_code":99511},{"province":"Papua","city":"Jayawijaya","district":"Asotipo","urban":"Pobiatma","postal_code":99511},{"province":"Papua","city":"Jayawijaya","district":"Wouma","urban":"Pipitmo","postal_code":99511},{"province":"Papua","city":"Jayawijaya","district":"Welesi","urban":"Pawekama","postal_code":99511},{"province":"Papua","city":"Jayawijaya","district":"Wesaput","urban":"Parema","postal_code":99511},{"province":"Papua","city":"Jayawijaya","district":"Napua","urban":"Okilik","postal_code":99511},{"province":"Papua","city":"Jayawijaya","district":"Siepkosi","urban":"Noagalo","postal_code":99511},{"province":"Papua","city":"Jayawijaya","district":"Trikora","urban":"Nanggo","postal_code":99511},{"province":"Papua","city":"Jayawijaya","district":"Napua","urban":"Napua","postal_code":99511},{"province":"Papua","city":"Jayawijaya","district":"Asolokobal","urban":"Ninabua","postal_code":99511},{"province":"Papua","city":"Jayawijaya","district":"Itlay Hisage","urban":"Miami","postal_code":99511},{"province":"Papua","city":"Jayawijaya","district":"Maima","urban":"Minimo","postal_code":99511},{"province":"Papua","city":"Jayawijaya","district":"Asolokobal","urban":"Mulinekama","postal_code":99511},{"province":"Papua","city":"Jayawijaya","district":"Maima","urban":"Menagaima","postal_code":99511},{"province":"Papua","city":"Jayawijaya","district":"Wesaput","urban":"Mawampi","postal_code":99511},{"province":"Papua","city":"Jayawijaya","district":"Maima","urban":"Maima","postal_code":99511},{"province":"Papua","city":"Jayawijaya","district":"Siepkosi","urban":"Manika","postal_code":99511},{"province":"Papua","city":"Jayawijaya","district":"Itlay Hisage","urban":"Lukaken","postal_code":99511},{"province":"Papua","city":"Jayawijaya","district":"Wouma","urban":"Logonoba","postal_code":99511},{"province":"Papua","city":"Jayawijaya","district":"Siepkosi","urban":"Lunaima","postal_code":99511},{"province":"Papua","city":"Jayawijaya","district":"Welesi","urban":"Lantipo","postal_code":99511},{"province":"Papua","city":"Jayawijaya","district":"Wamena","urban":"Lanitipo","postal_code":99511},{"province":"Papua","city":"Jayawijaya","district":"Napua","urban":"Lani Matuan","postal_code":99511},{"province":"Papua","city":"Jayawijaya","district":"Walelagama","urban":"Kubulakma","postal_code":99511},{"province":"Papua","city":"Jayawijaya","district":"Walelagama","urban":"Kulaken","postal_code":99511},{"province":"Papua","city":"Jayawijaya","district":"Asotipo","urban":"Kuantapo","postal_code":99511},{"province":"Papua","city":"Jayawijaya","district":"Wouma","urban":"Ketimavit","postal_code":99511},{"province":"Papua","city":"Jayawijaya","district":"Trikora","urban":"Kora Jaya","postal_code":99511},{"province":"Papua","city":"Jayawijaya","district":"Trikora","urban":"Korambirik","postal_code":99511},{"province":"Papua","city":"Jayawijaya","district":"Maima","urban":"Kepi","postal_code":99511},{"province":"Papua","city":"Jayawijaya","district":"Itlay Hisage","urban":"Kemisake","postal_code":99511},{"province":"Papua","city":"Jayawijaya","district":"Asotipo","urban":"Iwigima","postal_code":99511},{"province":"Papua","city":"Jayawijaya","district":"Wesaput","urban":"Kama","postal_code":99511},{"province":"Papua","city":"Jayawijaya","district":"Walelagama","urban":"Itlay Halitopo","postal_code":99511},{"province":"Papua","city":"Jayawijaya","district":"Siepkosi","urban":"Isawa Himan","postal_code":99511},{"province":"Papua","city":"Jayawijaya","district":"Maima","urban":"Husewa","postal_code":99511},{"province":"Papua","city":"Jayawijaya","district":"Wamena","urban":"Hulekama / Hurekama","postal_code":99511},{"province":"Papua","city":"Jayawijaya","district":"Wesaput","urban":"Ilokama","postal_code":99511},{"province":"Papua","city":"Jayawijaya","district":"Asotipo","urban":"Hukulimo","postal_code":99511},{"province":"Papua","city":"Jayawijaya","district":"Wamena","urban":"Honelama Dua","postal_code":99511},{"province":"Papua","city":"Jayawijaya","district":"Wamena","urban":"Honaima","postal_code":99511},{"province":"Papua","city":"Jayawijaya","district":"Wamena","urban":"Honelama","postal_code":99511},{"province":"Papua","city":"Jayawijaya","district":"Walaik","urban":"Holima","postal_code":99511},{"province":"Papua","city":"Jayawijaya","district":"Asotipo","urban":"Hitigima","postal_code":99511},{"province":"Papua","city":"Jayawijaya","district":"Napua","urban":"Holima","postal_code":99511},{"province":"Papua","city":"Jayawijaya","district":"Itlay Hisage","urban":"Helepalegem","postal_code":99511},{"province":"Papua","city":"Jayawijaya","district":"Maima","urban":"Heraewa","postal_code":99511},{"province":"Papua","city":"Jayawijaya","district":"Asolokobal","urban":"Hesatom","postal_code":99511},{"province":"Papua","city":"Jayawijaya","district":"Asolokobal","urban":"Helaluwa","postal_code":99511},{"province":"Papua","city":"Jayawijaya","district":"Asotipo","urban":"Heberima","postal_code":99511},{"province":"Papua","city":"Jayawijaya","district":"Napua","urban":"Healekma","postal_code":99511},{"province":"Papua","city":"Jayawijaya","district":"Maima","urban":"Esiak","postal_code":99511},{"province":"Papua","city":"Jayawijaya","district":"Walaik","urban":"Elarek","postal_code":99511},{"province":"Papua","city":"Jayawijaya","district":"Trikora","urban":"Dinggilimo","postal_code":99511},{"province":"Papua","city":"Jayawijaya","district":"Wamena","urban":"Autakma","postal_code":99511},{"province":"Papua","city":"Jayawijaya","district":"Wamena","urban":"Batu Merah","postal_code":99511},{"province":"Papua","city":"Jayawijaya","district":"Asotipo","urban":"Asotipo","postal_code":99511},{"province":"Papua","city":"Jayawijaya","district":"Asolokobal","urban":"Asotapo","postal_code":99511},{"province":"Papua","city":"Jayawijaya","district":"Welesi","urban":"Asojelipele","postal_code":99511},{"province":"Papua","city":"Jayawijaya","district":"Asolokobal","urban":"Asolokobal","postal_code":99511},{"province":"Papua","city":"Jayawijaya","district":"Welesi","urban":"Apenas","postal_code":99511},{"province":"Papua","city":"Jayawijaya","district":"Asotipo","urban":"Air Garam","postal_code":99511},{"province":"Papua","city":"Jayawijaya","district":"Trikora","urban":"Anggulpa","postal_code":99511},{"province":"Papua","city":"Jayawijaya","district":"Wesaput","urban":"Agamoa","postal_code":99511}]