[{"province":"Papua","city":"Jayawijaya","district":"Musatfak","urban":"Yumugima","postal_code":99554},{"province":"Papua","city":"Jayawijaya","district":"Piramid","urban":"Yonggime","postal_code":99554},{"province":"Papua","city":"Jayawijaya","district":"Piramid","urban":"Yumbun","postal_code":99554},{"province":"Papua","city":"Jayawijaya","district":"Wame","urban":"Yanenggame","postal_code":99554},{"province":"Papua","city":"Jayawijaya","district":"Silo Karno Doga","urban":"Yerega","postal_code":99554},{"province":"Papua","city":"Jayawijaya","district":"Piramid","urban":"Yalinggume","postal_code":99554},{"province":"Papua","city":"Jayawijaya","district":"Silo Karno Doga","urban":"Wonenggulik","postal_code":99554},{"province":"Papua","city":"Jayawijaya","district":"Asologaima (Asalogaima)","urban":"Wawanca","postal_code":99554},{"province":"Papua","city":"Jayawijaya","district":"Silo Karno Doga","urban":"Wogi","postal_code":99554},{"province":"Papua","city":"Jayawijaya","district":"Wame","urban":"Wame","postal_code":99554},{"province":"Papua","city":"Jayawijaya","district":"Wame","urban":"Wanggonoma","postal_code":99554},{"province":"Papua","city":"Jayawijaya","district":"Asologaima (Asalogaima)","urban":"Tikawo","postal_code":99554},{"province":"Papua","city":"Jayawijaya","district":"Asologaima (Asalogaima)","urban":"Walak","postal_code":99554},{"province":"Papua","city":"Jayawijaya","district":"Muliama","urban":"Silamik","postal_code":99554},{"province":"Papua","city":"Jayawijaya","district":"Musatfak","urban":"Temia","postal_code":99554},{"province":"Papua","city":"Jayawijaya","district":"Muliama","urban":"Sekom","postal_code":99554},{"province":"Papua","city":"Jayawijaya","district":"Musatfak","urban":"Siapma","postal_code":99554},{"province":"Papua","city":"Jayawijaya","district":"Musatfak","urban":"Pumasili","postal_code":99554},{"province":"Papua","city":"Jayawijaya","district":"Piramid","urban":"Piramid","postal_code":99554},{"province":"Papua","city":"Jayawijaya","district":"Muliama","urban":"Pilibaga","postal_code":99554},{"province":"Papua","city":"Jayawijaya","district":"Piramid","urban":"Perabaga","postal_code":99554},{"province":"Papua","city":"Jayawijaya","district":"Musatfak","urban":"Mulupalek","postal_code":99554},{"province":"Papua","city":"Jayawijaya","district":"Silo Karno Doga","urban":"Olagi","postal_code":99554},{"province":"Papua","city":"Jayawijaya","district":"Muliama","urban":"Molebaga","postal_code":99554},{"province":"Papua","city":"Jayawijaya","district":"Asologaima (Asalogaima)","urban":"Miligatnem","postal_code":99554},{"province":"Papua","city":"Jayawijaya","district":"Muliama","urban":"Miliama (Muliama)","postal_code":99554},{"province":"Papua","city":"Jayawijaya","district":"Asologaima (Asalogaima)","urban":"Loki","postal_code":99554},{"province":"Papua","city":"Jayawijaya","district":"Musatfak","urban":"Kosihave","postal_code":99554},{"province":"Papua","city":"Jayawijaya","district":"Asologaima (Asalogaima)","urban":"Logotpaga","postal_code":99554},{"province":"Papua","city":"Jayawijaya","district":"Asologaima (Asalogaima)","urban":"Kimbim","postal_code":99554},{"province":"Papua","city":"Jayawijaya","district":"Asologaima (Asalogaima)","urban":"Kombagwe","postal_code":99554},{"province":"Papua","city":"Jayawijaya","district":"Muliama","urban":"Konan","postal_code":99554},{"province":"Papua","city":"Jayawijaya","district":"Muliama","urban":"Hukuragi","postal_code":99554},{"province":"Papua","city":"Jayawijaya","district":"Muliama","urban":"Kewin","postal_code":99554},{"province":"Papua","city":"Jayawijaya","district":"Muliama","urban":"Holkima","postal_code":99554},{"province":"Papua","city":"Jayawijaya","district":"Silo Karno Doga","urban":"Holasili","postal_code":99554},{"province":"Papua","city":"Jayawijaya","district":"Musatfak","urban":"Hamuhi","postal_code":99554},{"province":"Papua","city":"Jayawijaya","district":"Muliama","urban":"Helefa / Halefa","postal_code":99554},{"province":"Papua","city":"Jayawijaya","district":"Musatfak","urban":"Elabukama","postal_code":99554},{"province":"Papua","city":"Jayawijaya","district":"Piramid","urban":"Gobalimo","postal_code":99554},{"province":"Papua","city":"Jayawijaya","district":"Silo Karno Doga","urban":"Gigilobo","postal_code":99554},{"province":"Papua","city":"Jayawijaya","district":"Wame","urban":"Dumapaga","postal_code":99554},{"province":"Papua","city":"Jayawijaya","district":"Silo Karno Doga","urban":"Elaboga (Elaboge)","postal_code":99554},{"province":"Papua","city":"Jayawijaya","district":"Wame","urban":"Dogoname","postal_code":99554},{"province":"Papua","city":"Jayawijaya","district":"Piramid","urban":"Beam","postal_code":99554},{"province":"Papua","city":"Jayawijaya","district":"Muliama","urban":"Delekama","postal_code":99554},{"province":"Papua","city":"Jayawijaya","district":"Piramid","urban":"Balima","postal_code":99554},{"province":"Papua","city":"Jayawijaya","district":"Muliama","urban":"Asologaima","postal_code":99554},{"province":"Papua","city":"Jayawijaya","district":"Asologaima (Asalogaima)","urban":"Araboda","postal_code":99554},{"province":"Papua","city":"Jayawijaya","district":"Silo Karno Doga","urban":"Apnae","postal_code":99554},{"province":"Papua","city":"Jayawijaya","district":"Musatfak","urban":"Anegara (Anegera)","postal_code":99554},{"province":"Papua","city":"Jayawijaya","district":"Piramid","urban":"Algonik","postal_code":99554},{"province":"Papua","city":"Jayawijaya","district":"Musatfak","urban":"Abulukmo","postal_code":99554},{"province":"Papua","city":"Jayawijaya","district":"Piramid","urban":"Aboneri","postal_code":99554}]