[{"province":"Papua","city":"Mamberamo Tengah","district":"Kelila","urban":"Yagabur","postal_code":99553},{"province":"Papua","city":"Mamberamo Tengah","district":"Eragayam","urban":"Yabendili","postal_code":99553},{"province":"Papua","city":"Mamberamo Tengah","district":"Kelila","urban":"Yalenggolo (Yelonggolo)","postal_code":99553},{"province":"Papua","city":"Mamberamo Tengah","district":"Eragayam","urban":"Wurigelebur","postal_code":99553},{"province":"Papua","city":"Mamberamo Tengah","district":"Eragayam","urban":"Winima","postal_code":99553},{"province":"Papua","city":"Mamberamo Tengah","district":"Eragayam","urban":"Winam","postal_code":99553},{"province":"Papua","city":"Mamberamo Tengah","district":"Kelila","urban":"Uganda","postal_code":99553},{"province":"Papua","city":"Mamberamo Tengah","district":"Eragayam","urban":"Wanilok (Yelam)","postal_code":99553},{"province":"Papua","city":"Mamberamo Tengah","district":"Kelila","urban":"Tongrik (Tenggrik/Togirik/Yinaga)","postal_code":99553},{"province":"Papua","city":"Mamberamo Tengah","district":"Kelila","urban":"Timeria","postal_code":99553},{"province":"Papua","city":"Mamberamo Tengah","district":"Kelila","urban":"Tari","postal_code":99553},{"province":"Papua","city":"Mamberamo Tengah","district":"Kelila","urban":"Tikapura","postal_code":99553},{"province":"Papua","city":"Mamberamo Tengah","district":"Kelila","urban":"Pelanme (Pelame)","postal_code":99553},{"province":"Papua","city":"Mamberamo Tengah","district":"Eragayam","urban":"Pagale","postal_code":99553},{"province":"Papua","city":"Mamberamo Tengah","district":"Kelila","urban":"Onggobalo (Gwipu)","postal_code":99553},{"province":"Papua","city":"Mamberamo Tengah","district":"Eragayam","urban":"Mologi (Molagi)","postal_code":99553},{"province":"Papua","city":"Mamberamo Tengah","district":"Eragayam","urban":"Mogonik","postal_code":99553},{"province":"Papua","city":"Mamberamo Tengah","district":"Kelila","urban":"Mabuna (Mabuma)","postal_code":99553},{"province":"Papua","city":"Mamberamo Tengah","district":"Eragayam","urban":"Kugap","postal_code":99553},{"province":"Papua","city":"Mamberamo Tengah","district":"Kelila","urban":"Kumbu","postal_code":99553},{"province":"Papua","city":"Mamberamo Tengah","district":"Kelila","urban":"Kindok (Lobi)","postal_code":99553},{"province":"Papua","city":"Mamberamo Tengah","district":"Eragayam","urban":"Kino (Kinou)","postal_code":99553},{"province":"Papua","city":"Mamberamo Tengah","district":"Kelila","urban":"Gelora","postal_code":99553},{"province":"Papua","city":"Mamberamo Tengah","district":"Kelila","urban":"Kambo","postal_code":99553},{"province":"Papua","city":"Mamberamo Tengah","district":"Kelila","urban":"Kelila","postal_code":99553},{"province":"Papua","city":"Mamberamo Tengah","district":"Eragayam","urban":"Erageam (Eragaem)","postal_code":99553},{"province":"Papua","city":"Mamberamo Tengah","district":"Eragayam","urban":"Egaima (Engaima)","postal_code":99553},{"province":"Papua","city":"Mamberamo Tengah","district":"Eragayam","urban":"Enggama","postal_code":99553},{"province":"Papua","city":"Mamberamo Tengah","district":"Kelila","urban":"Dibunggen","postal_code":99553},{"province":"Papua","city":"Mamberamo Tengah","district":"Kelila","urban":"Dogobak","postal_code":99553},{"province":"Papua","city":"Mamberamo Tengah","district":"Kelila","urban":"Binime","postal_code":99553},{"province":"Papua","city":"Mamberamo Tengah","district":"Eragayam","urban":"Ayeki","postal_code":99553},{"province":"Papua","city":"Mamberamo Tengah","district":"Eragayam","urban":"Arsbol","postal_code":99553},{"province":"Papua","city":"Mamberamo Tengah","district":"Kelila","urban":"Apalo","postal_code":99553}]