[{"province":"Papua","city":"Jayawijaya","district":"Tagime","urban":"Yordania Tulak","postal_code":99557},{"province":"Papua","city":"Jayawijaya","district":"Tagime","urban":"Yanggapura","postal_code":99557},{"province":"Papua","city":"Jayawijaya","district":"Tagime","urban":"Yogobur","postal_code":99557},{"province":"Papua","city":"Jayawijaya","district":"Yalengga","urban":"Yalengga (Yelengga)","postal_code":99557},{"province":"Papua","city":"Jayawijaya","district":"Tagineri","urban":"Wuragukme","postal_code":99557},{"province":"Papua","city":"Jayawijaya","district":"Wollo (Wolo)","urban":"Wunan","postal_code":99557},{"province":"Papua","city":"Jayawijaya","district":"Yalengga","urban":"Wugurima","postal_code":99557},{"province":"Papua","city":"Jayawijaya","district":"Wollo (Wolo)","urban":"Wolo (Wollo)","postal_code":99557},{"province":"Papua","city":"Jayawijaya","district":"Wollo (Wolo)","urban":"Wollo Timur","postal_code":99557},{"province":"Papua","city":"Jayawijaya","district":"Wollo (Wolo)","urban":"Wodloma","postal_code":99557},{"province":"Papua","city":"Jayawijaya","district":"Tagineri","urban":"Wilaloma","postal_code":99557},{"province":"Papua","city":"Jayawijaya","district":"Bolakme","urban":"Wenamela","postal_code":99557},{"province":"Papua","city":"Jayawijaya","district":"Yalengga","urban":"Wananuk","postal_code":99557},{"province":"Papua","city":"Jayawijaya","district":"Tagime","urban":"Wandinggunie","postal_code":99557},{"province":"Papua","city":"Jayawijaya","district":"Yalengga","urban":"Wamanuk Dua","postal_code":99557},{"province":"Papua","city":"Jayawijaya","district":"Bpiri","urban":"Walakma","postal_code":99557},{"province":"Papua","city":"Jayawijaya","district":"Bugi","urban":"Walak Selatan","postal_code":99557},{"province":"Papua","city":"Jayawijaya","district":"Yalengga","urban":"Tumun","postal_code":99557},{"province":"Papua","city":"Jayawijaya","district":"Molagalome","urban":"Towagame","postal_code":99557},{"province":"Papua","city":"Jayawijaya","district":"Bugi","urban":"Totni","postal_code":99557},{"province":"Papua","city":"Jayawijaya","district":"Bolakme","urban":"Tononggame (Tenonggame)","postal_code":99557},{"province":"Papua","city":"Jayawijaya","district":"Bpiri","urban":"Tirunggu","postal_code":99557},{"province":"Papua","city":"Jayawijaya","district":"Koragi","urban":"Telegai","postal_code":99557},{"province":"Papua","city":"Jayawijaya","district":"Koragi","urban":"Tenondek","postal_code":99557},{"province":"Papua","city":"Jayawijaya","district":"Bolakme","urban":"Tekani","postal_code":99557},{"province":"Papua","city":"Jayawijaya","district":"Wollo (Wolo)","urban":"Tegabaga","postal_code":99557},{"province":"Papua","city":"Jayawijaya","district":"Molagalome","urban":"Tanahmerah","postal_code":99557},{"province":"Papua","city":"Jayawijaya","district":"Tagineri","urban":"Tamokilo (Tamokilu/Tamokulu)","postal_code":99557},{"province":"Papua","city":"Jayawijaya","district":"Bugi","urban":"Tagulik","postal_code":99557},{"province":"Papua","city":"Jayawijaya","district":"Tagineri","urban":"Taginem (Tagineri)","postal_code":99557},{"province":"Papua","city":"Jayawijaya","district":"Tagime","urban":"Tagime","postal_code":99557},{"province":"Papua","city":"Jayawijaya","district":"Koragi","urban":"Tagibaga","postal_code":99557},{"province":"Papua","city":"Jayawijaya","district":"Yalengga","urban":"Taganik","postal_code":99557},{"province":"Papua","city":"Jayawijaya","district":"Tagime","urban":"Porome","postal_code":99557},{"province":"Papua","city":"Jayawijaya","district":"Bolakme","urban":"Poitmos","postal_code":99557},{"province":"Papua","city":"Jayawijaya","district":"Yalengga","urban":"Pilimo","postal_code":99557},{"province":"Papua","city":"Jayawijaya","district":"Wollo (Wolo)","urban":"Pirambor (Pirambot)","postal_code":99557},{"province":"Papua","city":"Jayawijaya","district":"Tagineri","urban":"Pagaluk","postal_code":99557},{"province":"Papua","city":"Jayawijaya","district":"Bolakme","urban":"Owagambak","postal_code":99557},{"province":"Papua","city":"Jayawijaya","district":"Tagime","urban":"Onggobalo","postal_code":99557},{"province":"Papua","city":"Jayawijaya","district":"Bpiri","urban":"Onggaba (Onggabaga/Onggobaga)","postal_code":99557},{"province":"Papua","city":"Jayawijaya","district":"Molagalome","urban":"Okwa","postal_code":99557},{"province":"Papua","city":"Jayawijaya","district":"Bolakme","urban":"Nunggarugum","postal_code":99557},{"province":"Papua","city":"Jayawijaya","district":"Bolakme","urban":"Munak","postal_code":99557},{"province":"Papua","city":"Jayawijaya","district":"Tagime","urban":"Mulugame","postal_code":99557},{"province":"Papua","city":"Jayawijaya","district":"Molagalome","urban":"Molagalome","postal_code":99557},{"province":"Papua","city":"Jayawijaya","district":"Tagineri","urban":"Melemei","postal_code":99557},{"province":"Papua","city":"Jayawijaya","district":"Molagalome","urban":"Mebunukme","postal_code":99557},{"province":"Papua","city":"Jayawijaya","district":"Yalengga","urban":"Manili","postal_code":99557},{"province":"Papua","city":"Jayawijaya","district":"Bugi","urban":"Manda","postal_code":99557},{"province":"Papua","city":"Jayawijaya","district":"Tagime","urban":"Lapeyo","postal_code":99557},{"province":"Papua","city":"Jayawijaya","district":"Bolakme","urban":"Lani Timur","postal_code":99557},{"province":"Papua","city":"Jayawijaya","district":"Tagime","urban":"Lakwame","postal_code":99557},{"province":"Papua","city":"Jayawijaya","district":"Molagalome","urban":"Kwigiluk","postal_code":99557},{"province":"Papua","city":"Jayawijaya","district":"Bolakme","urban":"Kugitero","postal_code":99557},{"province":"Papua","city":"Jayawijaya","district":"Koragi","urban":"Kumudiluk","postal_code":99557},{"province":"Papua","city":"Jayawijaya","district":"Wollo (Wolo)","urban":"Kukurima","postal_code":99557},{"province":"Papua","city":"Jayawijaya","district":"Koragi","urban":"Koragi","postal_code":99557},{"province":"Papua","city":"Jayawijaya","district":"Bugi","urban":"Kodlangga","postal_code":99557},{"province":"Papua","city":"Jayawijaya","district":"Bpiri","urban":"Irilinga / Irilingga (Irilingan)","postal_code":99557},{"province":"Papua","city":"Jayawijaya","district":"Tagineri","urban":"Injuta","postal_code":99557},{"province":"Papua","city":"Jayawijaya","district":"Tagime","urban":"Gume Kupari","postal_code":99557},{"province":"Papua","city":"Jayawijaya","district":"Tagineri","urban":"Gelelame","postal_code":99557},{"province":"Papua","city":"Jayawijaya","district":"Bpiri","urban":"Dlinggama","postal_code":99557},{"province":"Papua","city":"Jayawijaya","district":"Bpiri","urban":"Dlonggoki","postal_code":99557},{"province":"Papua","city":"Jayawijaya","district":"Bugi","urban":"Dewene","postal_code":99557},{"province":"Papua","city":"Jayawijaya","district":"Bugi","urban":"Bugi","postal_code":99557},{"province":"Papua","city":"Jayawijaya","district":"Yalengga","urban":"Bitti","postal_code":99557},{"province":"Papua","city":"Jayawijaya","district":"Bolakme","urban":"Bolakme","postal_code":99557},{"province":"Papua","city":"Jayawijaya","district":"Tagineri","urban":"Binibaga","postal_code":99557},{"province":"Papua","city":"Jayawijaya","district":"Bolakme","urban":"Bandua","postal_code":99557},{"province":"Papua","city":"Jayawijaya","district":"Bolakme","urban":"Bimu","postal_code":99557},{"province":"Papua","city":"Jayawijaya","district":"Bpiri","urban":"Ayoma","postal_code":99557},{"province":"Papua","city":"Jayawijaya","district":"Wollo (Wolo)","urban":"Alugi","postal_code":99557},{"province":"Papua","city":"Jayawijaya","district":"Bugi","urban":"Air Garam","postal_code":99557},{"province":"Papua","city":"Jayawijaya","district":"Yalengga","urban":"Akorek","postal_code":99557},{"province":"Papua","city":"Jayawijaya","district":"Yalengga","urban":"Aipakma","postal_code":99557},{"province":"Papua","city":"Mamberamo Tengah","district":"Ilugwa","urban":"Wirima","postal_code":99557},{"province":"Papua","city":"Mamberamo Tengah","district":"Ilugwa","urban":"Melenggama","postal_code":99557},{"province":"Papua","city":"Mamberamo Tengah","district":"Ilugwa","urban":"Kalarin","postal_code":99557},{"province":"Papua","city":"Mamberamo Tengah","district":"Ilugwa","urban":"Ilugwa","postal_code":99557},{"province":"Papua","city":"Mamberamo Tengah","district":"Ilugwa","urban":"Ilusimo (Ilusilimo)","postal_code":99557},{"province":"Papua","city":"Mamberamo Tengah","district":"Ilugwa","urban":"Danama","postal_code":99557}]