[{"province":"Papua","city":"Lanny Jaya","district":"Makki (Maki)","urban":"Yugumia","postal_code":99555},{"province":"Papua","city":"Lanny Jaya","district":"Makki (Maki)","urban":"Yaneko","postal_code":99555},{"province":"Papua","city":"Lanny Jaya","district":"Makki (Maki)","urban":"Tigima (Tigime)","postal_code":99555},{"province":"Papua","city":"Lanny Jaya","district":"Makki (Maki)","urban":"Wanuga","postal_code":99555},{"province":"Papua","city":"Lanny Jaya","district":"Makki (Maki)","urban":"Penggima (Penggime)","postal_code":99555},{"province":"Papua","city":"Lanny Jaya","district":"Makki (Maki)","urban":"Pirambor","postal_code":99555},{"province":"Papua","city":"Lanny Jaya","district":"Makki (Maki)","urban":"Teyiko (Seiko)","postal_code":99555},{"province":"Papua","city":"Lanny Jaya","district":"Makki (Maki)","urban":"Lelam","postal_code":99555},{"province":"Papua","city":"Lanny Jaya","district":"Makki (Maki)","urban":"Mamiri","postal_code":99555},{"province":"Papua","city":"Lanny Jaya","district":"Makki (Maki)","urban":"Kondena","postal_code":99555},{"province":"Papua","city":"Lanny Jaya","district":"Makki (Maki)","urban":"Labora","postal_code":99555},{"province":"Papua","city":"Lanny Jaya","district":"Makki (Maki)","urban":"Kemiri","postal_code":99555},{"province":"Papua","city":"Lanny Jaya","district":"Makki (Maki)","urban":"Kimbo","postal_code":99555},{"province":"Papua","city":"Lanny Jaya","district":"Makki (Maki)","urban":"Kamulume (Kumulume)","postal_code":99555},{"province":"Papua","city":"Lanny Jaya","district":"Makki (Maki)","urban":"Keloyak (Kolayak)","postal_code":99555},{"province":"Papua","city":"Lanny Jaya","district":"Makki (Maki)","urban":"Indigu (Indugu)","postal_code":99555},{"province":"Papua","city":"Lanny Jaya","district":"Makki (Maki)","urban":"Juta","postal_code":99555},{"province":"Papua","city":"Lanny Jaya","district":"Makki (Maki)","urban":"Gondura","postal_code":99555},{"province":"Papua","city":"Lanny Jaya","district":"Makki (Maki)","urban":"Guburni","postal_code":99555},{"province":"Papua","city":"Lanny Jaya","district":"Makki (Maki)","urban":"Indawa","postal_code":99555},{"province":"Papua","city":"Lanny Jaya","district":"Makki (Maki)","urban":"Bonom","postal_code":99555},{"province":"Papua","city":"Lanny Jaya","district":"Makki (Maki)","urban":"Eyuni","postal_code":99555}]