[{"province":"Papua","city":"Mamberamo Tengah","district":"Kobakma","urban":"Wiyugobak","postal_code":99558},{"province":"Papua","city":"Mamberamo Tengah","district":"Kobakma","urban":"Yagalim","postal_code":99558},{"province":"Papua","city":"Mamberamo Tengah","district":"Kobakma","urban":"Seralema","postal_code":99558},{"province":"Papua","city":"Mamberamo Tengah","district":"Megabilis (Megambilis)","urban":"Taria","postal_code":99558},{"province":"Papua","city":"Mamberamo Tengah","district":"Kobakma","urban":"Moga","postal_code":99558},{"province":"Papua","city":"Mamberamo Tengah","district":"Kobakma","urban":"Ninugagas (Ninunggas)","postal_code":99558},{"province":"Papua","city":"Mamberamo Tengah","district":"Kobakma","urban":"Sembegulik (Samabegulik)","postal_code":99558},{"province":"Papua","city":"Mamberamo Tengah","district":"Megabilis (Megambilis)","urban":"Megambilis (Megabilis)","postal_code":99558},{"province":"Papua","city":"Mamberamo Tengah","district":"Kobakma","urban":"Luarima","postal_code":99558},{"province":"Papua","city":"Mamberamo Tengah","district":"Kobakma","urban":"Keniwa","postal_code":99558},{"province":"Papua","city":"Mamberamo Tengah","district":"Kobakma","urban":"Kobakma","postal_code":99558},{"province":"Papua","city":"Mamberamo Tengah","district":"Megabilis (Megambilis)","urban":"Higisyam","postal_code":99558},{"province":"Papua","city":"Mamberamo Tengah","district":"Megabilis (Megambilis)","urban":"Homasam","postal_code":99558},{"province":"Papua","city":"Mamberamo Tengah","district":"Kobakma","urban":"Guawage","postal_code":99558},{"province":"Papua","city":"Mamberamo Tengah","district":"Kobakma","urban":"Dokle","postal_code":99558},{"province":"Papua","city":"Mamberamo Tengah","district":"Kobakma","urban":"Gimbis","postal_code":99558},{"province":"Papua","city":"Mamberamo Tengah","district":"Kobakma","urban":"Baliblabuk (Baliklabur)","postal_code":99558},{"province":"Papua","city":"Mamberamo Tengah","district":"Kobakma","urban":"Boroges","postal_code":99558},{"province":"Papua","city":"Mamberamo Tengah","district":"Kobakma","urban":"Anduang","postal_code":99558}]