[{"province":"Papua","city":"Lanny Jaya","district":"Gamelia","urban":"Yudani","postal_code":99556},{"province":"Papua","city":"Lanny Jaya","district":"Gamelia","urban":"Yugumabur (Yubumabur)","postal_code":99556},{"province":"Papua","city":"Lanny Jaya","district":"Gamelia","urban":"Sallemo (Salemo)","postal_code":99556},{"province":"Papua","city":"Lanny Jaya","district":"Gamelia","urban":"Wupi","postal_code":99556},{"province":"Papua","city":"Lanny Jaya","district":"Poga","urban":"Poga","postal_code":99556},{"province":"Papua","city":"Lanny Jaya","district":"Gamelia","urban":"Piwugun","postal_code":99556},{"province":"Papua","city":"Lanny Jaya","district":"Gamelia","urban":"Pirawun","postal_code":99556},{"province":"Papua","city":"Lanny Jaya","district":"Gamelia","urban":"Odika","postal_code":99556},{"province":"Papua","city":"Lanny Jaya","district":"Gamelia","urban":"Pindalo","postal_code":99556},{"province":"Papua","city":"Lanny Jaya","district":"Poga","urban":"Lugobak","postal_code":99556},{"province":"Papua","city":"Lanny Jaya","district":"Poga","urban":"Megalunik","postal_code":99556},{"province":"Papua","city":"Lanny Jaya","district":"Poga","urban":"Muara","postal_code":99556},{"province":"Papua","city":"Lanny Jaya","district":"Poga","urban":"Kanumbume","postal_code":99556},{"province":"Papua","city":"Lanny Jaya","district":"Poga","urban":"Lualo","postal_code":99556},{"province":"Papua","city":"Lanny Jaya","district":"Gamelia","urban":"Gukopi (Gukop)","postal_code":99556},{"province":"Papua","city":"Lanny Jaya","district":"Poga","urban":"Gikur","postal_code":99556},{"province":"Papua","city":"Lanny Jaya","district":"Poga","urban":"Gipura","postal_code":99556},{"province":"Papua","city":"Lanny Jaya","district":"Poga","urban":"Bigipaga","postal_code":99556},{"province":"Papua","city":"Lanny Jaya","district":"Gamelia","urban":"Ekapame","postal_code":99556},{"province":"Papua","city":"Lanny Jaya","district":"Gamelia","urban":"Gamelia","postal_code":99556},{"province":"Papua","city":"Lanny Jaya","district":"Gamelia","urban":"Ayafofa","postal_code":99556},{"province":"Papua","city":"Lanny Jaya","district":"Poga","urban":"Abua","postal_code":99556}]