[{"province":"Papua","city":"Jayawijaya","district":"Wadangku","urban":"Yomosimo","postal_code":99552},{"province":"Papua","city":"Jayawijaya","district":"Libarek","urban":"Wenabubaga","postal_code":99552},{"province":"Papua","city":"Jayawijaya","district":"Usilimo","urban":"Wosiala","postal_code":99552},{"province":"Papua","city":"Jayawijaya","district":"Pisugi","urban":"Wara","postal_code":99552},{"province":"Papua","city":"Jayawijaya","district":"Wita Waya","urban":"Wiligima","postal_code":99552},{"province":"Papua","city":"Jayawijaya","district":"Kurulu","urban":"Waga Waga","postal_code":99552},{"province":"Papua","city":"Jayawijaya","district":"Kurulu","urban":"Yiwika (Jiwika)","postal_code":99552},{"province":"Papua","city":"Jayawijaya","district":"Wadangku","urban":"Wadangku","postal_code":99552},{"province":"Papua","city":"Jayawijaya","district":"Usilimo","urban":"Usilimo","postal_code":99552},{"province":"Papua","city":"Jayawijaya","district":"Kurulu","urban":"Utkolo Satu","postal_code":99552},{"province":"Papua","city":"Jayawijaya","district":"Usilimo","urban":"Undulumo","postal_code":99552},{"province":"Papua","city":"Jayawijaya","district":"Wita Waya","urban":"Tulem","postal_code":99552},{"province":"Papua","city":"Jayawijaya","district":"Kurulu","urban":"Umpagalo","postal_code":99552},{"province":"Papua","city":"Jayawijaya","district":"Libarek","urban":"Punakul","postal_code":99552},{"province":"Papua","city":"Jayawijaya","district":"Pisugi","urban":"Suroba","postal_code":99552},{"province":"Papua","city":"Jayawijaya","district":"Usilimo","urban":"Siba","postal_code":99552},{"province":"Papua","city":"Jayawijaya","district":"Pisugi","urban":"Pisugi","postal_code":99552},{"province":"Papua","city":"Jayawijaya","district":"Pisugi","urban":"Pabuma","postal_code":99552},{"province":"Papua","city":"Jayawijaya","district":"Pisugi","urban":"Pikhe","postal_code":99552},{"province":"Papua","city":"Jayawijaya","district":"Kurulu","urban":"Obya","postal_code":99552},{"province":"Papua","city":"Jayawijaya","district":"Wadangku","urban":"Musiem","postal_code":99552},{"province":"Papua","city":"Jayawijaya","district":"Kurulu","urban":"Mulima","postal_code":99552},{"province":"Papua","city":"Jayawijaya","district":"Libarek","urban":"Musalfak","postal_code":99552},{"province":"Papua","city":"Jayawijaya","district":"Usilimo","urban":"Meagamia","postal_code":99552},{"province":"Papua","city":"Jayawijaya","district":"Kurulu","urban":"Mebagaima","postal_code":99552},{"province":"Papua","city":"Jayawijaya","district":"Libarek","urban":"Muliama","postal_code":99552},{"province":"Papua","city":"Jayawijaya","district":"Kurulu","urban":"Kumima (Kimina)","postal_code":99552},{"province":"Papua","city":"Jayawijaya","district":"Wita Waya","urban":"Koma","postal_code":99552},{"province":"Papua","city":"Jayawijaya","district":"Wadangku","urban":"Luku-luku","postal_code":99552},{"province":"Papua","city":"Jayawijaya","district":"Libarek","urban":"Kilubaga","postal_code":99552},{"province":"Papua","city":"Jayawijaya","district":"Kurulu","urban":"Iyantik","postal_code":99552},{"province":"Papua","city":"Jayawijaya","district":"Usilimo","urban":"Gua Wisata","postal_code":99552},{"province":"Papua","city":"Jayawijaya","district":"Usilimo","urban":"Isaiman","postal_code":99552},{"province":"Papua","city":"Jayawijaya","district":"Kurulu","urban":"Hopama","postal_code":99552},{"province":"Papua","city":"Jayawijaya","district":"Usilimo","urban":"Fikha","postal_code":99552},{"province":"Papua","city":"Jayawijaya","district":"Kurulu","urban":"Eragama (Erema)","postal_code":99552},{"province":"Papua","city":"Jayawijaya","district":"Usilimo","urban":"Alona","postal_code":99552},{"province":"Papua","city":"Jayawijaya","district":"Wita Waya","urban":"Alolik","postal_code":99552},{"province":"Papua","city":"Jayawijaya","district":"Wita Waya","urban":"Alula","postal_code":99552},{"province":"Papua","city":"Jayawijaya","district":"Pisugi","urban":"Akiaput","postal_code":99552},{"province":"Papua","city":"Jayawijaya","district":"Wadangku","urban":"Agulimo","postal_code":99552},{"province":"Papua","city":"Jayawijaya","district":"Pisugi","urban":"Aikima","postal_code":99552},{"province":"Papua","city":"Jayawijaya","district":"Usilimo","urban":"Abutpuk","postal_code":99552},{"province":"Papua","city":"Jayawijaya","district":"Kurulu","urban":"Abusa","postal_code":99552}]