[{"province":"Papua","city":"Tolikara","district":"Wina","urban":"Yugubuk","postal_code":99569},{"province":"Papua","city":"Tolikara","district":"Wina","urban":"Yugumengga","postal_code":99569},{"province":"Papua","city":"Tolikara","district":"Egiam","urban":"Yoka","postal_code":99569},{"province":"Papua","city":"Tolikara","district":"Egiam","urban":"Yonira","postal_code":99569},{"province":"Papua","city":"Tolikara","district":"Kembu","urban":"Yowo","postal_code":99569},{"province":"Papua","city":"Tolikara","district":"Wina","urban":"Yogweme","postal_code":99569},{"province":"Papua","city":"Tolikara","district":"Wina","urban":"Yogweme","postal_code":99569},{"province":"Papua","city":"Tolikara","district":"Panaga","urban":"Yandono","postal_code":99569},{"province":"Papua","city":"Tolikara","district":"Dundu (Ndundu)","urban":"Yiku","postal_code":99569},{"province":"Papua","city":"Tolikara","district":"Wari (Taiyeve)","urban":"Yanora","postal_code":99569},{"province":"Papua","city":"Tolikara","district":"Umagi","urban":"Yaleme","postal_code":99569},{"province":"Papua","city":"Tolikara","district":"Umagi","urban":"Yali","postal_code":99569},{"province":"Papua","city":"Tolikara","district":"Kembu","urban":"Wulinaga","postal_code":99569},{"province":"Papua","city":"Tolikara","district":"Telenggeme","urban":"Yagagobak","postal_code":99569},{"province":"Papua","city":"Tolikara","district":"Gundagi (Gudage)","urban":"Wobe","postal_code":99569},{"province":"Papua","city":"Tolikara","district":"Gundagi (Gudage)","urban":"Woraga","postal_code":99569},{"province":"Papua","city":"Tolikara","district":"Gundagi (Gudage)","urban":"Winengga","postal_code":99569},{"province":"Papua","city":"Tolikara","district":"Wina","urban":"Wina","postal_code":99569},{"province":"Papua","city":"Tolikara","district":"Egiam","urban":"Weri","postal_code":99569},{"province":"Papua","city":"Tolikara","district":"Wari (Taiyeve)","urban":"Wiki","postal_code":99569},{"province":"Papua","city":"Tolikara","district":"Gika","urban":"Wenigi","postal_code":99569},{"province":"Papua","city":"Tolikara","district":"Telenggeme","urban":"Wekaru","postal_code":99569},{"province":"Papua","city":"Tolikara","district":"Egiam","urban":"Wayongga","postal_code":99569},{"province":"Papua","city":"Tolikara","district":"Umagi","urban":"Warna","postal_code":99569},{"province":"Papua","city":"Tolikara","district":"Dow","urban":"Warka","postal_code":99569},{"province":"Papua","city":"Tolikara","district":"Gika","urban":"Wanuwi","postal_code":99569},{"province":"Papua","city":"Tolikara","district":"Wina","urban":"Wariru","postal_code":99569},{"province":"Papua","city":"Tolikara","district":"Gika","urban":"Wanuwi","postal_code":99569},{"province":"Papua","city":"Tolikara","district":"Gundagi (Gudage)","urban":"Wamili","postal_code":99569},{"province":"Papua","city":"Tolikara","district":"Gundagi (Gudage)","urban":"Wamolo","postal_code":99569},{"province":"Papua","city":"Tolikara","district":"Wari (Taiyeve)","urban":"Wakumendek","postal_code":99569},{"province":"Papua","city":"Tolikara","district":"Dow","urban":"Vokuyo","postal_code":99569},{"province":"Papua","city":"Tolikara","district":"Gundagi (Gudage)","urban":"Umar","postal_code":99569},{"province":"Papua","city":"Tolikara","district":"Umagi","urban":"Umagi","postal_code":99569},{"province":"Papua","city":"Tolikara","district":"Timori","urban":"Tioner","postal_code":99569},{"province":"Papua","city":"Tolikara","district":"Timori","urban":"Tirib","postal_code":99569},{"province":"Papua","city":"Tolikara","district":"Dow","urban":"Tigu","postal_code":99569},{"province":"Papua","city":"Tolikara","district":"Kembu","urban":"Tioga","postal_code":99569},{"province":"Papua","city":"Tolikara","district":"Wari (Taiyeve)","urban":"Timoga/Kabupaga","postal_code":99569},{"province":"Papua","city":"Tolikara","district":"Poganeri","urban":"Tigir","postal_code":99569},{"province":"Papua","city":"Tolikara","district":"Yuko","urban":"Teleme","postal_code":99569},{"province":"Papua","city":"Tolikara","district":"Telenggeme","urban":"Telenggeme","postal_code":99569},{"province":"Papua","city":"Tolikara","district":"Telenggeme","urban":"Tenek","postal_code":99569},{"province":"Papua","city":"Tolikara","district":"Wina","urban":"Tawi","postal_code":99569},{"province":"Papua","city":"Tolikara","district":"Poganeri","urban":"Telekonok","postal_code":99569},{"province":"Papua","city":"Tolikara","district":"Dow","urban":"Takri","postal_code":99569},{"province":"Papua","city":"Tolikara","district":"Gika","urban":"Tabunakme","postal_code":99569},{"province":"Papua","city":"Tolikara","district":"Egiam","urban":"Tabonakme","postal_code":99569},{"province":"Papua","city":"Tolikara","district":"Yuko","urban":"Tabuh","postal_code":99569},{"province":"Papua","city":"Tolikara","district":"Dow","urban":"Sigou","postal_code":99569},{"province":"Papua","city":"Tolikara","district":"Gundagi (Gudage)","urban":"Punggelak","postal_code":99569},{"province":"Papua","city":"Tolikara","district":"Panaga","urban":"Saksi Maler","postal_code":99569},{"province":"Papua","city":"Tolikara","district":"Panaga","urban":"Siak","postal_code":99569},{"province":"Papua","city":"Tolikara","district":"Umagi","urban":"Popaga","postal_code":99569},{"province":"Papua","city":"Tolikara","district":"Dow","urban":"Prawa","postal_code":99569},{"province":"Papua","city":"Tolikara","district":"Umagi","urban":"Piriluk","postal_code":99569},{"province":"Papua","city":"Tolikara","district":"Timori","urban":"Pirage","postal_code":99569},{"province":"Papua","city":"Tolikara","district":"Egiam","urban":"Pinde","postal_code":99569},{"province":"Papua","city":"Tolikara","district":"Panaga","urban":"Pindanggun","postal_code":99569},{"province":"Papua","city":"Tolikara","district":"Yuko","urban":"Pekaleme","postal_code":99569},{"province":"Papua","city":"Tolikara","district":"Panaga","urban":"Panaga","postal_code":99569},{"province":"Papua","city":"Tolikara","district":"Wari (Taiyeve)","urban":"Papedari","postal_code":99569},{"province":"Papua","city":"Tolikara","district":"Dow","urban":"Pakare","postal_code":99569},{"province":"Papua","city":"Tolikara","district":"Umagi","urban":"Pagongga","postal_code":99569},{"province":"Papua","city":"Tolikara","district":"Panaga","urban":"Paido","postal_code":99569},{"province":"Papua","city":"Tolikara","district":"Gundagi (Gudage)","urban":"Oker","postal_code":99569},{"province":"Papua","city":"Tolikara","district":"Dundu (Ndundu)","urban":"Nugini","postal_code":99569},{"province":"Papua","city":"Tolikara","district":"Umagi","urban":"Nolopur","postal_code":99569},{"province":"Papua","city":"Tolikara","district":"Kembu","urban":"Nugari","postal_code":99569},{"province":"Papua","city":"Tolikara","district":"Dundu (Ndundu)","urban":"Nilogabu","postal_code":99569},{"province":"Papua","city":"Tolikara","district":"Poganeri","urban":"Nogari","postal_code":99569},{"province":"Papua","city":"Tolikara","district":"Gundagi (Gudage)","urban":"Nangga","postal_code":99569},{"province":"Papua","city":"Tolikara","district":"Umagi","urban":"Nambu","postal_code":99569},{"province":"Papua","city":"Tolikara","district":"Wina","urban":"Nakwil","postal_code":99569},{"province":"Papua","city":"Tolikara","district":"Gundagi (Gudage)","urban":"Muruneri","postal_code":99569},{"province":"Papua","city":"Tolikara","district":"Dundu (Ndundu)","urban":"Nakwi","postal_code":99569},{"province":"Papua","city":"Tolikara","district":"Wari (Taiyeve)","urban":"Muna","postal_code":99569},{"province":"Papua","city":"Tolikara","district":"Egiam","urban":"Murni","postal_code":99569},{"province":"Papua","city":"Tolikara","district":"Yuko","urban":"Miyanagame","postal_code":99569},{"province":"Papua","city":"Tolikara","district":"Umagi","urban":"Mino","postal_code":99569},{"province":"Papua","city":"Tolikara","district":"Gika","urban":"Membramonggen","postal_code":99569},{"province":"Papua","city":"Tolikara","district":"Yuko","urban":"Minegimen","postal_code":99569},{"province":"Papua","city":"Tolikara","district":"Kembu","urban":"Mamit","postal_code":99569},{"province":"Papua","city":"Tolikara","district":"Wina","urban":"Malela","postal_code":99569},{"province":"Papua","city":"Tolikara","district":"Gika","urban":"Makido","postal_code":99569},{"province":"Papua","city":"Tolikara","district":"Timori","urban":"Luki","postal_code":99569},{"province":"Papua","city":"Tolikara","district":"Poganeri","urban":"Mabuk","postal_code":99569},{"province":"Papua","city":"Tolikara","district":"Timori","urban":"Liwina","postal_code":99569},{"province":"Papua","city":"Tolikara","district":"Timori","urban":"Logulo","postal_code":99569},{"province":"Papua","city":"Tolikara","district":"Telenggeme","urban":"Linggira","postal_code":99569},{"province":"Papua","city":"Tolikara","district":"Kanggime (Kanggima )","urban":"Lawor (Lawori)","postal_code":99569},{"province":"Papua","city":"Tolikara","district":"Gika","urban":"Kwa","postal_code":99569},{"province":"Papua","city":"Tolikara","district":"Panaga","urban":"Kutiom","postal_code":99569},{"province":"Papua","city":"Tolikara","district":"Wari (Taiyeve)","urban":"Laniloma","postal_code":99569},{"province":"Papua","city":"Tolikara","district":"Dundu (Ndundu)","urban":"Kurupu","postal_code":99569},{"province":"Papua","city":"Tolikara","district":"Wari (Taiyeve)","urban":"Kuruku","postal_code":99569},{"province":"Papua","city":"Tolikara","district":"Gundagi (Gudage)","urban":"Kurik","postal_code":99569},{"province":"Papua","city":"Tolikara","district":"Poganeri","urban":"Kuoklanggunik","postal_code":99569},{"province":"Papua","city":"Tolikara","district":"Egiam","urban":"Kurba","postal_code":99569},{"province":"Papua","city":"Tolikara","district":"Wari (Taiyeve)","urban":"Kowari","postal_code":99569},{"province":"Papua","city":"Tolikara","district":"Yuko","urban":"Kungge","postal_code":99569},{"province":"Papua","city":"Tolikara","district":"Poganeri","urban":"Konengga","postal_code":99569},{"province":"Papua","city":"Tolikara","district":"Yuko","urban":"Kotorambur","postal_code":99569},{"province":"Papua","city":"Tolikara","district":"Timori","urban":"Koinggambu","postal_code":99569},{"province":"Papua","city":"Tolikara","district":"Kembu","urban":"Kobon","postal_code":99569},{"province":"Papua","city":"Tolikara","district":"Telenggeme","urban":"Kimunuk","postal_code":99569},{"province":"Papua","city":"Tolikara","district":"Kembu","urban":"Kembu","postal_code":99569},{"province":"Papua","city":"Tolikara","district":"Telenggeme","urban":"Kimugu","postal_code":99569},{"province":"Papua","city":"Tolikara","district":"Dundu (Ndundu)","urban":"Kembu","postal_code":99569},{"province":"Papua","city":"Tolikara","district":"Yuko","urban":"Karu","postal_code":99569},{"province":"Papua","city":"Tolikara","district":"Wari (Taiyeve)","urban":"Kalibu","postal_code":99569},{"province":"Papua","city":"Tolikara","district":"Egiam","urban":"Kaliundi","postal_code":99569},{"province":"Papua","city":"Tolikara","district":"Gundagi (Gudage)","urban":"Kalarin","postal_code":99569},{"province":"Papua","city":"Tolikara","district":"Dow","urban":"Itoli","postal_code":99569},{"province":"Papua","city":"Tolikara","district":"Kembu","urban":"Kabori","postal_code":99569},{"province":"Papua","city":"Tolikara","district":"Telenggeme","urban":"Kagi","postal_code":99569},{"province":"Papua","city":"Tolikara","district":"Wina","urban":"Holandia","postal_code":99569},{"province":"Papua","city":"Tolikara","district":"Panaga","urban":"Ibunuh","postal_code":99569},{"province":"Papua","city":"Tolikara","district":"Umagi","urban":"Gurin","postal_code":99569},{"province":"Papua","city":"Tolikara","district":"Yuko","urban":"Gwak Dugunik","postal_code":99569},{"province":"Papua","city":"Tolikara","district":"Wina","urban":"Gualo","postal_code":99569},{"province":"Papua","city":"Tolikara","district":"Gundagi (Gudage)","urban":"Gubuk","postal_code":99569},{"province":"Papua","city":"Tolikara","district":"Gundagi (Gudage)","urban":"Gumbini","postal_code":99569},{"province":"Papua","city":"Tolikara","district":"Gundagi (Gudage)","urban":"Gingga","postal_code":99569},{"province":"Papua","city":"Tolikara","district":"Yuko","urban":"Giko","postal_code":99569},{"province":"Papua","city":"Tolikara","district":"Poganeri","urban":"Gindugunik","postal_code":99569},{"province":"Papua","city":"Tolikara","district":"Kembu","urban":"Genani","postal_code":99569},{"province":"Papua","city":"Tolikara","district":"Timori","urban":"Geneluk","postal_code":99569},{"province":"Papua","city":"Tolikara","district":"Poganeri","urban":"Genage","postal_code":99569},{"province":"Papua","city":"Tolikara","district":"Gika","urban":"Gelok","postal_code":99569},{"province":"Papua","city":"Tolikara","district":"Gika","urban":"Geka","postal_code":99569},{"province":"Papua","city":"Tolikara","district":"Umagi","urban":"Gatini","postal_code":99569},{"province":"Papua","city":"Tolikara","district":"Poganeri","urban":"Gagulineri","postal_code":99569},{"province":"Papua","city":"Tolikara","district":"Wari (Taiyeve)","urban":"Friji","postal_code":99569},{"province":"Papua","city":"Tolikara","district":"Wina","urban":"Finai","postal_code":99569},{"province":"Papua","city":"Tolikara","district":"Timori","urban":"Eragani","postal_code":99569},{"province":"Papua","city":"Tolikara","district":"Panaga","urban":"Eragani","postal_code":99569},{"province":"Papua","city":"Tolikara","district":"Egiam","urban":"Egiam","postal_code":99569},{"province":"Papua","city":"Tolikara","district":"Gundagi (Gudage)","urban":"Enggawogo","postal_code":99569},{"province":"Papua","city":"Tolikara","district":"Wari (Taiyeve)","urban":"Dustra/Yamiriko","postal_code":99569},{"province":"Papua","city":"Tolikara","district":"Dundu (Ndundu)","urban":"Dundu","postal_code":99569},{"province":"Papua","city":"Tolikara","district":"Dundu (Ndundu)","urban":"Dugunagep","postal_code":99569},{"province":"Papua","city":"Tolikara","district":"Dow","urban":"Dow/Bijere","postal_code":99569},{"province":"Papua","city":"Tolikara","district":"Wari (Taiyeve)","urban":"Dotori","postal_code":99569},{"province":"Papua","city":"Tolikara","district":"Wari (Taiyeve)","urban":"Dorera","postal_code":99569},{"province":"Papua","city":"Tolikara","district":"Telenggeme","urban":"Dolunggun","postal_code":99569},{"province":"Papua","city":"Tolikara","district":"Gika","urban":"Dimbara","postal_code":99569},{"province":"Papua","city":"Tolikara","district":"Dow","urban":"Dagari","postal_code":99569},{"province":"Papua","city":"Tolikara","district":"Timori","urban":"Bolubur","postal_code":99569},{"province":"Papua","city":"Tolikara","district":"Poganeri","urban":"Bogokila","postal_code":99569},{"province":"Papua","city":"Tolikara","district":"Dow","urban":"Bire","postal_code":99569},{"province":"Papua","city":"Tolikara","district":"Dundu (Ndundu)","urban":"Bimo","postal_code":99569},{"province":"Papua","city":"Tolikara","district":"Wina","urban":"Bimbogul","postal_code":99569},{"province":"Papua","city":"Tolikara","district":"Wari (Taiyeve)","urban":"Beleise","postal_code":99569},{"province":"Papua","city":"Tolikara","district":"Timori","urban":"Beremo","postal_code":99569},{"province":"Papua","city":"Tolikara","district":"Timori","urban":"Bawi","postal_code":99569},{"province":"Papua","city":"Tolikara","district":"Kembu","urban":"Aworera","postal_code":99569},{"province":"Papua","city":"Tolikara","district":"Gundagi (Gudage)","urban":"Aworera","postal_code":99569},{"province":"Papua","city":"Tolikara","district":"Telenggeme","urban":"Aukuni","postal_code":99569},{"province":"Papua","city":"Tolikara","district":"Wari (Taiyeve)","urban":"Arebe/Ninggame","postal_code":99569},{"province":"Papua","city":"Tolikara","district":"Yuko","urban":"Ambirik","postal_code":99569},{"province":"Papua","city":"Tolikara","district":"Wina","urban":"Akima","postal_code":99569},{"province":"Papua","city":"Tolikara","district":"Kembu","urban":"Agimdek","postal_code":99569}]