[{"province":"Papua","city":"Nduga","district":"Kenyam","urban":"Yunat","postal_code":99565},{"province":"Papua","city":"Nduga","district":"Kenyam","urban":"Yike","postal_code":99565},{"province":"Papua","city":"Nduga","district":"Embetpen","urban":"Yenai","postal_code":99565},{"province":"Papua","city":"Nduga","district":"Moba","urban":"Yeretma","postal_code":99565},{"province":"Papua","city":"Nduga","district":"Mbua Tengah","urban":"Yepma","postal_code":99565},{"province":"Papua","city":"Nduga","district":"Kora","urban":"Wilimi","postal_code":99565},{"province":"Papua","city":"Nduga","district":"Wusi","urban":"Wusi","postal_code":99565},{"province":"Papua","city":"Nduga","district":"Embetpen","urban":"Wendama","postal_code":99565},{"province":"Papua","city":"Nduga","district":"Gearek","urban":"Weneworarosa","postal_code":99565},{"province":"Papua","city":"Nduga","district":"Kora","urban":"Wenam","postal_code":99565},{"province":"Papua","city":"Nduga","district":"Mbua Tengah","urban":"Urugi","postal_code":99565},{"province":"Papua","city":"Nduga","district":"Kenyam","urban":"Ulunmu","postal_code":99565},{"province":"Papua","city":"Nduga","district":"Gearek","urban":"Tribit (Tribid)","postal_code":99565},{"province":"Papua","city":"Nduga","district":"Gearek","urban":"Tribit (Tribid)","postal_code":99565},{"province":"Papua","city":"Nduga","district":"Mbua Tengah","urban":"Tombisik","postal_code":99565},{"province":"Papua","city":"Nduga","district":"Mbua Tengah","urban":"Sokore","postal_code":99565},{"province":"Papua","city":"Nduga","district":"Mbua Tengah","urban":"Tobonggom","postal_code":99565},{"province":"Papua","city":"Nduga","district":"Kenyam","urban":"Sralala","postal_code":99565},{"province":"Papua","city":"Nduga","district":"Pija","urban":"Sitgama","postal_code":99565},{"province":"Papua","city":"Nduga","district":"Wosak","urban":"Sitpogol","postal_code":99565},{"province":"Papua","city":"Nduga","district":"Mbua Tengah","urban":"Simie","postal_code":99565},{"province":"Papua","city":"Nduga","district":"Krepkuri","urban":"Sagapusatu","postal_code":99565},{"province":"Papua","city":"Nduga","district":"Pija","urban":"Siat","postal_code":99565},{"province":"Papua","city":"Nduga","district":"Mbua Tengah","urban":"Pirim-Pirim","postal_code":99565},{"province":"Papua","city":"Nduga","district":"Mbua Tengah","urban":"Rapa","postal_code":99565},{"province":"Papua","city":"Nduga","district":"Wosak","urban":"Pilini","postal_code":99565},{"province":"Papua","city":"Nduga","district":"Moba","urban":"Pijama","postal_code":99565},{"province":"Papua","city":"Nduga","district":"Wusi","urban":"Pijemae","postal_code":99565},{"province":"Papua","city":"Nduga","district":"Pasir Putih","urban":"Pasir Putih","postal_code":99565},{"province":"Papua","city":"Nduga","district":"Pija","urban":"Pija","postal_code":99565},{"province":"Papua","city":"Nduga","district":"Mbua Tengah","urban":"Paris","postal_code":99565},{"province":"Papua","city":"Nduga","district":"Pija","urban":"Nganai","postal_code":99565},{"province":"Papua","city":"Nduga","district":"Kora","urban":"Nanggoal","postal_code":99565},{"province":"Papua","city":"Nduga","district":"Wosak","urban":"Ndugwa (Ndukwa)","postal_code":99565},{"province":"Papua","city":"Nduga","district":"Pija","urban":"Murupbaye","postal_code":99565},{"province":"Papua","city":"Nduga","district":"Krepkuri","urban":"Mumugu","postal_code":99565},{"province":"Papua","city":"Nduga","district":"Moba","urban":"Moba","postal_code":99565},{"province":"Papua","city":"Nduga","district":"Moba","urban":"Moba Dua","postal_code":99565},{"province":"Papua","city":"Nduga","district":"Pasir Putih","urban":"Mandala","postal_code":99565},{"province":"Papua","city":"Nduga","district":"Moba","urban":"Langpang","postal_code":99565},{"province":"Papua","city":"Nduga","district":"Krepkuri","urban":"Krepkuri","postal_code":99565},{"province":"Papua","city":"Nduga","district":"Moba","urban":"Kwegono","postal_code":99565},{"province":"Papua","city":"Nduga","district":"Gearek","urban":"Kibid","postal_code":99565},{"province":"Papua","city":"Nduga","district":"Kora","urban":"Kora","postal_code":99565},{"province":"Papua","city":"Nduga","district":"Kenyam","urban":"Kemali","postal_code":99565},{"province":"Papua","city":"Nduga","district":"Kenyam","urban":"Kenyam","postal_code":99565},{"province":"Papua","city":"Nduga","district":"Moba","urban":"Gunea (Gunia)","postal_code":99565},{"province":"Papua","city":"Nduga","district":"Wusi","urban":"Ginigit","postal_code":99565},{"province":"Papua","city":"Nduga","district":"Wusi","urban":"Gimigip","postal_code":99565},{"province":"Papua","city":"Nduga","district":"Krepkuri","urban":"Ginid","postal_code":99565},{"province":"Papua","city":"Nduga","district":"Gearek","urban":"Gebem","postal_code":99565},{"province":"Papua","city":"Nduga","district":"Gearek","urban":"Gilingga","postal_code":99565},{"province":"Papua","city":"Nduga","district":"Gearek","urban":"Gearek","postal_code":99565},{"province":"Papua","city":"Nduga","district":"Kenyam","urban":"Dim","postal_code":99565},{"province":"Papua","city":"Nduga","district":"Gearek","urban":"Gearek","postal_code":99565},{"province":"Papua","city":"Nduga","district":"Kenyam","urban":"Delpel","postal_code":99565},{"province":"Papua","city":"Nduga","district":"Embetpen","urban":"Digilimu","postal_code":99565},{"province":"Papua","city":"Nduga","district":"Kora","urban":"Brutnai","postal_code":99565},{"province":"Papua","city":"Nduga","district":"Gearek","urban":"Bomegi","postal_code":99565},{"province":"Papua","city":"Nduga","district":"Kenyam","urban":"Bombam","postal_code":99565},{"province":"Papua","city":"Nduga","district":"Embetpen","urban":"Bisikimu","postal_code":99565},{"province":"Papua","city":"Nduga","district":"Wosak","urban":"Biala","postal_code":99565},{"province":"Papua","city":"Nduga","district":"Pasir Putih","urban":"Benggem","postal_code":99565},{"province":"Papua","city":"Nduga","district":"Wosak","urban":"Bambisik","postal_code":99565},{"province":"Papua","city":"Nduga","district":"Krepkuri","urban":"Banggabeak","postal_code":99565},{"province":"Papua","city":"Nduga","district":"Moba","urban":"Anggulpa","postal_code":99565},{"province":"Papua","city":"Nduga","district":"Krepkuri","urban":"Alguru","postal_code":99565}]