[{"province":"Papua","city":"Jayawijaya","district":"Ibele","urban":"Zapma","postal_code":99566},{"province":"Papua","city":"Jayawijaya","district":"Ibele","urban":"Zinai","postal_code":99566},{"province":"Papua","city":"Jayawijaya","district":"Taelarek","urban":"Yoman Weya","postal_code":99566},{"province":"Papua","city":"Jayawijaya","district":"Ibele","urban":"Yagarobak (Yagakobak)","postal_code":99566},{"province":"Papua","city":"Jayawijaya","district":"Ibele","urban":"Yelebarek","postal_code":99566},{"province":"Papua","city":"Jayawijaya","district":"Ibele","urban":"Yokalpalek","postal_code":99566},{"province":"Papua","city":"Jayawijaya","district":"Pelebaga","urban":"Witalak","postal_code":99566},{"province":"Papua","city":"Jayawijaya","district":"Pelebaga","urban":"Yabem","postal_code":99566},{"province":"Papua","city":"Jayawijaya","district":"Pelebaga","urban":"Waukahilapok","postal_code":99566},{"province":"Papua","city":"Jayawijaya","district":"Pelebaga","urban":"Wililimo","postal_code":99566},{"province":"Papua","city":"Jayawijaya","district":"Taelarek","urban":"Tailarek (Taila)","postal_code":99566},{"province":"Papua","city":"Jayawijaya","district":"Ibele","urban":"Tipalok","postal_code":99566},{"province":"Papua","city":"Jayawijaya","district":"Taelarek","urban":"Senogolik","postal_code":99566},{"province":"Papua","city":"Jayawijaya","district":"Hubikosi (Hobikosi)","urban":"Sunili","postal_code":99566},{"province":"Papua","city":"Jayawijaya","district":"Hubikosi (Hobikosi)","urban":"Pelima","postal_code":99566},{"province":"Papua","city":"Jayawijaya","district":"Hubikosi (Hobikosi)","urban":"Pipukmo","postal_code":99566},{"province":"Papua","city":"Jayawijaya","district":"Hubikiak","urban":"Musiamia","postal_code":99566},{"province":"Papua","city":"Jayawijaya","district":"Hubikiak","urban":"Musiamia Dua","postal_code":99566},{"province":"Papua","city":"Jayawijaya","district":"Pelebaga","urban":"Mulukmo","postal_code":99566},{"province":"Papua","city":"Jayawijaya","district":"Hubikosi (Hobikosi)","urban":"Meagama","postal_code":99566},{"province":"Papua","city":"Jayawijaya","district":"Pelebaga","urban":"Landia","postal_code":99566},{"province":"Papua","city":"Jayawijaya","district":"Hubikiak","urban":"Likino","postal_code":99566},{"province":"Papua","city":"Jayawijaya","district":"Hubikosi (Hobikosi)","urban":"Kikhumo","postal_code":99566},{"province":"Papua","city":"Jayawijaya","district":"Hubikosi (Hobikosi)","urban":"Kosihilapok","postal_code":99566},{"province":"Papua","city":"Jayawijaya","district":"Hubikosi (Hobikosi)","urban":"Kosimeage (Kosimeaga)","postal_code":99566},{"province":"Papua","city":"Jayawijaya","district":"Hubikosi (Hobikosi)","urban":"Jibilabaga","postal_code":99566},{"province":"Papua","city":"Jayawijaya","district":"Taelarek","urban":"Iyora","postal_code":99566},{"province":"Papua","city":"Jayawijaya","district":"Pelebaga","urban":"Isugunik","postal_code":99566},{"province":"Papua","city":"Jayawijaya","district":"Hubikosi (Hobikosi)","urban":"Isakusa","postal_code":99566},{"province":"Papua","city":"Jayawijaya","district":"Pelebaga","urban":"Inanekelok","postal_code":99566},{"province":"Papua","city":"Jayawijaya","district":"Hubikosi (Hobikosi)","urban":"Ikilumo","postal_code":99566},{"province":"Papua","city":"Jayawijaya","district":"Ibele","urban":"Ibele","postal_code":99566},{"province":"Papua","city":"Jayawijaya","district":"Hubikiak","urban":"Husoak","postal_code":99566},{"province":"Papua","city":"Jayawijaya","district":"Taelarek","urban":"Huluaima","postal_code":99566},{"province":"Papua","city":"Jayawijaya","district":"Hubikosi (Hobikosi)","urban":"Hubikosi","postal_code":99566},{"province":"Papua","city":"Jayawijaya","district":"Hubikiak","urban":"Hubukiak / Hubikiak","postal_code":99566},{"province":"Papua","city":"Jayawijaya","district":"Ibele","urban":"Holaliba","postal_code":99566},{"province":"Papua","city":"Jayawijaya","district":"Hubikiak","urban":"Hom-hom","postal_code":99566},{"province":"Papua","city":"Jayawijaya","district":"Pelebaga","urban":"Hitelowa","postal_code":99566},{"province":"Papua","city":"Jayawijaya","district":"Hubikiak","urban":"Hituma (Hetuma)","postal_code":99566},{"province":"Papua","city":"Jayawijaya","district":"Pelebaga","urban":"Heatnem","postal_code":99566},{"province":"Papua","city":"Jayawijaya","district":"Ibele","urban":"Habema","postal_code":99566},{"province":"Papua","city":"Jayawijaya","district":"Pelebaga","urban":"Filia","postal_code":99566},{"province":"Papua","city":"Jayawijaya","district":"Taelarek","urban":"Entagekokma","postal_code":99566},{"province":"Papua","city":"Jayawijaya","district":"Pelebaga","urban":"Duabalek","postal_code":99566},{"province":"Papua","city":"Jayawijaya","district":"Hubikiak","urban":"Dokopku","postal_code":99566},{"province":"Papua","city":"Jayawijaya","district":"Taelarek","urban":"Bokiem","postal_code":99566},{"province":"Papua","city":"Jayawijaya","district":"Taelarek","urban":"Budliem","postal_code":99566},{"province":"Papua","city":"Jayawijaya","district":"Ibele","urban":"Ayobaibur (Ayubaibur)","postal_code":99566},{"province":"Papua","city":"Jayawijaya","district":"Pelebaga","urban":"Aleak","postal_code":99566}]