[{"province":"Papua","city":"Tolikara","district":"Bewani","urban":"Yibalo","postal_code":99561},{"province":"Papua","city":"Tolikara","district":"Bewani","urban":"Yinama","postal_code":99561},{"province":"Papua","city":"Tolikara","district":"Tagineri","urban":"Yimabnime","postal_code":99561},{"province":"Papua","city":"Tolikara","district":"Bewani","urban":"Windik","postal_code":99561},{"province":"Papua","city":"Tolikara","district":"Bewani","urban":"Wulurik","postal_code":99561},{"province":"Papua","city":"Tolikara","district":"Bokoneri","urban":"Wonaga","postal_code":99561},{"province":"Papua","city":"Tolikara","district":"Bokoneri","urban":"Waringga","postal_code":99561},{"province":"Papua","city":"Tolikara","district":"Bokoneri","urban":"Weri","postal_code":99561},{"province":"Papua","city":"Tolikara","district":"Tagineri","urban":"Wanuk","postal_code":99561},{"province":"Papua","city":"Tolikara","district":"Bewani","urban":"Wanggulam","postal_code":99561},{"province":"Papua","city":"Tolikara","district":"Danime","urban":"Wania","postal_code":99561},{"province":"Papua","city":"Tolikara","district":"Bewani","urban":"Wania","postal_code":99561},{"province":"Papua","city":"Tolikara","district":"Bokondini","urban":"Tenggagama","postal_code":99561},{"province":"Papua","city":"Tolikara","district":"Bokondini","urban":"Umaga","postal_code":99561},{"province":"Papua","city":"Tolikara","district":"Kamboneri","urban":"Tari","postal_code":99561},{"province":"Papua","city":"Tolikara","district":"Danime","urban":"Tarawi","postal_code":99561},{"province":"Papua","city":"Tolikara","district":"Bokoneri","urban":"Tanabume","postal_code":99561},{"province":"Papua","city":"Tolikara","district":"Tagineri","urban":"Rumbepaga","postal_code":99561},{"province":"Papua","city":"Tolikara","district":"Tagineri","urban":"Silo","postal_code":99561},{"province":"Papua","city":"Tolikara","district":"Tagineri","urban":"Tagi","postal_code":99561},{"province":"Papua","city":"Tolikara","district":"Danime","urban":"Ripa","postal_code":99561},{"province":"Papua","city":"Tolikara","district":"Bokoneri","urban":"Omuk","postal_code":99561},{"province":"Papua","city":"Tolikara","district":"Tagime","urban":"Peyola","postal_code":99561},{"province":"Papua","city":"Tolikara","district":"Danime","urban":"Niagale","postal_code":99561},{"province":"Papua","city":"Tolikara","district":"Bewani","urban":"Nogobumbu","postal_code":99561},{"province":"Papua","city":"Tolikara","district":"Bokoneri","urban":"Nunggalo","postal_code":99561},{"province":"Papua","city":"Tolikara","district":"Bokoneri","urban":"Munagame","postal_code":99561},{"province":"Papua","city":"Tolikara","district":"Bokoneri","urban":"Nanggurilime","postal_code":99561},{"province":"Papua","city":"Tolikara","district":"Tagime","urban":"Minggen","postal_code":99561},{"province":"Papua","city":"Tolikara","district":"Bokondini","urban":"Mingganggo","postal_code":99561},{"province":"Papua","city":"Tolikara","district":"Danime","urban":"Milipaa","postal_code":99561},{"province":"Papua","city":"Tolikara","district":"Danime","urban":"Mawi","postal_code":99561},{"province":"Papua","city":"Tolikara","district":"Kamboneri","urban":"Marbuna","postal_code":99561},{"province":"Papua","city":"Tolikara","district":"Tagime","urban":"Melaga","postal_code":99561},{"province":"Papua","city":"Tolikara","district":"Bokondini","urban":"Mairini","postal_code":99561},{"province":"Papua","city":"Tolikara","district":"Kamboneri","urban":"Malta","postal_code":99561},{"province":"Papua","city":"Tolikara","district":"Bokoneri","urban":"Lerewere","postal_code":99561},{"province":"Papua","city":"Tolikara","district":"Tagineri","urban":"Logi","postal_code":99561},{"province":"Papua","city":"Tolikara","district":"Tagineri","urban":"Lamaluk","postal_code":99561},{"province":"Papua","city":"Tolikara","district":"Bokondini","urban":"Lambogo","postal_code":99561},{"province":"Papua","city":"Tolikara","district":"Bokoneri","urban":"Kurewunuk","postal_code":99561},{"province":"Papua","city":"Tolikara","district":"Bokondini","urban":"Kologume","postal_code":99561},{"province":"Papua","city":"Tolikara","district":"Tagime","urban":"Kinebe","postal_code":99561},{"province":"Papua","city":"Tolikara","district":"Tagime","urban":"Kogotime","postal_code":99561},{"province":"Papua","city":"Tolikara","district":"Kamboneri","urban":"Kekoli","postal_code":99561},{"province":"Papua","city":"Tolikara","district":"Bokoneri","urban":"Kanere","postal_code":99561},{"province":"Papua","city":"Tolikara","district":"Bokoneri","urban":"Kanewunuk","postal_code":99561},{"province":"Papua","city":"Tolikara","district":"Tagime","urban":"Kandimbaga","postal_code":99561},{"province":"Papua","city":"Tolikara","district":"Kamboneri","urban":"Kamboniki","postal_code":99561},{"province":"Papua","city":"Tolikara","district":"Bokondini","urban":"Jawalane","postal_code":99561},{"province":"Papua","city":"Tolikara","district":"Kamboneri","urban":"Habag","postal_code":99561},{"province":"Papua","city":"Tolikara","district":"Kamboneri","urban":"Kaloniki","postal_code":99561},{"province":"Papua","city":"Tolikara","district":"Danime","urban":"Gunombo","postal_code":99561},{"province":"Papua","city":"Tolikara","district":"Tagime","urban":"Gulak","postal_code":99561},{"province":"Papua","city":"Tolikara","district":"Bewani","urban":"Gelalo","postal_code":99561},{"province":"Papua","city":"Tolikara","district":"Tagineri","urban":"Getiem","postal_code":99561},{"province":"Papua","city":"Tolikara","district":"Bewani","urban":"Gabunggobak","postal_code":99561},{"province":"Papua","city":"Tolikara","district":"Bokondini","urban":"Galala","postal_code":99561},{"province":"Papua","city":"Tolikara","district":"Tagime","urban":"Ekoni","postal_code":99561},{"province":"Papua","city":"Tolikara","district":"Tagime","urban":"Gabunam","postal_code":99561},{"province":"Papua","city":"Tolikara","district":"Bokondini","urban":"Dunduma","postal_code":99561},{"province":"Papua","city":"Tolikara","district":"Bokoneri","urban":"Durima","postal_code":99561},{"province":"Papua","city":"Tolikara","district":"Tagineri","urban":"Dunda","postal_code":99561},{"province":"Papua","city":"Tolikara","district":"Bokoneri","urban":"Donggem","postal_code":99561},{"province":"Papua","city":"Tolikara","district":"Bewani","urban":"Duma","postal_code":99561},{"province":"Papua","city":"Tolikara","district":"Danime","urban":"Bumbu","postal_code":99561},{"province":"Papua","city":"Tolikara","district":"Danime","urban":"Delegari","postal_code":99561},{"province":"Papua","city":"Tolikara","district":"Bokoneri","urban":"Bokoneri","postal_code":99561},{"province":"Papua","city":"Tolikara","district":"Bokoneri","urban":"Bolly","postal_code":99561},{"province":"Papua","city":"Tolikara","district":"Tagineri","urban":"Bini","postal_code":99561},{"province":"Papua","city":"Tolikara","district":"Bokondini","urban":"Bokondini","postal_code":99561},{"province":"Papua","city":"Tolikara","district":"Bewani","urban":"Bitillabur","postal_code":99561},{"province":"Papua","city":"Tolikara","district":"Bewani","urban":"Bilubaga","postal_code":99561},{"province":"Papua","city":"Tolikara","district":"Kamboneri","urban":"Berembanak","postal_code":99561},{"province":"Papua","city":"Tolikara","district":"Tagime","urban":"Belela","postal_code":99561},{"province":"Papua","city":"Tolikara","district":"Bewani","urban":"Arelam","postal_code":99561},{"province":"Papua","city":"Tolikara","district":"Bokondini","urban":"Apiam","postal_code":99561},{"province":"Papua","city":"Tolikara","district":"Bokoneri","urban":"Abimbak","postal_code":99561},{"province":"Papua","city":"Tolikara","district":"Danime","urban":"Ambena","postal_code":99561},{"province":"Papua","city":"Tolikara","district":"Bewani","urban":"Abena","postal_code":99561}]