[{"province":"Papua","city":"Lanny Jaya","district":"Balingga","urban":"Yugume","postal_code":99563},{"province":"Papua","city":"Lanny Jaya","district":"Tiom","urban":"Yogobak (Yakobak)","postal_code":99563},{"province":"Papua","city":"Lanny Jaya","district":"Tiom","urban":"Yirene","postal_code":99563},{"province":"Papua","city":"Lanny Jaya","district":"Malagaineri (Malagineri)","urban":"Yigemili","postal_code":99563},{"province":"Papua","city":"Lanny Jaya","district":"Balingga","urban":"Yeyugu (Gilubandu)","postal_code":99563},{"province":"Papua","city":"Lanny Jaya","district":"Kuyawage","urban":"Wupaga","postal_code":99563},{"province":"Papua","city":"Lanny Jaya","district":"Tiom","urban":"Wulundia","postal_code":99563},{"province":"Papua","city":"Lanny Jaya","district":"Kuyawage","urban":"Wamitu","postal_code":99563},{"province":"Papua","city":"Lanny Jaya","district":"Kuyawage","urban":"Wamlru","postal_code":99563},{"province":"Papua","city":"Lanny Jaya","district":"Tiomneri","urban":"Tiwa","postal_code":99563},{"province":"Papua","city":"Lanny Jaya","district":"Malagaineri (Malagineri)","urban":"Wabiragi","postal_code":99563},{"province":"Papua","city":"Lanny Jaya","district":"Balingga","urban":"Tinggipura","postal_code":99563},{"province":"Papua","city":"Lanny Jaya","district":"Kuyawage","urban":"Tinime","postal_code":99563},{"province":"Papua","city":"Lanny Jaya","district":"Tiomneri","urban":"Timi","postal_code":99563},{"province":"Papua","city":"Lanny Jaya","district":"Balingga","urban":"Popome","postal_code":99563},{"province":"Papua","city":"Lanny Jaya","district":"Balingga","urban":"Tima","postal_code":99563},{"province":"Papua","city":"Lanny Jaya","district":"Tiomneri","urban":"Tabukeker","postal_code":99563},{"province":"Papua","city":"Lanny Jaya","district":"Tiom","urban":"Oyi","postal_code":99563},{"province":"Papua","city":"Lanny Jaya","district":"Tiomneri","urban":"Ponalo (Panalo)","postal_code":99563},{"province":"Papua","city":"Lanny Jaya","district":"Tiom","urban":"Olume","postal_code":99563},{"province":"Papua","city":"Lanny Jaya","district":"Malagaineri (Malagineri)","urban":"Oka","postal_code":99563},{"province":"Papua","city":"Lanny Jaya","district":"Tiom","urban":"Nobo (Gubo)","postal_code":99563},{"province":"Papua","city":"Lanny Jaya","district":"Tiom","urban":"Ninabua","postal_code":99563},{"province":"Papua","city":"Lanny Jaya","district":"Tiom","urban":"Name","postal_code":99563},{"province":"Papua","city":"Lanny Jaya","district":"Kuyawage","urban":"Nenggeya","postal_code":99563},{"province":"Papua","city":"Lanny Jaya","district":"Kuyawage","urban":"Mume","postal_code":99563},{"province":"Papua","city":"Lanny Jaya","district":"Tiom","urban":"Mokoni","postal_code":99563},{"province":"Papua","city":"Lanny Jaya","district":"Malagaineri (Malagineri)","urban":"Malagai","postal_code":99563},{"province":"Papua","city":"Lanny Jaya","district":"Tiomneri","urban":"Milinggame (Malimneri)","postal_code":99563},{"province":"Papua","city":"Lanny Jaya","district":"Tiomneri","urban":"Mabume (Nabune)","postal_code":99563},{"province":"Papua","city":"Lanny Jaya","district":"Tiom","urban":"Lugom (Logom)","postal_code":99563},{"province":"Papua","city":"Lanny Jaya","district":"Kuyawage","urban":"Luarem","postal_code":99563},{"province":"Papua","city":"Lanny Jaya","district":"Tiom","urban":"Longgalo","postal_code":99563},{"province":"Papua","city":"Lanny Jaya","district":"Tiom","urban":"Kwenukwi","postal_code":99563},{"province":"Papua","city":"Lanny Jaya","district":"Kuyawage","urban":"Kuyawage","postal_code":99563},{"province":"Papua","city":"Lanny Jaya","district":"Tiom","urban":"Kumuluk","postal_code":99563},{"province":"Papua","city":"Lanny Jaya","district":"Tiomneri","urban":"Kuabaga (Kuobaga)","postal_code":99563},{"province":"Papua","city":"Lanny Jaya","district":"Tiomneri","urban":"Kukepake","postal_code":99563},{"province":"Papua","city":"Lanny Jaya","district":"Tiom","urban":"Gurika","postal_code":99563},{"province":"Papua","city":"Lanny Jaya","district":"Tiom","urban":"Konikme","postal_code":99563},{"province":"Papua","city":"Lanny Jaya","district":"Balingga","urban":"Gume","postal_code":99563},{"province":"Papua","city":"Lanny Jaya","district":"Tiom","urban":"Guninggame","postal_code":99563},{"province":"Papua","city":"Lanny Jaya","district":"Tiomneri","urban":"Guari (Giari/Guare)","postal_code":99563},{"province":"Papua","city":"Lanny Jaya","district":"Tiomneri","urban":"Gubo (Nobo)","postal_code":99563},{"province":"Papua","city":"Lanny Jaya","district":"Tiom","urban":"Giwan","postal_code":99563},{"province":"Papua","city":"Lanny Jaya","district":"Tiom","urban":"Golikme (Golime)","postal_code":99563},{"province":"Papua","city":"Lanny Jaya","district":"Tiom","urban":"Dura","postal_code":99563},{"province":"Papua","city":"Lanny Jaya","district":"Tiom","urban":"Dugume","postal_code":99563},{"province":"Papua","city":"Lanny Jaya","district":"Kuyawage","urban":"Dugu &#8211; Dugu","postal_code":99563},{"province":"Papua","city":"Lanny Jaya","district":"Tiomneri","urban":"Bonanip","postal_code":99563},{"province":"Papua","city":"Lanny Jaya","district":"Balingga","urban":"Bruyugu","postal_code":99563},{"province":"Papua","city":"Lanny Jaya","district":"Tiom","urban":"Bokon","postal_code":99563},{"province":"Papua","city":"Lanny Jaya","district":"Balingga","urban":"Balime (Balingga)","postal_code":99563},{"province":"Papua","city":"Lanny Jaya","district":"Balingga","urban":"Balimneri","postal_code":99563},{"province":"Papua","city":"Lanny Jaya","district":"Balingga","urban":"Balime","postal_code":99563},{"province":"Papua","city":"Lanny Jaya","district":"Malagaineri (Malagineri)","urban":"Bagi","postal_code":99563},{"province":"Papua","city":"Lanny Jaya","district":"Tiomneri","urban":"Argeneri (Arigeneri/Argineri)","postal_code":99563},{"province":"Papua","city":"Lanny Jaya","district":"Kuyawage","urban":"Andugume","postal_code":99563}]