[{"province":"Papua","city":"Nduga","district":"Kilmid","urban":"Yutpul","postal_code":99564},{"province":"Papua","city":"Nduga","district":"Mebarok","urban":"Yuguru","postal_code":99564},{"province":"Papua","city":"Nduga","district":"Mapenduma","urban":"Yoe","postal_code":99564},{"province":"Papua","city":"Nduga","district":"Mugi","urban":"Yelsengge","postal_code":99564},{"province":"Papua","city":"Nduga","district":"Yigi","urban":"Yigi","postal_code":99564},{"province":"Papua","city":"Nduga","district":"Yenggelo","urban":"Yenggelo","postal_code":99564},{"province":"Papua","city":"Nduga","district":"Yigi","urban":"Yebadolma","postal_code":99564},{"province":"Papua","city":"Nduga","district":"Wutpaga","urban":"Wutpaga","postal_code":99564},{"province":"Papua","city":"Nduga","district":"Mugi","urban":"Wundui","postal_code":99564},{"province":"Papua","city":"Nduga","district":"Wutpaga","urban":"Wuone","postal_code":99564},{"province":"Papua","city":"Nduga","district":"Inikgal","urban":"Wumaga","postal_code":99564},{"province":"Papua","city":"Nduga","district":"Yenggelo","urban":"Wuarem","postal_code":99564},{"province":"Papua","city":"Nduga","district":"Nenggeagin","urban":"Wulagumi","postal_code":99564},{"province":"Papua","city":"Nduga","district":"Mugi","urban":"Womsit","postal_code":99564},{"province":"Papua","city":"Nduga","district":"Yigi","urban":"Wiritlak","postal_code":99564},{"province":"Papua","city":"Nduga","district":"Kegayem","urban":"Wipdumu","postal_code":99564},{"province":"Papua","city":"Nduga","district":"Wutpaga","urban":"Wangun","postal_code":99564},{"province":"Papua","city":"Nduga","district":"Nenggeagin","urban":"Wenggenambut","postal_code":99564},{"province":"Papua","city":"Nduga","district":"Nirkuri","urban":"Uenoma","postal_code":99564},{"province":"Papua","city":"Nduga","district":"Inikgal","urban":"Urugom","postal_code":99564},{"province":"Papua","city":"Nduga","district":"Mugi","urban":"Unue","postal_code":99564},{"province":"Papua","city":"Nduga","district":"Wutpaga","urban":"Tinigele","postal_code":99564},{"province":"Papua","city":"Nduga","district":"Mbulmu Yalma","urban":"Uburu","postal_code":99564},{"province":"Papua","city":"Nduga","district":"Mebarok","urban":"Talpam","postal_code":99564},{"province":"Papua","city":"Nduga","district":"Geselma (Geselema)","urban":"Talem","postal_code":99564},{"province":"Papua","city":"Nduga","district":"Paro","urban":"Tawelma","postal_code":99564},{"province":"Papua","city":"Nduga","district":"Yigi","urban":"Sumbo","postal_code":99564},{"province":"Papua","city":"Nduga","district":"Yigi","urban":"Suwenem","postal_code":99564},{"province":"Papua","city":"Nduga","district":"Yigi","urban":"Sirit","postal_code":99564},{"province":"Papua","city":"Nduga","district":"Iniye","urban":"Simiye","postal_code":99564},{"province":"Papua","city":"Nduga","district":"Dal","urban":"Silankuru","postal_code":99564},{"province":"Papua","city":"Nduga","district":"Dal","urban":"Silan","postal_code":99564},{"province":"Papua","city":"Nduga","district":"Mebarok","urban":"Siginimarem","postal_code":99564},{"province":"Papua","city":"Nduga","district":"Nirkuri","urban":"Sigmie","postal_code":99564},{"province":"Papua","city":"Nduga","district":"Mebarok","urban":"Setmit","postal_code":99564},{"province":"Papua","city":"Nduga","district":"Kegayem","urban":"Sigimbut","postal_code":99564},{"province":"Papua","city":"Nduga","district":"Mugi","urban":"Sarit","postal_code":99564},{"province":"Papua","city":"Nduga","district":"Kegayem","urban":"Sanwaruk","postal_code":99564},{"province":"Papua","city":"Nduga","district":"Mugi","urban":"Sambua","postal_code":99564},{"province":"Papua","city":"Nduga","district":"Mebarok","urban":"Sabiem","postal_code":99564},{"province":"Papua","city":"Nduga","district":"Kilmid","urban":"Puruwa","postal_code":99564},{"province":"Papua","city":"Nduga","district":"Kegayem","urban":"Peya-Peya","postal_code":99564},{"province":"Papua","city":"Nduga","district":"Mebarok","urban":"Pereki","postal_code":99564},{"province":"Papua","city":"Nduga","district":"Koroptak","urban":"Pesat","postal_code":99564},{"province":"Papua","city":"Nduga","district":"Paro","urban":"Paro","postal_code":99564},{"province":"Papua","city":"Nduga","district":"Nirkuri","urban":"Pasebem","postal_code":99564},{"province":"Papua","city":"Nduga","district":"Mugi","urban":"Paru","postal_code":99564},{"province":"Papua","city":"Nduga","district":"Mbua (Mbuga)","urban":"Otalama","postal_code":99564},{"province":"Papua","city":"Nduga","district":"Mapenduma","urban":"Palsam","postal_code":99564},{"province":"Papua","city":"Nduga","district":"Mbua (Mbuga)","urban":"Opmu","postal_code":99564},{"province":"Papua","city":"Nduga","district":"Kegayem","urban":"Osama","postal_code":99564},{"province":"Papua","city":"Nduga","district":"Nirkuri","urban":"Oldobo","postal_code":99564},{"province":"Papua","city":"Nduga","district":"Mapenduma","urban":"Nowomlusu","postal_code":99564},{"province":"Papua","city":"Nduga","district":"Mebarok","urban":"Olunmu","postal_code":99564},{"province":"Papua","city":"Nduga","district":"Yenggelo","urban":"Nolo","postal_code":99564},{"province":"Papua","city":"Nduga","district":"Alama","urban":"Nolit","postal_code":99564},{"province":"Papua","city":"Nduga","district":"Nirkuri","urban":"Nirigimbirik","postal_code":99564},{"province":"Papua","city":"Nduga","district":"Nirkuri","urban":"Nirkuri","postal_code":99564},{"province":"Papua","city":"Nduga","district":"Nenggeagin","urban":"Neggea","postal_code":99564},{"province":"Papua","city":"Nduga","district":"Nenggeagin","urban":"Nenggeagin","postal_code":99564},{"province":"Papua","city":"Nduga","district":"Mebarok","urban":"Ngenamba","postal_code":99564},{"province":"Papua","city":"Nduga","district":"Kegayem","urban":"Narugu","postal_code":99564},{"province":"Papua","city":"Nduga","district":"Mebarok","urban":"Narugum","postal_code":99564},{"province":"Papua","city":"Nduga","district":"Wutpaga","urban":"Muli","postal_code":99564},{"province":"Papua","city":"Nduga","district":"Mugi","urban":"Mirikil","postal_code":99564},{"province":"Papua","city":"Nduga","district":"Mugi","urban":"Mugi","postal_code":99564},{"province":"Papua","city":"Nduga","district":"Koroptak","urban":"Miniem","postal_code":99564},{"province":"Papua","city":"Nduga","district":"Mugi","urban":"Miri","postal_code":99564},{"province":"Papua","city":"Nduga","district":"Mbua (Mbuga)","urban":"Mbua (Mbuwa)","postal_code":99564},{"province":"Papua","city":"Nduga","district":"Mebarok","urban":"Meborok","postal_code":99564},{"province":"Papua","city":"Nduga","district":"Yenggelo","urban":"Maima","postal_code":99564},{"province":"Papua","city":"Nduga","district":"Mugi","urban":"Manet","postal_code":99564},{"province":"Papua","city":"Nduga","district":"Mapenduma","urban":"Mapenduma","postal_code":99564},{"province":"Papua","city":"Nduga","district":"Mapenduma","urban":"Lunggadumu","postal_code":99564},{"province":"Papua","city":"Nduga","district":"Yigi","urban":"Lumbukdumu","postal_code":99564},{"province":"Papua","city":"Nduga","district":"Wutpaga","urban":"Luaren","postal_code":99564},{"province":"Papua","city":"Nduga","district":"Paro","urban":"Loaraba","postal_code":99564},{"province":"Papua","city":"Nduga","district":"Paro","urban":"Lombrik","postal_code":99564},{"province":"Papua","city":"Nduga","district":"Nirkuri","urban":"Likubuk","postal_code":99564},{"province":"Papua","city":"Nduga","district":"Mapenduma","urban":"Litkui","postal_code":99564},{"province":"Papua","city":"Nduga","district":"Kegayem","urban":"Kusit","postal_code":99564},{"province":"Papua","city":"Nduga","district":"Mbulmu Yalma","urban":"Labrik","postal_code":99564},{"province":"Papua","city":"Nduga","district":"Mebarok","urban":"Lemurak","postal_code":99564},{"province":"Papua","city":"Nduga","district":"Nirkuri","urban":"Kurigi","postal_code":99564},{"province":"Papua","city":"Nduga","district":"Kegayem","urban":"Kumbuklema","postal_code":99564},{"province":"Papua","city":"Nduga","district":"Kegayem","urban":"Kumbun","postal_code":99564},{"province":"Papua","city":"Nduga","district":"Alama","urban":"Kulesa","postal_code":99564},{"province":"Papua","city":"Nduga","district":"Geselma (Geselema)","urban":"Kosolpem","postal_code":99564},{"province":"Papua","city":"Nduga","district":"Koroptak","urban":"Kroptak (Koroptak)","postal_code":99564},{"province":"Papua","city":"Nduga","district":"Koroptak","urban":"Komoroam","postal_code":99564},{"province":"Papua","city":"Nduga","district":"Nenggeagin","urban":"Kombama","postal_code":99564},{"province":"Papua","city":"Nduga","district":"Iniye","urban":"Kosobak","postal_code":99564},{"province":"Papua","city":"Nduga","district":"Mbulmu Yalma","urban":"Kolma","postal_code":99564},{"province":"Papua","city":"Nduga","district":"Mbua (Mbuga)","urban":"Kogomaru","postal_code":99564},{"province":"Papua","city":"Nduga","district":"Nirkuri","urban":"Kokujondumu","postal_code":99564},{"province":"Papua","city":"Nduga","district":"Mbulmu Yalma","urban":"Klabypma (Kiabypma)","postal_code":99564},{"province":"Papua","city":"Nduga","district":"Kilmid","urban":"Kilmid","postal_code":99564},{"province":"Papua","city":"Nduga","district":"Mbulmu Yalma","urban":"Kibisim","postal_code":99564},{"province":"Papua","city":"Nduga","district":"Inikgal","urban":"Kigam","postal_code":99564},{"province":"Papua","city":"Nduga","district":"Mugi","urban":"Kemamburu","postal_code":99564},{"province":"Papua","city":"Nduga","district":"Mugi","urban":"Keret Anggoma","postal_code":99564},{"province":"Papua","city":"Nduga","district":"Iniye","urban":"Kibendumu","postal_code":99564},{"province":"Papua","city":"Nduga","district":"Mapenduma","urban":"Kelapa Dua","postal_code":99564},{"province":"Papua","city":"Nduga","district":"Yigi","urban":"Karunggame","postal_code":99564},{"province":"Papua","city":"Nduga","district":"Kegayem","urban":"Kagayem","postal_code":99564},{"province":"Papua","city":"Nduga","district":"Mbulmu Yalma","urban":"Kabolilangen","postal_code":99564},{"province":"Papua","city":"Nduga","district":"Mbulmu Yalma","urban":"Kabolilangen","postal_code":99564},{"province":"Papua","city":"Nduga","district":"Iniye","urban":"Iniye","postal_code":99564},{"province":"Papua","city":"Nduga","district":"Kegayem","urban":"Ininkwaning","postal_code":99564},{"province":"Papua","city":"Nduga","district":"Mugi","urban":"Isiklak","postal_code":99564},{"province":"Papua","city":"Nduga","district":"Dal","urban":"Gurumbe","postal_code":99564},{"province":"Papua","city":"Nduga","district":"Inikgal","urban":"Gulama","postal_code":99564},{"province":"Papua","city":"Nduga","district":"Dal","urban":"Grinbun","postal_code":99564},{"province":"Papua","city":"Nduga","district":"Koroptak","urban":"Go","postal_code":99564},{"province":"Papua","city":"Nduga","district":"Koroptak","urban":"Golparek","postal_code":99564},{"province":"Papua","city":"Nduga","district":"Mugi","urban":"Gisarok","postal_code":99564},{"province":"Papua","city":"Nduga","district":"Alama","urban":"Gin","postal_code":99564},{"province":"Papua","city":"Nduga","district":"Kegayem","urban":"Gilpid","postal_code":99564},{"province":"Papua","city":"Nduga","district":"Geselma (Geselema)","urban":"Geselma (Geselema)","postal_code":99564},{"province":"Papua","city":"Nduga","district":"Kilmid","urban":"Gemam","postal_code":99564},{"province":"Papua","city":"Nduga","district":"Mebarok","urban":"Eregenmanggal","postal_code":99564},{"province":"Papua","city":"Nduga","district":"Mapenduma","urban":"Endumu","postal_code":99564},{"province":"Papua","city":"Nduga","district":"Iniye","urban":"Embuklem","postal_code":99564},{"province":"Papua","city":"Nduga","district":"Yigi","urban":"Ekilapok (Ekilapo)","postal_code":99564},{"province":"Papua","city":"Nduga","district":"Mapenduma","urban":"Dumdum","postal_code":99564},{"province":"Papua","city":"Nduga","district":"Mapenduma","urban":"Duma","postal_code":99564},{"province":"Papua","city":"Nduga","district":"Mugi","urban":"Dondoklema","postal_code":99564},{"province":"Papua","city":"Nduga","district":"Mugi","urban":"Dobopem","postal_code":99564},{"province":"Papua","city":"Nduga","district":"Yigi","urban":"Disendobo","postal_code":99564},{"province":"Papua","city":"Nduga","district":"Mbua (Mbuga)","urban":"Digilimu","postal_code":99564},{"province":"Papua","city":"Nduga","district":"Yigi","urban":"Delsa","postal_code":99564},{"province":"Papua","city":"Nduga","district":"Mugi","urban":"Delit","postal_code":99564},{"province":"Papua","city":"Nduga","district":"Dal","urban":"Dal","postal_code":99564},{"province":"Papua","city":"Nduga","district":"Mbulmu Yalma","urban":"Brambel","postal_code":99564},{"province":"Papua","city":"Nduga","district":"Inikgal","urban":"Dakbri","postal_code":99564},{"province":"Papua","city":"Nduga","district":"Yigi","urban":"Borot","postal_code":99564},{"province":"Papua","city":"Nduga","district":"Inikgal","urban":"Biripem","postal_code":99564},{"province":"Papua","city":"Nduga","district":"Mebarok","urban":"Bone","postal_code":99564},{"province":"Papua","city":"Nduga","district":"Nirkuri","urban":"Binime","postal_code":99564},{"province":"Papua","city":"Nduga","district":"Kegayem","urban":"Bambi","postal_code":99564},{"province":"Papua","city":"Nduga","district":"Iniye","urban":"Baklema","postal_code":99564},{"province":"Papua","city":"Nduga","district":"Mbua (Mbuga)","urban":"Arugia","postal_code":99564},{"province":"Papua","city":"Nduga","district":"Inikgal","urban":"Area","postal_code":99564},{"province":"Papua","city":"Nduga","district":"Mebarok","urban":"Aptam","postal_code":99564},{"province":"Papua","city":"Nduga","district":"Paro","urban":"Animarem","postal_code":99564},{"province":"Papua","city":"Nduga","district":"Alama","urban":"Alama","postal_code":99564},{"province":"Papua","city":"Nduga","district":"Inikgal","urban":"Abualak","postal_code":99564}]