[{"province":"Papua","city":"Tolikara","district":"Wonoki (Woniki)","urban":"Yigonime","postal_code":99568},{"province":"Papua","city":"Tolikara","district":"Aweku","urban":"Yelly","postal_code":99568},{"province":"Papua","city":"Tolikara","district":"Aweku","urban":"Yebena","postal_code":99568},{"province":"Papua","city":"Tolikara","district":"Aweku","urban":"Yebena","postal_code":99568},{"province":"Papua","city":"Tolikara","district":"Gilubandu (Gilumbandu/Gilimbandu)","urban":"Yamulo","postal_code":99568},{"province":"Papua","city":"Tolikara","district":"Wonoki (Woniki)","urban":"Yaliwak","postal_code":99568},{"province":"Papua","city":"Tolikara","district":"Gilubandu (Gilumbandu/Gilimbandu)","urban":"Yakep","postal_code":99568},{"province":"Papua","city":"Tolikara","district":"Wonoki (Woniki)","urban":"Wunabu","postal_code":99568},{"province":"Papua","city":"Tolikara","district":"Bogonuk","urban":"Wumelak","postal_code":99568},{"province":"Papua","city":"Tolikara","district":"Aweku","urban":"Wuluk","postal_code":99568},{"province":"Papua","city":"Tolikara","district":"Nunggawi (Munggawi)","urban":"Woyi","postal_code":99568},{"province":"Papua","city":"Tolikara","district":"Nunggawi (Munggawi)","urban":"Wondame","postal_code":99568},{"province":"Papua","city":"Tolikara","district":"Nunggawi (Munggawi)","urban":"Wonoluk","postal_code":99568},{"province":"Papua","city":"Tolikara","district":"Wakuwo","urban":"Wonitu","postal_code":99568},{"province":"Papua","city":"Tolikara","district":"Bogonuk","urban":"Wisman","postal_code":99568},{"province":"Papua","city":"Tolikara","district":"Wonoki (Woniki)","urban":"Wilileme","postal_code":99568},{"province":"Papua","city":"Tolikara","district":"Wakuwo","urban":"Weyage","postal_code":99568},{"province":"Papua","city":"Tolikara","district":"Nabunage","urban":"Wewo","postal_code":99568},{"province":"Papua","city":"Tolikara","district":"Gilubandu (Gilumbandu/Gilimbandu)","urban":"Welesi","postal_code":99568},{"province":"Papua","city":"Tolikara","district":"Aweku","urban":"Wenggun","postal_code":99568},{"province":"Papua","city":"Tolikara","district":"Wakuwo","urban":"Wama","postal_code":99568},{"province":"Papua","city":"Tolikara","district":"Bogonuk","urban":"Walelo","postal_code":99568},{"province":"Papua","city":"Tolikara","district":"Aweku","urban":"Wamigi","postal_code":99568},{"province":"Papua","city":"Tolikara","district":"Nunggawi (Munggawi)","urban":"Undi","postal_code":99568},{"province":"Papua","city":"Tolikara","district":"Nunggawi (Munggawi)","urban":"Tunibur","postal_code":99568},{"province":"Papua","city":"Tolikara","district":"Wakuwo","urban":"Towolome","postal_code":99568},{"province":"Papua","city":"Tolikara","district":"Aweku","urban":"Tiyonggi","postal_code":99568},{"province":"Papua","city":"Tolikara","district":"Gilubandu (Gilumbandu/Gilimbandu)","urban":"Tinggom","postal_code":99568},{"province":"Papua","city":"Tolikara","district":"Nunggawi (Munggawi)","urban":"Tinoweno","postal_code":99568},{"province":"Papua","city":"Tolikara","district":"Wakuwo","urban":"Timer","postal_code":99568},{"province":"Papua","city":"Tolikara","district":"Nunggawi (Munggawi)","urban":"Timobur (Kimobur)","postal_code":99568},{"province":"Papua","city":"Tolikara","district":"Nunggawi (Munggawi)","urban":"Timopur","postal_code":99568},{"province":"Papua","city":"Tolikara","district":"Nabunage","urban":"Timbindelo","postal_code":99568},{"province":"Papua","city":"Tolikara","district":"Wonoki (Woniki)","urban":"Teropme","postal_code":99568},{"province":"Papua","city":"Tolikara","district":"Bogonuk","urban":"Talinamber","postal_code":99568},{"province":"Papua","city":"Tolikara","district":"Kanggime (Kanggima )","urban":"Purugi","postal_code":99568},{"province":"Papua","city":"Tolikara","district":"Aweku","urban":"Posman","postal_code":99568},{"province":"Papua","city":"Tolikara","district":"Wonoki (Woniki)","urban":"Pagona","postal_code":99568},{"province":"Papua","city":"Tolikara","district":"Bogonuk","urban":"Paba","postal_code":99568},{"province":"Papua","city":"Tolikara","district":"Gilubandu (Gilumbandu/Gilimbandu)","urban":"Orelukban","postal_code":99568},{"province":"Papua","city":"Tolikara","district":"Nunggawi (Munggawi)","urban":"Numbe","postal_code":99568},{"province":"Papua","city":"Tolikara","district":"Nunggawi (Munggawi)","urban":"Nunggawi","postal_code":99568},{"province":"Papua","city":"Tolikara","district":"Dundu (Ndundu)","urban":"Nini","postal_code":99568},{"province":"Papua","city":"Tolikara","district":"Nunggawi (Munggawi)","urban":"Nombori","postal_code":99568},{"province":"Papua","city":"Tolikara","district":"Wakuwo","urban":"Nowo","postal_code":99568},{"province":"Papua","city":"Tolikara","district":"Nabunage","urban":"Nabunage","postal_code":99568},{"province":"Papua","city":"Tolikara","district":"Wonoki (Woniki)","urban":"Mome","postal_code":99568},{"province":"Papua","city":"Tolikara","district":"Nunggawi (Munggawi)","urban":"Mololowa","postal_code":99568},{"province":"Papua","city":"Tolikara","district":"Gilubandu (Gilumbandu/Gilimbandu)","urban":"Martelo","postal_code":99568},{"province":"Papua","city":"Tolikara","district":"Nabunage","urban":"Missa","postal_code":99568},{"province":"Papua","city":"Tolikara","district":"Wonoki (Woniki)","urban":"Lugwi","postal_code":99568},{"province":"Papua","city":"Tolikara","district":"Kanggime (Kanggima )","urban":"Logon","postal_code":99568},{"province":"Papua","city":"Tolikara","district":"Kanggime (Kanggima )","urban":"Marlo","postal_code":99568},{"province":"Papua","city":"Tolikara","district":"Nabunage","urban":"Logilome","postal_code":99568},{"province":"Papua","city":"Tolikara","district":"Kanggime (Kanggima )","urban":"Ligiibak / Ligimbak (Lagimbak)","postal_code":99568},{"province":"Papua","city":"Tolikara","district":"Gilubandu (Gilumbandu/Gilimbandu)","urban":"Lerewere","postal_code":99568},{"province":"Papua","city":"Tolikara","district":"Wakuwo","urban":"Kwarini","postal_code":99568},{"province":"Papua","city":"Tolikara","district":"Bogonuk","urban":"Laura","postal_code":99568},{"province":"Papua","city":"Tolikara","district":"Nabunage","urban":"Kutime","postal_code":99568},{"province":"Papua","city":"Tolikara","district":"Nunggawi (Munggawi)","urban":"Kuripaga (Kuripara)","postal_code":99568},{"province":"Papua","city":"Tolikara","district":"Nabunage","urban":"Kupara","postal_code":99568},{"province":"Papua","city":"Tolikara","district":"Wakuwo","urban":"Kumbur","postal_code":99568},{"province":"Papua","city":"Tolikara","district":"Nabunage","urban":"Kumbo","postal_code":99568},{"province":"Papua","city":"Tolikara","district":"Gilubandu (Gilumbandu/Gilimbandu)","urban":"Kulutin","postal_code":99568},{"province":"Papua","city":"Tolikara","district":"Nunggawi (Munggawi)","urban":"Kubalo","postal_code":99568},{"province":"Papua","city":"Tolikara","district":"Wakuwo","urban":"Korlo","postal_code":99568},{"province":"Papua","city":"Tolikara","district":"Nunggawi (Munggawi)","urban":"Kondangwi","postal_code":99568},{"province":"Papua","city":"Tolikara","district":"Nunggawi (Munggawi)","urban":"Konipaga","postal_code":99568},{"province":"Papua","city":"Tolikara","district":"Nunggawi (Munggawi)","urban":"Kononda (Kokondao)","postal_code":99568},{"province":"Papua","city":"Tolikara","district":"Aweku","urban":"Kogagi","postal_code":99568},{"province":"Papua","city":"Tolikara","district":"Aweku","urban":"Kolanggun","postal_code":99568},{"province":"Papua","city":"Tolikara","district":"Nunggawi (Munggawi)","urban":"Kilungga","postal_code":99568},{"province":"Papua","city":"Tolikara","district":"Nunggawi (Munggawi)","urban":"Kipino","postal_code":99568},{"province":"Papua","city":"Tolikara","district":"Nabunage","urban":"Kimilo","postal_code":99568},{"province":"Papua","city":"Tolikara","district":"Kanggime (Kanggima )","urban":"Kerena","postal_code":99568},{"province":"Papua","city":"Tolikara","district":"Nunggawi (Munggawi)","urban":"Kanggineri","postal_code":99568},{"province":"Papua","city":"Tolikara","district":"Kanggime (Kanggima )","urban":"Kanggime","postal_code":99568},{"province":"Papua","city":"Tolikara","district":"Kanggime (Kanggima )","urban":"Kagimaluk","postal_code":99568},{"province":"Papua","city":"Tolikara","district":"Nunggawi (Munggawi)","urban":"Kabomangen (Kubumangen)","postal_code":99568},{"province":"Papua","city":"Tolikara","district":"Wakuwo","urban":"Gulak","postal_code":99568},{"province":"Papua","city":"Tolikara","district":"Wakuwo","urban":"Gunalo","postal_code":99568},{"province":"Papua","city":"Tolikara","district":"Nabunage","urban":"Jekito","postal_code":99568},{"province":"Papua","city":"Tolikara","district":"Wakuwo","urban":"Golena","postal_code":99568},{"province":"Papua","city":"Tolikara","district":"Nunggawi (Munggawi)","urban":"Gilo","postal_code":99568},{"province":"Papua","city":"Tolikara","district":"Nabunage","urban":"Geningga","postal_code":99568},{"province":"Papua","city":"Tolikara","district":"Bogonuk","urban":"Ewan","postal_code":99568},{"province":"Papua","city":"Tolikara","district":"Gilubandu (Gilumbandu/Gilimbandu)","urban":"Egoni","postal_code":99568},{"province":"Papua","city":"Tolikara","district":"Kanggime (Kanggima )","urban":"Dundu","postal_code":99568},{"province":"Papua","city":"Tolikara","district":"Nunggawi (Munggawi)","urban":"Delelak","postal_code":99568},{"province":"Papua","city":"Tolikara","district":"Nunggawi (Munggawi)","urban":"Derek","postal_code":99568},{"province":"Papua","city":"Tolikara","district":"Wonoki (Woniki)","urban":"Bugum","postal_code":99568},{"province":"Papua","city":"Tolikara","district":"Nunggawi (Munggawi)","urban":"Berenggo (Berengga)","postal_code":99568},{"province":"Papua","city":"Tolikara","district":"Bogonuk","urban":"Bogonuk","postal_code":99568},{"province":"Papua","city":"Tolikara","district":"Nunggawi (Munggawi)","urban":"Belep","postal_code":99568},{"province":"Papua","city":"Tolikara","district":"Gilubandu (Gilumbandu/Gilimbandu)","urban":"Baguni","postal_code":99568},{"province":"Papua","city":"Tolikara","district":"Kanggime (Kanggima )","urban":"Aulani","postal_code":99568},{"province":"Papua","city":"Tolikara","district":"Bogonuk","urban":"Aliduda","postal_code":99568},{"province":"Papua","city":"Tolikara","district":"Bogonuk","urban":"Andomak","postal_code":99568},{"province":"Papua","city":"Tolikara","district":"Aweku","urban":"Agin","postal_code":99568}]