[{"province":"Papua","city":"Tolikara","district":"Yuneri","urban":"Yuneri","postal_code":99562},{"province":"Papua","city":"Tolikara","district":"Numba","urban":"Yugumena","postal_code":99562},{"province":"Papua","city":"Tolikara","district":"Biuk","urban":"Yugu Mabur","postal_code":99562},{"province":"Papua","city":"Tolikara","district":"Yuneri","urban":"Yudimba","postal_code":99562},{"province":"Papua","city":"Tolikara","district":"Numba","urban":"Yiragame","postal_code":99562},{"province":"Papua","city":"Tolikara","district":"Biuk","urban":"Yiyogobak/Kibur","postal_code":99562},{"province":"Papua","city":"Tolikara","district":"Biuk","urban":"Yiluk/Kondenggun","postal_code":99562},{"province":"Papua","city":"Tolikara","district":"Nelawi","urban":"Yilogonime/Tabinabo","postal_code":99562},{"province":"Papua","city":"Tolikara","district":"Goyage","urban":"Yemarima (Yemarma)","postal_code":99562},{"province":"Papua","city":"Tolikara","district":"Kondaga (Konda)","urban":"Yawineri","postal_code":99562},{"province":"Papua","city":"Tolikara","district":"Yuneri","urban":"Yido","postal_code":99562},{"province":"Papua","city":"Tolikara","district":"Anawi","urban":"Yalipura","postal_code":99562},{"province":"Papua","city":"Tolikara","district":"Anawi","urban":"Yalokobak","postal_code":99562},{"province":"Papua","city":"Tolikara","district":"Numba","urban":"Yalogo","postal_code":99562},{"province":"Papua","city":"Tolikara","district":"Karubaga","urban":"Yalikaluk","postal_code":99562},{"province":"Papua","city":"Tolikara","district":"Wugi","urban":"Wuronggi","postal_code":99562},{"province":"Papua","city":"Tolikara","district":"Wunin (Wumin)","urban":"Wurineri","postal_code":99562},{"province":"Papua","city":"Tolikara","district":"Geya","urban":"Wunggilipur","postal_code":99562},{"province":"Papua","city":"Tolikara","district":"Wugi","urban":"Wugi","postal_code":99562},{"province":"Papua","city":"Tolikara","district":"Wenam","urban":"Wunggi","postal_code":99562},{"province":"Papua","city":"Tolikara","district":"Yuneri","urban":"Wonabunggame","postal_code":99562},{"province":"Papua","city":"Tolikara","district":"Yuneri","urban":"Wonabunggame","postal_code":99562},{"province":"Papua","city":"Tolikara","district":"Kai","urban":"Wolu","postal_code":99562},{"province":"Papua","city":"Tolikara","district":"Wunin (Wumin)","urban":"Wona","postal_code":99562},{"province":"Papua","city":"Tolikara","district":"Biuk","urban":"Wonabu","postal_code":99562},{"province":"Papua","city":"Tolikara","district":"Kai","urban":"Wiyangger","postal_code":99562},{"province":"Papua","city":"Tolikara","district":"Goyage","urban":"Woji","postal_code":99562},{"province":"Papua","city":"Tolikara","district":"Li Anogomma","urban":"Wiyaluk","postal_code":99562},{"province":"Papua","city":"Tolikara","district":"Geya","urban":"Witipur","postal_code":99562},{"province":"Papua","city":"Tolikara","district":"Goyage","urban":"Wijamurik","postal_code":99562},{"province":"Papua","city":"Tolikara","district":"Geya","urban":"Winalo","postal_code":99562},{"province":"Papua","city":"Tolikara","district":"Airgaram","urban":"Weu","postal_code":99562},{"province":"Papua","city":"Tolikara","district":"Geya","urban":"Weyambi","postal_code":99562},{"province":"Papua","city":"Tolikara","district":"Airgaram","urban":"Wenduri","postal_code":99562},{"province":"Papua","city":"Tolikara","district":"Yuneri","urban":"Wenome","postal_code":99562},{"province":"Papua","city":"Tolikara","district":"Kuari","urban":"Wanggugup","postal_code":99562},{"province":"Papua","city":"Tolikara","district":"Yuneri","urban":"Umar","postal_code":99562},{"province":"Papua","city":"Tolikara","district":"Nelawi","urban":"Wabuna","postal_code":99562},{"province":"Papua","city":"Tolikara","district":"Kuari","urban":"Umaga","postal_code":99562},{"province":"Papua","city":"Tolikara","district":"Kai","urban":"Tunggunale","postal_code":99562},{"province":"Papua","city":"Tolikara","district":"Biuk","urban":"Tomagi/Gubagi","postal_code":99562},{"province":"Papua","city":"Tolikara","district":"Biuk","urban":"Tomagipura","postal_code":99562},{"province":"Papua","city":"Tolikara","district":"Goyage","urban":"Tiri","postal_code":99562},{"province":"Papua","city":"Tolikara","district":"Kubu","urban":"Tiyenggupur","postal_code":99562},{"province":"Papua","city":"Tolikara","district":"Airgaram","urban":"Tinger","postal_code":99562},{"province":"Papua","city":"Tolikara","district":"Li Anogomma","urban":"Tingwi","postal_code":99562},{"province":"Papua","city":"Tolikara","district":"Numba","urban":"Tingwineri","postal_code":99562},{"province":"Papua","city":"Tolikara","district":"Geya","urban":"Tinagoga","postal_code":99562},{"province":"Papua","city":"Tolikara","district":"Kondaga (Konda)","urban":"Tingapura","postal_code":99562},{"province":"Papua","city":"Tolikara","district":"Wenam","urban":"Tina","postal_code":99562},{"province":"Papua","city":"Tolikara","district":"Geya","urban":"Timori","postal_code":99562},{"province":"Papua","city":"Tolikara","district":"Kai","urban":"Tina","postal_code":99562},{"province":"Papua","city":"Tolikara","district":"Wugi","urban":"Timoneri","postal_code":99562},{"province":"Papua","city":"Tolikara","district":"Nelawi","urban":"Timojimo","postal_code":99562},{"province":"Papua","city":"Tolikara","district":"Goyage","urban":"Tidur Mabuk","postal_code":99562},{"province":"Papua","city":"Tolikara","district":"Goyage","urban":"Tigir","postal_code":99562},{"province":"Papua","city":"Tolikara","district":"Wenam","urban":"Telelomi","postal_code":99562},{"province":"Papua","city":"Tolikara","district":"Yuneri","urban":"Tenabaga","postal_code":99562},{"province":"Papua","city":"Tolikara","district":"Kuari","urban":"Tebenalo","postal_code":99562},{"province":"Papua","city":"Tolikara","district":"Nelawi","urban":"Tabowanimbo","postal_code":99562},{"province":"Papua","city":"Tolikara","district":"Goyage","urban":"Tagikun (Tigikum)","postal_code":99562},{"province":"Papua","city":"Tolikara","district":"Airgaram","urban":"Tabo Wanimbo","postal_code":99562},{"province":"Papua","city":"Tolikara","district":"Kondaga (Konda)","urban":"Silabulo","postal_code":99562},{"province":"Papua","city":"Tolikara","district":"Biuk","urban":"Purugi","postal_code":99562},{"province":"Papua","city":"Tolikara","district":"Karubaga","urban":"Pulanggun","postal_code":99562},{"province":"Papua","city":"Tolikara","district":"Wunin (Wumin)","urban":"Pokegi","postal_code":99562},{"province":"Papua","city":"Tolikara","district":"Kai","urban":"Piraleme","postal_code":99562},{"province":"Papua","city":"Tolikara","district":"Wugi","urban":"Pindelo","postal_code":99562},{"province":"Papua","city":"Tolikara","district":"Wunin (Wumin)","urban":"Pindak","postal_code":99562},{"province":"Papua","city":"Tolikara","district":"Goyage","urban":"Peko (Peku)","postal_code":99562},{"province":"Papua","city":"Tolikara","district":"Nelawi","urban":"Palagi","postal_code":99562},{"province":"Papua","city":"Tolikara","district":"Airgaram","urban":"Onggokme","postal_code":99562},{"province":"Papua","city":"Tolikara","district":"Yuneri","urban":"Omibur","postal_code":99562},{"province":"Papua","city":"Tolikara","district":"Kubu","urban":"Numbugawe","postal_code":99562},{"province":"Papua","city":"Tolikara","district":"Wunin (Wumin)","urban":"Numbuboton","postal_code":99562},{"province":"Papua","city":"Tolikara","district":"Numba","urban":"Numba","postal_code":99562},{"province":"Papua","city":"Tolikara","district":"Nelawi","urban":"Nelawi","postal_code":99562},{"province":"Papua","city":"Tolikara","district":"Geya","urban":"Nawu","postal_code":99562},{"province":"Papua","city":"Tolikara","district":"Karubaga","urban":"Nalorini","postal_code":99562},{"province":"Papua","city":"Tolikara","district":"Karubaga","urban":"Muara","postal_code":99562},{"province":"Papua","city":"Tolikara","district":"Kubu","urban":"Murik","postal_code":99562},{"province":"Papua","city":"Tolikara","district":"Yuneri","urban":"Mopi","postal_code":99562},{"province":"Papua","city":"Tolikara","district":"Kondaga (Konda)","urban":"Mowilome","postal_code":99562},{"province":"Papua","city":"Tolikara","district":"Nelawi","urban":"Mondagul","postal_code":99562},{"province":"Papua","city":"Tolikara","district":"Karubaga","urban":"Molera","postal_code":99562},{"province":"Papua","city":"Tolikara","district":"Nelawi","urban":"Minagame","postal_code":99562},{"province":"Papua","city":"Tolikara","district":"Kubu","urban":"Minagi","postal_code":99562},{"province":"Papua","city":"Tolikara","district":"Wenam","urban":"Mili","postal_code":99562},{"province":"Papua","city":"Tolikara","district":"Wenam","urban":"Milineri","postal_code":99562},{"province":"Papua","city":"Tolikara","district":"Kuari","urban":"Menggenagame","postal_code":99562},{"province":"Papua","city":"Tolikara","district":"Kubu","urban":"Menggenagi","postal_code":99562},{"province":"Papua","city":"Tolikara","district":"Nelawi","urban":"Megapura","postal_code":99562},{"province":"Papua","city":"Tolikara","district":"Kuari","urban":"Menggeba","postal_code":99562},{"province":"Papua","city":"Tolikara","district":"Kuari","urban":"Markar","postal_code":99562},{"province":"Papua","city":"Tolikara","district":"Biuk","urban":"Mbinime/Jinulira","postal_code":99562},{"province":"Papua","city":"Tolikara","district":"Kondaga (Konda)","urban":"Mandura","postal_code":99562},{"province":"Papua","city":"Tolikara","district":"Goyage","urban":"Mampulaga (Nampulaga)","postal_code":99562},{"province":"Papua","city":"Tolikara","district":"Li Anogomma","urban":"Lubuk","postal_code":99562},{"province":"Papua","city":"Tolikara","district":"Karubaga","urban":"Luwik","postal_code":99562},{"province":"Papua","city":"Tolikara","district":"Kuari","urban":"Luanggi","postal_code":99562},{"province":"Papua","city":"Tolikara","district":"Karubaga","urban":"Losmen","postal_code":99562},{"province":"Papua","city":"Tolikara","district":"Wugi","urban":"Loma","postal_code":99562},{"province":"Papua","city":"Tolikara","district":"Li Anogomma","urban":"Longgoboma","postal_code":99562},{"province":"Papua","city":"Tolikara","district":"Anawi","urban":"Loguk","postal_code":99562},{"province":"Papua","city":"Tolikara","district":"Airgaram","urban":"Liwese","postal_code":99562},{"province":"Papua","city":"Tolikara","district":"Karubaga","urban":"Lirak","postal_code":99562},{"province":"Papua","city":"Tolikara","district":"Airgaram","urban":"Lenggup","postal_code":99562},{"province":"Papua","city":"Tolikara","district":"Li Anogomma","urban":"Leragawi/Megagirakuk","postal_code":99562},{"province":"Papua","city":"Tolikara","district":"Anawi","urban":"Linggira","postal_code":99562},{"province":"Papua","city":"Tolikara","district":"Wugi","urban":"Lena","postal_code":99562},{"province":"Papua","city":"Tolikara","district":"Kuari","urban":"Kurik","postal_code":99562},{"province":"Papua","city":"Tolikara","district":"Kai","urban":"Kurbaya","postal_code":99562},{"province":"Papua","city":"Tolikara","district":"Karubaga","urban":"Kuragepura","postal_code":99562},{"province":"Papua","city":"Tolikara","district":"Goyage","urban":"Kumbur (Kumbu)","postal_code":99562},{"province":"Papua","city":"Tolikara","district":"Numba","urban":"Kuma","postal_code":99562},{"province":"Papua","city":"Tolikara","district":"Airgaram","urban":"Kubur","postal_code":99562},{"province":"Papua","city":"Tolikara","district":"Karubaga","urban":"Kuloname","postal_code":99562},{"province":"Papua","city":"Tolikara","district":"Kubu","urban":"Kubu","postal_code":99562},{"province":"Papua","city":"Tolikara","district":"Kubu","urban":"Kubugiwa","postal_code":99562},{"province":"Papua","city":"Tolikara","district":"Kuari","urban":"Kuari","postal_code":99562},{"province":"Papua","city":"Tolikara","district":"Wugi","urban":"Kuagembur","postal_code":99562},{"province":"Papua","city":"Tolikara","district":"Wenam","urban":"Kopenawai","postal_code":99562},{"province":"Papua","city":"Tolikara","district":"Anawi","urban":"Kotori","postal_code":99562},{"province":"Papua","city":"Tolikara","district":"Kai","urban":"Kotorambur","postal_code":99562},{"province":"Papua","city":"Tolikara","district":"Kuari","urban":"Kondegun","postal_code":99562},{"province":"Papua","city":"Tolikara","district":"Kondaga (Konda)","urban":"Konda","postal_code":99562},{"province":"Papua","city":"Tolikara","district":"Karubaga","urban":"Kolilan","postal_code":99562},{"province":"Papua","city":"Tolikara","district":"Wugi","urban":"Koli","postal_code":99562},{"province":"Papua","city":"Tolikara","district":"Karubaga","urban":"Kiranage","postal_code":99562},{"province":"Papua","city":"Tolikara","district":"Karubaga","urban":"Kogimagi","postal_code":99562},{"province":"Papua","city":"Tolikara","district":"Li Anogomma","urban":"Kogoyapura","postal_code":99562},{"province":"Papua","city":"Tolikara","district":"Kuari","urban":"Kibur","postal_code":99562},{"province":"Papua","city":"Tolikara","district":"Karubaga","urban":"Kimobur","postal_code":99562},{"province":"Papua","city":"Tolikara","district":"Geya","urban":"Kibu","postal_code":99562},{"province":"Papua","city":"Tolikara","district":"Numba","urban":"Keragigelok","postal_code":99562},{"province":"Papua","city":"Tolikara","district":"Wunin (Wumin)","urban":"Keribaga","postal_code":99562},{"province":"Papua","city":"Tolikara","district":"Kuari","urban":"Kenen","postal_code":99562},{"province":"Papua","city":"Tolikara","district":"Nelawi","urban":"Kendemaya","postal_code":99562},{"province":"Papua","city":"Tolikara","district":"Karubaga","urban":"Karubaga","postal_code":99562},{"province":"Papua","city":"Tolikara","district":"Yuneri","urban":"Kanggilo","postal_code":99562},{"province":"Papua","city":"Tolikara","district":"Kubu","urban":"Kalewi","postal_code":99562},{"province":"Papua","city":"Tolikara","district":"Kai","urban":"Kaiga","postal_code":99562},{"province":"Papua","city":"Tolikara","district":"Numba","urban":"Jinuwanu","postal_code":99562},{"province":"Papua","city":"Tolikara","district":"Kuari","urban":"Jinulira","postal_code":99562},{"province":"Papua","city":"Tolikara","district":"Geya","urban":"Jelepele","postal_code":99562},{"province":"Papua","city":"Tolikara","district":"Anawi","urban":"Imurik","postal_code":99562},{"province":"Papua","city":"Tolikara","district":"Wenam","urban":"Igari","postal_code":99562},{"province":"Papua","city":"Tolikara","district":"Karubaga","urban":"Gurikme","postal_code":99562},{"province":"Papua","city":"Tolikara","district":"Karubaga","urban":"Gurikagewa","postal_code":99562},{"province":"Papua","city":"Tolikara","district":"Numba","urban":"Guniki","postal_code":99562},{"province":"Papua","city":"Tolikara","district":"Biuk","urban":"Guburini","postal_code":99562},{"province":"Papua","city":"Tolikara","district":"Li Anogomma","urban":"Gubura","postal_code":99562},{"province":"Papua","city":"Tolikara","district":"Kuari","urban":"Gubagi","postal_code":99562},{"province":"Papua","city":"Tolikara","district":"Goyage","urban":"Goyage","postal_code":99562},{"province":"Papua","city":"Tolikara","district":"Wugi","urban":"Gitar","postal_code":99562},{"province":"Papua","city":"Tolikara","district":"Karubaga","urban":"Gininggadonak","postal_code":99562},{"province":"Papua","city":"Tolikara","district":"Anawi","urban":"Gineri","postal_code":99562},{"province":"Papua","city":"Tolikara","district":"Kondaga (Konda)","urban":"Gimo","postal_code":99562},{"province":"Papua","city":"Tolikara","district":"Wunin (Wumin)","urban":"Gilopaga","postal_code":99562},{"province":"Papua","city":"Tolikara","district":"Goyage","urban":"Gilok","postal_code":99562},{"province":"Papua","city":"Tolikara","district":"Wugi","urban":"Gilime","postal_code":99562},{"province":"Papua","city":"Tolikara","district":"Geya","urban":"Geya","postal_code":99562},{"province":"Papua","city":"Tolikara","district":"Wenam","urban":"Geyaneri","postal_code":99562},{"province":"Papua","city":"Tolikara","district":"Yuneri","urban":"Gembileme","postal_code":99562},{"province":"Papua","city":"Tolikara","district":"Kondaga (Konda)","urban":"Ganage","postal_code":99562},{"province":"Papua","city":"Tolikara","district":"Biuk","urban":"Galubup","postal_code":99562},{"province":"Papua","city":"Tolikara","district":"Karubaga","urban":"Elsadai","postal_code":99562},{"province":"Papua","city":"Tolikara","district":"Wunin (Wumin)","urban":"Enanagi","postal_code":99562},{"province":"Papua","city":"Tolikara","district":"Li Anogomma","urban":"Erimbur","postal_code":99562},{"province":"Papua","city":"Tolikara","district":"Goyage","urban":"Dugi","postal_code":99562},{"province":"Papua","city":"Tolikara","district":"Karubaga","urban":"Ebenhaiser","postal_code":99562},{"province":"Papua","city":"Tolikara","district":"Geya","urban":"Dimbara","postal_code":99562},{"province":"Papua","city":"Tolikara","district":"Goyage","urban":"Doge","postal_code":99562},{"province":"Papua","city":"Tolikara","district":"Goyage","urban":"Didelonik","postal_code":99562},{"province":"Papua","city":"Tolikara","district":"Karubaga","urban":"Danggulurik","postal_code":99562},{"province":"Papua","city":"Tolikara","district":"Wugi","urban":"Buangludah","postal_code":99562},{"province":"Papua","city":"Tolikara","district":"Goyage","urban":"Bopa (Bobe)","postal_code":99562},{"province":"Papua","city":"Tolikara","district":"Li Anogomma","urban":"Bogome","postal_code":99562},{"province":"Papua","city":"Tolikara","district":"Biuk","urban":"Biuk","postal_code":99562},{"province":"Papua","city":"Tolikara","district":"Goyage","urban":"Bini","postal_code":99562},{"province":"Papua","city":"Tolikara","district":"Anawi","urban":"Bieleme","postal_code":99562},{"province":"Papua","city":"Tolikara","district":"Karubaga","urban":"Beleme","postal_code":99562},{"province":"Papua","city":"Tolikara","district":"Goyage","urban":"Benari","postal_code":99562},{"province":"Papua","city":"Tolikara","district":"Nelawi","urban":"Barename/Luanggi","postal_code":99562},{"province":"Papua","city":"Tolikara","district":"Kai","urban":"Bawi","postal_code":99562},{"province":"Papua","city":"Tolikara","district":"Wenam","urban":"Banggeri","postal_code":99562},{"province":"Papua","city":"Tolikara","district":"Numba","urban":"Baliminggi","postal_code":99562},{"province":"Papua","city":"Tolikara","district":"Kuari","urban":"Baliminggi","postal_code":99562},{"province":"Papua","city":"Tolikara","district":"Wenam","urban":"Baganagapur","postal_code":99562},{"province":"Papua","city":"Tolikara","district":"Kondaga (Konda)","urban":"Arulo","postal_code":99562},{"province":"Papua","city":"Tolikara","district":"Kondaga (Konda)","urban":"Arumagi","postal_code":99562},{"province":"Papua","city":"Tolikara","district":"Kubu","urban":"Aruku","postal_code":99562},{"province":"Papua","city":"Tolikara","district":"Wunin (Wumin)","urban":"Arombok","postal_code":99562},{"province":"Papua","city":"Tolikara","district":"Kondaga (Konda)","urban":"Arikoba","postal_code":99562},{"province":"Papua","city":"Tolikara","district":"Anawi","urban":"Aridunda","postal_code":99562},{"province":"Papua","city":"Tolikara","district":"Goyage","urban":"Angkasa","postal_code":99562},{"province":"Papua","city":"Tolikara","district":"Anawi","urban":"Anawi","postal_code":99562},{"province":"Papua","city":"Tolikara","district":"Karubaga","urban":"Ampera","postal_code":99562},{"province":"Papua","city":"Tolikara","district":"Kuari","urban":"Alopur","postal_code":99562},{"province":"Papua","city":"Tolikara","district":"Geya","urban":"Alobaga","postal_code":99562},{"province":"Papua","city":"Tolikara","district":"Kai","urban":"Again","postal_code":99562},{"province":"Papua","city":"Tolikara","district":"Li Anogomma","urban":"Aburage","postal_code":99562},{"province":"Papua","city":"Tolikara","district":"Kuari","urban":"Abepur","postal_code":99562}]