[{"province":"Papua","city":"Pegunungan Bintang","district":"Ok Aom","urban":"Yumakot","postal_code":99573},{"province":"Papua","city":"Pegunungan Bintang","district":"Pepera","urban":"Yun Muku","postal_code":99573},{"province":"Papua","city":"Pegunungan Bintang","district":"Serambakon","urban":"Yakmor","postal_code":99573},{"province":"Papua","city":"Pegunungan Bintang","district":"Serambakon","urban":"Yapimakot","postal_code":99573},{"province":"Papua","city":"Pegunungan Bintang","district":"Serambakon","urban":"Wanbakon","postal_code":99573},{"province":"Papua","city":"Pegunungan Bintang","district":"Pepera","urban":"Wok Bakon","postal_code":99573},{"province":"Papua","city":"Pegunungan Bintang","district":"Alemsom","urban":"Tibal","postal_code":99573},{"province":"Papua","city":"Pegunungan Bintang","district":"Kalomdol","urban":"Tulo","postal_code":99573},{"province":"Papua","city":"Pegunungan Bintang","district":"Alemsom","urban":"Tapasik","postal_code":99573},{"province":"Papua","city":"Pegunungan Bintang","district":"Alemsom","urban":"Tapob","postal_code":99573},{"province":"Papua","city":"Pegunungan Bintang","district":"Okbape","urban":"Tapasik Dua","postal_code":99573},{"province":"Papua","city":"Pegunungan Bintang","district":"Serambakon","urban":"Siminbuk","postal_code":99573},{"province":"Papua","city":"Pegunungan Bintang","district":"Alemsom","urban":"Sumtamon","postal_code":99573},{"province":"Papua","city":"Pegunungan Bintang","district":"Serambakon","urban":"Seramkatop","postal_code":99573},{"province":"Papua","city":"Pegunungan Bintang","district":"Oksibil","urban":"Polsam","postal_code":99573},{"province":"Papua","city":"Pegunungan Bintang","district":"Alemsom","urban":"Payol Masumkon","postal_code":99573},{"province":"Papua","city":"Pegunungan Bintang","district":"Pepera","urban":"Pepera","postal_code":99573},{"province":"Papua","city":"Pegunungan Bintang","district":"Serambakon","urban":"Parim","postal_code":99573},{"province":"Papua","city":"Pegunungan Bintang","district":"Oksop","urban":"Oktumi","postal_code":99573},{"province":"Papua","city":"Pegunungan Bintang","district":"Ok Aom","urban":"Okdo","postal_code":99573},{"province":"Papua","city":"Pegunungan Bintang","district":"Oksop","urban":"Oksop","postal_code":99573},{"province":"Papua","city":"Pegunungan Bintang","district":"Serambakon","urban":"Okatem","postal_code":99573},{"province":"Papua","city":"Pegunungan Bintang","district":"Pepera","urban":"Ok Telab","postal_code":99573},{"province":"Papua","city":"Pegunungan Bintang","district":"Pepera","urban":"Okbon","postal_code":99573},{"province":"Papua","city":"Pegunungan Bintang","district":"Serambakon","urban":"Modusit","postal_code":99573},{"province":"Papua","city":"Pegunungan Bintang","district":"Alemsom","urban":"Muruman","postal_code":99573},{"province":"Papua","city":"Pegunungan Bintang","district":"Oksibil","urban":"Molbib Silibib","postal_code":99573},{"province":"Papua","city":"Pegunungan Bintang","district":"Oksop","urban":"Mimin","postal_code":99573},{"province":"Papua","city":"Pegunungan Bintang","district":"Ok Aom","urban":"Limarum","postal_code":99573},{"province":"Papua","city":"Pegunungan Bintang","district":"Oksibil","urban":"Mabilabol","postal_code":99573},{"province":"Papua","city":"Pegunungan Bintang","district":"Okbape","urban":"Masim","postal_code":99573},{"province":"Papua","city":"Pegunungan Bintang","district":"Ok Aom","urban":"Kungulding","postal_code":99573},{"province":"Papua","city":"Pegunungan Bintang","district":"Oksibil","urban":"Kutdol","postal_code":99573},{"province":"Papua","city":"Pegunungan Bintang","district":"Oksibil","urban":"Kabiding (Betaabib)","postal_code":99573},{"province":"Papua","city":"Pegunungan Bintang","district":"Kalomdol","urban":"Kalomdol (Kalondoi)","postal_code":99573},{"province":"Papua","city":"Pegunungan Bintang","district":"Okbape","urban":"Kasawi","postal_code":99573},{"province":"Papua","city":"Pegunungan Bintang","district":"Alemsom","urban":"Imiryi","postal_code":99573},{"province":"Papua","city":"Pegunungan Bintang","district":"Kalomdol","urban":"Imik","postal_code":99573},{"province":"Papua","city":"Pegunungan Bintang","district":"Alemsom","urban":"Eraduman","postal_code":99573},{"province":"Papua","city":"Pegunungan Bintang","district":"Okbape","urban":"Ibot","postal_code":99573},{"province":"Papua","city":"Pegunungan Bintang","district":"Pepera","urban":"Denom","postal_code":99573},{"province":"Papua","city":"Pegunungan Bintang","district":"Oksibil","urban":"Bunamdol","postal_code":99573},{"province":"Papua","city":"Pegunungan Bintang","district":"Kalomdol","urban":"Dabolding","postal_code":99573},{"province":"Papua","city":"Pegunungan Bintang","district":"Ok Aom","urban":"Bulangkop","postal_code":99573},{"province":"Papua","city":"Pegunungan Bintang","district":"Alemsom","urban":"Bondik","postal_code":99573},{"province":"Papua","city":"Pegunungan Bintang","district":"Pepera","urban":"Bon Yakwol","postal_code":99573},{"province":"Papua","city":"Pegunungan Bintang","district":"Alemsom","urban":"Binalkom","postal_code":99573},{"province":"Papua","city":"Pegunungan Bintang","district":"Okbape","urban":"Bape","postal_code":99573},{"province":"Papua","city":"Pegunungan Bintang","district":"Alemsom","urban":"Bakwalin Yub","postal_code":99573},{"province":"Papua","city":"Pegunungan Bintang","district":"Kalomdol","urban":"Arinkop","postal_code":99573},{"province":"Papua","city":"Pegunungan Bintang","district":"Oksop","urban":"Atenor / Atenar","postal_code":99573},{"province":"Papua","city":"Pegunungan Bintang","district":"Ok Aom","urban":"Aplim","postal_code":99573},{"province":"Papua","city":"Pegunungan Bintang","district":"Oksop","urban":"Alutbakon","postal_code":99573},{"province":"Papua","city":"Pegunungan Bintang","district":"Alemsom","urban":"Alemsom","postal_code":99573},{"province":"Papua","city":"Pegunungan Bintang","district":"Okbape","urban":"Akmer","postal_code":99573},{"province":"Papua","city":"Pegunungan Bintang","district":"Oksibil","urban":"Aldom","postal_code":99573},{"province":"Papua","city":"Pegunungan Bintang","district":"Oksibil","urban":"Akmakot","postal_code":99573}]