[{"province":"Papua","city":"Nduga","district":"Yal","urban":"Yimogi","postal_code":99571},{"province":"Papua","city":"Nduga","district":"Mam","urban":"Yibi","postal_code":99571},{"province":"Papua","city":"Nduga","district":"Mam","urban":"Yebandui","postal_code":99571},{"province":"Papua","city":"Nduga","district":"Yal","urban":"Yal","postal_code":99571},{"province":"Papua","city":"Nduga","district":"Yal","urban":"Yaba","postal_code":99571},{"province":"Papua","city":"Nduga","district":"Mam","urban":"Wolmbam","postal_code":99571},{"province":"Papua","city":"Nduga","district":"Mam","urban":"Wanduama","postal_code":99571},{"province":"Papua","city":"Nduga","district":"Yal","urban":"Undo","postal_code":99571},{"province":"Papua","city":"Nduga","district":"Yal","urban":"Suelama","postal_code":99571},{"province":"Papua","city":"Nduga","district":"Yal","urban":"Sitdobo","postal_code":99571},{"province":"Papua","city":"Nduga","district":"Yal","urban":"Samba","postal_code":99571},{"province":"Papua","city":"Nduga","district":"Mam","urban":"Putdumu","postal_code":99571},{"province":"Papua","city":"Nduga","district":"Mam","urban":"Pukle","postal_code":99571},{"province":"Papua","city":"Nduga","district":"Mam","urban":"Paruarem","postal_code":99571},{"province":"Papua","city":"Nduga","district":"Yal","urban":"Palpam","postal_code":99571},{"province":"Papua","city":"Nduga","district":"Yal","urban":"Muruldumu","postal_code":99571},{"province":"Papua","city":"Nduga","district":"Yal","urban":"Mugiarem","postal_code":99571},{"province":"Papua","city":"Nduga","district":"Mam","urban":"Mam","postal_code":99571},{"province":"Papua","city":"Nduga","district":"Mam","urban":"Laruid","postal_code":99571},{"province":"Papua","city":"Nduga","district":"Yal","urban":"Lambule","postal_code":99571},{"province":"Papua","city":"Nduga","district":"Mam","urban":"Lakda","postal_code":99571},{"province":"Papua","city":"Nduga","district":"Mam","urban":"Kibo","postal_code":99571},{"province":"Papua","city":"Nduga","district":"Mam","urban":"Kibiaren","postal_code":99571},{"province":"Papua","city":"Nduga","district":"Yal","urban":"Gularem","postal_code":99571},{"province":"Papua","city":"Nduga","district":"Yal","urban":"Girimnak","postal_code":99571},{"province":"Papua","city":"Nduga","district":"Yal","urban":"Gimi","postal_code":99571},{"province":"Papua","city":"Nduga","district":"Yal","urban":"Diringgama","postal_code":99571},{"province":"Papua","city":"Nduga","district":"Yal","urban":"Dengpa","postal_code":99571},{"province":"Papua","city":"Nduga","district":"Mam","urban":"Dendamba","postal_code":99571},{"province":"Papua","city":"Nduga","district":"Mam","urban":"Darakma","postal_code":99571},{"province":"Papua","city":"Nduga","district":"Yal","urban":"Dangenpem","postal_code":99571},{"province":"Papua","city":"Nduga","district":"Yal","urban":"Biledumu","postal_code":99571},{"province":"Papua","city":"Nduga","district":"Yal","urban":"Betbere","postal_code":99571},{"province":"Papua","city":"Yahukimo","district":"Mugi","urban":"Yuarima","postal_code":99571},{"province":"Papua","city":"Yahukimo","district":"Yogosem","urban":"Yogosem","postal_code":99571},{"province":"Papua","city":"Yahukimo","district":"Suru Suru","urban":"Yosua","postal_code":99571},{"province":"Papua","city":"Yahukimo","district":"Musaik","urban":"Yeriko","postal_code":99571},{"province":"Papua","city":"Yahukimo","district":"Wusuma","urban":"Yerekama","postal_code":99571},{"province":"Papua","city":"Yahukimo","district":"Ukha","urban":"Yelepunu","postal_code":99571},{"province":"Papua","city":"Yahukimo","district":"Tangma","urban":"Yeleas","postal_code":99571},{"province":"Papua","city":"Yahukimo","district":"Seredela (Seredala)","urban":"Yasip","postal_code":99571},{"province":"Papua","city":"Yahukimo","district":"Tangma","urban":"Yalimo","postal_code":99571},{"province":"Papua","city":"Yahukimo","district":"Obio","urban":"Yahufa","postal_code":99571},{"province":"Papua","city":"Yahukimo","district":"Kurima","urban":"Yagarelo","postal_code":99571},{"province":"Papua","city":"Yahukimo","district":"Obio","urban":"Yagabo","postal_code":99571},{"province":"Papua","city":"Yahukimo","district":"Mugi","urban":"Wusagasem","postal_code":99571},{"province":"Papua","city":"Yahukimo","district":"Pasema","urban":"Wulin","postal_code":99571},{"province":"Papua","city":"Yahukimo","district":"Kurima","urban":"Wulik Punua","postal_code":99571},{"province":"Papua","city":"Yahukimo","district":"Silimo","urban":"Wubialo","postal_code":99571},{"province":"Papua","city":"Yahukimo","district":"Suru Suru","urban":"Worapi","postal_code":99571},{"province":"Papua","city":"Yahukimo","district":"Amuma","urban":"Wisikma","postal_code":99571},{"province":"Papua","city":"Yahukimo","district":"Kona","urban":"Wetmuk","postal_code":99571},{"province":"Papua","city":"Yahukimo","district":"Sumo","urban":"Wirilu","postal_code":99571},{"province":"Papua","city":"Yahukimo","district":"Mugi","urban":"Wesangma","postal_code":99571},{"province":"Papua","city":"Yahukimo","district":"Werima","urban":"Wesama","postal_code":99571},{"province":"Papua","city":"Yahukimo","district":"Werima","urban":"Wesagalep","postal_code":99571},{"province":"Papua","city":"Yahukimo","district":"Werima","urban":"Weriaput","postal_code":99571},{"province":"Papua","city":"Yahukimo","district":"Werima","urban":"Werima","postal_code":99571},{"province":"Papua","city":"Yahukimo","district":"Obio","urban":"Wendame","postal_code":99571},{"province":"Papua","city":"Yahukimo","district":"Ukha","urban":"Wenapuk","postal_code":99571},{"province":"Papua","city":"Yahukimo","district":"Sumo","urban":"Wenapong","postal_code":99571},{"province":"Papua","city":"Yahukimo","district":"Mugi","urban":"Wemasili","postal_code":99571},{"province":"Papua","city":"Yahukimo","district":"Musaik","urban":"Weleheikma","postal_code":99571},{"province":"Papua","city":"Yahukimo","district":"Silimo","urban":"Weakma","postal_code":99571},{"province":"Papua","city":"Yahukimo","district":"Pasema","urban":"Wea","postal_code":99571},{"province":"Papua","city":"Yahukimo","district":"Mugi","urban":"Wanesi","postal_code":99571},{"province":"Papua","city":"Yahukimo","district":"Kurima","urban":"Wanem","postal_code":99571},{"province":"Papua","city":"Yahukimo","district":"Tangma","urban":"Wamarek","postal_code":99571},{"province":"Papua","city":"Yahukimo","district":"Wusuma","urban":"Walkuma","postal_code":99571},{"province":"Papua","city":"Yahukimo","district":"Silimo","urban":"Walkruk","postal_code":99571},{"province":"Papua","city":"Yahukimo","district":"Kayo","urban":"Walet","postal_code":99571},{"province":"Papua","city":"Yahukimo","district":"Ukha","urban":"Walialema","postal_code":99571},{"province":"Papua","city":"Yahukimo","district":"Amuma","urban":"Waeklek","postal_code":99571},{"province":"Papua","city":"Yahukimo","district":"Mugi","urban":"Userem","postal_code":99571},{"province":"Papua","city":"Yahukimo","district":"Kurima","urban":"Wakunyama","postal_code":99571},{"province":"Papua","city":"Yahukimo","district":"Musaik","urban":"Usaregeik (Usaragek)","postal_code":99571},{"province":"Papua","city":"Yahukimo","district":"Ukha","urban":"Ukha","postal_code":99571},{"province":"Papua","city":"Yahukimo","district":"Obio","urban":"Ujin","postal_code":99571},{"province":"Papua","city":"Yahukimo","district":"Soba","urban":"Ugulintipmu","postal_code":99571},{"province":"Papua","city":"Yahukimo","district":"Mugi","urban":"Ugem","postal_code":99571},{"province":"Papua","city":"Yahukimo","district":"Kayo","urban":"Uase","postal_code":99571},{"province":"Papua","city":"Yahukimo","district":"Kurima","urban":"Tukuarek","postal_code":99571},{"province":"Papua","city":"Yahukimo","district":"Sumo","urban":"Uam","postal_code":99571},{"province":"Papua","city":"Yahukimo","district":"Dekai","urban":"Toman I","postal_code":99571},{"province":"Papua","city":"Yahukimo","district":"Dekai","urban":"Toman II","postal_code":99571},{"province":"Papua","city":"Yahukimo","district":"Amuma","urban":"Tolikapura (Talikapura)","postal_code":99571},{"province":"Papua","city":"Yahukimo","district":"Seredela (Seredala)","urban":"Tokuni","postal_code":99571},{"province":"Papua","city":"Yahukimo","district":"Mugi","urban":"Togoluk","postal_code":99571},{"province":"Papua","city":"Yahukimo","district":"Seredela (Seredala)","urban":"Teret","postal_code":99571},{"province":"Papua","city":"Yahukimo","district":"Soba","urban":"Tanda","postal_code":99571},{"province":"Papua","city":"Yahukimo","district":"Tangma","urban":"Tangma","postal_code":99571},{"province":"Papua","city":"Yahukimo","district":"Soba","urban":"Surukmu","postal_code":99571},{"province":"Papua","city":"Yahukimo","district":"Wusuma","urban":"Suok","postal_code":99571},{"province":"Papua","city":"Yahukimo","district":"Silimo","urban":"Suok","postal_code":99571},{"province":"Papua","city":"Yahukimo","district":"Sumo","urban":"Sumo","postal_code":99571},{"province":"Papua","city":"Yahukimo","district":"Musaik","urban":"Sumegen","postal_code":99571},{"province":"Papua","city":"Yahukimo","district":"Musaik","urban":"Sumegen","postal_code":99571},{"province":"Papua","city":"Yahukimo","district":"Werima","urban":"Suesi","postal_code":99571},{"province":"Papua","city":"Yahukimo","district":"Silimo","urban":"Suet","postal_code":99571},{"province":"Papua","city":"Yahukimo","district":"Wusuma","urban":"Sowaling","postal_code":99571},{"province":"Papua","city":"Yahukimo","district":"Hogio (Hugio)","urban":"Subsal","postal_code":99571},{"province":"Papua","city":"Yahukimo","district":"Dekai","urban":"Sokamu","postal_code":99571},{"province":"Papua","city":"Yahukimo","district":"Kurima","urban":"Soroh","postal_code":99571},{"province":"Papua","city":"Yahukimo","district":"Suru Suru","urban":"Solok","postal_code":99571},{"province":"Papua","city":"Yahukimo","district":"Silimo","urban":"Sodule","postal_code":99571},{"province":"Papua","city":"Yahukimo","district":"Yogosem","urban":"Sogasio","postal_code":99571},{"province":"Papua","city":"Yahukimo","district":"Soba","urban":"Soba","postal_code":99571},{"province":"Papua","city":"Yahukimo","district":"Hogio (Hugio)","urban":"Sipnidipmu","postal_code":99571},{"province":"Papua","city":"Yahukimo","district":"Tangma","urban":"Simeka","postal_code":99571},{"province":"Papua","city":"Yahukimo","district":"Ukha","urban":"Siolorema","postal_code":99571},{"province":"Papua","city":"Yahukimo","district":"Amuma","urban":"Silorin","postal_code":99571},{"province":"Papua","city":"Yahukimo","district":"Silimo","urban":"Silimo","postal_code":99571},{"province":"Papua","city":"Yahukimo","district":"Silimo","urban":"Siloma","postal_code":99571},{"province":"Papua","city":"Yahukimo","district":"Silimo","urban":"Silon","postal_code":99571},{"province":"Papua","city":"Yahukimo","district":"Suru Suru","urban":"Senipan","postal_code":99571},{"province":"Papua","city":"Yahukimo","district":"Silimo","urban":"Sianele","postal_code":99571},{"province":"Papua","city":"Yahukimo","district":"Seredela (Seredala)","urban":"Seredela","postal_code":99571},{"province":"Papua","city":"Yahukimo","district":"Hogio (Hugio)","urban":"Sengsenagaik","postal_code":99571},{"province":"Papua","city":"Yahukimo","district":"Pasema","urban":"Sengangge","postal_code":99571},{"province":"Papua","city":"Yahukimo","district":"Mugi","urban":"Seima","postal_code":99571},{"province":"Papua","city":"Yahukimo","district":"Kona","urban":"Seklak","postal_code":99571},{"province":"Papua","city":"Yahukimo","district":"Kayo","urban":"Sebu","postal_code":99571},{"province":"Papua","city":"Yahukimo","district":"Silimo","urban":"Sebin","postal_code":99571},{"province":"Papua","city":"Yahukimo","district":"Wusuma","urban":"Sangatur","postal_code":99571},{"province":"Papua","city":"Yahukimo","district":"Amuma","urban":"Sarmuge","postal_code":99571},{"province":"Papua","city":"Yahukimo","district":"Seredela (Seredala)","urban":"Samboga","postal_code":99571},{"province":"Papua","city":"Yahukimo","district":"Samenage","urban":"Samenage","postal_code":99571},{"province":"Papua","city":"Yahukimo","district":"Amuma","urban":"Sagasal","postal_code":99571},{"province":"Papua","city":"Yahukimo","district":"Yogosem","urban":"Saikama","postal_code":99571},{"province":"Papua","city":"Yahukimo","district":"Suru Suru","urban":"Rentis","postal_code":99571},{"province":"Papua","city":"Yahukimo","district":"Silimo","urban":"Sagaduk","postal_code":99571},{"province":"Papua","city":"Yahukimo","district":"Wusuma","urban":"Sabin","postal_code":99571},{"province":"Papua","city":"Yahukimo","district":"Kurima","urban":"Pusuaga","postal_code":99571},{"province":"Papua","city":"Yahukimo","district":"Pasema","urban":"Pupi","postal_code":99571},{"province":"Papua","city":"Yahukimo","district":"Tangma","urban":"Punno","postal_code":99571},{"province":"Papua","city":"Yahukimo","district":"Obio","urban":"Pugun","postal_code":99571},{"province":"Papua","city":"Yahukimo","district":"Samenage","urban":"Pona","postal_code":99571},{"province":"Papua","city":"Yahukimo","district":"Amuma","urban":"Plau","postal_code":99571},{"province":"Papua","city":"Yahukimo","district":"Silimo","urban":"Pinda","postal_code":99571},{"province":"Papua","city":"Yahukimo","district":"Obio","urban":"Patin","postal_code":99571},{"province":"Papua","city":"Yahukimo","district":"Obio","urban":"Penigik","postal_code":99571},{"province":"Papua","city":"Yahukimo","district":"Pasema","urban":"Pasema","postal_code":99571},{"province":"Papua","city":"Yahukimo","district":"Mugi","urban":"Panyoke","postal_code":99571},{"province":"Papua","city":"Yahukimo","district":"Kurima","urban":"Parela","postal_code":99571},{"province":"Papua","city":"Yahukimo","district":"Amuma","urban":"Orugai","postal_code":99571},{"province":"Papua","city":"Yahukimo","district":"Mugi","urban":"Olomisang","postal_code":99571},{"province":"Papua","city":"Yahukimo","district":"Hogio (Hugio)","urban":"Paima","postal_code":99571},{"province":"Papua","city":"Yahukimo","district":"Kurima","urban":"Obolma","postal_code":99571},{"province":"Papua","city":"Yahukimo","district":"Sumo","urban":"Obokain","postal_code":99571},{"province":"Papua","city":"Yahukimo","district":"Samenage","urban":"Notnarek","postal_code":99571},{"province":"Papua","city":"Yahukimo","district":"Mugi","urban":"Nyikinen","postal_code":99571},{"province":"Papua","city":"Yahukimo","district":"Obio","urban":"Obio","postal_code":99571},{"province":"Papua","city":"Yahukimo","district":"Werima","urban":"Nesuwen","postal_code":99571},{"province":"Papua","city":"Yahukimo","district":"Soba","urban":"Nilen","postal_code":99571},{"province":"Papua","city":"Yahukimo","district":"Ukha","urban":"Musanarek","postal_code":99571},{"province":"Papua","city":"Yahukimo","district":"Silimo","urban":"Nekilei","postal_code":99571},{"province":"Papua","city":"Yahukimo","district":"Obio","urban":"Munu","postal_code":99571},{"province":"Papua","city":"Yahukimo","district":"Wusuma","urban":"Mul","postal_code":99571},{"province":"Papua","city":"Yahukimo","district":"Samenage","urban":"Muke","postal_code":99571},{"province":"Papua","city":"Yahukimo","district":"Sumo","urban":"Muara Balim","postal_code":99571},{"province":"Papua","city":"Yahukimo","district":"Wusuma","urban":"Mugi (Mogi)","postal_code":99571},{"province":"Papua","city":"Yahukimo","district":"Dekai","urban":"Muara","postal_code":99571},{"province":"Papua","city":"Yahukimo","district":"Seredela (Seredala)","urban":"Moruf","postal_code":99571},{"province":"Papua","city":"Yahukimo","district":"Seredela (Seredala)","urban":"Mosomduba","postal_code":99571},{"province":"Papua","city":"Yahukimo","district":"Kayo","urban":"Molama","postal_code":99571},{"province":"Papua","city":"Yahukimo","district":"Silimo","urban":"Momnowok (Momnowak)","postal_code":99571},{"province":"Papua","city":"Yahukimo","district":"Dekai","urban":"Massi","postal_code":99571},{"province":"Papua","city":"Yahukimo","district":"Yogosem","urban":"Mesahaput","postal_code":99571},{"province":"Papua","city":"Yahukimo","district":"Dekai","urban":"Maruku","postal_code":99571},{"province":"Papua","city":"Yahukimo","district":"Mugi","urban":"Lugulmu","postal_code":99571},{"province":"Papua","city":"Yahukimo","district":"Kurima","urban":"Lukulema","postal_code":99571},{"province":"Papua","city":"Yahukimo","district":"Sumo","urban":"Maku","postal_code":99571},{"province":"Papua","city":"Yahukimo","district":"Ukha","urban":"Lua","postal_code":99571},{"province":"Papua","city":"Yahukimo","district":"Werima","urban":"Luarima","postal_code":99571},{"province":"Papua","city":"Yahukimo","district":"Musaik","urban":"Lidipmu","postal_code":99571},{"province":"Papua","city":"Yahukimo","district":"Pasema","urban":"Lowet","postal_code":99571},{"province":"Papua","city":"Yahukimo","district":"Werima","urban":"Lokon","postal_code":99571},{"province":"Papua","city":"Yahukimo","district":"Pasema","urban":"Lemoko","postal_code":99571},{"province":"Papua","city":"Yahukimo","district":"Werima","urban":"Libuk","postal_code":99571},{"province":"Papua","city":"Yahukimo","district":"Hogio (Hugio)","urban":"Leleak","postal_code":99571},{"province":"Papua","city":"Yahukimo","district":"Obio","urban":"Kwakenoro","postal_code":99571},{"province":"Papua","city":"Yahukimo","district":"Sumo","urban":"Kwiriside","postal_code":99571},{"province":"Papua","city":"Yahukimo","district":"Ukha","urban":"Kuleken","postal_code":99571},{"province":"Papua","city":"Yahukimo","district":"Kona","urban":"Kugun","postal_code":99571},{"province":"Papua","city":"Yahukimo","district":"Dekai","urban":"Kuari","postal_code":99571},{"province":"Papua","city":"Yahukimo","district":"Dekai","urban":"Kuaserama","postal_code":99571},{"province":"Papua","city":"Yahukimo","district":"Mugi","urban":"Kosihun","postal_code":99571},{"province":"Papua","city":"Yahukimo","district":"Seredela (Seredala)","urban":"Koper","postal_code":99571},{"province":"Papua","city":"Yahukimo","district":"Wusuma","urban":"Kolodoma","postal_code":99571},{"province":"Papua","city":"Yahukimo","district":"Dekai","urban":"Kokamu","postal_code":99571},{"province":"Papua","city":"Yahukimo","district":"Yogosem","urban":"Kiroma","postal_code":99571},{"province":"Papua","city":"Yahukimo","district":"Dekai","urban":"Kiribun","postal_code":99571},{"province":"Papua","city":"Yahukimo","district":"Amuma","urban":"Kinika","postal_code":99571},{"province":"Papua","city":"Yahukimo","district":"Kurima","urban":"Kilise","postal_code":99571},{"province":"Papua","city":"Yahukimo","district":"Kurima","urban":"Kima","postal_code":99571},{"province":"Papua","city":"Yahukimo","district":"Kona","urban":"Kalpok","postal_code":99571},{"province":"Papua","city":"Yahukimo","district":"Kayo","urban":"Kayo","postal_code":99571},{"province":"Papua","city":"Yahukimo","district":"Dekai","urban":"Keikey","postal_code":99571},{"province":"Papua","city":"Yahukimo","district":"Suru Suru","urban":"Jinusugu","postal_code":99571},{"province":"Papua","city":"Yahukimo","district":"Obio","urban":"Jibak","postal_code":99571},{"province":"Papua","city":"Yahukimo","district":"Sumo","urban":"Jibuk","postal_code":99571},{"province":"Papua","city":"Yahukimo","district":"Mugi","urban":"Itlay Wopi","postal_code":99571},{"province":"Papua","city":"Yahukimo","district":"Samenage","urban":"Ison","postal_code":99571},{"province":"Papua","city":"Yahukimo","district":"Mugi","urban":"Ilokomo","postal_code":99571},{"province":"Papua","city":"Yahukimo","district":"Kurima","urban":"Ibiroma","postal_code":99571},{"province":"Papua","city":"Yahukimo","district":"Sumo","urban":"Hunisi","postal_code":99571},{"province":"Papua","city":"Yahukimo","district":"Silimo","urban":"Hwesalemo","postal_code":99571},{"province":"Papua","city":"Yahukimo","district":"Kurima","urban":"Huluagaima","postal_code":99571},{"province":"Papua","city":"Yahukimo","district":"Mugi","urban":"Hunenima","postal_code":99571},{"province":"Papua","city":"Yahukimo","district":"Kurima","urban":"Huken","postal_code":99571},{"province":"Papua","city":"Yahukimo","district":"Mugi","urban":"Hulesi","postal_code":99571},{"province":"Papua","city":"Yahukimo","district":"Kurima","urban":"Huguma","postal_code":99571},{"province":"Papua","city":"Yahukimo","district":"Samenage","urban":"Hugilokon","postal_code":99571},{"province":"Papua","city":"Yahukimo","district":"Kurima","urban":"Huglot","postal_code":99571},{"province":"Papua","city":"Yahukimo","district":"Tangma","urban":"Huewi","postal_code":99571},{"province":"Papua","city":"Yahukimo","district":"Obio","urban":"Homhom","postal_code":99571},{"province":"Papua","city":"Yahukimo","district":"Yogosem","urban":"Hokolekma","postal_code":99571},{"province":"Papua","city":"Yahukimo","district":"Kayo","urban":"Hombesaloma","postal_code":99571},{"province":"Papua","city":"Yahukimo","district":"Hogio (Hugio)","urban":"Hogio Satu / I","postal_code":99571},{"province":"Papua","city":"Yahukimo","district":"Samenage","urban":"Hirin","postal_code":99571},{"province":"Papua","city":"Yahukimo","district":"Hogio (Hugio)","urban":"Hogio Dua / II","postal_code":99571},{"province":"Papua","city":"Yahukimo","district":"Kurima","urban":"Hihundes","postal_code":99571},{"province":"Papua","city":"Yahukimo","district":"Tangma","urban":"Hipela","postal_code":99571},{"province":"Papua","city":"Yahukimo","district":"Werima","urban":"Hesmat","postal_code":99571},{"province":"Papua","city":"Yahukimo","district":"Kurima","urban":"Hesmat","postal_code":99571},{"province":"Papua","city":"Yahukimo","district":"Mugi","urban":"Herawe","postal_code":99571},{"province":"Papua","city":"Yahukimo","district":"Soba","urban":"Hepinis","postal_code":99571},{"province":"Papua","city":"Yahukimo","district":"Werima","urban":"Hepia","postal_code":99571},{"province":"Papua","city":"Yahukimo","district":"Musaik","urban":"Hendikma","postal_code":99571},{"province":"Papua","city":"Yahukimo","district":"Mugi","urban":"Hendag","postal_code":99571},{"province":"Papua","city":"Yahukimo","district":"Wusuma","urban":"Harap","postal_code":99571},{"province":"Papua","city":"Yahukimo","district":"Amuma","urban":"Harapan","postal_code":99571},{"province":"Papua","city":"Yahukimo","district":"Tangma","urban":"Helo","postal_code":99571},{"province":"Papua","city":"Yahukimo","district":"Werima","urban":"Hanoasuok","postal_code":99571},{"province":"Papua","city":"Yahukimo","district":"Musaik","urban":"Haletuk","postal_code":99571},{"province":"Papua","city":"Yahukimo","district":"Samenage","urban":"Haleroma","postal_code":99571},{"province":"Papua","city":"Yahukimo","district":"Werima","urban":"Hagawen","postal_code":99571},{"province":"Papua","city":"Yahukimo","district":"Suru Suru","urban":"Gofa","postal_code":99571},{"province":"Papua","city":"Yahukimo","district":"Amuma","urban":"Golowen","postal_code":99571},{"province":"Papua","city":"Yahukimo","district":"Silimo","urban":"Fabe","postal_code":99571},{"province":"Papua","city":"Yahukimo","district":"Werima","urban":"Esema Husage","postal_code":99571},{"province":"Papua","city":"Yahukimo","district":"Kurima","urban":"Esalien","postal_code":99571},{"province":"Papua","city":"Yahukimo","district":"Musaik","urban":"Esaikma","postal_code":99571},{"province":"Papua","city":"Yahukimo","district":"Yogosem","urban":"Esahapuk","postal_code":99571},{"province":"Papua","city":"Yahukimo","district":"Kurima","urban":"Eroma","postal_code":99571},{"province":"Papua","city":"Yahukimo","district":"Silimo","urban":"Eksa","postal_code":99571},{"province":"Papua","city":"Yahukimo","district":"Silimo","urban":"Eremnahom","postal_code":99571},{"province":"Papua","city":"Yahukimo","district":"Ukha","urban":"Eki","postal_code":99571},{"province":"Papua","city":"Yahukimo","district":"Hogio (Hugio)","urban":"Dugumhad","postal_code":99571},{"province":"Papua","city":"Yahukimo","district":"Musaik","urban":"Dekbok","postal_code":99571},{"province":"Papua","city":"Yahukimo","district":"Dekai","urban":"Dekai","postal_code":99571},{"province":"Papua","city":"Yahukimo","district":"Obio","urban":"Busupa","postal_code":99571},{"province":"Papua","city":"Yahukimo","district":"Seredela (Seredala)","urban":"Burupmakot","postal_code":99571},{"province":"Papua","city":"Yahukimo","district":"Sumo","urban":"Boor","postal_code":99571},{"province":"Papua","city":"Yahukimo","district":"Musaik","urban":"Bue","postal_code":99571},{"province":"Papua","city":"Yahukimo","district":"Amuma","urban":"Balum Erang","postal_code":99571},{"province":"Papua","city":"Yahukimo","district":"Samenage","urban":"Asotapo","postal_code":99571},{"province":"Papua","city":"Yahukimo","district":"Silimo","urban":"Asia","postal_code":99571},{"province":"Papua","city":"Yahukimo","district":"Wusuma","urban":"Apdagma (Apdakma)","postal_code":99571},{"province":"Papua","city":"Yahukimo","district":"Kurima","urban":"Anjelma","postal_code":99571},{"province":"Papua","city":"Yahukimo","district":"Amuma","urban":"Amuma","postal_code":99571},{"province":"Papua","city":"Yahukimo","district":"Ukha","urban":"Amisangi","postal_code":99571},{"province":"Papua","city":"Yahukimo","district":"Kayo","urban":"Alhai","postal_code":99571},{"province":"Papua","city":"Yahukimo","district":"Kurima","urban":"Air Garam","postal_code":99571},{"province":"Papua","city":"Yahukimo","district":"Tangma","urban":"Aleleng","postal_code":99571}]