[{"province":"Papua","city":"Pegunungan Bintang","district":"Awinbon","urban":"Yelobib","postal_code":99575},{"province":"Papua","city":"Pegunungan Bintang","district":"Kawor","urban":"Umding","postal_code":99575},{"province":"Papua","city":"Pegunungan Bintang","district":"Iwur (Okiwur)","urban":"Ulkubi","postal_code":99575},{"province":"Papua","city":"Pegunungan Bintang","district":"Iwur (Okiwur)","urban":"Walapkubun","postal_code":99575},{"province":"Papua","city":"Pegunungan Bintang","district":"Kawor","urban":"Tarngop","postal_code":99575},{"province":"Papua","city":"Pegunungan Bintang","district":"Tarup","urban":"Tarup","postal_code":99575},{"province":"Papua","city":"Pegunungan Bintang","district":"Tarup","urban":"Onkor","postal_code":99575},{"province":"Papua","city":"Pegunungan Bintang","district":"Kawor","urban":"Sakup","postal_code":99575},{"province":"Papua","city":"Pegunungan Bintang","district":"Iwur (Okiwur)","urban":"Narnger","postal_code":99575},{"province":"Papua","city":"Pegunungan Bintang","district":"Iwur (Okiwur)","urban":"Nenginum","postal_code":99575},{"province":"Papua","city":"Pegunungan Bintang","district":"Tarup","urban":"Omor","postal_code":99575},{"province":"Papua","city":"Pegunungan Bintang","district":"Awinbon","urban":"Mikir","postal_code":99575},{"province":"Papua","city":"Pegunungan Bintang","district":"Awinbon","urban":"Nanum Anaip","postal_code":99575},{"province":"Papua","city":"Pegunungan Bintang","district":"Kawor","urban":"Nanum","postal_code":99575},{"province":"Papua","city":"Pegunungan Bintang","district":"Iwur (Okiwur)","urban":"Kurukim (Kurumkim/Kurumklin)","postal_code":99575},{"province":"Papua","city":"Pegunungan Bintang","district":"Tarup","urban":"Marang Tiking","postal_code":99575},{"province":"Papua","city":"Pegunungan Bintang","district":"Iwur (Okiwur)","urban":"Kamyoim","postal_code":99575},{"province":"Papua","city":"Pegunungan Bintang","district":"Iwur (Okiwur)","urban":"Kamyoim","postal_code":99575},{"province":"Papua","city":"Pegunungan Bintang","district":"Awinbon","urban":"Kawe","postal_code":99575},{"province":"Papua","city":"Pegunungan Bintang","district":"Tarup","urban":"Imsin","postal_code":99575},{"province":"Papua","city":"Pegunungan Bintang","district":"Iwur (Okiwur)","urban":"Ewenkatop","postal_code":99575},{"province":"Papua","city":"Pegunungan Bintang","district":"Iwur (Okiwur)","urban":"Iwur","postal_code":99575},{"province":"Papua","city":"Pegunungan Bintang","district":"Iwur (Okiwur)","urban":"Dinmot Arim","postal_code":99575},{"province":"Papua","city":"Pegunungan Bintang","district":"Iwur (Okiwur)","urban":"Dipol","postal_code":99575},{"province":"Papua","city":"Pegunungan Bintang","district":"Tarup","urban":"Bitipding","postal_code":99575},{"province":"Papua","city":"Pegunungan Bintang","district":"Tarup","urban":"Beten Dua","postal_code":99575},{"province":"Papua","city":"Pegunungan Bintang","district":"Awinbon","urban":"Awinbon","postal_code":99575},{"province":"Papua","city":"Pegunungan Bintang","district":"Kawor","urban":"Arintap","postal_code":99575},{"province":"Papua","city":"Pegunungan Bintang","district":"Kawor","urban":"Ater","postal_code":99575}]