[{"province":"Papua","city":"Pegunungan Bintang","district":"Kiwirok Timur","urban":"Wantem (Wanten)","postal_code":99574},{"province":"Papua","city":"Pegunungan Bintang","district":"Oksamol","urban":"Tinibil","postal_code":99574},{"province":"Papua","city":"Pegunungan Bintang","district":"Oksamol","urban":"Tomka","postal_code":99574},{"province":"Papua","city":"Pegunungan Bintang","district":"Kiwirok Timur","urban":"Tatam","postal_code":99574},{"province":"Papua","city":"Pegunungan Bintang","district":"Okhika","urban":"Tengnong","postal_code":99574},{"province":"Papua","city":"Pegunungan Bintang","district":"Oksebang","urban":"Sebul","postal_code":99574},{"province":"Papua","city":"Pegunungan Bintang","district":"Kiwirok","urban":"Pomding","postal_code":99574},{"province":"Papua","city":"Pegunungan Bintang","district":"Kiwirok","urban":"Sopamikma","postal_code":99574},{"province":"Papua","city":"Pegunungan Bintang","district":"Oksamol","urban":"Paune","postal_code":99574},{"province":"Papua","city":"Pegunungan Bintang","district":"Kiwirok Timur","urban":"Okyop (Okyob/Okyaop)","postal_code":99574},{"province":"Papua","city":"Pegunungan Bintang","district":"Kiwirok","urban":"Pelebib","postal_code":99574},{"province":"Papua","city":"Pegunungan Bintang","district":"Kiwirok Timur","urban":"Okyako","postal_code":99574},{"province":"Papua","city":"Pegunungan Bintang","district":"Kiwirok Timur","urban":"Okyaop","postal_code":99574},{"province":"Papua","city":"Pegunungan Bintang","district":"Oklip","urban":"Oktumi","postal_code":99574},{"province":"Papua","city":"Pegunungan Bintang","district":"Okhika","urban":"Okteneng","postal_code":99574},{"province":"Papua","city":"Pegunungan Bintang","district":"Oklip","urban":"Oktem","postal_code":99574},{"province":"Papua","city":"Pegunungan Bintang","district":"Okbemtau","urban":"Oktau","postal_code":99574},{"province":"Papua","city":"Pegunungan Bintang","district":"Oksamol","urban":"Oktae","postal_code":99574},{"province":"Papua","city":"Pegunungan Bintang","district":"Okbemtau","urban":"Oktaru","postal_code":99574},{"province":"Papua","city":"Pegunungan Bintang","district":"Oksamol","urban":"Okpa","postal_code":99574},{"province":"Papua","city":"Pegunungan Bintang","district":"Okbemtau","urban":"Okngam","postal_code":99574},{"province":"Papua","city":"Pegunungan Bintang","district":"Kiwirok","urban":"Oknanggul","postal_code":99574},{"province":"Papua","city":"Pegunungan Bintang","district":"Oksamol","urban":"Okma","postal_code":99574},{"province":"Papua","city":"Pegunungan Bintang","district":"Oklip","urban":"Oklip","postal_code":99574},{"province":"Papua","city":"Pegunungan Bintang","district":"Oklip","urban":"Okhim","postal_code":99574},{"province":"Papua","city":"Pegunungan Bintang","district":"Kiwirok Timur","urban":"Okhik (Oklip)","postal_code":99574},{"province":"Papua","city":"Pegunungan Bintang","district":"Oksamol","urban":"Okhaka","postal_code":99574},{"province":"Papua","city":"Pegunungan Bintang","district":"Okhika","urban":"Okelwel","postal_code":99574},{"province":"Papua","city":"Pegunungan Bintang","district":"Kiwirok Timur","urban":"Oketur","postal_code":99574},{"province":"Papua","city":"Pegunungan Bintang","district":"Oksamol","urban":"Okdilam","postal_code":99574},{"province":"Papua","city":"Pegunungan Bintang","district":"Oksamol","urban":"Okdunam","postal_code":99574},{"province":"Papua","city":"Pegunungan Bintang","district":"Oklip","urban":"Okbumul","postal_code":99574},{"province":"Papua","city":"Pegunungan Bintang","district":"Okbemtau","urban":"Okbem","postal_code":99574},{"province":"Papua","city":"Pegunungan Bintang","district":"Oksebang","urban":"Okano","postal_code":99574},{"province":"Papua","city":"Pegunungan Bintang","district":"Oklip","urban":"Okamin","postal_code":99574},{"province":"Papua","city":"Pegunungan Bintang","district":"Okbemtau","urban":"Okalut Kumal","postal_code":99574},{"province":"Papua","city":"Pegunungan Bintang","district":"Oksebang","urban":"Mangabip","postal_code":99574},{"province":"Papua","city":"Pegunungan Bintang","district":"Kiwirok","urban":"Mangoldoki","postal_code":99574},{"province":"Papua","city":"Pegunungan Bintang","district":"Kiwirok","urban":"Kukihil","postal_code":99574},{"province":"Papua","city":"Pegunungan Bintang","district":"Oksebang","urban":"Kubiphkop (Kubibkop)","postal_code":99574},{"province":"Papua","city":"Pegunungan Bintang","district":"Kiwirok","urban":"Lolim","postal_code":99574},{"province":"Papua","city":"Pegunungan Bintang","district":"Okhika","urban":"Kotyobakon","postal_code":99574},{"province":"Papua","city":"Pegunungan Bintang","district":"Oklip","urban":"Komok","postal_code":99574},{"province":"Papua","city":"Pegunungan Bintang","district":"Okbemtau","urban":"Kaep","postal_code":99574},{"province":"Papua","city":"Pegunungan Bintang","district":"Kiwirok","urban":"Kiwi","postal_code":99574},{"province":"Papua","city":"Pegunungan Bintang","district":"Kiwirok Timur","urban":"Ehiptem (Ehipten/Ohiptem)","postal_code":99574},{"province":"Papua","city":"Pegunungan Bintang","district":"Oksamol","urban":"Honkuding","postal_code":99574},{"province":"Papua","city":"Pegunungan Bintang","district":"Kiwirok Timur","urban":"Dikdon","postal_code":99574},{"province":"Papua","city":"Pegunungan Bintang","district":"Kiwirok","urban":"Diip","postal_code":99574},{"province":"Papua","city":"Pegunungan Bintang","district":"Okbemtau","urban":"Bilip Bayo","postal_code":99574},{"province":"Papua","city":"Pegunungan Bintang","district":"Kiwirok","urban":"Delpem","postal_code":99574},{"province":"Papua","city":"Pegunungan Bintang","district":"Oksamol","urban":"Bomding","postal_code":99574},{"province":"Papua","city":"Pegunungan Bintang","district":"Okbemtau","urban":"Bemhimiku","postal_code":99574},{"province":"Papua","city":"Pegunungan Bintang","district":"Kiwirok","urban":"Berusaha","postal_code":99574},{"province":"Papua","city":"Pegunungan Bintang","district":"Oksamol","urban":"Autpahik","postal_code":99574},{"province":"Papua","city":"Pegunungan Bintang","district":"Okbemtau","urban":"Atang Doki","postal_code":99574},{"province":"Papua","city":"Pegunungan Bintang","district":"Kiwirok","urban":"Asua","postal_code":99574}]