[{"province":"Papua","city":"Pegunungan Bintang","district":"Teiraplu","urban":"Yuaban Satu","postal_code":99572},{"province":"Papua","city":"Pegunungan Bintang","district":"Teiraplu","urban":"Yitarget","postal_code":99572},{"province":"Papua","city":"Pegunungan Bintang","district":"Teiraplu","urban":"Yuaban Dua","postal_code":99572},{"province":"Papua","city":"Pegunungan Bintang","district":"Okbab","urban":"Yapil","postal_code":99572},{"province":"Papua","city":"Pegunungan Bintang","district":"Okbab","urban":"Tupoplyom","postal_code":99572},{"province":"Papua","city":"Pegunungan Bintang","district":"Aboy","urban":"Woro","postal_code":99572},{"province":"Papua","city":"Pegunungan Bintang","district":"Teiraplu","urban":"Teriame","postal_code":99572},{"province":"Papua","city":"Pegunungan Bintang","district":"Jetfa","urban":"Tupalma Dua","postal_code":99572},{"province":"Papua","city":"Pegunungan Bintang","district":"Jetfa","urban":"Tupalma Satu","postal_code":99572},{"province":"Papua","city":"Pegunungan Bintang","district":"Teiraplu","urban":"Teiraplu","postal_code":99572},{"province":"Papua","city":"Pegunungan Bintang","district":"Teiraplu","urban":"Terapdei","postal_code":99572},{"province":"Papua","city":"Pegunungan Bintang","district":"Okbab","urban":"Sabin","postal_code":99572},{"province":"Papua","city":"Pegunungan Bintang","district":"Aboy","urban":"Pipal","postal_code":99572},{"province":"Papua","city":"Pegunungan Bintang","district":"Teiraplu","urban":"Sinami / Sinani (Yuaban)","postal_code":99572},{"province":"Papua","city":"Pegunungan Bintang","district":"Okbab","urban":"Pedam","postal_code":99572},{"province":"Papua","city":"Pegunungan Bintang","district":"Okbab","urban":"Peneli","postal_code":99572},{"province":"Papua","city":"Pegunungan Bintang","district":"Okbab","urban":"Omliom","postal_code":99572},{"province":"Papua","city":"Pegunungan Bintang","district":"Okbibab","urban":"Oksemar","postal_code":99572},{"province":"Papua","city":"Pegunungan Bintang","district":"Okbibab","urban":"Oktanglap","postal_code":99572},{"province":"Papua","city":"Pegunungan Bintang","district":"Okbibab","urban":"Okaplo","postal_code":99572},{"province":"Papua","city":"Pegunungan Bintang","district":"Okbibab","urban":"Okbifisil (Okbifisis)","postal_code":99572},{"province":"Papua","city":"Pegunungan Bintang","district":"Teiraplu","urban":"Murme","postal_code":99572},{"province":"Papua","city":"Pegunungan Bintang","district":"Okbibab","urban":"Manunggal (Okipur)","postal_code":99572},{"province":"Papua","city":"Pegunungan Bintang","district":"Okbab","urban":"Markom","postal_code":99572},{"province":"Papua","city":"Pegunungan Bintang","district":"Teiraplu","urban":"Maigame","postal_code":99572},{"province":"Papua","city":"Pegunungan Bintang","district":"Okbab","urban":"Maksum","postal_code":99572},{"province":"Papua","city":"Pegunungan Bintang","district":"Aboy","urban":"Luban","postal_code":99572},{"province":"Papua","city":"Pegunungan Bintang","district":"Aboy","urban":"Lulis Wii","postal_code":99572},{"province":"Papua","city":"Pegunungan Bintang","district":"Jetfa","urban":"Lulis","postal_code":99572},{"province":"Papua","city":"Pegunungan Bintang","district":"Okbab","urban":"Kirimu","postal_code":99572},{"province":"Papua","city":"Pegunungan Bintang","district":"Jetfa","urban":"Kalimbu","postal_code":99572},{"province":"Papua","city":"Pegunungan Bintang","district":"Jetfa","urban":"Jetfa","postal_code":99572},{"province":"Papua","city":"Pegunungan Bintang","district":"Aboy","urban":"Jubly","postal_code":99572},{"province":"Papua","city":"Pegunungan Bintang","district":"Okbab","urban":"Dumpasi","postal_code":99572},{"province":"Papua","city":"Pegunungan Bintang","district":"Okbibab","urban":"Iriding","postal_code":99572},{"province":"Papua","city":"Pegunungan Bintang","district":"Jetfa","urban":"Bris","postal_code":99572},{"province":"Papua","city":"Pegunungan Bintang","district":"Okbab","urban":"Borban","postal_code":99572},{"province":"Papua","city":"Pegunungan Bintang","district":"Teiraplu","urban":"Bautme","postal_code":99572},{"province":"Papua","city":"Pegunungan Bintang","district":"Okbibab","urban":"Atoldol (Atolbol)","postal_code":99572},{"province":"Papua","city":"Pegunungan Bintang","district":"Okbab","urban":"Atembabol","postal_code":99572},{"province":"Papua","city":"Pegunungan Bintang","district":"Aboy","urban":"Aboy","postal_code":99572},{"province":"Papua","city":"Pegunungan Bintang","district":"Aboy","urban":"Armise","postal_code":99572},{"province":"Papua","city":"Pegunungan Bintang","district":"Okbibab","urban":"Abmisibil (Apmisibil)","postal_code":99572}]