[{"province":"Papua","city":"Yahukimo","district":"Suntamon","urban":"Yup","postal_code":99578},{"province":"Papua","city":"Yahukimo","district":"Langda","urban":"Yolar","postal_code":99578},{"province":"Papua","city":"Yahukimo","district":"Hilipuk","urban":"Yaruhuk","postal_code":99578},{"province":"Papua","city":"Yahukimo","district":"Hilipuk","urban":"Yamin","postal_code":99578},{"province":"Papua","city":"Yahukimo","district":"Koropun (Korupun)","urban":"Yamdua","postal_code":99578},{"province":"Papua","city":"Yahukimo","district":"Bomela","urban":"Yalmabi","postal_code":99578},{"province":"Papua","city":"Yahukimo","district":"Sobaham","urban":"Yalisomon","postal_code":99578},{"province":"Papua","city":"Yahukimo","district":"Kwelemdua (Kwelamdua)","urban":"Yalidamon","postal_code":99578},{"province":"Papua","city":"Yahukimo","district":"Sobaham","urban":"Yabi (Jabi)","postal_code":99578},{"province":"Papua","city":"Yahukimo","district":"Holuon","urban":"Weni","postal_code":99578},{"province":"Papua","city":"Yahukimo","district":"Koropun (Korupun)","urban":"Wemin","postal_code":99578},{"province":"Papua","city":"Yahukimo","district":"Lolat","urban":"Webile","postal_code":99578},{"province":"Papua","city":"Yahukimo","district":"Soloikma","urban":"Weawen (Weanem)","postal_code":99578},{"province":"Papua","city":"Yahukimo","district":"Langda","urban":"Wasumurji","postal_code":99578},{"province":"Papua","city":"Yahukimo","district":"Lolat","urban":"Wanim","postal_code":99578},{"province":"Papua","city":"Yahukimo","district":"Ninia","urban":"Wahaik","postal_code":99578},{"province":"Papua","city":"Yahukimo","district":"Ninia","urban":"Waerek","postal_code":99578},{"province":"Papua","city":"Yahukimo","district":"Kwikma","urban":"Usabini","postal_code":99578},{"province":"Papua","city":"Yahukimo","district":"Suntamon","urban":"Tapasik","postal_code":99578},{"province":"Papua","city":"Yahukimo","district":"Yahuliambut","urban":"Tanggeam","postal_code":99578},{"province":"Papua","city":"Yahukimo","district":"Sela","urban":"Sulda","postal_code":99578},{"province":"Papua","city":"Yahukimo","district":"Suntamon","urban":"Suntamon","postal_code":99578},{"province":"Papua","city":"Yahukimo","district":"Yahuliambut","urban":"Suksale","postal_code":99578},{"province":"Papua","city":"Yahukimo","district":"Yahuliambut","urban":"Subundalek","postal_code":99578},{"province":"Papua","city":"Yahukimo","district":"Kabianggama (Kabianggema)","urban":"Subayo","postal_code":99578},{"province":"Papua","city":"Yahukimo","district":"Holuon","urban":"Sosi","postal_code":99578},{"province":"Papua","city":"Yahukimo","district":"Koropun (Korupun)","urban":"Somsek","postal_code":99578},{"province":"Papua","city":"Yahukimo","district":"Soloikma","urban":"Soline","postal_code":99578},{"province":"Papua","city":"Yahukimo","district":"Bomela","urban":"Sombat","postal_code":99578},{"province":"Papua","city":"Yahukimo","district":"Ninia","urban":"Sohwal","postal_code":99578},{"province":"Papua","city":"Yahukimo","district":"Holuon","urban":"Sohonggik","postal_code":99578},{"province":"Papua","city":"Yahukimo","district":"Kabianggama (Kabianggema)","urban":"Sohobma","postal_code":99578},{"province":"Papua","city":"Yahukimo","district":"Hilipuk","urban":"Sohondipmu","postal_code":99578},{"province":"Papua","city":"Yahukimo","district":"Kabianggama (Kabianggema)","urban":"Sohal","postal_code":99578},{"province":"Papua","city":"Yahukimo","district":"Sobaham","urban":"Sobaham","postal_code":99578},{"province":"Papua","city":"Yahukimo","district":"Kwikma","urban":"Soamrin","postal_code":99578},{"province":"Papua","city":"Yahukimo","district":"Soloikma","urban":"Singokla","postal_code":99578},{"province":"Papua","city":"Yahukimo","district":"Sobaham","urban":"Simbuk","postal_code":99578},{"province":"Papua","city":"Yahukimo","district":"Kwikma","urban":"Silakma","postal_code":99578},{"province":"Papua","city":"Yahukimo","district":"Sobaham","urban":"Silak Pahabol","postal_code":99578},{"province":"Papua","city":"Yahukimo","district":"Holuon","urban":"Sia","postal_code":99578},{"province":"Papua","city":"Yahukimo","district":"Kwelemdua (Kwelamdua)","urban":"Sesepne","postal_code":99578},{"province":"Papua","city":"Yahukimo","district":"Kwelemdua (Kwelamdua)","urban":"Senayom","postal_code":99578},{"province":"Papua","city":"Yahukimo","district":"Lolat","urban":"Serahak","postal_code":99578},{"province":"Papua","city":"Yahukimo","district":"Sobaham","urban":"Sele","postal_code":99578},{"province":"Papua","city":"Yahukimo","district":"Sela","urban":"Sela","postal_code":99578},{"province":"Papua","city":"Yahukimo","district":"Soloikma","urban":"Salbi","postal_code":99578},{"province":"Papua","city":"Yahukimo","district":"Sela","urban":"Phoy","postal_code":99578},{"province":"Papua","city":"Yahukimo","district":"Sobaham","urban":"Puahuun","postal_code":99578},{"province":"Papua","city":"Yahukimo","district":"Bomela","urban":"Palamdua","postal_code":99578},{"province":"Papua","city":"Yahukimo","district":"Sela","urban":"Orisin","postal_code":99578},{"province":"Papua","city":"Yahukimo","district":"Kwelemdua (Kwelamdua)","urban":"Obis","postal_code":99578},{"province":"Papua","city":"Yahukimo","district":"Kwikma","urban":"Oakbisik","postal_code":99578},{"province":"Papua","city":"Yahukimo","district":"Ninia","urban":"Ninia","postal_code":99578},{"province":"Papua","city":"Yahukimo","district":"Ninia","urban":"Niniahan","postal_code":99578},{"province":"Papua","city":"Yahukimo","district":"Koropun (Korupun)","urban":"Morome","postal_code":99578},{"province":"Papua","city":"Yahukimo","district":"Soloikma","urban":"Musan","postal_code":99578},{"province":"Papua","city":"Yahukimo","district":"Koropun (Korupun)","urban":"Moo","postal_code":99578},{"province":"Papua","city":"Yahukimo","district":"Kwikma","urban":"Monin","postal_code":99578},{"province":"Papua","city":"Yahukimo","district":"Sela","urban":"Monamna","postal_code":99578},{"province":"Papua","city":"Yahukimo","district":"Sela","urban":"Mondon","postal_code":99578},{"province":"Papua","city":"Yahukimo","district":"Kwikma","urban":"Momenggama","postal_code":99578},{"province":"Papua","city":"Yahukimo","district":"Sela","urban":"Mekdua","postal_code":99578},{"province":"Papua","city":"Yahukimo","district":"Suntamon","urban":"Masumkon","postal_code":99578},{"province":"Papua","city":"Yahukimo","district":"Koropun (Korupun)","urban":"Maldua","postal_code":99578},{"province":"Papua","city":"Yahukimo","district":"Sela","urban":"Megom (Megon)","postal_code":99578},{"province":"Papua","city":"Yahukimo","district":"Sela","urban":"Makero","postal_code":99578},{"province":"Papua","city":"Yahukimo","district":"Langda","urban":"Lukun","postal_code":99578},{"province":"Papua","city":"Yahukimo","district":"Lolat","urban":"Lolat","postal_code":99578},{"province":"Papua","city":"Yahukimo","district":"Yahuliambut","urban":"Linggisen","postal_code":99578},{"province":"Papua","city":"Yahukimo","district":"Ninia","urban":"Liligan","postal_code":99578},{"province":"Papua","city":"Yahukimo","district":"Ninia","urban":"Liligan II","postal_code":99578},{"province":"Papua","city":"Yahukimo","district":"Langda","urban":"Langda","postal_code":99578},{"province":"Papua","city":"Yahukimo","district":"Soloikma","urban":"Kwelena","postal_code":99578},{"province":"Papua","city":"Yahukimo","district":"Langda","urban":"Laryi","postal_code":99578},{"province":"Papua","city":"Yahukimo","district":"Kwelemdua (Kwelamdua)","urban":"Kwelemdua","postal_code":99578},{"province":"Papua","city":"Yahukimo","district":"Sobaham","urban":"Kulahaik","postal_code":99578},{"province":"Papua","city":"Yahukimo","district":"Bomela","urban":"Kubialat","postal_code":99578},{"province":"Papua","city":"Yahukimo","district":"Kwelemdua (Kwelamdua)","urban":"Kubuk Dua","postal_code":99578},{"province":"Papua","city":"Yahukimo","district":"Bomela","urban":"Kitikni","postal_code":99578},{"province":"Papua","city":"Yahukimo","district":"Koropun (Korupun)","urban":"Koropun (Korupun)","postal_code":99578},{"province":"Papua","city":"Yahukimo","district":"Langda","urban":"Kirabuk","postal_code":99578},{"province":"Papua","city":"Yahukimo","district":"Hilipuk","urban":"Kini","postal_code":99578},{"province":"Papua","city":"Yahukimo","district":"Kwikma","urban":"Kenkeni","postal_code":99578},{"province":"Papua","city":"Yahukimo","district":"Kwelemdua (Kwelamdua)","urban":"Kemligin","postal_code":99578},{"province":"Papua","city":"Yahukimo","district":"Kwikma","urban":"Karelma","postal_code":99578},{"province":"Papua","city":"Yahukimo","district":"Langda","urban":"Kap-Kap","postal_code":99578},{"province":"Papua","city":"Yahukimo","district":"Kwelemdua (Kwelamdua)","urban":"Kabulan","postal_code":99578},{"province":"Papua","city":"Yahukimo","district":"Ninia","urban":"Kahul","postal_code":99578},{"province":"Papua","city":"Yahukimo","district":"Kabianggama (Kabianggema)","urban":"Kabianggama","postal_code":99578},{"province":"Papua","city":"Yahukimo","district":"Ninia","urban":"Hwealoma","postal_code":99578},{"province":"Papua","city":"Yahukimo","district":"Kwikma","urban":"Husmo","postal_code":99578},{"province":"Papua","city":"Yahukimo","district":"Sobaham","urban":"Hubik","postal_code":99578},{"province":"Papua","city":"Yahukimo","district":"Sela","urban":"Horomon","postal_code":99578},{"province":"Papua","city":"Yahukimo","district":"Hilipuk","urban":"Homidipmu","postal_code":99578},{"province":"Papua","city":"Yahukimo","district":"Sela","urban":"Holdomen","postal_code":99578},{"province":"Papua","city":"Yahukimo","district":"Holuon","urban":"Holuwon (Holuon)","postal_code":99578},{"province":"Papua","city":"Yahukimo","district":"Hilipuk","urban":"Hilipuk","postal_code":99578},{"province":"Papua","city":"Yahukimo","district":"Sela","urban":"Hemuka","postal_code":99578},{"province":"Papua","city":"Yahukimo","district":"Sobaham","urban":"Hamik","postal_code":99578},{"province":"Papua","city":"Yahukimo","district":"Lolat","urban":"Esalek","postal_code":99578},{"province":"Papua","city":"Yahukimo","district":"Soloikma","urban":"Erim","postal_code":99578},{"province":"Papua","city":"Yahukimo","district":"Sela","urban":"Ejub","postal_code":99578},{"province":"Papua","city":"Yahukimo","district":"Kwikma","urban":"Enggelasue","postal_code":99578},{"province":"Papua","city":"Yahukimo","district":"Sela","urban":"Dolbol","postal_code":99578},{"province":"Papua","city":"Yahukimo","district":"Kabianggama (Kabianggema)","urban":"Domul","postal_code":99578},{"province":"Papua","city":"Yahukimo","district":"Sobaham","urban":"Dohong","postal_code":99578},{"province":"Papua","city":"Yahukimo","district":"Suntamon","urban":"Dirik","postal_code":99578},{"province":"Papua","city":"Yahukimo","district":"Lolat","urban":"Dinggila","postal_code":99578},{"province":"Papua","city":"Yahukimo","district":"Hilipuk","urban":"Dindok","postal_code":99578},{"province":"Papua","city":"Yahukimo","district":"Koropun (Korupun)","urban":"Dildau","postal_code":99578},{"province":"Papua","city":"Yahukimo","district":"Lolat","urban":"Denema","postal_code":99578},{"province":"Papua","city":"Yahukimo","district":"Kwelemdua (Kwelamdua)","urban":"Debula","postal_code":99578},{"province":"Papua","city":"Yahukimo","district":"Koropun (Korupun)","urban":"Dagi","postal_code":99578},{"province":"Papua","city":"Yahukimo","district":"Holuon","urban":"Danggema","postal_code":99578},{"province":"Papua","city":"Yahukimo","district":"Lolat","urban":"Bunde","postal_code":99578},{"province":"Papua","city":"Yahukimo","district":"Suntamon","urban":"Bulbul","postal_code":99578},{"province":"Papua","city":"Yahukimo","district":"Kabianggama (Kabianggema)","urban":"Buahun","postal_code":99578},{"province":"Papua","city":"Yahukimo","district":"Suntamon","urban":"Bongkok","postal_code":99578},{"province":"Papua","city":"Yahukimo","district":"Bomela","urban":"Bomela","postal_code":99578},{"province":"Papua","city":"Yahukimo","district":"Holuon","urban":"Bineleruk","postal_code":99578},{"province":"Papua","city":"Yahukimo","district":"Suntamon","urban":"Binalkon","postal_code":99578},{"province":"Papua","city":"Yahukimo","district":"Sela","urban":"Bera","postal_code":99578},{"province":"Papua","city":"Yahukimo","district":"Koropun (Korupun)","urban":"Batkuk","postal_code":99578},{"province":"Papua","city":"Yahukimo","district":"Sobaham","urban":"Benembia","postal_code":99578},{"province":"Papua","city":"Yahukimo","district":"Langda","urban":"Bebekle","postal_code":99578},{"province":"Papua","city":"Yahukimo","district":"Koropun (Korupun)","urban":"Basal","postal_code":99578},{"province":"Papua","city":"Yahukimo","district":"Soloikma","urban":"Banga","postal_code":99578},{"province":"Papua","city":"Yahukimo","district":"Kwelemdua (Kwelamdua)","urban":"Baluk","postal_code":99578},{"province":"Papua","city":"Yahukimo","district":"Sobaham","urban":"Balinggama","postal_code":99578},{"province":"Papua","city":"Yahukimo","district":"Kabianggama (Kabianggema)","urban":"Bahbolma","postal_code":99578},{"province":"Papua","city":"Yahukimo","district":"Ninia","urban":"Babet","postal_code":99578},{"province":"Papua","city":"Yahukimo","district":"Sela","urban":"Asok","postal_code":99578},{"province":"Papua","city":"Yahukimo","district":"Yahuliambut","urban":"Amfulma","postal_code":99578},{"province":"Papua","city":"Yahukimo","district":"Koropun (Korupun)","urban":"Amdua","postal_code":99578},{"province":"Papua","city":"Yahukimo","district":"Langda","urban":"Alirji","postal_code":99578}]