[{"province":"Papua","city":"Pegunungan Bintang","district":"Pamek","urban":"Yabosorom","postal_code":99577},{"province":"Papua","city":"Pegunungan Bintang","district":"Pamek","urban":"Yokul","postal_code":99577},{"province":"Papua","city":"Pegunungan Bintang","district":"Eipumek","urban":"Wakidam","postal_code":99577},{"province":"Papua","city":"Pegunungan Bintang","district":"Bime","urban":"Teli","postal_code":99577},{"province":"Papua","city":"Pegunungan Bintang","district":"Bime","urban":"Turwe","postal_code":99577},{"province":"Papua","city":"Pegunungan Bintang","district":"Eipumek","urban":"Tanime","postal_code":99577},{"province":"Papua","city":"Pegunungan Bintang","district":"Eipumek","urban":"Talemu","postal_code":99577},{"province":"Papua","city":"Pegunungan Bintang","district":"Eipumek","urban":"Supleyu","postal_code":99577},{"province":"Papua","city":"Pegunungan Bintang","district":"Eipumek","urban":"Serabum","postal_code":99577},{"province":"Papua","city":"Pegunungan Bintang","district":"Borme","urban":"Sikibur","postal_code":99577},{"province":"Papua","city":"Pegunungan Bintang","district":"Pamek","urban":"Pinggon","postal_code":99577},{"province":"Papua","city":"Pegunungan Bintang","district":"Borme","urban":"Seban","postal_code":99577},{"province":"Papua","city":"Pegunungan Bintang","district":"Pamek","urban":"Pamek","postal_code":99577},{"province":"Papua","city":"Pegunungan Bintang","district":"Borme","urban":"Onya","postal_code":99577},{"province":"Papua","city":"Pegunungan Bintang","district":"Bime","urban":"Perem","postal_code":99577},{"province":"Papua","city":"Pegunungan Bintang","district":"Eipumek","urban":"Mungkona","postal_code":99577},{"province":"Papua","city":"Pegunungan Bintang","district":"Borme","urban":"Omban","postal_code":99577},{"province":"Papua","city":"Pegunungan Bintang","district":"Pamek","urban":"Mandalak","postal_code":99577},{"province":"Papua","city":"Pegunungan Bintang","district":"Pamek","urban":"Marikla","postal_code":99577},{"province":"Papua","city":"Pegunungan Bintang","district":"Pamek","urban":"Lumdakna","postal_code":99577},{"province":"Papua","city":"Pegunungan Bintang","district":"Eipumek","urban":"Londinin","postal_code":99577},{"province":"Papua","city":"Pegunungan Bintang","district":"Eipumek","urban":"Malingdam","postal_code":99577},{"province":"Papua","city":"Pegunungan Bintang","district":"Bime","urban":"Lim Lim","postal_code":99577},{"province":"Papua","city":"Pegunungan Bintang","district":"Bime","urban":"Limiri","postal_code":99577},{"province":"Papua","city":"Pegunungan Bintang","district":"Eipumek","urban":"Lalakon","postal_code":99577},{"province":"Papua","city":"Pegunungan Bintang","district":"Borme","urban":"Laydamban","postal_code":99577},{"province":"Papua","city":"Pegunungan Bintang","district":"Eipumek","urban":"Kweredala","postal_code":99577},{"province":"Papua","city":"Pegunungan Bintang","district":"Borme","urban":"Kolgir","postal_code":99577},{"province":"Papua","city":"Pegunungan Bintang","district":"Borme","urban":"Kwime","postal_code":99577},{"province":"Papua","city":"Pegunungan Bintang","district":"Pamek","urban":"Kalek","postal_code":99577},{"province":"Papua","city":"Pegunungan Bintang","district":"Bime","urban":"Kameme","postal_code":99577},{"province":"Papua","city":"Pegunungan Bintang","district":"Pamek","urban":"Imde","postal_code":99577},{"province":"Papua","city":"Pegunungan Bintang","district":"Eipumek","urban":"Eipumek / Elpomek (Elpuna)","postal_code":99577},{"province":"Papua","city":"Pegunungan Bintang","district":"Borme","urban":"Cangdamban","postal_code":99577},{"province":"Papua","city":"Pegunungan Bintang","district":"Eipumek","urban":"Bunyirye","postal_code":99577},{"province":"Papua","city":"Pegunungan Bintang","district":"Bime","urban":"Bunggon","postal_code":99577},{"province":"Papua","city":"Pegunungan Bintang","district":"Bime","urban":"Calab","postal_code":99577},{"province":"Papua","city":"Pegunungan Bintang","district":"Borme","urban":"Borme","postal_code":99577},{"province":"Papua","city":"Pegunungan Bintang","district":"Borme","urban":"Bukam","postal_code":99577},{"province":"Papua","city":"Pegunungan Bintang","district":"Borme","urban":"Bordamban","postal_code":99577},{"province":"Papua","city":"Pegunungan Bintang","district":"Bime","urban":"Bob","postal_code":99577},{"province":"Papua","city":"Pegunungan Bintang","district":"Eipumek","urban":"Basiringe","postal_code":99577},{"province":"Papua","city":"Pegunungan Bintang","district":"Bime","urban":"Bime","postal_code":99577},{"province":"Papua","city":"Pegunungan Bintang","district":"Pamek","urban":"Baramirye","postal_code":99577},{"province":"Papua","city":"Pegunungan Bintang","district":"Pamek","urban":"Barice","postal_code":99577},{"province":"Papua","city":"Pegunungan Bintang","district":"Eipumek","urban":"Barama","postal_code":99577},{"province":"Papua","city":"Pegunungan Bintang","district":"Borme","urban":"Aringgon","postal_code":99577},{"province":"Papua","city":"Pegunungan Bintang","district":"Borme","urban":"Arina","postal_code":99577}]