[{"province":"Papua","city":"Pegunungan Bintang","district":"Mofinop","urban":"Yubu","postal_code":99576},{"province":"Papua","city":"Pegunungan Bintang","district":"Weime","urban":"Youlban (Yolban)","postal_code":99576},{"province":"Papua","city":"Pegunungan Bintang","district":"Nongme","urban":"Yokom","postal_code":99576},{"province":"Papua","city":"Pegunungan Bintang","district":"Nongme","urban":"Yarigon","postal_code":99576},{"province":"Papua","city":"Pegunungan Bintang","district":"Murkim","urban":"Tero","postal_code":99576},{"province":"Papua","city":"Pegunungan Bintang","district":"Mofinop","urban":"Tual","postal_code":99576},{"province":"Papua","city":"Pegunungan Bintang","district":"Weime","urban":"Weime","postal_code":99576},{"province":"Papua","city":"Pegunungan Bintang","district":"Batani","urban":"Sople","postal_code":99576},{"province":"Papua","city":"Pegunungan Bintang","district":"Weime","urban":"Taramlu","postal_code":99576},{"province":"Papua","city":"Pegunungan Bintang","district":"Batani","urban":"Segame","postal_code":99576},{"province":"Papua","city":"Pegunungan Bintang","district":"Batom","urban":"Sabi","postal_code":99576},{"province":"Papua","city":"Pegunungan Bintang","district":"Nongme","urban":"Rubol","postal_code":99576},{"province":"Papua","city":"Pegunungan Bintang","district":"Batom","urban":"Peteng","postal_code":99576},{"province":"Papua","city":"Pegunungan Bintang","district":"Batani","urban":"Palur Satu","postal_code":99576},{"province":"Papua","city":"Pegunungan Bintang","district":"Batom","urban":"Oksip","postal_code":99576},{"province":"Papua","city":"Pegunungan Bintang","district":"Nongme","urban":"Omtamur","postal_code":99576},{"province":"Papua","city":"Pegunungan Bintang","district":"Batani","urban":"Palur Dua","postal_code":99576},{"province":"Papua","city":"Pegunungan Bintang","district":"Nongme","urban":"Nongme","postal_code":99576},{"province":"Papua","city":"Pegunungan Bintang","district":"Weime","urban":"Nomteren","postal_code":99576},{"province":"Papua","city":"Pegunungan Bintang","district":"Batom","urban":"Neep","postal_code":99576},{"province":"Papua","city":"Pegunungan Bintang","district":"Mofinop","urban":"Muara Asbi","postal_code":99576},{"province":"Papua","city":"Pegunungan Bintang","district":"Batom","urban":"Mongham (Mogham)","postal_code":99576},{"province":"Papua","city":"Pegunungan Bintang","district":"Batom","urban":"Muara","postal_code":99576},{"province":"Papua","city":"Pegunungan Bintang","district":"Mofinop","urban":"Mot / Moot","postal_code":99576},{"province":"Papua","city":"Pegunungan Bintang","district":"Mofinop","urban":"Milki","postal_code":99576},{"province":"Papua","city":"Pegunungan Bintang","district":"Weime","urban":"Meryang","postal_code":99576},{"province":"Papua","city":"Pegunungan Bintang","district":"Weime","urban":"Limrepasikne","postal_code":99576},{"province":"Papua","city":"Pegunungan Bintang","district":"Weime","urban":"Mekdamgon","postal_code":99576},{"province":"Papua","city":"Pegunungan Bintang","district":"Weime","urban":"Merpasikne","postal_code":99576},{"province":"Papua","city":"Pegunungan Bintang","district":"Nongme","urban":"Kwarban","postal_code":99576},{"province":"Papua","city":"Pegunungan Bintang","district":"Batani","urban":"Karye / Kariye","postal_code":99576},{"province":"Papua","city":"Pegunungan Bintang","district":"Murkim","urban":"Delemo","postal_code":99576},{"province":"Papua","city":"Pegunungan Bintang","district":"Weime","urban":"Daluban","postal_code":99576},{"province":"Papua","city":"Pegunungan Bintang","district":"Nongme","urban":"Cangpally","postal_code":99576},{"province":"Papua","city":"Pegunungan Bintang","district":"Murkim","urban":"Bumi","postal_code":99576},{"province":"Papua","city":"Pegunungan Bintang","district":"Murkim","urban":"Bias","postal_code":99576},{"province":"Papua","city":"Pegunungan Bintang","district":"Batom","urban":"Belomo","postal_code":99576},{"province":"Papua","city":"Pegunungan Bintang","district":"Batom","urban":"Batom","postal_code":99576},{"province":"Papua","city":"Pegunungan Bintang","district":"Batom","urban":"Batom Dua","postal_code":99576},{"province":"Papua","city":"Pegunungan Bintang","district":"Batani","urban":"Bakata","postal_code":99576},{"province":"Papua","city":"Pegunungan Bintang","district":"Batani","urban":"Batani","postal_code":99576},{"province":"Papua","city":"Pegunungan Bintang","district":"Batom","urban":"Akyako","postal_code":99576},{"province":"Papua","city":"Pegunungan Bintang","district":"Batom","urban":"Abukerom","postal_code":99576}]