[{"province":"Papua","city":"Yalimo","district":"Elelim","urban":"Yabema","postal_code":99584},{"province":"Papua","city":"Yalimo","district":"Elelim","urban":"Yakikma","postal_code":99584},{"province":"Papua","city":"Yalimo","district":"Elelim","urban":"Werekma","postal_code":99584},{"province":"Papua","city":"Yalimo","district":"Elelim","urban":"Wara","postal_code":99584},{"province":"Papua","city":"Yalimo","district":"Elelim","urban":"Warikma","postal_code":99584},{"province":"Papua","city":"Yalimo","district":"Elelim","urban":"Wasua","postal_code":99584},{"province":"Papua","city":"Yalimo","district":"Elelim","urban":"Wagagu","postal_code":99584},{"province":"Papua","city":"Yalimo","district":"Elelim","urban":"Walkep","postal_code":99584},{"province":"Papua","city":"Yalimo","district":"Elelim","urban":"Tanabasi","postal_code":99584},{"province":"Papua","city":"Yalimo","district":"Elelim","urban":"Ubi","postal_code":99584},{"province":"Papua","city":"Yalimo","district":"Elelim","urban":"Ulo","postal_code":99584},{"province":"Papua","city":"Yalimo","district":"Elelim","urban":"Sira","postal_code":99584},{"province":"Papua","city":"Yalimo","district":"Elelim","urban":"Sowi","postal_code":99584},{"province":"Papua","city":"Yalimo","district":"Elelim","urban":"Subuiruinggama","postal_code":99584},{"province":"Papua","city":"Yalimo","district":"Elelim","urban":"Sipsoi","postal_code":99584},{"province":"Papua","city":"Yalimo","district":"Elelim","urban":"Sipson","postal_code":99584},{"province":"Papua","city":"Yalimo","district":"Elelim","urban":"Pungkahik","postal_code":99584},{"province":"Papua","city":"Yalimo","district":"Elelim","urban":"Sili","postal_code":99584},{"province":"Papua","city":"Yalimo","district":"Elelim","urban":"Pisireg","postal_code":99584},{"province":"Papua","city":"Yalimo","district":"Elelim","urban":"Pihel","postal_code":99584},{"province":"Papua","city":"Yalimo","district":"Elelim","urban":"Pirip","postal_code":99584},{"province":"Papua","city":"Yalimo","district":"Elelim","urban":"Pangkik","postal_code":99584},{"province":"Papua","city":"Yalimo","district":"Elelim","urban":"Pasimbolo","postal_code":99584},{"province":"Papua","city":"Yalimo","district":"Elelim","urban":"Ohobam","postal_code":99584},{"province":"Papua","city":"Yalimo","district":"Elelim","urban":"Ohoniam","postal_code":99584},{"province":"Papua","city":"Yalimo","district":"Elelim","urban":"Momonhusi","postal_code":99584},{"province":"Papua","city":"Yalimo","district":"Elelim","urban":"Lapora","postal_code":99584},{"province":"Papua","city":"Yalimo","district":"Elelim","urban":"Maribu","postal_code":99584},{"province":"Papua","city":"Yalimo","district":"Elelim","urban":"Molinggi","postal_code":99584},{"province":"Papua","city":"Yalimo","district":"Elelim","urban":"Keron","postal_code":99584},{"province":"Papua","city":"Yalimo","district":"Elelim","urban":"Kwikma","postal_code":99584},{"province":"Papua","city":"Yalimo","district":"Elelim","urban":"Honita","postal_code":99584},{"province":"Papua","city":"Yalimo","district":"Elelim","urban":"Isila","postal_code":99584},{"province":"Papua","city":"Yalimo","district":"Elelim","urban":"Hobakma","postal_code":99584},{"province":"Papua","city":"Yalimo","district":"Elelim","urban":"Holani","postal_code":99584},{"province":"Papua","city":"Yalimo","district":"Elelim","urban":"Habiyeambut","postal_code":99584},{"province":"Papua","city":"Yalimo","district":"Elelim","urban":"Helabu","postal_code":99584},{"province":"Papua","city":"Yalimo","district":"Elelim","urban":"Hesmat","postal_code":99584},{"province":"Papua","city":"Yalimo","district":"Elelim","urban":"Emon","postal_code":99584},{"province":"Papua","city":"Yalimo","district":"Elelim","urban":"Eregi","postal_code":99584},{"province":"Papua","city":"Yalimo","district":"Elelim","urban":"Elelim Satu","postal_code":99584},{"province":"Papua","city":"Yalimo","district":"Elelim","urban":"Elilem","postal_code":99584},{"province":"Papua","city":"Yalimo","district":"Elelim","urban":"Duwong","postal_code":99584},{"province":"Papua","city":"Yalimo","district":"Elelim","urban":"Aluis","postal_code":99584}]