[{"province":"Papua","city":"Yahukimo","district":"Walma","urban":"Yetehup","postal_code":99582},{"province":"Papua","city":"Yahukimo","district":"Duram","urban":"Yaminikma","postal_code":99582},{"province":"Papua","city":"Yahukimo","district":"Panggema","urban":"Yangkali","postal_code":99582},{"province":"Papua","city":"Yahukimo","district":"Nipsan","urban":"Yalmun","postal_code":99582},{"province":"Papua","city":"Yahukimo","district":"Ubalihi","urban":"Wisomy (Wisomi)","postal_code":99582},{"province":"Papua","city":"Yahukimo","district":"Talambo","urban":"Wubri","postal_code":99582},{"province":"Papua","city":"Yahukimo","district":"Anggruk","urban":"Yaholikma","postal_code":99582},{"province":"Papua","city":"Yahukimo","district":"Walma","urban":"Wewasi","postal_code":99582},{"province":"Papua","city":"Yahukimo","district":"Walma","urban":"Wewasi","postal_code":99582},{"province":"Papua","city":"Yahukimo","district":"Walma","urban":"Werene","postal_code":99582},{"province":"Papua","city":"Yahukimo","district":"Walma","urban":"Weri","postal_code":99582},{"province":"Papua","city":"Yahukimo","district":"Panggema","urban":"Weresili","postal_code":99582},{"province":"Papua","city":"Yahukimo","district":"Nipsan","urban":"Walmak","postal_code":99582},{"province":"Papua","city":"Yahukimo","district":"Ubalihi","urban":"Wanan (Wanam)","postal_code":99582},{"province":"Papua","city":"Yahukimo","district":"Ubahak","urban":"Welile","postal_code":99582},{"province":"Papua","city":"Yahukimo","district":"Walma","urban":"Walma","postal_code":99582},{"province":"Papua","city":"Yahukimo","district":"Ubalihi","urban":"Walahan","postal_code":99582},{"province":"Papua","city":"Yahukimo","district":"Anggruk","urban":"Vuno","postal_code":99582},{"province":"Papua","city":"Yahukimo","district":"Kosarek","urban":"Wahe","postal_code":99582},{"province":"Papua","city":"Yahukimo","district":"Ubalihi","urban":"Ubalihion","postal_code":99582},{"province":"Papua","city":"Yahukimo","district":"Ubahak","urban":"Ubahak","postal_code":99582},{"province":"Papua","city":"Yahukimo","district":"Kosarek","urban":"Uldam","postal_code":99582},{"province":"Papua","city":"Yahukimo","district":"Anggruk","urban":"Tulpa","postal_code":99582},{"province":"Papua","city":"Yahukimo","district":"Panggema","urban":"Tonggoi","postal_code":99582},{"province":"Papua","city":"Yahukimo","district":"Panggema","urban":"Tukam","postal_code":99582},{"province":"Papua","city":"Yahukimo","district":"Anggruk","urban":"Tohong","postal_code":99582},{"province":"Papua","city":"Yahukimo","district":"Ubahak","urban":"Tolombing","postal_code":99582},{"province":"Papua","city":"Yahukimo","district":"Kosarek","urban":"Tiple","postal_code":99582},{"province":"Papua","city":"Yahukimo","district":"Nipsan","urban":"Tapla","postal_code":99582},{"province":"Papua","city":"Yahukimo","district":"Ubalihi","urban":"Talambela (Talempela)","postal_code":99582},{"province":"Papua","city":"Yahukimo","district":"Talambo","urban":"Tibul (Timbul)","postal_code":99582},{"province":"Papua","city":"Yahukimo","district":"Endomen","urban":"Suron","postal_code":99582},{"province":"Papua","city":"Yahukimo","district":"Panggema","urban":"Susek","postal_code":99582},{"province":"Papua","city":"Yahukimo","district":"Anggruk","urban":"Suahi","postal_code":99582},{"province":"Papua","city":"Yahukimo","district":"Ubahak","urban":"Sosonikma (Sosomikma)","postal_code":99582},{"province":"Papua","city":"Yahukimo","district":"Ubahak","urban":"Suhuntek","postal_code":99582},{"province":"Papua","city":"Yahukimo","district":"Pronggoli (Proggoli)","urban":"Siwikma","postal_code":99582},{"province":"Papua","city":"Yahukimo","district":"Walma","urban":"Solinggul (Solingul)","postal_code":99582},{"province":"Papua","city":"Yahukimo","district":"Ubahak","urban":"Silong","postal_code":99582},{"province":"Papua","city":"Yahukimo","district":"Kosarek","urban":"Silkom","postal_code":99582},{"province":"Papua","city":"Yahukimo","district":"Nipsan","urban":"Serengan","postal_code":99582},{"province":"Papua","city":"Yahukimo","district":"Dirwemna (Diruwena)","urban":"Silion","postal_code":99582},{"province":"Papua","city":"Yahukimo","district":"Endomen","urban":"Sentul","postal_code":99582},{"province":"Papua","city":"Yahukimo","district":"Ubalihi","urban":"Sehelu","postal_code":99582},{"province":"Papua","city":"Yahukimo","district":"Puldama","urban":"Semlu","postal_code":99582},{"province":"Papua","city":"Yahukimo","district":"Ubalihi","urban":"Samiyul","postal_code":99582},{"province":"Papua","city":"Yahukimo","district":"Ubahak","urban":"Saruk","postal_code":99582},{"province":"Papua","city":"Yahukimo","district":"Dirwemna (Diruwena)","urban":"Salengkomo","postal_code":99582},{"province":"Papua","city":"Yahukimo","district":"Ubalihi","urban":"Salakma","postal_code":99582},{"province":"Papua","city":"Yahukimo","district":"Puldama","urban":"Puldama","postal_code":99582},{"province":"Papua","city":"Yahukimo","district":"Hereapini (Hereanini)","urban":"Pue","postal_code":99582},{"province":"Papua","city":"Yahukimo","district":"Pronggoli (Proggoli)","urban":"Pontempilik (Pontenpelek)","postal_code":99582},{"province":"Papua","city":"Yahukimo","district":"Pronggoli (Proggoli)","urban":"Pronggoli","postal_code":99582},{"province":"Papua","city":"Yahukimo","district":"Panggema","urban":"Potenikma (Pontenikma)","postal_code":99582},{"province":"Papua","city":"Yahukimo","district":"Pronggoli (Proggoli)","urban":"Piliam","postal_code":99582},{"province":"Papua","city":"Yahukimo","district":"Anggruk","urban":"Pilong","postal_code":99582},{"province":"Papua","city":"Yahukimo","district":"Ubahak","urban":"Pini","postal_code":99582},{"province":"Papua","city":"Yahukimo","district":"Panggema","urban":"Panggema","postal_code":99582},{"province":"Papua","city":"Yahukimo","district":"Talambo","urban":"Palukae","postal_code":99582},{"province":"Papua","city":"Yahukimo","district":"Hereapini (Hereanini)","urban":"Pelentum (Palentum)","postal_code":99582},{"province":"Papua","city":"Yahukimo","district":"Anggruk","urban":"Paliptek","postal_code":99582},{"province":"Papua","city":"Yahukimo","district":"Talambo","urban":"Paleroman","postal_code":99582},{"province":"Papua","city":"Yahukimo","district":"Endomen","urban":"Oklahama","postal_code":99582},{"province":"Papua","city":"Yahukimo","district":"Hereapini (Hereanini)","urban":"Ohena","postal_code":99582},{"province":"Papua","city":"Yahukimo","district":"Nipsan","urban":"Nipsan","postal_code":99582},{"province":"Papua","city":"Yahukimo","district":"Ubahak","urban":"Nurap","postal_code":99582},{"province":"Papua","city":"Yahukimo","district":"Ubahak","urban":"Oblin","postal_code":99582},{"province":"Papua","city":"Yahukimo","district":"Duram","urban":"Niniwi","postal_code":99582},{"province":"Papua","city":"Yahukimo","district":"Hereapini (Hereanini)","urban":"Nelisa","postal_code":99582},{"province":"Papua","city":"Yahukimo","district":"Nalca","urban":"Nalca","postal_code":99582},{"province":"Papua","city":"Yahukimo","district":"Hereapini (Hereanini)","urban":"Muhumu","postal_code":99582},{"province":"Papua","city":"Yahukimo","district":"Kosarek","urban":"Mine","postal_code":99582},{"province":"Papua","city":"Yahukimo","district":"Kosarek","urban":"Nahomas","postal_code":99582},{"province":"Papua","city":"Yahukimo","district":"Ubalihi","urban":"Membaham (Mimbaham)","postal_code":99582},{"province":"Papua","city":"Yahukimo","district":"Hereapini (Hereanini)","urban":"Menetsing","postal_code":99582},{"province":"Papua","city":"Yahukimo","district":"Nalca","urban":"Manggona","postal_code":99582},{"province":"Papua","city":"Yahukimo","district":"Ubahak","urban":"Maniek","postal_code":99582},{"province":"Papua","city":"Yahukimo","district":"Panggema","urban":"Masahan","postal_code":99582},{"province":"Papua","city":"Yahukimo","district":"Ubahak","urban":"Mabien","postal_code":99582},{"province":"Papua","city":"Yahukimo","district":"Puldama","urban":"Manbolak","postal_code":99582},{"province":"Papua","city":"Yahukimo","district":"Talambo","urban":"Lulum","postal_code":99582},{"province":"Papua","city":"Yahukimo","district":"Nalca","urban":"Luwemna","postal_code":99582},{"province":"Papua","city":"Yahukimo","district":"Pronggoli (Proggoli)","urban":"Lirutek","postal_code":99582},{"province":"Papua","city":"Yahukimo","district":"Talambo","urban":"Lelambo Dua (II)","postal_code":99582},{"province":"Papua","city":"Yahukimo","district":"Anggruk","urban":"Letin","postal_code":99582},{"province":"Papua","city":"Yahukimo","district":"Ubalihi","urban":"Letfet","postal_code":99582},{"province":"Papua","city":"Yahukimo","district":"Anggruk","urban":"Lelambo","postal_code":99582},{"province":"Papua","city":"Yahukimo","district":"Talambo","urban":"Lelambo","postal_code":99582},{"province":"Papua","city":"Yahukimo","district":"Endomen","urban":"Kouwet","postal_code":99582},{"province":"Papua","city":"Yahukimo","district":"Panggema","urban":"Kuni","postal_code":99582},{"province":"Papua","city":"Yahukimo","district":"Kosarek","urban":"Konosa","postal_code":99582},{"province":"Papua","city":"Yahukimo","district":"Kosarek","urban":"Kosarek","postal_code":99582},{"province":"Papua","city":"Yahukimo","district":"Ubahak","urban":"Koluang","postal_code":99582},{"province":"Papua","city":"Yahukimo","district":"Kona","urban":"Kona (Konda)","postal_code":99582},{"province":"Papua","city":"Yahukimo","district":"Anggruk","urban":"Kiltam","postal_code":99582},{"province":"Papua","city":"Yahukimo","district":"Panggema","urban":"Kolu","postal_code":99582},{"province":"Papua","city":"Yahukimo","district":"Hereapini (Hereanini)","urban":"Kinkun","postal_code":99582},{"province":"Papua","city":"Yahukimo","district":"Ubahak","urban":"Kibianggen","postal_code":99582},{"province":"Papua","city":"Yahukimo","district":"Talambo","urban":"Kikila","postal_code":99582},{"province":"Papua","city":"Yahukimo","district":"Ubahak","urban":"Keleng","postal_code":99582},{"province":"Papua","city":"Yahukimo","district":"Panggema","urban":"Kemumanggen","postal_code":99582},{"province":"Papua","city":"Yahukimo","district":"Puldama","urban":"Kasen","postal_code":99582},{"province":"Papua","city":"Yahukimo","district":"Hereapini (Hereanini)","urban":"Kabukal","postal_code":99582},{"province":"Papua","city":"Yahukimo","district":"Nalca","urban":"Imsekla","postal_code":99582},{"province":"Papua","city":"Yahukimo","district":"Nipsan","urban":"Ilukdamon","postal_code":99582},{"province":"Papua","city":"Yahukimo","district":"Anggruk","urban":"Ilwap","postal_code":99582},{"province":"Papua","city":"Yahukimo","district":"Nipsan","urban":"Ikmu","postal_code":99582},{"province":"Papua","city":"Yahukimo","district":"Kosarek","urban":"Illion","postal_code":99582},{"province":"Papua","city":"Yahukimo","district":"Pronggoli (Proggoli)","urban":"Huhulpunu","postal_code":99582},{"province":"Papua","city":"Yahukimo","district":"Walma","urban":"Hontulun","postal_code":99582},{"province":"Papua","city":"Yahukimo","district":"Panggema","urban":"Homtongo","postal_code":99582},{"province":"Papua","city":"Yahukimo","district":"Walma","urban":"Honggoluk","postal_code":99582},{"province":"Papua","city":"Yahukimo","district":"Kosarek","urban":"Hombuka","postal_code":99582},{"province":"Papua","city":"Yahukimo","district":"Anggruk","urban":"Hohe","postal_code":99582},{"province":"Papua","city":"Yahukimo","district":"Hereapini (Hereanini)","urban":"Homboki","postal_code":99582},{"province":"Papua","city":"Yahukimo","district":"Pronggoli (Proggoli)","urban":"Hiklahin","postal_code":99582},{"province":"Papua","city":"Yahukimo","district":"Hereapini (Hereanini)","urban":"Hoet","postal_code":99582},{"province":"Papua","city":"Yahukimo","district":"Ubalihi","urban":"Hereki (Hereky)","postal_code":99582},{"province":"Papua","city":"Yahukimo","district":"Hereapini (Hereanini)","urban":"Hereapini (Heriapini)","postal_code":99582},{"province":"Papua","city":"Yahukimo","district":"Pronggoli (Proggoli)","urban":"Helapilik","postal_code":99582},{"province":"Papua","city":"Yahukimo","district":"Nalca","urban":"Hein","postal_code":99582},{"province":"Papua","city":"Yahukimo","district":"Duram","urban":"Goak","postal_code":99582},{"province":"Papua","city":"Yahukimo","district":"Ubahak","urban":"Furuluk","postal_code":99582},{"province":"Papua","city":"Yahukimo","district":"Endomen","urban":"Galsin","postal_code":99582},{"province":"Papua","city":"Yahukimo","district":"Endomen","urban":"Gidomen","postal_code":99582},{"province":"Papua","city":"Yahukimo","district":"Nalca","urban":"Emm","postal_code":99582},{"province":"Papua","city":"Yahukimo","district":"Endomen","urban":"Endomen","postal_code":99582},{"province":"Papua","city":"Yahukimo","district":"Puldama","urban":"Famek","postal_code":99582},{"province":"Papua","city":"Yahukimo","district":"Dirwemna (Diruwena)","urban":"Dirwemna","postal_code":99582},{"province":"Papua","city":"Yahukimo","district":"Dirwemna (Diruwena)","urban":"Dolsen","postal_code":99582},{"province":"Papua","city":"Yahukimo","district":"Duram","urban":"Duram","postal_code":99582},{"province":"Papua","city":"Yahukimo","district":"Duram","urban":"Dengat","postal_code":99582},{"province":"Papua","city":"Yahukimo","district":"Duram","urban":"Digitme","postal_code":99582},{"province":"Papua","city":"Yahukimo","district":"Endomen","urban":"Delon","postal_code":99582},{"province":"Papua","city":"Yahukimo","district":"Nalca","urban":"Bolda","postal_code":99582},{"province":"Papua","city":"Yahukimo","district":"Nalca","urban":"Cenderawasih","postal_code":99582},{"province":"Papua","city":"Yahukimo","district":"Nipsan","urban":"Biu","postal_code":99582},{"province":"Papua","city":"Yahukimo","district":"Ubahak","urban":"Bisifak","postal_code":99582},{"province":"Papua","city":"Yahukimo","district":"Panggema","urban":"Bineluk","postal_code":99582},{"province":"Papua","city":"Yahukimo","district":"Puldama","urban":"Baru","postal_code":99582},{"province":"Papua","city":"Yahukimo","district":"Talambo","urban":"Bari","postal_code":99582},{"province":"Papua","city":"Yahukimo","district":"Puldama","urban":"Balsek","postal_code":99582},{"province":"Papua","city":"Yahukimo","district":"Puldama","urban":"Bako","postal_code":99582},{"province":"Papua","city":"Yahukimo","district":"Dirwemna (Diruwena)","urban":"Aksal","postal_code":99582}]