[{"province":"Papua","city":"Merauke","district":"Tubang","urban":"Yowit (Yowied)","postal_code":99654},{"province":"Papua","city":"Merauke","district":"Tubang","urban":"Woboyo","postal_code":99654},{"province":"Papua","city":"Merauke","district":"Ngguti (Nggunti)","urban":"Yawimu","postal_code":99654},{"province":"Papua","city":"Merauke","district":"Okaba","urban":"Wambi","postal_code":99654},{"province":"Papua","city":"Merauke","district":"Tubang","urban":"Wamal","postal_code":99654},{"province":"Papua","city":"Merauke","district":"Tubang","urban":"Welbuti","postal_code":99654},{"province":"Papua","city":"Merauke","district":"Ngguti (Nggunti)","urban":"Taga Epe","postal_code":99654},{"province":"Papua","city":"Merauke","district":"Okaba","urban":"Sanggase","postal_code":99654},{"province":"Papua","city":"Merauke","district":"Ngguti (Nggunti)","urban":"Po Epe","postal_code":99654},{"province":"Papua","city":"Merauke","district":"Ngguti (Nggunti)","urban":"Salamepe (Salam-Epe)","postal_code":99654},{"province":"Papua","city":"Merauke","district":"Okaba","urban":"Okaba","postal_code":99654},{"province":"Papua","city":"Merauke","district":"Ngguti (Nggunti)","urban":"Nakias","postal_code":99654},{"province":"Papua","city":"Merauke","district":"Kaptel","urban":"Kanis Kobat","postal_code":99654},{"province":"Papua","city":"Merauke","district":"Kaptel","urban":"Kaptel","postal_code":99654},{"province":"Papua","city":"Merauke","district":"Kaptel","urban":"Kwemzied (Kwemzid)","postal_code":99654},{"province":"Papua","city":"Merauke","district":"Okaba","urban":"Makaling","postal_code":99654},{"province":"Papua","city":"Merauke","district":"Kaptel","urban":"Ihalik","postal_code":99654},{"province":"Papua","city":"Merauke","district":"Okaba","urban":"Iwol","postal_code":99654},{"province":"Papua","city":"Merauke","district":"Okaba","urban":"Dufmira (Dufmiraf)","postal_code":99654},{"province":"Papua","city":"Merauke","district":"Tubang","urban":"Dokib","postal_code":99654},{"province":"Papua","city":"Merauke","district":"Tubang","urban":"Dodalim","postal_code":99654},{"province":"Papua","city":"Merauke","district":"Okaba","urban":"Alaku","postal_code":99654},{"province":"Papua","city":"Merauke","district":"Okaba","urban":"Alatep (Alatepi)","postal_code":99654}]