[{"province":"Papua","city":"Merauke","district":"Eligobel","urban":"Tof-Tof (Taftof)","postal_code":99652},{"province":"Papua","city":"Merauke","district":"Muting","urban":"Wan (Waan)","postal_code":99652},{"province":"Papua","city":"Merauke","district":"Eligobel","urban":"Tanas (Tanaas)","postal_code":99652},{"province":"Papua","city":"Merauke","district":"Ulilin","urban":"Selil","postal_code":99652},{"province":"Papua","city":"Merauke","district":"Muting","urban":"Sigabel Jaya","postal_code":99652},{"province":"Papua","city":"Merauke","district":"Eligobel","urban":"Sipias","postal_code":99652},{"province":"Papua","city":"Merauke","district":"Muting","urban":"Seed Agung (Sedayu Agung Prasasti)","postal_code":99652},{"province":"Papua","city":"Merauke","district":"Muting","urban":"Selauw","postal_code":99652},{"province":"Papua","city":"Merauke","district":"Ulilin","urban":"Nggayu","postal_code":99652},{"province":"Papua","city":"Merauke","district":"Ulilin","urban":"Rawahayu","postal_code":99652},{"province":"Papua","city":"Merauke","district":"Muting","urban":"Pachas","postal_code":99652},{"province":"Papua","city":"Merauke","district":"Muting","urban":"Muting","postal_code":99652},{"province":"Papua","city":"Merauke","district":"Muting","urban":"Manway Bob (Man Wai Bob)","postal_code":99652},{"province":"Papua","city":"Merauke","district":"Eligobel","urban":"Metaat Makmur (Mantaat Makmur)","postal_code":99652},{"province":"Papua","city":"Merauke","district":"Ulilin","urban":"Mandekman","postal_code":99652},{"province":"Papua","city":"Merauke","district":"Eligobel","urban":"Kweel","postal_code":99652},{"province":"Papua","city":"Merauke","district":"Ulilin","urban":"Kumaaf","postal_code":99652},{"province":"Papua","city":"Merauke","district":"Ulilin","urban":"Kireli","postal_code":99652},{"province":"Papua","city":"Merauke","district":"Muting","urban":"Kolam","postal_code":99652},{"province":"Papua","city":"Merauke","district":"Ulilin","urban":"Kandrakai","postal_code":99652},{"province":"Papua","city":"Merauke","district":"Ulilin","urban":"Kandrakai","postal_code":99652},{"province":"Papua","city":"Merauke","district":"Eligobel","urban":"Geriser (Gerisar)","postal_code":99652},{"province":"Papua","city":"Merauke","district":"Ulilin","urban":"Kafyamke","postal_code":99652},{"province":"Papua","city":"Merauke","district":"Muting","urban":"Enggol Jaya (Elanggol Jaya)","postal_code":99652},{"province":"Papua","city":"Merauke","district":"Eligobel","urban":"Enggal Jaya","postal_code":99652},{"province":"Papua","city":"Merauke","district":"Muting","urban":"Efkab Makmur (Metaat Makmur)","postal_code":99652},{"province":"Papua","city":"Merauke","district":"Eligobel","urban":"Bupul","postal_code":99652},{"province":"Papua","city":"Merauke","district":"Eligobel","urban":"Bupul Indah","postal_code":99652},{"province":"Papua","city":"Merauke","district":"Eligobel","urban":"Bunggay","postal_code":99652},{"province":"Papua","city":"Merauke","district":"Eligobel","urban":"Bouwer","postal_code":99652},{"province":"Papua","city":"Merauke","district":"Eligobel","urban":"Bumun","postal_code":99652},{"province":"Papua","city":"Merauke","district":"Muting","urban":"Boha","postal_code":99652},{"province":"Papua","city":"Merauke","district":"Ulilin","urban":"Baidub","postal_code":99652},{"province":"Papua","city":"Merauke","district":"Ulilin","urban":"Belbeland","postal_code":99652},{"province":"Papua","city":"Merauke","district":"Muting","urban":"Andaito","postal_code":99652}]