[{"province":"Papua","city":"Merauke","district":"Jagebob","urban":"Wenda Asri","postal_code":99656},{"province":"Papua","city":"Merauke","district":"Sota","urban":"Yanggandur","postal_code":99656},{"province":"Papua","city":"Merauke","district":"Animha","urban":"Wayau (Wayao/Wajau)","postal_code":99656},{"province":"Papua","city":"Merauke","district":"Kurik","urban":"Telaga Sari","postal_code":99656},{"province":"Papua","city":"Merauke","district":"Sota","urban":"Toray (Torray)","postal_code":99656},{"province":"Papua","city":"Merauke","district":"Kurik","urban":"Sumber Mulia","postal_code":99656},{"province":"Papua","city":"Merauke","district":"Kurik","urban":"Sumber Rejeki","postal_code":99656},{"province":"Papua","city":"Merauke","district":"Malind","urban":"Suka Maju","postal_code":99656},{"province":"Papua","city":"Merauke","district":"Sota","urban":"Sota","postal_code":99656},{"province":"Papua","city":"Merauke","district":"Animha","urban":"Senegi","postal_code":99656},{"province":"Papua","city":"Merauke","district":"Malind","urban":"Rawasari","postal_code":99656},{"province":"Papua","city":"Merauke","district":"Kurik","urban":"Salor Indah","postal_code":99656},{"province":"Papua","city":"Merauke","district":"Sota","urban":"Rawa Biru","postal_code":99656},{"province":"Papua","city":"Merauke","district":"Jagebob","urban":"Poo","postal_code":99656},{"province":"Papua","city":"Merauke","district":"Malind","urban":"Onggari","postal_code":99656},{"province":"Papua","city":"Merauke","district":"Malind","urban":"Padang Raharja","postal_code":99656},{"province":"Papua","city":"Merauke","district":"Jagebob","urban":"Nalkin","postal_code":99656},{"province":"Papua","city":"Merauke","district":"Jagebob","urban":"Obathrow","postal_code":99656},{"province":"Papua","city":"Merauke","district":"Jagebob","urban":"Melin Megikar","postal_code":99656},{"province":"Papua","city":"Merauke","district":"Jagebob","urban":"Mimi Baru","postal_code":99656},{"province":"Papua","city":"Merauke","district":"Jagebob","urban":"Makarti Jaya","postal_code":99656},{"province":"Papua","city":"Merauke","district":"Kurik","urban":"Kurik","postal_code":99656},{"province":"Papua","city":"Merauke","district":"Malind","urban":"Kumbe","postal_code":99656},{"province":"Papua","city":"Merauke","district":"Animha","urban":"Koa","postal_code":99656},{"province":"Papua","city":"Merauke","district":"Jagebob","urban":"Kamno Sari","postal_code":99656},{"province":"Papua","city":"Merauke","district":"Jagebob","urban":"Kartini","postal_code":99656},{"province":"Papua","city":"Merauke","district":"Kurik","urban":"Kaliki","postal_code":99656},{"province":"Papua","city":"Merauke","district":"Malind","urban":"Kaiburse (Kaliburse)","postal_code":99656},{"province":"Papua","city":"Merauke","district":"Animha","urban":"Kaisah","postal_code":99656},{"province":"Papua","city":"Merauke","district":"Jagebob","urban":"Jemunaen Jaya (Jemunaim Jaya)","postal_code":99656},{"province":"Papua","city":"Merauke","district":"Kurik","urban":"Jaya Makmur","postal_code":99656},{"province":"Papua","city":"Merauke","district":"Kurik","urban":"Ivi Mahad","postal_code":99656},{"province":"Papua","city":"Merauke","district":"Jagebob","urban":"Jagebob Raya","postal_code":99656},{"province":"Papua","city":"Merauke","district":"Kurik","urban":"Harapan Makmur","postal_code":99656},{"province":"Papua","city":"Merauke","district":"Sota","urban":"Erambu","postal_code":99656},{"province":"Papua","city":"Merauke","district":"Jagebob","urban":"Gurinda Jaya","postal_code":99656},{"province":"Papua","city":"Merauke","district":"Malind","urban":"Domande","postal_code":99656},{"province":"Papua","city":"Merauke","district":"Animha","urban":"Baad","postal_code":99656},{"province":"Papua","city":"Merauke","district":"Jagebob","urban":"Blandin Kakayo","postal_code":99656},{"province":"Papua","city":"Merauke","district":"Jagebob","urban":"Angger Parmegi (Permegi)","postal_code":99656}]