[{"province":"Papua","city":"Merauke","district":"Tabonji","urban":"Yamuka","postal_code":99655},{"province":"Papua","city":"Merauke","district":"Tabonji","urban":"Yeraha","postal_code":99655},{"province":"Papua","city":"Merauke","district":"Ilyawab","urban":"Wogekel (Wogikel)","postal_code":99655},{"province":"Papua","city":"Merauke","district":"Kimaam","urban":"Woner","postal_code":99655},{"province":"Papua","city":"Merauke","district":"Waan","urban":"Wetau","postal_code":99655},{"province":"Papua","city":"Merauke","district":"Tabonji","urban":"Wanggambi","postal_code":99655},{"province":"Papua","city":"Merauke","district":"Ilyawab","urban":"Wanam","postal_code":99655},{"province":"Papua","city":"Merauke","district":"Kimaam","urban":"Wanam Kem","postal_code":99655},{"province":"Papua","city":"Merauke","district":"Waan","urban":"Waan (Wan)","postal_code":99655},{"province":"Papua","city":"Merauke","district":"Kimaam","urban":"Turiram","postal_code":99655},{"province":"Papua","city":"Merauke","district":"Waan","urban":"Tor","postal_code":99655},{"province":"Papua","city":"Merauke","district":"Kimaam","urban":"Teri","postal_code":99655},{"province":"Papua","city":"Merauke","district":"Tabonji","urban":"Tabonji","postal_code":99655},{"province":"Papua","city":"Merauke","district":"Waan","urban":"Sibenda","postal_code":99655},{"province":"Papua","city":"Merauke","district":"Tabonji","urban":"Suam","postal_code":99655},{"province":"Papua","city":"Merauke","district":"Kimaam","urban":"Sabudom (Sabudon)","postal_code":99655},{"province":"Papua","city":"Merauke","district":"Waan","urban":"Sabon","postal_code":99655},{"province":"Papua","city":"Merauke","district":"Ilyawab","urban":"Padua","postal_code":99655},{"province":"Papua","city":"Merauke","district":"Kimaam","urban":"Mambum (Mambai)","postal_code":99655},{"province":"Papua","city":"Merauke","district":"Waan","urban":"Konorau","postal_code":99655},{"province":"Papua","city":"Merauke","district":"Kimaam","urban":"Kumbis","postal_code":99655},{"province":"Papua","city":"Merauke","district":"Tabonji","urban":"Konjombando","postal_code":99655},{"province":"Papua","city":"Merauke","district":"Kimaam","urban":"Komolom","postal_code":99655},{"province":"Papua","city":"Merauke","district":"Waan","urban":"Kladar","postal_code":99655},{"province":"Papua","city":"Merauke","district":"Kimaam","urban":"Kiworo","postal_code":99655},{"province":"Papua","city":"Merauke","district":"Waan","urban":"Kawe","postal_code":99655},{"province":"Papua","city":"Merauke","district":"Kimaam","urban":"Kalilam","postal_code":99655},{"province":"Papua","city":"Merauke","district":"Kimaam","urban":"Kaimaan (Kimaam)","postal_code":99655},{"province":"Papua","city":"Merauke","district":"Tabonji","urban":"Iromoro","postal_code":99655},{"province":"Papua","city":"Merauke","district":"Kimaam","urban":"Deka","postal_code":99655},{"province":"Papua","city":"Merauke","district":"Ilyawab","urban":"Bibikem","postal_code":99655},{"province":"Papua","city":"Merauke","district":"Kimaam","urban":"Banli","postal_code":99655},{"province":"Papua","city":"Merauke","district":"Tabonji","urban":"Bamol Satu (I)","postal_code":99655},{"province":"Papua","city":"Merauke","district":"Tabonji","urban":"Bamol Dua (II)","postal_code":99655}]