[{"province":"Papua","city":"Boven Digoel","district":"Yaniruma","urban":"Yaniruma","postal_code":99664},{"province":"Papua","city":"Boven Digoel","district":"Waropko","urban":"Winiktit","postal_code":99664},{"province":"Papua","city":"Boven Digoel","district":"Waropko","urban":"Wombon","postal_code":99664},{"province":"Papua","city":"Boven Digoel","district":"Kombay","urban":"Yafufla","postal_code":99664},{"province":"Papua","city":"Boven Digoel","district":"Waropko","urban":"Waropko","postal_code":99664},{"province":"Papua","city":"Boven Digoel","district":"Kombay","urban":"Wanggemalo","postal_code":99664},{"province":"Papua","city":"Boven Digoel","district":"Waropko","urban":"Wametkapa","postal_code":99664},{"province":"Papua","city":"Boven Digoel","district":"Ninati","urban":"Upyetetko","postal_code":99664},{"province":"Papua","city":"Boven Digoel","district":"Waropko","urban":"Upkim","postal_code":99664},{"province":"Papua","city":"Boven Digoel","district":"Kombay","urban":"Ugo","postal_code":99664},{"province":"Papua","city":"Boven Digoel","district":"Ninati","urban":"Tembutka","postal_code":99664},{"province":"Papua","city":"Boven Digoel","district":"Ninati","urban":"Timka","postal_code":99664},{"province":"Papua","city":"Boven Digoel","district":"Kombay","urban":"Sinimburu","postal_code":99664},{"province":"Papua","city":"Boven Digoel","district":"Ambatkwi (Ambatkui)","urban":"Kuken","postal_code":99664},{"province":"Papua","city":"Boven Digoel","district":"Ninati","urban":"Ninati","postal_code":99664},{"province":"Papua","city":"Boven Digoel","district":"Yaniruma","urban":"Manggemakhe (Manggemahe)","postal_code":99664},{"province":"Papua","city":"Boven Digoel","district":"Ambatkwi (Ambatkui)","urban":"Klofkamp (Kolopkam)","postal_code":99664},{"province":"Papua","city":"Boven Digoel","district":"Ninati","urban":"Kawaktembut","postal_code":99664},{"province":"Papua","city":"Boven Digoel","district":"Waropko","urban":"Kanggewot","postal_code":99664},{"province":"Papua","city":"Boven Digoel","district":"Waropko","urban":"Ikcan","postal_code":99664},{"province":"Papua","city":"Boven Digoel","district":"Waropko","urban":"Inggembit (Enggembit)","postal_code":99664},{"province":"Papua","city":"Boven Digoel","district":"Waropko","urban":"Jetetkun / Yetetkun","postal_code":99664},{"province":"Papua","city":"Boven Digoel","district":"Yaniruma","urban":"Fefero (Fefeko)","postal_code":99664},{"province":"Papua","city":"Boven Digoel","district":"Kombay","urban":"Dema","postal_code":99664},{"province":"Papua","city":"Boven Digoel","district":"Ambatkwi (Ambatkui)","urban":"Awaken (Nyum)","postal_code":99664},{"province":"Papua","city":"Boven Digoel","district":"Ambatkwi (Ambatkui)","urban":"Anyumka","postal_code":99664},{"province":"Papua","city":"Boven Digoel","district":"Ambatkwi (Ambatkui)","urban":"Arimbit","postal_code":99664}]