[{"province":"Papua","city":"Boven Digoel","district":"Bomakia","urban":"Uni","postal_code":99663},{"province":"Papua","city":"Boven Digoel","district":"Arimop","urban":"Ujung","postal_code":99663},{"province":"Papua","city":"Boven Digoel","district":"Bomakia","urban":"Somi","postal_code":99663},{"province":"Papua","city":"Boven Digoel","district":"Mandobo","urban":"Sohokanggo (Sokanggo)","postal_code":99663},{"province":"Papua","city":"Boven Digoel","district":"Fofi","urban":"Sadar","postal_code":99663},{"province":"Papua","city":"Boven Digoel","district":"Fofi","urban":"Sohokanggo","postal_code":99663},{"province":"Papua","city":"Boven Digoel","district":"Fofi","urban":"Navini","postal_code":99663},{"province":"Papua","city":"Boven Digoel","district":"Mandobo","urban":"Persatuan","postal_code":99663},{"province":"Papua","city":"Boven Digoel","district":"Arimop","urban":"Patriot","postal_code":99663},{"province":"Papua","city":"Boven Digoel","district":"Mandobo","urban":"Mariam","postal_code":99663},{"province":"Papua","city":"Boven Digoel","district":"Mandobo","urban":"Mawan","postal_code":99663},{"province":"Papua","city":"Boven Digoel","district":"Fofi","urban":"Makmur","postal_code":99663},{"province":"Papua","city":"Boven Digoel","district":"Kouh","urban":"Mandobo","postal_code":99663},{"province":"Papua","city":"Boven Digoel","district":"Fofi","urban":"Hello","postal_code":99663},{"province":"Papua","city":"Boven Digoel","district":"Arimop","urban":"Maju","postal_code":99663},{"province":"Papua","city":"Boven Digoel","district":"Fofi","urban":"Hamkhu","postal_code":99663},{"province":"Papua","city":"Boven Digoel","district":"Arimop","urban":"Ginggimop (Ginggimob)","postal_code":99663},{"province":"Papua","city":"Boven Digoel","district":"Bomakia","urban":"Bomakia Satu (I)","postal_code":99663},{"province":"Papua","city":"Boven Digoel","district":"Fofi","urban":"Domo","postal_code":99663},{"province":"Papua","city":"Boven Digoel","district":"Arimop","urban":"Bukit","postal_code":99663},{"province":"Papua","city":"Boven Digoel","district":"Bomakia","urban":"Bomakia Dua (II)","postal_code":99663},{"province":"Papua","city":"Boven Digoel","district":"Fofi","urban":"Bangun","postal_code":99663},{"province":"Papua","city":"Boven Digoel","district":"Arimop","urban":"Aroa","postal_code":99663},{"province":"Papua","city":"Boven Digoel","district":"Arimop","urban":"Arimbet","postal_code":99663},{"province":"Papua","city":"Boven Digoel","district":"Mandobo","urban":"Ampera","postal_code":99663},{"province":"Papua","city":"Boven Digoel","district":"Bomakia","urban":"Aifo","postal_code":99663}]