[{"province":"Papua","city":"Boven Digoel","district":"Ki","urban":"Watemu","postal_code":99661},{"province":"Papua","city":"Boven Digoel","district":"Subur","urban":"Waghai (Bhakti)","postal_code":99661},{"province":"Papua","city":"Boven Digoel","district":"Ki","urban":"Ujungkia","postal_code":99661},{"province":"Papua","city":"Boven Digoel","district":"Ki","urban":"Obinangge","postal_code":99661},{"province":"Papua","city":"Boven Digoel","district":"Subur","urban":"Subur","postal_code":99661},{"province":"Papua","city":"Boven Digoel","district":"Jair","urban":"Miri","postal_code":99661},{"province":"Papua","city":"Boven Digoel","district":"Ki","urban":"Metto","postal_code":99661},{"province":"Papua","city":"Boven Digoel","district":"Jair","urban":"Kapogu","postal_code":99661},{"province":"Papua","city":"Boven Digoel","district":"Subur","urban":"Kaisa (Kaisah)","postal_code":99661},{"province":"Papua","city":"Boven Digoel","district":"Kouh","urban":"Jair","postal_code":99661},{"province":"Papua","city":"Boven Digoel","district":"Jair","urban":"Butiptiri","postal_code":99661},{"province":"Papua","city":"Boven Digoel","district":"Jair","urban":"Getentiri","postal_code":99661},{"province":"Papua","city":"Boven Digoel","district":"Jair","urban":"Anggai","postal_code":99661},{"province":"Papua","city":"Boven Digoel","district":"Jair","urban":"Asiki","postal_code":99661},{"province":"Papua","city":"Boven Digoel","district":"Subur","urban":"Aiwat","postal_code":99661}]