[{"province":"Papua","city":"Boven Digoel","district":"Sesnuk","urban":"Yomkondo","postal_code":99662},{"province":"Papua","city":"Boven Digoel","district":"Iniyandit","urban":"Wariktop (Wariktoop)","postal_code":99662},{"province":"Papua","city":"Boven Digoel","district":"Mindiptana","urban":"Umap","postal_code":99662},{"province":"Papua","city":"Boven Digoel","district":"Mindiptana","urban":"Wanggat Kibi","postal_code":99662},{"province":"Papua","city":"Boven Digoel","district":"Sesnuk","urban":"Sesnuk","postal_code":99662},{"province":"Papua","city":"Boven Digoel","district":"Mindiptana","urban":"Tinggam","postal_code":99662},{"province":"Papua","city":"Boven Digoel","district":"Iniyandit","urban":"Tetop","postal_code":99662},{"province":"Papua","city":"Boven Digoel","district":"Mindiptana","urban":"Osso","postal_code":99662},{"province":"Papua","city":"Boven Digoel","district":"Iniyandit","urban":"Ogenetan (Ogenathan)","postal_code":99662},{"province":"Papua","city":"Boven Digoel","district":"Mindiptana","urban":"Niyimbang","postal_code":99662},{"province":"Papua","city":"Boven Digoel","district":"Kombut","urban":"Mokbiran","postal_code":99662},{"province":"Papua","city":"Boven Digoel","district":"Mindiptana","urban":"Mindiptana","postal_code":99662},{"province":"Papua","city":"Boven Digoel","district":"Iniyandit","urban":"Langgoan","postal_code":99662},{"province":"Papua","city":"Boven Digoel","district":"Kombut","urban":"Kawangtet","postal_code":99662},{"province":"Papua","city":"Boven Digoel","district":"Mindiptana","urban":"Kamka","postal_code":99662},{"province":"Papua","city":"Boven Digoel","district":"Sesnuk","urban":"Kanggup","postal_code":99662},{"province":"Papua","city":"Boven Digoel","district":"Mindiptana","urban":"Epsembit","postal_code":99662},{"province":"Papua","city":"Boven Digoel","district":"Mindiptana","urban":"Imko","postal_code":99662},{"province":"Papua","city":"Boven Digoel","district":"Mindiptana","urban":"Kakuna","postal_code":99662},{"province":"Papua","city":"Boven Digoel","district":"Kombut","urban":"Awayanka","postal_code":99662},{"province":"Papua","city":"Boven Digoel","district":"Mindiptana","urban":"Awayanka","postal_code":99662},{"province":"Papua","city":"Boven Digoel","district":"Iniyandit","urban":"Autriop","postal_code":99662},{"province":"Papua","city":"Boven Digoel","district":"Sesnuk","urban":"Anggamburan","postal_code":99662},{"province":"Papua","city":"Boven Digoel","district":"Mindiptana","urban":"Anggumbit","postal_code":99662},{"province":"Papua","city":"Boven Digoel","district":"Mindiptana","urban":"Andopbit","postal_code":99662},{"province":"Papua","city":"Boven Digoel","district":"Kombut","urban":"Amuan","postal_code":99662},{"province":"Papua","city":"Boven Digoel","district":"Sesnuk","urban":"Amboran","postal_code":99662}]