[{"province":"Papua","city":"Boven Digoel","district":"Kawagit","urban":"Wanggom","postal_code":99665},{"province":"Papua","city":"Boven Digoel","district":"Firiwage","urban":"Waliburu","postal_code":99665},{"province":"Papua","city":"Boven Digoel","district":"Kawagit","urban":"Niop","postal_code":99665},{"province":"Papua","city":"Boven Digoel","district":"Manggelum","urban":"Mangga Tiga","postal_code":99665},{"province":"Papua","city":"Boven Digoel","district":"Manggelum","urban":"Manggelum","postal_code":99665},{"province":"Papua","city":"Boven Digoel","district":"Kouh","urban":"Kouh","postal_code":99665},{"province":"Papua","city":"Boven Digoel","district":"Manggelum","urban":"Kewam","postal_code":99665},{"province":"Papua","city":"Boven Digoel","district":"Kawagit","urban":"Kombai","postal_code":99665},{"province":"Papua","city":"Boven Digoel","district":"Firiwage","urban":"Karuwage","postal_code":99665},{"province":"Papua","city":"Boven Digoel","district":"Firiwage","urban":"Karuwage","postal_code":99665},{"province":"Papua","city":"Boven Digoel","district":"Manggelum","urban":"Gaguop","postal_code":99665},{"province":"Papua","city":"Boven Digoel","district":"Firiwage","urban":"Firiwage","postal_code":99665},{"province":"Papua","city":"Boven Digoel","district":"Firiwage","urban":"Kabuwage","postal_code":99665},{"province":"Papua","city":"Boven Digoel","district":"Manggelum","urban":"Burunggop","postal_code":99665},{"province":"Papua","city":"Boven Digoel","district":"Kawagit","urban":"Biwage","postal_code":99665},{"province":"Papua","city":"Boven Digoel","district":"Kawagit","urban":"Biwage Dua","postal_code":99665},{"province":"Papua","city":"Boven Digoel","district":"Manggelum","urban":"Bayanggop","postal_code":99665}]