[{"province":"Papua","city":"Asmat","district":"Suator","urban":"Wowi","postal_code":99766},{"province":"Papua","city":"Asmat","district":"Kolf Braza","urban":"Woutu Brasa","postal_code":99766},{"province":"Papua","city":"Asmat","district":"Kolf Braza","urban":"Woutu Kolof","postal_code":99766},{"province":"Papua","city":"Asmat","district":"Suator","urban":"Waijens","postal_code":99766},{"province":"Papua","city":"Asmat","district":"Suator","urban":"Waganu Dua","postal_code":99766},{"province":"Papua","city":"Asmat","district":"Suator","urban":"Wagabus","postal_code":99766},{"province":"Papua","city":"Asmat","district":"Suator","urban":"Wabak","postal_code":99766},{"province":"Papua","city":"Asmat","district":"Suator","urban":"Vakam Dua","postal_code":99766},{"province":"Papua","city":"Asmat","district":"Kolf Braza","urban":"Ulakin","postal_code":99766},{"province":"Papua","city":"Asmat","district":"Suator","urban":"Vakam","postal_code":99766},{"province":"Papua","city":"Asmat","district":"Suator","urban":"Ujung Batu","postal_code":99766},{"province":"Papua","city":"Asmat","district":"Suator","urban":"Soray / Sorai","postal_code":99766},{"province":"Papua","city":"Asmat","district":"Suator","urban":"Somnak","postal_code":99766},{"province":"Papua","city":"Asmat","district":"Kolf Braza","urban":"Sipenap / Sipanap (Asarep)","postal_code":99766},{"province":"Papua","city":"Asmat","district":"Kolf Braza","urban":"Pirabanak","postal_code":99766},{"province":"Papua","city":"Asmat","district":"Kolf Braza","urban":"Patipi (Patippi)","postal_code":99766},{"province":"Papua","city":"Asmat","district":"Kolf Braza","urban":"Pepera","postal_code":99766},{"province":"Papua","city":"Asmat","district":"Kolf Braza","urban":"Mabul","postal_code":99766},{"province":"Papua","city":"Asmat","district":"Suator","urban":"Nagatun","postal_code":99766},{"province":"Papua","city":"Asmat","district":"Suator","urban":"Kapayap Tiga","postal_code":99766},{"province":"Papua","city":"Asmat","district":"Suator","urban":"Karbis","postal_code":99766},{"province":"Papua","city":"Asmat","district":"Suator","urban":"Kapayap Satu","postal_code":99766},{"province":"Papua","city":"Asmat","district":"Suator","urban":"Kapayap Dua","postal_code":99766},{"province":"Papua","city":"Asmat","district":"Suator","urban":"Emnam","postal_code":99766},{"province":"Papua","city":"Asmat","district":"Suator","urban":"Jinak","postal_code":99766},{"province":"Papua","city":"Asmat","district":"Suator","urban":"Daikot","postal_code":99766},{"province":"Papua","city":"Asmat","district":"Suator","urban":"Dekamor / Dekamer","postal_code":99766},{"province":"Papua","city":"Asmat","district":"Kolf Braza","urban":"Butukatnau","postal_code":99766},{"province":"Papua","city":"Asmat","district":"Suator","urban":"Burbis","postal_code":99766},{"province":"Papua","city":"Asmat","district":"Suator","urban":"Bor","postal_code":99766},{"province":"Papua","city":"Asmat","district":"Suator","urban":"Bubis","postal_code":99766},{"province":"Papua","city":"Asmat","district":"Suator","urban":"Bumu","postal_code":99766},{"province":"Papua","city":"Asmat","district":"Suator","urban":"Binam","postal_code":99766},{"province":"Papua","city":"Asmat","district":"Kolf Braza","urban":"Binamsain","postal_code":99766},{"province":"Papua","city":"Asmat","district":"Suator","urban":"Ayak","postal_code":99766},{"province":"Papua","city":"Asmat","district":"Suator","urban":"Banum","postal_code":99766},{"province":"Papua","city":"Asmat","district":"Kolf Braza","urban":"Auban","postal_code":99766},{"province":"Papua","city":"Asmat","district":"Suator","urban":"Amakot","postal_code":99766}]