[{"province":"Papua","city":"Asmat","district":"Suru-suru","urban":"Yensuku (Jesenko)","postal_code":99778},{"province":"Papua","city":"Asmat","district":"Joerat","urban":"Yamas","postal_code":99778},{"province":"Papua","city":"Asmat","district":"Joerat","urban":"Yeni / Yemi","postal_code":99778},{"province":"Papua","city":"Asmat","district":"Unir Sirau","urban":"Werer (Warer)","postal_code":99778},{"province":"Papua","city":"Asmat","district":"Pulau Tiga","urban":"Weo","postal_code":99778},{"province":"Papua","city":"Asmat","district":"Pulau Tiga","urban":"Yakapis","postal_code":99778},{"province":"Papua","city":"Asmat","district":"Suru-suru","urban":"Walase","postal_code":99778},{"province":"Papua","city":"Asmat","district":"Suru-suru","urban":"Tomor","postal_code":99778},{"province":"Papua","city":"Asmat","district":"Sawa Erma","urban":"Sona","postal_code":99778},{"province":"Papua","city":"Asmat","district":"Suru-suru","urban":"Suru-Suru","postal_code":99778},{"province":"Papua","city":"Asmat","district":"Suru-suru","urban":"Tii","postal_code":99778},{"province":"Papua","city":"Asmat","district":"Sawa Erma","urban":"Sawa","postal_code":99778},{"province":"Papua","city":"Asmat","district":"Suru-suru","urban":"Se (See)","postal_code":99778},{"province":"Papua","city":"Asmat","district":"Sawa Erma","urban":"Sauti","postal_code":99778},{"province":"Papua","city":"Asmat","district":"Suru-suru","urban":"Sagapu","postal_code":99778},{"province":"Papua","city":"Asmat","district":"Suru-suru","urban":"Salbik","postal_code":99778},{"province":"Papua","city":"Asmat","district":"Unir Sirau","urban":"Paar","postal_code":99778},{"province":"Papua","city":"Asmat","district":"Joerat","urban":"Onavai","postal_code":99778},{"province":"Papua","city":"Asmat","district":"Sawa Erma","urban":"Pupis","postal_code":99778},{"province":"Papua","city":"Asmat","district":"Suru-suru","urban":"Obio","postal_code":99778},{"province":"Papua","city":"Asmat","district":"Joerat","urban":"Omor","postal_code":99778},{"province":"Papua","city":"Asmat","district":"Pulau Tiga","urban":"Nakai","postal_code":99778},{"province":"Papua","city":"Asmat","district":"Unir Sirau","urban":"Munu","postal_code":99778},{"province":"Papua","city":"Asmat","district":"Sawa Erma","urban":"Mumugu Dua","postal_code":99778},{"province":"Papua","city":"Asmat","district":"Sawa Erma","urban":"Mumugu","postal_code":99778},{"province":"Papua","city":"Asmat","district":"Suru-suru","urban":"Laluk","postal_code":99778},{"province":"Papua","city":"Asmat","district":"Suru-suru","urban":"Linduk","postal_code":99778},{"province":"Papua","city":"Asmat","district":"Unir Sirau","urban":"Komor","postal_code":99778},{"province":"Papua","city":"Asmat","district":"Suru-suru","urban":"Koba","postal_code":99778},{"province":"Papua","city":"Asmat","district":"Suru-suru","urban":"Korobuk","postal_code":99778},{"province":"Papua","city":"Asmat","district":"Suru-suru","urban":"Kebikduk","postal_code":99778},{"province":"Papua","city":"Asmat","district":"Suru-suru","urban":"Katalina","postal_code":99778},{"province":"Papua","city":"Asmat","district":"Suru-suru","urban":"Jifak","postal_code":99778},{"province":"Papua","city":"Asmat","district":"Pulau Tiga","urban":"Kapi","postal_code":99778},{"province":"Papua","city":"Asmat","district":"Unir Sirau","urban":"Jipawer (Yipawer)","postal_code":99778},{"province":"Papua","city":"Asmat","district":"Suru-suru","urban":"Hom-hom","postal_code":99778},{"province":"Papua","city":"Asmat","district":"Suru-suru","urban":"Hulam","postal_code":99778},{"province":"Papua","city":"Asmat","district":"Pulau Tiga","urban":"Fumeripit","postal_code":99778},{"province":"Papua","city":"Asmat","district":"Pulau Tiga","urban":"Eroko","postal_code":99778},{"province":"Papua","city":"Asmat","district":"Pulau Tiga","urban":"Esmapan","postal_code":99778},{"province":"Papua","city":"Asmat","district":"Suru-suru","urban":"Dumaten","postal_code":99778},{"province":"Papua","city":"Asmat","district":"Sawa Erma","urban":"Er","postal_code":99778},{"province":"Papua","city":"Asmat","district":"Sawa Erma","urban":"Erma","postal_code":99778},{"province":"Papua","city":"Asmat","district":"Sawa Erma","urban":"Bu","postal_code":99778},{"province":"Papua","city":"Asmat","district":"Suru-suru","urban":"Besika","postal_code":99778},{"province":"Papua","city":"Asmat","district":"Unir Sirau","urban":"Berip / Birip","postal_code":99778},{"province":"Papua","city":"Asmat","district":"Suru-suru","urban":"Berimono","postal_code":99778},{"province":"Papua","city":"Asmat","district":"Pulau Tiga","urban":"Atat","postal_code":99778},{"province":"Papua","city":"Asmat","district":"Unir Sirau","urban":"Ayir","postal_code":99778},{"province":"Papua","city":"Asmat","district":"Pulau Tiga","urban":"As","postal_code":99778},{"province":"Papua","city":"Asmat","district":"Suru-suru","urban":"Asgun","postal_code":99778},{"province":"Papua","city":"Asmat","district":"Pulau Tiga","urban":"Aou","postal_code":99778},{"province":"Papua","city":"Asmat","district":"Pulau Tiga","urban":"Aoep","postal_code":99778},{"province":"Papua","city":"Asmat","district":"Unir Sirau","urban":"Amor","postal_code":99778},{"province":"Papua","city":"Asmat","district":"Suru-suru","urban":"Ajin","postal_code":99778},{"province":"Papua","city":"Asmat","district":"Sawa Erma","urban":"Agani","postal_code":99778},{"province":"Papua","city":"Asmat","district":"Unir Sirau","urban":"Abamu","postal_code":99778}]