[{"province":"Papua","city":"Asmat","district":"Der Koumur","urban":"Yerfum","postal_code":99773},{"province":"Papua","city":"Asmat","district":"Safan","urban":"Yaptambor","postal_code":99773},{"province":"Papua","city":"Asmat","district":"Der Koumur","urban":"Yamkap (Yankap)","postal_code":99773},{"province":"Papua","city":"Asmat","district":"Pantai Kasuari","urban":"Yagamit","postal_code":99773},{"province":"Papua","city":"Asmat","district":"Pantai Kasuari","urban":"Yahui (Yahoi)","postal_code":99773},{"province":"Papua","city":"Asmat","district":"Kopay","urban":"Wagasu","postal_code":99773},{"province":"Papua","city":"Asmat","district":"Safan","urban":"Tereo / Tareo (Taero)","postal_code":99773},{"province":"Papua","city":"Asmat","district":"Der Koumur","urban":"Suagai / Suwagai (Suwa)","postal_code":99773},{"province":"Papua","city":"Asmat","district":"Der Koumur","urban":"Sohomane","postal_code":99773},{"province":"Papua","city":"Asmat","district":"Kopay","urban":"Sasime","postal_code":99773},{"province":"Papua","city":"Asmat","district":"Kopay","urban":"Simipit (Sinepit)","postal_code":99773},{"province":"Papua","city":"Asmat","district":"Safan","urban":"Simsagar","postal_code":99773},{"province":"Papua","city":"Asmat","district":"Pantai Kasuari","urban":"Saramit / Seramit","postal_code":99773},{"province":"Papua","city":"Asmat","district":"Pantai Kasuari","urban":"Sarmafo","postal_code":99773},{"province":"Papua","city":"Asmat","district":"Kopay","urban":"Sapen (Airosapem)","postal_code":99773},{"province":"Papua","city":"Asmat","district":"Safan","urban":"Santabor (Santambor)","postal_code":99773},{"province":"Papua","city":"Asmat","district":"Kopay","urban":"Sanep / Sanem","postal_code":99773},{"province":"Papua","city":"Asmat","district":"Pantai Kasuari","urban":"Sanapai (Senapai)","postal_code":99773},{"province":"Papua","city":"Asmat","district":"Safan","urban":"Samendoro / Semendoro","postal_code":99773},{"province":"Papua","city":"Asmat","district":"Safan","urban":"Saman","postal_code":99773},{"province":"Papua","city":"Asmat","district":"Safan","urban":"Primapun (Firimapun/Firimapon)","postal_code":99773},{"province":"Papua","city":"Asmat","district":"Pantai Kasuari","urban":"Kamur","postal_code":99773},{"province":"Papua","city":"Asmat","district":"Kopay","urban":"Kawem","postal_code":99773},{"province":"Papua","city":"Asmat","district":"Kopay","urban":"Kaipom","postal_code":99773},{"province":"Papua","city":"Asmat","district":"Safan","urban":"Kagirim / Kairin","postal_code":99773},{"province":"Papua","city":"Asmat","district":"Safan","urban":"Jitorsok","postal_code":99773},{"province":"Papua","city":"Asmat","district":"Kopay","urban":"Heiyaram","postal_code":99773},{"province":"Papua","city":"Asmat","district":"Pantai Kasuari","urban":"Hainam","postal_code":99773},{"province":"Papua","city":"Asmat","district":"Kopay","urban":"Hahare","postal_code":99773},{"province":"Papua","city":"Asmat","district":"Pantai Kasuari","urban":"Eseib (Esaib)","postal_code":99773},{"province":"Papua","city":"Asmat","district":"Der Koumur","urban":"Ero Saman","postal_code":99773},{"province":"Papua","city":"Asmat","district":"Safan","urban":"Emene (Eumene)","postal_code":99773},{"province":"Papua","city":"Asmat","district":"Safan","urban":"Bayun","postal_code":99773},{"province":"Papua","city":"Asmat","district":"Pantai Kasuari","urban":"Bawor","postal_code":99773},{"province":"Papua","city":"Asmat","district":"Safan","urban":"Aworkey / Aworket","postal_code":99773},{"province":"Papua","city":"Asmat","district":"Der Koumur","urban":"Amkun / Amkum (Ankum)","postal_code":99773},{"province":"Papua","city":"Asmat","district":"Der Koumur","urban":"Amkai","postal_code":99773},{"province":"Papua","city":"Asmat","district":"Der Koumur","urban":"Amaru (Amoro)","postal_code":99773},{"province":"Papua","city":"Asmat","district":"Der Koumur","urban":"Amagais","postal_code":99773},{"province":"Papua","city":"Asmat","district":"Kopay","urban":"Aikut","postal_code":99773}]