[{"province":"Papua","city":"Asmat","district":"Ayip","urban":"Yefiwangi (Yefuwagi)","postal_code":99776},{"province":"Papua","city":"Asmat","district":"Sirets","urban":"Yaosakor","postal_code":99776},{"province":"Papua","city":"Asmat","district":"Betcbamu","urban":"Yauw (You)","postal_code":99776},{"province":"Papua","city":"Asmat","district":"Atsy / Atsj","urban":"Yaisu (Yasiu)","postal_code":99776},{"province":"Papua","city":"Asmat","district":"Ayip","urban":"Wagi","postal_code":99776},{"province":"Papua","city":"Asmat","district":"Betcbamu","urban":"Warkal (Warkai)","postal_code":99776},{"province":"Papua","city":"Asmat","district":"Sirets","urban":"Sakor","postal_code":99776},{"province":"Papua","city":"Asmat","district":"Sirets","urban":"Waganu","postal_code":99776},{"province":"Papua","city":"Asmat","district":"Atsy / Atsj","urban":"Sagoni / Sogoni","postal_code":99776},{"province":"Papua","city":"Asmat","district":"Ayip","urban":"Sagare","postal_code":99776},{"province":"Papua","city":"Asmat","district":"Betcbamu","urban":"Pirpis","postal_code":99776},{"province":"Papua","city":"Asmat","district":"Ayip","urban":"Mausi","postal_code":99776},{"province":"Papua","city":"Asmat","district":"Betcbamu","urban":"Omanesep","postal_code":99776},{"province":"Papua","city":"Asmat","district":"Sirets","urban":"Fos","postal_code":99776},{"province":"Papua","city":"Asmat","district":"Sirets","urban":"Kaimo","postal_code":99776},{"province":"Papua","city":"Asmat","district":"Ayip","urban":"Kawet","postal_code":99776},{"province":"Papua","city":"Asmat","district":"Sirets","urban":"Damen","postal_code":99776},{"province":"Papua","city":"Asmat","district":"Sirets","urban":"Damen","postal_code":99776},{"province":"Papua","city":"Asmat","district":"Atsy / Atsj","urban":"Cewewyamew","postal_code":99776},{"province":"Papua","city":"Asmat","district":"Ayip","urban":"Comoro","postal_code":99776},{"province":"Papua","city":"Asmat","district":"Betcbamu","urban":"Biwar Laut","postal_code":99776},{"province":"Papua","city":"Asmat","district":"Atsy / Atsj","urban":"Bipin (Bipim)","postal_code":99776},{"province":"Papua","city":"Asmat","district":"Sirets","urban":"Biwar Darat","postal_code":99776},{"province":"Papua","city":"Asmat","district":"Atsy / Atsj","urban":"Bakasei","postal_code":99776},{"province":"Papua","city":"Asmat","district":"Atsy / Atsj","urban":"Bine","postal_code":99776},{"province":"Papua","city":"Asmat","district":"Sirets","urban":"Awok","postal_code":99776},{"province":"Papua","city":"Asmat","district":"Betcbamu","urban":"Atambuts","postal_code":99776},{"province":"Papua","city":"Asmat","district":"Atsy / Atsj","urban":"Atsj (Atsy)","postal_code":99776},{"province":"Papua","city":"Asmat","district":"Atsy / Atsj","urban":"Ambisu","postal_code":99776},{"province":"Papua","city":"Asmat","district":"Atsy / Atsj","urban":"Amanamkai","postal_code":99776}]