[{"province":"Papua","city":"Asmat","district":"Joerat","urban":"Yufri (Smith)","postal_code":99777},{"province":"Papua","city":"Asmat","district":"Joerat","urban":"Yaun","postal_code":99777},{"province":"Papua","city":"Asmat","district":"Agats","urban":"Uwus","postal_code":99777},{"province":"Papua","city":"Asmat","district":"Agats","urban":"Yamoth (Yomoth)","postal_code":99777},{"province":"Papua","city":"Asmat","district":"Agats","urban":"Saw","postal_code":99777},{"province":"Papua","city":"Asmat","district":"Agats","urban":"Suwru","postal_code":99777},{"province":"Papua","city":"Asmat","district":"Agats","urban":"Mbait","postal_code":99777},{"province":"Papua","city":"Asmat","district":"Agats","urban":"Per","postal_code":99777},{"province":"Papua","city":"Asmat","district":"Agats","urban":"Briten (Biriten/Beriten)","postal_code":99777},{"province":"Papua","city":"Asmat","district":"Agats","urban":"Kaye","postal_code":99777},{"province":"Papua","city":"Asmat","district":"Agats","urban":"Bis Agats","postal_code":99777},{"province":"Papua","city":"Asmat","district":"Agats","urban":"Bisman","postal_code":99777},{"province":"Papua","city":"Asmat","district":"Agats","urban":"Bou","postal_code":99777},{"province":"Papua","city":"Asmat","district":"Jetsy","urban":"Birak","postal_code":99777},{"province":"Papua","city":"Asmat","district":"Agats","urban":"Asuwetsy","postal_code":99777},{"province":"Papua","city":"Asmat","district":"Jetsy","urban":"Akamar","postal_code":99777}]