[{"province":"Papua","city":"Mappi","district":"Venaha","urban":"Yibin","postal_code":99853},{"province":"Papua","city":"Mappi","district":"Edera","urban":"Yodom","postal_code":99853},{"province":"Papua","city":"Mappi","district":"Yakomi","urban":"Yame","postal_code":99853},{"province":"Papua","city":"Mappi","district":"Bamgi","urban":"Tagaimon Sino","postal_code":99853},{"province":"Papua","city":"Mappi","district":"Bamgi","urban":"Yeloba","postal_code":99853},{"province":"Papua","city":"Mappi","district":"Venaha","urban":"Sien","postal_code":99853},{"province":"Papua","city":"Mappi","district":"Bamgi","urban":"Tagaimon Karome","postal_code":99853},{"province":"Papua","city":"Mappi","district":"Venaha","urban":"Pies (Piyes)","postal_code":99853},{"province":"Papua","city":"Mappi","district":"Venaha","urban":"Sahapikia (Sahapikya)","postal_code":99853},{"province":"Papua","city":"Mappi","district":"Bamgi","urban":"Sibi","postal_code":99853},{"province":"Papua","city":"Mappi","district":"Venaha","urban":"Ogorito","postal_code":99853},{"province":"Papua","city":"Mappi","district":"Syahcame","urban":"Osso","postal_code":99853},{"province":"Papua","city":"Mappi","district":"Syahcame","urban":"Oghoto","postal_code":99853},{"province":"Papua","city":"Mappi","district":"Venaha","urban":"Memes","postal_code":99853},{"province":"Papua","city":"Mappi","district":"Venaha","urban":"Mopio","postal_code":99853},{"province":"Papua","city":"Mappi","district":"Bamgi","urban":"Konebi","postal_code":99853},{"province":"Papua","city":"Mappi","district":"Edera","urban":"Mememu","postal_code":99853},{"province":"Papua","city":"Mappi","district":"Syahcame","urban":"Kobeta","postal_code":99853},{"province":"Papua","city":"Mappi","district":"Yakomi","urban":"Kokoya","postal_code":99853},{"province":"Papua","city":"Mappi","district":"Syahcame","urban":"Homilikia (Homlikya)","postal_code":99853},{"province":"Papua","city":"Mappi","district":"Edera","urban":"Isyaman","postal_code":99853},{"province":"Papua","city":"Mappi","district":"Venaha","urban":"Harapan","postal_code":99853},{"province":"Papua","city":"Mappi","district":"Edera","urban":"Geturki","postal_code":99853},{"province":"Papua","city":"Mappi","district":"Edera","urban":"Gimikia (Gemikya)","postal_code":99853},{"province":"Papua","city":"Mappi","district":"Venaha","urban":"Ebeske","postal_code":99853},{"province":"Papua","city":"Mappi","district":"Venaha","urban":"Getiyo","postal_code":99853},{"province":"Papua","city":"Mappi","district":"Yakomi","urban":"Borohaba","postal_code":99853},{"province":"Papua","city":"Mappi","district":"Syahcame","urban":"Bosma","postal_code":99853},{"province":"Papua","city":"Mappi","district":"Yakomi","urban":"Benggo","postal_code":99853},{"province":"Papua","city":"Mappi","district":"Edera","urban":"Banamepe","postal_code":99853},{"province":"Papua","city":"Mappi","district":"Edera","urban":"Bade","postal_code":99853},{"province":"Papua","city":"Mappi","district":"Syahcame","urban":"Asset","postal_code":99853},{"province":"Papua","city":"Mappi","district":"Yakomi","urban":"Amk","postal_code":99853}]