[{"province":"Papua","city":"Mappi","district":"Nambioman Bapai (Mambioman)","urban":"Yatan","postal_code":99872},{"province":"Papua","city":"Mappi","district":"Nambioman Bapai (Mambioman)","urban":"Waman","postal_code":99872},{"province":"Papua","city":"Mappi","district":"Nambioman Bapai (Mambioman)","urban":"Waruwe","postal_code":99872},{"province":"Papua","city":"Mappi","district":"Nambioman Bapai (Mambioman)","urban":"Waghien/Koba (Waghain Bawah)","postal_code":99872},{"province":"Papua","city":"Mappi","district":"Nambioman Bapai (Mambioman)","urban":"Wagin","postal_code":99872},{"province":"Papua","city":"Mappi","district":"Nambioman Bapai (Mambioman)","urban":"Tereyemu (Teriyemu)","postal_code":99872},{"province":"Papua","city":"Mappi","district":"Minyamur","urban":"Taragai / Taragae","postal_code":99872},{"province":"Papua","city":"Mappi","district":"Minyamur","urban":"Upin","postal_code":99872},{"province":"Papua","city":"Mappi","district":"Minyamur","urban":"Sene","postal_code":99872},{"province":"Papua","city":"Mappi","district":"Minyamur","urban":"Sumur Aman","postal_code":99872},{"province":"Papua","city":"Mappi","district":"Minyamur","urban":"Pano","postal_code":99872},{"province":"Papua","city":"Mappi","district":"Nambioman Bapai (Mambioman)","urban":"Monana","postal_code":99872},{"province":"Papua","city":"Mappi","district":"Nambioman Bapai (Mambioman)","urban":"Mur","postal_code":99872},{"province":"Papua","city":"Mappi","district":"Nambioman Bapai (Mambioman)","urban":"Linggua","postal_code":99872},{"province":"Papua","city":"Mappi","district":"Minyamur","urban":"Komru","postal_code":99872},{"province":"Papua","city":"Mappi","district":"Nambioman Bapai (Mambioman)","urban":"Magabag / Magabak","postal_code":99872},{"province":"Papua","city":"Mappi","district":"Nambioman Bapai (Mambioman)","urban":"Kogoyaman","postal_code":99872},{"province":"Papua","city":"Mappi","district":"Nambioman Bapai (Mambioman)","urban":"Khatan / Katan","postal_code":99872},{"province":"Papua","city":"Mappi","district":"Minyamur","urban":"Kofar","postal_code":99872},{"province":"Papua","city":"Mappi","district":"Minyamur","urban":"Kogir","postal_code":99872},{"province":"Papua","city":"Mappi","district":"Minyamur","urban":"Kaumi","postal_code":99872},{"province":"Papua","city":"Mappi","district":"Minyamur","urban":"Kayagae (Kayagai)","postal_code":99872},{"province":"Papua","city":"Mappi","district":"Minyamur","urban":"Kabe","postal_code":99872},{"province":"Papua","city":"Mappi","district":"Nambioman Bapai (Mambioman)","urban":"Ima","postal_code":99872},{"province":"Papua","city":"Mappi","district":"Minyamur","urban":"Ati / Atti","postal_code":99872},{"province":"Papua","city":"Mappi","district":"Nambioman Bapai (Mambioman)","urban":"Ghanu","postal_code":99872},{"province":"Papua","city":"Mappi","district":"Nambioman Bapai (Mambioman)","urban":"Agham (Aghain)","postal_code":99872}]