[{"province":"Papua","city":"Mappi","district":"Kaibar","urban":"Yemu","postal_code":99875},{"province":"Papua","city":"Mappi","district":"Passue Bawah","urban":"Wonggi","postal_code":99875},{"province":"Papua","city":"Mappi","district":"Citakmitak","urban":"Womin","postal_code":99875},{"province":"Papua","city":"Mappi","district":"Passue Bawah","urban":"Veta","postal_code":99875},{"province":"Papua","city":"Mappi","district":"Kaibar","urban":"Tiau","postal_code":99875},{"province":"Papua","city":"Mappi","district":"Ti Zain","urban":"Tugumau","postal_code":99875},{"province":"Papua","city":"Mappi","district":"Kaibar","urban":"Tayau","postal_code":99875},{"province":"Papua","city":"Mappi","district":"Ti Zain","urban":"Tarwa","postal_code":99875},{"province":"Papua","city":"Mappi","district":"Citakmitak","urban":"Tamanim","postal_code":99875},{"province":"Papua","city":"Mappi","district":"Citakmitak","urban":"Samurukie","postal_code":99875},{"province":"Papua","city":"Mappi","district":"Citakmitak","urban":"Senggo","postal_code":99875},{"province":"Papua","city":"Mappi","district":"Ti Zain","urban":"Pier","postal_code":99875},{"province":"Papua","city":"Mappi","district":"Ti Zain","urban":"Sagis","postal_code":99875},{"province":"Papua","city":"Mappi","district":"Ti Zain","urban":"Mu","postal_code":99875},{"province":"Papua","city":"Mappi","district":"Ti Zain","urban":"Kumaban","postal_code":99875},{"province":"Papua","city":"Mappi","district":"Ti Zain","urban":"Merokima","postal_code":99875},{"province":"Papua","city":"Mappi","district":"Citakmitak","urban":"Kumasma","postal_code":99875},{"province":"Papua","city":"Mappi","district":"Passue Bawah","urban":"Keta","postal_code":99875},{"province":"Papua","city":"Mappi","district":"Kaibar","urban":"Imembi","postal_code":99875},{"province":"Papua","city":"Mappi","district":"Passue Bawah","urban":"Haku","postal_code":99875},{"province":"Papua","city":"Mappi","district":"Passue Bawah","urban":"Honya","postal_code":99875},{"province":"Papua","city":"Mappi","district":"Citakmitak","urban":"Epem","postal_code":99875},{"province":"Papua","city":"Mappi","district":"Kaibar","urban":"Fomu","postal_code":99875},{"province":"Papua","city":"Mappi","district":"Passue Bawah","urban":"Busiri","postal_code":99875},{"province":"Papua","city":"Mappi","district":"Citakmitak","urban":"Bidneu (Bidnew)","postal_code":99875},{"province":"Papua","city":"Mappi","district":"Citakmitak","urban":"Bifo","postal_code":99875},{"province":"Papua","city":"Mappi","district":"Kaibar","urban":"Binerbis","postal_code":99875},{"province":"Papua","city":"Mappi","district":"Ti Zain","urban":"Basman","postal_code":99875},{"province":"Papua","city":"Mappi","district":"Kaibar","urban":"Amasu (Amazu)","postal_code":99875},{"province":"Papua","city":"Mappi","district":"Citakmitak","urban":"Abau","postal_code":99875}]