[{"province":"Papua","city":"Mappi","district":"Obaa","urban":"Wanggate","postal_code":99871},{"province":"Papua","city":"Mappi","district":"Obaa","urban":"Yangpop","postal_code":99871},{"province":"Papua","city":"Mappi","district":"Obaa","urban":"Wairu (Mairu)","postal_code":99871},{"province":"Papua","city":"Mappi","district":"Passue","urban":"Urufu","postal_code":99871},{"province":"Papua","city":"Mappi","district":"Obaa","urban":"Tokom (Toghom)","postal_code":99871},{"province":"Papua","city":"Mappi","district":"Passue","urban":"Tokhompatu / Tokompatu (Thokompatu)","postal_code":99871},{"province":"Papua","city":"Mappi","district":"Obaa","urban":"Soba","postal_code":99871},{"province":"Papua","city":"Mappi","district":"Passue","urban":"Sepoh","postal_code":99871},{"province":"Papua","city":"Mappi","district":"Passue","urban":"Rimba Jaya (Gayu)","postal_code":99871},{"province":"Papua","city":"Mappi","district":"Obaa","urban":"Rayam","postal_code":99871},{"province":"Papua","city":"Mappi","district":"Obaa","urban":"Rep","postal_code":99871},{"province":"Papua","city":"Mappi","district":"Passue","urban":"Passue/Taim","postal_code":99871},{"province":"Papua","city":"Mappi","district":"Obaa","urban":"Piai","postal_code":99871},{"province":"Papua","city":"Mappi","district":"Obaa","urban":"Obaa","postal_code":99871},{"province":"Papua","city":"Mappi","district":"Obaa","urban":"Paedam","postal_code":99871},{"province":"Papua","city":"Mappi","district":"Passue","urban":"Nohon","postal_code":99871},{"province":"Papua","city":"Mappi","district":"Obaa","urban":"Muin","postal_code":99871},{"province":"Papua","city":"Mappi","district":"Passue","urban":"Menya","postal_code":99871},{"province":"Papua","city":"Mappi","district":"Obaa","urban":"Metim","postal_code":99871},{"province":"Papua","city":"Mappi","district":"Obaa","urban":"Mappi Bawah / Yamui","postal_code":99871},{"province":"Papua","city":"Mappi","district":"Obaa","urban":"Marbin","postal_code":99871},{"province":"Papua","city":"Mappi","district":"Obaa","urban":"Masin","postal_code":99871},{"province":"Papua","city":"Mappi","district":"Obaa","urban":"Madu","postal_code":99871},{"province":"Papua","city":"Mappi","district":"Passue","urban":"Kotiak","postal_code":99871},{"province":"Papua","city":"Mappi","district":"Obaa","urban":"Kogo","postal_code":99871},{"province":"Papua","city":"Mappi","district":"Passue","urban":"Kotup (Xotup)","postal_code":99871},{"province":"Papua","city":"Mappi","district":"Passue","urban":"Kaime","postal_code":99871},{"province":"Papua","city":"Mappi","district":"Obaa","urban":"Kepi","postal_code":99871},{"province":"Papua","city":"Mappi","district":"Obaa","urban":"Harome","postal_code":99871},{"province":"Papua","city":"Mappi","district":"Obaa","urban":"Kadam (Ayim/Oyim)","postal_code":99871},{"province":"Papua","city":"Mappi","district":"Obaa","urban":"Enem","postal_code":99871},{"province":"Papua","city":"Mappi","district":"Obaa","urban":"Gauda","postal_code":99871},{"province":"Papua","city":"Mappi","district":"Obaa","urban":"Dagimon","postal_code":99871},{"province":"Papua","city":"Mappi","district":"Obaa","urban":"Emete","postal_code":99871},{"province":"Papua","city":"Mappi","district":"Passue","urban":"Bagaram","postal_code":99871},{"province":"Papua","city":"Mappi","district":"Passue","urban":"Baitate","postal_code":99871},{"province":"Papua","city":"Mappi","district":"Passue","urban":"Afogoma","postal_code":99871}]