[{"province":"Papua","city":"Mappi","district":"Haju","urban":"Wiyage","postal_code":99881},{"province":"Papua","city":"Mappi","district":"Haju","urban":"Yagatsu","postal_code":99881},{"province":"Papua","city":"Mappi","district":"Haju","urban":"Sogophe","postal_code":99881},{"province":"Papua","city":"Mappi","district":"Haju","urban":"Warogom","postal_code":99881},{"province":"Papua","city":"Mappi","district":"Haju","urban":"Pagai","postal_code":99881},{"province":"Papua","city":"Mappi","district":"Haju","urban":"Semtaipim (Tsemtaipim)","postal_code":99881},{"province":"Papua","city":"Mappi","district":"Haju","urban":"Mani","postal_code":99881},{"province":"Papua","city":"Mappi","district":"Haju","urban":"Okor (Okoor)","postal_code":99881},{"province":"Papua","city":"Mappi","district":"Haju","urban":"Katage","postal_code":99881},{"province":"Papua","city":"Mappi","district":"Haju","urban":"Kerke","postal_code":99881},{"province":"Papua","city":"Mappi","district":"Haju","urban":"Kaibusene","postal_code":99881},{"province":"Papua","city":"Mappi","district":"Haju","urban":"Kasima","postal_code":99881},{"province":"Papua","city":"Mappi","district":"Haju","urban":"Kaibu","postal_code":99881},{"province":"Papua","city":"Mappi","district":"Haju","urban":"Atsipim","postal_code":99881},{"province":"Papua","city":"Mappi","district":"Haju","urban":"Gairipim","postal_code":99881},{"province":"Papua","city":"Mappi","district":"Haju","urban":"Amuro (Omuro)","postal_code":99881},{"province":"Papua","city":"Mappi","district":"Haju","urban":"Arare","postal_code":99881},{"province":"Papua","city":"Mappi","district":"Haju","urban":"Amenda","postal_code":99881},{"province":"Papua","city":"Mappi","district":"Haju","urban":"Amagatsu","postal_code":99881}]