[{"province":"Papua","city":"Mimika","district":"Mimika Baru","urban":"Wangirja","postal_code":99910},{"province":"Papua","city":"Mimika","district":"Mimika Baru","urban":"Wonosari Jaya","postal_code":99910},{"province":"Papua","city":"Mimika","district":"Mimika Baru","urban":"Timika Jaya","postal_code":99910},{"province":"Papua","city":"Mimika","district":"Mimika Baru","urban":"Nayaro","postal_code":99910},{"province":"Papua","city":"Mimika","district":"Mimika Baru","urban":"Nawaripi","postal_code":99910},{"province":"Papua","city":"Mimika","district":"Mimika Baru","urban":"Kwamki","postal_code":99910},{"province":"Papua","city":"Mimika","district":"Mimika Baru","urban":"Limau Asri","postal_code":99910},{"province":"Papua","city":"Mimika","district":"Mimika Baru","urban":"Kamoro Jaya","postal_code":99910},{"province":"Papua","city":"Mimika","district":"Mimika Baru","urban":"Koperapoka","postal_code":99910},{"province":"Papua","city":"Mimika","district":"Mimika Baru","urban":"Harapan","postal_code":99910},{"province":"Papua","city":"Mimika","district":"Mimika Baru","urban":"Inaoga (Inauga)","postal_code":99910}]