[{"province":"Papua","city":"Mimika","district":"Tembagapura","urban":"Waa","postal_code":99967},{"province":"Papua","city":"Mimika","district":"Tembagapura","urban":"Tembagapura","postal_code":99967},{"province":"Papua","city":"Mimika","district":"Tembagapura","urban":"Singa (T&#8217;Singa)","postal_code":99967},{"province":"Papua","city":"Mimika","district":"Tembagapura","urban":"Puti","postal_code":99967},{"province":"Papua","city":"Mimika","district":"Tembagapura","urban":"Opitawak","postal_code":99967},{"province":"Papua","city":"Mimika","district":"Tembagapura","urban":"Jinoni (Jinonin)","postal_code":99967},{"province":"Papua","city":"Mimika","district":"Tembagapura","urban":"Jagamin","postal_code":99967},{"province":"Papua","city":"Mimika","district":"Tembagapura","urban":"Hoya","postal_code":99967},{"province":"Papua","city":"Mimika","district":"Tembagapura","urban":"Ilaga","postal_code":99967},{"province":"Papua","city":"Mimika","district":"Tembagapura","urban":"Banigogom","postal_code":99967},{"province":"Papua","city":"Mimika","district":"Tembagapura","urban":"Doliningokngin","postal_code":99967},{"province":"Papua","city":"Mimika","district":"Tembagapura","urban":"Arwandop (Arwanop)","postal_code":99967}]